{
"type": "FeatureCollection",
"name": "373_DEOGARH",
"crs": { "type": "name", "properties": { "name": "urn:ogc:def:crs:OGC:1.3:CRS84" } },
"xy_coordinate_resolution": 1e-05,
"features": [
{ "type": "Feature", "properties": { "OBJECTID": 1847, "state_lgd": "21", "state_name": "ODISHA", "district_lgd": "373", "district_name": "DEOGARH", "district_name_source": "district_table", "subdistrict_lgd": "06454", "subdistrict_name": "DEOGARH", "subdistrict_type": "Tehsil", "name_corrupted": false, "remarks": "", "label_lon": 84.629989782796429, "label_lat": 21.534605014844274 }, "geometry": { "type": "Polygon", "coordinates": [ [ [ 84.66372, 21.76332 ], [ 84.66633, 21.75982 ], [ 84.67247, 21.7555 ], [ 84.6786, 21.74898 ], [ 84.675, 21.73648 ], [ 84.67615, 21.73463 ], [ 84.68006, 21.73162 ], [ 84.68716, 21.71531 ], [ 84.6913, 21.70972 ], [ 84.70305, 21.70743 ], [ 84.70825, 21.71124 ], [ 84.71257, 21.71116 ], [ 84.71346, 21.71347 ], [ 84.71803, 21.71706 ], [ 84.72186, 21.70564 ], [ 84.72976, 21.6934 ], [ 84.73274, 21.69082 ], [ 84.74001, 21.68723 ], [ 84.74676, 21.6825 ], [ 84.74695, 21.68016 ], [ 84.74386, 21.6765 ], [ 84.74377, 21.67514 ], [ 84.74153, 21.67355 ], [ 84.74109, 21.66932 ], [ 84.74587, 21.66925 ], [ 84.74685, 21.66818 ], [ 84.74722, 21.66529 ], [ 84.74925, 21.66363 ], [ 84.74935, 21.6548 ], [ 84.75329, 21.64213 ], [ 84.75246, 21.62806 ], [ 84.75742, 21.62448 ], [ 84.75952, 21.62463 ], [ 84.75439, 21.62081 ], [ 84.74856, 21.62312 ], [ 84.74377, 21.62332 ], [ 84.74116, 21.62496 ], [ 84.73614, 21.62591 ], [ 84.73404, 21.62493 ], [ 84.73007, 21.62795 ], [ 84.7266, 21.62884 ], [ 84.72239, 21.62695 ], [ 84.7237, 21.62539 ], [ 84.7233, 21.62428 ], [ 84.71944, 21.62511 ], [ 84.70921, 21.62348 ], [ 84.70287, 21.62497 ], [ 84.69751, 21.62439 ], [ 84.6949, 21.62505 ], [ 84.68457, 21.62027 ], [ 84.67995, 21.6124 ], [ 84.69056, 21.61322 ], [ 84.69093, 21.6122 ], [ 84.6886, 21.60963 ], [ 84.68286, 21.60845 ], [ 84.6785, 21.60559 ], [ 84.67367, 21.60533 ], [ 84.67039, 21.60775 ], [ 84.67018, 21.60695 ], [ 84.67441, 21.60382 ], [ 84.66611, 21.59742 ], [ 84.66532, 21.59523 ], [ 84.66654, 21.59073 ], [ 84.66848, 21.58789 ], [ 84.68433, 21.57875 ], [ 84.69387, 21.5753 ], [ 84.70363, 21.56619 ], [ 84.71982, 21.56236 ], [ 84.73316, 21.56065 ], [ 84.76044, 21.5594 ], [ 84.77219, 21.55739 ], [ 84.78208, 21.55472 ], [ 84.78845, 21.55486 ], [ 84.79055, 21.55734 ], [ 84.79132, 21.5606 ], [ 84.79095, 21.56526 ], [ 84.79399, 21.5685 ], [ 84.79868, 21.56512 ], [ 84.80406, 21.56494 ], [ 84.80472, 21.56177 ], [ 84.80619, 21.56131 ], [ 84.80689, 21.56127 ], [ 84.80815, 21.56525 ], [ 84.81475, 21.56568 ], [ 84.81566, 21.56264 ], [ 84.82764, 21.55675 ], [ 84.82698, 21.5542 ], [ 84.82785, 21.55237 ], [ 84.84236, 21.54668 ], [ 84.84441, 21.54381 ], [ 84.84717, 21.53269 ], [ 84.84609, 21.52892 ], [ 84.84076, 21.52338 ], [ 84.8408, 21.52025 ], [ 84.83652, 21.51851 ], [ 84.82777, 21.52027 ], [ 84.82214, 21.52235 ], [ 84.82314, 21.51984 ], [ 84.82277, 21.51855 ], [ 84.82139, 21.51771 ], [ 84.81888, 21.5183 ], [ 84.81913, 21.51357 ], [ 84.81774, 21.50959 ], [ 84.81766, 21.4972 ], [ 84.81525, 21.49359 ], [ 84.81695, 21.49202 ], [ 84.81638, 21.48255 ], [ 84.81758, 21.47919 ], [ 84.82138, 21.47446 ], [ 84.82347, 21.47337 ], [ 84.82874, 21.47244 ], [ 84.82935, 21.47848 ], [ 84.83726, 21.47975 ], [ 84.83867, 21.47929 ], [ 84.84273, 21.47469 ], [ 84.84904, 21.46976 ], [ 84.85013, 21.46803 ], [ 84.84975, 21.4661 ], [ 84.85065, 21.4636 ], [ 84.852, 21.46253 ], [ 84.85333, 21.45973 ], [ 84.85416, 21.46083 ], [ 84.8572, 21.46082 ], [ 84.85788, 21.46167 ], [ 84.85829, 21.46862 ], [ 84.85929, 21.47225 ], [ 84.86862, 21.47064 ], [ 84.87069, 21.46908 ], [ 84.87372, 21.46835 ], [ 84.8783, 21.46195 ], [ 84.8807, 21.46084 ], [ 84.88556, 21.46471 ], [ 84.88935, 21.4619 ], [ 84.89218, 21.46105 ], [ 84.89275, 21.45938 ], [ 84.89183, 21.45331 ], [ 84.89353, 21.45018 ], [ 84.89734, 21.44927 ], [ 84.90683, 21.45012 ], [ 84.91104, 21.44235 ], [ 84.91588, 21.44285 ], [ 84.91898, 21.44212 ], [ 84.92266, 21.43655 ], [ 84.92738, 21.4327 ], [ 84.92631, 21.42555 ], [ 84.92642, 21.42007 ], [ 84.92933, 21.41534 ], [ 84.93018, 21.41004 ], [ 84.93372, 21.4021 ], [ 84.93539, 21.39317 ], [ 84.92718, 21.39257 ], [ 84.92093, 21.39601 ], [ 84.88571, 21.39485 ], [ 84.88735, 21.39962 ], [ 84.88234, 21.40342 ], [ 84.87837, 21.40354 ], [ 84.87336, 21.40084 ], [ 84.87051, 21.40251 ], [ 84.86981, 21.40543 ], [ 84.86774, 21.40626 ], [ 84.8657, 21.40485 ], [ 84.86332, 21.40639 ], [ 84.86351, 21.40997 ], [ 84.86093, 21.41582 ], [ 84.85086, 21.41611 ], [ 84.84364, 21.41779 ], [ 84.83891, 21.41628 ], [ 84.83552, 21.41611 ], [ 84.83303, 21.41717 ], [ 84.82796, 21.41773 ], [ 84.82447, 21.41953 ], [ 84.81847, 21.4181 ], [ 84.80982, 21.41999 ], [ 84.80569, 21.41958 ], [ 84.80732, 21.42158 ], [ 84.80523, 21.42884 ], [ 84.80399, 21.4309 ], [ 84.80276, 21.4313 ], [ 84.79539, 21.43077 ], [ 84.79093, 21.4283 ], [ 84.78725, 21.43115 ], [ 84.78549, 21.42862 ], [ 84.78533, 21.42447 ], [ 84.77547, 21.42582 ], [ 84.77219, 21.4289 ], [ 84.76784, 21.43052 ], [ 84.76496, 21.43044 ], [ 84.76264, 21.42876 ], [ 84.76097, 21.42877 ], [ 84.7602, 21.42773 ], [ 84.75326, 21.42885 ], [ 84.75107, 21.42776 ], [ 84.74928, 21.4232 ], [ 84.74221, 21.4221 ], [ 84.74149, 21.42358 ], [ 84.74275, 21.42581 ], [ 84.73979, 21.42876 ], [ 84.73939, 21.43284 ], [ 84.73741, 21.43515 ], [ 84.72986, 21.4403 ], [ 84.73213, 21.44359 ], [ 84.73954, 21.44927 ], [ 84.74011, 21.44997 ], [ 84.73975, 21.45174 ], [ 84.73693, 21.45268 ], [ 84.72971, 21.45304 ], [ 84.72771, 21.45445 ], [ 84.72855, 21.45691 ], [ 84.7282, 21.46274 ], [ 84.7071, 21.46865 ], [ 84.69855, 21.46879 ], [ 84.70015, 21.47231 ], [ 84.70583, 21.47572 ], [ 84.70722, 21.47739 ], [ 84.70477, 21.48003 ], [ 84.69904, 21.48312 ], [ 84.69736, 21.48383 ], [ 84.67724, 21.48544 ], [ 84.67581, 21.47681 ], [ 84.66326, 21.4805 ], [ 84.66369, 21.4768 ], [ 84.663, 21.47545 ], [ 84.66302, 21.47036 ], [ 84.65885, 21.47245 ], [ 84.6572, 21.47234 ], [ 84.65483, 21.47405 ], [ 84.65326, 21.47307 ], [ 84.64564, 21.47634 ], [ 84.64322, 21.47621 ], [ 84.64297, 21.47246 ], [ 84.63774, 21.4689 ], [ 84.63755, 21.46669 ], [ 84.63814, 21.4662 ], [ 84.6361, 21.46441 ], [ 84.63457, 21.4604 ], [ 84.63509, 21.45867 ], [ 84.63259, 21.45674 ], [ 84.63405, 21.455 ], [ 84.63279, 21.45227 ], [ 84.62974, 21.45055 ], [ 84.62888, 21.44546 ], [ 84.62803, 21.44438 ], [ 84.62352, 21.44768 ], [ 84.61301, 21.4515 ], [ 84.60442, 21.44859 ], [ 84.60269, 21.44725 ], [ 84.59978, 21.44719 ], [ 84.59742, 21.44365 ], [ 84.59792, 21.44066 ], [ 84.59682, 21.4379 ], [ 84.5949, 21.43648 ], [ 84.59531, 21.43593 ], [ 84.59068, 21.43301 ], [ 84.59237, 21.43245 ], [ 84.59267, 21.43144 ], [ 84.5917, 21.43018 ], [ 84.59282, 21.42848 ], [ 84.59194, 21.42786 ], [ 84.59036, 21.4289 ], [ 84.59088, 21.42957 ], [ 84.5899, 21.4309 ], [ 84.58769, 21.4303 ], [ 84.58533, 21.43087 ], [ 84.58372, 21.43051 ], [ 84.58176, 21.42831 ], [ 84.57845, 21.4274 ], [ 84.57852, 21.42453 ], [ 84.57733, 21.42112 ], [ 84.57799, 21.41487 ], [ 84.57386, 21.41067 ], [ 84.5605, 21.39163 ], [ 84.54968, 21.36805 ], [ 84.54717, 21.35961 ], [ 84.54414, 21.3617 ], [ 84.54226, 21.36707 ], [ 84.54595, 21.37371 ], [ 84.54139, 21.37798 ], [ 84.53521, 21.38147 ], [ 84.53311, 21.38356 ], [ 84.52945, 21.3819 ], [ 84.51765, 21.38182 ], [ 84.5142, 21.37498 ], [ 84.51241, 21.37324 ], [ 84.51059, 21.37323 ], [ 84.50234, 21.37661 ], [ 84.49859, 21.37526 ], [ 84.50252, 21.36976 ], [ 84.5022, 21.36723 ], [ 84.5005, 21.36462 ], [ 84.49743, 21.36516 ], [ 84.48685, 21.36965 ], [ 84.48578, 21.37019 ], [ 84.48575, 21.3722 ], [ 84.48954, 21.37397 ], [ 84.49094, 21.37961 ], [ 84.49244, 21.38172 ], [ 84.48951, 21.38783 ], [ 84.48905, 21.39162 ], [ 84.48315, 21.39034 ], [ 84.47907, 21.39397 ], [ 84.47234, 21.39525 ], [ 84.46901, 21.39525 ], [ 84.46436, 21.39378 ], [ 84.4489, 21.39385 ], [ 84.44579, 21.39144 ], [ 84.43926, 21.39117 ], [ 84.43483, 21.38987 ], [ 84.42599, 21.38551 ], [ 84.42423, 21.3838 ], [ 84.41576, 21.38377 ], [ 84.40157, 21.38031 ], [ 84.40294, 21.38477 ], [ 84.39898, 21.38523 ], [ 84.39377, 21.3946 ], [ 84.39592, 21.39775 ], [ 84.39483, 21.39984 ], [ 84.39528, 21.40256 ], [ 84.3966, 21.40355 ], [ 84.39736, 21.4067 ], [ 84.3985, 21.40752 ], [ 84.39725, 21.40925 ], [ 84.39524, 21.40988 ], [ 84.39521, 21.41428 ], [ 84.39729, 21.41675 ], [ 84.39762, 21.41926 ], [ 84.39702, 21.42138 ], [ 84.39215, 21.42623 ], [ 84.3923, 21.42952 ], [ 84.39325, 21.43143 ], [ 84.39246, 21.43461 ], [ 84.39317, 21.43649 ], [ 84.3962, 21.43751 ], [ 84.40137, 21.4378 ], [ 84.40307, 21.43949 ], [ 84.40904, 21.44235 ], [ 84.4096, 21.44338 ], [ 84.40843, 21.44635 ], [ 84.4084, 21.45102 ], [ 84.41466, 21.45519 ], [ 84.41229, 21.45661 ], [ 84.41316, 21.45785 ], [ 84.41217, 21.45926 ], [ 84.41164, 21.46308 ], [ 84.40938, 21.46542 ], [ 84.40968, 21.46658 ], [ 84.40877, 21.46732 ], [ 84.40768, 21.47114 ], [ 84.40806, 21.47316 ], [ 84.40738, 21.47592 ], [ 84.41636, 21.4838 ], [ 84.42033, 21.48496 ], [ 84.42162, 21.48465 ], [ 84.42747, 21.48882 ], [ 84.43439, 21.49034 ], [ 84.4388, 21.48945 ], [ 84.4442, 21.49087 ], [ 84.44613, 21.49482 ], [ 84.44643, 21.50127 ], [ 84.44505, 21.50594 ], [ 84.44075, 21.51116 ], [ 84.44027, 21.51399 ], [ 84.44114, 21.5169 ], [ 84.44303, 21.5188 ], [ 84.44603, 21.51907 ], [ 84.45812, 21.51591 ], [ 84.45903, 21.51721 ], [ 84.46017, 21.5237 ], [ 84.46027, 21.52702 ], [ 84.4593, 21.52831 ], [ 84.4614, 21.52864 ], [ 84.46603, 21.52689 ], [ 84.46719, 21.52743 ], [ 84.4708, 21.53182 ], [ 84.4725, 21.53616 ], [ 84.47107, 21.53898 ], [ 84.47657, 21.53751 ], [ 84.48281, 21.53422 ], [ 84.4917, 21.53142 ], [ 84.49129, 21.53849 ], [ 84.4942, 21.54377 ], [ 84.49684, 21.54439 ], [ 84.5, 21.54326 ], [ 84.50348, 21.54937 ], [ 84.50362, 21.55136 ], [ 84.5, 21.55903 ], [ 84.49753, 21.56758 ], [ 84.49586, 21.56944 ], [ 84.49411, 21.57363 ], [ 84.49002, 21.57539 ], [ 84.48816, 21.57717 ], [ 84.48832, 21.57808 ], [ 84.49065, 21.57944 ], [ 84.49316, 21.57902 ], [ 84.502, 21.57615 ], [ 84.50949, 21.57223 ], [ 84.51003, 21.5816 ], [ 84.52515, 21.57485 ], [ 84.53399, 21.56833 ], [ 84.53768, 21.57145 ], [ 84.53236, 21.57739 ], [ 84.54246, 21.58367 ], [ 84.54462, 21.5837 ], [ 84.55079, 21.58062 ], [ 84.55336, 21.58022 ], [ 84.556, 21.58099 ], [ 84.56669, 21.57728 ], [ 84.56949, 21.58154 ], [ 84.564, 21.58399 ], [ 84.5585, 21.58787 ], [ 84.55792, 21.59009 ], [ 84.55657, 21.59141 ], [ 84.55334, 21.59249 ], [ 84.55005, 21.59243 ], [ 84.54466, 21.59509 ], [ 84.544, 21.59873 ], [ 84.54234, 21.60159 ], [ 84.53893, 21.60408 ], [ 84.53129, 21.6065 ], [ 84.53405, 21.6116 ], [ 84.52489, 21.62148 ], [ 84.52432, 21.62318 ], [ 84.52508, 21.62443 ], [ 84.52445, 21.62494 ], [ 84.52088, 21.62699 ], [ 84.51616, 21.62248 ], [ 84.51065, 21.62144 ], [ 84.508, 21.62433 ], [ 84.5006, 21.62429 ], [ 84.49794, 21.62663 ], [ 84.49164, 21.63509 ], [ 84.48474, 21.64021 ], [ 84.48631, 21.64388 ], [ 84.48507, 21.64502 ], [ 84.4851, 21.64835 ], [ 84.49244, 21.65366 ], [ 84.49428, 21.65872 ], [ 84.49082, 21.66418 ], [ 84.49732, 21.6775 ], [ 84.49966, 21.67999 ], [ 84.50088, 21.68367 ], [ 84.50292, 21.68607 ], [ 84.50595, 21.68753 ], [ 84.51142, 21.68661 ], [ 84.52464, 21.68117 ], [ 84.53148, 21.67926 ], [ 84.53663, 21.67872 ], [ 84.54249, 21.67966 ], [ 84.54387, 21.68114 ], [ 84.54429, 21.68457 ], [ 84.55173, 21.68595 ], [ 84.55578, 21.68495 ], [ 84.55894, 21.68906 ], [ 84.55815, 21.69422 ], [ 84.55958, 21.70096 ], [ 84.5612, 21.70184 ], [ 84.56453, 21.70191 ], [ 84.56668, 21.70323 ], [ 84.58073, 21.70244 ], [ 84.59116, 21.69785 ], [ 84.61533, 21.69878 ], [ 84.62329, 21.69691 ], [ 84.62854, 21.69809 ], [ 84.63074, 21.70021 ], [ 84.63453, 21.71033 ], [ 84.63657, 21.71374 ], [ 84.63808, 21.72314 ], [ 84.63695, 21.72939 ], [ 84.63747, 21.73376 ], [ 84.63026, 21.73714 ], [ 84.63115, 21.74018 ], [ 84.634, 21.74131 ], [ 84.64046, 21.74099 ], [ 84.6461, 21.7433 ], [ 84.64951, 21.74924 ], [ 84.64917, 21.75703 ], [ 84.6539, 21.76429 ], [ 84.65849, 21.76363 ], [ 84.66147, 21.76412 ], [ 84.66372, 21.76332 ] ], [ [ 84.87742, 21.43005 ], [ 84.88191, 21.42466 ], [ 84.88149, 21.42317 ], [ 84.88262, 21.42025 ], [ 84.88442, 21.42017 ], [ 84.88597, 21.42109 ], [ 84.88589, 21.4222 ], [ 84.88827, 21.42252 ], [ 84.88846, 21.42339 ], [ 84.88638, 21.42463 ], [ 84.88389, 21.43088 ], [ 84.87855, 21.4345 ], [ 84.87742, 21.43005 ] ] ] } },
{ "type": "Feature", "properties": { "OBJECTID": 1848, "state_lgd": "21", "state_name": "ODISHA", "district_lgd": "373", "district_name": "DEOGARH", "district_name_source": "district_table", "subdistrict_lgd": "06456", "subdistrict_name": "BARKOTE", "subdistrict_type": "Tehsil", "name_corrupted": false, "remarks": "", "label_lon": 84.961032684205776, "label_lat": 21.529307808560134 }, "geometry": { "type": "Polygon", "coordinates": [ [ [ 84.95643, 21.68435 ], [ 84.96533, 21.68294 ], [ 84.968, 21.6807 ], [ 84.97179, 21.67562 ], [ 84.97539, 21.67278 ], [ 84.97879, 21.67559 ], [ 84.98112, 21.67449 ], [ 84.98123, 21.67775 ], [ 84.98226, 21.6786 ], [ 84.98121, 21.68069 ], [ 84.98407, 21.68228 ], [ 84.98863, 21.67877 ], [ 84.99789, 21.68203 ], [ 85.00027, 21.68032 ], [ 85.00852, 21.6769 ], [ 85.01227, 21.67714 ], [ 85.022, 21.67553 ], [ 85.02505, 21.67371 ], [ 85.02934, 21.66564 ], [ 85.03088, 21.65873 ], [ 85.02948, 21.65618 ], [ 85.02615, 21.65327 ], [ 85.02765, 21.6517 ], [ 85.02957, 21.64239 ], [ 85.02948, 21.63845 ], [ 85.02806, 21.6328 ], [ 85.02966, 21.63022 ], [ 85.02938, 21.6278 ], [ 85.03272, 21.62704 ], [ 85.03471, 21.62475 ], [ 85.03696, 21.62373 ], [ 85.03939, 21.61829 ], [ 85.03723, 21.61497 ], [ 85.03726, 21.61147 ], [ 85.03516, 21.60866 ], [ 85.03751, 21.6048 ], [ 85.0382, 21.60052 ], [ 85.04297, 21.59739 ], [ 85.0438, 21.59409 ], [ 85.05112, 21.58955 ], [ 85.05451, 21.59043 ], [ 85.05697, 21.59221 ], [ 85.06039, 21.59277 ], [ 85.06507, 21.59181 ], [ 85.0662, 21.59857 ], [ 85.07232, 21.60105 ], [ 85.07533, 21.6012 ], [ 85.07622, 21.60327 ], [ 85.07733, 21.60378 ], [ 85.08387, 21.60228 ], [ 85.08621, 21.60357 ], [ 85.09201, 21.6027 ], [ 85.09462, 21.60177 ], [ 85.09671, 21.59885 ], [ 85.09847, 21.59785 ], [ 85.102, 21.59742 ], [ 85.10578, 21.59435 ], [ 85.11631, 21.59603 ], [ 85.12179, 21.59913 ], [ 85.12628, 21.59815 ], [ 85.13089, 21.59961 ], [ 85.13549, 21.59872 ], [ 85.14637, 21.59437 ], [ 85.14846, 21.59267 ], [ 85.1568, 21.59092 ], [ 85.16265, 21.59214 ], [ 85.16712, 21.5906 ], [ 85.17023, 21.59156 ], [ 85.17231, 21.59122 ], [ 85.17525, 21.58928 ], [ 85.18262, 21.59061 ], [ 85.18671, 21.59003 ], [ 85.19072, 21.58825 ], [ 85.1914, 21.58594 ], [ 85.19429, 21.58295 ], [ 85.19935, 21.58051 ], [ 85.19969, 21.57314 ], [ 85.20297, 21.57072 ], [ 85.20443, 21.56845 ], [ 85.20368, 21.56279 ], [ 85.20577, 21.56058 ], [ 85.21138, 21.55868 ], [ 85.21286, 21.55506 ], [ 85.21214, 21.55129 ], [ 85.20884, 21.54838 ], [ 85.20723, 21.54213 ], [ 85.20729, 21.5405 ], [ 85.2097, 21.53567 ], [ 85.2086, 21.53263 ], [ 85.20503, 21.53347 ], [ 85.20156, 21.53166 ], [ 85.20407, 21.52904 ], [ 85.203, 21.52164 ], [ 85.1985, 21.51544 ], [ 85.186, 21.50618 ], [ 85.1801, 21.50077 ], [ 85.18025, 21.49965 ], [ 85.17438, 21.48653 ], [ 85.1649, 21.48009 ], [ 85.16101, 21.47475 ], [ 85.16082, 21.47051 ], [ 85.15914, 21.46779 ], [ 85.15855, 21.46364 ], [ 85.15592, 21.46151 ], [ 85.1526, 21.45994 ], [ 85.15056, 21.45982 ], [ 85.14954, 21.45798 ], [ 85.14831, 21.4588 ], [ 85.14484, 21.45776 ], [ 85.14076, 21.46278 ], [ 85.13645, 21.46339 ], [ 85.13638, 21.46086 ], [ 85.13125, 21.45773 ], [ 85.11723, 21.4547 ], [ 85.10751, 21.45863 ], [ 85.07953, 21.45892 ], [ 85.07431, 21.45693 ], [ 85.07147, 21.45458 ], [ 85.06631, 21.45442 ], [ 85.06397, 21.45312 ], [ 85.06067, 21.44198 ], [ 85.05409, 21.44478 ], [ 85.05075, 21.44787 ], [ 85.0474, 21.44826 ], [ 85.04374, 21.4502 ], [ 85.03395, 21.45299 ], [ 85.02097, 21.45829 ], [ 85.02643, 21.44803 ], [ 85.01996, 21.444 ], [ 85.00823, 21.44419 ], [ 85.00573, 21.4424 ], [ 85.00296, 21.4421 ], [ 84.99964, 21.43931 ], [ 84.99737, 21.43537 ], [ 84.99856, 21.43175 ], [ 84.99643, 21.42856 ], [ 84.99557, 21.42382 ], [ 84.99403, 21.42135 ], [ 84.99468, 21.4199 ], [ 84.99211, 21.41807 ], [ 84.99183, 21.41581 ], [ 84.99295, 21.41462 ], [ 84.99185, 21.41371 ], [ 84.9924, 21.41286 ], [ 84.99183, 21.41225 ], [ 84.99279, 21.41171 ], [ 84.99214, 21.41075 ], [ 84.9945, 21.40821 ], [ 84.99332, 21.40676 ], [ 84.99466, 21.4014 ], [ 84.99804, 21.39814 ], [ 84.99999, 21.39827 ], [ 85.00003, 21.39569 ], [ 85.00294, 21.39331 ], [ 85.00374, 21.39163 ], [ 85.00332, 21.3897 ], [ 85.00551, 21.3889 ], [ 85.00653, 21.38552 ], [ 85.00614, 21.38212 ], [ 85.00766, 21.37874 ], [ 85.00652, 21.37677 ], [ 85.0073, 21.37105 ], [ 85.00617, 21.36883 ], [ 85.00776, 21.36576 ], [ 85.00654, 21.36274 ], [ 85.00897, 21.36152 ], [ 85.01024, 21.35584 ], [ 85.00792, 21.35424 ], [ 85.00698, 21.34799 ], [ 85.01002, 21.34372 ], [ 85.01266, 21.33357 ], [ 85.00827, 21.32414 ], [ 85.01074, 21.31648 ], [ 85.01476, 21.31535 ], [ 85.01524, 21.31059 ], [ 85.01834, 21.30937 ], [ 85.02129, 21.31025 ], [ 85.02671, 21.3083 ], [ 85.02942, 21.30539 ], [ 85.02962, 21.3015 ], [ 85.03408, 21.29962 ], [ 85.035, 21.29634 ], [ 85.03392, 21.29215 ], [ 85.02616, 21.29405 ], [ 85.01896, 21.29692 ], [ 85.01591, 21.29647 ], [ 85.01114, 21.29734 ], [ 85.00941, 21.29234 ], [ 85.00259, 21.28696 ], [ 84.99306, 21.28923 ], [ 84.98969, 21.28757 ], [ 84.97834, 21.28908 ], [ 84.96897, 21.29373 ], [ 84.96888, 21.30181 ], [ 84.96981, 21.30457 ], [ 84.96736, 21.30576 ], [ 84.96021, 21.30574 ], [ 84.95898, 21.30691 ], [ 84.95116, 21.30867 ], [ 84.94876, 21.30775 ], [ 84.9475, 21.30849 ], [ 84.94569, 21.30799 ], [ 84.9457, 21.30503 ], [ 84.94264, 21.30083 ], [ 84.94061, 21.2997 ], [ 84.93974, 21.30138 ], [ 84.93418, 21.30457 ], [ 84.93414, 21.30531 ], [ 84.93619, 21.30602 ], [ 84.93662, 21.30689 ], [ 84.93315, 21.30989 ], [ 84.92339, 21.30472 ], [ 84.9218, 21.30494 ], [ 84.91987, 21.30692 ], [ 84.91782, 21.312 ], [ 84.92773, 21.31272 ], [ 84.92947, 21.31555 ], [ 84.92559, 21.31873 ], [ 84.92619, 21.3221 ], [ 84.92564, 21.32305 ], [ 84.9185, 21.32273 ], [ 84.91746, 21.32293 ], [ 84.91642, 21.32469 ], [ 84.9212, 21.32546 ], [ 84.92245, 21.32632 ], [ 84.91997, 21.32906 ], [ 84.91752, 21.32924 ], [ 84.91847, 21.33225 ], [ 84.91749, 21.33865 ], [ 84.91647, 21.33929 ], [ 84.91461, 21.33849 ], [ 84.91129, 21.34023 ], [ 84.90958, 21.34224 ], [ 84.90609, 21.34378 ], [ 84.91016, 21.34562 ], [ 84.91399, 21.34859 ], [ 84.91849, 21.34935 ], [ 84.92034, 21.35086 ], [ 84.92074, 21.35236 ], [ 84.91774, 21.35709 ], [ 84.91286, 21.35829 ], [ 84.90855, 21.35655 ], [ 84.90862, 21.35828 ], [ 84.91025, 21.36094 ], [ 84.90406, 21.36523 ], [ 84.90301, 21.3672 ], [ 84.90359, 21.36836 ], [ 84.91088, 21.37157 ], [ 84.89944, 21.3801 ], [ 84.89829, 21.37914 ], [ 84.89617, 21.38107 ], [ 84.89283, 21.38698 ], [ 84.89341, 21.38749 ], [ 84.8929, 21.38874 ], [ 84.89576, 21.39087 ], [ 84.89614, 21.39253 ], [ 84.89234, 21.39332 ], [ 84.89017, 21.39478 ], [ 84.92093, 21.39601 ], [ 84.92718, 21.39257 ], [ 84.93539, 21.39317 ], [ 84.93372, 21.4021 ], [ 84.93018, 21.41004 ], [ 84.92933, 21.41534 ], [ 84.92642, 21.42007 ], [ 84.92631, 21.42555 ], [ 84.92738, 21.4327 ], [ 84.92266, 21.43655 ], [ 84.91898, 21.44212 ], [ 84.91588, 21.44285 ], [ 84.91104, 21.44235 ], [ 84.90683, 21.45012 ], [ 84.89734, 21.44927 ], [ 84.89353, 21.45018 ], [ 84.89183, 21.45331 ], [ 84.89275, 21.45938 ], [ 84.89218, 21.46105 ], [ 84.88935, 21.4619 ], [ 84.88556, 21.46471 ], [ 84.8807, 21.46084 ], [ 84.8783, 21.46195 ], [ 84.87372, 21.46835 ], [ 84.87069, 21.46908 ], [ 84.86862, 21.47064 ], [ 84.85929, 21.47225 ], [ 84.85829, 21.46862 ], [ 84.85788, 21.46167 ], [ 84.8572, 21.46082 ], [ 84.85416, 21.46083 ], [ 84.85333, 21.45973 ], [ 84.852, 21.46253 ], [ 84.85065, 21.4636 ], [ 84.84975, 21.4661 ], [ 84.85013, 21.46803 ], [ 84.84904, 21.46976 ], [ 84.84273, 21.47469 ], [ 84.83798, 21.47967 ], [ 84.82935, 21.47848 ], [ 84.82874, 21.47244 ], [ 84.82347, 21.47337 ], [ 84.82024, 21.47547 ], [ 84.81683, 21.48069 ], [ 84.81638, 21.48922 ], [ 84.81695, 21.49202 ], [ 84.81525, 21.49359 ], [ 84.81766, 21.4972 ], [ 84.81774, 21.50959 ], [ 84.81913, 21.51357 ], [ 84.81888, 21.5183 ], [ 84.82139, 21.51771 ], [ 84.82277, 21.51855 ], [ 84.82314, 21.51984 ], [ 84.82214, 21.52235 ], [ 84.82777, 21.52027 ], [ 84.83652, 21.51851 ], [ 84.8408, 21.52025 ], [ 84.84076, 21.52338 ], [ 84.84609, 21.52892 ], [ 84.84717, 21.53269 ], [ 84.84441, 21.54381 ], [ 84.84236, 21.54668 ], [ 84.82785, 21.55237 ], [ 84.82698, 21.5542 ], [ 84.82764, 21.55675 ], [ 84.81566, 21.56264 ], [ 84.81475, 21.56568 ], [ 84.80815, 21.56525 ], [ 84.80689, 21.56127 ], [ 84.80619, 21.56131 ], [ 84.80472, 21.56177 ], [ 84.80406, 21.56494 ], [ 84.79868, 21.56512 ], [ 84.79399, 21.5685 ], [ 84.79095, 21.56526 ], [ 84.79132, 21.5606 ], [ 84.79055, 21.55734 ], [ 84.78845, 21.55486 ], [ 84.78208, 21.55472 ], [ 84.77219, 21.55739 ], [ 84.76044, 21.5594 ], [ 84.73316, 21.56065 ], [ 84.71982, 21.56236 ], [ 84.70363, 21.56619 ], [ 84.69387, 21.5753 ], [ 84.68433, 21.57875 ], [ 84.66848, 21.58789 ], [ 84.66654, 21.59073 ], [ 84.66532, 21.59523 ], [ 84.66611, 21.59742 ], [ 84.67441, 21.60382 ], [ 84.67018, 21.60695 ], [ 84.67039, 21.60775 ], [ 84.67367, 21.60533 ], [ 84.6785, 21.60559 ], [ 84.68286, 21.60845 ], [ 84.6886, 21.60963 ], [ 84.69093, 21.6122 ], [ 84.69056, 21.61322 ], [ 84.67995, 21.6124 ], [ 84.68457, 21.62027 ], [ 84.6949, 21.62505 ], [ 84.69751, 21.62439 ], [ 84.70287, 21.62497 ], [ 84.70921, 21.62348 ], [ 84.71944, 21.62511 ], [ 84.7233, 21.62428 ], [ 84.7237, 21.62539 ], [ 84.72239, 21.62695 ], [ 84.7266, 21.62884 ], [ 84.73007, 21.62795 ], [ 84.73404, 21.62493 ], [ 84.73614, 21.62591 ], [ 84.74116, 21.62496 ], [ 84.74377, 21.62332 ], [ 84.74856, 21.62312 ], [ 84.75439, 21.62081 ], [ 84.75952, 21.62463 ], [ 84.77892, 21.62569 ], [ 84.78175, 21.62733 ], [ 84.78361, 21.63048 ], [ 84.78546, 21.63138 ], [ 84.78749, 21.63083 ], [ 84.78847, 21.63297 ], [ 84.79062, 21.63364 ], [ 84.79133, 21.63568 ], [ 84.79341, 21.63671 ], [ 84.79273, 21.63879 ], [ 84.78634, 21.63924 ], [ 84.78291, 21.64143 ], [ 84.7822, 21.64576 ], [ 84.78312, 21.64745 ], [ 84.78176, 21.64935 ], [ 84.78222, 21.65184 ], [ 84.78587, 21.65674 ], [ 84.78991, 21.66857 ], [ 84.81321, 21.66316 ], [ 84.81952, 21.66287 ], [ 84.82827, 21.66038 ], [ 84.8341, 21.66077 ], [ 84.83615, 21.65995 ], [ 84.84046, 21.65984 ], [ 84.85527, 21.66054 ], [ 84.85654, 21.65215 ], [ 84.86443, 21.65231 ], [ 84.87049, 21.65482 ], [ 84.87332, 21.65743 ], [ 84.87568, 21.65724 ], [ 84.87877, 21.65851 ], [ 84.88247, 21.65793 ], [ 84.88413, 21.65896 ], [ 84.88736, 21.65931 ], [ 84.90094, 21.65882 ], [ 84.90108, 21.66309 ], [ 84.90338, 21.66834 ], [ 84.91437, 21.67052 ], [ 84.91881, 21.67012 ], [ 84.92484, 21.66775 ], [ 84.927, 21.66777 ], [ 84.94133, 21.65943 ], [ 84.94502, 21.66136 ], [ 84.9456, 21.66286 ], [ 84.94738, 21.66403 ], [ 84.94979, 21.66364 ], [ 84.9534, 21.66476 ], [ 84.95368, 21.67893 ], [ 84.95568, 21.68175 ], [ 84.95643, 21.68435 ] ] ] } },
{ "type": "Feature", "properties": { "OBJECTID": 1849, "state_lgd": "21", "state_name": "ODISHA", "district_lgd": "373", "district_name": "DEOGARH", "district_name_source": "district_table", "subdistrict_lgd": "02803", "subdistrict_name": "REAMAL", "subdistrict_type": "Tehsil", "name_corrupted": false, "remarks": "", "label_lon": 84.762206007806526, "label_lat": 21.316110688166972 }, "geometry": { "type": "MultiPolygon", "coordinates": [ [ [ [ 84.69736, 21.48383 ], [ 84.70477, 21.48003 ], [ 84.70722, 21.47739 ], [ 84.70583, 21.47572 ], [ 84.70015, 21.47231 ], [ 84.69855, 21.46879 ], [ 84.7071, 21.46865 ], [ 84.7282, 21.46274 ], [ 84.72855, 21.45691 ], [ 84.72771, 21.45445 ], [ 84.72971, 21.45304 ], [ 84.73693, 21.45268 ], [ 84.73975, 21.45174 ], [ 84.74011, 21.44997 ], [ 84.73954, 21.44927 ], [ 84.73213, 21.44359 ], [ 84.72986, 21.4403 ], [ 84.73741, 21.43515 ], [ 84.73939, 21.43284 ], [ 84.73979, 21.42876 ], [ 84.74275, 21.42581 ], [ 84.74149, 21.42358 ], [ 84.74221, 21.4221 ], [ 84.74928, 21.4232 ], [ 84.75107, 21.42776 ], [ 84.75326, 21.42885 ], [ 84.7602, 21.42773 ], [ 84.76097, 21.42877 ], [ 84.76264, 21.42876 ], [ 84.76496, 21.43044 ], [ 84.76784, 21.43052 ], [ 84.77219, 21.4289 ], [ 84.77547, 21.42582 ], [ 84.78533, 21.42447 ], [ 84.78549, 21.42862 ], [ 84.78725, 21.43115 ], [ 84.79093, 21.4283 ], [ 84.79539, 21.43077 ], [ 84.80276, 21.4313 ], [ 84.80399, 21.4309 ], [ 84.80523, 21.42884 ], [ 84.80732, 21.42158 ], [ 84.80569, 21.41958 ], [ 84.80982, 21.41999 ], [ 84.81847, 21.4181 ], [ 84.82447, 21.41953 ], [ 84.82796, 21.41773 ], [ 84.83303, 21.41717 ], [ 84.83552, 21.41611 ], [ 84.83891, 21.41628 ], [ 84.84364, 21.41779 ], [ 84.85086, 21.41611 ], [ 84.86093, 21.41582 ], [ 84.86351, 21.40997 ], [ 84.86332, 21.40639 ], [ 84.8657, 21.40485 ], [ 84.86774, 21.40626 ], [ 84.86981, 21.40543 ], [ 84.87051, 21.40251 ], [ 84.87336, 21.40084 ], [ 84.87837, 21.40354 ], [ 84.88293, 21.40309 ], [ 84.88735, 21.39962 ], [ 84.88571, 21.39485 ], [ 84.88947, 21.39509 ], [ 84.89234, 21.39332 ], [ 84.89614, 21.39253 ], [ 84.89576, 21.39087 ], [ 84.8929, 21.38874 ], [ 84.89341, 21.38749 ], [ 84.89283, 21.38698 ], [ 84.89617, 21.38107 ], [ 84.89829, 21.37914 ], [ 84.89944, 21.3801 ], [ 84.91088, 21.37157 ], [ 84.90359, 21.36836 ], [ 84.90301, 21.3672 ], [ 84.90406, 21.36523 ], [ 84.91025, 21.36094 ], [ 84.90862, 21.35828 ], [ 84.90855, 21.35655 ], [ 84.91286, 21.35829 ], [ 84.91774, 21.35709 ], [ 84.92074, 21.35236 ], [ 84.92034, 21.35086 ], [ 84.91849, 21.34935 ], [ 84.91399, 21.34859 ], [ 84.91016, 21.34562 ], [ 84.90609, 21.34378 ], [ 84.90958, 21.34224 ], [ 84.91129, 21.34023 ], [ 84.91461, 21.33849 ], [ 84.91647, 21.33929 ], [ 84.91749, 21.33865 ], [ 84.91847, 21.33225 ], [ 84.91752, 21.32924 ], [ 84.91997, 21.32906 ], [ 84.92245, 21.32632 ], [ 84.9212, 21.32546 ], [ 84.91642, 21.32469 ], [ 84.91746, 21.32293 ], [ 84.9185, 21.32273 ], [ 84.92564, 21.32305 ], [ 84.92619, 21.3221 ], [ 84.92559, 21.31873 ], [ 84.92947, 21.31555 ], [ 84.92773, 21.31272 ], [ 84.91782, 21.312 ], [ 84.91987, 21.30692 ], [ 84.9218, 21.30494 ], [ 84.92339, 21.30472 ], [ 84.93315, 21.30989 ], [ 84.93662, 21.30689 ], [ 84.93619, 21.30602 ], [ 84.93414, 21.30531 ], [ 84.93418, 21.30457 ], [ 84.93974, 21.30138 ], [ 84.94061, 21.2997 ], [ 84.94264, 21.30083 ], [ 84.9457, 21.30503 ], [ 84.94569, 21.30799 ], [ 84.9475, 21.30849 ], [ 84.94876, 21.30775 ], [ 84.95116, 21.30867 ], [ 84.95898, 21.30691 ], [ 84.96021, 21.30574 ], [ 84.96736, 21.30576 ], [ 84.96981, 21.30457 ], [ 84.96888, 21.30181 ], [ 84.96897, 21.29373 ], [ 84.95701, 21.29778 ], [ 84.9522, 21.29434 ], [ 84.93066, 21.28424 ], [ 84.91289, 21.2727 ], [ 84.90917, 21.26972 ], [ 84.90317, 21.26273 ], [ 84.89751, 21.26101 ], [ 84.89865, 21.25626 ], [ 84.90236, 21.25075 ], [ 84.90899, 21.24698 ], [ 84.91678, 21.24018 ], [ 84.92607, 21.23363 ], [ 84.92911, 21.22426 ], [ 84.93361, 21.21641 ], [ 84.93731, 21.20617 ], [ 84.93949, 21.19602 ], [ 84.94868, 21.19189 ], [ 84.95202, 21.19296 ], [ 84.95644, 21.19279 ], [ 84.96375, 21.19121 ], [ 84.97001, 21.18876 ], [ 84.96739, 21.18669 ], [ 84.966, 21.18418 ], [ 84.96679, 21.18083 ], [ 84.96622, 21.17885 ], [ 84.96203, 21.17778 ], [ 84.96391, 21.17127 ], [ 84.96375, 21.16791 ], [ 84.96227, 21.16582 ], [ 84.96945, 21.16158 ], [ 84.96855, 21.15773 ], [ 84.96604, 21.15672 ], [ 84.96215, 21.14736 ], [ 84.94859, 21.1482 ], [ 84.94886, 21.14992 ], [ 84.94719, 21.15498 ], [ 84.94777, 21.16301 ], [ 84.95034, 21.17042 ], [ 84.94424, 21.17488 ], [ 84.93886, 21.17588 ], [ 84.92732, 21.1807 ], [ 84.92878, 21.17711 ], [ 84.92802, 21.17654 ], [ 84.92834, 21.17289 ], [ 84.9276, 21.17203 ], [ 84.92747, 21.16854 ], [ 84.92769, 21.16512 ], [ 84.92856, 21.16494 ], [ 84.92898, 21.16154 ], [ 84.92804, 21.16014 ], [ 84.92849, 21.15729 ], [ 84.92951, 21.15516 ], [ 84.93205, 21.15376 ], [ 84.92594, 21.14674 ], [ 84.9252, 21.14489 ], [ 84.922, 21.1446 ], [ 84.91879, 21.14076 ], [ 84.91048, 21.14323 ], [ 84.90242, 21.14732 ], [ 84.90018, 21.14738 ], [ 84.9005, 21.14945 ], [ 84.89947, 21.15054 ], [ 84.88487, 21.15319 ], [ 84.88022, 21.15704 ], [ 84.88039, 21.15921 ], [ 84.87738, 21.16311 ], [ 84.87724, 21.16445 ], [ 84.86567, 21.16606 ], [ 84.85981, 21.16502 ], [ 84.8428, 21.1695 ], [ 84.83158, 21.17023 ], [ 84.82647, 21.16965 ], [ 84.81749, 21.17128 ], [ 84.81277, 21.16882 ], [ 84.80129, 21.16734 ], [ 84.79891, 21.16631 ], [ 84.79832, 21.16011 ], [ 84.79993, 21.15472 ], [ 84.80166, 21.15424 ], [ 84.80294, 21.15514 ], [ 84.80356, 21.15269 ], [ 84.805, 21.1531 ], [ 84.8071, 21.15147 ], [ 84.8065, 21.15023 ], [ 84.8102, 21.14928 ], [ 84.81091, 21.14616 ], [ 84.81344, 21.14709 ], [ 84.81198, 21.14112 ], [ 84.80868, 21.13658 ], [ 84.80261, 21.14156 ], [ 84.80133, 21.13655 ], [ 84.79811, 21.13473 ], [ 84.79869, 21.13091 ], [ 84.79472, 21.13305 ], [ 84.78938, 21.1315 ], [ 84.78875, 21.13847 ], [ 84.77718, 21.14561 ], [ 84.76249, 21.14906 ], [ 84.75841, 21.15219 ], [ 84.75391, 21.15945 ], [ 84.74942, 21.16046 ], [ 84.74792, 21.1616 ], [ 84.74533, 21.16571 ], [ 84.74414, 21.1701 ], [ 84.73916, 21.17455 ], [ 84.73856, 21.17633 ], [ 84.74601, 21.17886 ], [ 84.74317, 21.18345 ], [ 84.74102, 21.18413 ], [ 84.74057, 21.1888 ], [ 84.73802, 21.19288 ], [ 84.73909, 21.19522 ], [ 84.73081, 21.19471 ], [ 84.72494, 21.19834 ], [ 84.7216, 21.19936 ], [ 84.72395, 21.2049 ], [ 84.71583, 21.20936 ], [ 84.71712, 21.21025 ], [ 84.71673, 21.21279 ], [ 84.72015, 21.21576 ], [ 84.71997, 21.21872 ], [ 84.71757, 21.21965 ], [ 84.72152, 21.22821 ], [ 84.72586, 21.22851 ], [ 84.7277, 21.2294 ], [ 84.72964, 21.22818 ], [ 84.73361, 21.22772 ], [ 84.73356, 21.23008 ], [ 84.73715, 21.229 ], [ 84.73919, 21.233 ], [ 84.74376, 21.23441 ], [ 84.74644, 21.2337 ], [ 84.75015, 21.23117 ], [ 84.7531, 21.22763 ], [ 84.75409, 21.22742 ], [ 84.75541, 21.23098 ], [ 84.75705, 21.23133 ], [ 84.75776, 21.23358 ], [ 84.75732, 21.23494 ], [ 84.75857, 21.2373 ], [ 84.75809, 21.24205 ], [ 84.75883, 21.24302 ], [ 84.76326, 21.24332 ], [ 84.76553, 21.24585 ], [ 84.76737, 21.25 ], [ 84.76676, 21.25081 ], [ 84.76837, 21.25379 ], [ 84.75236, 21.25793 ], [ 84.75158, 21.25878 ], [ 84.75418, 21.2624 ], [ 84.75391, 21.26486 ], [ 84.75745, 21.268 ], [ 84.76202, 21.27429 ], [ 84.75916, 21.27712 ], [ 84.7591, 21.27834 ], [ 84.75715, 21.27952 ], [ 84.75283, 21.28012 ], [ 84.75021, 21.28299 ], [ 84.74787, 21.28292 ], [ 84.73995, 21.28841 ], [ 84.7338, 21.29493 ], [ 84.73331, 21.29955 ], [ 84.73202, 21.30157 ], [ 84.72458, 21.30814 ], [ 84.71793, 21.31009 ], [ 84.71616, 21.31307 ], [ 84.70936, 21.31947 ], [ 84.70581, 21.32134 ], [ 84.69946, 21.32067 ], [ 84.69562, 21.32329 ], [ 84.694, 21.32229 ], [ 84.68551, 21.32218 ], [ 84.67815, 21.31812 ], [ 84.66638, 21.31694 ], [ 84.65822, 21.31373 ], [ 84.66081, 21.30757 ], [ 84.66527, 21.30622 ], [ 84.66641, 21.30383 ], [ 84.6609, 21.30423 ], [ 84.65564, 21.30228 ], [ 84.6525, 21.30321 ], [ 84.64834, 21.30205 ], [ 84.64599, 21.30039 ], [ 84.64447, 21.29872 ], [ 84.64476, 21.29687 ], [ 84.64276, 21.29142 ], [ 84.63291, 21.29011 ], [ 84.6326, 21.28687 ], [ 84.63007, 21.28248 ], [ 84.62673, 21.28041 ], [ 84.62876, 21.27833 ], [ 84.6291, 21.27639 ], [ 84.62856, 21.27602 ], [ 84.62205, 21.27639 ], [ 84.62108, 21.27563 ], [ 84.61712, 21.27624 ], [ 84.61594, 21.27509 ], [ 84.61254, 21.2769 ], [ 84.6061, 21.27252 ], [ 84.60333, 21.26549 ], [ 84.60309, 21.26224 ], [ 84.59712, 21.25931 ], [ 84.59168, 21.25786 ], [ 84.58763, 21.25915 ], [ 84.5837, 21.25798 ], [ 84.57998, 21.25845 ], [ 84.5789, 21.25803 ], [ 84.57776, 21.25471 ], [ 84.57651, 21.2535 ], [ 84.5694, 21.25278 ], [ 84.56498, 21.25 ], [ 84.56362, 21.25047 ], [ 84.56265, 21.25604 ], [ 84.56008, 21.25815 ], [ 84.56112, 21.2591 ], [ 84.5638, 21.2589 ], [ 84.56409, 21.26134 ], [ 84.56832, 21.26522 ], [ 84.56916, 21.26802 ], [ 84.56859, 21.26957 ], [ 84.56558, 21.27263 ], [ 84.56848, 21.27595 ], [ 84.56582, 21.27576 ], [ 84.56627, 21.27766 ], [ 84.56505, 21.27884 ], [ 84.56788, 21.28074 ], [ 84.56534, 21.28078 ], [ 84.56619, 21.28423 ], [ 84.56515, 21.28565 ], [ 84.56625, 21.28676 ], [ 84.56447, 21.28758 ], [ 84.567, 21.29064 ], [ 84.56514, 21.29237 ], [ 84.56783, 21.29254 ], [ 84.56712, 21.29491 ], [ 84.56891, 21.29496 ], [ 84.5641, 21.30156 ], [ 84.56559, 21.30876 ], [ 84.56425, 21.31012 ], [ 84.5634, 21.30892 ], [ 84.56285, 21.3092 ], [ 84.56309, 21.31604 ], [ 84.5619, 21.31765 ], [ 84.56396, 21.31911 ], [ 84.56568, 21.32317 ], [ 84.56506, 21.32492 ], [ 84.55932, 21.33096 ], [ 84.5578, 21.33442 ], [ 84.55538, 21.33554 ], [ 84.55633, 21.33938 ], [ 84.55557, 21.34242 ], [ 84.55228, 21.34504 ], [ 84.55181, 21.34846 ], [ 84.55051, 21.35031 ], [ 84.54968, 21.35655 ], [ 84.54712, 21.35962 ], [ 84.54968, 21.36805 ], [ 84.5605, 21.39163 ], [ 84.57386, 21.41067 ], [ 84.57799, 21.41487 ], [ 84.57733, 21.42112 ], [ 84.57852, 21.42453 ], [ 84.57845, 21.4274 ], [ 84.58176, 21.42831 ], [ 84.58372, 21.43051 ], [ 84.58533, 21.43087 ], [ 84.58769, 21.4303 ], [ 84.5899, 21.4309 ], [ 84.59088, 21.42957 ], [ 84.59036, 21.4289 ], [ 84.59194, 21.42786 ], [ 84.59282, 21.42848 ], [ 84.5917, 21.43018 ], [ 84.59267, 21.43144 ], [ 84.59237, 21.43245 ], [ 84.59068, 21.43301 ], [ 84.59531, 21.43593 ], [ 84.5949, 21.43648 ], [ 84.59682, 21.4379 ], [ 84.59792, 21.44066 ], [ 84.59742, 21.44365 ], [ 84.59978, 21.44719 ], [ 84.60269, 21.44725 ], [ 84.60442, 21.44859 ], [ 84.61301, 21.4515 ], [ 84.62352, 21.44768 ], [ 84.62803, 21.44438 ], [ 84.62888, 21.44546 ], [ 84.62974, 21.45055 ], [ 84.63279, 21.45227 ], [ 84.63405, 21.455 ], [ 84.63259, 21.45674 ], [ 84.63509, 21.45867 ], [ 84.63457, 21.4604 ], [ 84.6361, 21.46441 ], [ 84.63814, 21.4662 ], [ 84.63755, 21.46669 ], [ 84.63774, 21.4689 ], [ 84.64297, 21.47246 ], [ 84.64322, 21.47621 ], [ 84.64564, 21.47634 ], [ 84.65326, 21.47307 ], [ 84.65483, 21.47405 ], [ 84.6572, 21.47234 ], [ 84.65885, 21.47245 ], [ 84.66302, 21.47036 ], [ 84.663, 21.47545 ], [ 84.66369, 21.4768 ], [ 84.66326, 21.4805 ], [ 84.67581, 21.47681 ], [ 84.67724, 21.48544 ], [ 84.69736, 21.48383 ] ], [ [ 84.87584, 21.17102 ], [ 84.87772, 21.1784 ], [ 84.87497, 21.17897 ], [ 84.87265, 21.1749 ], [ 84.87225, 21.17261 ], [ 84.87584, 21.17102 ] ] ], [ [ [ 84.88737, 21.42208 ], [ 84.88589, 21.4222 ], [ 84.88568, 21.42071 ], [ 84.88371, 21.41996 ], [ 84.88202, 21.42096 ], [ 84.88191, 21.42466 ], [ 84.87742, 21.43005 ], [ 84.87855, 21.4345 ], [ 84.88389, 21.43088 ], [ 84.88638, 21.42463 ], [ 84.88846, 21.42339 ], [ 84.88737, 21.42208 ] ] ] ] } }
]
}
