{
"type": "FeatureCollection",
"name": "394_NUAPARHA",
"crs": { "type": "name", "properties": { "name": "urn:ogc:def:crs:OGC:1.3:CRS84" } },
"xy_coordinate_resolution": 1e-05,
"features": [
{ "type": "Feature", "properties": { "OBJECTID": 1748, "state_lgd": "21", "state_name": "ODISHA", "district_lgd": "394", "district_name": "NUAPARHA", "district_name_source": "district_table", "subdistrict_lgd": "03158", "subdistrict_name": "SINAPALLI", "subdistrict_type": "Tehsil", "name_corrupted": false, "remarks": "", "label_lon": 82.573242219009046, "label_lat": 20.096276088187469 }, "geometry": { "type": "Polygon", "coordinates": [ [ [ 82.4224, 20.22088 ], [ 82.48375, 20.2101 ], [ 82.49477, 20.21151 ], [ 82.49759, 20.20944 ], [ 82.52692, 20.17229 ], [ 82.52839, 20.17272 ], [ 82.5285, 20.17487 ], [ 82.53177, 20.17955 ], [ 82.54173, 20.18666 ], [ 82.54326, 20.1862 ], [ 82.5437, 20.185 ], [ 82.54208, 20.17801 ], [ 82.54254, 20.17383 ], [ 82.54564, 20.17331 ], [ 82.55464, 20.17853 ], [ 82.56149, 20.17956 ], [ 82.5669, 20.18178 ], [ 82.58798, 20.17506 ], [ 82.58952, 20.16806 ], [ 82.5917, 20.16551 ], [ 82.59436, 20.16436 ], [ 82.59487, 20.16232 ], [ 82.59388, 20.15794 ], [ 82.58853, 20.14832 ], [ 82.58825, 20.145 ], [ 82.59124, 20.14073 ], [ 82.59133, 20.1364 ], [ 82.59713, 20.13447 ], [ 82.60296, 20.13398 ], [ 82.60433, 20.12884 ], [ 82.60277, 20.12541 ], [ 82.60318, 20.12329 ], [ 82.6022, 20.11836 ], [ 82.6106, 20.1181 ], [ 82.61414, 20.12308 ], [ 82.61731, 20.13007 ], [ 82.62693, 20.13071 ], [ 82.6383, 20.12922 ], [ 82.64267, 20.13609 ], [ 82.64544, 20.14311 ], [ 82.64861, 20.14689 ], [ 82.65823, 20.14071 ], [ 82.66917, 20.13676 ], [ 82.66901, 20.13874 ], [ 82.66727, 20.14217 ], [ 82.66775, 20.14984 ], [ 82.67083, 20.15975 ], [ 82.6719, 20.16002 ], [ 82.67377, 20.15914 ], [ 82.676, 20.15533 ], [ 82.67985, 20.15226 ], [ 82.68457, 20.15117 ], [ 82.6902, 20.147 ], [ 82.69536, 20.14484 ], [ 82.69813, 20.1446 ], [ 82.69946, 20.14574 ], [ 82.69999, 20.15183 ], [ 82.70184, 20.15232 ], [ 82.70392, 20.15167 ], [ 82.71091, 20.14451 ], [ 82.71457, 20.13732 ], [ 82.71221, 20.13337 ], [ 82.7149, 20.12914 ], [ 82.71633, 20.12839 ], [ 82.72005, 20.12866 ], [ 82.72405, 20.12643 ], [ 82.72785, 20.12874 ], [ 82.73077, 20.13288 ], [ 82.74292, 20.13375 ], [ 82.74562, 20.13223 ], [ 82.74661, 20.13067 ], [ 82.74704, 20.12898 ], [ 82.74635, 20.12478 ], [ 82.75275, 20.12354 ], [ 82.75311, 20.11999 ], [ 82.75748, 20.11748 ], [ 82.75853, 20.11985 ], [ 82.76344, 20.11935 ], [ 82.76867, 20.12151 ], [ 82.77183, 20.11882 ], [ 82.77287, 20.1188 ], [ 82.77432, 20.12099 ], [ 82.78228, 20.12174 ], [ 82.78464, 20.12444 ], [ 82.78842, 20.13178 ], [ 82.79307, 20.13522 ], [ 82.79439, 20.13529 ], [ 82.79557, 20.13284 ], [ 82.79596, 20.1266 ], [ 82.79663, 20.12609 ], [ 82.80061, 20.12653 ], [ 82.80032, 20.13446 ], [ 82.80416, 20.13296 ], [ 82.80716, 20.1249 ], [ 82.80834, 20.12368 ], [ 82.81455, 20.12097 ], [ 82.8192, 20.12083 ], [ 82.81897, 20.11858 ], [ 82.82046, 20.11281 ], [ 82.81695, 20.1109 ], [ 82.8142, 20.10262 ], [ 82.81318, 20.101 ], [ 82.81088, 20.09966 ], [ 82.79641, 20.10105 ], [ 82.7883, 20.10339 ], [ 82.78579, 20.09859 ], [ 82.78539, 20.09747 ], [ 82.78602, 20.09711 ], [ 82.78169, 20.0924 ], [ 82.77941, 20.0866 ], [ 82.77745, 20.08418 ], [ 82.77282, 20.08171 ], [ 82.76785, 20.07671 ], [ 82.75902, 20.06312 ], [ 82.75494, 20.05486 ], [ 82.75097, 20.05524 ], [ 82.73971, 20.05261 ], [ 82.74314, 20.04755 ], [ 82.74679, 20.04592 ], [ 82.7481, 20.04162 ], [ 82.74747, 20.03619 ], [ 82.74577, 20.03508 ], [ 82.74432, 20.03185 ], [ 82.74396, 20.02841 ], [ 82.74488, 20.02461 ], [ 82.7432, 20.02467 ], [ 82.73928, 20.0213 ], [ 82.72951, 20.02347 ], [ 82.72758, 20.02279 ], [ 82.72678, 20.01922 ], [ 82.72361, 20.01488 ], [ 82.72047, 20.00815 ], [ 82.71662, 20.00643 ], [ 82.71545, 19.99593 ], [ 82.70727, 19.99905 ], [ 82.7036, 19.99905 ], [ 82.69958, 19.99757 ], [ 82.69267, 20.0 ], [ 82.67453, 20.00178 ], [ 82.67012, 20.00108 ], [ 82.65943, 20.00449 ], [ 82.65198, 20.00589 ], [ 82.64706, 20.00394 ], [ 82.64271, 20.00366 ], [ 82.64298, 20.00641 ], [ 82.64151, 20.00671 ], [ 82.63682, 20.00505 ], [ 82.6333, 20.00487 ], [ 82.63004, 20.00237 ], [ 82.62906, 20.00001 ], [ 82.62114, 19.9923 ], [ 82.60502, 19.99014 ], [ 82.60029, 19.99139 ], [ 82.59573, 19.99157 ], [ 82.59034, 19.99373 ], [ 82.58328, 20.00318 ], [ 82.57734, 20.00672 ], [ 82.56999, 20.01017 ], [ 82.55356, 20.01539 ], [ 82.55011, 20.01777 ], [ 82.54612, 20.01693 ], [ 82.54282, 20.01777 ], [ 82.53445, 20.01785 ], [ 82.53318, 20.01529 ], [ 82.50911, 20.01816 ], [ 82.49374, 20.02437 ], [ 82.47857, 20.03817 ], [ 82.47001, 20.03591 ], [ 82.46748, 20.03736 ], [ 82.46633, 20.03943 ], [ 82.46067, 20.0419 ], [ 82.45753, 20.03997 ], [ 82.44801, 20.04066 ], [ 82.44052, 20.04318 ], [ 82.43003, 20.04961 ], [ 82.42174, 20.05059 ], [ 82.41682, 20.05215 ], [ 82.40954, 20.05179 ], [ 82.40004, 20.05611 ], [ 82.39829, 20.05818 ], [ 82.39839, 20.06269 ], [ 82.39584, 20.06897 ], [ 82.40149, 20.08102 ], [ 82.39976, 20.0898 ], [ 82.40059, 20.09487 ], [ 82.40144, 20.09607 ], [ 82.39818, 20.10169 ], [ 82.39872, 20.11313 ], [ 82.39751, 20.12441 ], [ 82.39423, 20.12992 ], [ 82.39315, 20.13761 ], [ 82.39096, 20.13907 ], [ 82.39008, 20.14145 ], [ 82.38582, 20.14603 ], [ 82.3872, 20.14905 ], [ 82.39075, 20.14979 ], [ 82.39415, 20.15263 ], [ 82.39311, 20.1547 ], [ 82.39374, 20.15704 ], [ 82.39176, 20.15873 ], [ 82.3915, 20.16168 ], [ 82.39017, 20.16254 ], [ 82.39001, 20.1637 ], [ 82.39431, 20.1683 ], [ 82.39491, 20.17012 ], [ 82.40471, 20.17598 ], [ 82.40453, 20.17787 ], [ 82.40652, 20.17905 ], [ 82.40754, 20.18123 ], [ 82.41158, 20.18149 ], [ 82.41408, 20.18986 ], [ 82.4133, 20.19281 ], [ 82.41444, 20.19397 ], [ 82.41431, 20.19777 ], [ 82.41347, 20.19935 ], [ 82.41456, 20.20091 ], [ 82.42062, 20.20492 ], [ 82.42048, 20.21308 ], [ 82.4224, 20.22088 ] ] ] } },
{ "type": "Feature", "properties": { "OBJECTID": 1749, "state_lgd": "21", "state_name": "ODISHA", "district_lgd": "394", "district_name": "NUAPARHA", "district_name_source": "district_table", "subdistrict_lgd": "03157", "subdistrict_name": "BODEN", "subdistrict_type": "Tehsil", "name_corrupted": false, "remarks": "", "label_lon": 82.554921941363858, "label_lat": 20.291922593906218 }, "geometry": { "type": "Polygon", "coordinates": [ [ [ 82.58625, 20.44254 ], [ 82.58998, 20.4399 ], [ 82.59087, 20.44032 ], [ 82.59294, 20.44352 ], [ 82.59507, 20.44468 ], [ 82.60241, 20.43678 ], [ 82.60354, 20.43717 ], [ 82.60422, 20.4351 ], [ 82.60801, 20.43575 ], [ 82.6135, 20.4334 ], [ 82.61757, 20.43437 ], [ 82.6283, 20.43005 ], [ 82.63595, 20.42444 ], [ 82.63762, 20.42455 ], [ 82.63814, 20.4226 ], [ 82.63683, 20.42113 ], [ 82.63206, 20.42022 ], [ 82.63322, 20.41525 ], [ 82.63722, 20.40681 ], [ 82.64513, 20.40062 ], [ 82.64431, 20.39592 ], [ 82.64514, 20.39106 ], [ 82.64621, 20.39008 ], [ 82.6485, 20.39042 ], [ 82.65138, 20.38943 ], [ 82.65401, 20.38656 ], [ 82.65495, 20.3834 ], [ 82.65856, 20.38105 ], [ 82.65879, 20.37994 ], [ 82.65604, 20.37217 ], [ 82.65627, 20.36998 ], [ 82.66122, 20.36353 ], [ 82.66225, 20.35753 ], [ 82.66408, 20.35541 ], [ 82.6766, 20.3459 ], [ 82.67737, 20.34487 ], [ 82.67838, 20.3374 ], [ 82.68145, 20.33457 ], [ 82.68908, 20.32978 ], [ 82.68969, 20.32848 ], [ 82.68902, 20.32685 ], [ 82.68429, 20.32237 ], [ 82.68331, 20.31957 ], [ 82.68791, 20.30041 ], [ 82.69005, 20.29763 ], [ 82.67852, 20.29437 ], [ 82.65582, 20.29019 ], [ 82.64258, 20.29073 ], [ 82.64201, 20.28756 ], [ 82.64073, 20.2855 ], [ 82.63609, 20.28187 ], [ 82.63769, 20.27988 ], [ 82.64127, 20.28002 ], [ 82.64296, 20.27701 ], [ 82.64342, 20.27492 ], [ 82.64235, 20.26918 ], [ 82.64068, 20.26731 ], [ 82.63675, 20.26905 ], [ 82.63772, 20.27509 ], [ 82.63708, 20.27615 ], [ 82.63601, 20.27609 ], [ 82.63403, 20.27078 ], [ 82.62664, 20.25974 ], [ 82.62599, 20.25534 ], [ 82.63034, 20.25386 ], [ 82.63073, 20.24951 ], [ 82.63262, 20.24924 ], [ 82.63264, 20.24806 ], [ 82.64039, 20.24802 ], [ 82.64109, 20.24924 ], [ 82.64296, 20.24788 ], [ 82.64438, 20.24922 ], [ 82.64497, 20.25321 ], [ 82.64881, 20.25114 ], [ 82.64744, 20.24208 ], [ 82.64814, 20.24002 ], [ 82.65311, 20.2413 ], [ 82.66118, 20.23646 ], [ 82.66666, 20.23685 ], [ 82.67078, 20.23424 ], [ 82.66996, 20.23137 ], [ 82.6644, 20.22536 ], [ 82.66333, 20.22143 ], [ 82.66583, 20.22103 ], [ 82.669, 20.22349 ], [ 82.67319, 20.22353 ], [ 82.67635, 20.21991 ], [ 82.67923, 20.21888 ], [ 82.68229, 20.21884 ], [ 82.68181, 20.2138 ], [ 82.68057, 20.21141 ], [ 82.68848, 20.20969 ], [ 82.69059, 20.20825 ], [ 82.69129, 20.20521 ], [ 82.69328, 20.20123 ], [ 82.69467, 20.20001 ], [ 82.69646, 20.2001 ], [ 82.69782, 20.20126 ], [ 82.69985, 20.20606 ], [ 82.70288, 20.20602 ], [ 82.70342, 20.2035 ], [ 82.69992, 20.19738 ], [ 82.70001, 20.19636 ], [ 82.69763, 20.1962 ], [ 82.69415, 20.1924 ], [ 82.69259, 20.1924 ], [ 82.69302, 20.19681 ], [ 82.69209, 20.19699 ], [ 82.68971, 20.19547 ], [ 82.68782, 20.19288 ], [ 82.68617, 20.19274 ], [ 82.6877, 20.19097 ], [ 82.68742, 20.19021 ], [ 82.68563, 20.19063 ], [ 82.68281, 20.19363 ], [ 82.67757, 20.19012 ], [ 82.67501, 20.18674 ], [ 82.6765, 20.1864 ], [ 82.68315, 20.18854 ], [ 82.68375, 20.18377 ], [ 82.68961, 20.18612 ], [ 82.68897, 20.18301 ], [ 82.69076, 20.18103 ], [ 82.68968, 20.17989 ], [ 82.68441, 20.1778 ], [ 82.681, 20.17804 ], [ 82.67937, 20.16688 ], [ 82.67083, 20.15975 ], [ 82.66747, 20.14705 ], [ 82.66727, 20.14217 ], [ 82.66901, 20.13874 ], [ 82.66917, 20.13676 ], [ 82.65823, 20.14071 ], [ 82.64861, 20.14689 ], [ 82.64544, 20.14311 ], [ 82.64267, 20.13609 ], [ 82.6383, 20.12922 ], [ 82.62693, 20.13071 ], [ 82.61731, 20.13007 ], [ 82.61414, 20.12308 ], [ 82.6106, 20.1181 ], [ 82.6022, 20.11836 ], [ 82.60318, 20.12329 ], [ 82.60277, 20.12541 ], [ 82.60433, 20.12884 ], [ 82.60296, 20.13398 ], [ 82.59713, 20.13447 ], [ 82.59133, 20.1364 ], [ 82.59124, 20.14073 ], [ 82.58825, 20.145 ], [ 82.58821, 20.14728 ], [ 82.59388, 20.15794 ], [ 82.59487, 20.16232 ], [ 82.59436, 20.16436 ], [ 82.5917, 20.16551 ], [ 82.58952, 20.16806 ], [ 82.58798, 20.17506 ], [ 82.5669, 20.18178 ], [ 82.56149, 20.17956 ], [ 82.55464, 20.17853 ], [ 82.54564, 20.17331 ], [ 82.54254, 20.17383 ], [ 82.54208, 20.17801 ], [ 82.5437, 20.185 ], [ 82.54326, 20.1862 ], [ 82.54173, 20.18666 ], [ 82.53177, 20.17955 ], [ 82.5285, 20.17487 ], [ 82.52839, 20.17272 ], [ 82.52692, 20.17229 ], [ 82.49759, 20.20944 ], [ 82.49477, 20.21151 ], [ 82.48375, 20.2101 ], [ 82.4224, 20.22088 ], [ 82.41611, 20.2255 ], [ 82.41481, 20.22776 ], [ 82.41343, 20.23605 ], [ 82.41069, 20.24017 ], [ 82.41123, 20.24538 ], [ 82.42129, 20.24673 ], [ 82.42233, 20.24797 ], [ 82.41778, 20.25232 ], [ 82.41601, 20.25728 ], [ 82.41139, 20.26011 ], [ 82.41143, 20.26431 ], [ 82.41317, 20.26872 ], [ 82.41596, 20.27205 ], [ 82.4215, 20.27467 ], [ 82.42503, 20.27522 ], [ 82.43287, 20.28181 ], [ 82.43557, 20.28548 ], [ 82.43781, 20.29441 ], [ 82.43665, 20.29606 ], [ 82.43205, 20.29856 ], [ 82.42998, 20.30099 ], [ 82.43153, 20.31278 ], [ 82.43077, 20.31402 ], [ 82.42612, 20.3177 ], [ 82.42104, 20.32411 ], [ 82.41737, 20.32425 ], [ 82.41295, 20.328 ], [ 82.41017, 20.32731 ], [ 82.40887, 20.32778 ], [ 82.4084, 20.32916 ], [ 82.40916, 20.33253 ], [ 82.40548, 20.33535 ], [ 82.40367, 20.33558 ], [ 82.40039, 20.33945 ], [ 82.4006, 20.34258 ], [ 82.40418, 20.34768 ], [ 82.40627, 20.35299 ], [ 82.40505, 20.35804 ], [ 82.40693, 20.36152 ], [ 82.40914, 20.36293 ], [ 82.40883, 20.36529 ], [ 82.4112, 20.37129 ], [ 82.41805, 20.38211 ], [ 82.41769, 20.38772 ], [ 82.42117, 20.39285 ], [ 82.41855, 20.40312 ], [ 82.41661, 20.40765 ], [ 82.43201, 20.41664 ], [ 82.43164, 20.41892 ], [ 82.53645, 20.36996 ], [ 82.54359, 20.39457 ], [ 82.55428, 20.41514 ], [ 82.55444, 20.41994 ], [ 82.55723, 20.42007 ], [ 82.55933, 20.42357 ], [ 82.55709, 20.42596 ], [ 82.55754, 20.42909 ], [ 82.55695, 20.43215 ], [ 82.55863, 20.43391 ], [ 82.55875, 20.43573 ], [ 82.55463, 20.44147 ], [ 82.55748, 20.45205 ], [ 82.57481, 20.45285 ], [ 82.57527, 20.44952 ], [ 82.5771, 20.4469 ], [ 82.58259, 20.44337 ], [ 82.58625, 20.44254 ] ] ] } },
{ "type": "Feature", "properties": { "OBJECTID": 1750, "state_lgd": "21", "state_name": "ODISHA", "district_lgd": "394", "district_name": "NUAPARHA", "district_name_source": "district_table", "subdistrict_lgd": "03156", "subdistrict_name": "KHARIAR", "subdistrict_type": "Tehsil", "name_corrupted": false, "remarks": "", "label_lon": 82.752188326608263, "label_lat": 20.253305341531178 }, "geometry": { "type": "Polygon", "coordinates": [ [ [ 82.72721, 20.38079 ], [ 82.72335, 20.37069 ], [ 82.72187, 20.37086 ], [ 82.71478, 20.36778 ], [ 82.71262, 20.36115 ], [ 82.71495, 20.35677 ], [ 82.71884, 20.35526 ], [ 82.72642, 20.35528 ], [ 82.73344, 20.35659 ], [ 82.74388, 20.36229 ], [ 82.74817, 20.36223 ], [ 82.75334, 20.3584 ], [ 82.76044, 20.35638 ], [ 82.76376, 20.35338 ], [ 82.76756, 20.35436 ], [ 82.77159, 20.35421 ], [ 82.7766, 20.35683 ], [ 82.77733, 20.35996 ], [ 82.78005, 20.36379 ], [ 82.78108, 20.37028 ], [ 82.79041, 20.37029 ], [ 82.79653, 20.37214 ], [ 82.79798, 20.37598 ], [ 82.79788, 20.37969 ], [ 82.80133, 20.38189 ], [ 82.80352, 20.38536 ], [ 82.80697, 20.3825 ], [ 82.80919, 20.38165 ], [ 82.81033, 20.38146 ], [ 82.81363, 20.3832 ], [ 82.81527, 20.37903 ], [ 82.81247, 20.37161 ], [ 82.81257, 20.363 ], [ 82.81103, 20.36117 ], [ 82.80728, 20.36042 ], [ 82.80511, 20.35789 ], [ 82.80206, 20.35722 ], [ 82.79777, 20.35132 ], [ 82.79138, 20.34846 ], [ 82.79018, 20.3471 ], [ 82.78981, 20.34477 ], [ 82.79149, 20.34286 ], [ 82.79221, 20.34026 ], [ 82.79401, 20.33868 ], [ 82.79197, 20.33286 ], [ 82.79329, 20.33155 ], [ 82.79147, 20.32926 ], [ 82.78791, 20.32689 ], [ 82.7884, 20.32425 ], [ 82.79163, 20.32416 ], [ 82.79688, 20.32207 ], [ 82.80314, 20.32115 ], [ 82.80675, 20.32253 ], [ 82.80855, 20.32525 ], [ 82.81146, 20.32717 ], [ 82.81226, 20.32831 ], [ 82.81103, 20.3301 ], [ 82.81001, 20.33622 ], [ 82.80657, 20.34036 ], [ 82.8079, 20.34295 ], [ 82.81046, 20.34415 ], [ 82.8123, 20.34691 ], [ 82.81182, 20.35183 ], [ 82.81407, 20.35847 ], [ 82.81623, 20.35835 ], [ 82.81885, 20.35222 ], [ 82.82098, 20.35074 ], [ 82.82213, 20.3446 ], [ 82.82823, 20.34132 ], [ 82.83286, 20.34097 ], [ 82.83451, 20.33614 ], [ 82.83853, 20.3362 ], [ 82.8414, 20.33854 ], [ 82.84674, 20.34095 ], [ 82.84996, 20.34043 ], [ 82.85231, 20.33768 ], [ 82.8514, 20.33147 ], [ 82.85359, 20.32547 ], [ 82.84998, 20.31796 ], [ 82.84894, 20.31175 ], [ 82.8516, 20.30148 ], [ 82.85035, 20.29688 ], [ 82.8487, 20.29464 ], [ 82.84602, 20.29509 ], [ 82.84562, 20.29443 ], [ 82.8454, 20.29349 ], [ 82.84644, 20.29259 ], [ 82.84588, 20.29109 ], [ 82.84448, 20.29078 ], [ 82.83842, 20.29353 ], [ 82.8359, 20.29565 ], [ 82.8358, 20.2971 ], [ 82.84014, 20.30026 ], [ 82.84148, 20.30259 ], [ 82.83984, 20.30567 ], [ 82.83339, 20.30669 ], [ 82.83312, 20.30919 ], [ 82.83675, 20.31632 ], [ 82.8363, 20.31874 ], [ 82.8339, 20.32168 ], [ 82.829, 20.32012 ], [ 82.82325, 20.31998 ], [ 82.82122, 20.32092 ], [ 82.81911, 20.32085 ], [ 82.81589, 20.31755 ], [ 82.8152, 20.31506 ], [ 82.81848, 20.31349 ], [ 82.81908, 20.30716 ], [ 82.81843, 20.30721 ], [ 82.81876, 20.306 ], [ 82.8168, 20.3003 ], [ 82.81359, 20.29603 ], [ 82.81042, 20.29559 ], [ 82.81254, 20.28963 ], [ 82.81733, 20.28441 ], [ 82.81933, 20.28342 ], [ 82.82124, 20.28108 ], [ 82.82187, 20.28362 ], [ 82.82461, 20.28379 ], [ 82.82597, 20.28062 ], [ 82.8286, 20.27993 ], [ 82.83389, 20.28032 ], [ 82.8402, 20.2821 ], [ 82.84422, 20.29004 ], [ 82.84535, 20.29037 ], [ 82.85587, 20.28021 ], [ 82.8599, 20.26946 ], [ 82.85683, 20.26143 ], [ 82.85828, 20.25527 ], [ 82.85153, 20.25283 ], [ 82.85227, 20.24658 ], [ 82.85093, 20.24303 ], [ 82.85146, 20.24032 ], [ 82.85308, 20.23994 ], [ 82.85219, 20.2369 ], [ 82.85341, 20.23639 ], [ 82.85392, 20.23733 ], [ 82.85495, 20.23739 ], [ 82.85941, 20.23652 ], [ 82.85943, 20.23543 ], [ 82.86079, 20.2349 ], [ 82.8602, 20.23266 ], [ 82.86087, 20.23135 ], [ 82.8565, 20.22822 ], [ 82.85767, 20.22665 ], [ 82.85675, 20.22667 ], [ 82.85647, 20.22379 ], [ 82.85474, 20.22301 ], [ 82.85509, 20.21935 ], [ 82.85109, 20.21091 ], [ 82.84785, 20.2066 ], [ 82.847, 20.19578 ], [ 82.84538, 20.19384 ], [ 82.8417, 20.19306 ], [ 82.83726, 20.18926 ], [ 82.83234, 20.18865 ], [ 82.82739, 20.18672 ], [ 82.81657, 20.18911 ], [ 82.81192, 20.18463 ], [ 82.81266, 20.18227 ], [ 82.81086, 20.18082 ], [ 82.80962, 20.17468 ], [ 82.81068, 20.17154 ], [ 82.81274, 20.17137 ], [ 82.81493, 20.16818 ], [ 82.81693, 20.16802 ], [ 82.82292, 20.16521 ], [ 82.82046, 20.15958 ], [ 82.81665, 20.13792 ], [ 82.81609, 20.12847 ], [ 82.81922, 20.12233 ], [ 82.8192, 20.12083 ], [ 82.81455, 20.12097 ], [ 82.80834, 20.12368 ], [ 82.80716, 20.1249 ], [ 82.80473, 20.13217 ], [ 82.8014, 20.13425 ], [ 82.80032, 20.13446 ], [ 82.80082, 20.12674 ], [ 82.79663, 20.12609 ], [ 82.79596, 20.1266 ], [ 82.79557, 20.13284 ], [ 82.79395, 20.13534 ], [ 82.79208, 20.13493 ], [ 82.78842, 20.13178 ], [ 82.78464, 20.12444 ], [ 82.78228, 20.12174 ], [ 82.77432, 20.12099 ], [ 82.77287, 20.1188 ], [ 82.76818, 20.12145 ], [ 82.76344, 20.11935 ], [ 82.75853, 20.11985 ], [ 82.75777, 20.11934 ], [ 82.75783, 20.11776 ], [ 82.75649, 20.1175 ], [ 82.75311, 20.11999 ], [ 82.75275, 20.12354 ], [ 82.74635, 20.12478 ], [ 82.74704, 20.12898 ], [ 82.74661, 20.13067 ], [ 82.74562, 20.13223 ], [ 82.74292, 20.13375 ], [ 82.73077, 20.13288 ], [ 82.72785, 20.12874 ], [ 82.72405, 20.12643 ], [ 82.72164, 20.1282 ], [ 82.71904, 20.12879 ], [ 82.71633, 20.12839 ], [ 82.7149, 20.12914 ], [ 82.71221, 20.13337 ], [ 82.71457, 20.13732 ], [ 82.71091, 20.14451 ], [ 82.70392, 20.15167 ], [ 82.70184, 20.15232 ], [ 82.69999, 20.15183 ], [ 82.69946, 20.14574 ], [ 82.69813, 20.1446 ], [ 82.69536, 20.14484 ], [ 82.6902, 20.147 ], [ 82.68457, 20.15117 ], [ 82.67985, 20.15226 ], [ 82.676, 20.15533 ], [ 82.67377, 20.15914 ], [ 82.6719, 20.16002 ], [ 82.67937, 20.16688 ], [ 82.681, 20.17804 ], [ 82.68441, 20.1778 ], [ 82.68968, 20.17989 ], [ 82.69076, 20.18103 ], [ 82.68897, 20.18301 ], [ 82.68961, 20.18612 ], [ 82.68375, 20.18377 ], [ 82.68315, 20.18854 ], [ 82.6765, 20.1864 ], [ 82.67501, 20.18674 ], [ 82.67757, 20.19012 ], [ 82.68281, 20.19363 ], [ 82.68396, 20.1919 ], [ 82.6868, 20.1901 ], [ 82.6877, 20.19097 ], [ 82.68617, 20.19274 ], [ 82.68782, 20.19288 ], [ 82.69133, 20.19667 ], [ 82.69302, 20.19681 ], [ 82.69235, 20.19367 ], [ 82.69259, 20.1924 ], [ 82.69357, 20.19229 ], [ 82.69763, 20.1962 ], [ 82.70001, 20.19636 ], [ 82.69992, 20.19738 ], [ 82.70342, 20.2035 ], [ 82.70288, 20.20602 ], [ 82.69985, 20.20606 ], [ 82.69782, 20.20126 ], [ 82.69646, 20.2001 ], [ 82.69467, 20.20001 ], [ 82.69328, 20.20123 ], [ 82.69129, 20.20521 ], [ 82.69059, 20.20825 ], [ 82.68848, 20.20969 ], [ 82.68057, 20.21141 ], [ 82.68181, 20.2138 ], [ 82.68229, 20.21884 ], [ 82.67923, 20.21888 ], [ 82.67635, 20.21991 ], [ 82.67319, 20.22353 ], [ 82.669, 20.22349 ], [ 82.66583, 20.22103 ], [ 82.66333, 20.22143 ], [ 82.6644, 20.22536 ], [ 82.66996, 20.23137 ], [ 82.67078, 20.23424 ], [ 82.66953, 20.2354 ], [ 82.66562, 20.23705 ], [ 82.66118, 20.23646 ], [ 82.65311, 20.2413 ], [ 82.64814, 20.24002 ], [ 82.64744, 20.24208 ], [ 82.64881, 20.25114 ], [ 82.64497, 20.25321 ], [ 82.64438, 20.24922 ], [ 82.64296, 20.24788 ], [ 82.64109, 20.24924 ], [ 82.64039, 20.24802 ], [ 82.63264, 20.24806 ], [ 82.63262, 20.24924 ], [ 82.63073, 20.24951 ], [ 82.63034, 20.25386 ], [ 82.62671, 20.25486 ], [ 82.62576, 20.25594 ], [ 82.62664, 20.25974 ], [ 82.63403, 20.27078 ], [ 82.63601, 20.27609 ], [ 82.63708, 20.27615 ], [ 82.63772, 20.27509 ], [ 82.63675, 20.26905 ], [ 82.64068, 20.26731 ], [ 82.64235, 20.26918 ], [ 82.64342, 20.27492 ], [ 82.64296, 20.27701 ], [ 82.64127, 20.28002 ], [ 82.63769, 20.27988 ], [ 82.63609, 20.28187 ], [ 82.64073, 20.2855 ], [ 82.64201, 20.28756 ], [ 82.64258, 20.29073 ], [ 82.65582, 20.29019 ], [ 82.67852, 20.29437 ], [ 82.69005, 20.29763 ], [ 82.68791, 20.30041 ], [ 82.68331, 20.31957 ], [ 82.68429, 20.32237 ], [ 82.68902, 20.32685 ], [ 82.68969, 20.32848 ], [ 82.68908, 20.32978 ], [ 82.68145, 20.33457 ], [ 82.67838, 20.3374 ], [ 82.67737, 20.34487 ], [ 82.6766, 20.3459 ], [ 82.66408, 20.35541 ], [ 82.66225, 20.35753 ], [ 82.66122, 20.36353 ], [ 82.65627, 20.36998 ], [ 82.65604, 20.37217 ], [ 82.65875, 20.37995 ], [ 82.66659, 20.37832 ], [ 82.66752, 20.37862 ], [ 82.66828, 20.38032 ], [ 82.67278, 20.37636 ], [ 82.67426, 20.37671 ], [ 82.67671, 20.38073 ], [ 82.67623, 20.38431 ], [ 82.67686, 20.38607 ], [ 82.68315, 20.39288 ], [ 82.69671, 20.38063 ], [ 82.70228, 20.38364 ], [ 82.7088, 20.38044 ], [ 82.7125, 20.38317 ], [ 82.71496, 20.38725 ], [ 82.71657, 20.39264 ], [ 82.71853, 20.39609 ], [ 82.72311, 20.3935 ], [ 82.72426, 20.38813 ], [ 82.72991, 20.38319 ], [ 82.72929, 20.38177 ], [ 82.72721, 20.38079 ] ] ] } },
{ "type": "Feature", "properties": { "OBJECTID": 1751, "state_lgd": "21", "state_name": "ODISHA", "district_lgd": "394", "district_name": "NUAPARHA", "district_name_source": "district_table", "subdistrict_lgd": "03155", "subdistrict_name": "KOMNA", "subdistrict_type": "Tehsil", "name_corrupted": false, "remarks": "", "label_lon": 82.55736805374498, "label_lat": 20.568203829589194 }, "geometry": { "type": "Polygon", "coordinates": [ [ [ 82.69576, 20.76719 ], [ 82.69765, 20.76137 ], [ 82.69651, 20.75635 ], [ 82.69686, 20.75453 ], [ 82.69196, 20.75038 ], [ 82.69139, 20.7474 ], [ 82.69006, 20.74527 ], [ 82.68812, 20.74345 ], [ 82.68616, 20.74361 ], [ 82.68485, 20.74013 ], [ 82.68535, 20.73303 ], [ 82.69987, 20.72966 ], [ 82.69764, 20.71473 ], [ 82.69505, 20.71104 ], [ 82.69336, 20.70581 ], [ 82.69405, 20.69344 ], [ 82.69317, 20.68479 ], [ 82.69371, 20.68361 ], [ 82.69521, 20.68322 ], [ 82.70076, 20.68396 ], [ 82.70662, 20.68263 ], [ 82.71891, 20.67818 ], [ 82.72231, 20.67232 ], [ 82.72531, 20.67083 ], [ 82.72402, 20.66698 ], [ 82.72495, 20.66136 ], [ 82.72393, 20.65767 ], [ 82.73006, 20.65562 ], [ 82.7301, 20.65448 ], [ 82.73106, 20.65417 ], [ 82.7292, 20.64517 ], [ 82.72713, 20.6394 ], [ 82.73074, 20.63515 ], [ 82.73249, 20.63437 ], [ 82.73704, 20.63472 ], [ 82.74198, 20.6309 ], [ 82.73883, 20.62187 ], [ 82.73636, 20.61739 ], [ 82.73583, 20.61448 ], [ 82.73005, 20.60604 ], [ 82.73071, 20.60187 ], [ 82.72646, 20.59131 ], [ 82.72851, 20.58521 ], [ 82.72476, 20.58309 ], [ 82.72121, 20.57968 ], [ 82.71618, 20.57732 ], [ 82.71468, 20.57482 ], [ 82.71019, 20.57049 ], [ 82.71173, 20.5644 ], [ 82.71012, 20.56106 ], [ 82.71041, 20.55634 ], [ 82.70794, 20.55458 ], [ 82.70772, 20.54861 ], [ 82.70962, 20.54432 ], [ 82.70703, 20.54373 ], [ 82.70443, 20.53945 ], [ 82.70497, 20.53663 ], [ 82.70379, 20.53286 ], [ 82.7079, 20.52881 ], [ 82.70869, 20.52668 ], [ 82.70684, 20.51584 ], [ 82.70514, 20.5116 ], [ 82.70515, 20.5043 ], [ 82.70209, 20.503 ], [ 82.70054, 20.50075 ], [ 82.69926, 20.49739 ], [ 82.70017, 20.49261 ], [ 82.69547, 20.48183 ], [ 82.69064, 20.47928 ], [ 82.68718, 20.47607 ], [ 82.68811, 20.47064 ], [ 82.68947, 20.46857 ], [ 82.68331, 20.46139 ], [ 82.68445, 20.45333 ], [ 82.6908, 20.45414 ], [ 82.69628, 20.45043 ], [ 82.69812, 20.44451 ], [ 82.69966, 20.44256 ], [ 82.69919, 20.43952 ], [ 82.69431, 20.43115 ], [ 82.69634, 20.42617 ], [ 82.7029, 20.42335 ], [ 82.70517, 20.41939 ], [ 82.70871, 20.41619 ], [ 82.71131, 20.40879 ], [ 82.71268, 20.40792 ], [ 82.71233, 20.40279 ], [ 82.71556, 20.39768 ], [ 82.71853, 20.39609 ], [ 82.71657, 20.39264 ], [ 82.71496, 20.38725 ], [ 82.7125, 20.38317 ], [ 82.7088, 20.38044 ], [ 82.70228, 20.38364 ], [ 82.69671, 20.38063 ], [ 82.68315, 20.39288 ], [ 82.67686, 20.38607 ], [ 82.67623, 20.38431 ], [ 82.67671, 20.38073 ], [ 82.67426, 20.37671 ], [ 82.67278, 20.37636 ], [ 82.66828, 20.38032 ], [ 82.66752, 20.37862 ], [ 82.66659, 20.37832 ], [ 82.65879, 20.37994 ], [ 82.65856, 20.38105 ], [ 82.65495, 20.3834 ], [ 82.65401, 20.38656 ], [ 82.65138, 20.38943 ], [ 82.6485, 20.39042 ], [ 82.64621, 20.39008 ], [ 82.64514, 20.39106 ], [ 82.64431, 20.39592 ], [ 82.64513, 20.40062 ], [ 82.63722, 20.40681 ], [ 82.6347, 20.4121 ], [ 82.63206, 20.42022 ], [ 82.63683, 20.42113 ], [ 82.63814, 20.4226 ], [ 82.63762, 20.42455 ], [ 82.63595, 20.42444 ], [ 82.6283, 20.43005 ], [ 82.61757, 20.43437 ], [ 82.6135, 20.4334 ], [ 82.60801, 20.43575 ], [ 82.60422, 20.4351 ], [ 82.60354, 20.43717 ], [ 82.60241, 20.43678 ], [ 82.59507, 20.44468 ], [ 82.59384, 20.44438 ], [ 82.58998, 20.4399 ], [ 82.58625, 20.44254 ], [ 82.58259, 20.44337 ], [ 82.5771, 20.4469 ], [ 82.57527, 20.44952 ], [ 82.57481, 20.45285 ], [ 82.55748, 20.45205 ], [ 82.55463, 20.44147 ], [ 82.55875, 20.43573 ], [ 82.55863, 20.43391 ], [ 82.55695, 20.43215 ], [ 82.55754, 20.42909 ], [ 82.55709, 20.42596 ], [ 82.55933, 20.42357 ], [ 82.55723, 20.42007 ], [ 82.55444, 20.41994 ], [ 82.55428, 20.41514 ], [ 82.54359, 20.39457 ], [ 82.53645, 20.36996 ], [ 82.43164, 20.41892 ], [ 82.42966, 20.42787 ], [ 82.43786, 20.43439 ], [ 82.43398, 20.44567 ], [ 82.42573, 20.44533 ], [ 82.42705, 20.46906 ], [ 82.42476, 20.47184 ], [ 82.42365, 20.47512 ], [ 82.41763, 20.48174 ], [ 82.41598, 20.48165 ], [ 82.41613, 20.47989 ], [ 82.41469, 20.4776 ], [ 82.41466, 20.47566 ], [ 82.41281, 20.47442 ], [ 82.41318, 20.47376 ], [ 82.41155, 20.47146 ], [ 82.41221, 20.4708 ], [ 82.41078, 20.47065 ], [ 82.41133, 20.47007 ], [ 82.41048, 20.46959 ], [ 82.41079, 20.46813 ], [ 82.40869, 20.46836 ], [ 82.40798, 20.46733 ], [ 82.40901, 20.46479 ], [ 82.40855, 20.46324 ], [ 82.40622, 20.4623 ], [ 82.40427, 20.46005 ], [ 82.40295, 20.46032 ], [ 82.40191, 20.46193 ], [ 82.40013, 20.46107 ], [ 82.39798, 20.46192 ], [ 82.39606, 20.45957 ], [ 82.39478, 20.46229 ], [ 82.39764, 20.46484 ], [ 82.39784, 20.47294 ], [ 82.39634, 20.47503 ], [ 82.39608, 20.47766 ], [ 82.39205, 20.47866 ], [ 82.39243, 20.481 ], [ 82.39374, 20.4825 ], [ 82.39274, 20.48489 ], [ 82.39316, 20.48643 ], [ 82.3906, 20.48619 ], [ 82.39109, 20.49243 ], [ 82.39019, 20.49253 ], [ 82.38834, 20.49536 ], [ 82.3885, 20.4971 ], [ 82.38953, 20.498 ], [ 82.38852, 20.50202 ], [ 82.388, 20.51073 ], [ 82.3897, 20.5176 ], [ 82.38097, 20.52103 ], [ 82.37931, 20.52094 ], [ 82.37825, 20.52203 ], [ 82.36806, 20.52386 ], [ 82.36625, 20.52568 ], [ 82.35765, 20.52933 ], [ 82.35435, 20.53407 ], [ 82.35343, 20.53731 ], [ 82.34861, 20.54667 ], [ 82.345, 20.54794 ], [ 82.34203, 20.55198 ], [ 82.3357, 20.5551 ], [ 82.33223, 20.56191 ], [ 82.3329, 20.56399 ], [ 82.33421, 20.56381 ], [ 82.33488, 20.5646 ], [ 82.33337, 20.56855 ], [ 82.33905, 20.56939 ], [ 82.34335, 20.57152 ], [ 82.34521, 20.5741 ], [ 82.34836, 20.5764 ], [ 82.34834, 20.57859 ], [ 82.35064, 20.58127 ], [ 82.34679, 20.5906 ], [ 82.34408, 20.59289 ], [ 82.34374, 20.59577 ], [ 82.3457, 20.59656 ], [ 82.34485, 20.59848 ], [ 82.34713, 20.60254 ], [ 82.35256, 20.60298 ], [ 82.35477, 20.60569 ], [ 82.3559, 20.60925 ], [ 82.35865, 20.60848 ], [ 82.36226, 20.60991 ], [ 82.36314, 20.61171 ], [ 82.36292, 20.61412 ], [ 82.36451, 20.61445 ], [ 82.36538, 20.61562 ], [ 82.36405, 20.61908 ], [ 82.36496, 20.62037 ], [ 82.36452, 20.62218 ], [ 82.37095, 20.62599 ], [ 82.3765, 20.63241 ], [ 82.37467, 20.63533 ], [ 82.37467, 20.63907 ], [ 82.36848, 20.64923 ], [ 82.36836, 20.65192 ], [ 82.36968, 20.65359 ], [ 82.36997, 20.65556 ], [ 82.36863, 20.65803 ], [ 82.36875, 20.65959 ], [ 82.3738, 20.66737 ], [ 82.40963, 20.66509 ], [ 82.4152, 20.65934 ], [ 82.41585, 20.65699 ], [ 82.41296, 20.65487 ], [ 82.41079, 20.6547 ], [ 82.4106, 20.65028 ], [ 82.41136, 20.64842 ], [ 82.41578, 20.64471 ], [ 82.41634, 20.64078 ], [ 82.42039, 20.63677 ], [ 82.43388, 20.64096 ], [ 82.43782, 20.6426 ], [ 82.43985, 20.64462 ], [ 82.44316, 20.65869 ], [ 82.44607, 20.66616 ], [ 82.47627, 20.68301 ], [ 82.50582, 20.69638 ], [ 82.50879, 20.69237 ], [ 82.50806, 20.68426 ], [ 82.5108, 20.67726 ], [ 82.50895, 20.67102 ], [ 82.50898, 20.6687 ], [ 82.51175, 20.66349 ], [ 82.50838, 20.66012 ], [ 82.50944, 20.65931 ], [ 82.51283, 20.6597 ], [ 82.51358, 20.65876 ], [ 82.51188, 20.65556 ], [ 82.51501, 20.65107 ], [ 82.51352, 20.64906 ], [ 82.51406, 20.64798 ], [ 82.51747, 20.6491 ], [ 82.52084, 20.64824 ], [ 82.52216, 20.64862 ], [ 82.52338, 20.65117 ], [ 82.52121, 20.65934 ], [ 82.51589, 20.6601 ], [ 82.51424, 20.66113 ], [ 82.51352, 20.66419 ], [ 82.51597, 20.67055 ], [ 82.51867, 20.68881 ], [ 82.52335, 20.69129 ], [ 82.52535, 20.69343 ], [ 82.52681, 20.69836 ], [ 82.52611, 20.70273 ], [ 82.53894, 20.70426 ], [ 82.54846, 20.70067 ], [ 82.54906, 20.70356 ], [ 82.55694, 20.70864 ], [ 82.56544, 20.72312 ], [ 82.56373, 20.72949 ], [ 82.56213, 20.72953 ], [ 82.55885, 20.73276 ], [ 82.55892, 20.73395 ], [ 82.56333, 20.73536 ], [ 82.56682, 20.73762 ], [ 82.56712, 20.74092 ], [ 82.56615, 20.74412 ], [ 82.5697, 20.74911 ], [ 82.57491, 20.7482 ], [ 82.5811, 20.75048 ], [ 82.57892, 20.75376 ], [ 82.57809, 20.75369 ], [ 82.57723, 20.75213 ], [ 82.57632, 20.75236 ], [ 82.57592, 20.75995 ], [ 82.57673, 20.76198 ], [ 82.57563, 20.76531 ], [ 82.57898, 20.76391 ], [ 82.58068, 20.76678 ], [ 82.58139, 20.76502 ], [ 82.58051, 20.76116 ], [ 82.58228, 20.75905 ], [ 82.5847, 20.76032 ], [ 82.58531, 20.76463 ], [ 82.59109, 20.7624 ], [ 82.59838, 20.76183 ], [ 82.60006, 20.76272 ], [ 82.60605, 20.76251 ], [ 82.61697, 20.77145 ], [ 82.62025, 20.76935 ], [ 82.62943, 20.76077 ], [ 82.63464, 20.76426 ], [ 82.64081, 20.76153 ], [ 82.65097, 20.76186 ], [ 82.65516, 20.76271 ], [ 82.65685, 20.76222 ], [ 82.65849, 20.76242 ], [ 82.65943, 20.76405 ], [ 82.66002, 20.76986 ], [ 82.66125, 20.7716 ], [ 82.66598, 20.77318 ], [ 82.66727, 20.77289 ], [ 82.67541, 20.76626 ], [ 82.68224, 20.7655 ], [ 82.69576, 20.76719 ] ] ] } },
{ "type": "Feature", "properties": { "OBJECTID": 1752, "state_lgd": "21", "state_name": "ODISHA", "district_lgd": "394", "district_name": "NUAPARHA", "district_name_source": "district_table", "subdistrict_lgd": "03154", "subdistrict_name": "NUAPADA", "subdistrict_type": "Tehsil", "name_corrupted": false, "remarks": "", "label_lon": 82.533342272676592, "label_lat": 20.834858580882695 }, "geometry": { "type": "Polygon", "coordinates": [ [ [ 82.63723, 21.09031 ], [ 82.63715, 21.08943 ], [ 82.63808, 21.08976 ], [ 82.63778, 21.08835 ], [ 82.63908, 21.08796 ], [ 82.63963, 21.0893 ], [ 82.64112, 21.08721 ], [ 82.6408, 21.08556 ], [ 82.64153, 21.08363 ], [ 82.64335, 21.08331 ], [ 82.64468, 21.08164 ], [ 82.64636, 21.08113 ], [ 82.64688, 21.07975 ], [ 82.64973, 21.08007 ], [ 82.65193, 21.07881 ], [ 82.65576, 21.07863 ], [ 82.66265, 21.0728 ], [ 82.66924, 21.06504 ], [ 82.67231, 21.0588 ], [ 82.67195, 21.05648 ], [ 82.67448, 21.05343 ], [ 82.67635, 21.04852 ], [ 82.67905, 21.04001 ], [ 82.6797, 21.03454 ], [ 82.68445, 21.03063 ], [ 82.68492, 21.02791 ], [ 82.68729, 21.02749 ], [ 82.69237, 21.02167 ], [ 82.68951, 21.0174 ], [ 82.68869, 21.00127 ], [ 82.68922, 20.992 ], [ 82.68717, 20.97331 ], [ 82.69715, 20.94875 ], [ 82.69644, 20.94487 ], [ 82.69694, 20.94119 ], [ 82.69855, 20.93761 ], [ 82.69647, 20.93445 ], [ 82.69545, 20.92714 ], [ 82.69373, 20.92422 ], [ 82.69459, 20.9225 ], [ 82.69246, 20.89998 ], [ 82.68618, 20.89105 ], [ 82.68095, 20.88734 ], [ 82.68089, 20.88538 ], [ 82.68209, 20.88197 ], [ 82.68267, 20.87162 ], [ 82.68176, 20.86953 ], [ 82.68357, 20.86618 ], [ 82.68473, 20.86554 ], [ 82.68661, 20.85502 ], [ 82.685, 20.84457 ], [ 82.68647, 20.83986 ], [ 82.68723, 20.83073 ], [ 82.68421, 20.82611 ], [ 82.68312, 20.81379 ], [ 82.68442, 20.80677 ], [ 82.68782, 20.80115 ], [ 82.68765, 20.79656 ], [ 82.68904, 20.79143 ], [ 82.68817, 20.789 ], [ 82.68952, 20.78299 ], [ 82.68971, 20.77442 ], [ 82.69473, 20.77048 ], [ 82.69576, 20.76719 ], [ 82.68224, 20.7655 ], [ 82.67541, 20.76626 ], [ 82.66727, 20.77289 ], [ 82.66598, 20.77318 ], [ 82.66125, 20.7716 ], [ 82.66002, 20.76986 ], [ 82.65943, 20.76405 ], [ 82.65849, 20.76242 ], [ 82.65685, 20.76222 ], [ 82.65516, 20.76271 ], [ 82.65097, 20.76186 ], [ 82.64081, 20.76153 ], [ 82.63464, 20.76426 ], [ 82.62943, 20.76077 ], [ 82.62025, 20.76935 ], [ 82.61697, 20.77145 ], [ 82.60605, 20.76251 ], [ 82.60006, 20.76272 ], [ 82.59838, 20.76183 ], [ 82.59109, 20.7624 ], [ 82.58531, 20.76463 ], [ 82.5847, 20.76032 ], [ 82.58228, 20.75905 ], [ 82.58051, 20.76116 ], [ 82.58139, 20.76502 ], [ 82.58068, 20.76678 ], [ 82.57898, 20.76391 ], [ 82.57563, 20.76531 ], [ 82.57673, 20.76198 ], [ 82.57592, 20.75995 ], [ 82.57632, 20.75236 ], [ 82.57723, 20.75213 ], [ 82.57809, 20.75369 ], [ 82.57892, 20.75376 ], [ 82.5811, 20.75048 ], [ 82.57491, 20.7482 ], [ 82.5697, 20.74911 ], [ 82.56615, 20.74412 ], [ 82.56712, 20.74092 ], [ 82.56682, 20.73762 ], [ 82.56333, 20.73536 ], [ 82.55892, 20.73395 ], [ 82.55885, 20.73276 ], [ 82.56213, 20.72953 ], [ 82.56373, 20.72949 ], [ 82.56544, 20.72312 ], [ 82.55694, 20.70864 ], [ 82.54906, 20.70356 ], [ 82.54846, 20.70067 ], [ 82.53894, 20.70426 ], [ 82.52611, 20.70273 ], [ 82.52681, 20.69836 ], [ 82.52535, 20.69343 ], [ 82.52335, 20.69129 ], [ 82.51867, 20.68881 ], [ 82.51597, 20.67055 ], [ 82.51352, 20.66419 ], [ 82.51424, 20.66113 ], [ 82.51589, 20.6601 ], [ 82.52121, 20.65934 ], [ 82.52338, 20.65117 ], [ 82.52216, 20.64862 ], [ 82.52084, 20.64824 ], [ 82.51747, 20.6491 ], [ 82.51406, 20.64798 ], [ 82.51352, 20.64906 ], [ 82.51501, 20.65107 ], [ 82.51188, 20.65556 ], [ 82.51358, 20.65876 ], [ 82.51283, 20.6597 ], [ 82.50944, 20.65931 ], [ 82.50838, 20.66012 ], [ 82.51175, 20.66349 ], [ 82.50898, 20.6687 ], [ 82.50895, 20.67102 ], [ 82.5108, 20.67726 ], [ 82.50806, 20.68426 ], [ 82.50879, 20.69237 ], [ 82.50582, 20.69638 ], [ 82.47627, 20.68301 ], [ 82.44607, 20.66616 ], [ 82.44316, 20.65869 ], [ 82.43985, 20.64462 ], [ 82.43782, 20.6426 ], [ 82.43388, 20.64096 ], [ 82.42039, 20.63677 ], [ 82.41634, 20.64078 ], [ 82.41578, 20.64471 ], [ 82.41136, 20.64842 ], [ 82.4106, 20.65028 ], [ 82.41079, 20.6547 ], [ 82.41296, 20.65487 ], [ 82.41585, 20.65699 ], [ 82.4152, 20.65934 ], [ 82.40963, 20.66509 ], [ 82.3738, 20.66737 ], [ 82.36705, 20.68019 ], [ 82.36145, 20.68195 ], [ 82.36034, 20.68356 ], [ 82.35752, 20.69009 ], [ 82.355, 20.69319 ], [ 82.35239, 20.70363 ], [ 82.35041, 20.70634 ], [ 82.35076, 20.71728 ], [ 82.35401, 20.71966 ], [ 82.34556, 20.73159 ], [ 82.35081, 20.73348 ], [ 82.35355, 20.73592 ], [ 82.34171, 20.76776 ], [ 82.34364, 20.77095 ], [ 82.34386, 20.79223 ], [ 82.34611, 20.79763 ], [ 82.34225, 20.80371 ], [ 82.34317, 20.80893 ], [ 82.34112, 20.81249 ], [ 82.34102, 20.82083 ], [ 82.33934, 20.82577 ], [ 82.3414, 20.82956 ], [ 82.34158, 20.83283 ], [ 82.34111, 20.84066 ], [ 82.34033, 20.84159 ], [ 82.33953, 20.84683 ], [ 82.34446, 20.85637 ], [ 82.34492, 20.86588 ], [ 82.34563, 20.86702 ], [ 82.34676, 20.87704 ], [ 82.34729, 20.8794 ], [ 82.34997, 20.88378 ], [ 82.35119, 20.88974 ], [ 82.36375, 20.88849 ], [ 82.36039, 20.87946 ], [ 82.36051, 20.87642 ], [ 82.35948, 20.87381 ], [ 82.36461, 20.87067 ], [ 82.37592, 20.86798 ], [ 82.37849, 20.86863 ], [ 82.38505, 20.87409 ], [ 82.38872, 20.87446 ], [ 82.38967, 20.87532 ], [ 82.38924, 20.87409 ], [ 82.39175, 20.87325 ], [ 82.39557, 20.87003 ], [ 82.40545, 20.87019 ], [ 82.40751, 20.86576 ], [ 82.40685, 20.85928 ], [ 82.40785, 20.85758 ], [ 82.41008, 20.85636 ], [ 82.41287, 20.85086 ], [ 82.40995, 20.8456 ], [ 82.41055, 20.84345 ], [ 82.4101, 20.84229 ], [ 82.41219, 20.84195 ], [ 82.41329, 20.83951 ], [ 82.41673, 20.83866 ], [ 82.41859, 20.8366 ], [ 82.41909, 20.83258 ], [ 82.41996, 20.83156 ], [ 82.42698, 20.83148 ], [ 82.43356, 20.83423 ], [ 82.43756, 20.8342 ], [ 82.43934, 20.83564 ], [ 82.44353, 20.83437 ], [ 82.44367, 20.831 ], [ 82.44728, 20.82996 ], [ 82.44902, 20.83101 ], [ 82.45437, 20.82765 ], [ 82.45882, 20.82763 ], [ 82.46448, 20.829 ], [ 82.46878, 20.83518 ], [ 82.46537, 20.84082 ], [ 82.46539, 20.84295 ], [ 82.47044, 20.84808 ], [ 82.48108, 20.85131 ], [ 82.48332, 20.8543 ], [ 82.48392, 20.85843 ], [ 82.48668, 20.86165 ], [ 82.48598, 20.87028 ], [ 82.49012, 20.87681 ], [ 82.49107, 20.88063 ], [ 82.48912, 20.89802 ], [ 82.48699, 20.90504 ], [ 82.4877, 20.908 ], [ 82.48976, 20.91028 ], [ 82.50443, 20.91959 ], [ 82.51594, 20.92176 ], [ 82.51879, 20.92386 ], [ 82.523, 20.93069 ], [ 82.52711, 20.934 ], [ 82.52995, 20.93481 ], [ 82.5372, 20.93472 ], [ 82.54303, 20.93661 ], [ 82.55214, 20.94196 ], [ 82.55915, 20.94794 ], [ 82.56466, 20.95713 ], [ 82.56712, 20.96468 ], [ 82.57138, 20.97226 ], [ 82.58051, 20.97973 ], [ 82.58878, 20.99355 ], [ 82.59499, 20.99789 ], [ 82.60555, 21.00839 ], [ 82.61136, 21.01297 ], [ 82.61295, 21.01617 ], [ 82.61276, 21.02175 ], [ 82.61333, 21.02285 ], [ 82.61865, 21.02705 ], [ 82.62202, 21.03203 ], [ 82.62879, 21.03804 ], [ 82.62978, 21.04094 ], [ 82.6261, 21.04854 ], [ 82.62407, 21.05093 ], [ 82.61788, 21.05468 ], [ 82.61725, 21.05986 ], [ 82.61186, 21.06919 ], [ 82.61198, 21.07469 ], [ 82.61452, 21.07802 ], [ 82.61651, 21.07918 ], [ 82.61971, 21.07963 ], [ 82.62821, 21.0781 ], [ 82.62963, 21.07882 ], [ 82.63311, 21.08319 ], [ 82.63451, 21.08903 ], [ 82.63564, 21.0906 ], [ 82.63723, 21.09031 ] ] ] } }
]
}
