{
"type": "FeatureCollection",
"name": "397_NABARANGAPUR",
"crs": { "type": "name", "properties": { "name": "urn:ogc:def:crs:OGC:1.3:CRS84" } },
"xy_coordinate_resolution": 1e-05,
"features": [
{ "type": "Feature", "properties": { "OBJECTID": 1694, "state_lgd": "21", "state_name": "ODISHA", "district_lgd": "397", "district_name": "NABARANGAPUR", "district_name_source": "district_table", "subdistrict_lgd": "06720", "subdistrict_name": "TENTULIKHUNTI", "subdistrict_type": "Tehsil", "name_corrupted": false, "remarks": "", "label_lon": 82.72142085472467, "label_lat": 19.304769050165191 }, "geometry": { "type": "MultiPolygon", "coordinates": [ [ [ [ 82.73105, 19.21714 ], [ 82.73105, 19.21486 ], [ 82.73226, 19.21407 ], [ 82.73195, 19.21242 ], [ 82.7306, 19.2113 ], [ 82.72898, 19.2116 ], [ 82.72849, 19.2105 ], [ 82.72654, 19.21228 ], [ 82.72552, 19.21017 ], [ 82.72499, 19.21148 ], [ 82.72596, 19.2174 ], [ 82.72726, 19.21654 ], [ 82.72841, 19.21742 ], [ 82.73105, 19.21714 ] ] ], [ [ [ 82.64565, 19.45029 ], [ 82.65189, 19.4495 ], [ 82.65937, 19.44197 ], [ 82.66344, 19.44474 ], [ 82.66468, 19.44372 ], [ 82.66844, 19.44357 ], [ 82.6708, 19.44123 ], [ 82.67187, 19.44278 ], [ 82.67406, 19.44203 ], [ 82.67392, 19.43413 ], [ 82.67836, 19.43428 ], [ 82.68251, 19.43736 ], [ 82.68441, 19.43157 ], [ 82.68845, 19.42622 ], [ 82.68963, 19.42015 ], [ 82.69495, 19.4162 ], [ 82.69785, 19.41613 ], [ 82.70151, 19.41786 ], [ 82.70828, 19.41923 ], [ 82.70699, 19.4146 ], [ 82.71155, 19.41382 ], [ 82.71479, 19.40907 ], [ 82.71437, 19.40586 ], [ 82.71551, 19.40434 ], [ 82.71296, 19.40183 ], [ 82.70613, 19.40018 ], [ 82.71057, 19.39418 ], [ 82.71152, 19.3912 ], [ 82.70681, 19.3896 ], [ 82.7085, 19.37862 ], [ 82.71341, 19.37711 ], [ 82.71549, 19.37451 ], [ 82.71696, 19.36979 ], [ 82.71168, 19.36817 ], [ 82.71186, 19.36347 ], [ 82.71417, 19.35556 ], [ 82.71611, 19.3561 ], [ 82.71695, 19.35298 ], [ 82.71937, 19.3535 ], [ 82.72173, 19.35244 ], [ 82.72498, 19.35424 ], [ 82.72565, 19.34503 ], [ 82.73226, 19.34466 ], [ 82.73799, 19.34887 ], [ 82.74139, 19.34946 ], [ 82.74723, 19.34173 ], [ 82.74819, 19.33736 ], [ 82.75378, 19.33536 ], [ 82.75636, 19.33295 ], [ 82.75708, 19.33188 ], [ 82.75678, 19.32684 ], [ 82.77296, 19.33182 ], [ 82.76896, 19.3346 ], [ 82.77199, 19.34034 ], [ 82.77776, 19.34016 ], [ 82.77971, 19.34306 ], [ 82.78602, 19.34205 ], [ 82.78621, 19.33848 ], [ 82.78871, 19.33748 ], [ 82.78998, 19.33288 ], [ 82.7951, 19.3318 ], [ 82.79875, 19.32896 ], [ 82.80563, 19.33051 ], [ 82.8079, 19.33031 ], [ 82.80991, 19.32914 ], [ 82.8131, 19.32936 ], [ 82.81481, 19.32688 ], [ 82.81751, 19.32688 ], [ 82.81998, 19.32375 ], [ 82.82252, 19.32225 ], [ 82.82904, 19.32402 ], [ 82.83401, 19.32143 ], [ 82.83714, 19.32471 ], [ 82.83931, 19.32234 ], [ 82.8463, 19.32347 ], [ 82.84756, 19.32441 ], [ 82.84812, 19.32388 ], [ 82.84871, 19.32028 ], [ 82.84464, 19.31899 ], [ 82.8438, 19.31725 ], [ 82.84747, 19.31247 ], [ 82.85299, 19.3078 ], [ 82.85148, 19.30713 ], [ 82.84608, 19.30866 ], [ 82.84131, 19.30799 ], [ 82.84074, 19.30537 ], [ 82.84348, 19.30286 ], [ 82.84374, 19.30122 ], [ 82.83911, 19.30118 ], [ 82.83608, 19.29305 ], [ 82.83266, 19.29243 ], [ 82.83141, 19.29102 ], [ 82.83074, 19.28487 ], [ 82.826, 19.28238 ], [ 82.82586, 19.28157 ], [ 82.82929, 19.27781 ], [ 82.83, 19.2759 ], [ 82.82844, 19.2677 ], [ 82.82455, 19.26265 ], [ 82.82457, 19.25618 ], [ 82.82281, 19.25467 ], [ 82.82124, 19.25458 ], [ 82.81823, 19.25688 ], [ 82.81681, 19.2566 ], [ 82.81531, 19.25088 ], [ 82.8134, 19.24943 ], [ 82.8127, 19.24782 ], [ 82.80935, 19.24649 ], [ 82.80391, 19.2371 ], [ 82.80245, 19.23659 ], [ 82.80061, 19.23772 ], [ 82.79867, 19.23619 ], [ 82.80573, 19.2329 ], [ 82.81376, 19.23078 ], [ 82.8153, 19.23167 ], [ 82.8176, 19.23165 ], [ 82.8215, 19.2342 ], [ 82.82188, 19.23663 ], [ 82.8239, 19.23927 ], [ 82.8286, 19.23889 ], [ 82.82748, 19.23722 ], [ 82.83083, 19.23576 ], [ 82.83331, 19.23702 ], [ 82.83366, 19.23647 ], [ 82.83259, 19.23535 ], [ 82.83313, 19.23432 ], [ 82.83616, 19.23641 ], [ 82.83728, 19.23354 ], [ 82.83993, 19.23265 ], [ 82.84067, 19.22952 ], [ 82.84662, 19.22416 ], [ 82.847, 19.2171 ], [ 82.84578, 19.21168 ], [ 82.8503, 19.20678 ], [ 82.85377, 19.20715 ], [ 82.85642, 19.20564 ], [ 82.85408, 19.19889 ], [ 82.85404, 19.19333 ], [ 82.84931, 19.19505 ], [ 82.84441, 19.19976 ], [ 82.84262, 19.20048 ], [ 82.84136, 19.19969 ], [ 82.83906, 19.19493 ], [ 82.83303, 19.18962 ], [ 82.83331, 19.1864 ], [ 82.83569, 19.18377 ], [ 82.8357, 19.1823 ], [ 82.82706, 19.17677 ], [ 82.82311, 19.17226 ], [ 82.82463, 19.16611 ], [ 82.82655, 19.16349 ], [ 82.8272, 19.15668 ], [ 82.82598, 19.15149 ], [ 82.82279, 19.14771 ], [ 82.82002, 19.14899 ], [ 82.82032, 19.15177 ], [ 82.81674, 19.15367 ], [ 82.81542, 19.15577 ], [ 82.81746, 19.17029 ], [ 82.81309, 19.16771 ], [ 82.80959, 19.16427 ], [ 82.80738, 19.158 ], [ 82.80321, 19.1514 ], [ 82.79714, 19.15177 ], [ 82.79497, 19.15374 ], [ 82.79257, 19.15445 ], [ 82.79125, 19.15636 ], [ 82.79105, 19.15798 ], [ 82.79539, 19.16307 ], [ 82.79243, 19.168 ], [ 82.7935, 19.17045 ], [ 82.78949, 19.16946 ], [ 82.78841, 19.17308 ], [ 82.78448, 19.17236 ], [ 82.78071, 19.1658 ], [ 82.77773, 19.16529 ], [ 82.7726, 19.16665 ], [ 82.77476, 19.1723 ], [ 82.77884, 19.17226 ], [ 82.78444, 19.17355 ], [ 82.78771, 19.17797 ], [ 82.78449, 19.17958 ], [ 82.77596, 19.17908 ], [ 82.77346, 19.18155 ], [ 82.77293, 19.18622 ], [ 82.77637, 19.19616 ], [ 82.77591, 19.1993 ], [ 82.77266, 19.20055 ], [ 82.7648, 19.20016 ], [ 82.75749, 19.20125 ], [ 82.75937, 19.20659 ], [ 82.76732, 19.21913 ], [ 82.76964, 19.2246 ], [ 82.77025, 19.23177 ], [ 82.7693, 19.2362 ], [ 82.76686, 19.23635 ], [ 82.76427, 19.23347 ], [ 82.7628, 19.23311 ], [ 82.76185, 19.23398 ], [ 82.76211, 19.23801 ], [ 82.75872, 19.2367 ], [ 82.75584, 19.23661 ], [ 82.74744, 19.23906 ], [ 82.74558, 19.23867 ], [ 82.74184, 19.23573 ], [ 82.73935, 19.23486 ], [ 82.73246, 19.2398 ], [ 82.73093, 19.23988 ], [ 82.72726, 19.23829 ], [ 82.72442, 19.24086 ], [ 82.72455, 19.24179 ], [ 82.71918, 19.24372 ], [ 82.70985, 19.24486 ], [ 82.70505, 19.24788 ], [ 82.69459, 19.25066 ], [ 82.69279, 19.25305 ], [ 82.69281, 19.25458 ], [ 82.69469, 19.2562 ], [ 82.69744, 19.25583 ], [ 82.69802, 19.25637 ], [ 82.69768, 19.25834 ], [ 82.69924, 19.25863 ], [ 82.69978, 19.2604 ], [ 82.69834, 19.26185 ], [ 82.69987, 19.27075 ], [ 82.69791, 19.27675 ], [ 82.70174, 19.27873 ], [ 82.70094, 19.2821 ], [ 82.6993, 19.28404 ], [ 82.69927, 19.28656 ], [ 82.69782, 19.28707 ], [ 82.69796, 19.29028 ], [ 82.69517, 19.29234 ], [ 82.68877, 19.29284 ], [ 82.68263, 19.29648 ], [ 82.67817, 19.29775 ], [ 82.67493, 19.30129 ], [ 82.67053, 19.30449 ], [ 82.66418, 19.30504 ], [ 82.6601, 19.30301 ], [ 82.65784, 19.2961 ], [ 82.65839, 19.28849 ], [ 82.65444, 19.28842 ], [ 82.64904, 19.2904 ], [ 82.64351, 19.28999 ], [ 82.64137, 19.28906 ], [ 82.64009, 19.28616 ], [ 82.64006, 19.2826 ], [ 82.63762, 19.27425 ], [ 82.63759, 19.27088 ], [ 82.63943, 19.26628 ], [ 82.63943, 19.25397 ], [ 82.63592, 19.25228 ], [ 82.62333, 19.25214 ], [ 82.61265, 19.24683 ], [ 82.61054, 19.24655 ], [ 82.60775, 19.24744 ], [ 82.60385, 19.24637 ], [ 82.60118, 19.24369 ], [ 82.59392, 19.24714 ], [ 82.59433, 19.24881 ], [ 82.59897, 19.25201 ], [ 82.59978, 19.25136 ], [ 82.60182, 19.25189 ], [ 82.60295, 19.25093 ], [ 82.60512, 19.25157 ], [ 82.6054, 19.25419 ], [ 82.6045, 19.25818 ], [ 82.60505, 19.26165 ], [ 82.60434, 19.26325 ], [ 82.60104, 19.265 ], [ 82.60166, 19.2667 ], [ 82.60032, 19.26869 ], [ 82.59617, 19.26967 ], [ 82.59621, 19.27061 ], [ 82.5929, 19.27171 ], [ 82.59413, 19.27598 ], [ 82.59705, 19.27682 ], [ 82.60161, 19.27965 ], [ 82.60862, 19.28034 ], [ 82.60973, 19.28112 ], [ 82.61127, 19.28563 ], [ 82.6142, 19.2849 ], [ 82.61697, 19.29059 ], [ 82.61669, 19.29346 ], [ 82.61761, 19.29687 ], [ 82.61616, 19.29853 ], [ 82.61547, 19.30231 ], [ 82.61016, 19.30554 ], [ 82.60734, 19.31002 ], [ 82.60686, 19.31731 ], [ 82.60437, 19.32538 ], [ 82.60539, 19.3281 ], [ 82.61067, 19.33439 ], [ 82.61143, 19.33903 ], [ 82.60727, 19.34215 ], [ 82.59841, 19.34391 ], [ 82.59557, 19.34285 ], [ 82.59333, 19.3386 ], [ 82.59151, 19.3369 ], [ 82.59177, 19.33928 ], [ 82.58808, 19.34036 ], [ 82.58846, 19.34185 ], [ 82.59078, 19.34124 ], [ 82.59283, 19.34853 ], [ 82.58667, 19.34734 ], [ 82.58637, 19.34828 ], [ 82.59078, 19.3511 ], [ 82.59086, 19.35183 ], [ 82.58766, 19.35436 ], [ 82.58754, 19.3558 ], [ 82.58316, 19.35772 ], [ 82.58374, 19.35895 ], [ 82.58209, 19.36191 ], [ 82.58265, 19.36317 ], [ 82.58512, 19.36491 ], [ 82.58709, 19.3646 ], [ 82.59226, 19.36138 ], [ 82.59425, 19.36146 ], [ 82.59458, 19.36394 ], [ 82.59387, 19.36543 ], [ 82.58973, 19.36872 ], [ 82.5882, 19.37141 ], [ 82.58883, 19.37279 ], [ 82.59271, 19.37441 ], [ 82.59544, 19.37289 ], [ 82.59745, 19.36444 ], [ 82.59941, 19.36194 ], [ 82.61215, 19.35948 ], [ 82.62012, 19.35166 ], [ 82.62276, 19.35382 ], [ 82.626, 19.35409 ], [ 82.63042, 19.35769 ], [ 82.62919, 19.36009 ], [ 82.62566, 19.3622 ], [ 82.62515, 19.3634 ], [ 82.62699, 19.37013 ], [ 82.62622, 19.37469 ], [ 82.62255, 19.37563 ], [ 82.61952, 19.37526 ], [ 82.61848, 19.37596 ], [ 82.61799, 19.38061 ], [ 82.62549, 19.39851 ], [ 82.62687, 19.40729 ], [ 82.63448, 19.4181 ], [ 82.63156, 19.42812 ], [ 82.63128, 19.43168 ], [ 82.62837, 19.43935 ], [ 82.62868, 19.44179 ], [ 82.63783, 19.4508 ], [ 82.64336, 19.45192 ], [ 82.64565, 19.45029 ] ] ] ] } },
{ "type": "Feature", "properties": { "OBJECTID": 1695, "state_lgd": "21", "state_name": "ODISHA", "district_lgd": "397", "district_name": "NABARANGAPUR", "district_name_source": "district_table", "subdistrict_lgd": "06114", "subdistrict_name": "NANDAHANDI", "subdistrict_type": "Tehsil", "name_corrupted": false, "remarks": "", "label_lon": 82.656017941754698, "label_lat": 19.223461149753216 }, "geometry": { "type": "MultiPolygon", "coordinates": [ [ [ [ 82.76678, 19.16964 ], [ 82.76143, 19.17074 ], [ 82.76207, 19.1672 ], [ 82.76119, 19.16457 ], [ 82.75728, 19.16649 ], [ 82.75346, 19.17071 ], [ 82.74969, 19.1731 ], [ 82.74221, 19.16872 ], [ 82.73975, 19.16831 ], [ 82.74116, 19.15983 ], [ 82.73543, 19.15698 ], [ 82.73442, 19.15738 ], [ 82.73256, 19.16055 ], [ 82.72772, 19.16167 ], [ 82.72298, 19.16126 ], [ 82.72293, 19.16221 ], [ 82.72612, 19.16566 ], [ 82.72558, 19.16722 ], [ 82.72124, 19.17211 ], [ 82.72261, 19.17284 ], [ 82.72546, 19.1725 ], [ 82.72506, 19.17408 ], [ 82.71445, 19.17819 ], [ 82.71048, 19.17819 ], [ 82.70826, 19.17903 ], [ 82.70662, 19.18076 ], [ 82.70788, 19.18602 ], [ 82.70485, 19.18938 ], [ 82.70165, 19.19094 ], [ 82.69631, 19.1895 ], [ 82.6933, 19.19064 ], [ 82.68569, 19.186 ], [ 82.68175, 19.18971 ], [ 82.68114, 19.19647 ], [ 82.67856, 19.19719 ], [ 82.67636, 19.19386 ], [ 82.67153, 19.18909 ], [ 82.66856, 19.18409 ], [ 82.66612, 19.18419 ], [ 82.66095, 19.18739 ], [ 82.65379, 19.18866 ], [ 82.65146, 19.18495 ], [ 82.64628, 19.18151 ], [ 82.64304, 19.17714 ], [ 82.63846, 19.17646 ], [ 82.63693, 19.17554 ], [ 82.63695, 19.17447 ], [ 82.63993, 19.1719 ], [ 82.64074, 19.16471 ], [ 82.6423, 19.16011 ], [ 82.64264, 19.15611 ], [ 82.64001, 19.14941 ], [ 82.63738, 19.14942 ], [ 82.63881, 19.15313 ], [ 82.63846, 19.15464 ], [ 82.63414, 19.16161 ], [ 82.63147, 19.1625 ], [ 82.62622, 19.16228 ], [ 82.62378, 19.16058 ], [ 82.62448, 19.15828 ], [ 82.62752, 19.1577 ], [ 82.62746, 19.15381 ], [ 82.62996, 19.15375 ], [ 82.62986, 19.15274 ], [ 82.62647, 19.15124 ], [ 82.62427, 19.15142 ], [ 82.61521, 19.15927 ], [ 82.61631, 19.1769 ], [ 82.61586, 19.18171 ], [ 82.61314, 19.18316 ], [ 82.6074, 19.18078 ], [ 82.6053, 19.18136 ], [ 82.59796, 19.19156 ], [ 82.59595, 19.19248 ], [ 82.59046, 19.19259 ], [ 82.58973, 19.2011 ], [ 82.58806, 19.20252 ], [ 82.58588, 19.20099 ], [ 82.58489, 19.19751 ], [ 82.58319, 19.19517 ], [ 82.57972, 19.19492 ], [ 82.57715, 19.19883 ], [ 82.5765, 19.20795 ], [ 82.57596, 19.21002 ], [ 82.57441, 19.21126 ], [ 82.57166, 19.21076 ], [ 82.5715, 19.2024 ], [ 82.57025, 19.19939 ], [ 82.56884, 19.19828 ], [ 82.56466, 19.19815 ], [ 82.55934, 19.20084 ], [ 82.55402, 19.20239 ], [ 82.54882, 19.20606 ], [ 82.54676, 19.20491 ], [ 82.54612, 19.20304 ], [ 82.55114, 19.19684 ], [ 82.55071, 19.19508 ], [ 82.54754, 19.19496 ], [ 82.54222, 19.19622 ], [ 82.5352, 19.19987 ], [ 82.53856, 19.20071 ], [ 82.54054, 19.20301 ], [ 82.5402, 19.20948 ], [ 82.5388, 19.21244 ], [ 82.54042, 19.21852 ], [ 82.53892, 19.22339 ], [ 82.53673, 19.22481 ], [ 82.53736, 19.23056 ], [ 82.53482, 19.23264 ], [ 82.5338, 19.23571 ], [ 82.535, 19.23841 ], [ 82.53969, 19.2435 ], [ 82.54304, 19.2507 ], [ 82.53405, 19.25057 ], [ 82.52941, 19.25274 ], [ 82.52381, 19.25688 ], [ 82.52487, 19.26408 ], [ 82.52667, 19.26699 ], [ 82.52801, 19.2674 ], [ 82.5293, 19.26519 ], [ 82.53155, 19.26609 ], [ 82.53117, 19.26396 ], [ 82.53237, 19.26383 ], [ 82.53288, 19.26293 ], [ 82.53686, 19.26642 ], [ 82.53781, 19.2657 ], [ 82.53461, 19.26183 ], [ 82.5365, 19.26103 ], [ 82.53641, 19.25923 ], [ 82.54198, 19.25893 ], [ 82.54292, 19.26288 ], [ 82.54081, 19.26694 ], [ 82.54351, 19.26575 ], [ 82.54694, 19.26958 ], [ 82.54913, 19.26945 ], [ 82.54998, 19.27064 ], [ 82.54784, 19.27552 ], [ 82.54837, 19.27691 ], [ 82.55287, 19.27767 ], [ 82.55756, 19.27594 ], [ 82.55766, 19.27524 ], [ 82.56069, 19.27492 ], [ 82.56784, 19.2686 ], [ 82.56929, 19.2677 ], [ 82.57053, 19.26845 ], [ 82.57394, 19.26433 ], [ 82.57396, 19.25892 ], [ 82.56772, 19.25057 ], [ 82.56798, 19.24601 ], [ 82.56963, 19.24361 ], [ 82.5757, 19.24136 ], [ 82.57834, 19.23622 ], [ 82.57934, 19.23572 ], [ 82.5852, 19.23404 ], [ 82.58877, 19.23441 ], [ 82.59155, 19.23633 ], [ 82.59683, 19.24276 ], [ 82.59737, 19.24515 ], [ 82.60118, 19.24369 ], [ 82.60385, 19.24637 ], [ 82.60775, 19.24744 ], [ 82.61054, 19.24655 ], [ 82.61265, 19.24683 ], [ 82.62333, 19.25214 ], [ 82.63592, 19.25228 ], [ 82.63943, 19.25397 ], [ 82.63943, 19.26628 ], [ 82.63759, 19.27088 ], [ 82.63762, 19.27425 ], [ 82.64006, 19.2826 ], [ 82.64009, 19.28616 ], [ 82.64137, 19.28906 ], [ 82.64351, 19.28999 ], [ 82.64904, 19.2904 ], [ 82.65444, 19.28842 ], [ 82.65839, 19.28849 ], [ 82.65784, 19.2961 ], [ 82.6601, 19.30301 ], [ 82.66418, 19.30504 ], [ 82.67053, 19.30449 ], [ 82.67493, 19.3013 ], [ 82.67818, 19.29775 ], [ 82.68263, 19.29648 ], [ 82.68877, 19.29284 ], [ 82.69517, 19.29234 ], [ 82.69796, 19.29028 ], [ 82.69782, 19.28707 ], [ 82.69927, 19.28656 ], [ 82.6993, 19.28404 ], [ 82.70094, 19.2821 ], [ 82.70174, 19.27873 ], [ 82.69791, 19.27675 ], [ 82.69987, 19.27075 ], [ 82.69834, 19.26185 ], [ 82.69978, 19.2604 ], [ 82.69924, 19.25863 ], [ 82.69768, 19.25834 ], [ 82.69802, 19.25637 ], [ 82.69744, 19.25583 ], [ 82.69469, 19.2562 ], [ 82.69281, 19.25458 ], [ 82.69279, 19.25305 ], [ 82.69459, 19.25066 ], [ 82.70505, 19.24788 ], [ 82.70985, 19.24486 ], [ 82.71918, 19.24372 ], [ 82.72455, 19.24179 ], [ 82.72442, 19.24087 ], [ 82.72726, 19.23829 ], [ 82.73093, 19.23988 ], [ 82.73246, 19.2398 ], [ 82.73935, 19.23486 ], [ 82.74185, 19.23573 ], [ 82.74558, 19.23867 ], [ 82.74744, 19.23906 ], [ 82.75584, 19.23661 ], [ 82.75872, 19.2367 ], [ 82.76211, 19.23801 ], [ 82.76185, 19.23398 ], [ 82.7628, 19.23311 ], [ 82.76427, 19.23347 ], [ 82.76686, 19.23635 ], [ 82.7693, 19.2362 ], [ 82.77025, 19.23177 ], [ 82.76964, 19.2246 ], [ 82.76732, 19.21913 ], [ 82.75937, 19.20659 ], [ 82.75749, 19.20125 ], [ 82.7648, 19.20016 ], [ 82.77266, 19.20055 ], [ 82.77591, 19.1993 ], [ 82.77637, 19.19616 ], [ 82.77293, 19.18622 ], [ 82.77346, 19.18155 ], [ 82.77596, 19.17908 ], [ 82.78449, 19.17959 ], [ 82.78771, 19.17797 ], [ 82.78444, 19.17355 ], [ 82.77884, 19.17226 ], [ 82.77476, 19.1723 ], [ 82.7726, 19.16665 ], [ 82.76678, 19.16964 ] ], [ [ 82.72726, 19.21654 ], [ 82.72596, 19.2174 ], [ 82.72499, 19.21148 ], [ 82.72552, 19.21017 ], [ 82.72654, 19.21228 ], [ 82.72849, 19.2105 ], [ 82.72898, 19.2116 ], [ 82.7306, 19.21131 ], [ 82.73195, 19.21242 ], [ 82.73226, 19.21407 ], [ 82.73105, 19.21486 ], [ 82.73121, 19.21667 ], [ 82.7303, 19.2177 ], [ 82.72726, 19.21654 ] ] ], [ [ [ 82.52204, 19.25 ], [ 82.52256, 19.24534 ], [ 82.52159, 19.24521 ], [ 82.51527, 19.24779 ], [ 82.51189, 19.25045 ], [ 82.506, 19.25109 ], [ 82.50614, 19.25211 ], [ 82.51126, 19.2623 ], [ 82.51319, 19.26204 ], [ 82.51729, 19.25957 ], [ 82.52063, 19.25889 ], [ 82.5238, 19.25688 ], [ 82.52204, 19.25 ] ] ] ] } },
{ "type": "Feature", "properties": { "OBJECTID": 1696, "state_lgd": "21", "state_name": "ODISHA", "district_lgd": "397", "district_name": "NABARANGAPUR", "district_name_source": "district_table", "subdistrict_lgd": "06719", "subdistrict_name": "PAPADAHANDI", "subdistrict_type": "Tehsil", "name_corrupted": false, "remarks": "", "label_lon": 82.501494711251439, "label_lat": 19.418266124723292 }, "geometry": { "type": "MultiPolygon", "coordinates": [ [ [ [ 82.32764, 19.32655 ], [ 82.33563, 19.32535 ], [ 82.33814, 19.32221 ], [ 82.33661, 19.31938 ], [ 82.33222, 19.31694 ], [ 82.32447, 19.32369 ], [ 82.32764, 19.32655 ] ] ], [ [ [ 82.52169, 19.58471 ], [ 82.52525, 19.58582 ], [ 82.52928, 19.58502 ], [ 82.53566, 19.57813 ], [ 82.54615, 19.57932 ], [ 82.54612, 19.58133 ], [ 82.54895, 19.58195 ], [ 82.5546, 19.58258 ], [ 82.55817, 19.5821 ], [ 82.55776, 19.57774 ], [ 82.55879, 19.57443 ], [ 82.56209, 19.57354 ], [ 82.56579, 19.56765 ], [ 82.56787, 19.56618 ], [ 82.5669, 19.56301 ], [ 82.56487, 19.56195 ], [ 82.5646, 19.55938 ], [ 82.567, 19.55685 ], [ 82.56707, 19.55525 ], [ 82.56599, 19.5543 ], [ 82.56606, 19.55205 ], [ 82.56491, 19.54964 ], [ 82.56613, 19.54848 ], [ 82.56508, 19.54752 ], [ 82.56645, 19.54621 ], [ 82.56616, 19.54464 ], [ 82.5678, 19.54439 ], [ 82.56888, 19.5431 ], [ 82.57192, 19.54258 ], [ 82.57265, 19.5442 ], [ 82.57583, 19.54391 ], [ 82.57815, 19.54614 ], [ 82.58018, 19.54654 ], [ 82.58376, 19.54602 ], [ 82.588, 19.54046 ], [ 82.58966, 19.54161 ], [ 82.59305, 19.54101 ], [ 82.60445, 19.54181 ], [ 82.60815, 19.53971 ], [ 82.61016, 19.53985 ], [ 82.6118, 19.53809 ], [ 82.61609, 19.5388 ], [ 82.61749, 19.53721 ], [ 82.61692, 19.53409 ], [ 82.61527, 19.53272 ], [ 82.61381, 19.52534 ], [ 82.60933, 19.52465 ], [ 82.60683, 19.52167 ], [ 82.60697, 19.52077 ], [ 82.61055, 19.52054 ], [ 82.61496, 19.5191 ], [ 82.61652, 19.52018 ], [ 82.62359, 19.51966 ], [ 82.62795, 19.5141 ], [ 82.63315, 19.51433 ], [ 82.64108, 19.5125 ], [ 82.6424, 19.5106 ], [ 82.64655, 19.50776 ], [ 82.64665, 19.50624 ], [ 82.64299, 19.50581 ], [ 82.64379, 19.50284 ], [ 82.64165, 19.50241 ], [ 82.64063, 19.49688 ], [ 82.63865, 19.49403 ], [ 82.63375, 19.49215 ], [ 82.63327, 19.49062 ], [ 82.6352, 19.48652 ], [ 82.63501, 19.48548 ], [ 82.63297, 19.48387 ], [ 82.63318, 19.48177 ], [ 82.63667, 19.48187 ], [ 82.63963, 19.48313 ], [ 82.64288, 19.48273 ], [ 82.64376, 19.48037 ], [ 82.6462, 19.48043 ], [ 82.64902, 19.47746 ], [ 82.65002, 19.47272 ], [ 82.64887, 19.47031 ], [ 82.64985, 19.46865 ], [ 82.64907, 19.46669 ], [ 82.65035, 19.46448 ], [ 82.64964, 19.45954 ], [ 82.65158, 19.45951 ], [ 82.65366, 19.45778 ], [ 82.65415, 19.45638 ], [ 82.66018, 19.45712 ], [ 82.66113, 19.45445 ], [ 82.66054, 19.45327 ], [ 82.66083, 19.44929 ], [ 82.66344, 19.44474 ], [ 82.65937, 19.44197 ], [ 82.65189, 19.4495 ], [ 82.64565, 19.45029 ], [ 82.64336, 19.45192 ], [ 82.63783, 19.4508 ], [ 82.62868, 19.44179 ], [ 82.62837, 19.43935 ], [ 82.63128, 19.43168 ], [ 82.63156, 19.42812 ], [ 82.63448, 19.4181 ], [ 82.62687, 19.40729 ], [ 82.62549, 19.39851 ], [ 82.61886, 19.38387 ], [ 82.61796, 19.37753 ], [ 82.61952, 19.37526 ], [ 82.62255, 19.37563 ], [ 82.62622, 19.37469 ], [ 82.62699, 19.37013 ], [ 82.62515, 19.3634 ], [ 82.62566, 19.3622 ], [ 82.62919, 19.36009 ], [ 82.63042, 19.35769 ], [ 82.626, 19.35409 ], [ 82.62276, 19.35382 ], [ 82.62012, 19.35166 ], [ 82.61215, 19.35948 ], [ 82.59941, 19.36194 ], [ 82.59745, 19.36444 ], [ 82.59544, 19.37289 ], [ 82.5941, 19.3742 ], [ 82.59166, 19.37434 ], [ 82.58883, 19.37279 ], [ 82.5882, 19.37141 ], [ 82.58973, 19.36872 ], [ 82.59387, 19.36543 ], [ 82.59458, 19.36394 ], [ 82.59425, 19.36146 ], [ 82.59226, 19.36138 ], [ 82.58709, 19.3646 ], [ 82.58512, 19.36491 ], [ 82.58265, 19.36317 ], [ 82.58209, 19.36191 ], [ 82.58374, 19.35895 ], [ 82.58316, 19.35772 ], [ 82.58754, 19.3558 ], [ 82.58766, 19.35436 ], [ 82.59086, 19.35183 ], [ 82.59078, 19.3511 ], [ 82.58637, 19.34828 ], [ 82.58667, 19.34734 ], [ 82.59283, 19.34853 ], [ 82.59078, 19.34124 ], [ 82.58846, 19.34185 ], [ 82.58808, 19.34036 ], [ 82.59177, 19.33928 ], [ 82.59124, 19.33447 ], [ 82.58522, 19.33179 ], [ 82.58454, 19.3323 ], [ 82.58432, 19.33778 ], [ 82.58168, 19.33822 ], [ 82.58047, 19.33684 ], [ 82.57432, 19.33838 ], [ 82.56931, 19.33824 ], [ 82.56837, 19.33226 ], [ 82.56512, 19.33483 ], [ 82.56404, 19.33414 ], [ 82.56626, 19.33192 ], [ 82.56714, 19.32852 ], [ 82.56825, 19.32904 ], [ 82.56978, 19.32714 ], [ 82.56722, 19.32548 ], [ 82.568, 19.32476 ], [ 82.57076, 19.32611 ], [ 82.57412, 19.32387 ], [ 82.57279, 19.31922 ], [ 82.56656, 19.31832 ], [ 82.56404, 19.31967 ], [ 82.56005, 19.31451 ], [ 82.55511, 19.31089 ], [ 82.55209, 19.31141 ], [ 82.54561, 19.31058 ], [ 82.54375, 19.31168 ], [ 82.54242, 19.31536 ], [ 82.54093, 19.31715 ], [ 82.52931, 19.32122 ], [ 82.52565, 19.3208 ], [ 82.51936, 19.32281 ], [ 82.51923, 19.32054 ], [ 82.51752, 19.32063 ], [ 82.51708, 19.31708 ], [ 82.50703, 19.31869 ], [ 82.50483, 19.31589 ], [ 82.50287, 19.31641 ], [ 82.4991, 19.31045 ], [ 82.49829, 19.3057 ], [ 82.48418, 19.30695 ], [ 82.4842, 19.30347 ], [ 82.48232, 19.2977 ], [ 82.4814, 19.29055 ], [ 82.48256, 19.28554 ], [ 82.48202, 19.27752 ], [ 82.48104, 19.27617 ], [ 82.47491, 19.2742 ], [ 82.46754, 19.27442 ], [ 82.46534, 19.27542 ], [ 82.46359, 19.27791 ], [ 82.4545, 19.27575 ], [ 82.45196, 19.27585 ], [ 82.44871, 19.27756 ], [ 82.4455, 19.28192 ], [ 82.43729, 19.28647 ], [ 82.43617, 19.29116 ], [ 82.44017, 19.29483 ], [ 82.43952, 19.29773 ], [ 82.4373, 19.29891 ], [ 82.4288, 19.29782 ], [ 82.42715, 19.29874 ], [ 82.42382, 19.30283 ], [ 82.41088, 19.30506 ], [ 82.41027, 19.30566 ], [ 82.41026, 19.31093 ], [ 82.40521, 19.32333 ], [ 82.40014, 19.32642 ], [ 82.3976, 19.32634 ], [ 82.39533, 19.3276 ], [ 82.39307, 19.32733 ], [ 82.38336, 19.31333 ], [ 82.3805, 19.31372 ], [ 82.37866, 19.31243 ], [ 82.37612, 19.31458 ], [ 82.37226, 19.31529 ], [ 82.36154, 19.32243 ], [ 82.35794, 19.3235 ], [ 82.35741, 19.32576 ], [ 82.36072, 19.3302 ], [ 82.36048, 19.33264 ], [ 82.35801, 19.33316 ], [ 82.34856, 19.33798 ], [ 82.34449, 19.33795 ], [ 82.33941, 19.33905 ], [ 82.33963, 19.3369 ], [ 82.33853, 19.33543 ], [ 82.33925, 19.33409 ], [ 82.33912, 19.33069 ], [ 82.33526, 19.32659 ], [ 82.32963, 19.32799 ], [ 82.32976, 19.32935 ], [ 82.32843, 19.3301 ], [ 82.32739, 19.32876 ], [ 82.3236, 19.32943 ], [ 82.32226, 19.32897 ], [ 82.31735, 19.33166 ], [ 82.31827, 19.33613 ], [ 82.31782, 19.33705 ], [ 82.3118, 19.33786 ], [ 82.30906, 19.34646 ], [ 82.30702, 19.34863 ], [ 82.30281, 19.35089 ], [ 82.30585, 19.3589 ], [ 82.3127, 19.36054 ], [ 82.31544, 19.36006 ], [ 82.31445, 19.35705 ], [ 82.31844, 19.35548 ], [ 82.31929, 19.36297 ], [ 82.32154, 19.36276 ], [ 82.32259, 19.36699 ], [ 82.32338, 19.36764 ], [ 82.3253, 19.36545 ], [ 82.32348, 19.36215 ], [ 82.32555, 19.36248 ], [ 82.32778, 19.36143 ], [ 82.33014, 19.35878 ], [ 82.33072, 19.3591 ], [ 82.33577, 19.36342 ], [ 82.33601, 19.3667 ], [ 82.33515, 19.37008 ], [ 82.33075, 19.37376 ], [ 82.33003, 19.37647 ], [ 82.32855, 19.37681 ], [ 82.32783, 19.37923 ], [ 82.33062, 19.37944 ], [ 82.33414, 19.38151 ], [ 82.33779, 19.38103 ], [ 82.34274, 19.37604 ], [ 82.34887, 19.37486 ], [ 82.35447, 19.37173 ], [ 82.35618, 19.37194 ], [ 82.35837, 19.37521 ], [ 82.36358, 19.38893 ], [ 82.36635, 19.39407 ], [ 82.36831, 19.39561 ], [ 82.36682, 19.39835 ], [ 82.3616, 19.4019 ], [ 82.35716, 19.40218 ], [ 82.35197, 19.40411 ], [ 82.35066, 19.40535 ], [ 82.35596, 19.41076 ], [ 82.35963, 19.4198 ], [ 82.36629, 19.42564 ], [ 82.36514, 19.42878 ], [ 82.35927, 19.43121 ], [ 82.35677, 19.43313 ], [ 82.36017, 19.43571 ], [ 82.36216, 19.43849 ], [ 82.36256, 19.44087 ], [ 82.36065, 19.44574 ], [ 82.36133, 19.44741 ], [ 82.36436, 19.44814 ], [ 82.36697, 19.44999 ], [ 82.37379, 19.44991 ], [ 82.37649, 19.45109 ], [ 82.3802, 19.45001 ], [ 82.38486, 19.44646 ], [ 82.38777, 19.44748 ], [ 82.39602, 19.44798 ], [ 82.39774, 19.44491 ], [ 82.40063, 19.44557 ], [ 82.40375, 19.4437 ], [ 82.40554, 19.44349 ], [ 82.40688, 19.44394 ], [ 82.41273, 19.45028 ], [ 82.41881, 19.45067 ], [ 82.4231, 19.4496 ], [ 82.42973, 19.44492 ], [ 82.43217, 19.44448 ], [ 82.43302, 19.44309 ], [ 82.43546, 19.44349 ], [ 82.43638, 19.44225 ], [ 82.44613, 19.43835 ], [ 82.44801, 19.44472 ], [ 82.44464, 19.44588 ], [ 82.44064, 19.44931 ], [ 82.43815, 19.45269 ], [ 82.43885, 19.45554 ], [ 82.43801, 19.45634 ], [ 82.43451, 19.45846 ], [ 82.42998, 19.45967 ], [ 82.42814, 19.46161 ], [ 82.42747, 19.46242 ], [ 82.42853, 19.46339 ], [ 82.42877, 19.46539 ], [ 82.42978, 19.46656 ], [ 82.43202, 19.46657 ], [ 82.43401, 19.46932 ], [ 82.43627, 19.46861 ], [ 82.44126, 19.4708 ], [ 82.4415, 19.47316 ], [ 82.44054, 19.47552 ], [ 82.44482, 19.47995 ], [ 82.45267, 19.4805 ], [ 82.45632, 19.48315 ], [ 82.45869, 19.48295 ], [ 82.46032, 19.48595 ], [ 82.4606, 19.48954 ], [ 82.46293, 19.49332 ], [ 82.46601, 19.49446 ], [ 82.46822, 19.49633 ], [ 82.47018, 19.4948 ], [ 82.47074, 19.4954 ], [ 82.47623, 19.50435 ], [ 82.47664, 19.50895 ], [ 82.48148, 19.51576 ], [ 82.4844, 19.51772 ], [ 82.48421, 19.52088 ], [ 82.48807, 19.52331 ], [ 82.48643, 19.52562 ], [ 82.48918, 19.52593 ], [ 82.49205, 19.52812 ], [ 82.4925, 19.53085 ], [ 82.49076, 19.53469 ], [ 82.49234, 19.53768 ], [ 82.49761, 19.54239 ], [ 82.50582, 19.54776 ], [ 82.50945, 19.55108 ], [ 82.5109, 19.55349 ], [ 82.51201, 19.55775 ], [ 82.51001, 19.56191 ], [ 82.51221, 19.56427 ], [ 82.51308, 19.56721 ], [ 82.51217, 19.58042 ], [ 82.51623, 19.58323 ], [ 82.51707, 19.58595 ], [ 82.52169, 19.58471 ] ] ] ] } },
{ "type": "Feature", "properties": { "OBJECTID": 1697, "state_lgd": "21", "state_name": "ODISHA", "district_lgd": "397", "district_name": "NABARANGAPUR", "district_name_source": "district_table", "subdistrict_lgd": "06723", "subdistrict_name": "KODINGA", "subdistrict_type": "Tehsil", "name_corrupted": false, "remarks": "", "label_lon": 82.262202368739423, "label_lat": 19.282354455044548 }, "geometry": { "type": "Polygon", "coordinates": [ [ [ 82.22197, 19.45628 ], [ 82.22772, 19.45256 ], [ 82.23137, 19.45216 ], [ 82.23738, 19.44889 ], [ 82.241, 19.44821 ], [ 82.24725, 19.45017 ], [ 82.25001, 19.45174 ], [ 82.25109, 19.45338 ], [ 82.25409, 19.45313 ], [ 82.25669, 19.45494 ], [ 82.25764, 19.45709 ], [ 82.26154, 19.45615 ], [ 82.26515, 19.45954 ], [ 82.27411, 19.45982 ], [ 82.28053, 19.45773 ], [ 82.27805, 19.45379 ], [ 82.27781, 19.4507 ], [ 82.28087, 19.44931 ], [ 82.28433, 19.44552 ], [ 82.28267, 19.44198 ], [ 82.28308, 19.43719 ], [ 82.28876, 19.43279 ], [ 82.2908, 19.43298 ], [ 82.29461, 19.43506 ], [ 82.29635, 19.43492 ], [ 82.29798, 19.43171 ], [ 82.30285, 19.42766 ], [ 82.29778, 19.42115 ], [ 82.2925, 19.4171 ], [ 82.29186, 19.40821 ], [ 82.29844, 19.40357 ], [ 82.30681, 19.40253 ], [ 82.31238, 19.40008 ], [ 82.31283, 19.39837 ], [ 82.31009, 19.39519 ], [ 82.30896, 19.39236 ], [ 82.30894, 19.39082 ], [ 82.31019, 19.38867 ], [ 82.31375, 19.38434 ], [ 82.32242, 19.37914 ], [ 82.32783, 19.37923 ], [ 82.32855, 19.37681 ], [ 82.33003, 19.37647 ], [ 82.33075, 19.37376 ], [ 82.3354, 19.36958 ], [ 82.33577, 19.36342 ], [ 82.33014, 19.35878 ], [ 82.32684, 19.36192 ], [ 82.32348, 19.36215 ], [ 82.3253, 19.36545 ], [ 82.32338, 19.36764 ], [ 82.32259, 19.36699 ], [ 82.32154, 19.36276 ], [ 82.31929, 19.36297 ], [ 82.31844, 19.35548 ], [ 82.31445, 19.35705 ], [ 82.31544, 19.36006 ], [ 82.3127, 19.36054 ], [ 82.30585, 19.3589 ], [ 82.30281, 19.35089 ], [ 82.30702, 19.34863 ], [ 82.30906, 19.34646 ], [ 82.3118, 19.33786 ], [ 82.31782, 19.33705 ], [ 82.31827, 19.33613 ], [ 82.31726, 19.33188 ], [ 82.32086, 19.32944 ], [ 82.32739, 19.32876 ], [ 82.32843, 19.3301 ], [ 82.32976, 19.32935 ], [ 82.32963, 19.32799 ], [ 82.33453, 19.32653 ], [ 82.33912, 19.33069 ], [ 82.33925, 19.33409 ], [ 82.33853, 19.33543 ], [ 82.33963, 19.3369 ], [ 82.33941, 19.33905 ], [ 82.34449, 19.33795 ], [ 82.34856, 19.33798 ], [ 82.35801, 19.33316 ], [ 82.36048, 19.33264 ], [ 82.36072, 19.3302 ], [ 82.35741, 19.32576 ], [ 82.35794, 19.3235 ], [ 82.36154, 19.32243 ], [ 82.37226, 19.31529 ], [ 82.3768, 19.31426 ], [ 82.37837, 19.31249 ], [ 82.3805, 19.31372 ], [ 82.38336, 19.31333 ], [ 82.38205, 19.31053 ], [ 82.37458, 19.30066 ], [ 82.37322, 19.29609 ], [ 82.37298, 19.2937 ], [ 82.37543, 19.29082 ], [ 82.37448, 19.28821 ], [ 82.3734, 19.28792 ], [ 82.3726, 19.28224 ], [ 82.3803, 19.27537 ], [ 82.37857, 19.27136 ], [ 82.37876, 19.2695 ], [ 82.37745, 19.26566 ], [ 82.37144, 19.25636 ], [ 82.37048, 19.25279 ], [ 82.3776, 19.25219 ], [ 82.38214, 19.2493 ], [ 82.38406, 19.2508 ], [ 82.38679, 19.25113 ], [ 82.38822, 19.24999 ], [ 82.38791, 19.24331 ], [ 82.38943, 19.24172 ], [ 82.39204, 19.24091 ], [ 82.39344, 19.24459 ], [ 82.39651, 19.2432 ], [ 82.39706, 19.24203 ], [ 82.39697, 19.22648 ], [ 82.39774, 19.22441 ], [ 82.3991, 19.22431 ], [ 82.39694, 19.21876 ], [ 82.39715, 19.20999 ], [ 82.39783, 19.20906 ], [ 82.4023, 19.20727 ], [ 82.40516, 19.20247 ], [ 82.40485, 19.19493 ], [ 82.40378, 19.1909 ], [ 82.40516, 19.18741 ], [ 82.40774, 19.18399 ], [ 82.41082, 19.18313 ], [ 82.41164, 19.17916 ], [ 82.41099, 19.1705 ], [ 82.40952, 19.16785 ], [ 82.40204, 19.16521 ], [ 82.39511, 19.16609 ], [ 82.3895, 19.17049 ], [ 82.38464, 19.17657 ], [ 82.382, 19.17792 ], [ 82.3775, 19.17621 ], [ 82.37398, 19.17115 ], [ 82.372, 19.17011 ], [ 82.36677, 19.178 ], [ 82.36523, 19.17888 ], [ 82.36008, 19.17883 ], [ 82.35601, 19.18298 ], [ 82.35275, 19.18434 ], [ 82.3511, 19.18293 ], [ 82.35022, 19.17538 ], [ 82.34895, 19.17273 ], [ 82.34593, 19.17 ], [ 82.34023, 19.1678 ], [ 82.33097, 19.16902 ], [ 82.32597, 19.17514 ], [ 82.32359, 19.17685 ], [ 82.31133, 19.17703 ], [ 82.30822, 19.17527 ], [ 82.30222, 19.16821 ], [ 82.29564, 19.1636 ], [ 82.29395, 19.16119 ], [ 82.29192, 19.15277 ], [ 82.28584, 19.14806 ], [ 82.28288, 19.14778 ], [ 82.27811, 19.15527 ], [ 82.27539, 19.15645 ], [ 82.26452, 19.15154 ], [ 82.25981, 19.14275 ], [ 82.25849, 19.14204 ], [ 82.25245, 19.14262 ], [ 82.24519, 19.14535 ], [ 82.23872, 19.14406 ], [ 82.22982, 19.14396 ], [ 82.22759, 19.14184 ], [ 82.22568, 19.13574 ], [ 82.22891, 19.13042 ], [ 82.23472, 19.12463 ], [ 82.23547, 19.12197 ], [ 82.23278, 19.12066 ], [ 82.22697, 19.12098 ], [ 82.22001, 19.11443 ], [ 82.21577, 19.11502 ], [ 82.20521, 19.1244 ], [ 82.20025, 19.12186 ], [ 82.19631, 19.12213 ], [ 82.19058, 19.1289 ], [ 82.1868, 19.12957 ], [ 82.18284, 19.13165 ], [ 82.18185, 19.13103 ], [ 82.18126, 19.12709 ], [ 82.17808, 19.12333 ], [ 82.17686, 19.11857 ], [ 82.1736, 19.11841 ], [ 82.17033, 19.12042 ], [ 82.16921, 19.12805 ], [ 82.1661, 19.1327 ], [ 82.16621, 19.13515 ], [ 82.16729, 19.13632 ], [ 82.17483, 19.13777 ], [ 82.17574, 19.13866 ], [ 82.17339, 19.14137 ], [ 82.17272, 19.14351 ], [ 82.17003, 19.14483 ], [ 82.17003, 19.14636 ], [ 82.17186, 19.15046 ], [ 82.17656, 19.14921 ], [ 82.18093, 19.15082 ], [ 82.17768, 19.15251 ], [ 82.17721, 19.15561 ], [ 82.1713, 19.15653 ], [ 82.16993, 19.16056 ], [ 82.17321, 19.16291 ], [ 82.17492, 19.16288 ], [ 82.17874, 19.15964 ], [ 82.17753, 19.15567 ], [ 82.1822, 19.15929 ], [ 82.18614, 19.16635 ], [ 82.18575, 19.16753 ], [ 82.18395, 19.16849 ], [ 82.17811, 19.16937 ], [ 82.17604, 19.17208 ], [ 82.17671, 19.17347 ], [ 82.18018, 19.17335 ], [ 82.18205, 19.17416 ], [ 82.18106, 19.17858 ], [ 82.17961, 19.17989 ], [ 82.17609, 19.1805 ], [ 82.17514, 19.18182 ], [ 82.17983, 19.18877 ], [ 82.18046, 19.19168 ], [ 82.16758, 19.19526 ], [ 82.16443, 19.19793 ], [ 82.16171, 19.20225 ], [ 82.16582, 19.21145 ], [ 82.16877, 19.21294 ], [ 82.15942, 19.22296 ], [ 82.15784, 19.2275 ], [ 82.15758, 19.25 ], [ 82.15843, 19.26517 ], [ 82.1621, 19.27875 ], [ 82.16594, 19.28768 ], [ 82.17433, 19.29445 ], [ 82.17668, 19.29948 ], [ 82.17917, 19.31897 ], [ 82.18122, 19.32339 ], [ 82.19412, 19.32594 ], [ 82.19013, 19.32676 ], [ 82.18801, 19.32892 ], [ 82.18743, 19.3301 ], [ 82.18789, 19.33476 ], [ 82.18604, 19.33741 ], [ 82.17789, 19.34005 ], [ 82.17729, 19.34114 ], [ 82.17874, 19.34246 ], [ 82.17866, 19.34337 ], [ 82.16904, 19.34598 ], [ 82.165, 19.34899 ], [ 82.15413, 19.3498 ], [ 82.15243, 19.35274 ], [ 82.1501, 19.35366 ], [ 82.14878, 19.35298 ], [ 82.14839, 19.36491 ], [ 82.14728, 19.3645 ], [ 82.14725, 19.36549 ], [ 82.14832, 19.36591 ], [ 82.14784, 19.36719 ], [ 82.14861, 19.36835 ], [ 82.14798, 19.36953 ], [ 82.14896, 19.36952 ], [ 82.14774, 19.37182 ], [ 82.14908, 19.37161 ], [ 82.14965, 19.3734 ], [ 82.15135, 19.37331 ], [ 82.15327, 19.37702 ], [ 82.15648, 19.3773 ], [ 82.16004, 19.37707 ], [ 82.16219, 19.37436 ], [ 82.16661, 19.37277 ], [ 82.17192, 19.37261 ], [ 82.17364, 19.37571 ], [ 82.17353, 19.37717 ], [ 82.17553, 19.37664 ], [ 82.17649, 19.37856 ], [ 82.17809, 19.37849 ], [ 82.17906, 19.37941 ], [ 82.17808, 19.38268 ], [ 82.18075, 19.38312 ], [ 82.18193, 19.38453 ], [ 82.18099, 19.38619 ], [ 82.18224, 19.38874 ], [ 82.18074, 19.39241 ], [ 82.18431, 19.40049 ], [ 82.18208, 19.40293 ], [ 82.18284, 19.40371 ], [ 82.18211, 19.40569 ], [ 82.18244, 19.40943 ], [ 82.1833, 19.41008 ], [ 82.18317, 19.4116 ], [ 82.1852, 19.41369 ], [ 82.18927, 19.41536 ], [ 82.19, 19.41996 ], [ 82.18875, 19.42104 ], [ 82.18995, 19.42246 ], [ 82.18903, 19.42399 ], [ 82.1898, 19.42627 ], [ 82.18944, 19.42753 ], [ 82.1878, 19.42634 ], [ 82.18619, 19.42665 ], [ 82.18383, 19.42997 ], [ 82.18275, 19.43001 ], [ 82.18114, 19.43189 ], [ 82.17818, 19.43661 ], [ 82.17149, 19.43719 ], [ 82.16821, 19.43672 ], [ 82.16743, 19.4444 ], [ 82.16935, 19.44468 ], [ 82.17522, 19.44825 ], [ 82.17937, 19.45524 ], [ 82.18068, 19.45546 ], [ 82.18398, 19.45883 ], [ 82.18839, 19.46106 ], [ 82.19435, 19.46063 ], [ 82.20072, 19.4579 ], [ 82.20501, 19.45812 ], [ 82.2108, 19.46116 ], [ 82.21441, 19.45859 ], [ 82.22135, 19.45794 ], [ 82.22197, 19.45628 ] ], [ [ 82.33222, 19.31694 ], [ 82.33661, 19.31938 ], [ 82.33814, 19.32221 ], [ 82.33563, 19.32535 ], [ 82.32764, 19.32655 ], [ 82.32447, 19.32369 ], [ 82.33222, 19.31694 ] ] ] } },
{ "type": "Feature", "properties": { "OBJECTID": 1698, "state_lgd": "21", "state_name": "ODISHA", "district_lgd": "397", "district_name": "NABARANGAPUR", "district_name_source": "district_table", "subdistrict_lgd": "03196", "subdistrict_name": "NABARANGPUR", "subdistrict_type": "Tehsil", "name_corrupted": false, "remarks": "", "label_lon": 82.486201450940698, "label_lat": 19.257403471254417 }, "geometry": { "type": "Polygon", "coordinates": [ [ [ 82.60727, 19.34215 ], [ 82.61143, 19.33904 ], [ 82.61067, 19.33439 ], [ 82.60539, 19.3281 ], [ 82.60437, 19.32538 ], [ 82.60686, 19.31731 ], [ 82.60734, 19.31002 ], [ 82.61016, 19.30554 ], [ 82.61547, 19.30231 ], [ 82.61616, 19.29853 ], [ 82.61771, 19.29578 ], [ 82.61669, 19.29346 ], [ 82.61697, 19.29059 ], [ 82.61606, 19.28811 ], [ 82.6142, 19.2849 ], [ 82.61127, 19.28563 ], [ 82.60973, 19.28112 ], [ 82.60862, 19.28034 ], [ 82.60162, 19.27965 ], [ 82.59705, 19.27682 ], [ 82.59413, 19.27598 ], [ 82.5929, 19.27171 ], [ 82.59621, 19.27061 ], [ 82.59617, 19.26967 ], [ 82.60032, 19.26869 ], [ 82.60166, 19.2667 ], [ 82.60104, 19.265 ], [ 82.60434, 19.26325 ], [ 82.60505, 19.26165 ], [ 82.6045, 19.25818 ], [ 82.6054, 19.25419 ], [ 82.60512, 19.25157 ], [ 82.60295, 19.25093 ], [ 82.60182, 19.25189 ], [ 82.59978, 19.25136 ], [ 82.59897, 19.25201 ], [ 82.59433, 19.24881 ], [ 82.59392, 19.24714 ], [ 82.59741, 19.24458 ], [ 82.59683, 19.24276 ], [ 82.59155, 19.23633 ], [ 82.58877, 19.23441 ], [ 82.58635, 19.23407 ], [ 82.57934, 19.23572 ], [ 82.57834, 19.23622 ], [ 82.5757, 19.24136 ], [ 82.56963, 19.24361 ], [ 82.56798, 19.24601 ], [ 82.56772, 19.25057 ], [ 82.57396, 19.25892 ], [ 82.57394, 19.26433 ], [ 82.57053, 19.26845 ], [ 82.56929, 19.2677 ], [ 82.56784, 19.2686 ], [ 82.56069, 19.27492 ], [ 82.55766, 19.27524 ], [ 82.55756, 19.27594 ], [ 82.55287, 19.27767 ], [ 82.54837, 19.27691 ], [ 82.54784, 19.27552 ], [ 82.54998, 19.27064 ], [ 82.54913, 19.26945 ], [ 82.54694, 19.26958 ], [ 82.54351, 19.26575 ], [ 82.54081, 19.26694 ], [ 82.54292, 19.26288 ], [ 82.54198, 19.25893 ], [ 82.53641, 19.25923 ], [ 82.5365, 19.26103 ], [ 82.53461, 19.26183 ], [ 82.53781, 19.2657 ], [ 82.53686, 19.26642 ], [ 82.53288, 19.26293 ], [ 82.53237, 19.26383 ], [ 82.53117, 19.26396 ], [ 82.53155, 19.26609 ], [ 82.5293, 19.26519 ], [ 82.52801, 19.2674 ], [ 82.52667, 19.26699 ], [ 82.52487, 19.26408 ], [ 82.52381, 19.25688 ], [ 82.52941, 19.25274 ], [ 82.53405, 19.25057 ], [ 82.54304, 19.2507 ], [ 82.53969, 19.2435 ], [ 82.535, 19.23841 ], [ 82.5338, 19.23571 ], [ 82.53482, 19.23264 ], [ 82.53736, 19.23056 ], [ 82.53673, 19.22481 ], [ 82.53892, 19.22339 ], [ 82.54021, 19.22016 ], [ 82.54012, 19.21661 ], [ 82.5388, 19.21244 ], [ 82.5402, 19.20948 ], [ 82.54078, 19.20417 ], [ 82.54016, 19.20211 ], [ 82.53856, 19.20071 ], [ 82.5352, 19.19987 ], [ 82.53111, 19.20344 ], [ 82.52933, 19.20343 ], [ 82.52646, 19.19833 ], [ 82.52474, 19.19734 ], [ 82.52088, 19.20126 ], [ 82.51809, 19.20262 ], [ 82.51526, 19.20103 ], [ 82.50934, 19.19515 ], [ 82.50305, 19.19031 ], [ 82.48891, 19.18048 ], [ 82.4779, 19.18042 ], [ 82.47281, 19.17698 ], [ 82.46826, 19.17885 ], [ 82.46411, 19.18398 ], [ 82.46026, 19.18455 ], [ 82.4559, 19.18161 ], [ 82.45338, 19.17585 ], [ 82.44602, 19.17738 ], [ 82.44326, 19.17453 ], [ 82.44194, 19.17193 ], [ 82.44034, 19.17107 ], [ 82.43349, 19.17094 ], [ 82.4183, 19.18031 ], [ 82.41353, 19.18502 ], [ 82.4117, 19.18554 ], [ 82.41092, 19.18495 ], [ 82.41082, 19.18313 ], [ 82.41001, 19.183 ], [ 82.40774, 19.18399 ], [ 82.4063, 19.1857 ], [ 82.40378, 19.1909 ], [ 82.40485, 19.19493 ], [ 82.40516, 19.20248 ], [ 82.4023, 19.20727 ], [ 82.39783, 19.20906 ], [ 82.39715, 19.20999 ], [ 82.39694, 19.21876 ], [ 82.3991, 19.22431 ], [ 82.39774, 19.22441 ], [ 82.39697, 19.22648 ], [ 82.39727, 19.23502 ], [ 82.39651, 19.2432 ], [ 82.39344, 19.24459 ], [ 82.39263, 19.24164 ], [ 82.3912, 19.24077 ], [ 82.38791, 19.24331 ], [ 82.38838, 19.24928 ], [ 82.38738, 19.25088 ], [ 82.38406, 19.2508 ], [ 82.38214, 19.2493 ], [ 82.3776, 19.25219 ], [ 82.37048, 19.25279 ], [ 82.37144, 19.25637 ], [ 82.37745, 19.26566 ], [ 82.37876, 19.2695 ], [ 82.37857, 19.27136 ], [ 82.3803, 19.27537 ], [ 82.3726, 19.28224 ], [ 82.3734, 19.28792 ], [ 82.37448, 19.28821 ], [ 82.37543, 19.29082 ], [ 82.37298, 19.2937 ], [ 82.37417, 19.29964 ], [ 82.39307, 19.32733 ], [ 82.39533, 19.3276 ], [ 82.3976, 19.32634 ], [ 82.40014, 19.32642 ], [ 82.40521, 19.32333 ], [ 82.41026, 19.31093 ], [ 82.41027, 19.30566 ], [ 82.41088, 19.30506 ], [ 82.42382, 19.30283 ], [ 82.42716, 19.29874 ], [ 82.4288, 19.29782 ], [ 82.4373, 19.29891 ], [ 82.43952, 19.29773 ], [ 82.44017, 19.29483 ], [ 82.43617, 19.29116 ], [ 82.43729, 19.28647 ], [ 82.4455, 19.28192 ], [ 82.44777, 19.27841 ], [ 82.44972, 19.27686 ], [ 82.4545, 19.27575 ], [ 82.46359, 19.27791 ], [ 82.46534, 19.27542 ], [ 82.46754, 19.27442 ], [ 82.47491, 19.2742 ], [ 82.48104, 19.27617 ], [ 82.48202, 19.27752 ], [ 82.48256, 19.28554 ], [ 82.4814, 19.29055 ], [ 82.48232, 19.2977 ], [ 82.4842, 19.30347 ], [ 82.48418, 19.30695 ], [ 82.49829, 19.3057 ], [ 82.4991, 19.31045 ], [ 82.50287, 19.31641 ], [ 82.50483, 19.31589 ], [ 82.50703, 19.31869 ], [ 82.51708, 19.31708 ], [ 82.51752, 19.32063 ], [ 82.51923, 19.32054 ], [ 82.51936, 19.32281 ], [ 82.52565, 19.3208 ], [ 82.52931, 19.32122 ], [ 82.54093, 19.31715 ], [ 82.54242, 19.31536 ], [ 82.54375, 19.31168 ], [ 82.54561, 19.31058 ], [ 82.55209, 19.31141 ], [ 82.55511, 19.31089 ], [ 82.56005, 19.31451 ], [ 82.56404, 19.31967 ], [ 82.56656, 19.31832 ], [ 82.57279, 19.31922 ], [ 82.57412, 19.32387 ], [ 82.57076, 19.32611 ], [ 82.568, 19.32476 ], [ 82.56722, 19.32548 ], [ 82.56978, 19.32714 ], [ 82.56825, 19.32904 ], [ 82.56714, 19.32853 ], [ 82.56626, 19.33192 ], [ 82.56404, 19.33414 ], [ 82.56512, 19.33483 ], [ 82.56837, 19.33226 ], [ 82.56931, 19.33824 ], [ 82.57432, 19.33838 ], [ 82.58047, 19.33684 ], [ 82.58168, 19.33822 ], [ 82.58432, 19.33778 ], [ 82.58454, 19.3323 ], [ 82.58522, 19.33179 ], [ 82.59124, 19.33447 ], [ 82.59151, 19.3369 ], [ 82.59662, 19.34353 ], [ 82.60081, 19.34389 ], [ 82.60237, 19.34289 ], [ 82.60727, 19.34215 ] ], [ [ 82.52063, 19.25889 ], [ 82.51729, 19.25957 ], [ 82.51319, 19.26204 ], [ 82.51126, 19.2623 ], [ 82.50695, 19.25459 ], [ 82.50598, 19.25113 ], [ 82.51189, 19.25045 ], [ 82.51767, 19.24658 ], [ 82.52256, 19.24534 ], [ 82.52204, 19.25 ], [ 82.5238, 19.25688 ], [ 82.52063, 19.25889 ] ] ] } },
{ "type": "Feature", "properties": { "OBJECTID": 1699, "state_lgd": "21", "state_name": "ODISHA", "district_lgd": "397", "district_name": "NABARANGAPUR", "district_name_source": "district_table", "subdistrict_lgd": "03190", "subdistrict_name": "CHANDAHANDI", "subdistrict_type": "Tehsil", "name_corrupted": false, "remarks": "", "label_lon": 82.490248599135896, "label_lat": 19.838460267170806 }, "geometry": { "type": "Polygon", "coordinates": [ [ [ 82.54163, 19.88376 ], [ 82.54839, 19.8757 ], [ 82.55021, 19.87575 ], [ 82.55336, 19.88009 ], [ 82.55596, 19.88066 ], [ 82.55891, 19.87855 ], [ 82.56104, 19.87433 ], [ 82.56694, 19.87558 ], [ 82.57139, 19.87779 ], [ 82.57302, 19.87755 ], [ 82.57918, 19.87178 ], [ 82.58289, 19.86942 ], [ 82.58737, 19.87 ], [ 82.59616, 19.87298 ], [ 82.60378, 19.86631 ], [ 82.60256, 19.86304 ], [ 82.6002, 19.86019 ], [ 82.59628, 19.85883 ], [ 82.59687, 19.8552 ], [ 82.59382, 19.85285 ], [ 82.59041, 19.85245 ], [ 82.59062, 19.84892 ], [ 82.58772, 19.84868 ], [ 82.58721, 19.84757 ], [ 82.58894, 19.84507 ], [ 82.58863, 19.84338 ], [ 82.5839, 19.84358 ], [ 82.57973, 19.84011 ], [ 82.57599, 19.8346 ], [ 82.57604, 19.82892 ], [ 82.57656, 19.82859 ], [ 82.57818, 19.83041 ], [ 82.5794, 19.83032 ], [ 82.57777, 19.82497 ], [ 82.57914, 19.82354 ], [ 82.57853, 19.81801 ], [ 82.5762, 19.81474 ], [ 82.57858, 19.81108 ], [ 82.57599, 19.80822 ], [ 82.57676, 19.80682 ], [ 82.57997, 19.80649 ], [ 82.58347, 19.80288 ], [ 82.58459, 19.80259 ], [ 82.5831, 19.79686 ], [ 82.57898, 19.80047 ], [ 82.57721, 19.80044 ], [ 82.56936, 19.80337 ], [ 82.5647, 19.80159 ], [ 82.5629, 19.79913 ], [ 82.56357, 19.79281 ], [ 82.56769, 19.78201 ], [ 82.57146, 19.766 ], [ 82.58269, 19.7639 ], [ 82.58392, 19.7627 ], [ 82.58491, 19.75 ], [ 82.58153, 19.74618 ], [ 82.57061, 19.7528 ], [ 82.56881, 19.75593 ], [ 82.56698, 19.75716 ], [ 82.55816, 19.75013 ], [ 82.55339, 19.75046 ], [ 82.55174, 19.75452 ], [ 82.55144, 19.7586 ], [ 82.55209, 19.77159 ], [ 82.54001, 19.77125 ], [ 82.5356, 19.77835 ], [ 82.53549, 19.78356 ], [ 82.54243, 19.78908 ], [ 82.5436, 19.79189 ], [ 82.54304, 19.79793 ], [ 82.53722, 19.79926 ], [ 82.53239, 19.80217 ], [ 82.52832, 19.80169 ], [ 82.52124, 19.79794 ], [ 82.51335, 19.8005 ], [ 82.50892, 19.79758 ], [ 82.50663, 19.79493 ], [ 82.50553, 19.78669 ], [ 82.52, 19.76459 ], [ 82.51363, 19.76119 ], [ 82.50514, 19.76203 ], [ 82.49307, 19.76548 ], [ 82.48098, 19.77673 ], [ 82.46372, 19.76521 ], [ 82.45397, 19.76128 ], [ 82.45084, 19.76121 ], [ 82.4482, 19.76885 ], [ 82.45134, 19.77183 ], [ 82.45321, 19.77174 ], [ 82.45398, 19.77358 ], [ 82.45459, 19.7764 ], [ 82.45266, 19.78131 ], [ 82.43675, 19.78809 ], [ 82.42701, 19.79107 ], [ 82.42963, 19.79692 ], [ 82.43121, 19.80305 ], [ 82.42693, 19.80634 ], [ 82.43107, 19.81553 ], [ 82.4316, 19.82143 ], [ 82.4348, 19.82617 ], [ 82.42397, 19.83059 ], [ 82.40571, 19.83605 ], [ 82.40578, 19.83715 ], [ 82.39403, 19.83883 ], [ 82.39037, 19.84371 ], [ 82.38245, 19.84178 ], [ 82.37977, 19.84514 ], [ 82.37757, 19.85102 ], [ 82.37716, 19.85613 ], [ 82.37938, 19.85675 ], [ 82.37901, 19.85854 ], [ 82.37728, 19.86023 ], [ 82.3784, 19.86458 ], [ 82.38398, 19.87052 ], [ 82.38295, 19.87386 ], [ 82.39248, 19.88205 ], [ 82.39487, 19.88801 ], [ 82.40178, 19.88994 ], [ 82.40524, 19.89426 ], [ 82.40984, 19.89614 ], [ 82.41196, 19.89851 ], [ 82.41858, 19.89985 ], [ 82.41891, 19.90066 ], [ 82.41743, 19.90266 ], [ 82.41802, 19.90407 ], [ 82.4262, 19.90546 ], [ 82.43006, 19.90401 ], [ 82.43335, 19.90556 ], [ 82.43711, 19.90494 ], [ 82.44527, 19.91007 ], [ 82.45217, 19.90871 ], [ 82.45667, 19.90514 ], [ 82.46182, 19.90284 ], [ 82.46422, 19.90085 ], [ 82.46719, 19.90177 ], [ 82.47228, 19.90158 ], [ 82.47279, 19.90345 ], [ 82.47225, 19.90625 ], [ 82.4729, 19.90703 ], [ 82.47789, 19.90645 ], [ 82.48478, 19.90775 ], [ 82.49161, 19.90345 ], [ 82.49699, 19.90424 ], [ 82.5018, 19.90232 ], [ 82.50515, 19.89904 ], [ 82.50288, 19.89447 ], [ 82.50298, 19.89308 ], [ 82.50547, 19.88986 ], [ 82.50831, 19.88851 ], [ 82.5118, 19.88813 ], [ 82.51633, 19.89092 ], [ 82.51912, 19.89097 ], [ 82.52131, 19.88886 ], [ 82.5233, 19.88308 ], [ 82.52689, 19.88026 ], [ 82.53142, 19.87824 ], [ 82.53491, 19.88689 ], [ 82.54163, 19.88376 ] ] ] } },
{ "type": "Feature", "properties": { "OBJECTID": 1700, "state_lgd": "21", "state_name": "ODISHA", "district_lgd": "397", "district_name": "NABARANGAPUR", "district_name_source": "district_table", "subdistrict_lgd": "06717", "subdistrict_name": "JHARIGAM", "subdistrict_type": "Tehsil", "name_corrupted": false, "remarks": "", "label_lon": 82.397775931728191, "label_lat": 19.676661515173507 }, "geometry": { "type": "Polygon", "coordinates": [ [ [ 82.37731, 19.8607 ], [ 82.37901, 19.85854 ], [ 82.37938, 19.85675 ], [ 82.37799, 19.85676 ], [ 82.37708, 19.8558 ], [ 82.37806, 19.84885 ], [ 82.37977, 19.84514 ], [ 82.38245, 19.84178 ], [ 82.39037, 19.84371 ], [ 82.39403, 19.83883 ], [ 82.40578, 19.83715 ], [ 82.40571, 19.83605 ], [ 82.42397, 19.83059 ], [ 82.4348, 19.82617 ], [ 82.4316, 19.82143 ], [ 82.43107, 19.81553 ], [ 82.42693, 19.80634 ], [ 82.43121, 19.80305 ], [ 82.42963, 19.79692 ], [ 82.42701, 19.79107 ], [ 82.43675, 19.78809 ], [ 82.45266, 19.78131 ], [ 82.45459, 19.7764 ], [ 82.45398, 19.77358 ], [ 82.45321, 19.77174 ], [ 82.45134, 19.77183 ], [ 82.4482, 19.76885 ], [ 82.45084, 19.76121 ], [ 82.45397, 19.76128 ], [ 82.46372, 19.76521 ], [ 82.48098, 19.77673 ], [ 82.49307, 19.76548 ], [ 82.50514, 19.76203 ], [ 82.51363, 19.76119 ], [ 82.52, 19.76459 ], [ 82.50553, 19.78669 ], [ 82.50663, 19.79493 ], [ 82.50892, 19.79758 ], [ 82.51335, 19.8005 ], [ 82.52124, 19.79794 ], [ 82.52832, 19.80169 ], [ 82.53239, 19.80217 ], [ 82.53722, 19.79926 ], [ 82.54304, 19.79793 ], [ 82.5436, 19.79189 ], [ 82.54243, 19.78908 ], [ 82.53549, 19.78356 ], [ 82.5356, 19.77835 ], [ 82.54001, 19.77125 ], [ 82.55209, 19.77159 ], [ 82.55144, 19.7586 ], [ 82.55174, 19.75452 ], [ 82.55339, 19.75046 ], [ 82.55816, 19.75013 ], [ 82.56698, 19.75716 ], [ 82.56881, 19.75593 ], [ 82.57061, 19.7528 ], [ 82.58153, 19.74618 ], [ 82.58491, 19.75 ], [ 82.58392, 19.7627 ], [ 82.58269, 19.7639 ], [ 82.57146, 19.766 ], [ 82.56769, 19.78201 ], [ 82.56357, 19.79281 ], [ 82.56328, 19.80036 ], [ 82.5668, 19.80275 ], [ 82.56936, 19.80337 ], [ 82.57721, 19.80044 ], [ 82.57898, 19.80047 ], [ 82.5831, 19.79686 ], [ 82.58277, 19.79356 ], [ 82.58449, 19.78825 ], [ 82.58166, 19.78386 ], [ 82.58359, 19.78164 ], [ 82.58323, 19.77918 ], [ 82.59489, 19.77529 ], [ 82.59473, 19.77239 ], [ 82.59687, 19.76281 ], [ 82.59555, 19.75998 ], [ 82.59966, 19.75739 ], [ 82.60059, 19.75084 ], [ 82.60219, 19.74704 ], [ 82.59844, 19.74635 ], [ 82.59722, 19.74707 ], [ 82.59593, 19.74622 ], [ 82.59485, 19.74753 ], [ 82.59298, 19.74727 ], [ 82.58975, 19.74507 ], [ 82.58739, 19.74473 ], [ 82.58063, 19.73768 ], [ 82.57629, 19.73659 ], [ 82.57268, 19.73367 ], [ 82.56924, 19.73333 ], [ 82.56754, 19.73525 ], [ 82.56526, 19.73038 ], [ 82.56303, 19.72794 ], [ 82.56213, 19.72547 ], [ 82.56366, 19.72531 ], [ 82.56359, 19.72156 ], [ 82.56419, 19.72064 ], [ 82.56797, 19.71997 ], [ 82.56794, 19.71525 ], [ 82.57098, 19.71394 ], [ 82.57307, 19.71393 ], [ 82.57321, 19.71193 ], [ 82.5708, 19.7102 ], [ 82.56871, 19.70974 ], [ 82.56822, 19.70872 ], [ 82.56919, 19.70523 ], [ 82.56881, 19.70017 ], [ 82.56718, 19.69978 ], [ 82.56625, 19.69177 ], [ 82.56767, 19.69104 ], [ 82.56667, 19.6888 ], [ 82.56733, 19.68454 ], [ 82.56848, 19.68286 ], [ 82.57558, 19.6827 ], [ 82.57694, 19.68076 ], [ 82.56806, 19.67109 ], [ 82.56581, 19.66614 ], [ 82.56543, 19.66239 ], [ 82.5587, 19.65289 ], [ 82.55572, 19.64525 ], [ 82.55436, 19.64436 ], [ 82.55104, 19.6446 ], [ 82.54573, 19.64144 ], [ 82.54531, 19.64253 ], [ 82.54455, 19.6425 ], [ 82.54225, 19.63977 ], [ 82.53903, 19.63919 ], [ 82.53646, 19.63968 ], [ 82.53373, 19.63787 ], [ 82.53253, 19.63531 ], [ 82.52451, 19.63222 ], [ 82.52743, 19.62864 ], [ 82.53096, 19.62844 ], [ 82.53168, 19.62497 ], [ 82.53519, 19.62266 ], [ 82.53487, 19.62009 ], [ 82.53715, 19.62047 ], [ 82.5397, 19.61838 ], [ 82.53981, 19.61759 ], [ 82.53809, 19.61565 ], [ 82.54192, 19.61533 ], [ 82.54662, 19.61289 ], [ 82.54726, 19.61342 ], [ 82.54746, 19.61113 ], [ 82.54608, 19.60502 ], [ 82.54107, 19.59861 ], [ 82.54194, 19.59732 ], [ 82.54045, 19.59489 ], [ 82.53673, 19.59706 ], [ 82.53658, 19.59231 ], [ 82.5347, 19.59122 ], [ 82.53317, 19.59166 ], [ 82.53421, 19.58929 ], [ 82.5332, 19.58819 ], [ 82.53171, 19.58886 ], [ 82.53056, 19.5884 ], [ 82.52928, 19.58502 ], [ 82.52525, 19.58582 ], [ 82.52169, 19.58471 ], [ 82.51707, 19.58595 ], [ 82.51623, 19.58323 ], [ 82.51217, 19.58042 ], [ 82.51308, 19.56721 ], [ 82.51221, 19.56427 ], [ 82.51001, 19.56191 ], [ 82.51201, 19.55775 ], [ 82.5109, 19.55349 ], [ 82.50945, 19.55108 ], [ 82.50582, 19.54776 ], [ 82.49761, 19.54239 ], [ 82.49234, 19.53768 ], [ 82.4908, 19.53512 ], [ 82.49164, 19.53275 ], [ 82.48846, 19.53292 ], [ 82.47793, 19.52771 ], [ 82.47469, 19.53017 ], [ 82.47241, 19.52942 ], [ 82.46802, 19.53141 ], [ 82.46113, 19.53873 ], [ 82.45992, 19.54118 ], [ 82.45674, 19.55489 ], [ 82.46007, 19.55615 ], [ 82.45907, 19.55811 ], [ 82.45983, 19.56103 ], [ 82.45863, 19.56489 ], [ 82.45241, 19.56263 ], [ 82.4517, 19.55992 ], [ 82.44974, 19.55973 ], [ 82.44989, 19.55753 ], [ 82.4474, 19.55838 ], [ 82.4447, 19.55701 ], [ 82.44324, 19.55707 ], [ 82.4415, 19.55845 ], [ 82.43926, 19.55891 ], [ 82.44002, 19.56174 ], [ 82.44288, 19.56566 ], [ 82.44133, 19.57271 ], [ 82.4371, 19.57325 ], [ 82.43315, 19.57104 ], [ 82.42803, 19.57634 ], [ 82.42558, 19.57506 ], [ 82.42178, 19.57696 ], [ 82.41467, 19.57523 ], [ 82.41048, 19.57319 ], [ 82.40884, 19.57391 ], [ 82.40899, 19.57531 ], [ 82.40818, 19.57584 ], [ 82.4048, 19.57558 ], [ 82.39794, 19.57672 ], [ 82.39655, 19.57548 ], [ 82.39041, 19.57436 ], [ 82.3891, 19.57709 ], [ 82.38734, 19.57587 ], [ 82.3863, 19.57118 ], [ 82.38024, 19.57113 ], [ 82.37942, 19.56918 ], [ 82.38187, 19.56458 ], [ 82.38658, 19.5628 ], [ 82.38799, 19.56085 ], [ 82.38811, 19.55599 ], [ 82.38909, 19.55428 ], [ 82.38884, 19.551 ], [ 82.38957, 19.54909 ], [ 82.38829, 19.54798 ], [ 82.3891, 19.54644 ], [ 82.38827, 19.54452 ], [ 82.3913, 19.54115 ], [ 82.39245, 19.53721 ], [ 82.38674, 19.53459 ], [ 82.38575, 19.53324 ], [ 82.38607, 19.53088 ], [ 82.38358, 19.52865 ], [ 82.38696, 19.526 ], [ 82.38727, 19.52428 ], [ 82.38639, 19.52233 ], [ 82.38745, 19.52096 ], [ 82.38869, 19.51575 ], [ 82.38258, 19.51097 ], [ 82.38167, 19.50819 ], [ 82.37922, 19.50646 ], [ 82.37595, 19.50777 ], [ 82.37547, 19.50931 ], [ 82.37367, 19.50863 ], [ 82.37243, 19.51008 ], [ 82.36734, 19.50952 ], [ 82.36311, 19.51078 ], [ 82.36237, 19.5099 ], [ 82.35668, 19.51184 ], [ 82.35277, 19.515 ], [ 82.3516, 19.51402 ], [ 82.35249, 19.50888 ], [ 82.34839, 19.51124 ], [ 82.3442, 19.509 ], [ 82.34442, 19.50357 ], [ 82.33939, 19.5013 ], [ 82.33578, 19.49829 ], [ 82.33302, 19.49796 ], [ 82.3312, 19.49586 ], [ 82.32422, 19.49485 ], [ 82.32134, 19.49315 ], [ 82.31863, 19.49678 ], [ 82.3167, 19.49859 ], [ 82.31632, 19.49776 ], [ 82.31435, 19.5 ], [ 82.31347, 19.5019 ], [ 82.31439, 19.50494 ], [ 82.31152, 19.50901 ], [ 82.30995, 19.51375 ], [ 82.30657, 19.51531 ], [ 82.30437, 19.51434 ], [ 82.30487, 19.51995 ], [ 82.30367, 19.52066 ], [ 82.3001, 19.52005 ], [ 82.29734, 19.52204 ], [ 82.30019, 19.52579 ], [ 82.30075, 19.52856 ], [ 82.28346, 19.52318 ], [ 82.28238, 19.5275 ], [ 82.27873, 19.52624 ], [ 82.27859, 19.52513 ], [ 82.27684, 19.52462 ], [ 82.27471, 19.52077 ], [ 82.27383, 19.52052 ], [ 82.26692, 19.52632 ], [ 82.2656, 19.53243 ], [ 82.26957, 19.53988 ], [ 82.26495, 19.54644 ], [ 82.26097, 19.54178 ], [ 82.25753, 19.54268 ], [ 82.25703, 19.54084 ], [ 82.25537, 19.54067 ], [ 82.2521, 19.54187 ], [ 82.25365, 19.5463 ], [ 82.25278, 19.55089 ], [ 82.24686, 19.55443 ], [ 82.24246, 19.55503 ], [ 82.23392, 19.5634 ], [ 82.2297, 19.57053 ], [ 82.22624, 19.5739 ], [ 82.23222, 19.57716 ], [ 82.23761, 19.57772 ], [ 82.2416, 19.58606 ], [ 82.24188, 19.58719 ], [ 82.23391, 19.58863 ], [ 82.23821, 19.59316 ], [ 82.23789, 19.59592 ], [ 82.23512, 19.60076 ], [ 82.23232, 19.60213 ], [ 82.23535, 19.60645 ], [ 82.2399, 19.61176 ], [ 82.24297, 19.61123 ], [ 82.24526, 19.60954 ], [ 82.24673, 19.60999 ], [ 82.24766, 19.6083 ], [ 82.25, 19.61177 ], [ 82.2521, 19.6113 ], [ 82.2528, 19.61216 ], [ 82.25197, 19.61634 ], [ 82.25249, 19.61742 ], [ 82.25804, 19.61748 ], [ 82.26034, 19.61921 ], [ 82.2583, 19.62239 ], [ 82.25845, 19.62405 ], [ 82.25911, 19.62579 ], [ 82.2624, 19.62722 ], [ 82.26042, 19.62961 ], [ 82.2606, 19.63399 ], [ 82.2584, 19.6357 ], [ 82.2594, 19.63959 ], [ 82.25862, 19.64245 ], [ 82.25965, 19.64554 ], [ 82.25885, 19.64719 ], [ 82.25733, 19.64786 ], [ 82.2566, 19.64627 ], [ 82.25494, 19.64636 ], [ 82.2555, 19.64847 ], [ 82.25112, 19.6514 ], [ 82.25126, 19.65212 ], [ 82.25299, 19.65165 ], [ 82.25342, 19.65229 ], [ 82.25267, 19.6538 ], [ 82.25294, 19.65725 ], [ 82.25102, 19.65823 ], [ 82.25167, 19.65952 ], [ 82.25373, 19.65818 ], [ 82.25468, 19.65859 ], [ 82.25515, 19.66021 ], [ 82.25692, 19.66131 ], [ 82.25678, 19.6631 ], [ 82.26273, 19.6656 ], [ 82.26345, 19.66692 ], [ 82.26593, 19.66747 ], [ 82.26986, 19.6724 ], [ 82.26858, 19.67672 ], [ 82.26268, 19.68189 ], [ 82.26309, 19.68638 ], [ 82.27439, 19.68515 ], [ 82.28068, 19.68706 ], [ 82.27914, 19.68924 ], [ 82.28011, 19.69182 ], [ 82.28033, 19.69597 ], [ 82.27892, 19.70324 ], [ 82.27336, 19.70572 ], [ 82.27154, 19.70792 ], [ 82.26966, 19.71329 ], [ 82.2701, 19.71552 ], [ 82.27215, 19.71874 ], [ 82.27262, 19.72234 ], [ 82.27112, 19.72593 ], [ 82.28145, 19.72837 ], [ 82.28322, 19.72986 ], [ 82.28229, 19.74107 ], [ 82.28404, 19.74384 ], [ 82.28662, 19.74537 ], [ 82.28678, 19.74861 ], [ 82.27808, 19.75482 ], [ 82.27138, 19.75685 ], [ 82.27061, 19.75866 ], [ 82.26609, 19.76339 ], [ 82.26256, 19.77163 ], [ 82.2699, 19.77081 ], [ 82.27441, 19.76878 ], [ 82.27688, 19.76612 ], [ 82.27871, 19.76222 ], [ 82.28308, 19.75891 ], [ 82.28515, 19.75828 ], [ 82.27999, 19.7703 ], [ 82.27414, 19.78117 ], [ 82.27239, 19.78912 ], [ 82.27304, 19.79692 ], [ 82.26763, 19.79734 ], [ 82.26387, 19.79915 ], [ 82.26242, 19.80124 ], [ 82.26012, 19.80854 ], [ 82.25819, 19.81019 ], [ 82.26849, 19.81184 ], [ 82.27761, 19.80088 ], [ 82.27958, 19.80206 ], [ 82.29902, 19.82369 ], [ 82.29973, 19.82694 ], [ 82.29195, 19.82827 ], [ 82.29177, 19.8298 ], [ 82.29347, 19.83491 ], [ 82.29138, 19.84038 ], [ 82.29247, 19.84334 ], [ 82.29911, 19.85155 ], [ 82.30534, 19.85451 ], [ 82.3088, 19.85514 ], [ 82.31296, 19.85451 ], [ 82.3162, 19.85281 ], [ 82.32614, 19.84115 ], [ 82.32858, 19.83679 ], [ 82.33334, 19.83895 ], [ 82.33521, 19.84154 ], [ 82.34424, 19.83502 ], [ 82.34829, 19.83613 ], [ 82.3537, 19.84031 ], [ 82.35732, 19.84537 ], [ 82.35985, 19.84699 ], [ 82.36142, 19.85075 ], [ 82.36446, 19.85101 ], [ 82.36463, 19.85469 ], [ 82.36041, 19.85731 ], [ 82.36139, 19.85884 ], [ 82.36085, 19.8628 ], [ 82.36347, 19.86305 ], [ 82.36437, 19.86188 ], [ 82.3723, 19.86081 ], [ 82.37468, 19.85948 ], [ 82.3784, 19.86458 ], [ 82.37731, 19.8607 ] ] ] } },
{ "type": "Feature", "properties": { "OBJECTID": 1701, "state_lgd": "21", "state_name": "ODISHA", "district_lgd": "397", "district_name": "NABARANGAPUR", "district_name_source": "district_table", "subdistrict_lgd": "06715", "subdistrict_name": "UMERKOTE", "subdistrict_type": "Tehsil", "name_corrupted": false, "remarks": "", "label_lon": 82.174060453010227, "label_lat": 19.694799984798621 }, "geometry": { "type": "Polygon", "coordinates": [ [ [ 82.32634, 19.86161 ], [ 82.3307, 19.84485 ], [ 82.33521, 19.84154 ], [ 82.33334, 19.83895 ], [ 82.32858, 19.83679 ], [ 82.32614, 19.84115 ], [ 82.31802, 19.8514 ], [ 82.31296, 19.85451 ], [ 82.30641, 19.85495 ], [ 82.29911, 19.85155 ], [ 82.29247, 19.84334 ], [ 82.29136, 19.83979 ], [ 82.29347, 19.83491 ], [ 82.29177, 19.8298 ], [ 82.29195, 19.82827 ], [ 82.29932, 19.82721 ], [ 82.3001, 19.82635 ], [ 82.29955, 19.82484 ], [ 82.29233, 19.81555 ], [ 82.27845, 19.8011 ], [ 82.27761, 19.80088 ], [ 82.26849, 19.81184 ], [ 82.25819, 19.81019 ], [ 82.26012, 19.80854 ], [ 82.26242, 19.80124 ], [ 82.26387, 19.79915 ], [ 82.26763, 19.79734 ], [ 82.27304, 19.79692 ], [ 82.27239, 19.78912 ], [ 82.27414, 19.78117 ], [ 82.27999, 19.7703 ], [ 82.28515, 19.75828 ], [ 82.28308, 19.75891 ], [ 82.27871, 19.76222 ], [ 82.27688, 19.76612 ], [ 82.27441, 19.76878 ], [ 82.2699, 19.77081 ], [ 82.26486, 19.77185 ], [ 82.26256, 19.77163 ], [ 82.26321, 19.76968 ], [ 82.26609, 19.76339 ], [ 82.27061, 19.75866 ], [ 82.27138, 19.75685 ], [ 82.27808, 19.75482 ], [ 82.28678, 19.74861 ], [ 82.28698, 19.74611 ], [ 82.28404, 19.74384 ], [ 82.28229, 19.74107 ], [ 82.28322, 19.72986 ], [ 82.28145, 19.72837 ], [ 82.27112, 19.72593 ], [ 82.27262, 19.72234 ], [ 82.27215, 19.71874 ], [ 82.2701, 19.71552 ], [ 82.26966, 19.71329 ], [ 82.27154, 19.70792 ], [ 82.27336, 19.70572 ], [ 82.27892, 19.70324 ], [ 82.28033, 19.69597 ], [ 82.28011, 19.69182 ], [ 82.27914, 19.68924 ], [ 82.28068, 19.68706 ], [ 82.27439, 19.68515 ], [ 82.26309, 19.68638 ], [ 82.26268, 19.68189 ], [ 82.26858, 19.67672 ], [ 82.26986, 19.6724 ], [ 82.26593, 19.66747 ], [ 82.26345, 19.66692 ], [ 82.26273, 19.6656 ], [ 82.25678, 19.6631 ], [ 82.25692, 19.66131 ], [ 82.25515, 19.66021 ], [ 82.25468, 19.65859 ], [ 82.25373, 19.65818 ], [ 82.25167, 19.65952 ], [ 82.25105, 19.65859 ], [ 82.25294, 19.65725 ], [ 82.25267, 19.6538 ], [ 82.25342, 19.65229 ], [ 82.25299, 19.65165 ], [ 82.25126, 19.65212 ], [ 82.25112, 19.6514 ], [ 82.2555, 19.64847 ], [ 82.25494, 19.64636 ], [ 82.2566, 19.64627 ], [ 82.25733, 19.64786 ], [ 82.25885, 19.64719 ], [ 82.25965, 19.64554 ], [ 82.25862, 19.64245 ], [ 82.2594, 19.63959 ], [ 82.2584, 19.6357 ], [ 82.2606, 19.63399 ], [ 82.26042, 19.62961 ], [ 82.2624, 19.62722 ], [ 82.25911, 19.62579 ], [ 82.25845, 19.62405 ], [ 82.2583, 19.62239 ], [ 82.26034, 19.61921 ], [ 82.25804, 19.61748 ], [ 82.25249, 19.61742 ], [ 82.25197, 19.61634 ], [ 82.2528, 19.61216 ], [ 82.2521, 19.6113 ], [ 82.25, 19.61177 ], [ 82.24766, 19.6083 ], [ 82.24673, 19.60999 ], [ 82.24526, 19.60954 ], [ 82.24297, 19.61123 ], [ 82.2399, 19.61176 ], [ 82.23535, 19.60645 ], [ 82.23232, 19.60213 ], [ 82.23512, 19.60076 ], [ 82.23789, 19.59592 ], [ 82.23821, 19.59316 ], [ 82.23391, 19.58863 ], [ 82.24188, 19.58719 ], [ 82.2416, 19.58606 ], [ 82.23761, 19.57772 ], [ 82.23222, 19.57716 ], [ 82.22624, 19.5739 ], [ 82.2297, 19.57053 ], [ 82.23392, 19.5634 ], [ 82.24216, 19.55529 ], [ 82.24686, 19.55443 ], [ 82.25278, 19.55089 ], [ 82.25356, 19.5484 ], [ 82.25334, 19.54454 ], [ 82.25145, 19.53888 ], [ 82.25, 19.53819 ], [ 82.24583, 19.53822 ], [ 82.24531, 19.52826 ], [ 82.24245, 19.51678 ], [ 82.24697, 19.51639 ], [ 82.25369, 19.51771 ], [ 82.25279, 19.51372 ], [ 82.25003, 19.50987 ], [ 82.24776, 19.50853 ], [ 82.2456, 19.50588 ], [ 82.24541, 19.50371 ], [ 82.24775, 19.49225 ], [ 82.24601, 19.49063 ], [ 82.24581, 19.48944 ], [ 82.24301, 19.48763 ], [ 82.237, 19.48987 ], [ 82.2318, 19.49397 ], [ 82.22963, 19.49398 ], [ 82.23051, 19.49063 ], [ 82.22982, 19.48969 ], [ 82.2263, 19.49081 ], [ 82.22381, 19.49343 ], [ 82.22279, 19.49361 ], [ 82.21882, 19.48973 ], [ 82.21655, 19.49018 ], [ 82.21492, 19.49239 ], [ 82.21321, 19.48902 ], [ 82.21108, 19.48696 ], [ 82.21306, 19.4849 ], [ 82.21272, 19.48339 ], [ 82.20587, 19.47728 ], [ 82.20229, 19.47778 ], [ 82.19562, 19.47109 ], [ 82.19251, 19.46955 ], [ 82.19181, 19.46702 ], [ 82.18867, 19.46444 ], [ 82.18976, 19.46112 ], [ 82.18733, 19.46082 ], [ 82.18398, 19.45883 ], [ 82.17848, 19.45423 ], [ 82.17522, 19.44825 ], [ 82.16935, 19.44468 ], [ 82.16743, 19.4444 ], [ 82.16821, 19.43672 ], [ 82.16074, 19.4363 ], [ 82.13524, 19.43178 ], [ 82.13525, 19.43039 ], [ 82.1273, 19.43051 ], [ 82.12614, 19.42909 ], [ 82.11353, 19.44826 ], [ 82.11342, 19.46036 ], [ 82.10282, 19.46611 ], [ 82.10656, 19.4723 ], [ 82.10734, 19.47504 ], [ 82.10811, 19.48028 ], [ 82.10796, 19.49428 ], [ 82.09797, 19.49893 ], [ 82.09848, 19.50757 ], [ 82.10026, 19.51659 ], [ 82.09173, 19.51813 ], [ 82.07603, 19.52363 ], [ 82.06876, 19.51553 ], [ 82.06542, 19.51057 ], [ 82.05455, 19.50952 ], [ 82.05134, 19.50816 ], [ 82.03851, 19.50913 ], [ 82.02903, 19.508 ], [ 82.03156, 19.51104 ], [ 82.03185, 19.51453 ], [ 82.03406, 19.51453 ], [ 82.03455, 19.51776 ], [ 82.03643, 19.51978 ], [ 82.03729, 19.52825 ], [ 82.03988, 19.53018 ], [ 82.04165, 19.52949 ], [ 82.04326, 19.52986 ], [ 82.04365, 19.53154 ], [ 82.04662, 19.53408 ], [ 82.04761, 19.53323 ], [ 82.0475, 19.53707 ], [ 82.0482, 19.53827 ], [ 82.04749, 19.53965 ], [ 82.04979, 19.54363 ], [ 82.05071, 19.54882 ], [ 82.04977, 19.55056 ], [ 82.05032, 19.55164 ], [ 82.04889, 19.55202 ], [ 82.04773, 19.55621 ], [ 82.046, 19.55731 ], [ 82.04551, 19.56053 ], [ 82.04639, 19.56203 ], [ 82.04574, 19.56287 ], [ 82.04949, 19.56841 ], [ 82.04811, 19.56912 ], [ 82.0483, 19.57195 ], [ 82.04962, 19.57272 ], [ 82.04985, 19.57403 ], [ 82.04877, 19.57533 ], [ 82.04875, 19.57827 ], [ 82.04598, 19.57972 ], [ 82.04569, 19.58114 ], [ 82.04466, 19.58178 ], [ 82.04297, 19.58637 ], [ 82.04337, 19.589 ], [ 82.04048, 19.59164 ], [ 82.03988, 19.59764 ], [ 82.04428, 19.60528 ], [ 82.04627, 19.60729 ], [ 82.05066, 19.60808 ], [ 82.05127, 19.60992 ], [ 82.05031, 19.61247 ], [ 82.05156, 19.61522 ], [ 82.05061, 19.61677 ], [ 82.0521, 19.61944 ], [ 82.05384, 19.62029 ], [ 82.05571, 19.6231 ], [ 82.0561, 19.62596 ], [ 82.05902, 19.62817 ], [ 82.05646, 19.63312 ], [ 82.05764, 19.63552 ], [ 82.05701, 19.63951 ], [ 82.05473, 19.6405 ], [ 82.05471, 19.64283 ], [ 82.05192, 19.64657 ], [ 82.05215, 19.64946 ], [ 82.05387, 19.65034 ], [ 82.05351, 19.6528 ], [ 82.05551, 19.65446 ], [ 82.05424, 19.658 ], [ 82.0534, 19.65747 ], [ 82.05255, 19.65795 ], [ 82.05194, 19.66095 ], [ 82.05362, 19.66539 ], [ 82.05532, 19.66566 ], [ 82.05187, 19.68047 ], [ 82.0491, 19.68493 ], [ 82.04459, 19.70053 ], [ 82.04475, 19.70888 ], [ 82.05026, 19.71658 ], [ 82.05102, 19.71909 ], [ 82.04924, 19.72872 ], [ 82.05094, 19.73642 ], [ 82.04979, 19.74048 ], [ 82.0504, 19.74581 ], [ 82.05205, 19.74816 ], [ 82.05564, 19.74998 ], [ 82.05599, 19.75297 ], [ 82.0632, 19.75778 ], [ 82.06361, 19.75902 ], [ 82.06383, 19.76106 ], [ 82.06106, 19.76465 ], [ 82.06047, 19.76663 ], [ 82.06196, 19.76915 ], [ 82.06623, 19.78315 ], [ 82.06624, 19.78696 ], [ 82.09857, 19.77346 ], [ 82.09613, 19.79425 ], [ 82.10003, 19.7985 ], [ 82.10447, 19.79797 ], [ 82.11254, 19.80763 ], [ 82.11735, 19.80732 ], [ 82.1177, 19.81051 ], [ 82.11878, 19.81229 ], [ 82.12057, 19.81281 ], [ 82.12097, 19.81372 ], [ 82.11934, 19.81365 ], [ 82.11835, 19.81622 ], [ 82.12214, 19.82228 ], [ 82.11173, 19.83764 ], [ 82.11885, 19.83804 ], [ 82.11912, 19.83533 ], [ 82.12091, 19.83489 ], [ 82.12473, 19.83649 ], [ 82.12909, 19.83615 ], [ 82.1278, 19.83158 ], [ 82.12971, 19.83139 ], [ 82.13132, 19.83334 ], [ 82.13753, 19.8314 ], [ 82.14201, 19.83407 ], [ 82.14541, 19.83752 ], [ 82.1481, 19.83799 ], [ 82.15315, 19.83738 ], [ 82.1553, 19.84093 ], [ 82.14722, 19.84432 ], [ 82.14017, 19.84521 ], [ 82.13308, 19.85395 ], [ 82.13512, 19.85838 ], [ 82.1331, 19.8632 ], [ 82.13492, 19.87047 ], [ 82.13956, 19.87623 ], [ 82.14582, 19.87969 ], [ 82.14354, 19.89259 ], [ 82.14514, 19.89668 ], [ 82.15448, 19.89155 ], [ 82.15779, 19.89207 ], [ 82.17169, 19.88517 ], [ 82.1855, 19.88652 ], [ 82.18851, 19.89209 ], [ 82.19139, 19.89334 ], [ 82.19578, 19.89867 ], [ 82.19945, 19.89937 ], [ 82.2079, 19.8969 ], [ 82.21067, 19.90221 ], [ 82.20146, 19.90802 ], [ 82.19993, 19.91231 ], [ 82.19156, 19.91965 ], [ 82.18808, 19.91945 ], [ 82.18388, 19.92325 ], [ 82.19193, 19.93154 ], [ 82.18989, 19.9347 ], [ 82.18266, 19.93767 ], [ 82.18608, 19.93937 ], [ 82.18481, 19.94673 ], [ 82.18731, 19.95009 ], [ 82.20884, 19.94259 ], [ 82.21263, 19.94083 ], [ 82.21548, 19.93751 ], [ 82.23261, 19.93499 ], [ 82.23589, 19.94087 ], [ 82.24479, 19.94563 ], [ 82.24585, 19.9505 ], [ 82.24824, 19.95486 ], [ 82.24793, 19.96347 ], [ 82.24574, 19.96729 ], [ 82.24198, 19.96688 ], [ 82.24006, 19.96872 ], [ 82.23566, 19.97054 ], [ 82.24253, 19.97861 ], [ 82.24676, 19.99454 ], [ 82.25001, 19.98906 ], [ 82.25625, 19.98345 ], [ 82.26917, 19.97526 ], [ 82.2701, 19.97203 ], [ 82.27487, 19.96304 ], [ 82.27581, 19.94859 ], [ 82.30159, 19.90271 ], [ 82.30349, 19.89339 ], [ 82.30312, 19.88939 ], [ 82.31424, 19.87719 ], [ 82.32634, 19.86161 ] ] ] } },
{ "type": "Feature", "properties": { "OBJECTID": 1702, "state_lgd": "21", "state_name": "ODISHA", "district_lgd": "397", "district_name": "NABARANGAPUR", "district_name_source": "district_table", "subdistrict_lgd": "03192", "subdistrict_name": "DABUGAM", "subdistrict_type": "Tehsil", "name_corrupted": false, "remarks": "", "label_lon": 82.351362696728245, "label_lat": 19.48223404861476 }, "geometry": { "type": "Polygon", "coordinates": [ [ [ 82.42502, 19.5753 ], [ 82.42803, 19.57634 ], [ 82.43315, 19.57104 ], [ 82.4371, 19.57325 ], [ 82.44133, 19.57271 ], [ 82.44288, 19.56566 ], [ 82.44002, 19.56174 ], [ 82.43926, 19.55891 ], [ 82.4415, 19.55845 ], [ 82.44324, 19.55707 ], [ 82.4447, 19.55701 ], [ 82.4474, 19.55838 ], [ 82.44989, 19.55753 ], [ 82.44974, 19.55973 ], [ 82.4517, 19.55992 ], [ 82.45241, 19.56263 ], [ 82.45863, 19.56489 ], [ 82.45983, 19.56103 ], [ 82.45907, 19.55811 ], [ 82.46007, 19.55615 ], [ 82.45674, 19.55489 ], [ 82.45992, 19.54118 ], [ 82.46113, 19.53873 ], [ 82.46802, 19.53141 ], [ 82.47241, 19.52942 ], [ 82.47469, 19.53017 ], [ 82.47793, 19.52771 ], [ 82.48846, 19.53292 ], [ 82.49117, 19.53286 ], [ 82.4925, 19.53085 ], [ 82.49218, 19.52844 ], [ 82.48918, 19.52593 ], [ 82.48674, 19.52605 ], [ 82.48639, 19.52532 ], [ 82.48807, 19.52331 ], [ 82.48421, 19.52088 ], [ 82.4844, 19.51772 ], [ 82.48148, 19.51576 ], [ 82.47664, 19.50895 ], [ 82.47623, 19.50435 ], [ 82.47074, 19.4954 ], [ 82.47018, 19.4948 ], [ 82.46822, 19.49633 ], [ 82.46601, 19.49446 ], [ 82.46293, 19.49332 ], [ 82.4606, 19.48954 ], [ 82.46032, 19.48595 ], [ 82.45869, 19.48295 ], [ 82.45632, 19.48315 ], [ 82.45267, 19.4805 ], [ 82.44482, 19.47995 ], [ 82.44054, 19.47552 ], [ 82.4415, 19.47316 ], [ 82.44126, 19.4708 ], [ 82.43627, 19.46861 ], [ 82.43401, 19.46932 ], [ 82.43202, 19.46657 ], [ 82.42978, 19.46656 ], [ 82.42877, 19.46539 ], [ 82.42853, 19.46339 ], [ 82.42747, 19.46242 ], [ 82.42814, 19.46161 ], [ 82.42998, 19.45967 ], [ 82.43451, 19.45846 ], [ 82.43801, 19.45634 ], [ 82.43885, 19.45554 ], [ 82.43815, 19.45269 ], [ 82.44064, 19.44931 ], [ 82.44464, 19.44588 ], [ 82.44801, 19.44472 ], [ 82.44613, 19.43835 ], [ 82.43638, 19.44225 ], [ 82.43546, 19.44349 ], [ 82.43302, 19.44309 ], [ 82.43217, 19.44448 ], [ 82.42973, 19.44492 ], [ 82.4231, 19.4496 ], [ 82.41881, 19.45067 ], [ 82.41273, 19.45028 ], [ 82.40688, 19.44394 ], [ 82.40554, 19.44349 ], [ 82.40375, 19.4437 ], [ 82.40063, 19.44557 ], [ 82.39774, 19.44491 ], [ 82.39602, 19.44798 ], [ 82.38777, 19.44748 ], [ 82.38486, 19.44646 ], [ 82.3802, 19.45001 ], [ 82.37649, 19.45109 ], [ 82.37379, 19.44991 ], [ 82.36697, 19.44999 ], [ 82.36436, 19.44814 ], [ 82.36133, 19.44741 ], [ 82.36065, 19.44574 ], [ 82.36256, 19.44087 ], [ 82.36216, 19.43849 ], [ 82.36017, 19.43571 ], [ 82.35677, 19.43313 ], [ 82.35927, 19.43121 ], [ 82.36514, 19.42878 ], [ 82.36629, 19.42564 ], [ 82.35963, 19.4198 ], [ 82.35596, 19.41076 ], [ 82.35066, 19.40535 ], [ 82.35197, 19.40411 ], [ 82.35716, 19.40218 ], [ 82.3616, 19.4019 ], [ 82.36682, 19.39835 ], [ 82.36831, 19.39561 ], [ 82.36635, 19.39407 ], [ 82.36358, 19.38893 ], [ 82.35837, 19.37521 ], [ 82.35618, 19.37194 ], [ 82.35447, 19.37173 ], [ 82.34887, 19.37486 ], [ 82.34274, 19.37604 ], [ 82.33849, 19.38055 ], [ 82.33646, 19.38142 ], [ 82.33414, 19.38151 ], [ 82.33062, 19.37944 ], [ 82.32242, 19.37914 ], [ 82.31375, 19.38434 ], [ 82.30894, 19.39082 ], [ 82.31009, 19.39519 ], [ 82.31283, 19.39837 ], [ 82.31238, 19.40008 ], [ 82.30681, 19.40253 ], [ 82.29844, 19.40357 ], [ 82.29186, 19.40821 ], [ 82.2925, 19.4171 ], [ 82.29778, 19.42115 ], [ 82.30285, 19.42766 ], [ 82.29798, 19.43171 ], [ 82.29635, 19.43492 ], [ 82.29461, 19.43506 ], [ 82.2908, 19.43298 ], [ 82.28876, 19.43279 ], [ 82.28308, 19.43719 ], [ 82.28267, 19.44198 ], [ 82.28433, 19.44552 ], [ 82.28087, 19.44931 ], [ 82.27781, 19.4507 ], [ 82.27805, 19.45379 ], [ 82.28053, 19.45773 ], [ 82.27411, 19.45982 ], [ 82.26515, 19.45954 ], [ 82.26154, 19.45615 ], [ 82.25764, 19.45709 ], [ 82.25669, 19.45494 ], [ 82.25409, 19.45313 ], [ 82.25109, 19.45338 ], [ 82.25001, 19.45174 ], [ 82.24725, 19.45017 ], [ 82.241, 19.44821 ], [ 82.23738, 19.44889 ], [ 82.23137, 19.45216 ], [ 82.22772, 19.45256 ], [ 82.22359, 19.45479 ], [ 82.22135, 19.45794 ], [ 82.21441, 19.45859 ], [ 82.2108, 19.46116 ], [ 82.20501, 19.45812 ], [ 82.20072, 19.4579 ], [ 82.19435, 19.46063 ], [ 82.18976, 19.46112 ], [ 82.18924, 19.46211 ], [ 82.18867, 19.46444 ], [ 82.19181, 19.46702 ], [ 82.19251, 19.46955 ], [ 82.19562, 19.47109 ], [ 82.20229, 19.47778 ], [ 82.20587, 19.47728 ], [ 82.21272, 19.48339 ], [ 82.21306, 19.4849 ], [ 82.21108, 19.48696 ], [ 82.21321, 19.48902 ], [ 82.21492, 19.49239 ], [ 82.21655, 19.49018 ], [ 82.21882, 19.48973 ], [ 82.22279, 19.49361 ], [ 82.22381, 19.49343 ], [ 82.2263, 19.49081 ], [ 82.22982, 19.48969 ], [ 82.23051, 19.49063 ], [ 82.22963, 19.49398 ], [ 82.2318, 19.49397 ], [ 82.237, 19.48987 ], [ 82.24177, 19.48779 ], [ 82.24301, 19.48763 ], [ 82.24581, 19.48944 ], [ 82.24601, 19.49063 ], [ 82.24775, 19.49225 ], [ 82.24541, 19.50371 ], [ 82.2456, 19.50588 ], [ 82.24776, 19.50853 ], [ 82.25003, 19.50987 ], [ 82.25279, 19.51372 ], [ 82.25369, 19.51771 ], [ 82.24697, 19.51639 ], [ 82.24245, 19.51678 ], [ 82.24531, 19.52826 ], [ 82.24583, 19.53822 ], [ 82.25065, 19.5383 ], [ 82.25182, 19.53977 ], [ 82.2521, 19.54187 ], [ 82.25537, 19.54067 ], [ 82.25703, 19.54084 ], [ 82.25753, 19.54268 ], [ 82.26097, 19.54178 ], [ 82.26495, 19.54644 ], [ 82.26957, 19.53988 ], [ 82.2656, 19.53243 ], [ 82.26692, 19.52632 ], [ 82.27383, 19.52052 ], [ 82.27471, 19.52077 ], [ 82.27684, 19.52462 ], [ 82.27859, 19.52513 ], [ 82.27873, 19.52624 ], [ 82.28238, 19.5275 ], [ 82.28346, 19.52318 ], [ 82.30075, 19.52856 ], [ 82.30019, 19.52579 ], [ 82.29734, 19.52204 ], [ 82.3001, 19.52005 ], [ 82.30367, 19.52066 ], [ 82.30487, 19.51995 ], [ 82.30437, 19.51434 ], [ 82.30657, 19.51531 ], [ 82.30995, 19.51375 ], [ 82.31152, 19.50901 ], [ 82.31439, 19.50494 ], [ 82.31347, 19.5019 ], [ 82.31435, 19.5 ], [ 82.31632, 19.49776 ], [ 82.3167, 19.49859 ], [ 82.31863, 19.49678 ], [ 82.32134, 19.49315 ], [ 82.32422, 19.49485 ], [ 82.3312, 19.49586 ], [ 82.33302, 19.49796 ], [ 82.33578, 19.49829 ], [ 82.33939, 19.5013 ], [ 82.34442, 19.50357 ], [ 82.3442, 19.509 ], [ 82.34839, 19.51124 ], [ 82.35249, 19.50888 ], [ 82.3516, 19.51402 ], [ 82.35277, 19.515 ], [ 82.35668, 19.51184 ], [ 82.36237, 19.5099 ], [ 82.36311, 19.51078 ], [ 82.36734, 19.50952 ], [ 82.37243, 19.51008 ], [ 82.37367, 19.50863 ], [ 82.37547, 19.50931 ], [ 82.37595, 19.50777 ], [ 82.37922, 19.50646 ], [ 82.38144, 19.50791 ], [ 82.38258, 19.51097 ], [ 82.38875, 19.51604 ], [ 82.38745, 19.52096 ], [ 82.38639, 19.52233 ], [ 82.38727, 19.52428 ], [ 82.38696, 19.526 ], [ 82.38358, 19.52865 ], [ 82.38607, 19.53088 ], [ 82.38575, 19.53324 ], [ 82.38674, 19.53459 ], [ 82.39245, 19.53721 ], [ 82.3913, 19.54115 ], [ 82.38827, 19.54452 ], [ 82.3891, 19.54644 ], [ 82.38829, 19.54798 ], [ 82.38957, 19.54909 ], [ 82.38884, 19.551 ], [ 82.38909, 19.55428 ], [ 82.38811, 19.55599 ], [ 82.38799, 19.56085 ], [ 82.38658, 19.5628 ], [ 82.38109, 19.56536 ], [ 82.37942, 19.56918 ], [ 82.38024, 19.57113 ], [ 82.3863, 19.57118 ], [ 82.38734, 19.57587 ], [ 82.3891, 19.57709 ], [ 82.39041, 19.57436 ], [ 82.39655, 19.57548 ], [ 82.39794, 19.57672 ], [ 82.4048, 19.57558 ], [ 82.40818, 19.57584 ], [ 82.40899, 19.57531 ], [ 82.40884, 19.57391 ], [ 82.41048, 19.57319 ], [ 82.41467, 19.57523 ], [ 82.42178, 19.57696 ], [ 82.42502, 19.5753 ] ] ] } },
{ "type": "Feature", "properties": { "OBJECTID": 1703, "state_lgd": "21", "state_name": "ODISHA", "district_lgd": "397", "district_name": "NABARANGAPUR", "district_name_source": "district_table", "subdistrict_lgd": "06714", "subdistrict_name": "RAIGHAR", "subdistrict_type": "Tehsil", "name_corrupted": false, "remarks": "", "label_lon": 82.028565970129662, "label_lat": 19.942245102013111 }, "geometry": { "type": "Polygon", "coordinates": [ [ [ 81.95305, 20.10154 ], [ 81.95652, 20.09829 ], [ 81.95815, 20.09785 ], [ 81.96333, 20.09045 ], [ 81.97366, 20.08395 ], [ 81.97759, 20.07895 ], [ 81.98386, 20.07324 ], [ 81.98416, 20.06803 ], [ 81.98602, 20.06552 ], [ 81.98706, 20.06186 ], [ 81.99535, 20.05357 ], [ 82.00337, 20.05334 ], [ 82.00325, 20.05513 ], [ 82.00575, 20.05561 ], [ 82.01227, 20.05391 ], [ 82.01768, 20.049 ], [ 82.02272, 20.03214 ], [ 82.02155, 20.02371 ], [ 82.03256, 20.01572 ], [ 82.03839, 20.02245 ], [ 82.04, 20.0226 ], [ 82.0399, 20.02388 ], [ 82.03798, 20.02607 ], [ 82.03885, 20.02714 ], [ 82.03734, 20.02794 ], [ 82.03835, 20.029 ], [ 82.03804, 20.03012 ], [ 82.04121, 20.03096 ], [ 82.04297, 20.03491 ], [ 82.04815, 20.03482 ], [ 82.04782, 20.03672 ], [ 82.0564, 20.04174 ], [ 82.05909, 20.04498 ], [ 82.05901, 20.04775 ], [ 82.06219, 20.04922 ], [ 82.06065, 20.05113 ], [ 82.06297, 20.05204 ], [ 82.06284, 20.05372 ], [ 82.06354, 20.05453 ], [ 82.07047, 20.05695 ], [ 82.08543, 20.05072 ], [ 82.08581, 20.04916 ], [ 82.08459, 20.04605 ], [ 82.0864, 20.04524 ], [ 82.08698, 20.0421 ], [ 82.08946, 20.03906 ], [ 82.09875, 20.03972 ], [ 82.09952, 20.04077 ], [ 82.10228, 20.04004 ], [ 82.10149, 20.03935 ], [ 82.10233, 20.03779 ], [ 82.10213, 20.03629 ], [ 82.10383, 20.03569 ], [ 82.1032, 20.03107 ], [ 82.10547, 20.0306 ], [ 82.1056, 20.02894 ], [ 82.10695, 20.02725 ], [ 82.11018, 20.02752 ], [ 82.11652, 20.02116 ], [ 82.12055, 20.01945 ], [ 82.12679, 20.0148 ], [ 82.12849, 20.0142 ], [ 82.13046, 20.01604 ], [ 82.13633, 20.01893 ], [ 82.13981, 20.01873 ], [ 82.14844, 20.01259 ], [ 82.15347, 20.00756 ], [ 82.15615, 20.00741 ], [ 82.16058, 20.00912 ], [ 82.16485, 20.00685 ], [ 82.16807, 20.00701 ], [ 82.17123, 20.00551 ], [ 82.1716, 20.00374 ], [ 82.17042, 20.00244 ], [ 82.17125, 20.00078 ], [ 82.17214, 20.0011 ], [ 82.17369, 19.99996 ], [ 82.17478, 19.99675 ], [ 82.17691, 19.99731 ], [ 82.17811, 19.99402 ], [ 82.18033, 19.99114 ], [ 82.18347, 19.98959 ], [ 82.18519, 19.9873 ], [ 82.18425, 19.98419 ], [ 82.186, 19.98444 ], [ 82.18873, 19.98645 ], [ 82.1931, 19.9871 ], [ 82.20449, 19.9858 ], [ 82.20773, 19.98671 ], [ 82.2101, 19.98625 ], [ 82.21671, 19.99706 ], [ 82.22204, 19.9992 ], [ 82.22929, 19.99982 ], [ 82.23712, 20.00333 ], [ 82.24086, 19.99884 ], [ 82.24676, 19.99454 ], [ 82.24253, 19.97861 ], [ 82.23566, 19.97054 ], [ 82.24006, 19.96872 ], [ 82.24198, 19.96688 ], [ 82.24574, 19.96729 ], [ 82.24793, 19.96347 ], [ 82.24824, 19.95486 ], [ 82.24585, 19.9505 ], [ 82.24479, 19.94563 ], [ 82.23589, 19.94087 ], [ 82.23261, 19.93499 ], [ 82.21548, 19.93751 ], [ 82.21263, 19.94083 ], [ 82.20884, 19.94259 ], [ 82.18731, 19.95009 ], [ 82.18481, 19.94673 ], [ 82.18608, 19.93937 ], [ 82.18266, 19.93767 ], [ 82.18989, 19.9347 ], [ 82.19193, 19.93154 ], [ 82.18388, 19.92325 ], [ 82.18808, 19.91945 ], [ 82.19156, 19.91965 ], [ 82.19993, 19.91231 ], [ 82.20146, 19.90802 ], [ 82.21067, 19.90221 ], [ 82.2079, 19.8969 ], [ 82.19945, 19.89937 ], [ 82.19578, 19.89867 ], [ 82.19139, 19.89334 ], [ 82.18851, 19.89209 ], [ 82.1855, 19.88652 ], [ 82.17169, 19.88517 ], [ 82.15779, 19.89207 ], [ 82.15448, 19.89155 ], [ 82.14514, 19.89668 ], [ 82.14354, 19.89259 ], [ 82.14582, 19.87969 ], [ 82.13956, 19.87623 ], [ 82.13492, 19.87047 ], [ 82.1331, 19.8632 ], [ 82.13512, 19.85838 ], [ 82.13308, 19.85395 ], [ 82.14017, 19.84521 ], [ 82.14722, 19.84432 ], [ 82.1553, 19.8409 ], [ 82.15315, 19.83738 ], [ 82.1481, 19.83799 ], [ 82.1452, 19.83746 ], [ 82.14201, 19.83407 ], [ 82.13743, 19.83139 ], [ 82.13132, 19.83334 ], [ 82.12979, 19.83141 ], [ 82.12782, 19.83154 ], [ 82.12901, 19.83618 ], [ 82.12473, 19.83649 ], [ 82.12091, 19.83489 ], [ 82.11912, 19.83533 ], [ 82.11885, 19.83804 ], [ 82.11173, 19.83764 ], [ 82.12214, 19.82228 ], [ 82.11835, 19.81622 ], [ 82.11934, 19.81365 ], [ 82.12097, 19.81372 ], [ 82.12057, 19.81281 ], [ 82.11878, 19.81229 ], [ 82.1177, 19.81051 ], [ 82.11735, 19.80732 ], [ 82.11254, 19.80763 ], [ 82.10447, 19.79797 ], [ 82.10003, 19.7985 ], [ 82.09613, 19.79425 ], [ 82.09857, 19.77346 ], [ 82.06624, 19.78696 ], [ 82.06555, 19.79066 ], [ 82.06239, 19.79254 ], [ 82.06022, 19.79637 ], [ 82.05636, 19.79485 ], [ 82.0564, 19.79302 ], [ 82.05298, 19.79229 ], [ 82.05089, 19.79335 ], [ 82.04868, 19.79696 ], [ 82.03872, 19.79665 ], [ 82.03105, 19.79781 ], [ 82.00989, 19.80422 ], [ 82.00368, 19.80257 ], [ 81.99537, 19.79682 ], [ 81.99191, 19.79959 ], [ 81.98595, 19.80109 ], [ 81.98656, 19.80428 ], [ 81.98261, 19.80877 ], [ 81.96537, 19.8369 ], [ 81.96813, 19.8599 ], [ 81.95761, 19.86389 ], [ 81.95773, 19.86504 ], [ 81.94106, 19.87288 ], [ 81.90626, 19.88431 ], [ 81.89968, 19.8872 ], [ 81.87328, 19.90142 ], [ 81.86965, 19.90254 ], [ 81.85316, 19.91848 ], [ 81.85181, 19.92315 ], [ 81.85401, 19.93046 ], [ 81.8568, 19.94754 ], [ 81.84502, 19.95184 ], [ 81.84528, 19.95953 ], [ 81.85536, 19.97228 ], [ 81.85631, 19.98294 ], [ 81.86057, 20.00351 ], [ 81.86215, 20.00644 ], [ 81.86502, 20.00854 ], [ 81.86654, 20.01105 ], [ 81.86503, 20.0267 ], [ 81.86882, 20.03191 ], [ 81.86885, 20.03971 ], [ 81.87092, 20.04417 ], [ 81.87598, 20.05206 ], [ 81.87909, 20.04907 ], [ 81.88191, 20.04434 ], [ 81.8873, 20.04402 ], [ 81.89528, 20.04824 ], [ 81.89807, 20.05148 ], [ 81.90144, 20.05791 ], [ 81.9065, 20.06339 ], [ 81.91099, 20.06637 ], [ 81.91606, 20.07198 ], [ 81.92138, 20.07997 ], [ 81.92265, 20.08338 ], [ 81.92276, 20.08716 ], [ 81.92588, 20.09158 ], [ 81.93158, 20.09565 ], [ 81.93387, 20.09604 ], [ 81.93384, 20.09821 ], [ 81.93713, 20.10235 ], [ 81.93852, 20.10156 ], [ 81.93955, 20.10263 ], [ 81.94638, 20.10513 ], [ 81.95305, 20.10154 ] ] ] } }
]
}
