{
"type": "FeatureCollection",
"name": "473_GANDHINAGAR",
"crs": { "type": "name", "properties": { "name": "urn:ogc:def:crs:OGC:1.3:CRS84" } },
"xy_coordinate_resolution": 1e-05,
"features": [
{ "type": "Feature", "properties": { "OBJECTID": 1955, "state_lgd": "24", "state_name": "GUJARAT", "district_lgd": "473", "district_name": "GANDHINAGAR", "district_name_source": "district_table", "subdistrict_lgd": "3776", "subdistrict_name": "DEHGAM", "subdistrict_type": "Taluk", "name_corrupted": false, "remarks": "", "label_lon": 72.875983730516197, "label_lat": 23.167114113514767 }, "geometry": { "type": "Polygon", "coordinates": [ [ [ 72.83617, 23.33122 ], [ 72.83613, 23.32837 ], [ 72.84392, 23.32541 ], [ 72.84914, 23.31951 ], [ 72.8544, 23.31771 ], [ 72.85486, 23.31542 ], [ 72.85927, 23.31464 ], [ 72.86082, 23.31519 ], [ 72.86504, 23.3135 ], [ 72.87118, 23.31498 ], [ 72.88323, 23.313 ], [ 72.88523, 23.31864 ], [ 72.88435, 23.32245 ], [ 72.88889, 23.32265 ], [ 72.89427, 23.3248 ], [ 72.90842, 23.32497 ], [ 72.91252, 23.32295 ], [ 72.91616, 23.3222 ], [ 72.91654, 23.3216 ], [ 72.9126, 23.31777 ], [ 72.91374, 23.31677 ], [ 72.91273, 23.31365 ], [ 72.9134, 23.31338 ], [ 72.91231, 23.30872 ], [ 72.91231, 23.30373 ], [ 72.91416, 23.29667 ], [ 72.91228, 23.29643 ], [ 72.91189, 23.29739 ], [ 72.91058, 23.29719 ], [ 72.90432, 23.29481 ], [ 72.90042, 23.2949 ], [ 72.89633, 23.29343 ], [ 72.89321, 23.29341 ], [ 72.89296, 23.29457 ], [ 72.89142, 23.29461 ], [ 72.88445, 23.29332 ], [ 72.88369, 23.28842 ], [ 72.88534, 23.28824 ], [ 72.88954, 23.28582 ], [ 72.89352, 23.282 ], [ 72.89883, 23.28114 ], [ 72.91499, 23.29087 ], [ 72.92045, 23.29105 ], [ 72.9199, 23.28699 ], [ 72.92052, 23.28101 ], [ 72.91898, 23.26376 ], [ 72.92705, 23.25868 ], [ 72.92722, 23.249 ], [ 72.92924, 23.24895 ], [ 72.92931, 23.24654 ], [ 72.93216, 23.24681 ], [ 72.93111, 23.24404 ], [ 72.93, 23.24399 ], [ 72.92994, 23.24277 ], [ 72.93361, 23.24375 ], [ 72.93614, 23.23906 ], [ 72.93733, 23.24012 ], [ 72.94174, 23.2402 ], [ 72.94451, 23.24145 ], [ 72.94611, 23.24492 ], [ 72.94489, 23.25053 ], [ 72.94786, 23.25258 ], [ 72.94955, 23.25219 ], [ 72.9504, 23.25105 ], [ 72.95565, 23.24071 ], [ 72.95691, 23.24028 ], [ 72.95983, 23.24142 ], [ 72.96119, 23.24294 ], [ 72.96134, 23.24741 ], [ 72.96329, 23.25175 ], [ 72.96288, 23.2525 ], [ 72.96069, 23.25245 ], [ 72.95917, 23.25355 ], [ 72.95882, 23.25597 ], [ 72.95978, 23.25919 ], [ 72.96113, 23.26045 ], [ 72.96305, 23.26032 ], [ 72.96624, 23.25626 ], [ 72.96932, 23.25577 ], [ 72.97061, 23.25729 ], [ 72.96772, 23.26007 ], [ 72.97016, 23.26521 ], [ 72.97221, 23.2655 ], [ 72.97535, 23.26296 ], [ 72.97837, 23.26399 ], [ 72.97851, 23.26585 ], [ 72.97763, 23.26693 ], [ 72.97098, 23.27201 ], [ 72.96653, 23.27372 ], [ 72.96582, 23.27593 ], [ 72.96089, 23.27496 ], [ 72.95874, 23.27539 ], [ 72.95782, 23.27742 ], [ 72.96054, 23.28106 ], [ 72.96981, 23.28026 ], [ 72.9778, 23.28458 ], [ 72.98433, 23.28229 ], [ 72.9871, 23.28253 ], [ 72.99062, 23.28452 ], [ 72.99493, 23.29029 ], [ 73.00171, 23.28438 ], [ 73.00521, 23.28236 ], [ 73.01395, 23.27912 ], [ 73.01641, 23.2791 ], [ 73.01701, 23.2783 ], [ 72.99991, 23.27025 ], [ 72.9981, 23.26551 ], [ 72.99611, 23.26388 ], [ 72.99551, 23.26199 ], [ 72.9945, 23.26175 ], [ 72.99328, 23.25723 ], [ 72.98971, 23.25077 ], [ 72.98834, 23.24364 ], [ 72.98783, 23.23518 ], [ 72.98766, 23.23423 ], [ 72.98669, 23.23435 ], [ 72.98621, 23.22804 ], [ 72.98144, 23.22245 ], [ 72.98293, 23.20906 ], [ 72.98419, 23.20953 ], [ 72.98476, 23.20819 ], [ 72.98308, 23.20716 ], [ 72.98364, 23.2054 ], [ 72.98183, 23.20546 ], [ 72.9817, 23.20242 ], [ 72.98623, 23.20062 ], [ 72.9824, 23.19407 ], [ 72.98211, 23.19228 ], [ 72.98124, 23.19228 ], [ 72.98161, 23.19092 ], [ 72.98037, 23.19076 ], [ 72.9786, 23.18377 ], [ 72.97939, 23.18334 ], [ 72.97754, 23.17838 ], [ 72.97863, 23.17819 ], [ 72.97834, 23.17701 ], [ 72.98206, 23.17695 ], [ 72.98221, 23.17466 ], [ 72.98444, 23.17486 ], [ 72.98315, 23.17153 ], [ 72.98099, 23.17235 ], [ 72.98037, 23.17063 ], [ 72.97903, 23.17053 ], [ 72.97904, 23.16971 ], [ 72.97355, 23.16816 ], [ 72.97119, 23.16356 ], [ 72.97566, 23.15987 ], [ 72.98134, 23.15932 ], [ 72.98638, 23.15908 ], [ 72.99173, 23.15957 ], [ 72.995, 23.1608 ], [ 72.99517, 23.1597 ], [ 73.00127, 23.16116 ], [ 73.01277, 23.16142 ], [ 73.0141, 23.16026 ], [ 73.01197, 23.15944 ], [ 73.01143, 23.15814 ], [ 73.01173, 23.15679 ], [ 73.0136, 23.15506 ], [ 73.01216, 23.15387 ], [ 73.01184, 23.15246 ], [ 73.01277, 23.15253 ], [ 73.01466, 23.14902 ], [ 73.01402, 23.14358 ], [ 73.0223, 23.14215 ], [ 73.02506, 23.14297 ], [ 73.02849, 23.13842 ], [ 73.02945, 23.1348 ], [ 73.02521, 23.12937 ], [ 73.01562, 23.12625 ], [ 73.01303, 23.12696 ], [ 73.00857, 23.13005 ], [ 73.00348, 23.13059 ], [ 72.99662, 23.13292 ], [ 72.98706, 23.13191 ], [ 72.97914, 23.12778 ], [ 72.97549, 23.12343 ], [ 72.97472, 23.11985 ], [ 72.97508, 23.115 ], [ 72.97836, 23.1098 ], [ 72.97693, 23.10805 ], [ 72.97576, 23.10784 ], [ 72.96637, 23.10804 ], [ 72.96536, 23.10532 ], [ 72.96604, 23.10318 ], [ 72.97147, 23.10305 ], [ 72.97149, 23.10138 ], [ 72.9707, 23.10041 ], [ 72.96598, 23.10115 ], [ 72.96591, 23.09387 ], [ 72.96492, 23.09044 ], [ 72.95764, 23.08773 ], [ 72.95519, 23.08547 ], [ 72.95825, 23.07362 ], [ 72.95508, 23.07299 ], [ 72.95041, 23.07398 ], [ 72.94514, 23.07277 ], [ 72.94526, 23.07458 ], [ 72.94173, 23.07334 ], [ 72.9417, 23.07403 ], [ 72.93959, 23.07431 ], [ 72.93965, 23.07721 ], [ 72.93883, 23.07687 ], [ 72.93921, 23.07582 ], [ 72.93386, 23.07677 ], [ 72.93009, 23.07618 ], [ 72.92968, 23.07708 ], [ 72.92753, 23.07693 ], [ 72.92709, 23.08083 ], [ 72.92548, 23.08062 ], [ 72.92559, 23.0782 ], [ 72.9263, 23.07807 ], [ 72.92606, 23.07409 ], [ 72.92291, 23.07507 ], [ 72.9221, 23.0719 ], [ 72.92373, 23.06931 ], [ 72.91804, 23.0694 ], [ 72.91225, 23.06614 ], [ 72.90646, 23.06507 ], [ 72.91012, 23.06136 ], [ 72.91381, 23.05476 ], [ 72.9135, 23.05195 ], [ 72.9114, 23.05179 ], [ 72.90928, 23.04801 ], [ 72.90846, 23.04788 ], [ 72.90913, 23.04548 ], [ 72.90807, 23.04395 ], [ 72.9086, 23.04147 ], [ 72.90545, 23.03996 ], [ 72.90441, 23.03392 ], [ 72.90463, 23.03061 ], [ 72.8981, 23.02957 ], [ 72.89802, 23.02856 ], [ 72.89697, 23.02821 ], [ 72.89698, 23.02687 ], [ 72.89545, 23.02685 ], [ 72.89567, 23.02503 ], [ 72.89482, 23.02482 ], [ 72.89291, 23.02092 ], [ 72.89212, 23.0212 ], [ 72.89196, 23.01824 ], [ 72.89082, 23.01879 ], [ 72.89117, 23.01647 ], [ 72.89278, 23.01637 ], [ 72.8927, 23.01469 ], [ 72.89032, 23.01464 ], [ 72.89035, 23.01628 ], [ 72.88678, 23.01603 ], [ 72.88705, 23.01482 ], [ 72.88578, 23.01454 ], [ 72.88438, 23.01555 ], [ 72.88177, 23.01514 ], [ 72.88032, 23.01613 ], [ 72.87863, 23.01492 ], [ 72.87675, 23.01475 ], [ 72.87757, 23.01326 ], [ 72.87648, 23.01308 ], [ 72.87634, 23.01194 ], [ 72.87721, 23.01187 ], [ 72.87648, 23.01111 ], [ 72.87732, 23.01098 ], [ 72.87508, 23.00868 ], [ 72.86085, 23.0084 ], [ 72.85908, 23.01141 ], [ 72.85426, 23.01194 ], [ 72.85309, 23.0129 ], [ 72.84474, 23.01133 ], [ 72.84301, 23.01017 ], [ 72.8488, 23.0026 ], [ 72.84846, 22.99917 ], [ 72.84507, 22.99724 ], [ 72.84248, 22.99743 ], [ 72.83838, 22.99633 ], [ 72.83653, 22.99655 ], [ 72.83585, 23.00051 ], [ 72.83343, 23.00293 ], [ 72.82412, 23.0057 ], [ 72.82251, 23.0111 ], [ 72.81937, 23.01214 ], [ 72.81906, 23.01405 ], [ 72.82144, 23.01375 ], [ 72.82456, 23.01456 ], [ 72.82342, 23.01929 ], [ 72.82119, 23.01929 ], [ 72.81827, 23.01724 ], [ 72.81537, 23.02327 ], [ 72.81155, 23.02265 ], [ 72.80868, 23.02418 ], [ 72.80694, 23.02626 ], [ 72.80679, 23.02746 ], [ 72.80806, 23.0291 ], [ 72.8118, 23.03054 ], [ 72.81177, 23.03205 ], [ 72.81064, 23.03267 ], [ 72.81316, 23.03401 ], [ 72.81383, 23.033 ], [ 72.8149, 23.03374 ], [ 72.81534, 23.03737 ], [ 72.81097, 23.03859 ], [ 72.80513, 23.03662 ], [ 72.802, 23.03881 ], [ 72.80171, 23.04058 ], [ 72.79859, 23.0413 ], [ 72.79449, 23.04422 ], [ 72.7945, 23.04664 ], [ 72.79775, 23.04988 ], [ 72.79754, 23.05114 ], [ 72.79451, 23.05391 ], [ 72.79377, 23.05572 ], [ 72.78979, 23.05847 ], [ 72.78642, 23.05916 ], [ 72.78048, 23.05817 ], [ 72.77027, 23.05846 ], [ 72.76882, 23.05977 ], [ 72.76607, 23.05962 ], [ 72.7709, 23.07016 ], [ 72.7755, 23.07382 ], [ 72.77815, 23.07737 ], [ 72.77522, 23.0856 ], [ 72.7706, 23.08942 ], [ 72.76603, 23.09545 ], [ 72.7626, 23.09632 ], [ 72.75532, 23.09362 ], [ 72.75372, 23.09126 ], [ 72.74398, 23.08903 ], [ 72.74363, 23.09499 ], [ 72.74514, 23.0991 ], [ 72.74079, 23.10151 ], [ 72.74024, 23.10573 ], [ 72.73802, 23.10943 ], [ 72.73807, 23.11387 ], [ 72.7401, 23.11453 ], [ 72.74038, 23.1129 ], [ 72.74243, 23.11244 ], [ 72.74418, 23.11275 ], [ 72.74402, 23.11437 ], [ 72.75759, 23.11096 ], [ 72.76722, 23.11745 ], [ 72.77245, 23.12341 ], [ 72.77364, 23.12588 ], [ 72.77552, 23.12719 ], [ 72.77938, 23.12863 ], [ 72.78441, 23.12831 ], [ 72.78375, 23.1308 ], [ 72.78631, 23.13252 ], [ 72.78909, 23.13671 ], [ 72.78855, 23.14392 ], [ 72.78923, 23.1458 ], [ 72.78495, 23.15112 ], [ 72.78717, 23.15658 ], [ 72.78794, 23.1608 ], [ 72.7928, 23.16206 ], [ 72.79181, 23.17275 ], [ 72.79076, 23.17283 ], [ 72.78977, 23.17411 ], [ 72.78904, 23.17787 ], [ 72.78739, 23.18002 ], [ 72.79025, 23.18218 ], [ 72.79685, 23.19119 ], [ 72.7975, 23.20241 ], [ 72.80304, 23.20679 ], [ 72.80486, 23.20707 ], [ 72.80269, 23.2111 ], [ 72.80062, 23.21002 ], [ 72.79537, 23.21307 ], [ 72.79228, 23.21216 ], [ 72.78839, 23.20964 ], [ 72.7877, 23.21014 ], [ 72.78612, 23.21735 ], [ 72.78814, 23.22035 ], [ 72.78862, 23.22453 ], [ 72.79133, 23.23172 ], [ 72.79092, 23.23334 ], [ 72.78935, 23.2333 ], [ 72.78861, 23.23435 ], [ 72.79042, 23.24167 ], [ 72.78246, 23.24938 ], [ 72.77928, 23.2508 ], [ 72.78101, 23.26104 ], [ 72.7809, 23.26552 ], [ 72.78766, 23.26729 ], [ 72.78786, 23.26954 ], [ 72.78941, 23.26945 ], [ 72.78978, 23.27098 ], [ 72.79223, 23.2711 ], [ 72.792, 23.27235 ], [ 72.79376, 23.27252 ], [ 72.79406, 23.27579 ], [ 72.79012, 23.28061 ], [ 72.79706, 23.28053 ], [ 72.80569, 23.284 ], [ 72.80414, 23.28878 ], [ 72.80448, 23.29065 ], [ 72.80318, 23.29617 ], [ 72.80497, 23.30404 ], [ 72.80264, 23.30407 ], [ 72.80253, 23.31178 ], [ 72.80522, 23.3113 ], [ 72.80549, 23.31255 ], [ 72.81307, 23.3152 ], [ 72.81041, 23.31893 ], [ 72.8259, 23.33034 ], [ 72.82833, 23.32894 ], [ 72.83016, 23.33002 ], [ 72.83126, 23.32948 ], [ 72.83297, 23.33133 ], [ 72.83426, 23.33149 ], [ 72.83617, 23.33122 ] ] ] } },
{ "type": "Feature", "properties": { "OBJECTID": 1977, "state_lgd": "24", "state_name": "GUJARAT", "district_lgd": "473", "district_name": "GANDHINAGAR", "district_name_source": "district_table", "subdistrict_lgd": "3775", "subdistrict_name": "GANDHINAGAR", "subdistrict_type": "Taluk", "name_corrupted": false, "remarks": "", "label_lon": 72.672672354205972, "label_lat": 23.23008923430411 }, "geometry": { "type": "Polygon", "coordinates": [ [ [ 72.74265, 23.39267 ], [ 72.7487, 23.38922 ], [ 72.74938, 23.38817 ], [ 72.75274, 23.38722 ], [ 72.75178, 23.38291 ], [ 72.74659, 23.37456 ], [ 72.76104, 23.36807 ], [ 72.76448, 23.36737 ], [ 72.76076, 23.35874 ], [ 72.76502, 23.35474 ], [ 72.76798, 23.35601 ], [ 72.76859, 23.35536 ], [ 72.77363, 23.35525 ], [ 72.77501, 23.3565 ], [ 72.78633, 23.35475 ], [ 72.78703, 23.35403 ], [ 72.79328, 23.35646 ], [ 72.79436, 23.35772 ], [ 72.79642, 23.35755 ], [ 72.79672, 23.35606 ], [ 72.79776, 23.35553 ], [ 72.80014, 23.35544 ], [ 72.80055, 23.35709 ], [ 72.80777, 23.35586 ], [ 72.8061, 23.35307 ], [ 72.8048, 23.34794 ], [ 72.80456, 23.33415 ], [ 72.79692, 23.33152 ], [ 72.79746, 23.3272 ], [ 72.79956, 23.32707 ], [ 72.801, 23.31911 ], [ 72.81041, 23.31893 ], [ 72.81307, 23.3152 ], [ 72.80549, 23.31255 ], [ 72.80522, 23.3113 ], [ 72.80253, 23.31178 ], [ 72.80233, 23.31126 ], [ 72.80264, 23.30407 ], [ 72.80497, 23.30404 ], [ 72.80318, 23.29617 ], [ 72.80448, 23.29065 ], [ 72.80414, 23.28878 ], [ 72.80569, 23.284 ], [ 72.79706, 23.28053 ], [ 72.79012, 23.28061 ], [ 72.79406, 23.27579 ], [ 72.79376, 23.27252 ], [ 72.792, 23.27235 ], [ 72.79223, 23.2711 ], [ 72.78978, 23.27098 ], [ 72.78941, 23.26945 ], [ 72.78786, 23.26954 ], [ 72.78766, 23.26729 ], [ 72.7809, 23.26552 ], [ 72.78101, 23.26104 ], [ 72.77928, 23.2508 ], [ 72.78246, 23.24938 ], [ 72.79042, 23.24167 ], [ 72.78861, 23.23435 ], [ 72.78935, 23.2333 ], [ 72.79092, 23.23334 ], [ 72.79133, 23.23172 ], [ 72.78862, 23.22453 ], [ 72.78814, 23.22035 ], [ 72.78612, 23.21735 ], [ 72.7877, 23.21014 ], [ 72.78839, 23.20964 ], [ 72.79228, 23.21216 ], [ 72.79537, 23.21307 ], [ 72.80062, 23.21002 ], [ 72.80269, 23.2111 ], [ 72.80486, 23.20707 ], [ 72.80304, 23.20679 ], [ 72.7975, 23.20241 ], [ 72.79685, 23.19119 ], [ 72.79025, 23.18218 ], [ 72.78739, 23.18002 ], [ 72.78904, 23.17787 ], [ 72.78977, 23.17411 ], [ 72.79076, 23.17283 ], [ 72.79181, 23.17275 ], [ 72.7928, 23.16206 ], [ 72.78794, 23.1608 ], [ 72.78717, 23.15658 ], [ 72.78512, 23.15182 ], [ 72.78495, 23.15112 ], [ 72.78923, 23.1458 ], [ 72.78855, 23.14392 ], [ 72.78909, 23.13671 ], [ 72.78631, 23.13252 ], [ 72.78375, 23.1308 ], [ 72.78441, 23.12831 ], [ 72.77938, 23.12863 ], [ 72.77552, 23.12719 ], [ 72.77364, 23.12588 ], [ 72.77245, 23.12341 ], [ 72.76722, 23.11745 ], [ 72.75759, 23.11096 ], [ 72.74402, 23.11437 ], [ 72.74418, 23.11275 ], [ 72.74243, 23.11244 ], [ 72.74038, 23.1129 ], [ 72.7401, 23.11453 ], [ 72.73807, 23.11387 ], [ 72.73802, 23.10943 ], [ 72.74024, 23.10573 ], [ 72.74079, 23.10151 ], [ 72.74416, 23.09988 ], [ 72.74102, 23.0974 ], [ 72.74084, 23.09816 ], [ 72.7382, 23.09855 ], [ 72.73804, 23.10036 ], [ 72.73618, 23.10027 ], [ 72.7361, 23.09849 ], [ 72.73247, 23.09802 ], [ 72.73312, 23.09975 ], [ 72.71735, 23.09584 ], [ 72.71751, 23.09524 ], [ 72.71632, 23.09477 ], [ 72.71392, 23.10534 ], [ 72.71035, 23.11073 ], [ 72.70638, 23.11001 ], [ 72.70323, 23.11158 ], [ 72.70057, 23.11068 ], [ 72.69989, 23.112 ], [ 72.69705, 23.11125 ], [ 72.69394, 23.10569 ], [ 72.69048, 23.10299 ], [ 72.6838, 23.10169 ], [ 72.68109, 23.10258 ], [ 72.68053, 23.1066 ], [ 72.67732, 23.10637 ], [ 72.67213, 23.10806 ], [ 72.66525, 23.09484 ], [ 72.65995, 23.09696 ], [ 72.65792, 23.09511 ], [ 72.65492, 23.09478 ], [ 72.65294, 23.09642 ], [ 72.65038, 23.10058 ], [ 72.64663, 23.10121 ], [ 72.64281, 23.09527 ], [ 72.63737, 23.09198 ], [ 72.62911, 23.091 ], [ 72.6187, 23.092 ], [ 72.61036, 23.09151 ], [ 72.61087, 23.09436 ], [ 72.60987, 23.09628 ], [ 72.6105, 23.09783 ], [ 72.6099, 23.10079 ], [ 72.61174, 23.10472 ], [ 72.6132, 23.1046 ], [ 72.614, 23.10833 ], [ 72.61685, 23.10962 ], [ 72.61701, 23.11179 ], [ 72.61861, 23.11505 ], [ 72.61296, 23.11525 ], [ 72.61314, 23.12073 ], [ 72.61435, 23.12329 ], [ 72.61247, 23.12318 ], [ 72.61218, 23.12602 ], [ 72.60854, 23.12907 ], [ 72.6037, 23.13056 ], [ 72.5977, 23.13104 ], [ 72.59704, 23.13194 ], [ 72.58808, 23.12927 ], [ 72.58675, 23.13049 ], [ 72.5827, 23.12992 ], [ 72.58081, 23.1224 ], [ 72.57821, 23.1182 ], [ 72.576, 23.12013 ], [ 72.5715, 23.12211 ], [ 72.5708, 23.11883 ], [ 72.56908, 23.11613 ], [ 72.56308, 23.11604 ], [ 72.56641, 23.12125 ], [ 72.56794, 23.12685 ], [ 72.56668, 23.12693 ], [ 72.56676, 23.1279 ], [ 72.56783, 23.12795 ], [ 72.56698, 23.13245 ], [ 72.56262, 23.13727 ], [ 72.55788, 23.13863 ], [ 72.55804, 23.13773 ], [ 72.5568, 23.13617 ], [ 72.55233, 23.13399 ], [ 72.54566, 23.13195 ], [ 72.54058, 23.13227 ], [ 72.54094, 23.13518 ], [ 72.53974, 23.13731 ], [ 72.54188, 23.13696 ], [ 72.54124, 23.14082 ], [ 72.54332, 23.14565 ], [ 72.54303, 23.14742 ], [ 72.54089, 23.1488 ], [ 72.54254, 23.14956 ], [ 72.54543, 23.15459 ], [ 72.54517, 23.15643 ], [ 72.54607, 23.15687 ], [ 72.54671, 23.16031 ], [ 72.54815, 23.16148 ], [ 72.54858, 23.16401 ], [ 72.53743, 23.16441 ], [ 72.53684, 23.16734 ], [ 72.53093, 23.16695 ], [ 72.52807, 23.16931 ], [ 72.5293, 23.18 ], [ 72.53272, 23.18179 ], [ 72.53325, 23.18997 ], [ 72.53445, 23.1905 ], [ 72.53481, 23.19518 ], [ 72.53663, 23.19538 ], [ 72.53519, 23.19973 ], [ 72.53196, 23.20212 ], [ 72.53226, 23.2037 ], [ 72.53061, 23.2053 ], [ 72.53437, 23.20816 ], [ 72.53485, 23.21013 ], [ 72.53331, 23.21111 ], [ 72.53485, 23.21409 ], [ 72.53689, 23.21394 ], [ 72.53698, 23.21648 ], [ 72.53951, 23.21704 ], [ 72.54174, 23.22097 ], [ 72.54401, 23.22173 ], [ 72.54431, 23.22376 ], [ 72.54003, 23.22607 ], [ 72.53596, 23.22699 ], [ 72.53535, 23.22987 ], [ 72.53165, 23.23093 ], [ 72.53056, 23.23292 ], [ 72.52871, 23.23356 ], [ 72.52624, 23.23838 ], [ 72.52555, 23.23815 ], [ 72.52534, 23.24019 ], [ 72.52376, 23.24261 ], [ 72.52353, 23.24704 ], [ 72.52827, 23.25007 ], [ 72.52656, 23.25406 ], [ 72.52693, 23.2555 ], [ 72.52851, 23.25693 ], [ 72.52865, 23.2591 ], [ 72.53078, 23.26021 ], [ 72.53264, 23.25922 ], [ 72.54102, 23.25927 ], [ 72.54432, 23.27466 ], [ 72.5458, 23.2752 ], [ 72.54713, 23.27463 ], [ 72.54756, 23.2784 ], [ 72.54617, 23.28278 ], [ 72.5467, 23.28687 ], [ 72.54568, 23.2889 ], [ 72.54636, 23.29475 ], [ 72.54445, 23.29494 ], [ 72.54337, 23.29683 ], [ 72.54546, 23.30368 ], [ 72.54888, 23.30842 ], [ 72.55082, 23.30864 ], [ 72.55082, 23.30788 ], [ 72.55995, 23.30824 ], [ 72.56588, 23.31173 ], [ 72.56709, 23.31487 ], [ 72.5751, 23.31495 ], [ 72.57542, 23.31677 ], [ 72.5779, 23.32056 ], [ 72.57808, 23.32188 ], [ 72.57715, 23.32219 ], [ 72.57967, 23.32686 ], [ 72.57907, 23.33012 ], [ 72.58125, 23.33228 ], [ 72.58146, 23.33431 ], [ 72.58302, 23.33504 ], [ 72.58293, 23.33645 ], [ 72.58642, 23.3341 ], [ 72.59555, 23.33445 ], [ 72.59578, 23.33635 ], [ 72.6025, 23.33537 ], [ 72.60537, 23.34038 ], [ 72.61466, 23.33549 ], [ 72.61764, 23.33532 ], [ 72.62038, 23.33767 ], [ 72.6248, 23.34521 ], [ 72.63263, 23.34233 ], [ 72.63791, 23.33682 ], [ 72.6467, 23.34359 ], [ 72.64776, 23.34288 ], [ 72.65485, 23.34446 ], [ 72.66882, 23.34338 ], [ 72.67264, 23.34367 ], [ 72.67251, 23.34477 ], [ 72.67629, 23.3458 ], [ 72.67715, 23.34426 ], [ 72.67898, 23.34502 ], [ 72.67954, 23.34409 ], [ 72.68041, 23.34452 ], [ 72.67993, 23.34716 ], [ 72.67715, 23.34955 ], [ 72.67848, 23.35341 ], [ 72.67836, 23.35539 ], [ 72.68676, 23.35682 ], [ 72.686, 23.35788 ], [ 72.68619, 23.36022 ], [ 72.68933, 23.36021 ], [ 72.68954, 23.358 ], [ 72.69222, 23.3595 ], [ 72.69546, 23.35923 ], [ 72.69478, 23.35471 ], [ 72.69722, 23.35462 ], [ 72.69996, 23.34984 ], [ 72.69647, 23.34429 ], [ 72.69798, 23.34384 ], [ 72.70028, 23.34483 ], [ 72.70156, 23.34028 ], [ 72.70131, 23.33948 ], [ 72.70042, 23.34014 ], [ 72.69867, 23.33879 ], [ 72.70102, 23.33687 ], [ 72.70491, 23.33664 ], [ 72.70606, 23.33397 ], [ 72.70889, 23.33336 ], [ 72.70906, 23.33218 ], [ 72.70688, 23.32861 ], [ 72.70788, 23.32789 ], [ 72.70777, 23.32591 ], [ 72.70991, 23.32729 ], [ 72.70993, 23.3249 ], [ 72.71346, 23.32538 ], [ 72.72213, 23.33792 ], [ 72.7229, 23.34109 ], [ 72.72283, 23.34454 ], [ 72.71971, 23.35662 ], [ 72.72079, 23.36227 ], [ 72.7241, 23.365 ], [ 72.73038, 23.3672 ], [ 72.73398, 23.3707 ], [ 72.7342, 23.37617 ], [ 72.72776, 23.38047 ], [ 72.72464, 23.38423 ], [ 72.72348, 23.38857 ], [ 72.73071, 23.38869 ], [ 72.73977, 23.39321 ], [ 72.74265, 23.39267 ] ] ] } },
{ "type": "Feature", "properties": { "OBJECTID": 2012, "state_lgd": "24", "state_name": "GUJARAT", "district_lgd": "473", "district_name": "GANDHINAGAR", "district_name_source": "district_table", "subdistrict_lgd": "3773", "subdistrict_name": "KALOL", "subdistrict_type": "Taluk", "name_corrupted": false, "remarks": "", "label_lon": 72.478680245559573, "label_lat": 23.224286233947101 }, "geometry": { "type": "Polygon", "coordinates": [ [ [ 72.60854, 23.33897 ], [ 72.60537, 23.34038 ], [ 72.6025, 23.33537 ], [ 72.59578, 23.33635 ], [ 72.59555, 23.33445 ], [ 72.59494, 23.33435 ], [ 72.58642, 23.3341 ], [ 72.58293, 23.33645 ], [ 72.58302, 23.33504 ], [ 72.58146, 23.33431 ], [ 72.58125, 23.33228 ], [ 72.57907, 23.33012 ], [ 72.57967, 23.32686 ], [ 72.57715, 23.32219 ], [ 72.57808, 23.32188 ], [ 72.5779, 23.32056 ], [ 72.57542, 23.31677 ], [ 72.5751, 23.31495 ], [ 72.56709, 23.31487 ], [ 72.56588, 23.31173 ], [ 72.55995, 23.30824 ], [ 72.55082, 23.30788 ], [ 72.55082, 23.30864 ], [ 72.54888, 23.30842 ], [ 72.54511, 23.30309 ], [ 72.54337, 23.29683 ], [ 72.54445, 23.29494 ], [ 72.54636, 23.29475 ], [ 72.54568, 23.2889 ], [ 72.5467, 23.28687 ], [ 72.54617, 23.28278 ], [ 72.54756, 23.2784 ], [ 72.54713, 23.27463 ], [ 72.5458, 23.2752 ], [ 72.54432, 23.27466 ], [ 72.54102, 23.25927 ], [ 72.53264, 23.25922 ], [ 72.53078, 23.26021 ], [ 72.52865, 23.2591 ], [ 72.52851, 23.25693 ], [ 72.52693, 23.2555 ], [ 72.52656, 23.25406 ], [ 72.52827, 23.25007 ], [ 72.52353, 23.24704 ], [ 72.52376, 23.24261 ], [ 72.52534, 23.24019 ], [ 72.52555, 23.23815 ], [ 72.52624, 23.23838 ], [ 72.52871, 23.23356 ], [ 72.53056, 23.23292 ], [ 72.53165, 23.23093 ], [ 72.53535, 23.22987 ], [ 72.53596, 23.22699 ], [ 72.54003, 23.22607 ], [ 72.54431, 23.22376 ], [ 72.54401, 23.22173 ], [ 72.54174, 23.22097 ], [ 72.53951, 23.21704 ], [ 72.53698, 23.21648 ], [ 72.53689, 23.21394 ], [ 72.53485, 23.21409 ], [ 72.53331, 23.21111 ], [ 72.53485, 23.21013 ], [ 72.53437, 23.20816 ], [ 72.53061, 23.2053 ], [ 72.53226, 23.2037 ], [ 72.53196, 23.20212 ], [ 72.53519, 23.19973 ], [ 72.53663, 23.19538 ], [ 72.53481, 23.19518 ], [ 72.53445, 23.1905 ], [ 72.53325, 23.18997 ], [ 72.53272, 23.18179 ], [ 72.5293, 23.18 ], [ 72.52807, 23.16931 ], [ 72.53093, 23.16695 ], [ 72.53684, 23.16734 ], [ 72.53743, 23.16441 ], [ 72.53611, 23.15804 ], [ 72.53076, 23.14853 ], [ 72.52613, 23.14814 ], [ 72.52538, 23.15008 ], [ 72.5185, 23.15052 ], [ 72.51575, 23.1532 ], [ 72.51384, 23.15758 ], [ 72.51182, 23.15984 ], [ 72.50791, 23.15824 ], [ 72.50422, 23.155 ], [ 72.50349, 23.14837 ], [ 72.50506, 23.14806 ], [ 72.5045, 23.1459 ], [ 72.50499, 23.14416 ], [ 72.49868, 23.14338 ], [ 72.49392, 23.14179 ], [ 72.49236, 23.14314 ], [ 72.48762, 23.14492 ], [ 72.4851, 23.14523 ], [ 72.48306, 23.14443 ], [ 72.48609, 23.13779 ], [ 72.48551, 23.13242 ], [ 72.48452, 23.1324 ], [ 72.48608, 23.12614 ], [ 72.49556, 23.11379 ], [ 72.49881, 23.11256 ], [ 72.49923, 23.10713 ], [ 72.49814, 23.10383 ], [ 72.49801, 23.09972 ], [ 72.49285, 23.09962 ], [ 72.48171, 23.09724 ], [ 72.48157, 23.09644 ], [ 72.47867, 23.09508 ], [ 72.4777, 23.08944 ], [ 72.47568, 23.08697 ], [ 72.47175, 23.08532 ], [ 72.46584, 23.08459 ], [ 72.46434, 23.08338 ], [ 72.45971, 23.08394 ], [ 72.46022, 23.07954 ], [ 72.46264, 23.08129 ], [ 72.46579, 23.08164 ], [ 72.46888, 23.07646 ], [ 72.47396, 23.07221 ], [ 72.47454, 23.07089 ], [ 72.47265, 23.07066 ], [ 72.47235, 23.06991 ], [ 72.47178, 23.06363 ], [ 72.46834, 23.06268 ], [ 72.46674, 23.06139 ], [ 72.46198, 23.06035 ], [ 72.45763, 23.0621 ], [ 72.45294, 23.06257 ], [ 72.44881, 23.06046 ], [ 72.44725, 23.05203 ], [ 72.44857, 23.05132 ], [ 72.44742, 23.04754 ], [ 72.44009, 23.04556 ], [ 72.43929, 23.04599 ], [ 72.43759, 23.04467 ], [ 72.43569, 23.04457 ], [ 72.43517, 23.04351 ], [ 72.4266, 23.04789 ], [ 72.42859, 23.05292 ], [ 72.43105, 23.05568 ], [ 72.43104, 23.05715 ], [ 72.42969, 23.05721 ], [ 72.43026, 23.06324 ], [ 72.42763, 23.06497 ], [ 72.41467, 23.0646 ], [ 72.41281, 23.0668 ], [ 72.40722, 23.06791 ], [ 72.40753, 23.06652 ], [ 72.40538, 23.06647 ], [ 72.40335, 23.06516 ], [ 72.40303, 23.05715 ], [ 72.39737, 23.05724 ], [ 72.39734, 23.05605 ], [ 72.39187, 23.05467 ], [ 72.38725, 23.05174 ], [ 72.38809, 23.05495 ], [ 72.38565, 23.05654 ], [ 72.38496, 23.0589 ], [ 72.38282, 23.0592 ], [ 72.38114, 23.06066 ], [ 72.38172, 23.06269 ], [ 72.38104, 23.06461 ], [ 72.38158, 23.06929 ], [ 72.38103, 23.07337 ], [ 72.38195, 23.07352 ], [ 72.38238, 23.07625 ], [ 72.38487, 23.07879 ], [ 72.38461, 23.0793 ], [ 72.38167, 23.08091 ], [ 72.37516, 23.08094 ], [ 72.37503, 23.08251 ], [ 72.3716, 23.08589 ], [ 72.37116, 23.09008 ], [ 72.3695, 23.0936 ], [ 72.3655, 23.09021 ], [ 72.36126, 23.09006 ], [ 72.35598, 23.08824 ], [ 72.34864, 23.09046 ], [ 72.34753, 23.09541 ], [ 72.34585, 23.09803 ], [ 72.34196, 23.10248 ], [ 72.33651, 23.10706 ], [ 72.33625, 23.10897 ], [ 72.33811, 23.11781 ], [ 72.34172, 23.12598 ], [ 72.34331, 23.12509 ], [ 72.34407, 23.12639 ], [ 72.34534, 23.12581 ], [ 72.34503, 23.12447 ], [ 72.34731, 23.12395 ], [ 72.35073, 23.12544 ], [ 72.35161, 23.12395 ], [ 72.35629, 23.12447 ], [ 72.35694, 23.12289 ], [ 72.35779, 23.12284 ], [ 72.35865, 23.11948 ], [ 72.36077, 23.11697 ], [ 72.3621, 23.11296 ], [ 72.36509, 23.11191 ], [ 72.36624, 23.1097 ], [ 72.36784, 23.10957 ], [ 72.36751, 23.10786 ], [ 72.36903, 23.10787 ], [ 72.36864, 23.10445 ], [ 72.36933, 23.10445 ], [ 72.36938, 23.10227 ], [ 72.37083, 23.10226 ], [ 72.36745, 23.09732 ], [ 72.37072, 23.09599 ], [ 72.37358, 23.10121 ], [ 72.37287, 23.10127 ], [ 72.37369, 23.10249 ], [ 72.37457, 23.10245 ], [ 72.37756, 23.10758 ], [ 72.38093, 23.10886 ], [ 72.381, 23.11023 ], [ 72.38227, 23.11028 ], [ 72.38221, 23.1108 ], [ 72.38589, 23.11135 ], [ 72.38508, 23.11163 ], [ 72.38496, 23.11529 ], [ 72.38595, 23.1152 ], [ 72.38678, 23.11837 ], [ 72.39008, 23.11921 ], [ 72.39113, 23.12048 ], [ 72.39105, 23.12223 ], [ 72.39754, 23.1225 ], [ 72.40279, 23.12549 ], [ 72.40141, 23.12882 ], [ 72.40103, 23.13378 ], [ 72.41745, 23.13069 ], [ 72.42738, 23.14362 ], [ 72.42809, 23.14724 ], [ 72.42751, 23.14858 ], [ 72.429, 23.15099 ], [ 72.42561, 23.15368 ], [ 72.42099, 23.15303 ], [ 72.41793, 23.15538 ], [ 72.41876, 23.15357 ], [ 72.41854, 23.15117 ], [ 72.41676, 23.15092 ], [ 72.4164, 23.14997 ], [ 72.41448, 23.15034 ], [ 72.41457, 23.14939 ], [ 72.41282, 23.14899 ], [ 72.41187, 23.14975 ], [ 72.40873, 23.14943 ], [ 72.40823, 23.14868 ], [ 72.40178, 23.14885 ], [ 72.3984, 23.14766 ], [ 72.39595, 23.149 ], [ 72.39392, 23.15157 ], [ 72.38687, 23.15395 ], [ 72.38475, 23.1593 ], [ 72.3835, 23.16962 ], [ 72.38426, 23.1718 ], [ 72.38561, 23.17182 ], [ 72.38687, 23.17441 ], [ 72.39032, 23.1765 ], [ 72.39219, 23.17658 ], [ 72.39472, 23.17946 ], [ 72.39736, 23.17991 ], [ 72.39777, 23.18208 ], [ 72.3989, 23.18218 ], [ 72.3989, 23.18369 ], [ 72.40041, 23.18388 ], [ 72.40235, 23.18749 ], [ 72.40359, 23.18728 ], [ 72.40396, 23.18838 ], [ 72.40976, 23.18804 ], [ 72.41324, 23.18603 ], [ 72.4153, 23.18686 ], [ 72.41653, 23.18909 ], [ 72.41504, 23.19547 ], [ 72.41577, 23.19651 ], [ 72.41468, 23.19913 ], [ 72.41549, 23.20341 ], [ 72.41662, 23.20508 ], [ 72.41991, 23.2063 ], [ 72.42041, 23.20567 ], [ 72.42078, 23.20761 ], [ 72.42276, 23.20925 ], [ 72.42581, 23.20684 ], [ 72.4298, 23.20537 ], [ 72.43283, 23.20148 ], [ 72.43716, 23.19975 ], [ 72.43726, 23.19714 ], [ 72.43902, 23.19537 ], [ 72.44407, 23.19501 ], [ 72.44809, 23.19585 ], [ 72.44891, 23.20063 ], [ 72.44292, 23.20174 ], [ 72.43975, 23.20431 ], [ 72.43945, 23.20519 ], [ 72.44073, 23.2059 ], [ 72.44035, 23.2088 ], [ 72.43945, 23.2091 ], [ 72.44019, 23.2101 ], [ 72.43945, 23.2101 ], [ 72.43782, 23.21388 ], [ 72.43937, 23.21621 ], [ 72.43801, 23.21641 ], [ 72.43818, 23.21754 ], [ 72.4369, 23.21757 ], [ 72.43685, 23.21945 ], [ 72.43373, 23.22038 ], [ 72.43258, 23.22276 ], [ 72.43034, 23.2331 ], [ 72.43126, 23.23936 ], [ 72.42804, 23.24075 ], [ 72.42811, 23.24168 ], [ 72.42628, 23.24384 ], [ 72.42639, 23.2489 ], [ 72.44648, 23.24462 ], [ 72.44686, 23.25184 ], [ 72.44606, 23.25538 ], [ 72.44339, 23.25868 ], [ 72.44031, 23.25944 ], [ 72.43842, 23.26208 ], [ 72.43539, 23.26119 ], [ 72.43309, 23.26384 ], [ 72.42567, 23.26254 ], [ 72.42704, 23.25762 ], [ 72.4231, 23.25762 ], [ 72.42337, 23.2621 ], [ 72.42089, 23.26378 ], [ 72.42008, 23.26868 ], [ 72.41348, 23.27659 ], [ 72.41218, 23.27964 ], [ 72.4125, 23.28125 ], [ 72.41572, 23.28334 ], [ 72.41589, 23.28669 ], [ 72.41907, 23.28957 ], [ 72.42201, 23.29637 ], [ 72.42275, 23.30034 ], [ 72.42541, 23.3041 ], [ 72.42898, 23.30755 ], [ 72.43712, 23.31076 ], [ 72.44015, 23.30778 ], [ 72.44818, 23.30443 ], [ 72.45002, 23.30093 ], [ 72.45131, 23.30021 ], [ 72.45032, 23.29892 ], [ 72.45086, 23.29799 ], [ 72.46323, 23.2975 ], [ 72.46497, 23.2991 ], [ 72.46532, 23.30048 ], [ 72.46682, 23.30027 ], [ 72.47148, 23.30249 ], [ 72.47504, 23.30253 ], [ 72.47512, 23.30475 ], [ 72.47634, 23.30672 ], [ 72.47137, 23.30744 ], [ 72.46903, 23.30983 ], [ 72.46573, 23.31133 ], [ 72.46549, 23.31229 ], [ 72.4631, 23.31142 ], [ 72.46093, 23.31166 ], [ 72.45914, 23.31357 ], [ 72.4704, 23.31446 ], [ 72.48038, 23.31302 ], [ 72.48196, 23.31664 ], [ 72.48452, 23.31891 ], [ 72.48024, 23.33234 ], [ 72.47764, 23.3365 ], [ 72.4724, 23.34204 ], [ 72.4718, 23.34455 ], [ 72.47719, 23.34605 ], [ 72.48512, 23.34062 ], [ 72.48874, 23.34062 ], [ 72.49555, 23.34326 ], [ 72.50076, 23.34641 ], [ 72.50349, 23.34572 ], [ 72.50611, 23.34616 ], [ 72.50836, 23.34766 ], [ 72.50816, 23.34911 ], [ 72.51139, 23.3502 ], [ 72.51834, 23.35133 ], [ 72.52133, 23.35056 ], [ 72.51982, 23.35446 ], [ 72.52151, 23.35437 ], [ 72.52255, 23.35821 ], [ 72.52319, 23.35816 ], [ 72.5251, 23.36236 ], [ 72.52477, 23.36327 ], [ 72.51972, 23.36967 ], [ 72.51794, 23.36867 ], [ 72.51026, 23.37342 ], [ 72.50599, 23.37804 ], [ 72.5059, 23.38124 ], [ 72.50392, 23.38145 ], [ 72.50411, 23.38452 ], [ 72.50733, 23.38671 ], [ 72.50922, 23.39273 ], [ 72.51147, 23.396 ], [ 72.52169, 23.40241 ], [ 72.52734, 23.40463 ], [ 72.52703, 23.40696 ], [ 72.52774, 23.40721 ], [ 72.52471, 23.41272 ], [ 72.52409, 23.41687 ], [ 72.52591, 23.42134 ], [ 72.52633, 23.42502 ], [ 72.52954, 23.42495 ], [ 72.5309, 23.42356 ], [ 72.53268, 23.42429 ], [ 72.53196, 23.42485 ], [ 72.53726, 23.42656 ], [ 72.53718, 23.42756 ], [ 72.53853, 23.42799 ], [ 72.53902, 23.42647 ], [ 72.54466, 23.42899 ], [ 72.54576, 23.43168 ], [ 72.544, 23.43535 ], [ 72.5498, 23.43516 ], [ 72.55048, 23.43452 ], [ 72.55033, 23.43302 ], [ 72.55224, 23.43267 ], [ 72.55195, 23.42958 ], [ 72.55405, 23.42954 ], [ 72.5545, 23.43146 ], [ 72.55716, 23.43116 ], [ 72.55706, 23.42983 ], [ 72.55515, 23.43024 ], [ 72.5549, 23.42879 ], [ 72.55599, 23.42798 ], [ 72.55911, 23.42845 ], [ 72.55901, 23.43033 ], [ 72.56023, 23.43003 ], [ 72.56044, 23.42801 ], [ 72.56217, 23.42819 ], [ 72.56125, 23.42424 ], [ 72.5649, 23.42039 ], [ 72.56294, 23.41814 ], [ 72.56305, 23.41643 ], [ 72.56444, 23.4156 ], [ 72.56506, 23.41186 ], [ 72.5667, 23.40919 ], [ 72.56584, 23.40517 ], [ 72.56624, 23.39995 ], [ 72.56394, 23.39592 ], [ 72.5625, 23.39532 ], [ 72.56267, 23.39259 ], [ 72.56861, 23.37567 ], [ 72.56779, 23.37188 ], [ 72.56851, 23.36416 ], [ 72.57171, 23.35822 ], [ 72.57265, 23.35747 ], [ 72.57305, 23.35862 ], [ 72.57835, 23.35699 ], [ 72.57882, 23.35765 ], [ 72.58238, 23.35703 ], [ 72.58244, 23.35586 ], [ 72.58505, 23.3557 ], [ 72.58616, 23.35414 ], [ 72.59017, 23.35628 ], [ 72.59372, 23.35618 ], [ 72.59452, 23.35713 ], [ 72.60129, 23.35761 ], [ 72.60146, 23.35837 ], [ 72.60409, 23.3588 ], [ 72.60905, 23.35828 ], [ 72.61407, 23.35506 ], [ 72.61388, 23.35325 ], [ 72.61232, 23.35277 ], [ 72.61249, 23.35114 ], [ 72.61068, 23.34851 ], [ 72.61056, 23.34624 ], [ 72.60879, 23.34291 ], [ 72.60854, 23.33897 ] ] ] } },
{ "type": "Feature", "properties": { "OBJECTID": 2059, "state_lgd": "24", "state_name": "GUJARAT", "district_lgd": "473", "district_name": "GANDHINAGAR", "district_name_source": "district_table", "subdistrict_lgd": "3774", "subdistrict_name": "MANSA", "subdistrict_type": "Taluk", "name_corrupted": false, "remarks": "", "label_lon": 72.672898395795443, "label_lat": 23.444069653717261 }, "geometry": { "type": "Polygon", "coordinates": [ [ [ 72.65055, 23.56625 ], [ 72.65531, 23.56655 ], [ 72.65536, 23.5573 ], [ 72.65423, 23.5552 ], [ 72.6545, 23.55102 ], [ 72.65918, 23.5515 ], [ 72.65975, 23.55033 ], [ 72.66076, 23.55026 ], [ 72.66298, 23.55667 ], [ 72.67282, 23.55532 ], [ 72.67863, 23.55603 ], [ 72.68005, 23.55119 ], [ 72.67942, 23.54759 ], [ 72.67718, 23.54503 ], [ 72.67748, 23.54049 ], [ 72.67576, 23.53052 ], [ 72.68354, 23.53195 ], [ 72.68572, 23.5317 ], [ 72.68697, 23.52881 ], [ 72.68649, 23.52778 ], [ 72.68948, 23.52536 ], [ 72.69092, 23.52281 ], [ 72.6979, 23.52314 ], [ 72.69894, 23.52746 ], [ 72.70024, 23.52835 ], [ 72.70802, 23.52944 ], [ 72.71462, 23.52663 ], [ 72.72416, 23.52602 ], [ 72.72494, 23.52116 ], [ 72.73036, 23.52044 ], [ 72.73062, 23.51487 ], [ 72.72929, 23.51248 ], [ 72.7301, 23.51166 ], [ 72.72762, 23.50707 ], [ 72.72773, 23.50527 ], [ 72.7203, 23.49845 ], [ 72.71911, 23.50033 ], [ 72.71704, 23.4989 ], [ 72.71855, 23.49884 ], [ 72.71833, 23.4963 ], [ 72.7226, 23.49597 ], [ 72.7231, 23.49796 ], [ 72.72553, 23.50052 ], [ 72.72857, 23.50625 ], [ 72.73143, 23.50698 ], [ 72.73295, 23.50412 ], [ 72.73397, 23.5042 ], [ 72.73403, 23.50277 ], [ 72.74001, 23.50302 ], [ 72.74159, 23.5061 ], [ 72.74763, 23.50441 ], [ 72.75279, 23.50431 ], [ 72.75619, 23.50295 ], [ 72.76247, 23.50262 ], [ 72.76254, 23.50589 ], [ 72.76476, 23.51102 ], [ 72.76655, 23.51187 ], [ 72.76824, 23.51482 ], [ 72.77171, 23.51759 ], [ 72.77827, 23.5116 ], [ 72.78309, 23.50473 ], [ 72.78575, 23.50303 ], [ 72.79785, 23.50288 ], [ 72.79753, 23.4998 ], [ 72.79926, 23.49525 ], [ 72.80686, 23.48855 ], [ 72.81417, 23.48065 ], [ 72.81939, 23.46987 ], [ 72.81888, 23.46672 ], [ 72.81276, 23.45106 ], [ 72.80717, 23.44056 ], [ 72.80202, 23.43423 ], [ 72.79594, 23.43071 ], [ 72.79346, 23.42675 ], [ 72.79343, 23.42343 ], [ 72.79463, 23.41997 ], [ 72.80312, 23.41037 ], [ 72.80349, 23.40831 ], [ 72.80212, 23.40594 ], [ 72.79767, 23.40406 ], [ 72.79255, 23.40476 ], [ 72.78733, 23.40703 ], [ 72.779, 23.41449 ], [ 72.77398, 23.41558 ], [ 72.76881, 23.41399 ], [ 72.76511, 23.4097 ], [ 72.75985, 23.40731 ], [ 72.74092, 23.40576 ], [ 72.73413, 23.40333 ], [ 72.72686, 23.39822 ], [ 72.72369, 23.39178 ], [ 72.7239, 23.38576 ], [ 72.72776, 23.38047 ], [ 72.7342, 23.37617 ], [ 72.73398, 23.3707 ], [ 72.73038, 23.3672 ], [ 72.7241, 23.365 ], [ 72.72079, 23.36227 ], [ 72.71971, 23.35662 ], [ 72.72283, 23.34454 ], [ 72.7229, 23.34109 ], [ 72.72213, 23.33792 ], [ 72.71346, 23.32538 ], [ 72.70993, 23.3249 ], [ 72.70991, 23.32729 ], [ 72.70777, 23.32591 ], [ 72.70788, 23.32789 ], [ 72.70688, 23.32861 ], [ 72.70906, 23.33218 ], [ 72.70889, 23.33336 ], [ 72.70606, 23.33397 ], [ 72.70491, 23.33664 ], [ 72.70102, 23.33687 ], [ 72.69867, 23.33879 ], [ 72.70042, 23.34014 ], [ 72.70131, 23.33948 ], [ 72.70156, 23.34028 ], [ 72.70028, 23.34483 ], [ 72.69798, 23.34384 ], [ 72.69647, 23.34429 ], [ 72.69996, 23.34984 ], [ 72.69722, 23.35462 ], [ 72.69478, 23.35471 ], [ 72.69532, 23.35933 ], [ 72.69222, 23.3595 ], [ 72.68954, 23.358 ], [ 72.68933, 23.36021 ], [ 72.68619, 23.36022 ], [ 72.686, 23.35788 ], [ 72.68676, 23.35682 ], [ 72.67866, 23.3557 ], [ 72.67715, 23.34955 ], [ 72.67993, 23.34716 ], [ 72.68041, 23.34452 ], [ 72.67954, 23.34409 ], [ 72.67898, 23.34502 ], [ 72.67715, 23.34426 ], [ 72.67629, 23.3458 ], [ 72.67251, 23.34477 ], [ 72.67264, 23.34367 ], [ 72.66882, 23.34338 ], [ 72.65485, 23.34446 ], [ 72.64776, 23.34288 ], [ 72.6467, 23.34359 ], [ 72.63791, 23.33682 ], [ 72.63263, 23.34233 ], [ 72.6248, 23.34521 ], [ 72.62038, 23.33767 ], [ 72.61811, 23.33548 ], [ 72.61548, 23.33526 ], [ 72.60854, 23.33897 ], [ 72.60879, 23.34291 ], [ 72.61056, 23.34624 ], [ 72.61068, 23.34851 ], [ 72.61249, 23.35114 ], [ 72.61232, 23.35277 ], [ 72.61388, 23.35325 ], [ 72.61407, 23.35506 ], [ 72.60905, 23.35828 ], [ 72.60409, 23.3588 ], [ 72.60146, 23.35837 ], [ 72.60129, 23.35761 ], [ 72.59452, 23.35713 ], [ 72.59372, 23.35618 ], [ 72.59017, 23.35628 ], [ 72.58616, 23.35414 ], [ 72.58505, 23.3557 ], [ 72.58244, 23.35586 ], [ 72.58238, 23.35703 ], [ 72.57882, 23.35765 ], [ 72.57835, 23.35699 ], [ 72.57305, 23.35862 ], [ 72.57237, 23.35759 ], [ 72.56851, 23.36416 ], [ 72.56779, 23.37188 ], [ 72.56861, 23.37567 ], [ 72.56267, 23.39259 ], [ 72.5625, 23.39532 ], [ 72.56394, 23.39592 ], [ 72.56624, 23.39995 ], [ 72.56584, 23.40517 ], [ 72.5667, 23.40919 ], [ 72.56506, 23.41186 ], [ 72.56444, 23.4156 ], [ 72.56305, 23.41643 ], [ 72.56294, 23.41814 ], [ 72.5649, 23.42039 ], [ 72.56125, 23.42424 ], [ 72.56217, 23.42819 ], [ 72.56044, 23.42801 ], [ 72.56023, 23.43003 ], [ 72.55901, 23.43033 ], [ 72.55911, 23.42845 ], [ 72.55599, 23.42798 ], [ 72.5549, 23.42879 ], [ 72.55515, 23.43024 ], [ 72.55706, 23.42983 ], [ 72.55716, 23.43116 ], [ 72.5545, 23.43146 ], [ 72.55405, 23.42954 ], [ 72.55195, 23.42958 ], [ 72.55224, 23.43267 ], [ 72.55033, 23.43302 ], [ 72.55048, 23.43452 ], [ 72.5498, 23.43516 ], [ 72.544, 23.43535 ], [ 72.54576, 23.43168 ], [ 72.54524, 23.42988 ], [ 72.53902, 23.42647 ], [ 72.5388, 23.42716 ], [ 72.54082, 23.42938 ], [ 72.54083, 23.43085 ], [ 72.53802, 23.43067 ], [ 72.53781, 23.43171 ], [ 72.53632, 23.43148 ], [ 72.53602, 23.43577 ], [ 72.5369, 23.43607 ], [ 72.53704, 23.43719 ], [ 72.53629, 23.44026 ], [ 72.53391, 23.44015 ], [ 72.53392, 23.44199 ], [ 72.5353, 23.44206 ], [ 72.5356, 23.44304 ], [ 72.53836, 23.44324 ], [ 72.5393, 23.44211 ], [ 72.54229, 23.4448 ], [ 72.54366, 23.44659 ], [ 72.54555, 23.45376 ], [ 72.55499, 23.45678 ], [ 72.56795, 23.45545 ], [ 72.56781, 23.45854 ], [ 72.57011, 23.45961 ], [ 72.57507, 23.46474 ], [ 72.57635, 23.46781 ], [ 72.57718, 23.47605 ], [ 72.57651, 23.48809 ], [ 72.58055, 23.5 ], [ 72.58122, 23.50674 ], [ 72.58071, 23.51202 ], [ 72.58424, 23.52186 ], [ 72.59144, 23.51986 ], [ 72.60218, 23.51923 ], [ 72.60515, 23.51067 ], [ 72.61369, 23.50962 ], [ 72.6195, 23.51151 ], [ 72.62116, 23.5138 ], [ 72.62127, 23.5155 ], [ 72.62104, 23.52556 ], [ 72.62016, 23.52943 ], [ 72.62207, 23.53475 ], [ 72.62112, 23.53928 ], [ 72.62692, 23.54392 ], [ 72.62394, 23.54852 ], [ 72.62391, 23.55657 ], [ 72.62584, 23.55624 ], [ 72.62823, 23.5597 ], [ 72.63798, 23.56277 ], [ 72.6469, 23.56758 ], [ 72.65055, 23.56625 ] ] ] } }
]
}
