{
"type": "FeatureCollection",
"name": "486_VADODARA",
"crs": { "type": "name", "properties": { "name": "urn:ogc:def:crs:OGC:1.3:CRS84" } },
"xy_coordinate_resolution": 1e-05,
"features": [
{ "type": "Feature", "properties": { "OBJECTID": 1947, "state_lgd": "24", "state_name": "GUJARAT", "district_lgd": "486", "district_name": "VADODARA", "district_name_source": "district_table", "subdistrict_lgd": "3905", "subdistrict_name": "DABHOI", "subdistrict_type": "Taluk", "name_corrupted": false, "remarks": "", "label_lon": 73.38262917804505, "label_lat": 22.11975460065759 }, "geometry": { "type": "Polygon", "coordinates": [ [ [ 73.34995, 22.26919 ], [ 73.35369, 22.26196 ], [ 73.35201, 22.2612 ], [ 73.35267, 22.26008 ], [ 73.35544, 22.2615 ], [ 73.35944, 22.26226 ], [ 73.35959, 22.26025 ], [ 73.36038, 22.26032 ], [ 73.36158, 22.25831 ], [ 73.36335, 22.25822 ], [ 73.3642, 22.25672 ], [ 73.36599, 22.25765 ], [ 73.36836, 22.25708 ], [ 73.36947, 22.25777 ], [ 73.37017, 22.25538 ], [ 73.37142, 22.25459 ], [ 73.37426, 22.25548 ], [ 73.37637, 22.25492 ], [ 73.37757, 22.25322 ], [ 73.38182, 22.25406 ], [ 73.3829, 22.25337 ], [ 73.38398, 22.25198 ], [ 73.3861, 22.2451 ], [ 73.38612, 22.23844 ], [ 73.38987, 22.24012 ], [ 73.40098, 22.24171 ], [ 73.40052, 22.23939 ], [ 73.40394, 22.23801 ], [ 73.40485, 22.23399 ], [ 73.40849, 22.23222 ], [ 73.40905, 22.23115 ], [ 73.40849, 22.22924 ], [ 73.40582, 22.22698 ], [ 73.40644, 22.22363 ], [ 73.40428, 22.22102 ], [ 73.40421, 22.21914 ], [ 73.40733, 22.21693 ], [ 73.40682, 22.2153 ], [ 73.40872, 22.21376 ], [ 73.41022, 22.214 ], [ 73.41224, 22.21295 ], [ 73.4115, 22.21134 ], [ 73.4133, 22.2108 ], [ 73.41388, 22.21201 ], [ 73.41483, 22.21067 ], [ 73.4157, 22.2115 ], [ 73.41608, 22.21065 ], [ 73.4179, 22.21119 ], [ 73.41786, 22.21 ], [ 73.41924, 22.2099 ], [ 73.41963, 22.20894 ], [ 73.4216, 22.20878 ], [ 73.42121, 22.20953 ], [ 73.42228, 22.2094 ], [ 73.42245, 22.21052 ], [ 73.42308, 22.20962 ], [ 73.42394, 22.21019 ], [ 73.42411, 22.20925 ], [ 73.42595, 22.20818 ], [ 73.42546, 22.20928 ], [ 73.42691, 22.20948 ], [ 73.42715, 22.2085 ], [ 73.42811, 22.20845 ], [ 73.42902, 22.21025 ], [ 73.43092, 22.20903 ], [ 73.43178, 22.21028 ], [ 73.4321, 22.20896 ], [ 73.43424, 22.20967 ], [ 73.43427, 22.21075 ], [ 73.43578, 22.21008 ], [ 73.43649, 22.21067 ], [ 73.4363, 22.21213 ], [ 73.43773, 22.21144 ], [ 73.43736, 22.2124 ], [ 73.43843, 22.21368 ], [ 73.44139, 22.21417 ], [ 73.44403, 22.21735 ], [ 73.44362, 22.21819 ], [ 73.44563, 22.21948 ], [ 73.44675, 22.21854 ], [ 73.44635, 22.22087 ], [ 73.44784, 22.22085 ], [ 73.44709, 22.22157 ], [ 73.44782, 22.22165 ], [ 73.44796, 22.22276 ], [ 73.4472, 22.2231 ], [ 73.44939, 22.2257 ], [ 73.45613, 22.2281 ], [ 73.45558, 22.22948 ], [ 73.45631, 22.2303 ], [ 73.45719, 22.22933 ], [ 73.45733, 22.23097 ], [ 73.4597, 22.22995 ], [ 73.46217, 22.23117 ], [ 73.46215, 22.23194 ], [ 73.46374, 22.23215 ], [ 73.46452, 22.23356 ], [ 73.46851, 22.23377 ], [ 73.47099, 22.23891 ], [ 73.47531, 22.24086 ], [ 73.47718, 22.23625 ], [ 73.48167, 22.23849 ], [ 73.48248, 22.24004 ], [ 73.49088, 22.2348 ], [ 73.491, 22.22608 ], [ 73.49166, 22.22614 ], [ 73.49165, 22.2246 ], [ 73.48637, 22.22468 ], [ 73.48086, 22.21901 ], [ 73.48446, 22.21289 ], [ 73.48548, 22.21299 ], [ 73.48621, 22.21127 ], [ 73.48518, 22.20969 ], [ 73.48647, 22.20773 ], [ 73.49244, 22.20441 ], [ 73.50162, 22.20428 ], [ 73.50264, 22.2034 ], [ 73.50367, 22.2002 ], [ 73.50529, 22.19945 ], [ 73.50396, 22.18901 ], [ 73.4954, 22.17758 ], [ 73.49615, 22.17554 ], [ 73.49635, 22.1669 ], [ 73.49896, 22.16303 ], [ 73.49786, 22.16203 ], [ 73.49924, 22.15955 ], [ 73.50092, 22.15989 ], [ 73.50324, 22.15774 ], [ 73.50326, 22.15466 ], [ 73.50443, 22.15257 ], [ 73.50626, 22.15412 ], [ 73.5084, 22.15233 ], [ 73.50677, 22.15116 ], [ 73.50535, 22.1455 ], [ 73.50616, 22.14462 ], [ 73.50887, 22.14511 ], [ 73.50979, 22.14372 ], [ 73.51157, 22.14331 ], [ 73.51441, 22.14356 ], [ 73.51543, 22.14482 ], [ 73.51598, 22.14302 ], [ 73.51781, 22.14567 ], [ 73.51893, 22.14481 ], [ 73.51618, 22.14167 ], [ 73.51092, 22.13976 ], [ 73.50699, 22.13436 ], [ 73.50643, 22.13265 ], [ 73.50714, 22.12664 ], [ 73.50667, 22.12259 ], [ 73.50095, 22.11243 ], [ 73.4982, 22.10988 ], [ 73.48277, 22.1061 ], [ 73.47909, 22.10336 ], [ 73.4765, 22.09699 ], [ 73.47615, 22.08679 ], [ 73.47891, 22.0808 ], [ 73.48322, 22.07842 ], [ 73.48509, 22.07553 ], [ 73.48654, 22.07055 ], [ 73.48795, 22.07059 ], [ 73.48941, 22.07219 ], [ 73.48941, 22.07469 ], [ 73.48839, 22.07647 ], [ 73.48915, 22.07812 ], [ 73.49034, 22.07792 ], [ 73.49099, 22.07906 ], [ 73.4921, 22.07908 ], [ 73.49173, 22.07829 ], [ 73.49276, 22.07743 ], [ 73.4942, 22.07796 ], [ 73.49704, 22.07667 ], [ 73.50002, 22.07855 ], [ 73.50165, 22.07853 ], [ 73.50314, 22.08137 ], [ 73.50438, 22.08213 ], [ 73.5041, 22.08303 ], [ 73.50714, 22.08324 ], [ 73.50837, 22.08405 ], [ 73.50842, 22.0862 ], [ 73.51002, 22.08898 ], [ 73.51415, 22.09215 ], [ 73.51998, 22.09157 ], [ 73.52147, 22.09298 ], [ 73.52415, 22.09341 ], [ 73.52975, 22.09219 ], [ 73.5314, 22.09256 ], [ 73.53242, 22.09176 ], [ 73.54034, 22.09132 ], [ 73.5408, 22.08833 ], [ 73.53896, 22.08606 ], [ 73.5391, 22.08232 ], [ 73.53822, 22.08044 ], [ 73.53587, 22.07944 ], [ 73.53581, 22.07714 ], [ 73.53475, 22.07696 ], [ 73.53362, 22.07442 ], [ 73.53264, 22.07451 ], [ 73.53241, 22.07146 ], [ 73.53559, 22.07041 ], [ 73.5364, 22.06851 ], [ 73.53958, 22.06685 ], [ 73.54238, 22.06669 ], [ 73.54326, 22.06536 ], [ 73.54219, 22.06181 ], [ 73.53949, 22.06258 ], [ 73.53714, 22.06191 ], [ 73.53493, 22.06251 ], [ 73.52914, 22.06197 ], [ 73.53097, 22.06116 ], [ 73.53215, 22.05875 ], [ 73.53089, 22.05065 ], [ 73.52655, 22.05269 ], [ 73.52161, 22.05651 ], [ 73.52128, 22.05443 ], [ 73.52228, 22.05217 ], [ 73.51987, 22.04871 ], [ 73.51858, 22.04853 ], [ 73.51837, 22.04578 ], [ 73.51658, 22.044 ], [ 73.51579, 22.03941 ], [ 73.51399, 22.03772 ], [ 73.50896, 22.03724 ], [ 73.50616, 22.03795 ], [ 73.50409, 22.03951 ], [ 73.49987, 22.03965 ], [ 73.50317, 22.03543 ], [ 73.50195, 22.03344 ], [ 73.50018, 22.03295 ], [ 73.50188, 22.02821 ], [ 73.50332, 22.02827 ], [ 73.50238, 22.02261 ], [ 73.50063, 22.01725 ], [ 73.49495, 22.0174 ], [ 73.49668, 22.01509 ], [ 73.49912, 22.01393 ], [ 73.50031, 22.00913 ], [ 73.51111, 22.00364 ], [ 73.5106, 22.0 ], [ 73.51125, 21.99347 ], [ 73.51369, 21.99307 ], [ 73.5142, 21.99018 ], [ 73.51293, 21.98965 ], [ 73.51181, 21.98755 ], [ 73.51207, 21.9862 ], [ 73.51416, 21.9854 ], [ 73.51362, 21.98377 ], [ 73.51284, 21.98378 ], [ 73.51285, 21.98096 ], [ 73.51078, 21.97957 ], [ 73.50683, 21.97912 ], [ 73.50473, 21.97724 ], [ 73.50469, 21.97565 ], [ 73.50736, 21.9713 ], [ 73.50755, 21.96971 ], [ 73.5044, 21.96643 ], [ 73.50383, 21.96289 ], [ 73.47408, 21.97405 ], [ 73.46181, 21.9799 ], [ 73.45865, 21.975 ], [ 73.45382, 21.97628 ], [ 73.44711, 21.97454 ], [ 73.44488, 21.97268 ], [ 73.44296, 21.96947 ], [ 73.44243, 21.96668 ], [ 73.43999, 21.96434 ], [ 73.43902, 21.96509 ], [ 73.42999, 21.96664 ], [ 73.41675, 21.9634 ], [ 73.41663, 21.97162 ], [ 73.41356, 21.97197 ], [ 73.41175, 21.98167 ], [ 73.41272, 21.98212 ], [ 73.41309, 21.98418 ], [ 73.41523, 21.98405 ], [ 73.41525, 21.98576 ], [ 73.41192, 21.98619 ], [ 73.41136, 21.989 ], [ 73.41181, 21.99016 ], [ 73.41873, 21.98921 ], [ 73.42267, 21.98987 ], [ 73.4193, 21.99233 ], [ 73.41812, 21.99147 ], [ 73.41398, 21.99305 ], [ 73.41393, 21.99369 ], [ 73.41471, 21.99555 ], [ 73.41721, 21.9951 ], [ 73.41709, 21.99614 ], [ 73.42046, 21.99736 ], [ 73.42448, 22.00272 ], [ 73.42471, 22.00463 ], [ 73.42299, 22.01221 ], [ 73.42575, 22.01736 ], [ 73.42808, 22.01752 ], [ 73.4326, 22.02323 ], [ 73.42977, 22.03239 ], [ 73.42905, 22.03327 ], [ 73.40686, 22.03327 ], [ 73.40677, 22.03495 ], [ 73.40796, 22.03483 ], [ 73.40839, 22.03834 ], [ 73.40742, 22.03882 ], [ 73.40734, 22.04034 ], [ 73.40461, 22.04198 ], [ 73.40362, 22.04563 ], [ 73.39918, 22.04608 ], [ 73.39178, 22.04338 ], [ 73.38977, 22.04609 ], [ 73.38482, 22.04565 ], [ 73.38438, 22.04717 ], [ 73.37951, 22.04667 ], [ 73.3791, 22.04519 ], [ 73.37752, 22.04471 ], [ 73.37362, 22.04448 ], [ 73.37203, 22.04631 ], [ 73.37181, 22.04778 ], [ 73.37028, 22.04804 ], [ 73.36951, 22.04959 ], [ 73.3658, 22.04893 ], [ 73.36525, 22.05423 ], [ 73.36638, 22.058 ], [ 73.3516, 22.05536 ], [ 73.33769, 22.05173 ], [ 73.33772, 22.05812 ], [ 73.33691, 22.05972 ], [ 73.33715, 22.06132 ], [ 73.33615, 22.06152 ], [ 73.32541, 22.05741 ], [ 73.32547, 22.05634 ], [ 73.32379, 22.05585 ], [ 73.3198, 22.05525 ], [ 73.31774, 22.05635 ], [ 73.31745, 22.05436 ], [ 73.31503, 22.05361 ], [ 73.30375, 22.05325 ], [ 73.29668, 22.05191 ], [ 73.29378, 22.05342 ], [ 73.27972, 22.05249 ], [ 73.27862, 22.05139 ], [ 73.27524, 22.05091 ], [ 73.27367, 22.04914 ], [ 73.27515, 22.03591 ], [ 73.27164, 22.03532 ], [ 73.26422, 22.03216 ], [ 73.25446, 22.03141 ], [ 73.25116, 22.03233 ], [ 73.2496, 22.03346 ], [ 73.24749, 22.03743 ], [ 73.24697, 22.03939 ], [ 73.24776, 22.04075 ], [ 73.23694, 22.04083 ], [ 73.23714, 22.03611 ], [ 73.23922, 22.0293 ], [ 73.24248, 22.03002 ], [ 73.24267, 22.02872 ], [ 73.2434, 22.02853 ], [ 73.24444, 22.02184 ], [ 73.23923, 22.0193 ], [ 73.23381, 22.0192 ], [ 73.22501, 22.01633 ], [ 73.22211, 22.01615 ], [ 73.22196, 22.0254 ], [ 73.22071, 22.02625 ], [ 73.21904, 22.03371 ], [ 73.22047, 22.03543 ], [ 73.22719, 22.03731 ], [ 73.22515, 22.04603 ], [ 73.22048, 22.04559 ], [ 73.22025, 22.05121 ], [ 73.21911, 22.05455 ], [ 73.22047, 22.05732 ], [ 73.21733, 22.06834 ], [ 73.21723, 22.07242 ], [ 73.21388, 22.07192 ], [ 73.2104, 22.0748 ], [ 73.20653, 22.07395 ], [ 73.20041, 22.07658 ], [ 73.19481, 22.07586 ], [ 73.1912, 22.07923 ], [ 73.1911, 22.08477 ], [ 73.19603, 22.08624 ], [ 73.19561, 22.08982 ], [ 73.19631, 22.09028 ], [ 73.20121, 22.09063 ], [ 73.20014, 22.09878 ], [ 73.20094, 22.09834 ], [ 73.20203, 22.09963 ], [ 73.20211, 22.10118 ], [ 73.20398, 22.10118 ], [ 73.20504, 22.10248 ], [ 73.20611, 22.10875 ], [ 73.20583, 22.11749 ], [ 73.21422, 22.11841 ], [ 73.23396, 22.11737 ], [ 73.23684, 22.11869 ], [ 73.24352, 22.1194 ], [ 73.24382, 22.11767 ], [ 73.24939, 22.11723 ], [ 73.25247, 22.11638 ], [ 73.2525, 22.11539 ], [ 73.26317, 22.11434 ], [ 73.26815, 22.10594 ], [ 73.26951, 22.10566 ], [ 73.27267, 22.10831 ], [ 73.27891, 22.1111 ], [ 73.2795, 22.11414 ], [ 73.28038, 22.11443 ], [ 73.27893, 22.11632 ], [ 73.27504, 22.11761 ], [ 73.26934, 22.11761 ], [ 73.26524, 22.11887 ], [ 73.26438, 22.12505 ], [ 73.26235, 22.1296 ], [ 73.26098, 22.1306 ], [ 73.26789, 22.13035 ], [ 73.27592, 22.13271 ], [ 73.2764, 22.13865 ], [ 73.28105, 22.14096 ], [ 73.28684, 22.14171 ], [ 73.28818, 22.14298 ], [ 73.28811, 22.15003 ], [ 73.28945, 22.1501 ], [ 73.28867, 22.15173 ], [ 73.28942, 22.15255 ], [ 73.28813, 22.15675 ], [ 73.28811, 22.16115 ], [ 73.28628, 22.16349 ], [ 73.28493, 22.16352 ], [ 73.28423, 22.16709 ], [ 73.28344, 22.16733 ], [ 73.28409, 22.16857 ], [ 73.28245, 22.17203 ], [ 73.28085, 22.17165 ], [ 73.27469, 22.17573 ], [ 73.27141, 22.17465 ], [ 73.26896, 22.17817 ], [ 73.26822, 22.18303 ], [ 73.2664, 22.18479 ], [ 73.26665, 22.18609 ], [ 73.2657, 22.1867 ], [ 73.26478, 22.19614 ], [ 73.26286, 22.19639 ], [ 73.26098, 22.19884 ], [ 73.26237, 22.20492 ], [ 73.2619, 22.2056 ], [ 73.26334, 22.20676 ], [ 73.26332, 22.2124 ], [ 73.25971, 22.21423 ], [ 73.2631, 22.21345 ], [ 73.2627, 22.21976 ], [ 73.2661, 22.22041 ], [ 73.26802, 22.22211 ], [ 73.27371, 22.22177 ], [ 73.27603, 22.22252 ], [ 73.27589, 22.22381 ], [ 73.28347, 22.22525 ], [ 73.28557, 22.22689 ], [ 73.2916, 22.22763 ], [ 73.29349, 22.22607 ], [ 73.29393, 22.22714 ], [ 73.29513, 22.22732 ], [ 73.29472, 22.22572 ], [ 73.29564, 22.22616 ], [ 73.29623, 22.22521 ], [ 73.29517, 22.22209 ], [ 73.29571, 22.22131 ], [ 73.29805, 22.2231 ], [ 73.29773, 22.22398 ], [ 73.29888, 22.22419 ], [ 73.30081, 22.22359 ], [ 73.30258, 22.22444 ], [ 73.30341, 22.22351 ], [ 73.30469, 22.22475 ], [ 73.30407, 22.22371 ], [ 73.30482, 22.22276 ], [ 73.30604, 22.2237 ], [ 73.30722, 22.22339 ], [ 73.30722, 22.22406 ], [ 73.30829, 22.22298 ], [ 73.30933, 22.22322 ], [ 73.3114, 22.23292 ], [ 73.30555, 22.23551 ], [ 73.29876, 22.23557 ], [ 73.29304, 22.2401 ], [ 73.29289, 22.24149 ], [ 73.29418, 22.24174 ], [ 73.29367, 22.24361 ], [ 73.29603, 22.24131 ], [ 73.2959, 22.24246 ], [ 73.2971, 22.24246 ], [ 73.29612, 22.24416 ], [ 73.29739, 22.24353 ], [ 73.29773, 22.24483 ], [ 73.30009, 22.24378 ], [ 73.30113, 22.2442 ], [ 73.30127, 22.24345 ], [ 73.30183, 22.24452 ], [ 73.30286, 22.24401 ], [ 73.30276, 22.24489 ], [ 73.30486, 22.2458 ], [ 73.30403, 22.24406 ], [ 73.30638, 22.24374 ], [ 73.30562, 22.2446 ], [ 73.3071, 22.24475 ], [ 73.30623, 22.24553 ], [ 73.30565, 22.2487 ], [ 73.30875, 22.25012 ], [ 73.31255, 22.24774 ], [ 73.31254, 22.24648 ], [ 73.31492, 22.24658 ], [ 73.31339, 22.24766 ], [ 73.31502, 22.24772 ], [ 73.31492, 22.24862 ], [ 73.31588, 22.24936 ], [ 73.31679, 22.24859 ], [ 73.3191, 22.25131 ], [ 73.31799, 22.25207 ], [ 73.31781, 22.25437 ], [ 73.31926, 22.25707 ], [ 73.32025, 22.25706 ], [ 73.3197, 22.2564 ], [ 73.32042, 22.25566 ], [ 73.32098, 22.25661 ], [ 73.3225, 22.25628 ], [ 73.32279, 22.25786 ], [ 73.32505, 22.25733 ], [ 73.32545, 22.25778 ], [ 73.32441, 22.25812 ], [ 73.32497, 22.25862 ], [ 73.32812, 22.25863 ], [ 73.32826, 22.25967 ], [ 73.32951, 22.26031 ], [ 73.32859, 22.26084 ], [ 73.32942, 22.26189 ], [ 73.32857, 22.26285 ], [ 73.33127, 22.26477 ], [ 73.33204, 22.26477 ], [ 73.33253, 22.26353 ], [ 73.33289, 22.26455 ], [ 73.33444, 22.26465 ], [ 73.33517, 22.26563 ], [ 73.34596, 22.27079 ], [ 73.34995, 22.26919 ] ] ] } },
{ "type": "Feature", "properties": { "OBJECTID": 1957, "state_lgd": "24", "state_name": "GUJARAT", "district_lgd": "486", "district_name": "VADODARA", "district_name_source": "district_table", "subdistrict_lgd": "6847", "subdistrict_name": "DESAR", "subdistrict_type": "Taluk", "name_corrupted": false, "remarks": "", "label_lon": 73.333595812418764, "label_lat": 22.717721678136076 }, "geometry": { "type": "Polygon", "coordinates": [ [ [ 73.4064, 22.809 ], [ 73.40419, 22.79828 ], [ 73.40403, 22.79378 ], [ 73.41442, 22.78661 ], [ 73.42277, 22.78562 ], [ 73.42527, 22.77883 ], [ 73.42467, 22.77608 ], [ 73.42653, 22.77249 ], [ 73.42477, 22.76646 ], [ 73.42675, 22.76246 ], [ 73.41567, 22.7608 ], [ 73.41043, 22.75925 ], [ 73.38466, 22.74206 ], [ 73.38627, 22.74003 ], [ 73.38665, 22.73259 ], [ 73.38294, 22.71977 ], [ 73.386, 22.70528 ], [ 73.38741, 22.70436 ], [ 73.38693, 22.70136 ], [ 73.38938, 22.701 ], [ 73.38889, 22.69816 ], [ 73.3894, 22.69569 ], [ 73.3899, 22.69588 ], [ 73.38951, 22.6922 ], [ 73.39118, 22.68745 ], [ 73.40275, 22.69036 ], [ 73.40495, 22.68283 ], [ 73.40575, 22.68273 ], [ 73.40692, 22.68062 ], [ 73.40701, 22.6781 ], [ 73.40874, 22.67657 ], [ 73.41025, 22.67801 ], [ 73.41179, 22.67758 ], [ 73.4116, 22.67658 ], [ 73.41431, 22.67666 ], [ 73.41399, 22.67577 ], [ 73.41572, 22.67562 ], [ 73.4146, 22.67012 ], [ 73.41685, 22.66121 ], [ 73.41573, 22.6609 ], [ 73.41542, 22.65905 ], [ 73.4094, 22.65705 ], [ 73.40711, 22.65435 ], [ 73.40382, 22.65645 ], [ 73.40206, 22.65613 ], [ 73.40111, 22.6572 ], [ 73.40022, 22.65669 ], [ 73.39918, 22.6537 ], [ 73.40009, 22.65324 ], [ 73.39775, 22.64928 ], [ 73.3971, 22.64355 ], [ 73.39336, 22.64347 ], [ 73.39172, 22.64419 ], [ 73.38956, 22.64353 ], [ 73.38695, 22.64677 ], [ 73.38588, 22.64695 ], [ 73.38556, 22.64829 ], [ 73.38397, 22.64885 ], [ 73.38384, 22.65004 ], [ 73.37252, 22.64761 ], [ 73.36816, 22.64773 ], [ 73.36888, 22.64082 ], [ 73.36758, 22.63883 ], [ 73.36565, 22.63899 ], [ 73.36583, 22.63192 ], [ 73.36472, 22.63203 ], [ 73.36485, 22.62991 ], [ 73.36277, 22.62936 ], [ 73.3625, 22.62747 ], [ 73.36047, 22.62751 ], [ 73.35904, 22.62642 ], [ 73.35936, 22.62377 ], [ 73.35802, 22.62412 ], [ 73.35789, 22.62495 ], [ 73.35585, 22.625 ], [ 73.3545, 22.62352 ], [ 73.34549, 22.62292 ], [ 73.34409, 22.62461 ], [ 73.34199, 22.62896 ], [ 73.34287, 22.63158 ], [ 73.34414, 22.63182 ], [ 73.34458, 22.63303 ], [ 73.34279, 22.63655 ], [ 73.34282, 22.6381 ], [ 73.34162, 22.63829 ], [ 73.34418, 22.64246 ], [ 73.34437, 22.64821 ], [ 73.34588, 22.65167 ], [ 73.34193, 22.65596 ], [ 73.33545, 22.65965 ], [ 73.33312, 22.65876 ], [ 73.33187, 22.65728 ], [ 73.32976, 22.65685 ], [ 73.32906, 22.65528 ], [ 73.32535, 22.65577 ], [ 73.32532, 22.65506 ], [ 73.32341, 22.65504 ], [ 73.32298, 22.65406 ], [ 73.32476, 22.65293 ], [ 73.32285, 22.65246 ], [ 73.31896, 22.65526 ], [ 73.31816, 22.65476 ], [ 73.31821, 22.65562 ], [ 73.31616, 22.65639 ], [ 73.3142, 22.6561 ], [ 73.31104, 22.65782 ], [ 73.30916, 22.65742 ], [ 73.30858, 22.65801 ], [ 73.30551, 22.65681 ], [ 73.30275, 22.65521 ], [ 73.30142, 22.64609 ], [ 73.29909, 22.64311 ], [ 73.29441, 22.64049 ], [ 73.28997, 22.6367 ], [ 73.28739, 22.63675 ], [ 73.28293, 22.64082 ], [ 73.27627, 22.64251 ], [ 73.27386, 22.64457 ], [ 73.26816, 22.64622 ], [ 73.26521, 22.65542 ], [ 73.26125, 22.65758 ], [ 73.26924, 22.66648 ], [ 73.26978, 22.66932 ], [ 73.26932, 22.6734 ], [ 73.26487, 22.68751 ], [ 73.26502, 22.69145 ], [ 73.25505, 22.70571 ], [ 73.25186, 22.71941 ], [ 73.25182, 22.73464 ], [ 73.25468, 22.74307 ], [ 73.25983, 22.75 ], [ 73.25833, 22.75053 ], [ 73.25505, 22.76065 ], [ 73.25719, 22.76658 ], [ 73.26298, 22.77538 ], [ 73.27018, 22.78016 ], [ 73.27604, 22.78221 ], [ 73.28006, 22.78179 ], [ 73.28841, 22.78364 ], [ 73.29134, 22.7821 ], [ 73.29681, 22.78306 ], [ 73.30209, 22.78203 ], [ 73.30808, 22.78363 ], [ 73.31188, 22.78179 ], [ 73.31558, 22.78159 ], [ 73.32445, 22.786 ], [ 73.33527, 22.78799 ], [ 73.35022, 22.79235 ], [ 73.35266, 22.78966 ], [ 73.35532, 22.78985 ], [ 73.35611, 22.78729 ], [ 73.359, 22.78734 ], [ 73.35998, 22.78112 ], [ 73.36343, 22.77733 ], [ 73.36205, 22.77108 ], [ 73.37423, 22.76183 ], [ 73.38091, 22.75802 ], [ 73.37904, 22.76416 ], [ 73.38084, 22.77141 ], [ 73.37982, 22.77294 ], [ 73.37835, 22.78008 ], [ 73.37901, 22.79344 ], [ 73.37749, 22.80136 ], [ 73.38356, 22.79482 ], [ 73.38396, 22.80317 ], [ 73.3834, 22.80588 ], [ 73.38438, 22.81157 ], [ 73.3923, 22.8102 ], [ 73.39471, 22.80828 ], [ 73.39874, 22.80803 ], [ 73.40469, 22.81455 ], [ 73.40485, 22.81121 ], [ 73.4064, 22.809 ] ] ] } },
{ "type": "Feature", "properties": { "OBJECTID": 2019, "state_lgd": "24", "state_name": "GUJARAT", "district_lgd": "486", "district_name": "VADODARA", "district_name_source": "district_table", "subdistrict_lgd": "3907", "subdistrict_name": "KARJAN", "subdistrict_type": "Taluk", "name_corrupted": false, "remarks": "", "label_lon": 73.129104330497341, "label_lat": 21.987946947501143 }, "geometry": { "type": "MultiPolygon", "coordinates": [ [ [ [ 73.03933, 22.12014 ], [ 73.04189, 22.12087 ], [ 73.04374, 22.12346 ], [ 73.04689, 22.12426 ], [ 73.04912, 22.11701 ], [ 73.0518, 22.11686 ], [ 73.05155, 22.11603 ], [ 73.05398, 22.11571 ], [ 73.0522, 22.11401 ], [ 73.05107, 22.1099 ], [ 73.05338, 22.11081 ], [ 73.05623, 22.10877 ], [ 73.05812, 22.10864 ], [ 73.059, 22.1075 ], [ 73.06585, 22.10855 ], [ 73.06882, 22.10432 ], [ 73.07241, 22.1026 ], [ 73.07705, 22.1051 ], [ 73.07733, 22.10943 ], [ 73.08307, 22.11446 ], [ 73.0823, 22.12104 ], [ 73.08302, 22.1238 ], [ 73.08615, 22.12521 ], [ 73.08636, 22.12645 ], [ 73.09458, 22.12692 ], [ 73.09461, 22.12782 ], [ 73.09596, 22.12781 ], [ 73.09493, 22.11848 ], [ 73.09581, 22.11429 ], [ 73.09854, 22.11446 ], [ 73.09865, 22.11277 ], [ 73.1041, 22.11478 ], [ 73.10764, 22.11384 ], [ 73.10929, 22.11251 ], [ 73.11386, 22.11371 ], [ 73.11449, 22.11514 ], [ 73.11784, 22.11319 ], [ 73.11832, 22.11187 ], [ 73.12517, 22.10968 ], [ 73.12712, 22.1101 ], [ 73.12718, 22.10857 ], [ 73.13018, 22.10746 ], [ 73.13275, 22.10507 ], [ 73.1334, 22.10275 ], [ 73.13851, 22.10075 ], [ 73.1396, 22.0989 ], [ 73.14371, 22.09798 ], [ 73.14551, 22.09616 ], [ 73.14799, 22.09572 ], [ 73.14723, 22.09435 ], [ 73.14874, 22.09421 ], [ 73.1481, 22.09263 ], [ 73.14865, 22.09132 ], [ 73.15117, 22.0918 ], [ 73.15188, 22.09062 ], [ 73.15259, 22.09131 ], [ 73.15385, 22.09048 ], [ 73.15492, 22.09179 ], [ 73.16016, 22.08936 ], [ 73.16481, 22.09047 ], [ 73.16441, 22.09154 ], [ 73.16577, 22.09211 ], [ 73.16558, 22.0967 ], [ 73.16624, 22.09777 ], [ 73.16558, 22.10008 ], [ 73.16743, 22.10086 ], [ 73.16733, 22.10183 ], [ 73.16935, 22.10183 ], [ 73.16904, 22.10281 ], [ 73.17056, 22.10495 ], [ 73.17392, 22.10463 ], [ 73.17703, 22.11043 ], [ 73.17647, 22.11282 ], [ 73.18018, 22.11533 ], [ 73.18097, 22.11693 ], [ 73.18308, 22.11784 ], [ 73.18553, 22.12086 ], [ 73.18792, 22.12142 ], [ 73.19037, 22.12075 ], [ 73.19482, 22.11751 ], [ 73.1977, 22.11699 ], [ 73.20114, 22.11776 ], [ 73.20583, 22.11749 ], [ 73.20611, 22.10875 ], [ 73.20504, 22.10248 ], [ 73.20398, 22.10118 ], [ 73.20211, 22.10118 ], [ 73.20203, 22.09963 ], [ 73.20094, 22.09834 ], [ 73.20014, 22.09878 ], [ 73.20121, 22.09063 ], [ 73.19631, 22.09028 ], [ 73.19561, 22.08982 ], [ 73.19603, 22.08624 ], [ 73.1911, 22.08477 ], [ 73.1912, 22.07923 ], [ 73.19481, 22.07586 ], [ 73.20041, 22.07658 ], [ 73.20653, 22.07395 ], [ 73.2104, 22.0748 ], [ 73.21388, 22.07192 ], [ 73.21723, 22.07242 ], [ 73.21733, 22.06834 ], [ 73.22047, 22.05732 ], [ 73.21911, 22.05455 ], [ 73.22025, 22.05121 ], [ 73.22048, 22.04559 ], [ 73.22515, 22.04603 ], [ 73.22719, 22.03731 ], [ 73.22047, 22.03543 ], [ 73.21904, 22.03371 ], [ 73.22071, 22.02625 ], [ 73.22196, 22.0254 ], [ 73.22211, 22.01615 ], [ 73.22501, 22.01633 ], [ 73.23381, 22.0192 ], [ 73.23923, 22.0193 ], [ 73.24379, 22.02171 ], [ 73.24635, 22.02169 ], [ 73.24751, 22.0146 ], [ 73.25025, 22.01428 ], [ 73.25283, 22.00661 ], [ 73.25341, 22.0024 ], [ 73.25082, 22.00183 ], [ 73.24246, 21.99654 ], [ 73.23809, 21.99107 ], [ 73.23873, 21.98336 ], [ 73.22913, 21.9809 ], [ 73.22735, 21.96375 ], [ 73.22475, 21.96104 ], [ 73.229, 21.95533 ], [ 73.23692, 21.95532 ], [ 73.23867, 21.95149 ], [ 73.24038, 21.95188 ], [ 73.24329, 21.95541 ], [ 73.24604, 21.95647 ], [ 73.24788, 21.95903 ], [ 73.25548, 21.96507 ], [ 73.25908, 21.95548 ], [ 73.25974, 21.94713 ], [ 73.25886, 21.94695 ], [ 73.25907, 21.94448 ], [ 73.26103, 21.93966 ], [ 73.26104, 21.93654 ], [ 73.25968, 21.93315 ], [ 73.25687, 21.93556 ], [ 73.25338, 21.93592 ], [ 73.24236, 21.93398 ], [ 73.23665, 21.93059 ], [ 73.23111, 21.92668 ], [ 73.22534, 21.9209 ], [ 73.22201, 21.91593 ], [ 73.22062, 21.91087 ], [ 73.22214, 21.90096 ], [ 73.22605, 21.89055 ], [ 73.2349, 21.87869 ], [ 73.23936, 21.87373 ], [ 73.24584, 21.86924 ], [ 73.24851, 21.86508 ], [ 73.24899, 21.85963 ], [ 73.24704, 21.85021 ], [ 73.24374, 21.8424 ], [ 73.24629, 21.84065 ], [ 73.2405, 21.83566 ], [ 73.23741, 21.83718 ], [ 73.22475, 21.8275 ], [ 73.21665, 21.82361 ], [ 73.20958, 21.82229 ], [ 73.2015, 21.82239 ], [ 73.18396, 21.83135 ], [ 73.15919, 21.85578 ], [ 73.15825, 21.85439 ], [ 73.14845, 21.85663 ], [ 73.14799, 21.85387 ], [ 73.14266, 21.85507 ], [ 73.14181, 21.85462 ], [ 73.1426, 21.86097 ], [ 73.14212, 21.86434 ], [ 73.1407, 21.86499 ], [ 73.14019, 21.86631 ], [ 73.13728, 21.86701 ], [ 73.13193, 21.86617 ], [ 73.13202, 21.8678 ], [ 73.13051, 21.87113 ], [ 73.12682, 21.87038 ], [ 73.12639, 21.87594 ], [ 73.12536, 21.87763 ], [ 73.11536, 21.87821 ], [ 73.10457, 21.87714 ], [ 73.10263, 21.87567 ], [ 73.09951, 21.87528 ], [ 73.0912, 21.87225 ], [ 73.09007, 21.87486 ], [ 73.08788, 21.87612 ], [ 73.08591, 21.88069 ], [ 73.0776, 21.87956 ], [ 73.07181, 21.87708 ], [ 73.05924, 21.8823 ], [ 73.05889, 21.88897 ], [ 73.06042, 21.89773 ], [ 73.0625, 21.90268 ], [ 73.06268, 21.91176 ], [ 73.08711, 21.91782 ], [ 73.09155, 21.92131 ], [ 73.09044, 21.92963 ], [ 73.07666, 21.92925 ], [ 73.07519, 21.93042 ], [ 73.07055, 21.92604 ], [ 73.06689, 21.92386 ], [ 73.06199, 21.92223 ], [ 73.05319, 21.92225 ], [ 73.04737, 21.9354 ], [ 73.04206, 21.93372 ], [ 73.04183, 21.93237 ], [ 73.04319, 21.9284 ], [ 73.03783, 21.92679 ], [ 73.03557, 21.9198 ], [ 73.0182, 21.91869 ], [ 73.0, 21.91084 ], [ 72.99714, 21.91752 ], [ 72.9963, 21.9223 ], [ 72.99504, 21.92235 ], [ 72.99388, 21.92706 ], [ 72.99528, 21.92762 ], [ 72.99491, 21.92836 ], [ 73.00036, 21.93105 ], [ 73.00048, 21.93328 ], [ 73.00222, 21.93446 ], [ 73.00215, 21.93574 ], [ 73.00893, 21.93836 ], [ 73.01329, 21.94138 ], [ 73.01596, 21.942 ], [ 73.02047, 21.94217 ], [ 73.02676, 21.93991 ], [ 73.04224, 21.93717 ], [ 73.04796, 21.9395 ], [ 73.04812, 21.94185 ], [ 73.04913, 21.94201 ], [ 73.05142, 21.94533 ], [ 73.05224, 21.94883 ], [ 73.05097, 21.95623 ], [ 73.05041, 21.9754 ], [ 73.04904, 21.97542 ], [ 73.04886, 21.97615 ], [ 73.04957, 21.97707 ], [ 73.05548, 21.97835 ], [ 73.05666, 21.97979 ], [ 73.06801, 21.98403 ], [ 73.06235, 22.0 ], [ 73.06232, 22.00304 ], [ 73.06412, 22.00371 ], [ 73.06325, 22.01661 ], [ 73.05276, 22.01394 ], [ 73.05287, 22.01293 ], [ 73.05036, 22.01237 ], [ 73.05055, 22.01117 ], [ 73.04942, 22.01023 ], [ 73.04984, 22.00833 ], [ 73.04939, 22.00735 ], [ 73.04796, 22.00693 ], [ 73.04801, 22.00336 ], [ 73.0436, 22.00461 ], [ 73.04255, 22.00328 ], [ 73.03237, 21.99737 ], [ 73.03023, 21.99669 ], [ 73.02826, 21.99773 ], [ 73.02651, 21.99549 ], [ 73.01951, 22.00263 ], [ 73.01802, 22.00249 ], [ 73.01478, 22.01128 ], [ 73.0108, 22.01016 ], [ 73.00902, 22.01717 ], [ 73.00053, 22.01825 ], [ 73.00011, 22.01955 ], [ 72.99787, 22.01902 ], [ 72.99767, 22.02025 ], [ 72.99614, 22.02015 ], [ 72.99526, 22.02474 ], [ 72.99412, 22.02601 ], [ 72.99225, 22.02739 ], [ 72.98928, 22.02771 ], [ 72.98759, 22.03427 ], [ 72.98726, 22.04022 ], [ 72.98549, 22.04343 ], [ 72.98454, 22.04812 ], [ 72.98569, 22.05207 ], [ 72.98673, 22.06239 ], [ 72.98786, 22.06266 ], [ 72.98941, 22.06645 ], [ 72.99028, 22.07353 ], [ 72.98527, 22.07455 ], [ 72.98759, 22.07925 ], [ 72.98503, 22.08035 ], [ 72.98793, 22.08498 ], [ 72.99015, 22.08594 ], [ 72.98706, 22.08619 ], [ 72.98589, 22.08815 ], [ 72.98937, 22.09036 ], [ 72.99318, 22.09082 ], [ 72.99472, 22.09347 ], [ 72.9933, 22.09492 ], [ 72.99213, 22.09931 ], [ 72.99, 22.09974 ], [ 72.98922, 22.10111 ], [ 72.98802, 22.10139 ], [ 72.98836, 22.10188 ], [ 72.98683, 22.10428 ], [ 72.98673, 22.10748 ], [ 72.98844, 22.10845 ], [ 72.98864, 22.11189 ], [ 72.98547, 22.11641 ], [ 72.98482, 22.11881 ], [ 72.98519, 22.11965 ], [ 72.9934, 22.12077 ], [ 72.99413, 22.1205 ], [ 72.99519, 22.11752 ], [ 72.99714, 22.11694 ], [ 73.01403, 22.11908 ], [ 73.01605, 22.11414 ], [ 73.01501, 22.11304 ], [ 73.01181, 22.11248 ], [ 73.01218, 22.10894 ], [ 73.01117, 22.10788 ], [ 73.01117, 22.10637 ], [ 73.00844, 22.10535 ], [ 73.00877, 22.10295 ], [ 73.00703, 22.10146 ], [ 73.01012, 22.10017 ], [ 73.01351, 22.10024 ], [ 73.01373, 22.09886 ], [ 73.01638, 22.09892 ], [ 73.01499, 22.09388 ], [ 73.01617, 22.09391 ], [ 73.01561, 22.09202 ], [ 73.01674, 22.09053 ], [ 73.02186, 22.09401 ], [ 73.02178, 22.09876 ], [ 73.0263, 22.10457 ], [ 73.02515, 22.1077 ], [ 73.02493, 22.11837 ], [ 73.02898, 22.11984 ], [ 73.03184, 22.1257 ], [ 73.03716, 22.12583 ], [ 73.03689, 22.12349 ], [ 73.038, 22.1231 ], [ 73.03933, 22.12014 ] ] ], [ [ [ 72.97133, 22.06591 ], [ 72.97355, 22.05855 ], [ 72.97479, 22.05033 ], [ 72.97288, 22.04908 ], [ 72.97035, 22.04998 ], [ 72.96725, 22.04809 ], [ 72.96013, 22.04631 ], [ 72.95902, 22.04715 ], [ 72.95897, 22.04991 ], [ 72.95434, 22.0511 ], [ 72.95372, 22.05279 ], [ 72.94967, 22.05214 ], [ 72.94612, 22.05404 ], [ 72.94782, 22.06224 ], [ 72.95125, 22.06243 ], [ 72.95586, 22.06596 ], [ 72.95482, 22.06762 ], [ 72.95401, 22.07191 ], [ 72.95913, 22.07247 ], [ 72.97026, 22.06975 ], [ 72.97204, 22.06838 ], [ 72.97133, 22.06591 ] ] ] ] } },
{ "type": "Feature", "properties": { "OBJECTID": 2079, "state_lgd": "24", "state_name": "GUJARAT", "district_lgd": "486", "district_name": "VADODARA", "district_name_source": "district_table", "subdistrict_lgd": "3906", "subdistrict_name": "PADRA", "subdistrict_type": "Taluk", "name_corrupted": false, "remarks": "", "label_lon": 72.993263540605184, "label_lat": 22.18712798696593 }, "geometry": { "type": "Polygon", "coordinates": [ [ [ 72.94892, 22.29282 ], [ 72.95047, 22.28497 ], [ 72.95056, 22.26979 ], [ 72.95171, 22.26331 ], [ 72.9682, 22.26279 ], [ 72.97453, 22.2541 ], [ 72.99195, 22.26078 ], [ 72.9976, 22.26402 ], [ 73.00601, 22.2661 ], [ 73.00924, 22.2677 ], [ 73.02699, 22.28569 ], [ 73.03306, 22.2937 ], [ 73.03668, 22.29713 ], [ 73.05181, 22.3043 ], [ 73.05948, 22.31067 ], [ 73.06101, 22.30742 ], [ 73.06239, 22.3065 ], [ 73.06544, 22.30936 ], [ 73.0666, 22.30794 ], [ 73.06811, 22.30772 ], [ 73.06805, 22.30698 ], [ 73.06591, 22.30296 ], [ 73.06614, 22.29881 ], [ 73.06491, 22.29755 ], [ 73.06504, 22.29589 ], [ 73.06403, 22.29526 ], [ 73.0703, 22.29081 ], [ 73.07501, 22.28945 ], [ 73.0784, 22.29015 ], [ 73.08201, 22.28824 ], [ 73.08183, 22.28519 ], [ 73.07971, 22.27919 ], [ 73.08097, 22.2697 ], [ 73.08823, 22.26685 ], [ 73.09214, 22.26789 ], [ 73.09918, 22.26608 ], [ 73.1014, 22.26073 ], [ 73.10028, 22.25828 ], [ 73.10233, 22.25222 ], [ 73.10497, 22.25239 ], [ 73.10801, 22.25146 ], [ 73.10786, 22.25057 ], [ 73.10961, 22.25 ], [ 73.11937, 22.25032 ], [ 73.12081, 22.24823 ], [ 73.12007, 22.24629 ], [ 73.12192, 22.24379 ], [ 73.1238, 22.23853 ], [ 73.13069, 22.2364 ], [ 73.13064, 22.22928 ], [ 73.13903, 22.2317 ], [ 73.13962, 22.22931 ], [ 73.14596, 22.22839 ], [ 73.1498, 22.22905 ], [ 73.15157, 22.23094 ], [ 73.15263, 22.23038 ], [ 73.1536, 22.22837 ], [ 73.15272, 22.22867 ], [ 73.15276, 22.22773 ], [ 73.15448, 22.2255 ], [ 73.15649, 22.22549 ], [ 73.15584, 22.22439 ], [ 73.15703, 22.22444 ], [ 73.15596, 22.22326 ], [ 73.15748, 22.22352 ], [ 73.15832, 22.22207 ], [ 73.15756, 22.22184 ], [ 73.15831, 22.21981 ], [ 73.16024, 22.21846 ], [ 73.15825, 22.21714 ], [ 73.15804, 22.21571 ], [ 73.16049, 22.21563 ], [ 73.15817, 22.21406 ], [ 73.15811, 22.21308 ], [ 73.15562, 22.21241 ], [ 73.15423, 22.20975 ], [ 73.15321, 22.20926 ], [ 73.15344, 22.20801 ], [ 73.15242, 22.20798 ], [ 73.15436, 22.1964 ], [ 73.15483, 22.18919 ], [ 73.1536, 22.18797 ], [ 73.15417, 22.18419 ], [ 73.1474, 22.18229 ], [ 73.14681, 22.18146 ], [ 73.14792, 22.18008 ], [ 73.14695, 22.17959 ], [ 73.14189, 22.17859 ], [ 73.13728, 22.18037 ], [ 73.1386, 22.17708 ], [ 73.13655, 22.17331 ], [ 73.1329, 22.17309 ], [ 73.13086, 22.17411 ], [ 73.12807, 22.17326 ], [ 73.12807, 22.17198 ], [ 73.13095, 22.16824 ], [ 73.12959, 22.16558 ], [ 73.13111, 22.16261 ], [ 73.13084, 22.16083 ], [ 73.12788, 22.16134 ], [ 73.12351, 22.16405 ], [ 73.12265, 22.16282 ], [ 73.12331, 22.15805 ], [ 73.11972, 22.15705 ], [ 73.11764, 22.15556 ], [ 73.11539, 22.15223 ], [ 73.11477, 22.14974 ], [ 73.11223, 22.14768 ], [ 73.11122, 22.14524 ], [ 73.10799, 22.14658 ], [ 73.10544, 22.14476 ], [ 73.10247, 22.14471 ], [ 73.10364, 22.13997 ], [ 73.10371, 22.13303 ], [ 73.10218, 22.13085 ], [ 73.09982, 22.13091 ], [ 73.09902, 22.12937 ], [ 73.09461, 22.12782 ], [ 73.09458, 22.12692 ], [ 73.08636, 22.12645 ], [ 73.08615, 22.12521 ], [ 73.08302, 22.1238 ], [ 73.0823, 22.12104 ], [ 73.08307, 22.11446 ], [ 73.07733, 22.10943 ], [ 73.07733, 22.10582 ], [ 73.07617, 22.10432 ], [ 73.07133, 22.10273 ], [ 73.06745, 22.10559 ], [ 73.06585, 22.10855 ], [ 73.059, 22.1075 ], [ 73.05812, 22.10864 ], [ 73.05623, 22.10877 ], [ 73.05338, 22.11081 ], [ 73.05107, 22.1099 ], [ 73.0522, 22.11401 ], [ 73.05398, 22.11571 ], [ 73.05155, 22.11603 ], [ 73.0518, 22.11686 ], [ 73.04912, 22.11701 ], [ 73.04689, 22.12426 ], [ 73.04374, 22.12346 ], [ 73.04189, 22.12087 ], [ 73.03933, 22.12014 ], [ 73.038, 22.1231 ], [ 73.03689, 22.12349 ], [ 73.03716, 22.12583 ], [ 73.03184, 22.1257 ], [ 73.02898, 22.11984 ], [ 73.02493, 22.11837 ], [ 73.02515, 22.1077 ], [ 73.0263, 22.10457 ], [ 73.02178, 22.09876 ], [ 73.02186, 22.09401 ], [ 73.01674, 22.09053 ], [ 73.01561, 22.09202 ], [ 73.01617, 22.09391 ], [ 73.01499, 22.09388 ], [ 73.01638, 22.09892 ], [ 73.01373, 22.09886 ], [ 73.01351, 22.10024 ], [ 73.01012, 22.10017 ], [ 73.00703, 22.10146 ], [ 73.00877, 22.10295 ], [ 73.00844, 22.10535 ], [ 73.01117, 22.10637 ], [ 73.01117, 22.10788 ], [ 73.01218, 22.10894 ], [ 73.01181, 22.11248 ], [ 73.01501, 22.11304 ], [ 73.01605, 22.11414 ], [ 73.01403, 22.11908 ], [ 72.99714, 22.11694 ], [ 72.99519, 22.11752 ], [ 72.99413, 22.1205 ], [ 72.9934, 22.12077 ], [ 72.98519, 22.11965 ], [ 72.98484, 22.11781 ], [ 72.98864, 22.11189 ], [ 72.98844, 22.10845 ], [ 72.98673, 22.10748 ], [ 72.98683, 22.10428 ], [ 72.98836, 22.10188 ], [ 72.98802, 22.10139 ], [ 72.98922, 22.10111 ], [ 72.99, 22.09974 ], [ 72.99213, 22.09931 ], [ 72.9933, 22.09492 ], [ 72.99472, 22.09347 ], [ 72.99318, 22.09082 ], [ 72.98937, 22.09036 ], [ 72.98589, 22.08815 ], [ 72.98706, 22.08619 ], [ 72.99015, 22.08594 ], [ 72.98793, 22.08498 ], [ 72.98561, 22.08176 ], [ 72.98506, 22.08001 ], [ 72.98759, 22.07925 ], [ 72.98527, 22.07455 ], [ 72.99028, 22.07353 ], [ 72.98941, 22.06645 ], [ 72.98786, 22.06266 ], [ 72.98673, 22.06239 ], [ 72.98462, 22.04793 ], [ 72.9805, 22.0485 ], [ 72.97926, 22.05259 ], [ 72.97722, 22.05082 ], [ 72.97524, 22.05118 ], [ 72.97479, 22.05033 ], [ 72.97355, 22.05855 ], [ 72.97133, 22.06516 ], [ 72.97204, 22.06838 ], [ 72.96799, 22.07061 ], [ 72.9571, 22.07247 ], [ 72.95401, 22.07191 ], [ 72.95482, 22.06762 ], [ 72.95586, 22.06596 ], [ 72.95125, 22.06243 ], [ 72.94782, 22.06224 ], [ 72.94612, 22.05404 ], [ 72.94, 22.05355 ], [ 72.9406, 22.04712 ], [ 72.93989, 22.04591 ], [ 72.93244, 22.04204 ], [ 72.93051, 22.04176 ], [ 72.92879, 22.04277 ], [ 72.92943, 22.04623 ], [ 72.92647, 22.04953 ], [ 72.92322, 22.04954 ], [ 72.91356, 22.04711 ], [ 72.91472, 22.04986 ], [ 72.9157, 22.04999 ], [ 72.91615, 22.05199 ], [ 72.91816, 22.0534 ], [ 72.91988, 22.05353 ], [ 72.91991, 22.05589 ], [ 72.92105, 22.0566 ], [ 72.92103, 22.0586 ], [ 72.92223, 22.06054 ], [ 72.91658, 22.06257 ], [ 72.91574, 22.06654 ], [ 72.90485, 22.06806 ], [ 72.90397, 22.07917 ], [ 72.90142, 22.08381 ], [ 72.89777, 22.09493 ], [ 72.88465, 22.09326 ], [ 72.87747, 22.10635 ], [ 72.877, 22.10892 ], [ 72.87394, 22.10995 ], [ 72.87387, 22.11117 ], [ 72.87188, 22.11244 ], [ 72.87343, 22.11433 ], [ 72.87198, 22.11601 ], [ 72.87494, 22.11728 ], [ 72.87691, 22.11678 ], [ 72.87825, 22.1186 ], [ 72.87986, 22.11902 ], [ 72.87465, 22.12678 ], [ 72.87459, 22.13418 ], [ 72.87364, 22.13929 ], [ 72.86639, 22.13885 ], [ 72.86388, 22.14086 ], [ 72.86383, 22.15163 ], [ 72.86291, 22.15519 ], [ 72.86657, 22.15827 ], [ 72.87441, 22.16201 ], [ 72.87631, 22.16203 ], [ 72.87946, 22.16537 ], [ 72.88225, 22.16593 ], [ 72.88578, 22.17207 ], [ 72.88667, 22.17205 ], [ 72.88754, 22.1703 ], [ 72.89037, 22.16017 ], [ 72.89629, 22.16269 ], [ 72.90272, 22.16207 ], [ 72.90353, 22.16374 ], [ 72.90715, 22.16374 ], [ 72.90713, 22.16482 ], [ 72.9102, 22.16503 ], [ 72.91255, 22.16293 ], [ 72.91354, 22.16376 ], [ 72.91247, 22.16584 ], [ 72.91437, 22.16787 ], [ 72.9212, 22.16809 ], [ 72.92394, 22.16942 ], [ 72.92679, 22.16912 ], [ 72.9292, 22.17158 ], [ 72.92818, 22.17819 ], [ 72.92624, 22.18129 ], [ 72.92681, 22.18609 ], [ 72.92335, 22.18766 ], [ 72.92218, 22.1926 ], [ 72.91966, 22.19323 ], [ 72.91641, 22.19212 ], [ 72.91508, 22.19242 ], [ 72.91419, 22.19094 ], [ 72.91071, 22.18878 ], [ 72.90563, 22.18886 ], [ 72.90374, 22.1871 ], [ 72.89836, 22.18729 ], [ 72.89598, 22.18015 ], [ 72.88477, 22.17425 ], [ 72.87682, 22.1814 ], [ 72.87752, 22.18315 ], [ 72.87658, 22.18871 ], [ 72.8776, 22.1901 ], [ 72.87535, 22.19622 ], [ 72.87711, 22.20586 ], [ 72.87244, 22.20671 ], [ 72.86975, 22.20987 ], [ 72.86883, 22.20952 ], [ 72.86889, 22.21556 ], [ 72.8576, 22.23204 ], [ 72.84887, 22.24784 ], [ 72.84922, 22.27498 ], [ 72.86859, 22.27462 ], [ 72.87226, 22.27315 ], [ 72.88305, 22.2655 ], [ 72.89146, 22.26106 ], [ 72.89639, 22.25979 ], [ 72.90688, 22.26083 ], [ 72.91297, 22.26308 ], [ 72.91671, 22.26763 ], [ 72.91696, 22.27431 ], [ 72.91611, 22.2787 ], [ 72.91127, 22.28785 ], [ 72.91071, 22.29143 ], [ 72.91324, 22.29744 ], [ 72.91657, 22.30092 ], [ 72.92623, 22.30597 ], [ 72.93239, 22.30673 ], [ 72.94008, 22.30575 ], [ 72.94488, 22.30271 ], [ 72.94892, 22.29282 ] ] ] } },
{ "type": "Feature", "properties": { "OBJECTID": 2106, "state_lgd": "24", "state_name": "GUJARAT", "district_lgd": "486", "district_name": "VADODARA", "district_name_source": "district_table", "subdistrict_lgd": "3897", "subdistrict_name": "SAVLI", "subdistrict_type": "Taluk", "name_corrupted": false, "remarks": "", "label_lon": 73.260340416625482, "label_lat": 22.531965616214592 }, "geometry": { "type": "Polygon", "coordinates": [ [ [ 73.33545, 22.65965 ], [ 73.34298, 22.65512 ], [ 73.34588, 22.65167 ], [ 73.34437, 22.64821 ], [ 73.34418, 22.64246 ], [ 73.34162, 22.63829 ], [ 73.34282, 22.6381 ], [ 73.34279, 22.63655 ], [ 73.34458, 22.63303 ], [ 73.34414, 22.63182 ], [ 73.34287, 22.63158 ], [ 73.34199, 22.62896 ], [ 73.34549, 22.62292 ], [ 73.3545, 22.62352 ], [ 73.35585, 22.625 ], [ 73.35789, 22.62495 ], [ 73.35802, 22.62412 ], [ 73.35936, 22.62377 ], [ 73.35891, 22.62612 ], [ 73.36047, 22.62751 ], [ 73.36797, 22.62701 ], [ 73.3744, 22.62534 ], [ 73.38322, 22.62721 ], [ 73.38452, 22.62659 ], [ 73.38489, 22.62456 ], [ 73.38774, 22.62172 ], [ 73.38716, 22.61787 ], [ 73.38874, 22.61674 ], [ 73.38876, 22.61244 ], [ 73.3884, 22.61172 ], [ 73.38305, 22.61168 ], [ 73.38151, 22.60414 ], [ 73.38138, 22.59697 ], [ 73.37943, 22.58863 ], [ 73.37792, 22.58567 ], [ 73.38191, 22.58208 ], [ 73.38277, 22.5793 ], [ 73.3793, 22.5705 ], [ 73.37199, 22.55638 ], [ 73.38439, 22.55568 ], [ 73.39168, 22.55199 ], [ 73.39884, 22.55184 ], [ 73.4052, 22.55365 ], [ 73.4099, 22.55346 ], [ 73.41047, 22.55414 ], [ 73.41401, 22.55371 ], [ 73.41827, 22.55095 ], [ 73.41792, 22.54913 ], [ 73.41898, 22.5477 ], [ 73.42124, 22.54679 ], [ 73.41825, 22.53867 ], [ 73.41783, 22.53364 ], [ 73.41128, 22.52512 ], [ 73.4132, 22.52404 ], [ 73.41454, 22.52162 ], [ 73.41363, 22.52019 ], [ 73.41392, 22.51925 ], [ 73.41479, 22.51914 ], [ 73.41427, 22.51827 ], [ 73.41478, 22.51765 ], [ 73.4138, 22.51708 ], [ 73.41321, 22.51805 ], [ 73.41115, 22.5166 ], [ 73.41125, 22.51525 ], [ 73.41203, 22.51506 ], [ 73.41024, 22.51468 ], [ 73.40931, 22.51224 ], [ 73.4083, 22.51174 ], [ 73.40848, 22.51053 ], [ 73.407, 22.5096 ], [ 73.40725, 22.5086 ], [ 73.4053, 22.50713 ], [ 73.40685, 22.50653 ], [ 73.40702, 22.50592 ], [ 73.40425, 22.50444 ], [ 73.40422, 22.50192 ], [ 73.4021, 22.50055 ], [ 73.40252, 22.49955 ], [ 73.40133, 22.49787 ], [ 73.40007, 22.499 ], [ 73.39938, 22.49868 ], [ 73.4003, 22.49705 ], [ 73.39895, 22.49654 ], [ 73.3999, 22.49409 ], [ 73.39683, 22.49477 ], [ 73.39627, 22.49295 ], [ 73.39436, 22.49305 ], [ 73.39271, 22.49414 ], [ 73.39213, 22.49291 ], [ 73.39072, 22.49397 ], [ 73.39053, 22.49564 ], [ 73.38897, 22.49662 ], [ 73.37004, 22.49177 ], [ 73.36896, 22.486 ], [ 73.36724, 22.48285 ], [ 73.36707, 22.47967 ], [ 73.36033, 22.47697 ], [ 73.35975, 22.47442 ], [ 73.35838, 22.47402 ], [ 73.35773, 22.4725 ], [ 73.35414, 22.47366 ], [ 73.3567, 22.4708 ], [ 73.35782, 22.47123 ], [ 73.3568, 22.4681 ], [ 73.35816, 22.46625 ], [ 73.35795, 22.46498 ], [ 73.35653, 22.46411 ], [ 73.35678, 22.46301 ], [ 73.35447, 22.46317 ], [ 73.3549, 22.46136 ], [ 73.35281, 22.46128 ], [ 73.35242, 22.46024 ], [ 73.35333, 22.45939 ], [ 73.35063, 22.45857 ], [ 73.35014, 22.45687 ], [ 73.35161, 22.456 ], [ 73.35121, 22.45421 ], [ 73.35295, 22.45366 ], [ 73.35206, 22.4533 ], [ 73.35144, 22.45157 ], [ 73.34896, 22.45338 ], [ 73.3483, 22.45193 ], [ 73.3495, 22.45213 ], [ 73.34916, 22.45074 ], [ 73.34624, 22.44918 ], [ 73.34258, 22.44931 ], [ 73.34237, 22.44772 ], [ 73.34156, 22.44735 ], [ 73.33344, 22.45181 ], [ 73.33006, 22.44985 ], [ 73.32765, 22.45157 ], [ 73.32304, 22.45024 ], [ 73.32115, 22.45127 ], [ 73.31746, 22.44971 ], [ 73.3164, 22.4477 ], [ 73.3125, 22.44846 ], [ 73.31198, 22.4494 ], [ 73.30996, 22.44766 ], [ 73.30823, 22.44766 ], [ 73.30738, 22.44553 ], [ 73.30509, 22.44434 ], [ 73.30561, 22.44312 ], [ 73.30178, 22.44247 ], [ 73.28848, 22.44264 ], [ 73.28732, 22.44152 ], [ 73.28516, 22.44135 ], [ 73.28507, 22.44059 ], [ 73.28377, 22.44082 ], [ 73.28396, 22.43914 ], [ 73.28299, 22.4391 ], [ 73.2823, 22.43752 ], [ 73.28193, 22.43242 ], [ 73.28047, 22.4309 ], [ 73.27676, 22.42948 ], [ 73.27691, 22.42792 ], [ 73.27484, 22.42579 ], [ 73.27532, 22.42455 ], [ 73.25849, 22.42441 ], [ 73.24878, 22.41442 ], [ 73.22461, 22.40646 ], [ 73.21563, 22.40677 ], [ 73.21452, 22.40602 ], [ 73.21259, 22.40786 ], [ 73.21237, 22.41567 ], [ 73.21381, 22.41837 ], [ 73.2137, 22.42656 ], [ 73.21466, 22.42896 ], [ 73.21624, 22.43038 ], [ 73.21624, 22.43163 ], [ 73.2185, 22.4321 ], [ 73.21839, 22.43465 ], [ 73.20831, 22.43383 ], [ 73.1921, 22.42751 ], [ 73.18685, 22.426 ], [ 73.18549, 22.42694 ], [ 73.18074, 22.42552 ], [ 73.17902, 22.43024 ], [ 73.1707, 22.43292 ], [ 73.17033, 22.4352 ], [ 73.16891, 22.43713 ], [ 73.16948, 22.43843 ], [ 73.17098, 22.43848 ], [ 73.17107, 22.44218 ], [ 73.1646, 22.44176 ], [ 73.16409, 22.441 ], [ 73.16253, 22.44226 ], [ 73.16373, 22.44259 ], [ 73.16473, 22.44416 ], [ 73.16386, 22.44574 ], [ 73.16369, 22.44956 ], [ 73.16409, 22.45037 ], [ 73.16599, 22.45086 ], [ 73.16443, 22.45256 ], [ 73.1646, 22.4583 ], [ 73.16276, 22.45894 ], [ 73.16157, 22.46047 ], [ 73.14747, 22.45952 ], [ 73.14719, 22.45791 ], [ 73.14541, 22.45585 ], [ 73.14485, 22.45087 ], [ 73.14215, 22.44765 ], [ 73.13443, 22.45028 ], [ 73.12523, 22.4476 ], [ 73.12654, 22.46265 ], [ 73.12449, 22.46846 ], [ 73.12105, 22.46687 ], [ 73.11329, 22.46523 ], [ 73.1071, 22.46551 ], [ 73.10645, 22.46709 ], [ 73.10438, 22.46549 ], [ 73.10262, 22.46527 ], [ 73.10157, 22.46611 ], [ 73.09684, 22.46546 ], [ 73.09359, 22.46594 ], [ 73.0899, 22.47972 ], [ 73.08765, 22.4961 ], [ 73.08788, 22.50274 ], [ 73.09046, 22.50558 ], [ 73.09174, 22.51025 ], [ 73.09358, 22.51163 ], [ 73.09703, 22.51175 ], [ 73.09996, 22.51555 ], [ 73.10474, 22.51433 ], [ 73.1118, 22.51472 ], [ 73.12136, 22.51755 ], [ 73.12502, 22.5204 ], [ 73.13508, 22.52426 ], [ 73.13735, 22.52614 ], [ 73.14218, 22.53433 ], [ 73.15025, 22.55206 ], [ 73.15357, 22.56563 ], [ 73.15296, 22.57417 ], [ 73.15383, 22.58481 ], [ 73.1562, 22.58884 ], [ 73.15799, 22.58988 ], [ 73.1597, 22.59225 ], [ 73.18455, 22.60249 ], [ 73.18942, 22.60251 ], [ 73.19129, 22.60322 ], [ 73.19297, 22.60536 ], [ 73.19432, 22.60971 ], [ 73.20034, 22.61744 ], [ 73.20766, 22.62001 ], [ 73.216, 22.62028 ], [ 73.21882, 22.62125 ], [ 73.21976, 22.62304 ], [ 73.21971, 22.62603 ], [ 73.22807, 22.63491 ], [ 73.23571, 22.64159 ], [ 73.23859, 22.64533 ], [ 73.26125, 22.65758 ], [ 73.26521, 22.65542 ], [ 73.26816, 22.64622 ], [ 73.27386, 22.64457 ], [ 73.27627, 22.64251 ], [ 73.28293, 22.64082 ], [ 73.28507, 22.63839 ], [ 73.28851, 22.63647 ], [ 73.2915, 22.63758 ], [ 73.29441, 22.64049 ], [ 73.29909, 22.64311 ], [ 73.30196, 22.64705 ], [ 73.30179, 22.65096 ], [ 73.30275, 22.65521 ], [ 73.30551, 22.65681 ], [ 73.30858, 22.65801 ], [ 73.30916, 22.65742 ], [ 73.31104, 22.65782 ], [ 73.3142, 22.6561 ], [ 73.31616, 22.65639 ], [ 73.31821, 22.65562 ], [ 73.31816, 22.65476 ], [ 73.31896, 22.65526 ], [ 73.32285, 22.65246 ], [ 73.32476, 22.65293 ], [ 73.32298, 22.65406 ], [ 73.32341, 22.65504 ], [ 73.32532, 22.65506 ], [ 73.32535, 22.65577 ], [ 73.32906, 22.65528 ], [ 73.32976, 22.65685 ], [ 73.33187, 22.65728 ], [ 73.33379, 22.65913 ], [ 73.33545, 22.65965 ] ] ] } },
{ "type": "Feature", "properties": { "OBJECTID": 2113, "state_lgd": "24", "state_name": "GUJARAT", "district_lgd": "486", "district_name": "VADODARA", "district_name_source": "district_table", "subdistrict_lgd": "3908", "subdistrict_name": "SINOR", "subdistrict_type": "Taluk", "name_corrupted": false, "remarks": "", "label_lon": 73.33557470028444, "label_lat": 21.976139359001717 }, "geometry": { "type": "Polygon", "coordinates": [ [ [ 73.33772, 22.05812 ], [ 73.33769, 22.05173 ], [ 73.3516, 22.05536 ], [ 73.36638, 22.058 ], [ 73.36525, 22.05423 ], [ 73.3658, 22.04893 ], [ 73.36951, 22.04959 ], [ 73.37028, 22.04804 ], [ 73.37181, 22.04778 ], [ 73.37203, 22.04631 ], [ 73.37362, 22.04448 ], [ 73.37752, 22.04471 ], [ 73.3791, 22.04519 ], [ 73.37951, 22.04667 ], [ 73.38438, 22.04717 ], [ 73.38482, 22.04565 ], [ 73.38977, 22.04609 ], [ 73.39178, 22.04338 ], [ 73.39918, 22.04608 ], [ 73.40362, 22.04563 ], [ 73.40461, 22.04198 ], [ 73.40734, 22.04034 ], [ 73.40742, 22.03882 ], [ 73.40839, 22.03834 ], [ 73.40796, 22.03483 ], [ 73.40677, 22.03495 ], [ 73.40686, 22.03327 ], [ 73.42905, 22.03327 ], [ 73.4326, 22.02323 ], [ 73.42808, 22.01752 ], [ 73.42575, 22.01736 ], [ 73.42299, 22.01221 ], [ 73.42471, 22.00463 ], [ 73.42339, 22.00072 ], [ 73.42046, 21.99736 ], [ 73.41709, 21.99614 ], [ 73.41721, 21.9951 ], [ 73.41471, 21.99555 ], [ 73.41393, 21.99369 ], [ 73.41398, 21.99305 ], [ 73.41812, 21.99147 ], [ 73.4193, 21.99233 ], [ 73.42267, 21.98987 ], [ 73.41873, 21.98921 ], [ 73.41181, 21.99016 ], [ 73.41192, 21.98619 ], [ 73.41525, 21.98576 ], [ 73.41523, 21.98405 ], [ 73.41309, 21.98418 ], [ 73.41186, 21.98067 ], [ 73.41356, 21.97197 ], [ 73.41663, 21.97162 ], [ 73.41675, 21.9634 ], [ 73.42999, 21.96664 ], [ 73.43902, 21.96509 ], [ 73.43999, 21.96434 ], [ 73.44041, 21.95478 ], [ 73.44288, 21.94162 ], [ 73.44251, 21.93805 ], [ 73.43787, 21.92574 ], [ 73.42946, 21.91778 ], [ 73.42354, 21.91375 ], [ 73.41924, 21.91122 ], [ 73.41365, 21.90983 ], [ 73.40476, 21.91022 ], [ 73.39768, 21.91263 ], [ 73.3834, 21.92186 ], [ 73.3799, 21.92648 ], [ 73.37632, 21.92945 ], [ 73.37134, 21.93063 ], [ 73.3646, 21.93094 ], [ 73.35957, 21.93018 ], [ 73.35535, 21.92836 ], [ 73.34895, 21.92319 ], [ 73.34623, 21.91926 ], [ 73.34452, 21.91448 ], [ 73.34371, 21.90626 ], [ 73.34678, 21.88438 ], [ 73.34636, 21.88066 ], [ 73.34499, 21.87807 ], [ 73.34278, 21.87623 ], [ 73.33848, 21.87477 ], [ 73.33361, 21.8743 ], [ 73.32777, 21.87493 ], [ 73.31437, 21.88058 ], [ 73.29747, 21.89086 ], [ 73.28311, 21.90116 ], [ 73.27886, 21.90508 ], [ 73.27802, 21.90619 ], [ 73.27743, 21.91384 ], [ 73.26792, 21.92318 ], [ 73.26497, 21.9284 ], [ 73.25968, 21.93315 ], [ 73.26124, 21.93766 ], [ 73.25907, 21.94448 ], [ 73.25886, 21.94695 ], [ 73.25974, 21.94713 ], [ 73.25908, 21.95548 ], [ 73.25548, 21.96507 ], [ 73.24788, 21.95903 ], [ 73.24604, 21.95647 ], [ 73.24329, 21.95541 ], [ 73.24038, 21.95188 ], [ 73.23867, 21.95149 ], [ 73.23692, 21.95532 ], [ 73.229, 21.95533 ], [ 73.22475, 21.96104 ], [ 73.22735, 21.96375 ], [ 73.22913, 21.9809 ], [ 73.23873, 21.98336 ], [ 73.23809, 21.99107 ], [ 73.24246, 21.99654 ], [ 73.25082, 22.00183 ], [ 73.25341, 22.0024 ], [ 73.25283, 22.00661 ], [ 73.25025, 22.01428 ], [ 73.24751, 22.0146 ], [ 73.24635, 22.02169 ], [ 73.24444, 22.02184 ], [ 73.2434, 22.02853 ], [ 73.24267, 22.02872 ], [ 73.24248, 22.03002 ], [ 73.23922, 22.0293 ], [ 73.23714, 22.03611 ], [ 73.23694, 22.04083 ], [ 73.24776, 22.04075 ], [ 73.24697, 22.03939 ], [ 73.24749, 22.03743 ], [ 73.2496, 22.03346 ], [ 73.25116, 22.03233 ], [ 73.25446, 22.03141 ], [ 73.26422, 22.03216 ], [ 73.27164, 22.03532 ], [ 73.27515, 22.03591 ], [ 73.27361, 22.04811 ], [ 73.27524, 22.05091 ], [ 73.28357, 22.05312 ], [ 73.29378, 22.05342 ], [ 73.29668, 22.05191 ], [ 73.30375, 22.05325 ], [ 73.31503, 22.05361 ], [ 73.31745, 22.05436 ], [ 73.31774, 22.05635 ], [ 73.3198, 22.05525 ], [ 73.32379, 22.05585 ], [ 73.32547, 22.05634 ], [ 73.32541, 22.05741 ], [ 73.33615, 22.06152 ], [ 73.33715, 22.06132 ], [ 73.33691, 22.05972 ], [ 73.33772, 22.05812 ] ] ] } },
{ "type": "Feature", "properties": { "OBJECTID": 2140, "state_lgd": "24", "state_name": "GUJARAT", "district_lgd": "486", "district_name": "VADODARA", "district_name_source": "district_table", "subdistrict_lgd": "3898", "subdistrict_name": "VADODARA", "subdistrict_type": "Taluk", "name_corrupted": false, "remarks": "", "label_lon": 73.177332487678413, "label_lat": 22.284669880895915 }, "geometry": { "type": "Polygon", "coordinates": [ [ [ 73.12449, 22.46846 ], [ 73.12654, 22.46265 ], [ 73.12523, 22.4476 ], [ 73.13443, 22.45028 ], [ 73.13818, 22.44864 ], [ 73.14274, 22.44793 ], [ 73.14485, 22.45087 ], [ 73.14541, 22.45585 ], [ 73.14804, 22.45977 ], [ 73.16134, 22.4605 ], [ 73.1646, 22.4583 ], [ 73.16443, 22.45256 ], [ 73.16599, 22.45086 ], [ 73.16409, 22.45037 ], [ 73.16369, 22.44956 ], [ 73.16386, 22.44574 ], [ 73.16473, 22.44416 ], [ 73.16373, 22.44259 ], [ 73.16253, 22.44226 ], [ 73.16409, 22.441 ], [ 73.1646, 22.44176 ], [ 73.17107, 22.44218 ], [ 73.17098, 22.43848 ], [ 73.16948, 22.43843 ], [ 73.16891, 22.43713 ], [ 73.17033, 22.4352 ], [ 73.1707, 22.43292 ], [ 73.17902, 22.43024 ], [ 73.17992, 22.42914 ], [ 73.18026, 22.42567 ], [ 73.18549, 22.42694 ], [ 73.18685, 22.426 ], [ 73.1921, 22.42751 ], [ 73.20831, 22.43383 ], [ 73.21839, 22.43465 ], [ 73.2185, 22.4321 ], [ 73.21624, 22.43163 ], [ 73.21624, 22.43038 ], [ 73.21466, 22.42896 ], [ 73.2137, 22.42656 ], [ 73.21381, 22.41837 ], [ 73.21237, 22.41567 ], [ 73.21259, 22.40786 ], [ 73.21452, 22.40602 ], [ 73.21563, 22.40677 ], [ 73.22461, 22.40646 ], [ 73.24932, 22.41477 ], [ 73.24565, 22.40224 ], [ 73.24805, 22.38592 ], [ 73.24882, 22.38489 ], [ 73.2499, 22.38492 ], [ 73.24913, 22.38363 ], [ 73.24961, 22.38323 ], [ 73.25166, 22.38316 ], [ 73.25056, 22.3845 ], [ 73.2526, 22.38437 ], [ 73.25306, 22.38507 ], [ 73.25554, 22.38387 ], [ 73.25705, 22.38472 ], [ 73.2605, 22.3828 ], [ 73.26404, 22.38325 ], [ 73.26497, 22.38084 ], [ 73.26428, 22.37778 ], [ 73.26333, 22.37775 ], [ 73.26047, 22.37188 ], [ 73.26168, 22.36408 ], [ 73.26341, 22.36217 ], [ 73.26293, 22.35986 ], [ 73.26195, 22.35979 ], [ 73.2621, 22.35854 ], [ 73.2633, 22.3589 ], [ 73.26339, 22.35712 ], [ 73.26393, 22.35725 ], [ 73.26378, 22.35489 ], [ 73.26726, 22.35366 ], [ 73.26666, 22.35221 ], [ 73.27428, 22.35738 ], [ 73.28093, 22.35685 ], [ 73.28162, 22.35515 ], [ 73.28385, 22.35613 ], [ 73.28636, 22.35159 ], [ 73.27701, 22.34801 ], [ 73.27732, 22.34189 ], [ 73.27189, 22.34242 ], [ 73.26096, 22.34041 ], [ 73.25892, 22.33886 ], [ 73.25543, 22.33848 ], [ 73.25638, 22.33358 ], [ 73.25777, 22.33146 ], [ 73.26438, 22.33201 ], [ 73.26509, 22.33102 ], [ 73.27293, 22.33635 ], [ 73.27361, 22.33558 ], [ 73.2712, 22.33361 ], [ 73.27208, 22.32454 ], [ 73.25823, 22.32081 ], [ 73.25801, 22.31677 ], [ 73.25601, 22.31363 ], [ 73.2582, 22.31347 ], [ 73.25824, 22.31248 ], [ 73.25918, 22.31248 ], [ 73.25919, 22.31351 ], [ 73.26061, 22.31343 ], [ 73.26002, 22.31593 ], [ 73.26275, 22.31637 ], [ 73.26419, 22.31564 ], [ 73.26493, 22.3175 ], [ 73.26564, 22.3176 ], [ 73.2668, 22.3147 ], [ 73.26878, 22.31642 ], [ 73.2694, 22.31643 ], [ 73.26926, 22.31521 ], [ 73.27106, 22.31591 ], [ 73.27103, 22.31519 ], [ 73.27167, 22.31525 ], [ 73.27064, 22.31205 ], [ 73.2722, 22.30824 ], [ 73.27346, 22.30774 ], [ 73.2724, 22.30646 ], [ 73.27242, 22.30335 ], [ 73.27035, 22.30209 ], [ 73.27039, 22.30036 ], [ 73.27462, 22.2985 ], [ 73.27543, 22.29624 ], [ 73.27842, 22.29669 ], [ 73.27687, 22.28883 ], [ 73.27757, 22.27913 ], [ 73.27888, 22.27957 ], [ 73.27899, 22.27632 ], [ 73.29202, 22.27077 ], [ 73.29163, 22.27291 ], [ 73.29332, 22.27256 ], [ 73.29224, 22.27363 ], [ 73.29314, 22.27437 ], [ 73.29212, 22.27467 ], [ 73.29189, 22.27564 ], [ 73.29497, 22.27806 ], [ 73.29687, 22.27813 ], [ 73.30085, 22.27339 ], [ 73.29885, 22.27092 ], [ 73.29933, 22.26583 ], [ 73.30273, 22.26553 ], [ 73.3023, 22.25917 ], [ 73.30301, 22.25915 ], [ 73.30623, 22.24553 ], [ 73.3071, 22.24466 ], [ 73.30562, 22.2446 ], [ 73.30638, 22.24374 ], [ 73.30403, 22.24406 ], [ 73.30509, 22.24541 ], [ 73.30444, 22.2458 ], [ 73.30276, 22.24489 ], [ 73.30286, 22.24401 ], [ 73.30183, 22.24452 ], [ 73.30127, 22.24345 ], [ 73.30113, 22.2442 ], [ 73.30009, 22.24378 ], [ 73.29773, 22.24483 ], [ 73.29739, 22.24353 ], [ 73.29612, 22.24416 ], [ 73.2971, 22.24246 ], [ 73.2959, 22.24246 ], [ 73.29603, 22.24131 ], [ 73.29376, 22.2437 ], [ 73.29418, 22.24174 ], [ 73.29293, 22.24154 ], [ 73.29288, 22.24053 ], [ 73.29876, 22.23557 ], [ 73.30555, 22.23551 ], [ 73.3114, 22.23292 ], [ 73.30933, 22.22322 ], [ 73.30829, 22.22298 ], [ 73.30722, 22.22406 ], [ 73.30722, 22.22339 ], [ 73.30604, 22.2237 ], [ 73.30482, 22.22276 ], [ 73.30407, 22.22371 ], [ 73.30469, 22.22475 ], [ 73.30341, 22.22351 ], [ 73.30258, 22.22444 ], [ 73.30081, 22.22359 ], [ 73.29888, 22.22419 ], [ 73.29773, 22.22398 ], [ 73.29805, 22.2231 ], [ 73.29571, 22.22131 ], [ 73.29517, 22.22209 ], [ 73.29623, 22.22521 ], [ 73.29564, 22.22616 ], [ 73.29472, 22.22572 ], [ 73.29513, 22.22732 ], [ 73.29393, 22.22714 ], [ 73.29349, 22.22607 ], [ 73.2916, 22.22763 ], [ 73.28557, 22.22689 ], [ 73.28347, 22.22525 ], [ 73.27589, 22.22381 ], [ 73.27603, 22.22252 ], [ 73.27371, 22.22177 ], [ 73.26802, 22.22211 ], [ 73.2661, 22.22041 ], [ 73.2627, 22.21976 ], [ 73.2631, 22.21345 ], [ 73.25971, 22.21423 ], [ 73.26332, 22.2124 ], [ 73.26334, 22.20676 ], [ 73.2619, 22.2056 ], [ 73.26237, 22.20492 ], [ 73.26098, 22.19884 ], [ 73.26286, 22.19639 ], [ 73.26478, 22.19614 ], [ 73.2657, 22.1867 ], [ 73.26665, 22.18609 ], [ 73.2664, 22.18479 ], [ 73.26822, 22.18303 ], [ 73.26896, 22.17817 ], [ 73.27141, 22.17465 ], [ 73.27469, 22.17573 ], [ 73.28085, 22.17165 ], [ 73.28257, 22.1719 ], [ 73.28409, 22.16857 ], [ 73.28344, 22.16733 ], [ 73.28423, 22.16709 ], [ 73.28493, 22.16352 ], [ 73.28628, 22.16349 ], [ 73.28811, 22.16115 ], [ 73.28813, 22.15675 ], [ 73.28942, 22.15255 ], [ 73.28867, 22.15173 ], [ 73.28945, 22.1501 ], [ 73.28811, 22.15003 ], [ 73.28818, 22.14298 ], [ 73.28684, 22.14171 ], [ 73.28105, 22.14096 ], [ 73.2764, 22.13865 ], [ 73.27592, 22.13271 ], [ 73.26789, 22.13035 ], [ 73.26098, 22.1306 ], [ 73.26235, 22.1296 ], [ 73.26438, 22.12505 ], [ 73.26524, 22.11887 ], [ 73.26934, 22.11761 ], [ 73.27451, 22.11767 ], [ 73.27771, 22.11685 ], [ 73.28038, 22.11443 ], [ 73.2795, 22.11414 ], [ 73.27891, 22.1111 ], [ 73.27267, 22.10831 ], [ 73.26951, 22.10566 ], [ 73.26815, 22.10594 ], [ 73.26317, 22.11434 ], [ 73.2525, 22.11539 ], [ 73.25247, 22.11638 ], [ 73.24939, 22.11723 ], [ 73.24382, 22.11767 ], [ 73.24352, 22.1194 ], [ 73.23684, 22.11869 ], [ 73.23396, 22.11737 ], [ 73.21422, 22.11841 ], [ 73.1977, 22.11699 ], [ 73.19482, 22.11751 ], [ 73.19037, 22.12075 ], [ 73.18659, 22.12125 ], [ 73.18308, 22.11784 ], [ 73.18097, 22.11693 ], [ 73.18103, 22.11613 ], [ 73.1792, 22.11518 ], [ 73.17829, 22.11363 ], [ 73.17647, 22.11282 ], [ 73.17703, 22.11043 ], [ 73.17392, 22.10463 ], [ 73.17056, 22.10495 ], [ 73.16904, 22.10281 ], [ 73.16935, 22.10183 ], [ 73.16733, 22.10183 ], [ 73.16743, 22.10086 ], [ 73.16558, 22.10008 ], [ 73.16624, 22.09777 ], [ 73.16558, 22.0967 ], [ 73.16577, 22.09211 ], [ 73.16441, 22.09154 ], [ 73.16481, 22.09047 ], [ 73.16016, 22.08936 ], [ 73.15492, 22.09179 ], [ 73.15385, 22.09048 ], [ 73.15259, 22.09131 ], [ 73.15188, 22.09062 ], [ 73.15117, 22.0918 ], [ 73.14865, 22.09132 ], [ 73.1481, 22.09263 ], [ 73.14874, 22.09421 ], [ 73.14723, 22.09435 ], [ 73.14799, 22.09572 ], [ 73.14551, 22.09616 ], [ 73.14371, 22.09798 ], [ 73.1396, 22.0989 ], [ 73.13851, 22.10075 ], [ 73.1334, 22.10275 ], [ 73.13275, 22.10507 ], [ 73.13018, 22.10746 ], [ 73.12718, 22.10857 ], [ 73.12712, 22.1101 ], [ 73.12517, 22.10968 ], [ 73.11832, 22.11187 ], [ 73.11784, 22.11319 ], [ 73.11449, 22.11514 ], [ 73.11386, 22.11371 ], [ 73.10929, 22.11251 ], [ 73.10764, 22.11384 ], [ 73.1041, 22.11478 ], [ 73.09865, 22.11277 ], [ 73.09854, 22.11446 ], [ 73.09581, 22.11429 ], [ 73.09493, 22.11848 ], [ 73.09567, 22.12833 ], [ 73.09812, 22.12881 ], [ 73.09982, 22.13091 ], [ 73.10218, 22.13085 ], [ 73.10395, 22.1338 ], [ 73.1036, 22.14035 ], [ 73.10247, 22.14471 ], [ 73.10544, 22.14476 ], [ 73.10799, 22.14658 ], [ 73.11122, 22.14524 ], [ 73.11223, 22.14768 ], [ 73.11477, 22.14974 ], [ 73.11539, 22.15223 ], [ 73.11764, 22.15556 ], [ 73.11972, 22.15705 ], [ 73.12331, 22.15805 ], [ 73.12265, 22.16282 ], [ 73.12351, 22.16405 ], [ 73.12788, 22.16134 ], [ 73.13084, 22.16083 ], [ 73.13111, 22.16261 ], [ 73.12959, 22.16558 ], [ 73.13095, 22.16824 ], [ 73.12788, 22.17296 ], [ 73.13086, 22.17411 ], [ 73.1329, 22.17309 ], [ 73.13655, 22.17331 ], [ 73.1386, 22.17708 ], [ 73.13728, 22.18037 ], [ 73.14189, 22.17859 ], [ 73.14695, 22.17959 ], [ 73.14792, 22.18008 ], [ 73.14681, 22.18146 ], [ 73.1474, 22.18229 ], [ 73.15417, 22.18419 ], [ 73.1536, 22.18797 ], [ 73.15483, 22.18919 ], [ 73.15436, 22.1964 ], [ 73.15242, 22.20798 ], [ 73.15344, 22.20801 ], [ 73.15321, 22.20926 ], [ 73.15423, 22.20975 ], [ 73.15562, 22.21241 ], [ 73.15811, 22.21308 ], [ 73.15839, 22.21426 ], [ 73.16041, 22.21511 ], [ 73.15985, 22.21605 ], [ 73.15815, 22.21554 ], [ 73.158, 22.21644 ], [ 73.16024, 22.21846 ], [ 73.15831, 22.21981 ], [ 73.15756, 22.22184 ], [ 73.15832, 22.22207 ], [ 73.15748, 22.22352 ], [ 73.15596, 22.22326 ], [ 73.15703, 22.22444 ], [ 73.15584, 22.22439 ], [ 73.15649, 22.22549 ], [ 73.15448, 22.2255 ], [ 73.15314, 22.22715 ], [ 73.15272, 22.22867 ], [ 73.1536, 22.22837 ], [ 73.1534, 22.22945 ], [ 73.15187, 22.23087 ], [ 73.1498, 22.22905 ], [ 73.14596, 22.22839 ], [ 73.13962, 22.22931 ], [ 73.13903, 22.2317 ], [ 73.13064, 22.22928 ], [ 73.13069, 22.2364 ], [ 73.1238, 22.23853 ], [ 73.12192, 22.24379 ], [ 73.12007, 22.24629 ], [ 73.12081, 22.24823 ], [ 73.11937, 22.25032 ], [ 73.10961, 22.25 ], [ 73.10786, 22.25057 ], [ 73.10801, 22.25146 ], [ 73.10497, 22.25239 ], [ 73.10233, 22.25222 ], [ 73.10028, 22.25828 ], [ 73.1014, 22.26073 ], [ 73.09918, 22.26608 ], [ 73.09214, 22.26789 ], [ 73.08823, 22.26685 ], [ 73.08097, 22.2697 ], [ 73.07971, 22.27919 ], [ 73.08183, 22.28519 ], [ 73.08201, 22.28824 ], [ 73.0784, 22.29015 ], [ 73.07501, 22.28945 ], [ 73.0703, 22.29081 ], [ 73.06403, 22.29526 ], [ 73.06504, 22.29589 ], [ 73.06491, 22.29755 ], [ 73.06614, 22.29881 ], [ 73.06591, 22.30296 ], [ 73.06761, 22.30512 ], [ 73.06811, 22.30772 ], [ 73.0666, 22.30794 ], [ 73.06544, 22.30936 ], [ 73.06239, 22.3065 ], [ 73.06101, 22.30742 ], [ 73.05948, 22.31067 ], [ 73.06273, 22.31602 ], [ 73.06363, 22.32044 ], [ 73.05335, 22.33938 ], [ 73.04678, 22.35891 ], [ 73.04676, 22.36278 ], [ 73.04815, 22.36685 ], [ 73.05273, 22.37337 ], [ 73.05744, 22.37577 ], [ 73.06797, 22.38527 ], [ 73.07297, 22.39706 ], [ 73.07278, 22.4004 ], [ 73.06819, 22.41038 ], [ 73.06468, 22.42426 ], [ 73.06462, 22.42728 ], [ 73.06612, 22.43041 ], [ 73.07433, 22.43643 ], [ 73.07963, 22.44307 ], [ 73.09205, 22.45337 ], [ 73.09369, 22.457 ], [ 73.09359, 22.46594 ], [ 73.09684, 22.46546 ], [ 73.10157, 22.46611 ], [ 73.10262, 22.46527 ], [ 73.10438, 22.46549 ], [ 73.10645, 22.46709 ], [ 73.1071, 22.46551 ], [ 73.11329, 22.46523 ], [ 73.12105, 22.46687 ], [ 73.12449, 22.46846 ] ] ] } },
{ "type": "Feature", "properties": { "OBJECTID": 2142, "state_lgd": "24", "state_name": "GUJARAT", "district_lgd": "486", "district_name": "VADODARA", "district_name_source": "district_table", "subdistrict_lgd": "3899", "subdistrict_name": "VAGHODIA", "subdistrict_type": "Taluk", "name_corrupted": false, "remarks": "", "label_lon": 73.391709534912891, "label_lat": 22.344400348801933 }, "geometry": { "type": "Polygon", "coordinates": [ [ [ 73.41175, 22.50544 ], [ 73.41351, 22.50616 ], [ 73.41507, 22.50527 ], [ 73.41651, 22.49735 ], [ 73.41737, 22.49735 ], [ 73.41771, 22.49573 ], [ 73.41871, 22.49568 ], [ 73.41954, 22.49435 ], [ 73.42312, 22.49385 ], [ 73.42382, 22.49145 ], [ 73.42311, 22.49145 ], [ 73.42317, 22.48988 ], [ 73.42379, 22.48991 ], [ 73.42407, 22.48736 ], [ 73.42742, 22.48575 ], [ 73.42739, 22.47603 ], [ 73.42923, 22.46942 ], [ 73.42919, 22.46495 ], [ 73.43016, 22.46185 ], [ 73.42914, 22.45834 ], [ 73.42529, 22.4569 ], [ 73.42544, 22.45288 ], [ 73.42699, 22.44957 ], [ 73.42464, 22.44945 ], [ 73.42403, 22.44839 ], [ 73.42218, 22.44913 ], [ 73.42049, 22.44711 ], [ 73.42027, 22.44028 ], [ 73.42125, 22.43049 ], [ 73.4199, 22.42846 ], [ 73.42526, 22.4279 ], [ 73.42913, 22.42635 ], [ 73.43292, 22.42156 ], [ 73.43457, 22.42312 ], [ 73.44559, 22.42531 ], [ 73.44646, 22.41803 ], [ 73.44552, 22.41623 ], [ 73.44638, 22.41418 ], [ 73.43793, 22.40014 ], [ 73.44296, 22.39896 ], [ 73.444, 22.39802 ], [ 73.44401, 22.3959 ], [ 73.44879, 22.39658 ], [ 73.45801, 22.38123 ], [ 73.46107, 22.38085 ], [ 73.4704, 22.38312 ], [ 73.47243, 22.38183 ], [ 73.47289, 22.37939 ], [ 73.46821, 22.37342 ], [ 73.46768, 22.36772 ], [ 73.4643, 22.36018 ], [ 73.47852, 22.35526 ], [ 73.47821, 22.3526 ], [ 73.47948, 22.351 ], [ 73.48224, 22.34955 ], [ 73.49116, 22.3492 ], [ 73.49222, 22.3506 ], [ 73.49413, 22.35087 ], [ 73.49929, 22.34892 ], [ 73.50794, 22.35005 ], [ 73.51073, 22.35226 ], [ 73.5138, 22.34918 ], [ 73.51294, 22.34685 ], [ 73.51536, 22.34393 ], [ 73.5177, 22.34301 ], [ 73.51772, 22.34115 ], [ 73.52541, 22.3442 ], [ 73.52558, 22.34514 ], [ 73.52796, 22.34596 ], [ 73.53416, 22.34615 ], [ 73.54178, 22.34436 ], [ 73.54631, 22.34595 ], [ 73.54814, 22.34413 ], [ 73.55168, 22.34262 ], [ 73.55341, 22.33705 ], [ 73.55432, 22.33649 ], [ 73.56621, 22.33645 ], [ 73.56535, 22.33095 ], [ 73.56283, 22.32865 ], [ 73.54886, 22.33128 ], [ 73.54418, 22.33118 ], [ 73.54522, 22.31926 ], [ 73.54673, 22.31724 ], [ 73.54735, 22.31447 ], [ 73.54689, 22.30937 ], [ 73.54583, 22.3085 ], [ 73.54614, 22.30708 ], [ 73.54395, 22.30699 ], [ 73.54153, 22.29766 ], [ 73.54219, 22.29473 ], [ 73.54299, 22.29406 ], [ 73.54487, 22.29452 ], [ 73.54697, 22.29116 ], [ 73.54724, 22.28881 ], [ 73.54915, 22.28815 ], [ 73.54812, 22.28675 ], [ 73.54692, 22.28809 ], [ 73.54259, 22.28767 ], [ 73.54214, 22.28877 ], [ 73.53963, 22.2868 ], [ 73.54075, 22.28303 ], [ 73.54012, 22.27908 ], [ 73.54348, 22.27927 ], [ 73.54461, 22.27811 ], [ 73.54507, 22.27533 ], [ 73.54626, 22.27534 ], [ 73.54517, 22.27294 ], [ 73.54402, 22.27386 ], [ 73.54342, 22.27004 ], [ 73.54028, 22.27035 ], [ 73.53833, 22.26881 ], [ 73.53673, 22.26869 ], [ 73.53376, 22.265 ], [ 73.53226, 22.26518 ], [ 73.5312, 22.2628 ], [ 73.52947, 22.26377 ], [ 73.52783, 22.26335 ], [ 73.52651, 22.26154 ], [ 73.52459, 22.26144 ], [ 73.52554, 22.2603 ], [ 73.52402, 22.25614 ], [ 73.52359, 22.25082 ], [ 73.52114, 22.24815 ], [ 73.50837, 22.24905 ], [ 73.50147, 22.24241 ], [ 73.49809, 22.23562 ], [ 73.49218, 22.23604 ], [ 73.49088, 22.2348 ], [ 73.48248, 22.24004 ], [ 73.48167, 22.23849 ], [ 73.47718, 22.23625 ], [ 73.47531, 22.24086 ], [ 73.47151, 22.23931 ], [ 73.46851, 22.23377 ], [ 73.46452, 22.23356 ], [ 73.46374, 22.23215 ], [ 73.46215, 22.23194 ], [ 73.46217, 22.23117 ], [ 73.4597, 22.22995 ], [ 73.45733, 22.23097 ], [ 73.45719, 22.22933 ], [ 73.45631, 22.2303 ], [ 73.45558, 22.22948 ], [ 73.45613, 22.2281 ], [ 73.44939, 22.2257 ], [ 73.4472, 22.2231 ], [ 73.44796, 22.22276 ], [ 73.44782, 22.22165 ], [ 73.44709, 22.22157 ], [ 73.44784, 22.22085 ], [ 73.44635, 22.22087 ], [ 73.44675, 22.21854 ], [ 73.44563, 22.21948 ], [ 73.44362, 22.21819 ], [ 73.44403, 22.21735 ], [ 73.44318, 22.21607 ], [ 73.44139, 22.21417 ], [ 73.43837, 22.21362 ], [ 73.43736, 22.2124 ], [ 73.43785, 22.2115 ], [ 73.4363, 22.21213 ], [ 73.43649, 22.21067 ], [ 73.43578, 22.21008 ], [ 73.43427, 22.21075 ], [ 73.43424, 22.20967 ], [ 73.4321, 22.20896 ], [ 73.43169, 22.21029 ], [ 73.43092, 22.20903 ], [ 73.42902, 22.21025 ], [ 73.42811, 22.20845 ], [ 73.42595, 22.20948 ], [ 73.42595, 22.20818 ], [ 73.42411, 22.20925 ], [ 73.42394, 22.21019 ], [ 73.42308, 22.20962 ], [ 73.42245, 22.21052 ], [ 73.42228, 22.2094 ], [ 73.42121, 22.20953 ], [ 73.4216, 22.20878 ], [ 73.41812, 22.20977 ], [ 73.4179, 22.21119 ], [ 73.41608, 22.21065 ], [ 73.4157, 22.2115 ], [ 73.41483, 22.21067 ], [ 73.41388, 22.21201 ], [ 73.4133, 22.2108 ], [ 73.41163, 22.21128 ], [ 73.41224, 22.21295 ], [ 73.41022, 22.214 ], [ 73.40893, 22.21363 ], [ 73.40682, 22.2153 ], [ 73.40745, 22.21676 ], [ 73.40481, 22.21845 ], [ 73.40393, 22.22006 ], [ 73.40644, 22.22363 ], [ 73.40582, 22.22698 ], [ 73.40861, 22.2294 ], [ 73.409, 22.23145 ], [ 73.40485, 22.23399 ], [ 73.40357, 22.23836 ], [ 73.40052, 22.23939 ], [ 73.40098, 22.24171 ], [ 73.38987, 22.24012 ], [ 73.38612, 22.23844 ], [ 73.3861, 22.2451 ], [ 73.38398, 22.25198 ], [ 73.3829, 22.25337 ], [ 73.38182, 22.25406 ], [ 73.37757, 22.25322 ], [ 73.37637, 22.25492 ], [ 73.37426, 22.25548 ], [ 73.37142, 22.25459 ], [ 73.37017, 22.25538 ], [ 73.36947, 22.25777 ], [ 73.36836, 22.25708 ], [ 73.36599, 22.25765 ], [ 73.3642, 22.25672 ], [ 73.36335, 22.25822 ], [ 73.36158, 22.25831 ], [ 73.36038, 22.26032 ], [ 73.35959, 22.26025 ], [ 73.35944, 22.26226 ], [ 73.35544, 22.2615 ], [ 73.35267, 22.26008 ], [ 73.35201, 22.2612 ], [ 73.35369, 22.26196 ], [ 73.34945, 22.26944 ], [ 73.34596, 22.27079 ], [ 73.33517, 22.26563 ], [ 73.33444, 22.26465 ], [ 73.33289, 22.26455 ], [ 73.33253, 22.26353 ], [ 73.33204, 22.26477 ], [ 73.33127, 22.26477 ], [ 73.32857, 22.26285 ], [ 73.32942, 22.26189 ], [ 73.32859, 22.26084 ], [ 73.32951, 22.26031 ], [ 73.32826, 22.25967 ], [ 73.32812, 22.25863 ], [ 73.32497, 22.25862 ], [ 73.32441, 22.25812 ], [ 73.32545, 22.25778 ], [ 73.32505, 22.25733 ], [ 73.32279, 22.25786 ], [ 73.3225, 22.25628 ], [ 73.32098, 22.25661 ], [ 73.32042, 22.25566 ], [ 73.3197, 22.2564 ], [ 73.32025, 22.25706 ], [ 73.31926, 22.25707 ], [ 73.31781, 22.25437 ], [ 73.31799, 22.25207 ], [ 73.3191, 22.25131 ], [ 73.31679, 22.24859 ], [ 73.31588, 22.24936 ], [ 73.31492, 22.24862 ], [ 73.31502, 22.24772 ], [ 73.31339, 22.24766 ], [ 73.31492, 22.24658 ], [ 73.31302, 22.24634 ], [ 73.31255, 22.24774 ], [ 73.30875, 22.25012 ], [ 73.30565, 22.2487 ], [ 73.30301, 22.25915 ], [ 73.3023, 22.25917 ], [ 73.30273, 22.26553 ], [ 73.29933, 22.26583 ], [ 73.29885, 22.27092 ], [ 73.30085, 22.27339 ], [ 73.29735, 22.27774 ], [ 73.29497, 22.27806 ], [ 73.29209, 22.27591 ], [ 73.29194, 22.27494 ], [ 73.29317, 22.2742 ], [ 73.29224, 22.27363 ], [ 73.29332, 22.27256 ], [ 73.29163, 22.27291 ], [ 73.29202, 22.27077 ], [ 73.27899, 22.27632 ], [ 73.27888, 22.27957 ], [ 73.27757, 22.27913 ], [ 73.27687, 22.28883 ], [ 73.27842, 22.29669 ], [ 73.27543, 22.29624 ], [ 73.27462, 22.2985 ], [ 73.27039, 22.30036 ], [ 73.27035, 22.30209 ], [ 73.27242, 22.30335 ], [ 73.2724, 22.30646 ], [ 73.27346, 22.30774 ], [ 73.2722, 22.30824 ], [ 73.27064, 22.31205 ], [ 73.27167, 22.31525 ], [ 73.27103, 22.31519 ], [ 73.27106, 22.31591 ], [ 73.26926, 22.31521 ], [ 73.2694, 22.31643 ], [ 73.26878, 22.31642 ], [ 73.2668, 22.3147 ], [ 73.26564, 22.3176 ], [ 73.26493, 22.3175 ], [ 73.26419, 22.31564 ], [ 73.26275, 22.31637 ], [ 73.26002, 22.31593 ], [ 73.26061, 22.31343 ], [ 73.25919, 22.31351 ], [ 73.25918, 22.31248 ], [ 73.25824, 22.31248 ], [ 73.2582, 22.31347 ], [ 73.25601, 22.31363 ], [ 73.25801, 22.31677 ], [ 73.25823, 22.32081 ], [ 73.27208, 22.32454 ], [ 73.2712, 22.33361 ], [ 73.27361, 22.33558 ], [ 73.27293, 22.33635 ], [ 73.26509, 22.33102 ], [ 73.26438, 22.33201 ], [ 73.25777, 22.33146 ], [ 73.25638, 22.33358 ], [ 73.25543, 22.33848 ], [ 73.25892, 22.33886 ], [ 73.26096, 22.34041 ], [ 73.27189, 22.34242 ], [ 73.27732, 22.34189 ], [ 73.27701, 22.34801 ], [ 73.28636, 22.35159 ], [ 73.28385, 22.35613 ], [ 73.28162, 22.35515 ], [ 73.28093, 22.35685 ], [ 73.27428, 22.35738 ], [ 73.26666, 22.35221 ], [ 73.26726, 22.35366 ], [ 73.26378, 22.35489 ], [ 73.26393, 22.35725 ], [ 73.26339, 22.35712 ], [ 73.2633, 22.3589 ], [ 73.2621, 22.35854 ], [ 73.26195, 22.35979 ], [ 73.26293, 22.35986 ], [ 73.26341, 22.36217 ], [ 73.26168, 22.36408 ], [ 73.26047, 22.37188 ], [ 73.26333, 22.37775 ], [ 73.26428, 22.37778 ], [ 73.26497, 22.38084 ], [ 73.26404, 22.38325 ], [ 73.2605, 22.3828 ], [ 73.25705, 22.38472 ], [ 73.25554, 22.38387 ], [ 73.25306, 22.38507 ], [ 73.2526, 22.38437 ], [ 73.25056, 22.3845 ], [ 73.25174, 22.38349 ], [ 73.25141, 22.38303 ], [ 73.24913, 22.38341 ], [ 73.2499, 22.38492 ], [ 73.24882, 22.38489 ], [ 73.24805, 22.38592 ], [ 73.24565, 22.40224 ], [ 73.24932, 22.41477 ], [ 73.25738, 22.42363 ], [ 73.25849, 22.42441 ], [ 73.27532, 22.42455 ], [ 73.27484, 22.42579 ], [ 73.27691, 22.42792 ], [ 73.27676, 22.42948 ], [ 73.28047, 22.4309 ], [ 73.28193, 22.43242 ], [ 73.2823, 22.43752 ], [ 73.28299, 22.4391 ], [ 73.28396, 22.43914 ], [ 73.28377, 22.44082 ], [ 73.28507, 22.44059 ], [ 73.28516, 22.44135 ], [ 73.28732, 22.44152 ], [ 73.28915, 22.44276 ], [ 73.30178, 22.44247 ], [ 73.30561, 22.44312 ], [ 73.30509, 22.44434 ], [ 73.30738, 22.44553 ], [ 73.30823, 22.44766 ], [ 73.30996, 22.44766 ], [ 73.31198, 22.4494 ], [ 73.3125, 22.44846 ], [ 73.3164, 22.4477 ], [ 73.31746, 22.44971 ], [ 73.32115, 22.45127 ], [ 73.32304, 22.45024 ], [ 73.32765, 22.45157 ], [ 73.33006, 22.44985 ], [ 73.33344, 22.45181 ], [ 73.34156, 22.44735 ], [ 73.34237, 22.44772 ], [ 73.34258, 22.44931 ], [ 73.34624, 22.44918 ], [ 73.34916, 22.45074 ], [ 73.3495, 22.45213 ], [ 73.3483, 22.45193 ], [ 73.34896, 22.45338 ], [ 73.35144, 22.45157 ], [ 73.35206, 22.4533 ], [ 73.35295, 22.45366 ], [ 73.35121, 22.45421 ], [ 73.35161, 22.456 ], [ 73.35014, 22.45687 ], [ 73.35063, 22.45857 ], [ 73.35333, 22.45939 ], [ 73.35242, 22.46024 ], [ 73.35281, 22.46128 ], [ 73.3549, 22.46136 ], [ 73.35447, 22.46317 ], [ 73.35678, 22.46301 ], [ 73.35653, 22.46411 ], [ 73.35795, 22.46498 ], [ 73.35816, 22.46625 ], [ 73.3568, 22.4681 ], [ 73.35782, 22.47123 ], [ 73.3567, 22.4708 ], [ 73.35414, 22.47366 ], [ 73.35773, 22.4725 ], [ 73.35838, 22.47402 ], [ 73.35975, 22.47442 ], [ 73.36033, 22.47697 ], [ 73.36707, 22.47967 ], [ 73.36724, 22.48285 ], [ 73.36896, 22.486 ], [ 73.37004, 22.49177 ], [ 73.38897, 22.49662 ], [ 73.39053, 22.49564 ], [ 73.39072, 22.49397 ], [ 73.39213, 22.49291 ], [ 73.39271, 22.49414 ], [ 73.39436, 22.49305 ], [ 73.39627, 22.49295 ], [ 73.39683, 22.49477 ], [ 73.39836, 22.49492 ], [ 73.39963, 22.49392 ], [ 73.39895, 22.49654 ], [ 73.4003, 22.49705 ], [ 73.39938, 22.49868 ], [ 73.40007, 22.499 ], [ 73.40133, 22.49787 ], [ 73.40252, 22.49955 ], [ 73.4021, 22.50055 ], [ 73.40422, 22.50192 ], [ 73.40425, 22.50444 ], [ 73.40657, 22.50607 ], [ 73.40816, 22.50458 ], [ 73.40994, 22.5064 ], [ 73.40971, 22.50545 ], [ 73.41143, 22.50641 ], [ 73.41175, 22.50544 ] ] ] } }
]
}
