{
"type": "FeatureCollection",
"name": "493_TAPI",
"crs": { "type": "name", "properties": { "name": "urn:ogc:def:crs:OGC:1.3:CRS84" } },
"xy_coordinate_resolution": 1e-05,
"features": [
{ "type": "Feature", "properties": { "OBJECTID": 1971, "state_lgd": "24", "state_name": "GUJARAT", "district_lgd": "493", "district_name": "TAPI", "district_name_source": "district_table", "subdistrict_lgd": "6043", "subdistrict_name": "DOLVAN", "subdistrict_type": "Taluk", "name_corrupted": false, "remarks": "", "label_lon": 73.402543187142015, "label_lat": 20.909821117741959 }, "geometry": { "type": "MultiPolygon", "coordinates": [ [ [ [ 73.33252, 20.99571 ], [ 73.3345, 20.99502 ], [ 73.33725, 20.99203 ], [ 73.33888, 20.99273 ], [ 73.34518, 20.98791 ], [ 73.34914, 20.98732 ], [ 73.35378, 20.9885 ], [ 73.35492, 20.9831 ], [ 73.35738, 20.98174 ], [ 73.36908, 20.98066 ], [ 73.37439, 20.97868 ], [ 73.37499, 20.97868 ], [ 73.37487, 20.98052 ], [ 73.37571, 20.98173 ], [ 73.37461, 20.9852 ], [ 73.37562, 20.98845 ], [ 73.37574, 20.99319 ], [ 73.37733, 20.99264 ], [ 73.37765, 20.99324 ], [ 73.38107, 20.9913 ], [ 73.38925, 20.98852 ], [ 73.39273, 20.98938 ], [ 73.39529, 20.98869 ], [ 73.39548, 20.98769 ], [ 73.39591, 20.98855 ], [ 73.39841, 20.98707 ], [ 73.39922, 20.98815 ], [ 73.40607, 20.98821 ], [ 73.40583, 20.98908 ], [ 73.40812, 20.98991 ], [ 73.40976, 20.98834 ], [ 73.41607, 20.98832 ], [ 73.41771, 20.98758 ], [ 73.41697, 20.97839 ], [ 73.41792, 20.97693 ], [ 73.41998, 20.97603 ], [ 73.42163, 20.97704 ], [ 73.42633, 20.97639 ], [ 73.42613, 20.97368 ], [ 73.42978, 20.97452 ], [ 73.43059, 20.97598 ], [ 73.43691, 20.97995 ], [ 73.44112, 20.981 ], [ 73.45192, 20.96634 ], [ 73.45281, 20.9634 ], [ 73.45174, 20.96333 ], [ 73.45245, 20.96282 ], [ 73.463, 20.96675 ], [ 73.46499, 20.9693 ], [ 73.46745, 20.97016 ], [ 73.46847, 20.97015 ], [ 73.46866, 20.96923 ], [ 73.4684, 20.96519 ], [ 73.47154, 20.96956 ], [ 73.47303, 20.97317 ], [ 73.4796, 20.97535 ], [ 73.48696, 20.98516 ], [ 73.49253, 20.98137 ], [ 73.49548, 20.98481 ], [ 73.49726, 20.98491 ], [ 73.51177, 20.98384 ], [ 73.51517, 20.98321 ], [ 73.51635, 20.98212 ], [ 73.51984, 20.96872 ], [ 73.52059, 20.96863 ], [ 73.5152, 20.96527 ], [ 73.51108, 20.96551 ], [ 73.50768, 20.96392 ], [ 73.50544, 20.96107 ], [ 73.50553, 20.95762 ], [ 73.50361, 20.95423 ], [ 73.5074, 20.95274 ], [ 73.51026, 20.94739 ], [ 73.51384, 20.94873 ], [ 73.51739, 20.94716 ], [ 73.51976, 20.94707 ], [ 73.52214, 20.9456 ], [ 73.53027, 20.9392 ], [ 73.53058, 20.93626 ], [ 73.53012, 20.93439 ], [ 73.52764, 20.93314 ], [ 73.52287, 20.93532 ], [ 73.51468, 20.9362 ], [ 73.5124, 20.93539 ], [ 73.51115, 20.93286 ], [ 73.51221, 20.9277 ], [ 73.51104, 20.92608 ], [ 73.50547, 20.92363 ], [ 73.4962, 20.92155 ], [ 73.49117, 20.91752 ], [ 73.48961, 20.9145 ], [ 73.48907, 20.90992 ], [ 73.49214, 20.90015 ], [ 73.48988, 20.89331 ], [ 73.48814, 20.89129 ], [ 73.48909, 20.89019 ], [ 73.49001, 20.8905 ], [ 73.49022, 20.88791 ], [ 73.49176, 20.88735 ], [ 73.49265, 20.88475 ], [ 73.49462, 20.88394 ], [ 73.49464, 20.88226 ], [ 73.49796, 20.8801 ], [ 73.49923, 20.87755 ], [ 73.49758, 20.8756 ], [ 73.49655, 20.87026 ], [ 73.49224, 20.86783 ], [ 73.49262, 20.86488 ], [ 73.49175, 20.86167 ], [ 73.49928, 20.85985 ], [ 73.50281, 20.85595 ], [ 73.50354, 20.85397 ], [ 73.50267, 20.84957 ], [ 73.50485, 20.84373 ], [ 73.49892, 20.83926 ], [ 73.49805, 20.83561 ], [ 73.49965, 20.82874 ], [ 73.49606, 20.82437 ], [ 73.49595, 20.8191 ], [ 73.49148, 20.81553 ], [ 73.48869, 20.81615 ], [ 73.48326, 20.81498 ], [ 73.48205, 20.81508 ], [ 73.47919, 20.81757 ], [ 73.47242, 20.8189 ], [ 73.4646, 20.81583 ], [ 73.46051, 20.8171 ], [ 73.45729, 20.81179 ], [ 73.45346, 20.80897 ], [ 73.44232, 20.80863 ], [ 73.43623, 20.81273 ], [ 73.42848, 20.81457 ], [ 73.4212, 20.81858 ], [ 73.40366, 20.82248 ], [ 73.39624, 20.82738 ], [ 73.39218, 20.82764 ], [ 73.38977, 20.82318 ], [ 73.38811, 20.82245 ], [ 73.38053, 20.82429 ], [ 73.37609, 20.83006 ], [ 73.37431, 20.83126 ], [ 73.36722, 20.83258 ], [ 73.36857, 20.83853 ], [ 73.36581, 20.84143 ], [ 73.35044, 20.84864 ], [ 73.34971, 20.85091 ], [ 73.3514, 20.85631 ], [ 73.34972, 20.85973 ], [ 73.34633, 20.86167 ], [ 73.34205, 20.86275 ], [ 73.33925, 20.86219 ], [ 73.33494, 20.85986 ], [ 73.33277, 20.85982 ], [ 73.33221, 20.86174 ], [ 73.3328, 20.86713 ], [ 73.33042, 20.86813 ], [ 73.32427, 20.86825 ], [ 73.32226, 20.86952 ], [ 73.31945, 20.87719 ], [ 73.3167, 20.87993 ], [ 73.31785, 20.8922 ], [ 73.31558, 20.90233 ], [ 73.31344, 20.90475 ], [ 73.31096, 20.90525 ], [ 73.30984, 20.90693 ], [ 73.30812, 20.90776 ], [ 73.30745, 20.9128 ], [ 73.30337, 20.91238 ], [ 73.2946, 20.91826 ], [ 73.29296, 20.92498 ], [ 73.29066, 20.92908 ], [ 73.28813, 20.93027 ], [ 73.28845, 20.9324 ], [ 73.2873, 20.9325 ], [ 73.28661, 20.93092 ], [ 73.2842, 20.92934 ], [ 73.28203, 20.93012 ], [ 73.27581, 20.92857 ], [ 73.27432, 20.92582 ], [ 73.27257, 20.92657 ], [ 73.2727, 20.92532 ], [ 73.26808, 20.92498 ], [ 73.26402, 20.92232 ], [ 73.26019, 20.92253 ], [ 73.26076, 20.92452 ], [ 73.25957, 20.92506 ], [ 73.25866, 20.92756 ], [ 73.25916, 20.94359 ], [ 73.2552, 20.9464 ], [ 73.25527, 20.94758 ], [ 73.25114, 20.94912 ], [ 73.24664, 20.94876 ], [ 73.24587, 20.95003 ], [ 73.2446, 20.95393 ], [ 73.24471, 20.95726 ], [ 73.24227, 20.96478 ], [ 73.24277, 20.97224 ], [ 73.24415, 20.97277 ], [ 73.2438, 20.9741 ], [ 73.25584, 20.97403 ], [ 73.25584, 20.9751 ], [ 73.26158, 20.97512 ], [ 73.26204, 20.97609 ], [ 73.27223, 20.97607 ], [ 73.2759, 20.97708 ], [ 73.28222, 20.97737 ], [ 73.28444, 20.97442 ], [ 73.28279, 20.9718 ], [ 73.28304, 20.96801 ], [ 73.28088, 20.964 ], [ 73.28283, 20.96402 ], [ 73.28288, 20.96275 ], [ 73.2852, 20.96126 ], [ 73.28573, 20.95911 ], [ 73.28766, 20.95895 ], [ 73.2898, 20.9565 ], [ 73.294, 20.95471 ], [ 73.29417, 20.95344 ], [ 73.29629, 20.95307 ], [ 73.29685, 20.95106 ], [ 73.30191, 20.95233 ], [ 73.30231, 20.95474 ], [ 73.30136, 20.95761 ], [ 73.30668, 20.95637 ], [ 73.30769, 20.95657 ], [ 73.30822, 20.95846 ], [ 73.30948, 20.95902 ], [ 73.31235, 20.95847 ], [ 73.31599, 20.95949 ], [ 73.31757, 20.95912 ], [ 73.31843, 20.9588 ], [ 73.3191, 20.95393 ], [ 73.32589, 20.95419 ], [ 73.32816, 20.95806 ], [ 73.32804, 20.95941 ], [ 73.32912, 20.9598 ], [ 73.3287, 20.96117 ], [ 73.33061, 20.96217 ], [ 73.33015, 20.9708 ], [ 73.32742, 20.97143 ], [ 73.32601, 20.97436 ], [ 73.32169, 20.97359 ], [ 73.31759, 20.97715 ], [ 73.32015, 20.98008 ], [ 73.3215, 20.98398 ], [ 73.32593, 20.99079 ], [ 73.32784, 20.9924 ], [ 73.32886, 20.99213 ], [ 73.33252, 20.99571 ] ] ], [ [ [ 73.54004, 20.96998 ], [ 73.53765, 20.96537 ], [ 73.53562, 20.95805 ], [ 73.53645, 20.95273 ], [ 73.53743, 20.95129 ], [ 73.53266, 20.94747 ], [ 73.53218, 20.94848 ], [ 73.53141, 20.94749 ], [ 73.52933, 20.94816 ], [ 73.52643, 20.94683 ], [ 73.5225, 20.94766 ], [ 73.52476, 20.94907 ], [ 73.52447, 20.95449 ], [ 73.52588, 20.96299 ], [ 73.52717, 20.96534 ], [ 73.5274, 20.97085 ], [ 73.53141, 20.9743 ], [ 73.53731, 20.97223 ], [ 73.54004, 20.96998 ] ] ] ] } },
{ "type": "Feature", "properties": { "OBJECTID": 2033, "state_lgd": "24", "state_name": "GUJARAT", "district_lgd": "493", "district_name": "TAPI", "district_name_source": "district_table", "subdistrict_lgd": "6046", "subdistrict_name": "KUKARMUNDA", "subdistrict_type": "Taluk", "name_corrupted": false, "remarks": "", "label_lon": 74.129905868391404, "label_lat": 21.528190196265516 }, "geometry": { "type": "Polygon", "coordinates": [ [ [ 74.33061, 21.55271 ], [ 74.33233, 21.54348 ], [ 74.32834, 21.54278 ], [ 74.32793, 21.53941 ], [ 74.3295, 21.54017 ], [ 74.33122, 21.5395 ], [ 74.33084, 21.53553 ], [ 74.32554, 21.53607 ], [ 74.32525, 21.53229 ], [ 74.32148, 21.52957 ], [ 74.3216, 21.52421 ], [ 74.31971, 21.52338 ], [ 74.31582, 21.52618 ], [ 74.30889, 21.52865 ], [ 74.30357, 21.52848 ], [ 74.29649, 21.52641 ], [ 74.29027, 21.51894 ], [ 74.28167, 21.51402 ], [ 74.28146, 21.51456 ], [ 74.27766, 21.51274 ], [ 74.26422, 21.50895 ], [ 74.25658, 21.50793 ], [ 74.24986, 21.50852 ], [ 74.23849, 21.51189 ], [ 74.23883, 21.51262 ], [ 74.22903, 21.51849 ], [ 74.21692, 21.52429 ], [ 74.20632, 21.52363 ], [ 74.20238, 21.52086 ], [ 74.19724, 21.51447 ], [ 74.19405, 21.51221 ], [ 74.19033, 21.51065 ], [ 74.18489, 21.51062 ], [ 74.17551, 21.51583 ], [ 74.16721, 21.52376 ], [ 74.16491, 21.52507 ], [ 74.15958, 21.52597 ], [ 74.1561, 21.52539 ], [ 74.14358, 21.51525 ], [ 74.13453, 21.51018 ], [ 74.12842, 21.5081 ], [ 74.12824, 21.50886 ], [ 74.10824, 21.50565 ], [ 74.0989, 21.49897 ], [ 74.09079, 21.49709 ], [ 74.07412, 21.49635 ], [ 74.05873, 21.4964 ], [ 74.05859, 21.49701 ], [ 74.04064, 21.49549 ], [ 74.02679, 21.49303 ], [ 74.01722, 21.49261 ], [ 74.01267, 21.49353 ], [ 74.00996, 21.49153 ], [ 73.99191, 21.48452 ], [ 73.99005, 21.48351 ], [ 73.98912, 21.48137 ], [ 73.98621, 21.48167 ], [ 73.98583, 21.48242 ], [ 73.9821, 21.48128 ], [ 73.98167, 21.4842 ], [ 73.97823, 21.48315 ], [ 73.97795, 21.48437 ], [ 73.97525, 21.48401 ], [ 73.97465, 21.48565 ], [ 73.97369, 21.48562 ], [ 73.97262, 21.48956 ], [ 73.9758, 21.49016 ], [ 73.97631, 21.48923 ], [ 73.97825, 21.48995 ], [ 73.97687, 21.49514 ], [ 73.98055, 21.49538 ], [ 73.98062, 21.49716 ], [ 73.97899, 21.49674 ], [ 73.9784, 21.50178 ], [ 73.97624, 21.50735 ], [ 73.97489, 21.50731 ], [ 73.97464, 21.5096 ], [ 73.97842, 21.51147 ], [ 73.97673, 21.51555 ], [ 73.98098, 21.51637 ], [ 73.98161, 21.52012 ], [ 73.98286, 21.52056 ], [ 73.98127, 21.52781 ], [ 73.97904, 21.53079 ], [ 73.97565, 21.53273 ], [ 73.97493, 21.53424 ], [ 73.97419, 21.54328 ], [ 73.98108, 21.54361 ], [ 73.98281, 21.54073 ], [ 73.99319, 21.5433 ], [ 73.99361, 21.54154 ], [ 73.99565, 21.54111 ], [ 73.99633, 21.5402 ], [ 73.99581, 21.53871 ], [ 73.99742, 21.53901 ], [ 74.00232, 21.54155 ], [ 74.00032, 21.54565 ], [ 74.00345, 21.5453 ], [ 74.00584, 21.55276 ], [ 74.00831, 21.5517 ], [ 74.0103, 21.5492 ], [ 74.02044, 21.54996 ], [ 74.02903, 21.54696 ], [ 74.03091, 21.54515 ], [ 74.03498, 21.54553 ], [ 74.03442, 21.54846 ], [ 74.03537, 21.54873 ], [ 74.03501, 21.55034 ], [ 74.03746, 21.55063 ], [ 74.03831, 21.54579 ], [ 74.03644, 21.54557 ], [ 74.04361, 21.54248 ], [ 74.04358, 21.54617 ], [ 74.04456, 21.54624 ], [ 74.04454, 21.54816 ], [ 74.04748, 21.54738 ], [ 74.04694, 21.54468 ], [ 74.04881, 21.54469 ], [ 74.04866, 21.54635 ], [ 74.04974, 21.54645 ], [ 74.04935, 21.54823 ], [ 74.05118, 21.54668 ], [ 74.05378, 21.54751 ], [ 74.05403, 21.55791 ], [ 74.05479, 21.55792 ], [ 74.05689, 21.55382 ], [ 74.0599, 21.5503 ], [ 74.06697, 21.55028 ], [ 74.07319, 21.54792 ], [ 74.08158, 21.54875 ], [ 74.08082, 21.55202 ], [ 74.07922, 21.55442 ], [ 74.08504, 21.55535 ], [ 74.08698, 21.55157 ], [ 74.09427, 21.55218 ], [ 74.09645, 21.55124 ], [ 74.09744, 21.55154 ], [ 74.09731, 21.55525 ], [ 74.10446, 21.55643 ], [ 74.10995, 21.55624 ], [ 74.11091, 21.55269 ], [ 74.11319, 21.54878 ], [ 74.11665, 21.55084 ], [ 74.11556, 21.5533 ], [ 74.11709, 21.55433 ], [ 74.11755, 21.55614 ], [ 74.12013, 21.55625 ], [ 74.12011, 21.55139 ], [ 74.1298, 21.55118 ], [ 74.13434, 21.54918 ], [ 74.13612, 21.54929 ], [ 74.13696, 21.54686 ], [ 74.13747, 21.54915 ], [ 74.13847, 21.54973 ], [ 74.13824, 21.55365 ], [ 74.13894, 21.55503 ], [ 74.15396, 21.55682 ], [ 74.15361, 21.56064 ], [ 74.15468, 21.5613 ], [ 74.15514, 21.56725 ], [ 74.15586, 21.5683 ], [ 74.15826, 21.56897 ], [ 74.17587, 21.569 ], [ 74.17605, 21.56073 ], [ 74.17543, 21.55922 ], [ 74.17648, 21.55763 ], [ 74.1751, 21.55643 ], [ 74.17862, 21.55182 ], [ 74.17838, 21.55057 ], [ 74.1809, 21.54772 ], [ 74.18116, 21.54599 ], [ 74.18252, 21.54545 ], [ 74.18272, 21.54232 ], [ 74.18579, 21.54313 ], [ 74.18601, 21.54203 ], [ 74.18761, 21.5428 ], [ 74.18822, 21.54071 ], [ 74.19338, 21.53938 ], [ 74.19321, 21.53761 ], [ 74.19554, 21.53748 ], [ 74.19585, 21.53206 ], [ 74.20008, 21.53284 ], [ 74.20291, 21.5364 ], [ 74.20555, 21.5371 ], [ 74.20845, 21.53677 ], [ 74.21585, 21.54109 ], [ 74.21734, 21.5444 ], [ 74.22042, 21.5469 ], [ 74.22304, 21.54736 ], [ 74.22326, 21.54823 ], [ 74.22757, 21.54879 ], [ 74.22901, 21.55446 ], [ 74.23197, 21.55361 ], [ 74.23104, 21.55095 ], [ 74.23494, 21.55088 ], [ 74.23458, 21.5484 ], [ 74.23631, 21.5484 ], [ 74.23622, 21.5397 ], [ 74.24244, 21.53903 ], [ 74.25246, 21.54038 ], [ 74.26333, 21.5399 ], [ 74.26332, 21.54261 ], [ 74.26641, 21.54259 ], [ 74.26801, 21.55136 ], [ 74.26926, 21.55154 ], [ 74.26906, 21.55293 ], [ 74.27853, 21.5536 ], [ 74.27672, 21.56225 ], [ 74.27898, 21.56223 ], [ 74.28142, 21.56352 ], [ 74.28126, 21.56427 ], [ 74.28453, 21.5651 ], [ 74.2846, 21.56643 ], [ 74.29265, 21.56754 ], [ 74.2956, 21.56708 ], [ 74.29553, 21.56907 ], [ 74.29947, 21.56771 ], [ 74.29958, 21.56671 ], [ 74.30382, 21.56547 ], [ 74.30324, 21.55223 ], [ 74.31475, 21.55117 ], [ 74.32156, 21.55231 ], [ 74.32261, 21.54911 ], [ 74.32429, 21.54943 ], [ 74.32518, 21.55139 ], [ 74.32809, 21.5511 ], [ 74.33061, 21.55271 ] ] ] } },
{ "type": "Feature", "properties": { "OBJECTID": 2075, "state_lgd": "24", "state_name": "GUJARAT", "district_lgd": "493", "district_name": "TAPI", "district_name_source": "district_table", "subdistrict_lgd": "3942", "subdistrict_name": "NIZAR", "subdistrict_type": "Taluk", "name_corrupted": false, "remarks": "", "label_lon": 74.096698809222772, "label_lat": 21.471039079795407 }, "geometry": { "type": "Polygon", "coordinates": [ [ [ 74.31582, 21.52618 ], [ 74.31971, 21.52338 ], [ 74.3216, 21.52421 ], [ 74.32259, 21.51846 ], [ 74.32079, 21.4985 ], [ 74.30389, 21.49945 ], [ 74.30414, 21.48811 ], [ 74.27734, 21.48251 ], [ 74.27732, 21.47937 ], [ 74.26926, 21.47901 ], [ 74.25592, 21.47678 ], [ 74.25505, 21.4706 ], [ 74.25436, 21.47062 ], [ 74.25356, 21.46774 ], [ 74.24742, 21.46886 ], [ 74.24065, 21.46772 ], [ 74.23571, 21.46777 ], [ 74.23435, 21.48229 ], [ 74.21416, 21.48168 ], [ 74.20891, 21.46704 ], [ 74.20928, 21.46219 ], [ 74.19716, 21.46098 ], [ 74.19782, 21.45875 ], [ 74.19612, 21.4583 ], [ 74.19531, 21.46053 ], [ 74.18773, 21.45819 ], [ 74.18641, 21.46112 ], [ 74.18349, 21.46125 ], [ 74.18232, 21.46925 ], [ 74.17613, 21.46819 ], [ 74.17517, 21.4666 ], [ 74.1735, 21.46636 ], [ 74.17297, 21.46852 ], [ 74.16122, 21.46889 ], [ 74.15805, 21.46755 ], [ 74.15881, 21.46649 ], [ 74.15571, 21.46453 ], [ 74.15524, 21.46295 ], [ 74.14766, 21.46141 ], [ 74.1483, 21.458 ], [ 74.13584, 21.45612 ], [ 74.13373, 21.46586 ], [ 74.12518, 21.46665 ], [ 74.11996, 21.46538 ], [ 74.12053, 21.46343 ], [ 74.11716, 21.46208 ], [ 74.11703, 21.45712 ], [ 74.11613, 21.45697 ], [ 74.1165, 21.45241 ], [ 74.1107, 21.45081 ], [ 74.10928, 21.44956 ], [ 74.10251, 21.44863 ], [ 74.10071, 21.44763 ], [ 74.09678, 21.4537 ], [ 74.09459, 21.45573 ], [ 74.08639, 21.45521 ], [ 74.0723, 21.45703 ], [ 74.07544, 21.4598 ], [ 74.07393, 21.46127 ], [ 74.07495, 21.46379 ], [ 74.07297, 21.46379 ], [ 74.07418, 21.46563 ], [ 74.07276, 21.46877 ], [ 74.07096, 21.46951 ], [ 74.06955, 21.47229 ], [ 74.06785, 21.47246 ], [ 74.06418, 21.47466 ], [ 74.06293, 21.47455 ], [ 74.06236, 21.47306 ], [ 74.0628, 21.47135 ], [ 74.06158, 21.47068 ], [ 74.0627, 21.4692 ], [ 74.06117, 21.46625 ], [ 74.06119, 21.465 ], [ 74.06245, 21.46435 ], [ 74.06119, 21.46299 ], [ 74.06143, 21.46197 ], [ 74.05978, 21.46114 ], [ 74.05967, 21.4594 ], [ 74.05715, 21.45939 ], [ 74.053, 21.45627 ], [ 74.0532, 21.45469 ], [ 74.04994, 21.4529 ], [ 74.0457, 21.44618 ], [ 74.04563, 21.44455 ], [ 74.04768, 21.44393 ], [ 74.0481, 21.44253 ], [ 74.04923, 21.44217 ], [ 74.04965, 21.44021 ], [ 74.04894, 21.43685 ], [ 74.04768, 21.43527 ], [ 74.04745, 21.43241 ], [ 74.04912, 21.42722 ], [ 74.04815, 21.42306 ], [ 74.04623, 21.42228 ], [ 74.04536, 21.41968 ], [ 74.04294, 21.41916 ], [ 74.04202, 21.4198 ], [ 74.04087, 21.41857 ], [ 74.0369, 21.41965 ], [ 74.0234, 21.41779 ], [ 74.01506, 21.42128 ], [ 74.00895, 21.41954 ], [ 74.0083, 21.42287 ], [ 74.00262, 21.42141 ], [ 74.00087, 21.42084 ], [ 74.00293, 21.41947 ], [ 74.00254, 21.41746 ], [ 73.98698, 21.41124 ], [ 73.98222, 21.4079 ], [ 73.98014, 21.40838 ], [ 73.97808, 21.41181 ], [ 73.97692, 21.41193 ], [ 73.97823, 21.40847 ], [ 73.97735, 21.40594 ], [ 73.97363, 21.40101 ], [ 73.96928, 21.39709 ], [ 73.95952, 21.39695 ], [ 73.95947, 21.39543 ], [ 73.95179, 21.39527 ], [ 73.95043, 21.39952 ], [ 73.94692, 21.40493 ], [ 73.93893, 21.40502 ], [ 73.93635, 21.4091 ], [ 73.93189, 21.4271 ], [ 73.92785, 21.42729 ], [ 73.89635, 21.43493 ], [ 73.88903, 21.43774 ], [ 73.88368, 21.43823 ], [ 73.88182, 21.45086 ], [ 73.88947, 21.45319 ], [ 73.89628, 21.4526 ], [ 73.90863, 21.44895 ], [ 73.91747, 21.44927 ], [ 73.9263, 21.45078 ], [ 73.94187, 21.4596 ], [ 73.94511, 21.46049 ], [ 73.95113, 21.46059 ], [ 73.96074, 21.45909 ], [ 73.96858, 21.46019 ], [ 73.97139, 21.46166 ], [ 73.97813, 21.46949 ], [ 73.98374, 21.47367 ], [ 73.9901, 21.48356 ], [ 74.00217, 21.48903 ], [ 74.00996, 21.49153 ], [ 74.01267, 21.49353 ], [ 74.01722, 21.49261 ], [ 74.02679, 21.49303 ], [ 74.04064, 21.49549 ], [ 74.05859, 21.49701 ], [ 74.05873, 21.4964 ], [ 74.07412, 21.49635 ], [ 74.09079, 21.49709 ], [ 74.0989, 21.49897 ], [ 74.10824, 21.50565 ], [ 74.12824, 21.50886 ], [ 74.12842, 21.5081 ], [ 74.13453, 21.51018 ], [ 74.14358, 21.51525 ], [ 74.1561, 21.52539 ], [ 74.15958, 21.52597 ], [ 74.16491, 21.52507 ], [ 74.16721, 21.52376 ], [ 74.17551, 21.51583 ], [ 74.18489, 21.51062 ], [ 74.19033, 21.51065 ], [ 74.19405, 21.51221 ], [ 74.19724, 21.51447 ], [ 74.20238, 21.52086 ], [ 74.20632, 21.52363 ], [ 74.21692, 21.52429 ], [ 74.22903, 21.51849 ], [ 74.23883, 21.51262 ], [ 74.23849, 21.51189 ], [ 74.24986, 21.50852 ], [ 74.25658, 21.50793 ], [ 74.26422, 21.50895 ], [ 74.27766, 21.51274 ], [ 74.28146, 21.51456 ], [ 74.28167, 21.51402 ], [ 74.29027, 21.51894 ], [ 74.29649, 21.52641 ], [ 74.30357, 21.52848 ], [ 74.30889, 21.52865 ], [ 74.31582, 21.52618 ] ] ] } },
{ "type": "Feature", "properties": { "OBJECTID": 2115, "state_lgd": "24", "state_name": "GUJARAT", "district_lgd": "493", "district_name": "TAPI", "district_name_source": "district_table", "subdistrict_lgd": "3944", "subdistrict_name": "SONGADH", "subdistrict_type": "Taluk", "name_corrupted": false, "remarks": "", "label_lon": 73.500846293381812, "label_lat": 21.1705565 }, "geometry": { "type": "Polygon", "coordinates": [ [ [ 73.81861, 21.40124 ], [ 73.81772, 21.39375 ], [ 73.8123, 21.38079 ], [ 73.81101, 21.37563 ], [ 73.81088, 21.36379 ], [ 73.8098, 21.35832 ], [ 73.80402, 21.34989 ], [ 73.78627, 21.35086 ], [ 73.77933, 21.34948 ], [ 73.77316, 21.34714 ], [ 73.76494, 21.34335 ], [ 73.75141, 21.33523 ], [ 73.73041, 21.32843 ], [ 73.71457, 21.3174 ], [ 73.70726, 21.30981 ], [ 73.7029, 21.30242 ], [ 73.70153, 21.29521 ], [ 73.70182, 21.29123 ], [ 73.70708, 21.27543 ], [ 73.70773, 21.26965 ], [ 73.70661, 21.26408 ], [ 73.70452, 21.25946 ], [ 73.68748, 21.24099 ], [ 73.68472, 21.23965 ], [ 73.6805, 21.23983 ], [ 73.674, 21.24067 ], [ 73.66254, 21.2437 ], [ 73.648, 21.24513 ], [ 73.63895, 21.24507 ], [ 73.63788, 21.24007 ], [ 73.63502, 21.23942 ], [ 73.63328, 21.23175 ], [ 73.63145, 21.23021 ], [ 73.62935, 21.22572 ], [ 73.62712, 21.22541 ], [ 73.62069, 21.23564 ], [ 73.62063, 21.23746 ], [ 73.61902, 21.23815 ], [ 73.62048, 21.23952 ], [ 73.61878, 21.23949 ], [ 73.61725, 21.24295 ], [ 73.61247, 21.24602 ], [ 73.61329, 21.24789 ], [ 73.61689, 21.24852 ], [ 73.60993, 21.24896 ], [ 73.60748, 21.24172 ], [ 73.60514, 21.23872 ], [ 73.59782, 21.23409 ], [ 73.59541, 21.23383 ], [ 73.59462, 21.23257 ], [ 73.59026, 21.23078 ], [ 73.59097, 21.22881 ], [ 73.59688, 21.22292 ], [ 73.59803, 21.22009 ], [ 73.59776, 21.21763 ], [ 73.59416, 21.21231 ], [ 73.59423, 21.21118 ], [ 73.59622, 21.20594 ], [ 73.59587, 21.20307 ], [ 73.59798, 21.20349 ], [ 73.59948, 21.20243 ], [ 73.59929, 21.19952 ], [ 73.59767, 21.19613 ], [ 73.59773, 21.19361 ], [ 73.59987, 21.19126 ], [ 73.60301, 21.18977 ], [ 73.58807, 21.18761 ], [ 73.58319, 21.18311 ], [ 73.57593, 21.17971 ], [ 73.57764, 21.16792 ], [ 73.58328, 21.16101 ], [ 73.57688, 21.15667 ], [ 73.57852, 21.15048 ], [ 73.59879, 21.15663 ], [ 73.60077, 21.15022 ], [ 73.60513, 21.14401 ], [ 73.61763, 21.1427 ], [ 73.61191, 21.13808 ], [ 73.61668, 21.12564 ], [ 73.61846, 21.11846 ], [ 73.63103, 21.12328 ], [ 73.64638, 21.12125 ], [ 73.6519, 21.1076 ], [ 73.6772, 21.10856 ], [ 73.68895, 21.10079 ], [ 73.70315, 21.11865 ], [ 73.70305, 21.11233 ], [ 73.70549, 21.10843 ], [ 73.71537, 21.10588 ], [ 73.72968, 21.09987 ], [ 73.73198, 21.10443 ], [ 73.73442, 21.10588 ], [ 73.73645, 21.109 ], [ 73.7399, 21.11061 ], [ 73.74376, 21.11518 ], [ 73.73302, 21.09825 ], [ 73.72993, 21.08243 ], [ 73.73714, 21.08004 ], [ 73.73655, 21.0775 ], [ 73.73501, 21.07534 ], [ 73.73438, 21.07101 ], [ 73.73667, 21.06394 ], [ 73.73611, 21.05878 ], [ 73.73429, 21.05497 ], [ 73.7361, 21.05122 ], [ 73.7381, 21.04139 ], [ 73.74088, 21.04022 ], [ 73.74777, 21.04077 ], [ 73.74923, 21.03999 ], [ 73.7506, 21.03758 ], [ 73.75355, 21.03618 ], [ 73.76163, 21.03828 ], [ 73.764, 21.0323 ], [ 73.76826, 21.03099 ], [ 73.76921, 21.02746 ], [ 73.76793, 21.02198 ], [ 73.76509, 21.01778 ], [ 73.76199, 21.01086 ], [ 73.76754, 21.0117 ], [ 73.7787, 21.01972 ], [ 73.78682, 21.02011 ], [ 73.80226, 21.0242 ], [ 73.80449, 21.01786 ], [ 73.80666, 21.00642 ], [ 73.80659, 21.00237 ], [ 73.80503, 20.99758 ], [ 73.80773, 20.99597 ], [ 73.81356, 20.99505 ], [ 73.8194, 20.99515 ], [ 73.82496, 20.98975 ], [ 73.82751, 20.98855 ], [ 73.82995, 20.98918 ], [ 73.8375, 20.98761 ], [ 73.8392, 20.98832 ], [ 73.8436, 20.98765 ], [ 73.84351, 20.98865 ], [ 73.84461, 20.98822 ], [ 73.846, 21.00001 ], [ 73.84709, 20.99839 ], [ 73.8506, 20.99828 ], [ 73.85404, 20.99474 ], [ 73.862, 20.99039 ], [ 73.86632, 20.9899 ], [ 73.86786, 20.9878 ], [ 73.86778, 20.98622 ], [ 73.86902, 20.98526 ], [ 73.86946, 20.98606 ], [ 73.87149, 20.98572 ], [ 73.88675, 20.98026 ], [ 73.89086, 20.98082 ], [ 73.89239, 20.97947 ], [ 73.89441, 20.9797 ], [ 73.89641, 20.98202 ], [ 73.9013, 20.98231 ], [ 73.90138, 20.97685 ], [ 73.90332, 20.97219 ], [ 73.90632, 20.96815 ], [ 73.90801, 20.96779 ], [ 73.90846, 20.96692 ], [ 73.90903, 20.96438 ], [ 73.90798, 20.95974 ], [ 73.89902, 20.9603 ], [ 73.89231, 20.95571 ], [ 73.8882, 20.93359 ], [ 73.88569, 20.92962 ], [ 73.88114, 20.92994 ], [ 73.87589, 20.92781 ], [ 73.87771, 20.93151 ], [ 73.87365, 20.93675 ], [ 73.87408, 20.9386 ], [ 73.8703, 20.93973 ], [ 73.87145, 20.94224 ], [ 73.86886, 20.94295 ], [ 73.86758, 20.94248 ], [ 73.86698, 20.94413 ], [ 73.85871, 20.94662 ], [ 73.8216, 20.95372 ], [ 73.82032, 20.95312 ], [ 73.82029, 20.94771 ], [ 73.81849, 20.94806 ], [ 73.81463, 20.94897 ], [ 73.81213, 20.95578 ], [ 73.79731, 20.95867 ], [ 73.79527, 20.96668 ], [ 73.79471, 20.97366 ], [ 73.79214, 20.98277 ], [ 73.78972, 20.98506 ], [ 73.7821, 20.98806 ], [ 73.77489, 20.98758 ], [ 73.77161, 20.99066 ], [ 73.7717, 20.99404 ], [ 73.77077, 20.9947 ], [ 73.76698, 20.99312 ], [ 73.76527, 20.99319 ], [ 73.76158, 20.9999 ], [ 73.75827, 20.99901 ], [ 73.75573, 20.99952 ], [ 73.75572, 21.00238 ], [ 73.75267, 21.00614 ], [ 73.74493, 21.0048 ], [ 73.7409, 21.0023 ], [ 73.74075, 21.00374 ], [ 73.73655, 21.00294 ], [ 73.72884, 21.00607 ], [ 73.72683, 21.00212 ], [ 73.72531, 21.00129 ], [ 73.72342, 21.00187 ], [ 73.71768, 21.00656 ], [ 73.71362, 21.0063 ], [ 73.71201, 21.00441 ], [ 73.70533, 21.00635 ], [ 73.70242, 21.0035 ], [ 73.69602, 21.00284 ], [ 73.69296, 21.00079 ], [ 73.68701, 21.00566 ], [ 73.67852, 21.00326 ], [ 73.67652, 21.00108 ], [ 73.67128, 21.00114 ], [ 73.66948, 21.00296 ], [ 73.66895, 21.00517 ], [ 73.66754, 21.00609 ], [ 73.6647, 21.00723 ], [ 73.66019, 21.00767 ], [ 73.65812, 21.0065 ], [ 73.655, 21.00604 ], [ 73.65199, 21.00252 ], [ 73.65076, 21.00067 ], [ 73.65244, 20.99808 ], [ 73.65204, 20.9962 ], [ 73.65283, 20.99382 ], [ 73.65212, 20.99186 ], [ 73.65047, 20.99043 ], [ 73.64878, 20.99154 ], [ 73.64567, 20.99053 ], [ 73.64481, 20.98795 ], [ 73.64617, 20.98371 ], [ 73.64473, 20.97943 ], [ 73.64319, 20.97764 ], [ 73.63783, 20.97533 ], [ 73.63493, 20.9756 ], [ 73.62961, 20.97827 ], [ 73.62642, 20.98279 ], [ 73.62359, 20.98513 ], [ 73.62027, 20.99088 ], [ 73.61072, 20.99258 ], [ 73.61043, 20.99179 ], [ 73.612, 20.98989 ], [ 73.61132, 20.98736 ], [ 73.61271, 20.98589 ], [ 73.61183, 20.98388 ], [ 73.61335, 20.98138 ], [ 73.60933, 20.97789 ], [ 73.60276, 20.97661 ], [ 73.60061, 20.97456 ], [ 73.59581, 20.9624 ], [ 73.59634, 20.95914 ], [ 73.59584, 20.95893 ], [ 73.59026, 20.96267 ], [ 73.585, 20.97011 ], [ 73.58713, 20.97216 ], [ 73.58987, 20.98747 ], [ 73.59195, 20.99181 ], [ 73.59113, 20.9996 ], [ 73.58663, 21.00343 ], [ 73.5829, 21.00476 ], [ 73.58092, 21.00633 ], [ 73.58089, 21.00843 ], [ 73.57689, 21.00833 ], [ 73.57726, 21.00966 ], [ 73.57486, 21.012 ], [ 73.5716, 21.01283 ], [ 73.56889, 21.01689 ], [ 73.56363, 21.02233 ], [ 73.55794, 21.02396 ], [ 73.55455, 21.0267 ], [ 73.55107, 21.02742 ], [ 73.54762, 21.02983 ], [ 73.53795, 21.03159 ], [ 73.53315, 21.03521 ], [ 73.53166, 21.03495 ], [ 73.52977, 21.03154 ], [ 73.52835, 21.03078 ], [ 73.51851, 21.03288 ], [ 73.51264, 21.02979 ], [ 73.50492, 21.03085 ], [ 73.50289, 21.03235 ], [ 73.50233, 21.03405 ], [ 73.49495, 21.03415 ], [ 73.4947, 21.03528 ], [ 73.49246, 21.03724 ], [ 73.48519, 21.03917 ], [ 73.48459, 21.04027 ], [ 73.48496, 21.04224 ], [ 73.48351, 21.04435 ], [ 73.47905, 21.04679 ], [ 73.47699, 21.0506 ], [ 73.47465, 21.05171 ], [ 73.46966, 21.05125 ], [ 73.46593, 21.05348 ], [ 73.46467, 21.05331 ], [ 73.46006, 21.05023 ], [ 73.45159, 21.04781 ], [ 73.44923, 21.0488 ], [ 73.44674, 21.05182 ], [ 73.44417, 21.05266 ], [ 73.43877, 21.04993 ], [ 73.43432, 21.04931 ], [ 73.43448, 21.05229 ], [ 73.43275, 21.05594 ], [ 73.43338, 21.05745 ], [ 73.43604, 21.05753 ], [ 73.44141, 21.06006 ], [ 73.44679, 21.0608 ], [ 73.44984, 21.06889 ], [ 73.44955, 21.0707 ], [ 73.45058, 21.07174 ], [ 73.44977, 21.07177 ], [ 73.4489, 21.0735 ], [ 73.4462, 21.08075 ], [ 73.44795, 21.08499 ], [ 73.45078, 21.08655 ], [ 73.44899, 21.09271 ], [ 73.44719, 21.09474 ], [ 73.44664, 21.09662 ], [ 73.4466, 21.10393 ], [ 73.45107, 21.10555 ], [ 73.45299, 21.10837 ], [ 73.45584, 21.11042 ], [ 73.45758, 21.11052 ], [ 73.45787, 21.11242 ], [ 73.45628, 21.11903 ], [ 73.46007, 21.12579 ], [ 73.4605, 21.12804 ], [ 73.45936, 21.13182 ], [ 73.45505, 21.13415 ], [ 73.45261, 21.13323 ], [ 73.44993, 21.13401 ], [ 73.44794, 21.13081 ], [ 73.44706, 21.13242 ], [ 73.44645, 21.13162 ], [ 73.44502, 21.13197 ], [ 73.43994, 21.12889 ], [ 73.43797, 21.12973 ], [ 73.43471, 21.12817 ], [ 73.43511, 21.13209 ], [ 73.43431, 21.13385 ], [ 73.43581, 21.13412 ], [ 73.4361, 21.13498 ], [ 73.43404, 21.13608 ], [ 73.43498, 21.13882 ], [ 73.43405, 21.14084 ], [ 73.4339, 21.14416 ], [ 73.43469, 21.14709 ], [ 73.43899, 21.15017 ], [ 73.43886, 21.15164 ], [ 73.43669, 21.15429 ], [ 73.43358, 21.15523 ], [ 73.43305, 21.15697 ], [ 73.4312, 21.15743 ], [ 73.4307, 21.1592 ], [ 73.42936, 21.15877 ], [ 73.42798, 21.1635 ], [ 73.42538, 21.16639 ], [ 73.42383, 21.1732 ], [ 73.42204, 21.17561 ], [ 73.42381, 21.17637 ], [ 73.42408, 21.17966 ], [ 73.42653, 21.18153 ], [ 73.42626, 21.19048 ], [ 73.42753, 21.19282 ], [ 73.427, 21.19629 ], [ 73.42391, 21.19704 ], [ 73.42149, 21.19581 ], [ 73.41907, 21.19738 ], [ 73.41753, 21.20008 ], [ 73.41786, 21.20103 ], [ 73.41561, 21.20709 ], [ 73.41419, 21.21443 ], [ 73.41542, 21.21787 ], [ 73.42757, 21.22173 ], [ 73.43085, 21.2244 ], [ 73.43239, 21.22454 ], [ 73.43292, 21.2287 ], [ 73.43132, 21.23223 ], [ 73.42285, 21.23117 ], [ 73.41886, 21.23215 ], [ 73.41566, 21.23525 ], [ 73.41416, 21.24299 ], [ 73.41504, 21.25063 ], [ 73.41653, 21.25419 ], [ 73.41526, 21.26414 ], [ 73.41622, 21.26558 ], [ 73.41532, 21.26855 ], [ 73.41457, 21.27799 ], [ 73.4269, 21.27559 ], [ 73.44214, 21.26779 ], [ 73.44427, 21.27128 ], [ 73.4453, 21.27649 ], [ 73.44833, 21.27745 ], [ 73.44891, 21.28835 ], [ 73.44571, 21.30283 ], [ 73.44748, 21.30757 ], [ 73.44299, 21.30889 ], [ 73.44045, 21.31195 ], [ 73.43949, 21.31542 ], [ 73.43724, 21.31413 ], [ 73.43227, 21.31394 ], [ 73.43472, 21.31572 ], [ 73.43602, 21.31952 ], [ 73.43893, 21.32295 ], [ 73.43865, 21.32493 ], [ 73.44016, 21.32611 ], [ 73.43793, 21.33596 ], [ 73.43874, 21.34533 ], [ 73.44225, 21.35178 ], [ 73.4494, 21.37192 ], [ 73.45368, 21.37696 ], [ 73.45476, 21.38395 ], [ 73.46681, 21.38366 ], [ 73.48224, 21.38162 ], [ 73.49344, 21.38132 ], [ 73.51005, 21.37874 ], [ 73.50971, 21.36821 ], [ 73.51178, 21.35738 ], [ 73.51388, 21.35358 ], [ 73.52053, 21.35354 ], [ 73.52247, 21.351 ], [ 73.52479, 21.35025 ], [ 73.52687, 21.35111 ], [ 73.52712, 21.35221 ], [ 73.52499, 21.35643 ], [ 73.52609, 21.36047 ], [ 73.5256, 21.3649 ], [ 73.52682, 21.36548 ], [ 73.53054, 21.36494 ], [ 73.53219, 21.36748 ], [ 73.53476, 21.36873 ], [ 73.53864, 21.36915 ], [ 73.53954, 21.36827 ], [ 73.53944, 21.36643 ], [ 73.54194, 21.36585 ], [ 73.54547, 21.36367 ], [ 73.55429, 21.3662 ], [ 73.55711, 21.36785 ], [ 73.55961, 21.36497 ], [ 73.56207, 21.36439 ], [ 73.56624, 21.36485 ], [ 73.57978, 21.36952 ], [ 73.58048, 21.36923 ], [ 73.58086, 21.36701 ], [ 73.58507, 21.36838 ], [ 73.58973, 21.36573 ], [ 73.5938, 21.37064 ], [ 73.59563, 21.36874 ], [ 73.59749, 21.36805 ], [ 73.60196, 21.37121 ], [ 73.60456, 21.37007 ], [ 73.60702, 21.37079 ], [ 73.60885, 21.37044 ], [ 73.60986, 21.37216 ], [ 73.60874, 21.37583 ], [ 73.60969, 21.3767 ], [ 73.61098, 21.37645 ], [ 73.61328, 21.37845 ], [ 73.61389, 21.37714 ], [ 73.61566, 21.37624 ], [ 73.61798, 21.37699 ], [ 73.61895, 21.37834 ], [ 73.62346, 21.37757 ], [ 73.62508, 21.3791 ], [ 73.62714, 21.37962 ], [ 73.64435, 21.38243 ], [ 73.64829, 21.38231 ], [ 73.65231, 21.3808 ], [ 73.66515, 21.38264 ], [ 73.67817, 21.38724 ], [ 73.68462, 21.39322 ], [ 73.69825, 21.39601 ], [ 73.70965, 21.39968 ], [ 73.70985, 21.40385 ], [ 73.71603, 21.40618 ], [ 73.73055, 21.40884 ], [ 73.73421, 21.40881 ], [ 73.74308, 21.41099 ], [ 73.74832, 21.41005 ], [ 73.75031, 21.41102 ], [ 73.7583, 21.41071 ], [ 73.76284, 21.40966 ], [ 73.76966, 21.41108 ], [ 73.7768, 21.41113 ], [ 73.78205, 21.41319 ], [ 73.79295, 21.41151 ], [ 73.79404, 21.4107 ], [ 73.80253, 21.4116 ], [ 73.81366, 21.40333 ], [ 73.81861, 21.40124 ] ] ] } },
{ "type": "Feature", "properties": { "OBJECTID": 2129, "state_lgd": "24", "state_name": "GUJARAT", "district_lgd": "493", "district_name": "TAPI", "district_name_source": "district_table", "subdistrict_lgd": "3943", "subdistrict_name": "UCHCHHAL", "subdistrict_type": "Taluk", "name_corrupted": false, "remarks": "", "label_lon": 73.786138200101533, "label_lat": 21.280656883044621 }, "geometry": { "type": "Polygon", "coordinates": [ [ [ 73.92785, 21.42729 ], [ 73.93189, 21.4271 ], [ 73.93635, 21.4091 ], [ 73.93893, 21.40502 ], [ 73.94407, 21.39997 ], [ 73.94475, 21.38112 ], [ 73.94918, 21.35116 ], [ 73.94585, 21.34357 ], [ 73.94235, 21.32562 ], [ 73.94273, 21.30031 ], [ 73.93242, 21.29072 ], [ 73.92966, 21.28985 ], [ 73.92691, 21.29073 ], [ 73.92224, 21.28964 ], [ 73.91897, 21.28555 ], [ 73.90873, 21.27867 ], [ 73.9021, 21.27757 ], [ 73.89927, 21.27347 ], [ 73.89744, 21.27225 ], [ 73.87961, 21.26596 ], [ 73.87775, 21.26614 ], [ 73.86338, 21.27266 ], [ 73.8597, 21.27151 ], [ 73.85308, 21.27297 ], [ 73.84971, 21.27472 ], [ 73.84119, 21.27212 ], [ 73.83629, 21.27169 ], [ 73.82654, 21.26772 ], [ 73.82555, 21.2683 ], [ 73.82506, 21.27136 ], [ 73.82287, 21.27086 ], [ 73.82177, 21.26866 ], [ 73.82314, 21.26541 ], [ 73.82238, 21.2611 ], [ 73.82749, 21.25217 ], [ 73.82846, 21.23998 ], [ 73.81181, 21.23123 ], [ 73.811, 21.21974 ], [ 73.81132, 21.20934 ], [ 73.81073, 21.20762 ], [ 73.8118, 21.20744 ], [ 73.81296, 21.20573 ], [ 73.81543, 21.19735 ], [ 73.82605, 21.20013 ], [ 73.8259, 21.18716 ], [ 73.82584, 21.18661 ], [ 73.82328, 21.18655 ], [ 73.82298, 21.18514 ], [ 73.81987, 21.18673 ], [ 73.81576, 21.17396 ], [ 73.8027, 21.17492 ], [ 73.80233, 21.17615 ], [ 73.79366, 21.18072 ], [ 73.79356, 21.18175 ], [ 73.78847, 21.18224 ], [ 73.7847, 21.18399 ], [ 73.78283, 21.17432 ], [ 73.78135, 21.1711 ], [ 73.77929, 21.1696 ], [ 73.7736, 21.16866 ], [ 73.77231, 21.16464 ], [ 73.76513, 21.16516 ], [ 73.75757, 21.16743 ], [ 73.75284, 21.16695 ], [ 73.75192, 21.16788 ], [ 73.74925, 21.16809 ], [ 73.74019, 21.16761 ], [ 73.74009, 21.17112 ], [ 73.72975, 21.16538 ], [ 73.72852, 21.16194 ], [ 73.72921, 21.16058 ], [ 73.73408, 21.15798 ], [ 73.73712, 21.15325 ], [ 73.73742, 21.15022 ], [ 73.7332, 21.14832 ], [ 73.73321, 21.14235 ], [ 73.73181, 21.14097 ], [ 73.73142, 21.14198 ], [ 73.72102, 21.14204 ], [ 73.71849, 21.14157 ], [ 73.71897, 21.13976 ], [ 73.71304, 21.14247 ], [ 73.71074, 21.14543 ], [ 73.70659, 21.14462 ], [ 73.70134, 21.14632 ], [ 73.70178, 21.15369 ], [ 73.68164, 21.15124 ], [ 73.67536, 21.15261 ], [ 73.67604, 21.15352 ], [ 73.67271, 21.15443 ], [ 73.66749, 21.15463 ], [ 73.66424, 21.15327 ], [ 73.66494, 21.1473 ], [ 73.65753, 21.14585 ], [ 73.64336, 21.13957 ], [ 73.63464, 21.14088 ], [ 73.62743, 21.14335 ], [ 73.62994, 21.14883 ], [ 73.63003, 21.15346 ], [ 73.62927, 21.15492 ], [ 73.61472, 21.15578 ], [ 73.60779, 21.15898 ], [ 73.60579, 21.17008 ], [ 73.60645, 21.17876 ], [ 73.5996, 21.1817 ], [ 73.59385, 21.17439 ], [ 73.58101, 21.16945 ], [ 73.57742, 21.17075 ], [ 73.57593, 21.17971 ], [ 73.58319, 21.18311 ], [ 73.58807, 21.18761 ], [ 73.60301, 21.18977 ], [ 73.59987, 21.19126 ], [ 73.59773, 21.19361 ], [ 73.59767, 21.19613 ], [ 73.59929, 21.19952 ], [ 73.59948, 21.20243 ], [ 73.59798, 21.20349 ], [ 73.59587, 21.20307 ], [ 73.59622, 21.20594 ], [ 73.59423, 21.21118 ], [ 73.59416, 21.21231 ], [ 73.59776, 21.21763 ], [ 73.59803, 21.22009 ], [ 73.59688, 21.22292 ], [ 73.59097, 21.22881 ], [ 73.59026, 21.23078 ], [ 73.59462, 21.23257 ], [ 73.59541, 21.23383 ], [ 73.59782, 21.23409 ], [ 73.60514, 21.23872 ], [ 73.60748, 21.24172 ], [ 73.60993, 21.24896 ], [ 73.61689, 21.24852 ], [ 73.61329, 21.24789 ], [ 73.61247, 21.24602 ], [ 73.61725, 21.24295 ], [ 73.61878, 21.23949 ], [ 73.62048, 21.23952 ], [ 73.61902, 21.23815 ], [ 73.62063, 21.23746 ], [ 73.62069, 21.23564 ], [ 73.62712, 21.22541 ], [ 73.62935, 21.22572 ], [ 73.63145, 21.23021 ], [ 73.63328, 21.23175 ], [ 73.63502, 21.23942 ], [ 73.63788, 21.24007 ], [ 73.63895, 21.24507 ], [ 73.648, 21.24513 ], [ 73.66254, 21.2437 ], [ 73.674, 21.24067 ], [ 73.6805, 21.23983 ], [ 73.68472, 21.23965 ], [ 73.68748, 21.24099 ], [ 73.70452, 21.25946 ], [ 73.70661, 21.26408 ], [ 73.70773, 21.26965 ], [ 73.70708, 21.27543 ], [ 73.70182, 21.29123 ], [ 73.70153, 21.29521 ], [ 73.7029, 21.30242 ], [ 73.70726, 21.30981 ], [ 73.71457, 21.3174 ], [ 73.73041, 21.32843 ], [ 73.75141, 21.33523 ], [ 73.76494, 21.34335 ], [ 73.77316, 21.34714 ], [ 73.77933, 21.34948 ], [ 73.78627, 21.35086 ], [ 73.80402, 21.34989 ], [ 73.8098, 21.35832 ], [ 73.81088, 21.36379 ], [ 73.81101, 21.37563 ], [ 73.8123, 21.38079 ], [ 73.81772, 21.39375 ], [ 73.81861, 21.40124 ], [ 73.82578, 21.40704 ], [ 73.83403, 21.4123 ], [ 73.83486, 21.41397 ], [ 73.8347, 21.42023 ], [ 73.83762, 21.42385 ], [ 73.86791, 21.44343 ], [ 73.88182, 21.45086 ], [ 73.88368, 21.43823 ], [ 73.88903, 21.43774 ], [ 73.89635, 21.43493 ], [ 73.92785, 21.42729 ] ] ] } },
{ "type": "Feature", "properties": { "OBJECTID": 2146, "state_lgd": "24", "state_name": "GUJARAT", "district_lgd": "493", "district_name": "TAPI", "district_name_source": "district_table", "subdistrict_lgd": "3946", "subdistrict_name": "VALOD", "subdistrict_type": "Taluk", "name_corrupted": false, "remarks": "", "label_lon": 73.27318752603118, "label_lat": 21.057771152144106 }, "geometry": { "type": "Polygon", "coordinates": [ [ [ 73.30794, 21.19916 ], [ 73.31034, 21.19717 ], [ 73.30992, 21.19547 ], [ 73.31102, 21.19461 ], [ 73.31231, 21.19123 ], [ 73.31368, 21.19178 ], [ 73.31375, 21.19115 ], [ 73.3147, 21.19116 ], [ 73.3153, 21.18848 ], [ 73.31632, 21.18777 ], [ 73.31574, 21.18759 ], [ 73.31632, 21.18578 ], [ 73.31891, 21.18668 ], [ 73.32092, 21.18411 ], [ 73.32724, 21.18248 ], [ 73.32796, 21.17898 ], [ 73.32991, 21.17643 ], [ 73.33671, 21.17239 ], [ 73.3418, 21.16293 ], [ 73.34187, 21.15801 ], [ 73.34002, 21.15617 ], [ 73.33495, 21.1546 ], [ 73.3167, 21.15448 ], [ 73.31382, 21.1518 ], [ 73.30784, 21.14925 ], [ 73.3001, 21.14383 ], [ 73.30069, 21.1428 ], [ 73.30013, 21.13505 ], [ 73.29752, 21.13241 ], [ 73.2978, 21.12991 ], [ 73.29715, 21.12937 ], [ 73.29481, 21.12915 ], [ 73.29162, 21.13081 ], [ 73.2883, 21.12897 ], [ 73.28117, 21.12838 ], [ 73.2758, 21.13283 ], [ 73.27399, 21.1254 ], [ 73.27239, 21.12297 ], [ 73.27075, 21.12296 ], [ 73.26976, 21.12109 ], [ 73.26789, 21.12139 ], [ 73.26768, 21.11707 ], [ 73.2713, 21.1169 ], [ 73.27244, 21.113 ], [ 73.28081, 21.11091 ], [ 73.2809, 21.10981 ], [ 73.28871, 21.10832 ], [ 73.29647, 21.1047 ], [ 73.29784, 21.10501 ], [ 73.29804, 21.10391 ], [ 73.29994, 21.10386 ], [ 73.30388, 21.0995 ], [ 73.30512, 21.09721 ], [ 73.3051, 21.0947 ], [ 73.30824, 21.09343 ], [ 73.31149, 21.09011 ], [ 73.3185, 21.08833 ], [ 73.32154, 21.09001 ], [ 73.32908, 21.09094 ], [ 73.32965, 21.08761 ], [ 73.32642, 21.08606 ], [ 73.32719, 21.08472 ], [ 73.32576, 21.08366 ], [ 73.32524, 21.08128 ], [ 73.32658, 21.07896 ], [ 73.32944, 21.07701 ], [ 73.33165, 21.07185 ], [ 73.33046, 21.06177 ], [ 73.32818, 21.05874 ], [ 73.33369, 21.05535 ], [ 73.33772, 21.05476 ], [ 73.33926, 21.03904 ], [ 73.33237, 21.03833 ], [ 73.33242, 21.03541 ], [ 73.33172, 21.03496 ], [ 73.32205, 21.03273 ], [ 73.32132, 21.03355 ], [ 73.32031, 21.03316 ], [ 73.31601, 21.03417 ], [ 73.30228, 21.03229 ], [ 73.29396, 21.03307 ], [ 73.29248, 21.03086 ], [ 73.29497, 21.02552 ], [ 73.29537, 21.02203 ], [ 73.29295, 21.01766 ], [ 73.29593, 21.01383 ], [ 73.29548, 21.01327 ], [ 73.29673, 21.01253 ], [ 73.30121, 21.00377 ], [ 73.30337, 20.99801 ], [ 73.30281, 20.99559 ], [ 73.30627, 20.99564 ], [ 73.30585, 20.99635 ], [ 73.30764, 20.99665 ], [ 73.3076, 20.99783 ], [ 73.31152, 20.99776 ], [ 73.31775, 20.99507 ], [ 73.32105, 20.99112 ], [ 73.32593, 20.99079 ], [ 73.3215, 20.98398 ], [ 73.32015, 20.98008 ], [ 73.31759, 20.97715 ], [ 73.32169, 20.97359 ], [ 73.32601, 20.97436 ], [ 73.32742, 20.97143 ], [ 73.33015, 20.9708 ], [ 73.33061, 20.96217 ], [ 73.3287, 20.96117 ], [ 73.32912, 20.9598 ], [ 73.32804, 20.95941 ], [ 73.32816, 20.95806 ], [ 73.32589, 20.95419 ], [ 73.3191, 20.95393 ], [ 73.31843, 20.9588 ], [ 73.31757, 20.95912 ], [ 73.31599, 20.95949 ], [ 73.31235, 20.95847 ], [ 73.30948, 20.95902 ], [ 73.30822, 20.95846 ], [ 73.30769, 20.95657 ], [ 73.30668, 20.95637 ], [ 73.30136, 20.95761 ], [ 73.30231, 20.95474 ], [ 73.30191, 20.95233 ], [ 73.29685, 20.95106 ], [ 73.29629, 20.95307 ], [ 73.29417, 20.95344 ], [ 73.294, 20.95471 ], [ 73.2898, 20.9565 ], [ 73.28766, 20.95895 ], [ 73.28573, 20.95911 ], [ 73.2852, 20.96126 ], [ 73.28288, 20.96275 ], [ 73.28283, 20.96402 ], [ 73.28088, 20.964 ], [ 73.28304, 20.96801 ], [ 73.28279, 20.9718 ], [ 73.28444, 20.97442 ], [ 73.28222, 20.97737 ], [ 73.27937, 20.97738 ], [ 73.27223, 20.97607 ], [ 73.26173, 20.97605 ], [ 73.26158, 20.97512 ], [ 73.25584, 20.9751 ], [ 73.25584, 20.97403 ], [ 73.2438, 20.9741 ], [ 73.24415, 20.97277 ], [ 73.24277, 20.97224 ], [ 73.24227, 20.96478 ], [ 73.24471, 20.95726 ], [ 73.2446, 20.95393 ], [ 73.24664, 20.94876 ], [ 73.24618, 20.94854 ], [ 73.24389, 20.94833 ], [ 73.23833, 20.95037 ], [ 73.23674, 20.95227 ], [ 73.23376, 20.95079 ], [ 73.23332, 20.95163 ], [ 73.23197, 20.95061 ], [ 73.23, 20.95072 ], [ 73.22945, 20.95215 ], [ 73.22839, 20.95148 ], [ 73.22822, 20.95261 ], [ 73.22729, 20.95218 ], [ 73.22682, 20.95301 ], [ 73.22504, 20.9525 ], [ 73.22434, 20.95362 ], [ 73.22268, 20.95305 ], [ 73.22251, 20.9541 ], [ 73.22109, 20.95373 ], [ 73.22019, 20.95511 ], [ 73.21885, 20.95418 ], [ 73.21659, 20.95521 ], [ 73.21327, 20.95541 ], [ 73.20977, 20.95754 ], [ 73.20991, 20.95854 ], [ 73.21225, 20.95985 ], [ 73.21201, 20.96181 ], [ 73.21483, 20.96231 ], [ 73.21662, 20.96482 ], [ 73.22092, 20.96657 ], [ 73.22256, 20.96859 ], [ 73.22516, 20.97612 ], [ 73.23654, 20.9814 ], [ 73.24054, 20.99138 ], [ 73.23472, 20.99933 ], [ 73.22764, 21.00672 ], [ 73.22629, 21.00977 ], [ 73.21807, 21.00986 ], [ 73.21377, 21.01105 ], [ 73.20734, 21.0146 ], [ 73.20444, 21.01917 ], [ 73.20458, 21.02163 ], [ 73.2039, 21.02206 ], [ 73.20529, 21.02355 ], [ 73.20218, 21.02657 ], [ 73.20111, 21.02648 ], [ 73.20126, 21.028 ], [ 73.20534, 21.03048 ], [ 73.21229, 21.03872 ], [ 73.21096, 21.0404 ], [ 73.20977, 21.05148 ], [ 73.20503, 21.05136 ], [ 73.20338, 21.05208 ], [ 73.20178, 21.05543 ], [ 73.20166, 21.05749 ], [ 73.19989, 21.05826 ], [ 73.20062, 21.07175 ], [ 73.19814, 21.07514 ], [ 73.19847, 21.07761 ], [ 73.203, 21.07661 ], [ 73.20373, 21.07817 ], [ 73.20868, 21.07671 ], [ 73.21188, 21.07746 ], [ 73.21199, 21.07808 ], [ 73.2125, 21.07697 ], [ 73.21425, 21.07685 ], [ 73.21469, 21.08057 ], [ 73.21571, 21.08097 ], [ 73.22115, 21.08041 ], [ 73.22158, 21.07864 ], [ 73.22317, 21.07918 ], [ 73.22495, 21.08789 ], [ 73.22406, 21.09115 ], [ 73.22662, 21.09057 ], [ 73.22759, 21.09218 ], [ 73.22844, 21.09101 ], [ 73.23361, 21.09136 ], [ 73.2449, 21.08955 ], [ 73.247, 21.08855 ], [ 73.24725, 21.09208 ], [ 73.25308, 21.09285 ], [ 73.25158, 21.0967 ], [ 73.25133, 21.10352 ], [ 73.25027, 21.1079 ], [ 73.2471, 21.11209 ], [ 73.24709, 21.11457 ], [ 73.24406, 21.11584 ], [ 73.24148, 21.11547 ], [ 73.24023, 21.11608 ], [ 73.24047, 21.11533 ], [ 73.23968, 21.11482 ], [ 73.2385, 21.1151 ], [ 73.2392, 21.11593 ], [ 73.23858, 21.11618 ], [ 73.23747, 21.11566 ], [ 73.23085, 21.11663 ], [ 73.22976, 21.11771 ], [ 73.22715, 21.11741 ], [ 73.22583, 21.12243 ], [ 73.22626, 21.12902 ], [ 73.22508, 21.13116 ], [ 73.22419, 21.13105 ], [ 73.22352, 21.13203 ], [ 73.22331, 21.13387 ], [ 73.22404, 21.13443 ], [ 73.22961, 21.13364 ], [ 73.23106, 21.12995 ], [ 73.23426, 21.12896 ], [ 73.23804, 21.12917 ], [ 73.24197, 21.12788 ], [ 73.24714, 21.1286 ], [ 73.25387, 21.12209 ], [ 73.25708, 21.12484 ], [ 73.25819, 21.12471 ], [ 73.2596, 21.13209 ], [ 73.26034, 21.1327 ], [ 73.26488, 21.13293 ], [ 73.26775, 21.13156 ], [ 73.26926, 21.13166 ], [ 73.26936, 21.13406 ], [ 73.2703, 21.13443 ], [ 73.27111, 21.1381 ], [ 73.26937, 21.13891 ], [ 73.27012, 21.14161 ], [ 73.26921, 21.14326 ], [ 73.27079, 21.14454 ], [ 73.27066, 21.14745 ], [ 73.28146, 21.15357 ], [ 73.28481, 21.15648 ], [ 73.28377, 21.16265 ], [ 73.28397, 21.1639 ], [ 73.28551, 21.16447 ], [ 73.28666, 21.17254 ], [ 73.28575, 21.17503 ], [ 73.28535, 21.18107 ], [ 73.28311, 21.18433 ], [ 73.28798, 21.19355 ], [ 73.2886, 21.19658 ], [ 73.29585, 21.19719 ], [ 73.29965, 21.19662 ], [ 73.30319, 21.19875 ], [ 73.30794, 21.19916 ] ] ] } },
{ "type": "Feature", "properties": { "OBJECTID": 2160, "state_lgd": "24", "state_name": "GUJARAT", "district_lgd": "493", "district_name": "TAPI", "district_name_source": "district_table", "subdistrict_lgd": "3945", "subdistrict_name": "VYARA", "subdistrict_type": "Taluk", "name_corrupted": false, "remarks": "", "label_lon": 73.399490608115315, "label_lat": 21.089664754002165 }, "geometry": { "type": "Polygon", "coordinates": [ [ [ 73.41457, 21.27799 ], [ 73.41532, 21.26855 ], [ 73.41622, 21.26558 ], [ 73.41526, 21.26414 ], [ 73.41653, 21.25419 ], [ 73.41504, 21.25063 ], [ 73.41416, 21.24299 ], [ 73.41566, 21.23525 ], [ 73.41886, 21.23215 ], [ 73.42285, 21.23117 ], [ 73.43132, 21.23223 ], [ 73.43292, 21.2287 ], [ 73.43239, 21.22454 ], [ 73.43085, 21.2244 ], [ 73.42757, 21.22173 ], [ 73.41542, 21.21787 ], [ 73.41419, 21.21443 ], [ 73.41561, 21.20709 ], [ 73.41786, 21.20103 ], [ 73.41753, 21.20008 ], [ 73.41907, 21.19738 ], [ 73.42149, 21.19581 ], [ 73.42391, 21.19704 ], [ 73.427, 21.19629 ], [ 73.42753, 21.19282 ], [ 73.42626, 21.19048 ], [ 73.42653, 21.18153 ], [ 73.42408, 21.17966 ], [ 73.42381, 21.17637 ], [ 73.42204, 21.17561 ], [ 73.42383, 21.1732 ], [ 73.42538, 21.16639 ], [ 73.42798, 21.1635 ], [ 73.42936, 21.15877 ], [ 73.4307, 21.1592 ], [ 73.4312, 21.15743 ], [ 73.43305, 21.15697 ], [ 73.43358, 21.15523 ], [ 73.43669, 21.15429 ], [ 73.43886, 21.15164 ], [ 73.43899, 21.15017 ], [ 73.43469, 21.14709 ], [ 73.4339, 21.14416 ], [ 73.43405, 21.14084 ], [ 73.43498, 21.13882 ], [ 73.43404, 21.13608 ], [ 73.4361, 21.13498 ], [ 73.43581, 21.13412 ], [ 73.43431, 21.13385 ], [ 73.43511, 21.13209 ], [ 73.43471, 21.12817 ], [ 73.43797, 21.12973 ], [ 73.43994, 21.12889 ], [ 73.44502, 21.13197 ], [ 73.44645, 21.13162 ], [ 73.44706, 21.13242 ], [ 73.44794, 21.13081 ], [ 73.44993, 21.13401 ], [ 73.45261, 21.13323 ], [ 73.45505, 21.13415 ], [ 73.45936, 21.13182 ], [ 73.4605, 21.12804 ], [ 73.46007, 21.12579 ], [ 73.45628, 21.11903 ], [ 73.45787, 21.11242 ], [ 73.45758, 21.11052 ], [ 73.45584, 21.11042 ], [ 73.45299, 21.10837 ], [ 73.45107, 21.10555 ], [ 73.4466, 21.10393 ], [ 73.44664, 21.09662 ], [ 73.44719, 21.09474 ], [ 73.44899, 21.09271 ], [ 73.45078, 21.08655 ], [ 73.44795, 21.08499 ], [ 73.4462, 21.08075 ], [ 73.4489, 21.0735 ], [ 73.44977, 21.07177 ], [ 73.45058, 21.07174 ], [ 73.44955, 21.0707 ], [ 73.44984, 21.06889 ], [ 73.44679, 21.0608 ], [ 73.44141, 21.06006 ], [ 73.43604, 21.05753 ], [ 73.43338, 21.05745 ], [ 73.43275, 21.05594 ], [ 73.43448, 21.05229 ], [ 73.43432, 21.04931 ], [ 73.43877, 21.04993 ], [ 73.44417, 21.05266 ], [ 73.44674, 21.05182 ], [ 73.44923, 21.0488 ], [ 73.45159, 21.04781 ], [ 73.46006, 21.05023 ], [ 73.46467, 21.05331 ], [ 73.46593, 21.05348 ], [ 73.46966, 21.05125 ], [ 73.47465, 21.05171 ], [ 73.47699, 21.0506 ], [ 73.47905, 21.04679 ], [ 73.48351, 21.04435 ], [ 73.48496, 21.04224 ], [ 73.48467, 21.03955 ], [ 73.4876, 21.03809 ], [ 73.49246, 21.03724 ], [ 73.4947, 21.03528 ], [ 73.49495, 21.03415 ], [ 73.50233, 21.03405 ], [ 73.50289, 21.03235 ], [ 73.50492, 21.03085 ], [ 73.51264, 21.02979 ], [ 73.51851, 21.03288 ], [ 73.52835, 21.03078 ], [ 73.52977, 21.03154 ], [ 73.53166, 21.03495 ], [ 73.53315, 21.03521 ], [ 73.53795, 21.03159 ], [ 73.54762, 21.02983 ], [ 73.55107, 21.02742 ], [ 73.55455, 21.0267 ], [ 73.55794, 21.02396 ], [ 73.56363, 21.02233 ], [ 73.56889, 21.01689 ], [ 73.5716, 21.01283 ], [ 73.57013, 21.01261 ], [ 73.56807, 21.01005 ], [ 73.56695, 21.00999 ], [ 73.56369, 21.0109 ], [ 73.56115, 21.0145 ], [ 73.55763, 21.01487 ], [ 73.55535, 21.0135 ], [ 73.55429, 21.00978 ], [ 73.54906, 21.00858 ], [ 73.54688, 21.00663 ], [ 73.54667, 20.99607 ], [ 73.54592, 20.99437 ], [ 73.54569, 20.98838 ], [ 73.54463, 20.9864 ], [ 73.54487, 20.9779 ], [ 73.54417, 20.97411 ], [ 73.54246, 20.97056 ], [ 73.54004, 20.96998 ], [ 73.53641, 20.97268 ], [ 73.53141, 20.9743 ], [ 73.5274, 20.97085 ], [ 73.52717, 20.96534 ], [ 73.52588, 20.96299 ], [ 73.52447, 20.95449 ], [ 73.52476, 20.94907 ], [ 73.52324, 20.94776 ], [ 73.51819, 20.94694 ], [ 73.51312, 20.94874 ], [ 73.51026, 20.94739 ], [ 73.5074, 20.95274 ], [ 73.50361, 20.95423 ], [ 73.50553, 20.95762 ], [ 73.50544, 20.96107 ], [ 73.50768, 20.96392 ], [ 73.51108, 20.96551 ], [ 73.5152, 20.96527 ], [ 73.52059, 20.96863 ], [ 73.51984, 20.96872 ], [ 73.51635, 20.98212 ], [ 73.51517, 20.98321 ], [ 73.49548, 20.98481 ], [ 73.49253, 20.98137 ], [ 73.48696, 20.98516 ], [ 73.4796, 20.97535 ], [ 73.47303, 20.97317 ], [ 73.47154, 20.96956 ], [ 73.4684, 20.96519 ], [ 73.46866, 20.96923 ], [ 73.46847, 20.97015 ], [ 73.46745, 20.97016 ], [ 73.46499, 20.9693 ], [ 73.463, 20.96675 ], [ 73.45245, 20.96282 ], [ 73.45174, 20.96333 ], [ 73.45281, 20.9634 ], [ 73.45192, 20.96634 ], [ 73.44112, 20.981 ], [ 73.43691, 20.97995 ], [ 73.43059, 20.97598 ], [ 73.42978, 20.97452 ], [ 73.42613, 20.97368 ], [ 73.42633, 20.97639 ], [ 73.42163, 20.97704 ], [ 73.41998, 20.97603 ], [ 73.41792, 20.97693 ], [ 73.41697, 20.97839 ], [ 73.41771, 20.98758 ], [ 73.41607, 20.98832 ], [ 73.40976, 20.98834 ], [ 73.40812, 20.98991 ], [ 73.40583, 20.98908 ], [ 73.40607, 20.98821 ], [ 73.39922, 20.98815 ], [ 73.39841, 20.98707 ], [ 73.39591, 20.98855 ], [ 73.39548, 20.98769 ], [ 73.39529, 20.98869 ], [ 73.39273, 20.98938 ], [ 73.38925, 20.98852 ], [ 73.38107, 20.9913 ], [ 73.37765, 20.99324 ], [ 73.37733, 20.99264 ], [ 73.37574, 20.99319 ], [ 73.37562, 20.98845 ], [ 73.37461, 20.9852 ], [ 73.37571, 20.98173 ], [ 73.37487, 20.98052 ], [ 73.37499, 20.97868 ], [ 73.37439, 20.97868 ], [ 73.36908, 20.98066 ], [ 73.35738, 20.98174 ], [ 73.35492, 20.9831 ], [ 73.35378, 20.9885 ], [ 73.34914, 20.98732 ], [ 73.34518, 20.98791 ], [ 73.33888, 20.99273 ], [ 73.33725, 20.99203 ], [ 73.3345, 20.99502 ], [ 73.33312, 20.99492 ], [ 73.33252, 20.99571 ], [ 73.32886, 20.99213 ], [ 73.32784, 20.9924 ], [ 73.32593, 20.99079 ], [ 73.32105, 20.99112 ], [ 73.31775, 20.99507 ], [ 73.31152, 20.99776 ], [ 73.3076, 20.99783 ], [ 73.30764, 20.99665 ], [ 73.30585, 20.99635 ], [ 73.30627, 20.99564 ], [ 73.30307, 20.99544 ], [ 73.30269, 20.99692 ], [ 73.30337, 20.99801 ], [ 73.30121, 21.00377 ], [ 73.29673, 21.01253 ], [ 73.29548, 21.01327 ], [ 73.29593, 21.01383 ], [ 73.29295, 21.01766 ], [ 73.29538, 21.02134 ], [ 73.29497, 21.02552 ], [ 73.29248, 21.03086 ], [ 73.29396, 21.03307 ], [ 73.30228, 21.03229 ], [ 73.31601, 21.03417 ], [ 73.32031, 21.03316 ], [ 73.32132, 21.03355 ], [ 73.32205, 21.03273 ], [ 73.33172, 21.03496 ], [ 73.33242, 21.03541 ], [ 73.33237, 21.03833 ], [ 73.33926, 21.03904 ], [ 73.33772, 21.05476 ], [ 73.33369, 21.05535 ], [ 73.32818, 21.05874 ], [ 73.33046, 21.06177 ], [ 73.33165, 21.07185 ], [ 73.32944, 21.07701 ], [ 73.32658, 21.07896 ], [ 73.32524, 21.08128 ], [ 73.32576, 21.08366 ], [ 73.32719, 21.08472 ], [ 73.32642, 21.08606 ], [ 73.32898, 21.08691 ], [ 73.32983, 21.08825 ], [ 73.32901, 21.09096 ], [ 73.32154, 21.09001 ], [ 73.3185, 21.08833 ], [ 73.31149, 21.09011 ], [ 73.30824, 21.09343 ], [ 73.3051, 21.0947 ], [ 73.30512, 21.09721 ], [ 73.30388, 21.0995 ], [ 73.29994, 21.10386 ], [ 73.29804, 21.10391 ], [ 73.29784, 21.10501 ], [ 73.29647, 21.1047 ], [ 73.28871, 21.10832 ], [ 73.2809, 21.10981 ], [ 73.28081, 21.11091 ], [ 73.27244, 21.113 ], [ 73.2713, 21.1169 ], [ 73.26768, 21.11707 ], [ 73.26789, 21.12139 ], [ 73.26976, 21.12109 ], [ 73.27075, 21.12296 ], [ 73.27239, 21.12297 ], [ 73.27399, 21.1254 ], [ 73.2758, 21.13283 ], [ 73.28117, 21.12838 ], [ 73.2883, 21.12897 ], [ 73.29162, 21.13081 ], [ 73.29481, 21.12915 ], [ 73.29715, 21.12937 ], [ 73.2978, 21.12991 ], [ 73.29752, 21.13241 ], [ 73.30013, 21.13505 ], [ 73.30069, 21.1428 ], [ 73.3001, 21.14383 ], [ 73.30069, 21.14463 ], [ 73.30784, 21.14925 ], [ 73.31382, 21.1518 ], [ 73.3167, 21.15448 ], [ 73.33495, 21.1546 ], [ 73.34002, 21.15617 ], [ 73.3417, 21.15771 ], [ 73.3418, 21.16293 ], [ 73.33671, 21.17239 ], [ 73.32991, 21.17643 ], [ 73.32796, 21.17898 ], [ 73.32724, 21.18248 ], [ 73.32092, 21.18411 ], [ 73.31891, 21.18668 ], [ 73.31632, 21.18578 ], [ 73.31574, 21.18759 ], [ 73.31632, 21.18777 ], [ 73.3153, 21.18848 ], [ 73.3147, 21.19116 ], [ 73.31375, 21.19115 ], [ 73.31368, 21.19178 ], [ 73.31231, 21.19123 ], [ 73.31102, 21.19461 ], [ 73.30992, 21.19547 ], [ 73.31034, 21.19717 ], [ 73.30769, 21.19956 ], [ 73.30873, 21.20017 ], [ 73.30813, 21.20154 ], [ 73.32753, 21.21104 ], [ 73.32855, 21.21238 ], [ 73.33416, 21.21456 ], [ 73.33411, 21.21685 ], [ 73.34035, 21.21788 ], [ 73.34259, 21.2191 ], [ 73.34271, 21.21703 ], [ 73.34583, 21.21452 ], [ 73.35044, 21.21488 ], [ 73.35734, 21.21701 ], [ 73.36353, 21.21652 ], [ 73.36367, 21.21883 ], [ 73.36476, 21.21886 ], [ 73.36461, 21.2196 ], [ 73.36605, 21.21932 ], [ 73.37098, 21.22222 ], [ 73.37258, 21.22426 ], [ 73.37507, 21.22529 ], [ 73.37467, 21.2265 ], [ 73.37554, 21.22648 ], [ 73.37514, 21.22836 ], [ 73.37604, 21.22866 ], [ 73.37618, 21.23001 ], [ 73.37501, 21.23227 ], [ 73.37608, 21.23498 ], [ 73.37545, 21.23869 ], [ 73.37619, 21.23955 ], [ 73.37734, 21.23885 ], [ 73.37699, 21.2411 ], [ 73.37593, 21.24198 ], [ 73.37517, 21.24483 ], [ 73.37379, 21.24501 ], [ 73.37103, 21.24937 ], [ 73.37013, 21.25596 ], [ 73.36884, 21.25725 ], [ 73.36799, 21.26187 ], [ 73.36419, 21.26483 ], [ 73.36499, 21.26897 ], [ 73.37817, 21.27033 ], [ 73.39758, 21.2766 ], [ 73.41457, 21.27799 ] ] ] } }
]
}
