{
"type": "FeatureCollection",
"name": "026_KULLU",
"crs": { "type": "name", "properties": { "name": "urn:ogc:def:crs:OGC:1.3:CRS84" } },
"xy_coordinate_resolution": 1e-05,
"features": [
{ "type": "Feature", "properties": { "OBJECTID": 100, "state_lgd": "02", "state_name": "HIMACHAL PRADESH", "district_lgd": "026", "district_name": "KULLU", "district_name_source": "district_table", "subdistrict_lgd": "00121", "subdistrict_name": "ANI", "subdistrict_type": "Tehsil", "name_corrupted": false, "remarks": "", "label_lon": 77.421219617528791, "label_lat": 31.462570350480014 }, "geometry": { "type": "Polygon", "coordinates": [ [ [ 77.46508, 31.56052 ], [ 77.48052, 31.55795 ], [ 77.493, 31.55027 ], [ 77.49282, 31.54779 ], [ 77.49142, 31.54521 ], [ 77.49393, 31.5435 ], [ 77.49527, 31.54066 ], [ 77.49513, 31.53775 ], [ 77.49729, 31.53655 ], [ 77.49765, 31.53547 ], [ 77.4952, 31.53301 ], [ 77.49374, 31.52667 ], [ 77.49273, 31.5259 ], [ 77.49385, 31.5222 ], [ 77.50048, 31.52199 ], [ 77.50945, 31.51904 ], [ 77.50981, 31.51558 ], [ 77.51377, 31.50835 ], [ 77.51775, 31.50628 ], [ 77.52174, 31.50542 ], [ 77.5256, 31.50219 ], [ 77.52077, 31.49047 ], [ 77.51453, 31.48903 ], [ 77.50757, 31.48853 ], [ 77.50169, 31.48601 ], [ 77.49866, 31.48164 ], [ 77.49686, 31.48107 ], [ 77.49053, 31.47217 ], [ 77.48753, 31.46979 ], [ 77.48853, 31.46729 ], [ 77.48828, 31.46242 ], [ 77.49051, 31.4509 ], [ 77.48859, 31.44676 ], [ 77.48424, 31.44339 ], [ 77.4879, 31.43551 ], [ 77.48757, 31.42908 ], [ 77.48978, 31.42518 ], [ 77.4866, 31.41784 ], [ 77.48911, 31.41343 ], [ 77.49329, 31.40915 ], [ 77.49635, 31.40313 ], [ 77.50005, 31.40127 ], [ 77.50031, 31.39961 ], [ 77.49327, 31.39729 ], [ 77.48339, 31.38871 ], [ 77.48063, 31.3877 ], [ 77.47499, 31.38241 ], [ 77.46871, 31.38015 ], [ 77.46308, 31.3767 ], [ 77.45955, 31.3734 ], [ 77.4605, 31.37226 ], [ 77.46785, 31.36969 ], [ 77.46835, 31.36507 ], [ 77.47012, 31.36425 ], [ 77.47369, 31.36014 ], [ 77.47464, 31.35588 ], [ 77.47801, 31.35304 ], [ 77.47783, 31.35103 ], [ 77.47438, 31.34921 ], [ 77.46803, 31.35153 ], [ 77.46242, 31.35003 ], [ 77.45703, 31.35127 ], [ 77.45417, 31.34893 ], [ 77.45365, 31.34521 ], [ 77.45202, 31.3439 ], [ 77.4419, 31.34504 ], [ 77.43532, 31.34421 ], [ 77.43416, 31.3436 ], [ 77.43302, 31.34066 ], [ 77.42925, 31.34042 ], [ 77.42672, 31.34146 ], [ 77.42645, 31.34427 ], [ 77.42055, 31.34792 ], [ 77.41752, 31.34775 ], [ 77.41485, 31.34588 ], [ 77.41236, 31.34642 ], [ 77.41058, 31.34866 ], [ 77.40998, 31.35184 ], [ 77.4083, 31.35396 ], [ 77.40147, 31.35831 ], [ 77.39825, 31.36153 ], [ 77.39696, 31.3613 ], [ 77.39331, 31.35525 ], [ 77.39212, 31.35467 ], [ 77.39092, 31.35471 ], [ 77.38693, 31.3595 ], [ 77.38291, 31.3601 ], [ 77.38328, 31.36223 ], [ 77.38506, 31.36302 ], [ 77.38447, 31.36434 ], [ 77.38484, 31.36833 ], [ 77.38608, 31.37072 ], [ 77.38755, 31.37124 ], [ 77.38862, 31.37284 ], [ 77.3884, 31.37436 ], [ 77.38913, 31.37555 ], [ 77.38664, 31.38031 ], [ 77.38803, 31.38388 ], [ 77.38754, 31.38634 ], [ 77.38492, 31.38792 ], [ 77.38523, 31.39196 ], [ 77.38439, 31.39271 ], [ 77.38261, 31.39232 ], [ 77.38137, 31.39343 ], [ 77.38118, 31.39981 ], [ 77.38257, 31.40077 ], [ 77.3803, 31.40293 ], [ 77.38014, 31.40461 ], [ 77.38152, 31.40597 ], [ 77.38136, 31.40802 ], [ 77.3829, 31.40954 ], [ 77.38429, 31.40942 ], [ 77.38611, 31.41155 ], [ 77.38308, 31.41444 ], [ 77.37906, 31.41548 ], [ 77.37618, 31.41947 ], [ 77.37134, 31.42049 ], [ 77.36727, 31.42493 ], [ 77.36313, 31.42593 ], [ 77.36242, 31.42895 ], [ 77.36087, 31.42983 ], [ 77.36067, 31.43081 ], [ 77.35885, 31.4316 ], [ 77.35459, 31.43613 ], [ 77.35122, 31.4372 ], [ 77.34919, 31.43885 ], [ 77.34716, 31.44177 ], [ 77.3466, 31.4453 ], [ 77.33728, 31.44859 ], [ 77.32928, 31.45595 ], [ 77.32888, 31.45929 ], [ 77.32479, 31.46744 ], [ 77.32373, 31.47394 ], [ 77.32125, 31.47746 ], [ 77.3232, 31.48619 ], [ 77.31993, 31.49211 ], [ 77.31751, 31.49393 ], [ 77.31924, 31.49571 ], [ 77.31779, 31.49813 ], [ 77.31668, 31.5044 ], [ 77.31444, 31.50704 ], [ 77.31543, 31.51114 ], [ 77.31355, 31.5169 ], [ 77.31387, 31.5226 ], [ 77.3167, 31.53005 ], [ 77.32162, 31.53018 ], [ 77.3275, 31.53177 ], [ 77.32887, 31.53331 ], [ 77.33245, 31.53394 ], [ 77.34123, 31.53285 ], [ 77.34586, 31.53566 ], [ 77.35164, 31.53584 ], [ 77.35739, 31.53326 ], [ 77.36253, 31.53513 ], [ 77.36825, 31.53856 ], [ 77.37009, 31.53878 ], [ 77.37652, 31.53597 ], [ 77.37815, 31.53686 ], [ 77.38454, 31.53772 ], [ 77.39319, 31.5411 ], [ 77.39921, 31.54242 ], [ 77.40286, 31.54018 ], [ 77.41468, 31.54035 ], [ 77.41799, 31.53773 ], [ 77.42047, 31.53826 ], [ 77.43026, 31.53782 ], [ 77.432, 31.54017 ], [ 77.43191, 31.54251 ], [ 77.43354, 31.54551 ], [ 77.43374, 31.54835 ], [ 77.43571, 31.54993 ], [ 77.43672, 31.55257 ], [ 77.43797, 31.55701 ], [ 77.43783, 31.56094 ], [ 77.44096, 31.56209 ], [ 77.44516, 31.56244 ], [ 77.45388, 31.56024 ], [ 77.46074, 31.56293 ], [ 77.46508, 31.56052 ] ] ] } },
{ "type": "Feature", "properties": { "OBJECTID": 101, "state_lgd": "02", "state_name": "HIMACHAL PRADESH", "district_lgd": "026", "district_name": "KULLU", "district_name_source": "district_table", "subdistrict_lgd": "00120", "subdistrict_name": "BANJAR", "subdistrict_type": "Tehsil", "name_corrupted": false, "remarks": "", "label_lon": 77.456127682773854, "label_lat": 31.64490229594643 }, "geometry": { "type": "Polygon", "coordinates": [ [ [ 77.58964, 31.7368 ], [ 77.59367, 31.72733 ], [ 77.59965, 31.72788 ], [ 77.6088, 31.72398 ], [ 77.61098, 31.72434 ], [ 77.61629, 31.7213 ], [ 77.62105, 31.7212 ], [ 77.62303, 31.71948 ], [ 77.62545, 31.72086 ], [ 77.62721, 31.72302 ], [ 77.63045, 31.72313 ], [ 77.64018, 31.73324 ], [ 77.64308, 31.73555 ], [ 77.64407, 31.73543 ], [ 77.64616, 31.73195 ], [ 77.64843, 31.73024 ], [ 77.64931, 31.72638 ], [ 77.65224, 31.72467 ], [ 77.65432, 31.72194 ], [ 77.65428, 31.71777 ], [ 77.65722, 31.71595 ], [ 77.66784, 31.7152 ], [ 77.67019, 31.71394 ], [ 77.67275, 31.71369 ], [ 77.67861, 31.70917 ], [ 77.67763, 31.70108 ], [ 77.67451, 31.69639 ], [ 77.6701, 31.69482 ], [ 77.66989, 31.69079 ], [ 77.67141, 31.68794 ], [ 77.6705, 31.6857 ], [ 77.66666, 31.68217 ], [ 77.65737, 31.67951 ], [ 77.65792, 31.67698 ], [ 77.65659, 31.67205 ], [ 77.65668, 31.66807 ], [ 77.65059, 31.66637 ], [ 77.64885, 31.66379 ], [ 77.64583, 31.6625 ], [ 77.64682, 31.65918 ], [ 77.64598, 31.65731 ], [ 77.6353, 31.65697 ], [ 77.62985, 31.65175 ], [ 77.62516, 31.65122 ], [ 77.62168, 31.65265 ], [ 77.61707, 31.64468 ], [ 77.59626, 31.63556 ], [ 77.59045, 31.63585 ], [ 77.586, 31.63712 ], [ 77.57623, 31.63588 ], [ 77.57368, 31.63627 ], [ 77.56697, 31.6317 ], [ 77.56574, 31.62906 ], [ 77.56334, 31.62821 ], [ 77.55973, 31.62458 ], [ 77.55953, 31.61699 ], [ 77.56159, 31.61364 ], [ 77.5646, 31.61201 ], [ 77.56549, 31.60878 ], [ 77.56215, 31.60592 ], [ 77.56132, 31.60194 ], [ 77.55842, 31.59903 ], [ 77.55246, 31.59773 ], [ 77.55064, 31.59643 ], [ 77.54748, 31.59652 ], [ 77.54382, 31.59233 ], [ 77.5398, 31.59036 ], [ 77.53697, 31.59114 ], [ 77.53442, 31.58993 ], [ 77.53194, 31.58345 ], [ 77.53312, 31.5813 ], [ 77.53119, 31.57563 ], [ 77.53162, 31.57295 ], [ 77.5272, 31.56943 ], [ 77.52456, 31.57167 ], [ 77.5207, 31.57283 ], [ 77.51905, 31.57469 ], [ 77.5154, 31.57479 ], [ 77.51367, 31.5735 ], [ 77.50983, 31.57362 ], [ 77.50392, 31.56729 ], [ 77.49921, 31.55928 ], [ 77.49937, 31.55711 ], [ 77.49796, 31.55382 ], [ 77.493, 31.55027 ], [ 77.48052, 31.55795 ], [ 77.46424, 31.56069 ], [ 77.46225, 31.56258 ], [ 77.46074, 31.56293 ], [ 77.45388, 31.56024 ], [ 77.44667, 31.56234 ], [ 77.44096, 31.56209 ], [ 77.43783, 31.56094 ], [ 77.43797, 31.55701 ], [ 77.43672, 31.55257 ], [ 77.43571, 31.54993 ], [ 77.43374, 31.54835 ], [ 77.43354, 31.54551 ], [ 77.43191, 31.54251 ], [ 77.432, 31.54017 ], [ 77.43026, 31.53782 ], [ 77.42903, 31.53753 ], [ 77.42047, 31.53826 ], [ 77.41799, 31.53773 ], [ 77.41468, 31.54035 ], [ 77.40286, 31.54018 ], [ 77.39921, 31.54242 ], [ 77.39319, 31.5411 ], [ 77.38454, 31.53772 ], [ 77.37815, 31.53686 ], [ 77.37652, 31.53597 ], [ 77.37009, 31.53878 ], [ 77.36628, 31.53779 ], [ 77.36253, 31.53513 ], [ 77.35739, 31.53326 ], [ 77.35201, 31.53583 ], [ 77.34586, 31.53566 ], [ 77.34149, 31.53289 ], [ 77.33245, 31.53394 ], [ 77.32887, 31.53331 ], [ 77.3275, 31.53177 ], [ 77.32223, 31.53033 ], [ 77.31903, 31.53061 ], [ 77.31734, 31.52988 ], [ 77.3166, 31.5303 ], [ 77.31452, 31.53721 ], [ 77.30894, 31.54148 ], [ 77.30485, 31.54347 ], [ 77.29918, 31.55114 ], [ 77.29985, 31.55667 ], [ 77.30178, 31.55933 ], [ 77.30101, 31.56097 ], [ 77.30332, 31.56464 ], [ 77.30349, 31.57498 ], [ 77.30192, 31.57815 ], [ 77.30388, 31.583 ], [ 77.30388, 31.58539 ], [ 77.30326, 31.58842 ], [ 77.29735, 31.59429 ], [ 77.29851, 31.59646 ], [ 77.30232, 31.59973 ], [ 77.30197, 31.60095 ], [ 77.3031, 31.60244 ], [ 77.3019, 31.60457 ], [ 77.30404, 31.60728 ], [ 77.30392, 31.6116 ], [ 77.30562, 31.61337 ], [ 77.30617, 31.61669 ], [ 77.3036, 31.62116 ], [ 77.30523, 31.62269 ], [ 77.30545, 31.62391 ], [ 77.3024, 31.62707 ], [ 77.30247, 31.62899 ], [ 77.30074, 31.62956 ], [ 77.30109, 31.63174 ], [ 77.29924, 31.63179 ], [ 77.29856, 31.63274 ], [ 77.30151, 31.637 ], [ 77.30056, 31.64176 ], [ 77.30132, 31.64381 ], [ 77.2987, 31.64605 ], [ 77.29765, 31.64934 ], [ 77.29577, 31.65122 ], [ 77.29734, 31.65221 ], [ 77.29811, 31.65565 ], [ 77.30041, 31.65668 ], [ 77.29978, 31.66036 ], [ 77.30263, 31.66316 ], [ 77.30278, 31.66714 ], [ 77.30239, 31.66832 ], [ 77.2998, 31.67019 ], [ 77.29827, 31.67327 ], [ 77.29615, 31.67453 ], [ 77.29396, 31.67409 ], [ 77.29316, 31.67681 ], [ 77.28736, 31.68024 ], [ 77.28675, 31.683 ], [ 77.28878, 31.68275 ], [ 77.29035, 31.68491 ], [ 77.29556, 31.68733 ], [ 77.30309, 31.6894 ], [ 77.3044, 31.69082 ], [ 77.30771, 31.69106 ], [ 77.3116, 31.69275 ], [ 77.31551, 31.69278 ], [ 77.31786, 31.70003 ], [ 77.3165, 31.70535 ], [ 77.31754, 31.70789 ], [ 77.31721, 31.70996 ], [ 77.32472, 31.72031 ], [ 77.32568, 31.72089 ], [ 77.33093, 31.71706 ], [ 77.33661, 31.71979 ], [ 77.33921, 31.72269 ], [ 77.34215, 31.7202 ], [ 77.34622, 31.72136 ], [ 77.35233, 31.72161 ], [ 77.35268, 31.72395 ], [ 77.35422, 31.72341 ], [ 77.35437, 31.72185 ], [ 77.35635, 31.71973 ], [ 77.35914, 31.71816 ], [ 77.3638, 31.72325 ], [ 77.36812, 31.72322 ], [ 77.37274, 31.72161 ], [ 77.377, 31.71877 ], [ 77.37813, 31.71706 ], [ 77.38045, 31.71753 ], [ 77.38412, 31.71562 ], [ 77.39336, 31.71462 ], [ 77.40372, 31.71069 ], [ 77.40664, 31.71277 ], [ 77.41069, 31.71292 ], [ 77.41329, 31.71471 ], [ 77.41863, 31.72143 ], [ 77.42841, 31.72477 ], [ 77.43353, 31.72255 ], [ 77.43547, 31.72075 ], [ 77.4392, 31.72015 ], [ 77.44785, 31.71635 ], [ 77.45298, 31.71775 ], [ 77.45637, 31.71981 ], [ 77.45911, 31.72038 ], [ 77.45931, 31.7252 ], [ 77.46114, 31.72732 ], [ 77.46737, 31.73157 ], [ 77.4738, 31.73001 ], [ 77.47728, 31.72746 ], [ 77.47964, 31.72947 ], [ 77.48531, 31.73026 ], [ 77.48744, 31.73141 ], [ 77.49501, 31.73275 ], [ 77.49872, 31.7324 ], [ 77.51364, 31.73526 ], [ 77.51981, 31.73079 ], [ 77.52747, 31.7274 ], [ 77.53712, 31.72639 ], [ 77.53928, 31.72297 ], [ 77.54057, 31.72225 ], [ 77.54255, 31.72275 ], [ 77.54527, 31.72716 ], [ 77.5488, 31.72666 ], [ 77.5541, 31.7288 ], [ 77.56145, 31.72871 ], [ 77.56933, 31.72978 ], [ 77.57334, 31.73249 ], [ 77.5786, 31.73885 ], [ 77.5835, 31.741 ], [ 77.58429, 31.73936 ], [ 77.58964, 31.7368 ] ] ] } },
{ "type": "Feature", "properties": { "OBJECTID": 102, "state_lgd": "02", "state_name": "HIMACHAL PRADESH", "district_lgd": "026", "district_name": "KULLU", "district_name_source": "district_table", "subdistrict_lgd": "06109", "subdistrict_name": "BHUNTAR", "subdistrict_type": "Tehsil", "name_corrupted": false, "remarks": "", "label_lon": 77.474590600760749, "label_lat": 31.981513272451107 }, "geometry": { "type": "Polygon", "coordinates": [ [ [ 77.47971, 32.2202 ], [ 77.48462, 32.2213 ], [ 77.48902, 32.21976 ], [ 77.49353, 32.21642 ], [ 77.4975, 32.21668 ], [ 77.50249, 32.21493 ], [ 77.50341, 32.21052 ], [ 77.50966, 32.2074 ], [ 77.51152, 32.20373 ], [ 77.5146, 32.20352 ], [ 77.51408, 32.19958 ], [ 77.51482, 32.1977 ], [ 77.53154, 32.19429 ], [ 77.5331, 32.19549 ], [ 77.53633, 32.20138 ], [ 77.53626, 32.20258 ], [ 77.53288, 32.20527 ], [ 77.533, 32.20859 ], [ 77.54407, 32.21531 ], [ 77.54653, 32.21861 ], [ 77.55323, 32.21256 ], [ 77.55926, 32.20956 ], [ 77.56639, 32.20356 ], [ 77.56547, 32.19438 ], [ 77.56996, 32.18954 ], [ 77.57017, 32.18557 ], [ 77.57208, 32.18371 ], [ 77.5729, 32.1831 ], [ 77.57847, 32.18321 ], [ 77.58367, 32.18132 ], [ 77.5849, 32.17988 ], [ 77.58445, 32.17433 ], [ 77.59479, 32.17296 ], [ 77.60169, 32.17083 ], [ 77.6028, 32.16526 ], [ 77.60717, 32.16268 ], [ 77.60821, 32.15967 ], [ 77.61462, 32.15803 ], [ 77.61948, 32.15497 ], [ 77.62616, 32.15758 ], [ 77.62906, 32.15217 ], [ 77.63207, 32.14884 ], [ 77.64089, 32.14874 ], [ 77.64389, 32.14559 ], [ 77.65258, 32.14215 ], [ 77.65463, 32.13916 ], [ 77.66022, 32.13629 ], [ 77.65871, 32.13193 ], [ 77.65905, 32.13075 ], [ 77.66181, 32.1293 ], [ 77.66125, 32.12691 ], [ 77.66195, 32.12349 ], [ 77.66722, 32.12084 ], [ 77.67014, 32.1208 ], [ 77.67198, 32.11524 ], [ 77.67734, 32.11353 ], [ 77.68294, 32.10637 ], [ 77.68352, 32.10439 ], [ 77.68551, 32.10366 ], [ 77.6884, 32.10046 ], [ 77.69066, 32.09929 ], [ 77.69353, 32.09934 ], [ 77.69671, 32.10116 ], [ 77.70502, 32.10222 ], [ 77.70867, 32.09836 ], [ 77.71824, 32.09186 ], [ 77.72853, 32.09007 ], [ 77.74328, 32.09003 ], [ 77.74406, 32.08926 ], [ 77.74458, 32.08495 ], [ 77.74657, 32.08191 ], [ 77.75324, 32.07815 ], [ 77.75526, 32.07458 ], [ 77.75414, 32.07279 ], [ 77.75484, 32.07242 ], [ 77.75447, 32.0718 ], [ 77.7565, 32.07072 ], [ 77.75676, 32.06724 ], [ 77.76087, 32.06424 ], [ 77.76145, 32.06222 ], [ 77.76472, 32.05927 ], [ 77.76392, 32.0551 ], [ 77.76468, 32.05221 ], [ 77.76337, 32.0505 ], [ 77.76202, 32.04598 ], [ 77.7641, 32.04189 ], [ 77.77406, 32.03584 ], [ 77.77819, 32.03618 ], [ 77.77925, 32.03237 ], [ 77.78798, 32.02383 ], [ 77.78843, 32.02165 ], [ 77.79064, 32.01829 ], [ 77.78643, 32.01365 ], [ 77.78207, 32.01187 ], [ 77.77835, 32.01157 ], [ 77.77261, 32.0063 ], [ 77.77362, 32.00593 ], [ 77.77299, 32.00523 ], [ 77.78222, 32.00093 ], [ 77.78557, 31.99652 ], [ 77.79399, 31.99279 ], [ 77.79816, 31.98712 ], [ 77.79412, 31.98125 ], [ 77.78893, 31.977 ], [ 77.78342, 31.97448 ], [ 77.78073, 31.96991 ], [ 77.78156, 31.9662 ], [ 77.7797, 31.96199 ], [ 77.77274, 31.95519 ], [ 77.7727, 31.95194 ], [ 77.76669, 31.94783 ], [ 77.76735, 31.94213 ], [ 77.77112, 31.93981 ], [ 77.77292, 31.9355 ], [ 77.77794, 31.93428 ], [ 77.77938, 31.93178 ], [ 77.78202, 31.92993 ], [ 77.78247, 31.92635 ], [ 77.78119, 31.92217 ], [ 77.78178, 31.92053 ], [ 77.78591, 31.9187 ], [ 77.78874, 31.91591 ], [ 77.79076, 31.90917 ], [ 77.7957, 31.90673 ], [ 77.79702, 31.90485 ], [ 77.80231, 31.90287 ], [ 77.80489, 31.89953 ], [ 77.82432, 31.89595 ], [ 77.82527, 31.89597 ], [ 77.82744, 31.89823 ], [ 77.82882, 31.89821 ], [ 77.83897, 31.89477 ], [ 77.84312, 31.89413 ], [ 77.84716, 31.89149 ], [ 77.8514, 31.89134 ], [ 77.85939, 31.88746 ], [ 77.8647, 31.88692 ], [ 77.86873, 31.88532 ], [ 77.86776, 31.88327 ], [ 77.86482, 31.88119 ], [ 77.85769, 31.87719 ], [ 77.85247, 31.8764 ], [ 77.85007, 31.87474 ], [ 77.84638, 31.87028 ], [ 77.84568, 31.86547 ], [ 77.84274, 31.86257 ], [ 77.83835, 31.85496 ], [ 77.83891, 31.85255 ], [ 77.8417, 31.85 ], [ 77.84379, 31.84418 ], [ 77.84367, 31.83813 ], [ 77.84469, 31.83535 ], [ 77.84938, 31.83279 ], [ 77.84909, 31.8312 ], [ 77.84487, 31.82497 ], [ 77.84798, 31.81839 ], [ 77.84902, 31.80969 ], [ 77.8477, 31.80296 ], [ 77.84396, 31.8013 ], [ 77.83406, 31.78896 ], [ 77.82594, 31.78665 ], [ 77.81585, 31.78231 ], [ 77.81034, 31.78148 ], [ 77.8007, 31.78247 ], [ 77.79356, 31.78183 ], [ 77.78768, 31.78028 ], [ 77.77905, 31.7866 ], [ 77.77406, 31.7884 ], [ 77.75954, 31.78696 ], [ 77.75052, 31.78149 ], [ 77.74866, 31.78229 ], [ 77.74052, 31.78029 ], [ 77.73726, 31.78079 ], [ 77.73494, 31.78306 ], [ 77.72502, 31.78302 ], [ 77.72451, 31.78827 ], [ 77.72083, 31.79157 ], [ 77.71888, 31.79543 ], [ 77.71574, 31.79794 ], [ 77.7162, 31.80346 ], [ 77.719, 31.80576 ], [ 77.72006, 31.80856 ], [ 77.71717, 31.81131 ], [ 77.71091, 31.81242 ], [ 77.71099, 31.81843 ], [ 77.7029, 31.82285 ], [ 77.71318, 31.83404 ], [ 77.71343, 31.83532 ], [ 77.71116, 31.8378 ], [ 77.70683, 31.83849 ], [ 77.7047, 31.84066 ], [ 77.69739, 31.84139 ], [ 77.69254, 31.84006 ], [ 77.68893, 31.84088 ], [ 77.68056, 31.84077 ], [ 77.67373, 31.84199 ], [ 77.67167, 31.84146 ], [ 77.66605, 31.84733 ], [ 77.66357, 31.84803 ], [ 77.66258, 31.8541 ], [ 77.66092, 31.85602 ], [ 77.65372, 31.85945 ], [ 77.64898, 31.85913 ], [ 77.64704, 31.86083 ], [ 77.64254, 31.86159 ], [ 77.64023, 31.86501 ], [ 77.63493, 31.8654 ], [ 77.63482, 31.86644 ], [ 77.63302, 31.86663 ], [ 77.63361, 31.86901 ], [ 77.63299, 31.86985 ], [ 77.63042, 31.86904 ], [ 77.63039, 31.87068 ], [ 77.62917, 31.87226 ], [ 77.62486, 31.87443 ], [ 77.62046, 31.8738 ], [ 77.61569, 31.87032 ], [ 77.61116, 31.87233 ], [ 77.60659, 31.8725 ], [ 77.59994, 31.86831 ], [ 77.60069, 31.86467 ], [ 77.59879, 31.86102 ], [ 77.59588, 31.86228 ], [ 77.59124, 31.86113 ], [ 77.58607, 31.85822 ], [ 77.58431, 31.85588 ], [ 77.58081, 31.8548 ], [ 77.57912, 31.85215 ], [ 77.57617, 31.85061 ], [ 77.57375, 31.85288 ], [ 77.57548, 31.86243 ], [ 77.57052, 31.86132 ], [ 77.56274, 31.86097 ], [ 77.55436, 31.86331 ], [ 77.55025, 31.86288 ], [ 77.54744, 31.86406 ], [ 77.5412, 31.862 ], [ 77.53868, 31.86226 ], [ 77.53422, 31.86105 ], [ 77.52627, 31.86056 ], [ 77.52303, 31.86155 ], [ 77.50888, 31.86243 ], [ 77.50613, 31.8618 ], [ 77.50205, 31.86349 ], [ 77.49736, 31.86266 ], [ 77.48876, 31.86469 ], [ 77.47687, 31.8647 ], [ 77.466, 31.87028 ], [ 77.45271, 31.87226 ], [ 77.4423, 31.87472 ], [ 77.44055, 31.87321 ], [ 77.43344, 31.87168 ], [ 77.42742, 31.86867 ], [ 77.42574, 31.86666 ], [ 77.42242, 31.86505 ], [ 77.4207, 31.86202 ], [ 77.41645, 31.86243 ], [ 77.4132, 31.86147 ], [ 77.41233, 31.85977 ], [ 77.40983, 31.85989 ], [ 77.40835, 31.85761 ], [ 77.40571, 31.85721 ], [ 77.40086, 31.85425 ], [ 77.3979, 31.85383 ], [ 77.39647, 31.85188 ], [ 77.39218, 31.84965 ], [ 77.39147, 31.84815 ], [ 77.38806, 31.84538 ], [ 77.38569, 31.84463 ], [ 77.38062, 31.839 ], [ 77.37835, 31.83777 ], [ 77.37573, 31.83801 ], [ 77.37301, 31.83704 ], [ 77.36612, 31.83249 ], [ 77.36168, 31.83051 ], [ 77.36161, 31.8253 ], [ 77.35821, 31.82791 ], [ 77.34944, 31.82911 ], [ 77.3385, 31.8355 ], [ 77.33427, 31.84023 ], [ 77.33323, 31.84016 ], [ 77.32696, 31.8371 ], [ 77.32553, 31.83124 ], [ 77.32226, 31.82817 ], [ 77.31915, 31.82627 ], [ 77.31026, 31.82366 ], [ 77.30879, 31.8223 ], [ 77.30632, 31.82212 ], [ 77.29603, 31.81532 ], [ 77.28777, 31.81287 ], [ 77.28168, 31.81388 ], [ 77.2689, 31.81241 ], [ 77.26674, 31.81183 ], [ 77.26428, 31.80906 ], [ 77.25373, 31.8082 ], [ 77.24875, 31.80528 ], [ 77.2314, 31.79962 ], [ 77.2271, 31.8008 ], [ 77.22364, 31.8 ], [ 77.2198, 31.79813 ], [ 77.21204, 31.79184 ], [ 77.2068, 31.7907 ], [ 77.20503, 31.78906 ], [ 77.1963, 31.78684 ], [ 77.1967, 31.78962 ], [ 77.1927, 31.79209 ], [ 77.1928, 31.7973 ], [ 77.18632, 31.81163 ], [ 77.18789, 31.81898 ], [ 77.18524, 31.82086 ], [ 77.17911, 31.82223 ], [ 77.17514, 31.82191 ], [ 77.17339, 31.82348 ], [ 77.17339, 31.82645 ], [ 77.18017, 31.83635 ], [ 77.18026, 31.83815 ], [ 77.17784, 31.8416 ], [ 77.16437, 31.83874 ], [ 77.15901, 31.83502 ], [ 77.15542, 31.84009 ], [ 77.14658, 31.8394 ], [ 77.13955, 31.83771 ], [ 77.13435, 31.83817 ], [ 77.12627, 31.83723 ], [ 77.12485, 31.83635 ], [ 77.12153, 31.83741 ], [ 77.11998, 31.83667 ], [ 77.11707, 31.83843 ], [ 77.11473, 31.83784 ], [ 77.11357, 31.83864 ], [ 77.10768, 31.83823 ], [ 77.10279, 31.83645 ], [ 77.09766, 31.83877 ], [ 77.09199, 31.83722 ], [ 77.08982, 31.83518 ], [ 77.09004, 31.83414 ], [ 77.08568, 31.8315 ], [ 77.08393, 31.82769 ], [ 77.08196, 31.82698 ], [ 77.08179, 31.82978 ], [ 77.07915, 31.83243 ], [ 77.0773, 31.83723 ], [ 77.06731, 31.83498 ], [ 77.05776, 31.83775 ], [ 77.05576, 31.84269 ], [ 77.05488, 31.84803 ], [ 77.05603, 31.85055 ], [ 77.06023, 31.85493 ], [ 77.05891, 31.85934 ], [ 77.04912, 31.86795 ], [ 77.04909, 31.87062 ], [ 77.04645, 31.87537 ], [ 77.03753, 31.88065 ], [ 77.03674, 31.88388 ], [ 77.03417, 31.88712 ], [ 77.03908, 31.88714 ], [ 77.04761, 31.89176 ], [ 77.05534, 31.89379 ], [ 77.05864, 31.8928 ], [ 77.05986, 31.89105 ], [ 77.06466, 31.89066 ], [ 77.07219, 31.88755 ], [ 77.07564, 31.8878 ], [ 77.07816, 31.88971 ], [ 77.08031, 31.88867 ], [ 77.08792, 31.88835 ], [ 77.08957, 31.88741 ], [ 77.09322, 31.88866 ], [ 77.09589, 31.88816 ], [ 77.0998, 31.89286 ], [ 77.10235, 31.89473 ], [ 77.10441, 31.90214 ], [ 77.1066, 31.90314 ], [ 77.10846, 31.90603 ], [ 77.11429, 31.90839 ], [ 77.11954, 31.91357 ], [ 77.12786, 31.91654 ], [ 77.12654, 31.92068 ], [ 77.12525, 31.922 ], [ 77.12667, 31.92312 ], [ 77.13427, 31.92322 ], [ 77.14494, 31.92157 ], [ 77.14808, 31.92198 ], [ 77.15273, 31.9245 ], [ 77.15332, 31.92608 ], [ 77.14991, 31.92789 ], [ 77.15021, 31.92932 ], [ 77.14656, 31.94105 ], [ 77.14799, 31.94902 ], [ 77.1524, 31.95426 ], [ 77.15717, 31.96187 ], [ 77.16269, 31.96765 ], [ 77.16749, 31.97638 ], [ 77.17212, 31.98111 ], [ 77.17212, 31.98406 ], [ 77.17944, 31.99377 ], [ 77.17997, 32.00039 ], [ 77.18188, 32.00497 ], [ 77.18796, 32.00957 ], [ 77.19228, 32.01713 ], [ 77.19621, 32.01847 ], [ 77.19445, 32.02104 ], [ 77.19549, 32.02907 ], [ 77.19474, 32.03482 ], [ 77.19583, 32.03845 ], [ 77.20721, 32.04431 ], [ 77.20771, 32.0483 ], [ 77.20919, 32.05104 ], [ 77.20703, 32.05355 ], [ 77.21125, 32.05716 ], [ 77.21238, 32.0595 ], [ 77.22061, 32.06273 ], [ 77.22742, 32.06265 ], [ 77.22713, 32.06532 ], [ 77.2413, 32.07105 ], [ 77.24815, 32.07734 ], [ 77.25122, 32.08647 ], [ 77.25612, 32.09669 ], [ 77.25693, 32.10176 ], [ 77.25898, 32.10538 ], [ 77.25893, 32.10995 ], [ 77.2618, 32.1156 ], [ 77.26627, 32.11781 ], [ 77.27145, 32.11672 ], [ 77.27423, 32.11708 ], [ 77.27988, 32.12002 ], [ 77.28682, 32.12201 ], [ 77.29606, 32.13027 ], [ 77.2992, 32.13578 ], [ 77.29864, 32.13814 ], [ 77.30436, 32.14229 ], [ 77.30706, 32.14858 ], [ 77.30936, 32.15008 ], [ 77.31258, 32.14909 ], [ 77.31798, 32.14912 ], [ 77.32302, 32.1474 ], [ 77.32717, 32.14745 ], [ 77.33302, 32.14909 ], [ 77.33252, 32.15324 ], [ 77.33405, 32.15396 ], [ 77.34896, 32.15705 ], [ 77.35058, 32.15649 ], [ 77.35501, 32.15262 ], [ 77.36059, 32.15238 ], [ 77.37416, 32.15618 ], [ 77.38596, 32.16322 ], [ 77.38881, 32.16672 ], [ 77.39273, 32.17692 ], [ 77.39217, 32.18205 ], [ 77.39288, 32.18517 ], [ 77.38275, 32.19725 ], [ 77.38307, 32.20214 ], [ 77.38466, 32.20604 ], [ 77.3873, 32.20925 ], [ 77.38904, 32.2089 ], [ 77.39215, 32.20973 ], [ 77.39707, 32.21249 ], [ 77.40384, 32.2097 ], [ 77.40784, 32.20707 ], [ 77.40894, 32.20403 ], [ 77.41178, 32.20318 ], [ 77.4138, 32.20146 ], [ 77.4165, 32.2017 ], [ 77.41833, 32.1932 ], [ 77.42091, 32.18869 ], [ 77.42364, 32.1897 ], [ 77.42782, 32.18834 ], [ 77.43542, 32.19003 ], [ 77.44143, 32.18789 ], [ 77.44642, 32.18976 ], [ 77.45004, 32.18938 ], [ 77.4534, 32.19076 ], [ 77.45712, 32.19084 ], [ 77.46465, 32.19293 ], [ 77.46069, 32.19983 ], [ 77.46122, 32.20153 ], [ 77.46565, 32.20289 ], [ 77.46815, 32.20466 ], [ 77.46753, 32.20656 ], [ 77.46447, 32.20974 ], [ 77.46746, 32.21218 ], [ 77.46783, 32.21418 ], [ 77.46794, 32.21962 ], [ 77.46612, 32.22239 ], [ 77.46937, 32.22342 ], [ 77.47221, 32.22276 ], [ 77.47497, 32.22083 ], [ 77.47971, 32.2202 ] ] ] } },
{ "type": "Feature", "properties": { "OBJECTID": 103, "state_lgd": "02", "state_name": "HIMACHAL PRADESH", "district_lgd": "026", "district_name": "KULLU", "district_name_source": "district_table", "subdistrict_lgd": "00118", "subdistrict_name": "KULLU", "subdistrict_type": "Tehsil", "name_corrupted": false, "remarks": "", "label_lon": 77.084881399525869, "label_lat": 32.04746932731473 }, "geometry": { "type": "Polygon", "coordinates": [ [ [ 77.05139, 32.21442 ], [ 77.05221, 32.21147 ], [ 77.05176, 32.20635 ], [ 77.05235, 32.20418 ], [ 77.05733, 32.19793 ], [ 77.05818, 32.19576 ], [ 77.05769, 32.19226 ], [ 77.06273, 32.18017 ], [ 77.06168, 32.1777 ], [ 77.06221, 32.17191 ], [ 77.05958, 32.16936 ], [ 77.05957, 32.16822 ], [ 77.06143, 32.16442 ], [ 77.06131, 32.16137 ], [ 77.06409, 32.15676 ], [ 77.06423, 32.15121 ], [ 77.0655, 32.14578 ], [ 77.06334, 32.13342 ], [ 77.06022, 32.13158 ], [ 77.05688, 32.12558 ], [ 77.05916, 32.12335 ], [ 77.06218, 32.12239 ], [ 77.06311, 32.12022 ], [ 77.06511, 32.11976 ], [ 77.06567, 32.11759 ], [ 77.07334, 32.11341 ], [ 77.07542, 32.10946 ], [ 77.08271, 32.10774 ], [ 77.08692, 32.12201 ], [ 77.08868, 32.12395 ], [ 77.08866, 32.12989 ], [ 77.10054, 32.12283 ], [ 77.10473, 32.12116 ], [ 77.10794, 32.11847 ], [ 77.10976, 32.11763 ], [ 77.11285, 32.11821 ], [ 77.11658, 32.11768 ], [ 77.12865, 32.1107 ], [ 77.14357, 32.10429 ], [ 77.14535, 32.10665 ], [ 77.14848, 32.10775 ], [ 77.14984, 32.10954 ], [ 77.15012, 32.11469 ], [ 77.14844, 32.11945 ], [ 77.14855, 32.12138 ], [ 77.15891, 32.13253 ], [ 77.15912, 32.13685 ], [ 77.15667, 32.14303 ], [ 77.15827, 32.14594 ], [ 77.16924, 32.1447 ], [ 77.18138, 32.14566 ], [ 77.18364, 32.14664 ], [ 77.20328, 32.14192 ], [ 77.21345, 32.14605 ], [ 77.21604, 32.14612 ], [ 77.21915, 32.14448 ], [ 77.22142, 32.1442 ], [ 77.224, 32.14641 ], [ 77.23084, 32.14766 ], [ 77.2429, 32.14503 ], [ 77.24783, 32.14273 ], [ 77.25982, 32.13915 ], [ 77.26201, 32.13927 ], [ 77.26784, 32.1364 ], [ 77.27382, 32.13575 ], [ 77.28374, 32.13788 ], [ 77.29191, 32.13627 ], [ 77.29569, 32.13659 ], [ 77.29864, 32.13814 ], [ 77.29927, 32.1368 ], [ 77.29606, 32.13027 ], [ 77.28682, 32.12201 ], [ 77.27988, 32.12002 ], [ 77.27423, 32.11708 ], [ 77.27145, 32.11672 ], [ 77.26627, 32.11781 ], [ 77.2618, 32.1156 ], [ 77.25893, 32.10995 ], [ 77.25898, 32.10538 ], [ 77.25693, 32.10176 ], [ 77.25612, 32.09669 ], [ 77.25122, 32.08647 ], [ 77.24815, 32.07734 ], [ 77.2413, 32.07105 ], [ 77.22713, 32.06532 ], [ 77.22742, 32.06265 ], [ 77.22061, 32.06273 ], [ 77.21238, 32.0595 ], [ 77.21125, 32.05716 ], [ 77.20703, 32.05355 ], [ 77.20919, 32.05104 ], [ 77.20771, 32.0483 ], [ 77.20721, 32.04431 ], [ 77.19583, 32.03845 ], [ 77.19474, 32.03482 ], [ 77.19549, 32.02907 ], [ 77.19445, 32.02104 ], [ 77.19621, 32.01847 ], [ 77.19228, 32.01713 ], [ 77.18796, 32.00957 ], [ 77.18188, 32.00497 ], [ 77.17997, 32.00039 ], [ 77.17944, 31.99377 ], [ 77.17212, 31.98406 ], [ 77.17212, 31.98111 ], [ 77.16749, 31.97638 ], [ 77.16269, 31.96765 ], [ 77.15717, 31.96187 ], [ 77.1524, 31.95426 ], [ 77.14799, 31.94902 ], [ 77.14656, 31.94105 ], [ 77.15021, 31.92932 ], [ 77.14991, 31.92789 ], [ 77.15332, 31.92608 ], [ 77.15273, 31.9245 ], [ 77.14808, 31.92198 ], [ 77.14494, 31.92157 ], [ 77.13427, 31.92322 ], [ 77.12667, 31.92312 ], [ 77.12525, 31.922 ], [ 77.12654, 31.92068 ], [ 77.12786, 31.91654 ], [ 77.11954, 31.91357 ], [ 77.11429, 31.90839 ], [ 77.10846, 31.90603 ], [ 77.1066, 31.90314 ], [ 77.10441, 31.90214 ], [ 77.10235, 31.89473 ], [ 77.0998, 31.89286 ], [ 77.09589, 31.88816 ], [ 77.09322, 31.88866 ], [ 77.08957, 31.88741 ], [ 77.08792, 31.88835 ], [ 77.08031, 31.88867 ], [ 77.07816, 31.88971 ], [ 77.07564, 31.8878 ], [ 77.07219, 31.88755 ], [ 77.06466, 31.89066 ], [ 77.05986, 31.89105 ], [ 77.05864, 31.8928 ], [ 77.05534, 31.89379 ], [ 77.04761, 31.89176 ], [ 77.03908, 31.88714 ], [ 77.03417, 31.88712 ], [ 77.02899, 31.89462 ], [ 77.02522, 31.90178 ], [ 77.02459, 31.90988 ], [ 77.02161, 31.92166 ], [ 77.01738, 31.92769 ], [ 77.01132, 31.93307 ], [ 77.00507, 31.93413 ], [ 77.00279, 31.94002 ], [ 76.99932, 31.94507 ], [ 77.00025, 31.95026 ], [ 76.99939, 31.95229 ], [ 76.99812, 31.953 ], [ 76.99676, 31.95744 ], [ 76.99115, 31.96168 ], [ 76.98901, 31.96443 ], [ 76.9855, 31.97209 ], [ 76.97841, 31.97349 ], [ 76.97455, 31.98122 ], [ 76.9744, 31.9844 ], [ 76.97605, 31.98728 ], [ 76.97425, 31.99065 ], [ 76.97391, 31.99602 ], [ 76.97825, 31.99979 ], [ 76.97866, 32.00803 ], [ 76.97801, 32.01155 ], [ 76.97589, 32.0146 ], [ 76.97389, 32.01578 ], [ 76.97226, 32.02184 ], [ 76.9706, 32.02422 ], [ 76.96318, 32.02477 ], [ 76.95947, 32.02608 ], [ 76.95451, 32.02922 ], [ 76.95006, 32.03411 ], [ 76.94841, 32.03435 ], [ 76.94834, 32.03673 ], [ 76.94549, 32.03786 ], [ 76.94275, 32.04119 ], [ 76.93871, 32.04256 ], [ 76.93922, 32.04603 ], [ 76.93736, 32.04935 ], [ 76.93906, 32.0538 ], [ 76.93552, 32.0621 ], [ 76.94231, 32.06735 ], [ 76.94223, 32.06873 ], [ 76.93797, 32.07426 ], [ 76.9393, 32.07851 ], [ 76.93749, 32.08768 ], [ 76.93477, 32.09268 ], [ 76.93882, 32.09601 ], [ 76.94064, 32.09911 ], [ 76.9433, 32.10961 ], [ 76.94225, 32.11343 ], [ 76.94846, 32.11117 ], [ 76.95215, 32.11225 ], [ 76.95793, 32.11244 ], [ 76.98268, 32.10958 ], [ 76.98459, 32.11004 ], [ 76.98543, 32.11125 ], [ 76.98659, 32.11511 ], [ 76.9829, 32.11856 ], [ 76.98301, 32.12565 ], [ 76.97903, 32.13228 ], [ 76.98446, 32.13686 ], [ 76.98332, 32.14246 ], [ 76.98158, 32.14509 ], [ 76.98381, 32.15237 ], [ 76.98329, 32.15431 ], [ 76.98632, 32.15808 ], [ 76.98951, 32.16519 ], [ 76.98916, 32.1689 ], [ 76.9925, 32.17422 ], [ 76.99554, 32.17463 ], [ 76.99693, 32.17741 ], [ 76.99543, 32.18003 ], [ 76.99298, 32.18116 ], [ 76.99241, 32.18241 ], [ 76.99766, 32.19357 ], [ 77.00148, 32.19653 ], [ 77.00307, 32.19943 ], [ 77.00796, 32.20028 ], [ 77.01118, 32.19901 ], [ 77.01612, 32.20024 ], [ 77.02163, 32.2062 ], [ 77.03335, 32.20487 ], [ 77.03782, 32.20597 ], [ 77.04003, 32.20753 ], [ 77.04396, 32.21388 ], [ 77.04863, 32.21747 ], [ 77.05139, 32.21442 ] ] ] } },
{ "type": "Feature", "properties": { "OBJECTID": 104, "state_lgd": "02", "state_name": "HIMACHAL PRADESH", "district_lgd": "026", "district_name": "KULLU", "district_name_source": "district_table", "subdistrict_lgd": "00117", "subdistrict_name": "MANALI", "subdistrict_type": "Tehsil", "name_corrupted": false, "remarks": "", "label_lon": 77.191161624102804, "label_lat": 32.254247305697646 }, "geometry": { "type": "Polygon", "coordinates": [ [ [ 77.17526, 32.4052 ], [ 77.18031, 32.40193 ], [ 77.18479, 32.39651 ], [ 77.19508, 32.39831 ], [ 77.19981, 32.38586 ], [ 77.20539, 32.38459 ], [ 77.21022, 32.38227 ], [ 77.21522, 32.37855 ], [ 77.22096, 32.37636 ], [ 77.22717, 32.37017 ], [ 77.22756, 32.37091 ], [ 77.2282, 32.37037 ], [ 77.22907, 32.37328 ], [ 77.23183, 32.3749 ], [ 77.23579, 32.37424 ], [ 77.2384, 32.376 ], [ 77.24266, 32.37537 ], [ 77.24403, 32.37418 ], [ 77.24522, 32.37026 ], [ 77.24811, 32.36888 ], [ 77.2507, 32.36865 ], [ 77.2551, 32.36387 ], [ 77.26129, 32.35958 ], [ 77.27585, 32.35465 ], [ 77.27714, 32.35212 ], [ 77.27751, 32.34706 ], [ 77.28437, 32.33998 ], [ 77.29122, 32.33855 ], [ 77.29583, 32.33386 ], [ 77.30026, 32.33147 ], [ 77.30319, 32.33136 ], [ 77.30794, 32.33263 ], [ 77.3106, 32.32704 ], [ 77.31254, 32.32632 ], [ 77.31649, 32.3222 ], [ 77.32123, 32.32005 ], [ 77.32205, 32.31744 ], [ 77.32776, 32.31472 ], [ 77.32831, 32.31179 ], [ 77.32587, 32.30868 ], [ 77.32782, 32.30393 ], [ 77.32966, 32.30266 ], [ 77.33436, 32.30366 ], [ 77.34065, 32.29603 ], [ 77.34085, 32.29262 ], [ 77.33955, 32.29066 ], [ 77.33959, 32.28847 ], [ 77.34411, 32.285 ], [ 77.34484, 32.27986 ], [ 77.34622, 32.27804 ], [ 77.34513, 32.27377 ], [ 77.34657, 32.26983 ], [ 77.34981, 32.268 ], [ 77.34713, 32.25443 ], [ 77.34742, 32.252 ], [ 77.34463, 32.25096 ], [ 77.34488, 32.24591 ], [ 77.34551, 32.24434 ], [ 77.34767, 32.24307 ], [ 77.34753, 32.24072 ], [ 77.35352, 32.23209 ], [ 77.35404, 32.22894 ], [ 77.36162, 32.22399 ], [ 77.36504, 32.22325 ], [ 77.36921, 32.21869 ], [ 77.3735, 32.21905 ], [ 77.38074, 32.21139 ], [ 77.38426, 32.21078 ], [ 77.3873, 32.20925 ], [ 77.38466, 32.20604 ], [ 77.38307, 32.20214 ], [ 77.38275, 32.19725 ], [ 77.39288, 32.18517 ], [ 77.39217, 32.18205 ], [ 77.39273, 32.17692 ], [ 77.38881, 32.16672 ], [ 77.38596, 32.16322 ], [ 77.37416, 32.15618 ], [ 77.36059, 32.15238 ], [ 77.35501, 32.15262 ], [ 77.35058, 32.15649 ], [ 77.34896, 32.15705 ], [ 77.33405, 32.15396 ], [ 77.33252, 32.15324 ], [ 77.33302, 32.14909 ], [ 77.32717, 32.14745 ], [ 77.32302, 32.1474 ], [ 77.31798, 32.14912 ], [ 77.31258, 32.14909 ], [ 77.30936, 32.15008 ], [ 77.30706, 32.14858 ], [ 77.30356, 32.14156 ], [ 77.29569, 32.13659 ], [ 77.29191, 32.13627 ], [ 77.28374, 32.13788 ], [ 77.27382, 32.13575 ], [ 77.26784, 32.1364 ], [ 77.26201, 32.13927 ], [ 77.25982, 32.13915 ], [ 77.24783, 32.14273 ], [ 77.2429, 32.14503 ], [ 77.23084, 32.14766 ], [ 77.224, 32.14641 ], [ 77.22142, 32.1442 ], [ 77.21915, 32.14448 ], [ 77.21604, 32.14612 ], [ 77.21345, 32.14605 ], [ 77.20328, 32.14192 ], [ 77.18364, 32.14664 ], [ 77.18138, 32.14566 ], [ 77.16924, 32.1447 ], [ 77.15827, 32.14594 ], [ 77.15667, 32.14303 ], [ 77.15912, 32.13685 ], [ 77.15891, 32.13253 ], [ 77.14855, 32.12138 ], [ 77.14844, 32.11945 ], [ 77.15012, 32.11469 ], [ 77.14984, 32.10954 ], [ 77.14848, 32.10775 ], [ 77.14535, 32.10665 ], [ 77.14357, 32.10429 ], [ 77.12865, 32.1107 ], [ 77.11658, 32.11768 ], [ 77.11285, 32.11821 ], [ 77.10976, 32.11763 ], [ 77.10794, 32.11847 ], [ 77.10473, 32.12116 ], [ 77.10054, 32.12283 ], [ 77.08866, 32.12989 ], [ 77.08868, 32.12395 ], [ 77.08692, 32.12201 ], [ 77.08271, 32.10774 ], [ 77.07542, 32.10946 ], [ 77.07334, 32.11341 ], [ 77.06597, 32.11737 ], [ 77.06531, 32.1195 ], [ 77.06292, 32.12037 ], [ 77.06218, 32.12239 ], [ 77.05784, 32.12437 ], [ 77.05688, 32.12558 ], [ 77.05825, 32.12897 ], [ 77.06022, 32.13158 ], [ 77.06334, 32.13342 ], [ 77.0655, 32.14552 ], [ 77.06423, 32.15121 ], [ 77.06409, 32.15676 ], [ 77.06131, 32.16137 ], [ 77.06143, 32.16442 ], [ 77.05957, 32.16822 ], [ 77.05958, 32.16936 ], [ 77.06221, 32.17191 ], [ 77.06168, 32.1777 ], [ 77.06273, 32.18017 ], [ 77.05769, 32.19226 ], [ 77.05818, 32.19576 ], [ 77.05733, 32.19793 ], [ 77.05235, 32.20418 ], [ 77.05176, 32.20635 ], [ 77.05221, 32.21147 ], [ 77.05139, 32.21442 ], [ 77.04863, 32.21747 ], [ 77.05011, 32.22589 ], [ 77.04737, 32.22715 ], [ 77.0444, 32.23445 ], [ 77.03703, 32.23884 ], [ 77.03494, 32.23857 ], [ 77.03286, 32.24059 ], [ 77.02927, 32.24653 ], [ 77.03254, 32.24977 ], [ 77.03166, 32.25653 ], [ 77.0303, 32.25838 ], [ 77.02728, 32.25905 ], [ 77.0267, 32.26224 ], [ 77.02812, 32.26683 ], [ 77.02734, 32.27232 ], [ 77.03075, 32.27893 ], [ 77.03376, 32.28156 ], [ 77.0355, 32.29066 ], [ 77.04035, 32.30099 ], [ 77.04415, 32.30307 ], [ 77.04545, 32.30531 ], [ 77.05543, 32.30933 ], [ 77.06197, 32.3143 ], [ 77.06318, 32.31791 ], [ 77.0631, 32.32236 ], [ 77.06411, 32.32362 ], [ 77.06392, 32.32546 ], [ 77.0687, 32.33411 ], [ 77.06979, 32.33462 ], [ 77.05602, 32.34201 ], [ 77.04498, 32.3414 ], [ 77.04135, 32.34219 ], [ 77.04553, 32.34723 ], [ 77.04637, 32.35052 ], [ 77.0488, 32.35406 ], [ 77.04864, 32.35887 ], [ 77.04732, 32.36219 ], [ 77.04812, 32.36591 ], [ 77.05125, 32.37074 ], [ 77.05387, 32.37228 ], [ 77.05686, 32.37588 ], [ 77.0641, 32.38194 ], [ 77.06539, 32.3852 ], [ 77.06982, 32.39014 ], [ 77.07334, 32.39828 ], [ 77.07456, 32.3993 ], [ 77.07885, 32.39579 ], [ 77.08199, 32.39467 ], [ 77.08645, 32.39575 ], [ 77.08865, 32.39415 ], [ 77.09817, 32.39322 ], [ 77.09997, 32.39375 ], [ 77.10159, 32.3955 ], [ 77.10524, 32.39641 ], [ 77.10883, 32.39621 ], [ 77.11304, 32.39752 ], [ 77.12407, 32.40311 ], [ 77.13177, 32.40445 ], [ 77.14204, 32.4077 ], [ 77.14588, 32.41271 ], [ 77.15195, 32.4146 ], [ 77.16081, 32.41084 ], [ 77.16862, 32.40905 ], [ 77.16977, 32.4073 ], [ 77.17526, 32.4052 ] ] ] } },
{ "type": "Feature", "properties": { "OBJECTID": 105, "state_lgd": "02", "state_name": "HIMACHAL PRADESH", "district_lgd": "026", "district_name": "KULLU", "district_name_source": "district_table", "subdistrict_lgd": "00122", "subdistrict_name": "NERMAND", "subdistrict_type": "Tehsil", "name_corrupted": false, "remarks": "", "label_lon": 77.582201495508457, "label_lat": 31.501176141834588 }, "geometry": { "type": "Polygon", "coordinates": [ [ [ 77.64598, 31.65731 ], [ 77.64698, 31.6519 ], [ 77.64859, 31.65253 ], [ 77.6498, 31.65186 ], [ 77.65119, 31.64978 ], [ 77.65166, 31.64725 ], [ 77.65885, 31.63865 ], [ 77.66062, 31.63782 ], [ 77.66261, 31.63368 ], [ 77.65886, 31.63125 ], [ 77.65245, 31.62975 ], [ 77.64979, 31.62827 ], [ 77.64911, 31.62063 ], [ 77.64574, 31.6153 ], [ 77.64663, 31.6135 ], [ 77.64583, 31.61027 ], [ 77.64617, 31.60858 ], [ 77.64412, 31.60697 ], [ 77.64639, 31.59911 ], [ 77.64868, 31.59609 ], [ 77.64742, 31.5912 ], [ 77.64866, 31.583 ], [ 77.65621, 31.57662 ], [ 77.65947, 31.57572 ], [ 77.66321, 31.57046 ], [ 77.66613, 31.56883 ], [ 77.66608, 31.56638 ], [ 77.6682, 31.5637 ], [ 77.6745, 31.56237 ], [ 77.68056, 31.55959 ], [ 77.67857, 31.55777 ], [ 77.68069, 31.55245 ], [ 77.67965, 31.55123 ], [ 77.68664, 31.54458 ], [ 77.68898, 31.54416 ], [ 77.69333, 31.5451 ], [ 77.69561, 31.5431 ], [ 77.69872, 31.54204 ], [ 77.7003, 31.536 ], [ 77.70184, 31.53473 ], [ 77.70147, 31.53133 ], [ 77.70209, 31.52976 ], [ 77.69976, 31.52675 ], [ 77.69851, 31.5225 ], [ 77.69909, 31.51427 ], [ 77.70222, 31.51187 ], [ 77.70297, 31.50773 ], [ 77.70581, 31.50473 ], [ 77.70712, 31.50175 ], [ 77.70622, 31.49985 ], [ 77.70173, 31.49662 ], [ 77.69745, 31.4952 ], [ 77.69077, 31.49046 ], [ 77.6823, 31.48287 ], [ 77.68038, 31.47709 ], [ 77.67557, 31.47108 ], [ 77.67341, 31.46619 ], [ 77.66952, 31.4626 ], [ 77.65971, 31.46074 ], [ 77.65038, 31.45538 ], [ 77.64016, 31.45677 ], [ 77.63522, 31.45308 ], [ 77.62784, 31.45125 ], [ 77.62899, 31.44482 ], [ 77.62256, 31.43578 ], [ 77.62088, 31.42674 ], [ 77.62171, 31.41698 ], [ 77.63335, 31.40105 ], [ 77.63174, 31.39342 ], [ 77.62886, 31.38996 ], [ 77.62389, 31.3882 ], [ 77.61674, 31.38972 ], [ 77.61244, 31.39179 ], [ 77.6066, 31.39691 ], [ 77.60147, 31.39854 ], [ 77.59139, 31.39925 ], [ 77.57996, 31.39711 ], [ 77.57625, 31.39516 ], [ 77.57529, 31.39226 ], [ 77.57602, 31.38952 ], [ 77.57538, 31.38861 ], [ 77.56735, 31.38964 ], [ 77.56146, 31.3887 ], [ 77.55573, 31.39023 ], [ 77.55348, 31.38989 ], [ 77.54967, 31.38659 ], [ 77.54839, 31.38411 ], [ 77.54511, 31.38092 ], [ 77.54423, 31.37466 ], [ 77.5354, 31.36225 ], [ 77.5268, 31.35304 ], [ 77.51899, 31.34857 ], [ 77.51672, 31.34811 ], [ 77.51409, 31.34919 ], [ 77.51079, 31.34937 ], [ 77.50521, 31.34775 ], [ 77.49874, 31.35552 ], [ 77.48083, 31.35445 ], [ 77.47956, 31.35221 ], [ 77.47783, 31.35103 ], [ 77.47801, 31.35304 ], [ 77.47464, 31.35588 ], [ 77.47369, 31.36014 ], [ 77.47012, 31.36425 ], [ 77.46835, 31.36507 ], [ 77.46785, 31.36969 ], [ 77.4605, 31.37226 ], [ 77.45955, 31.3734 ], [ 77.46308, 31.3767 ], [ 77.46871, 31.38015 ], [ 77.47499, 31.38241 ], [ 77.48063, 31.3877 ], [ 77.48339, 31.38871 ], [ 77.49327, 31.39729 ], [ 77.50031, 31.39961 ], [ 77.50005, 31.40127 ], [ 77.49635, 31.40313 ], [ 77.49329, 31.40915 ], [ 77.48911, 31.41343 ], [ 77.4866, 31.41784 ], [ 77.48978, 31.42518 ], [ 77.48757, 31.42908 ], [ 77.4879, 31.43551 ], [ 77.48424, 31.44339 ], [ 77.48859, 31.44676 ], [ 77.49051, 31.4509 ], [ 77.48828, 31.46242 ], [ 77.48853, 31.46729 ], [ 77.48753, 31.46979 ], [ 77.49053, 31.47217 ], [ 77.49686, 31.48107 ], [ 77.49866, 31.48164 ], [ 77.50169, 31.48601 ], [ 77.50757, 31.48853 ], [ 77.51453, 31.48903 ], [ 77.52077, 31.49047 ], [ 77.5256, 31.50219 ], [ 77.52174, 31.50542 ], [ 77.51775, 31.50628 ], [ 77.51377, 31.50835 ], [ 77.50981, 31.51558 ], [ 77.50945, 31.51904 ], [ 77.50048, 31.52199 ], [ 77.49385, 31.5222 ], [ 77.49273, 31.5259 ], [ 77.49374, 31.52667 ], [ 77.4952, 31.53301 ], [ 77.49765, 31.53547 ], [ 77.49729, 31.53655 ], [ 77.49513, 31.53775 ], [ 77.49527, 31.54066 ], [ 77.49393, 31.5435 ], [ 77.49142, 31.54521 ], [ 77.49282, 31.54779 ], [ 77.493, 31.55027 ], [ 77.49796, 31.55382 ], [ 77.49937, 31.55711 ], [ 77.49921, 31.55928 ], [ 77.50392, 31.56729 ], [ 77.50983, 31.57362 ], [ 77.51367, 31.5735 ], [ 77.5154, 31.57479 ], [ 77.51905, 31.57469 ], [ 77.5207, 31.57283 ], [ 77.52456, 31.57167 ], [ 77.5272, 31.56943 ], [ 77.53162, 31.57295 ], [ 77.53119, 31.57563 ], [ 77.53312, 31.5813 ], [ 77.53194, 31.58345 ], [ 77.53442, 31.58993 ], [ 77.53697, 31.59114 ], [ 77.5398, 31.59036 ], [ 77.54382, 31.59233 ], [ 77.54748, 31.59652 ], [ 77.55064, 31.59643 ], [ 77.55246, 31.59773 ], [ 77.55842, 31.59903 ], [ 77.56132, 31.60194 ], [ 77.56215, 31.60592 ], [ 77.56549, 31.60878 ], [ 77.5646, 31.61201 ], [ 77.56159, 31.61364 ], [ 77.55953, 31.61699 ], [ 77.55973, 31.62458 ], [ 77.56334, 31.62821 ], [ 77.56574, 31.62906 ], [ 77.56697, 31.6317 ], [ 77.57097, 31.63476 ], [ 77.57368, 31.63627 ], [ 77.57623, 31.63588 ], [ 77.586, 31.63712 ], [ 77.59045, 31.63585 ], [ 77.59626, 31.63556 ], [ 77.61707, 31.64468 ], [ 77.62168, 31.65265 ], [ 77.62516, 31.65122 ], [ 77.62985, 31.65175 ], [ 77.6353, 31.65697 ], [ 77.64598, 31.65731 ] ] ] } },
{ "type": "Feature", "properties": { "OBJECTID": 106, "state_lgd": "02", "state_name": "HIMACHAL PRADESH", "district_lgd": "026", "district_name": "KULLU", "district_name_source": "district_table", "subdistrict_lgd": "00119", "subdistrict_name": "SAINJ", "subdistrict_type": "Tehsil", "name_corrupted": false, "remarks": "", "label_lon": 77.499150512108557, "label_lat": 31.781630586889428 }, "geometry": { "type": "Polygon", "coordinates": [ [ [ 77.4423, 31.87472 ], [ 77.45271, 31.87226 ], [ 77.466, 31.87028 ], [ 77.47687, 31.8647 ], [ 77.48876, 31.86469 ], [ 77.49736, 31.86266 ], [ 77.50205, 31.86349 ], [ 77.50613, 31.8618 ], [ 77.50888, 31.86243 ], [ 77.52303, 31.86155 ], [ 77.52627, 31.86056 ], [ 77.53422, 31.86105 ], [ 77.53868, 31.86226 ], [ 77.5412, 31.862 ], [ 77.54744, 31.86406 ], [ 77.55025, 31.86288 ], [ 77.55436, 31.86331 ], [ 77.56274, 31.86097 ], [ 77.57052, 31.86132 ], [ 77.57548, 31.86243 ], [ 77.57375, 31.85288 ], [ 77.57617, 31.85061 ], [ 77.57912, 31.85215 ], [ 77.58081, 31.8548 ], [ 77.58431, 31.85588 ], [ 77.58607, 31.85822 ], [ 77.59124, 31.86113 ], [ 77.59588, 31.86228 ], [ 77.59879, 31.86102 ], [ 77.60069, 31.86467 ], [ 77.59994, 31.86831 ], [ 77.60659, 31.8725 ], [ 77.61116, 31.87233 ], [ 77.61569, 31.87032 ], [ 77.62046, 31.8738 ], [ 77.62486, 31.87443 ], [ 77.62917, 31.87226 ], [ 77.63039, 31.87068 ], [ 77.63042, 31.86904 ], [ 77.63299, 31.86985 ], [ 77.63361, 31.86901 ], [ 77.63302, 31.86663 ], [ 77.63482, 31.86644 ], [ 77.63493, 31.8654 ], [ 77.64023, 31.86501 ], [ 77.64254, 31.86159 ], [ 77.64704, 31.86083 ], [ 77.64898, 31.85913 ], [ 77.65372, 31.85945 ], [ 77.66092, 31.85602 ], [ 77.66258, 31.8541 ], [ 77.66357, 31.84803 ], [ 77.66605, 31.84733 ], [ 77.67167, 31.84146 ], [ 77.67373, 31.84199 ], [ 77.68056, 31.84077 ], [ 77.68893, 31.84088 ], [ 77.69254, 31.84006 ], [ 77.69739, 31.84139 ], [ 77.7047, 31.84066 ], [ 77.70683, 31.83849 ], [ 77.71116, 31.8378 ], [ 77.71343, 31.83532 ], [ 77.71318, 31.83404 ], [ 77.7029, 31.82285 ], [ 77.71099, 31.81843 ], [ 77.71091, 31.81242 ], [ 77.71717, 31.81131 ], [ 77.72006, 31.80856 ], [ 77.719, 31.80576 ], [ 77.7162, 31.80346 ], [ 77.71574, 31.79794 ], [ 77.71888, 31.79543 ], [ 77.72083, 31.79157 ], [ 77.72451, 31.78827 ], [ 77.72502, 31.78302 ], [ 77.73494, 31.78306 ], [ 77.73726, 31.78079 ], [ 77.74052, 31.78029 ], [ 77.74866, 31.78229 ], [ 77.75052, 31.78149 ], [ 77.75954, 31.78696 ], [ 77.77262, 31.78842 ], [ 77.77905, 31.7866 ], [ 77.78768, 31.78028 ], [ 77.79356, 31.78183 ], [ 77.8007, 31.78247 ], [ 77.81034, 31.78148 ], [ 77.81585, 31.78231 ], [ 77.82594, 31.78665 ], [ 77.83406, 31.78896 ], [ 77.84396, 31.8013 ], [ 77.8477, 31.80296 ], [ 77.84862, 31.80079 ], [ 77.85478, 31.79593 ], [ 77.86574, 31.79171 ], [ 77.86637, 31.78641 ], [ 77.86844, 31.78252 ], [ 77.8609, 31.78358 ], [ 77.8568, 31.7804 ], [ 77.85854, 31.77562 ], [ 77.85813, 31.77364 ], [ 77.85539, 31.76971 ], [ 77.85498, 31.7602 ], [ 77.85374, 31.75454 ], [ 77.8412, 31.75733 ], [ 77.83892, 31.75871 ], [ 77.83268, 31.75892 ], [ 77.82787, 31.76115 ], [ 77.80743, 31.76114 ], [ 77.79522, 31.75961 ], [ 77.79266, 31.75664 ], [ 77.78976, 31.75515 ], [ 77.78762, 31.75278 ], [ 77.78596, 31.7524 ], [ 77.78149, 31.75472 ], [ 77.77788, 31.75426 ], [ 77.77573, 31.75744 ], [ 77.77213, 31.75733 ], [ 77.77118, 31.75995 ], [ 77.76849, 31.75995 ], [ 77.76405, 31.76193 ], [ 77.75959, 31.75439 ], [ 77.75227, 31.75148 ], [ 77.75008, 31.74979 ], [ 77.74965, 31.74853 ], [ 77.74969, 31.74726 ], [ 77.75151, 31.74458 ], [ 77.75063, 31.74337 ], [ 77.75066, 31.74004 ], [ 77.75232, 31.73638 ], [ 77.75135, 31.7305 ], [ 77.75348, 31.72634 ], [ 77.75454, 31.72114 ], [ 77.75231, 31.71713 ], [ 77.74789, 31.71336 ], [ 77.74065, 31.71372 ], [ 77.73534, 31.71512 ], [ 77.73108, 31.71459 ], [ 77.72264, 31.70816 ], [ 77.71454, 31.70597 ], [ 77.71155, 31.70364 ], [ 77.69209, 31.70476 ], [ 77.67811, 31.70313 ], [ 77.67861, 31.70917 ], [ 77.67275, 31.71369 ], [ 77.67019, 31.71394 ], [ 77.66784, 31.7152 ], [ 77.65722, 31.71595 ], [ 77.65428, 31.71777 ], [ 77.65432, 31.72194 ], [ 77.65224, 31.72467 ], [ 77.64931, 31.72638 ], [ 77.64843, 31.73024 ], [ 77.64616, 31.73195 ], [ 77.64407, 31.73543 ], [ 77.64308, 31.73555 ], [ 77.64018, 31.73324 ], [ 77.63045, 31.72313 ], [ 77.62721, 31.72302 ], [ 77.62545, 31.72086 ], [ 77.62303, 31.71948 ], [ 77.62105, 31.7212 ], [ 77.61629, 31.7213 ], [ 77.61098, 31.72434 ], [ 77.6088, 31.72398 ], [ 77.59965, 31.72788 ], [ 77.59367, 31.72733 ], [ 77.58964, 31.7368 ], [ 77.58429, 31.73936 ], [ 77.5835, 31.741 ], [ 77.5786, 31.73885 ], [ 77.57334, 31.73249 ], [ 77.56933, 31.72978 ], [ 77.56145, 31.72871 ], [ 77.5541, 31.7288 ], [ 77.5488, 31.72666 ], [ 77.54527, 31.72716 ], [ 77.54255, 31.72275 ], [ 77.54057, 31.72225 ], [ 77.53928, 31.72297 ], [ 77.53712, 31.72639 ], [ 77.52747, 31.7274 ], [ 77.51981, 31.73079 ], [ 77.51364, 31.73526 ], [ 77.49872, 31.7324 ], [ 77.49501, 31.73275 ], [ 77.48744, 31.73141 ], [ 77.48531, 31.73026 ], [ 77.47964, 31.72947 ], [ 77.47728, 31.72746 ], [ 77.4738, 31.73001 ], [ 77.46737, 31.73157 ], [ 77.46114, 31.72732 ], [ 77.45931, 31.7252 ], [ 77.45911, 31.72038 ], [ 77.45637, 31.71981 ], [ 77.45298, 31.71775 ], [ 77.44785, 31.71635 ], [ 77.4392, 31.72015 ], [ 77.43547, 31.72075 ], [ 77.43353, 31.72255 ], [ 77.42841, 31.72477 ], [ 77.41863, 31.72143 ], [ 77.41329, 31.71471 ], [ 77.41069, 31.71292 ], [ 77.40664, 31.71277 ], [ 77.40372, 31.71069 ], [ 77.39336, 31.71462 ], [ 77.38412, 31.71562 ], [ 77.38045, 31.71753 ], [ 77.37813, 31.71706 ], [ 77.377, 31.71877 ], [ 77.37274, 31.72161 ], [ 77.36812, 31.72322 ], [ 77.3638, 31.72325 ], [ 77.35914, 31.71816 ], [ 77.35635, 31.71973 ], [ 77.35437, 31.72185 ], [ 77.35422, 31.72341 ], [ 77.35268, 31.72395 ], [ 77.35233, 31.72161 ], [ 77.34622, 31.72136 ], [ 77.34215, 31.7202 ], [ 77.33921, 31.72269 ], [ 77.33661, 31.71979 ], [ 77.33093, 31.71706 ], [ 77.32568, 31.72089 ], [ 77.32265, 31.71812 ], [ 77.31721, 31.70996 ], [ 77.31754, 31.70789 ], [ 77.3165, 31.70535 ], [ 77.31786, 31.70003 ], [ 77.31551, 31.69278 ], [ 77.3116, 31.69275 ], [ 77.30771, 31.69106 ], [ 77.3044, 31.69082 ], [ 77.30309, 31.6894 ], [ 77.29556, 31.68733 ], [ 77.29035, 31.68491 ], [ 77.2885, 31.68268 ], [ 77.28675, 31.683 ], [ 77.28728, 31.68557 ], [ 77.28403, 31.68658 ], [ 77.27958, 31.69064 ], [ 77.27894, 31.69325 ], [ 77.27625, 31.69553 ], [ 77.26128, 31.70302 ], [ 77.26128, 31.70563 ], [ 77.25723, 31.70982 ], [ 77.25349, 31.70922 ], [ 77.25132, 31.71172 ], [ 77.24878, 31.71094 ], [ 77.24621, 31.71281 ], [ 77.24372, 31.71124 ], [ 77.23989, 31.71632 ], [ 77.23627, 31.71833 ], [ 77.2337, 31.721 ], [ 77.22921, 31.72163 ], [ 77.22102, 31.72486 ], [ 77.21569, 31.72268 ], [ 77.213, 31.7262 ], [ 77.21161, 31.73301 ], [ 77.20834, 31.73988 ], [ 77.20933, 31.7428 ], [ 77.20974, 31.74924 ], [ 77.20579, 31.75448 ], [ 77.20777, 31.75864 ], [ 77.20751, 31.75961 ], [ 77.20183, 31.76628 ], [ 77.20179, 31.77072 ], [ 77.19958, 31.77359 ], [ 77.19895, 31.77617 ], [ 77.19391, 31.77615 ], [ 77.19363, 31.7778 ], [ 77.19723, 31.78478 ], [ 77.1963, 31.78684 ], [ 77.20503, 31.78906 ], [ 77.2068, 31.7907 ], [ 77.21204, 31.79184 ], [ 77.2198, 31.79813 ], [ 77.22364, 31.8 ], [ 77.2271, 31.8008 ], [ 77.2314, 31.79962 ], [ 77.24875, 31.80528 ], [ 77.25373, 31.8082 ], [ 77.26428, 31.80906 ], [ 77.26674, 31.81183 ], [ 77.2689, 31.81241 ], [ 77.28168, 31.81388 ], [ 77.28777, 31.81287 ], [ 77.29603, 31.81532 ], [ 77.30632, 31.82212 ], [ 77.30879, 31.8223 ], [ 77.31026, 31.82366 ], [ 77.31915, 31.82627 ], [ 77.32226, 31.82817 ], [ 77.32553, 31.83124 ], [ 77.32696, 31.8371 ], [ 77.33323, 31.84016 ], [ 77.33427, 31.84023 ], [ 77.3385, 31.8355 ], [ 77.34944, 31.82911 ], [ 77.35821, 31.82791 ], [ 77.36161, 31.8253 ], [ 77.36168, 31.83051 ], [ 77.36612, 31.83249 ], [ 77.37301, 31.83704 ], [ 77.37573, 31.83801 ], [ 77.37835, 31.83777 ], [ 77.38062, 31.839 ], [ 77.38569, 31.84463 ], [ 77.38806, 31.84538 ], [ 77.39147, 31.84815 ], [ 77.39218, 31.84965 ], [ 77.39647, 31.85188 ], [ 77.3979, 31.85383 ], [ 77.40086, 31.85425 ], [ 77.40571, 31.85721 ], [ 77.40835, 31.85761 ], [ 77.40983, 31.85989 ], [ 77.41233, 31.85977 ], [ 77.4132, 31.86147 ], [ 77.41645, 31.86243 ], [ 77.4207, 31.86202 ], [ 77.42292, 31.86548 ], [ 77.43344, 31.87168 ], [ 77.43962, 31.87286 ], [ 77.4423, 31.87472 ] ] ] } }
]
}
