{
"type": "FeatureCollection",
"name": "001_KUPWARA",
"crs": { "type": "name", "properties": { "name": "urn:ogc:def:crs:OGC:1.3:CRS84" } },
"xy_coordinate_resolution": 1e-05,
"features": [
{ "type": "Feature", "properties": { "OBJECTID": 3103, "state_lgd": "01", "state_name": "JAMMU AND KASHMIR", "district_lgd": "001", "district_name": "KUPWARA", "district_name_source": "district_table", "subdistrict_lgd": "7205", "subdistrict_name": "QALAMABAD", "subdistrict_type": "", "name_corrupted": false, "remarks": "", "label_lon": 74.205238395971747, "label_lat": 34.32759553700636 }, "geometry": { "type": "MultiPolygon", "coordinates": [ [ [ [ 74.26177, 34.35409 ], [ 74.26385, 34.35123 ], [ 74.26717, 34.34861 ], [ 74.25951, 34.34368 ], [ 74.25895, 34.33738 ], [ 74.25294, 34.3335 ], [ 74.25066, 34.32886 ], [ 74.26057, 34.32472 ], [ 74.25984, 34.31909 ], [ 74.26122, 34.31293 ], [ 74.26052, 34.30978 ], [ 74.25703, 34.30952 ], [ 74.25037, 34.30704 ], [ 74.23505, 34.30448 ], [ 74.22175, 34.29739 ], [ 74.21897, 34.29342 ], [ 74.21541, 34.29252 ], [ 74.2117, 34.29887 ], [ 74.20875, 34.29942 ], [ 74.1997, 34.29755 ], [ 74.19457, 34.29774 ], [ 74.18819, 34.2996 ], [ 74.18046, 34.29608 ], [ 74.17593, 34.29628 ], [ 74.17272, 34.29926 ], [ 74.16949, 34.30018 ], [ 74.17188, 34.30211 ], [ 74.17155, 34.30508 ], [ 74.17497, 34.30615 ], [ 74.17627, 34.30926 ], [ 74.17336, 34.31031 ], [ 74.15362, 34.31121 ], [ 74.14739, 34.31359 ], [ 74.14436, 34.31507 ], [ 74.13592, 34.32193 ], [ 74.13349, 34.32505 ], [ 74.1324, 34.32797 ], [ 74.13473, 34.33169 ], [ 74.13801, 34.33445 ], [ 74.1487, 34.34085 ], [ 74.15346, 34.34107 ], [ 74.16061, 34.34338 ], [ 74.16649, 34.34434 ], [ 74.17596, 34.34838 ], [ 74.17806, 34.35211 ], [ 74.1806, 34.35084 ], [ 74.19604, 34.35277 ], [ 74.20033, 34.35108 ], [ 74.21841, 34.35371 ], [ 74.22545, 34.35377 ], [ 74.22843, 34.35428 ], [ 74.23244, 34.35744 ], [ 74.24403, 34.35903 ], [ 74.25221, 34.36115 ], [ 74.25803, 34.36121 ], [ 74.26176, 34.35862 ], [ 74.26177, 34.35409 ] ] ], [ [ [ 74.13901, 34.34461 ], [ 74.13839, 34.34772 ], [ 74.13876, 34.35235 ], [ 74.14102, 34.35423 ], [ 74.14981, 34.35265 ], [ 74.14824, 34.34825 ], [ 74.14545, 34.34587 ], [ 74.13901, 34.34461 ] ] ] ] } },
{ "type": "Feature", "properties": { "OBJECTID": 3104, "state_lgd": "01", "state_name": "JAMMU AND KASHMIR", "district_lgd": "001", "district_name": "KUPWARA", "district_name_source": "district_table", "subdistrict_lgd": "7206", "subdistrict_name": "VILLGAM", "subdistrict_type": "", "name_corrupted": false, "remarks": "", "label_lon": 74.15930374306393, "label_lat": 34.472069312830193 }, "geometry": { "type": "Polygon", "coordinates": [ [ [ 74.18433, 34.48908 ], [ 74.18783, 34.48664 ], [ 74.18752, 34.48282 ], [ 74.18162, 34.47325 ], [ 74.17704, 34.4701 ], [ 74.1744, 34.46718 ], [ 74.1713, 34.4663 ], [ 74.16193, 34.46584 ], [ 74.15882, 34.46381 ], [ 74.15966, 34.46072 ], [ 74.17573, 34.45842 ], [ 74.17675, 34.45406 ], [ 74.18209, 34.44718 ], [ 74.17842, 34.44586 ], [ 74.16706, 34.44856 ], [ 74.16203, 34.44232 ], [ 74.15912, 34.44394 ], [ 74.15419, 34.44455 ], [ 74.14654, 34.44256 ], [ 74.14316, 34.44511 ], [ 74.14353, 34.45009 ], [ 74.14686, 34.44991 ], [ 74.14941, 34.45157 ], [ 74.15048, 34.4552 ], [ 74.14956, 34.45936 ], [ 74.1411, 34.45933 ], [ 74.13364, 34.46327 ], [ 74.13195, 34.46619 ], [ 74.13133, 34.46944 ], [ 74.1336, 34.47125 ], [ 74.13666, 34.47132 ], [ 74.13904, 34.47317 ], [ 74.13263, 34.47778 ], [ 74.13351, 34.48736 ], [ 74.13706, 34.4893 ], [ 74.14214, 34.49038 ], [ 74.14488, 34.49255 ], [ 74.14695, 34.48918 ], [ 74.14965, 34.4872 ], [ 74.16173, 34.4929 ], [ 74.16643, 34.49366 ], [ 74.16724, 34.49791 ], [ 74.17093, 34.49954 ], [ 74.17585, 34.49958 ], [ 74.18044, 34.49826 ], [ 74.17873, 34.49407 ], [ 74.17979, 34.49063 ], [ 74.18433, 34.48908 ] ] ] } },
{ "type": "Feature", "properties": { "OBJECTID": 3105, "state_lgd": "01", "state_name": "JAMMU AND KASHMIR", "district_lgd": "001", "district_name": "KUPWARA", "district_name_source": "district_table", "subdistrict_lgd": "6437", "subdistrict_name": "ZACHALDARA", "subdistrict_type": "", "name_corrupted": false, "remarks": "", "label_lon": 74.154772575248998, "label_lat": 34.405759195057968 }, "geometry": { "type": "Polygon", "coordinates": [ [ [ 74.14353, 34.45009 ], [ 74.14316, 34.44511 ], [ 74.14654, 34.44256 ], [ 74.15419, 34.44455 ], [ 74.15912, 34.44394 ], [ 74.16203, 34.44232 ], [ 74.16713, 34.43708 ], [ 74.17277, 34.42862 ], [ 74.17691, 34.42617 ], [ 74.18351, 34.43421 ], [ 74.19004, 34.43538 ], [ 74.20431, 34.43201 ], [ 74.20816, 34.43184 ], [ 74.21337, 34.42899 ], [ 74.21678, 34.42304 ], [ 74.22382, 34.41933 ], [ 74.21548, 34.41659 ], [ 74.21483, 34.41295 ], [ 74.21724, 34.40956 ], [ 74.21832, 34.40561 ], [ 74.2176, 34.40129 ], [ 74.22319, 34.39422 ], [ 74.22427, 34.38977 ], [ 74.22067, 34.38683 ], [ 74.20428, 34.38036 ], [ 74.19691, 34.37494 ], [ 74.19293, 34.38007 ], [ 74.18431, 34.37807 ], [ 74.18114, 34.36872 ], [ 74.1759, 34.36414 ], [ 74.16717, 34.36669 ], [ 74.15785, 34.36464 ], [ 74.14039, 34.36531 ], [ 74.12575, 34.36861 ], [ 74.12275, 34.37044 ], [ 74.12023, 34.37287 ], [ 74.1183, 34.37667 ], [ 74.10834, 34.386 ], [ 74.10457, 34.3916 ], [ 74.09572, 34.3974 ], [ 74.09074, 34.3997 ], [ 74.08848, 34.40184 ], [ 74.08827, 34.40587 ], [ 74.0918, 34.41427 ], [ 74.09192, 34.42188 ], [ 74.09456, 34.42877 ], [ 74.09963, 34.43388 ], [ 74.10217, 34.43538 ], [ 74.12292, 34.44111 ], [ 74.13366, 34.45146 ], [ 74.13711, 34.45036 ], [ 74.14353, 34.45009 ] ] ] } },
{ "type": "Feature", "properties": { "OBJECTID": 3106, "state_lgd": "01", "state_name": "JAMMU AND KASHMIR", "district_lgd": "001", "district_name": "KUPWARA", "district_name_source": "district_table", "subdistrict_lgd": "6440", "subdistrict_name": "RAMHAL", "subdistrict_type": "", "name_corrupted": false, "remarks": "", "label_lon": 74.086183280235332, "label_lat": 34.463551235724367 }, "geometry": { "type": "Polygon", "coordinates": [ [ [ 74.13296, 34.48328 ], [ 74.13263, 34.47778 ], [ 74.13904, 34.47317 ], [ 74.13666, 34.47132 ], [ 74.1336, 34.47125 ], [ 74.13133, 34.46944 ], [ 74.13195, 34.46619 ], [ 74.13364, 34.46327 ], [ 74.1411, 34.45933 ], [ 74.14956, 34.45936 ], [ 74.15048, 34.4552 ], [ 74.14941, 34.45157 ], [ 74.14686, 34.44991 ], [ 74.13711, 34.45036 ], [ 74.12933, 34.45309 ], [ 74.11378, 34.45544 ], [ 74.10673, 34.45817 ], [ 74.10374, 34.45656 ], [ 74.09095, 34.45286 ], [ 74.09095, 34.44875 ], [ 74.08843, 34.44595 ], [ 74.08392, 34.44381 ], [ 74.07924, 34.44289 ], [ 74.07282, 34.44315 ], [ 74.06924, 34.44551 ], [ 74.06786, 34.44902 ], [ 74.06487, 34.45201 ], [ 74.03819, 34.4551 ], [ 74.02949, 34.4527 ], [ 74.02344, 34.44927 ], [ 74.01999, 34.45157 ], [ 74.0116, 34.44897 ], [ 73.99998, 34.44678 ], [ 73.99968, 34.45033 ], [ 74.00261, 34.45279 ], [ 74.019, 34.45705 ], [ 74.03127, 34.46439 ], [ 74.03733, 34.46637 ], [ 74.04089, 34.46908 ], [ 74.04407, 34.46715 ], [ 74.05134, 34.47114 ], [ 74.06144, 34.47204 ], [ 74.07688, 34.47753 ], [ 74.09336, 34.48157 ], [ 74.09723, 34.48181 ], [ 74.10047, 34.4832 ], [ 74.10884, 34.48358 ], [ 74.11573, 34.48241 ], [ 74.12847, 34.48381 ], [ 74.13296, 34.48328 ] ] ] } },
{ "type": "Feature", "properties": { "OBJECTID": 3107, "state_lgd": "01", "state_name": "JAMMU AND KASHMIR", "district_lgd": "001", "district_name": "KUPWARA", "district_name_source": "district_table", "subdistrict_lgd": "6423", "subdistrict_name": "TREHGAM", "subdistrict_type": "", "name_corrupted": false, "remarks": "", "label_lon": 74.180964086017894, "label_lat": 34.526476571820062 }, "geometry": { "type": "MultiPolygon", "coordinates": [ [ [ [ 74.19755, 34.54007 ], [ 74.20878, 34.54299 ], [ 74.2116, 34.54145 ], [ 74.2188, 34.53293 ], [ 74.22003, 34.52857 ], [ 74.223, 34.52614 ], [ 74.22459, 34.52281 ], [ 74.22386, 34.51917 ], [ 74.22714, 34.51105 ], [ 74.22471, 34.50899 ], [ 74.22175, 34.50884 ], [ 74.21916, 34.51051 ], [ 74.21545, 34.51142 ], [ 74.21027, 34.50638 ], [ 74.20542, 34.50383 ], [ 74.19125, 34.49954 ], [ 74.19567, 34.49836 ], [ 74.19916, 34.49623 ], [ 74.19926, 34.4931 ], [ 74.19444, 34.48427 ], [ 74.18752, 34.48282 ], [ 74.18783, 34.48664 ], [ 74.18433, 34.48908 ], [ 74.17979, 34.49063 ], [ 74.17873, 34.49407 ], [ 74.18044, 34.49826 ], [ 74.17585, 34.49958 ], [ 74.17093, 34.49954 ], [ 74.16724, 34.49791 ], [ 74.16643, 34.49366 ], [ 74.16173, 34.4929 ], [ 74.14965, 34.4872 ], [ 74.14168, 34.49509 ], [ 74.13694, 34.49614 ], [ 74.13428, 34.49902 ], [ 74.14367, 34.50507 ], [ 74.14698, 34.51231 ], [ 74.15882, 34.5265 ], [ 74.16053, 34.53147 ], [ 74.1613, 34.54634 ], [ 74.15501, 34.55171 ], [ 74.15381, 34.5552 ], [ 74.15805, 34.57099 ], [ 74.16775, 34.57318 ], [ 74.17243, 34.57504 ], [ 74.17567, 34.57446 ], [ 74.18079, 34.57054 ], [ 74.19221, 34.56424 ], [ 74.19453, 34.56127 ], [ 74.19998, 34.55053 ], [ 74.19377, 34.5444 ], [ 74.19397, 34.54075 ], [ 74.19755, 34.54007 ] ] ], [ [ [ 74.13296, 34.65178 ], [ 74.13574, 34.65354 ], [ 74.14249, 34.65369 ], [ 74.14384, 34.65801 ], [ 74.15011, 34.65806 ], [ 74.14708, 34.64767 ], [ 74.14746, 34.64422 ], [ 74.14925, 34.6402 ], [ 74.14018, 34.641 ], [ 74.1411, 34.63596 ], [ 74.13814, 34.63255 ], [ 74.13716, 34.6213 ], [ 74.13511, 34.61726 ], [ 74.12744, 34.61778 ], [ 74.11148, 34.61191 ], [ 74.10239, 34.61529 ], [ 74.10025, 34.62046 ], [ 74.10368, 34.6251 ], [ 74.09595, 34.6308 ], [ 74.09592, 34.63425 ], [ 74.09308, 34.63826 ], [ 74.09209, 34.64151 ], [ 74.09411, 34.64844 ], [ 74.10573, 34.65342 ], [ 74.11016, 34.65723 ], [ 74.11278, 34.65485 ], [ 74.11815, 34.65201 ], [ 74.13296, 34.65178 ] ] ] ] } },
{ "type": "Feature", "properties": { "OBJECTID": 3108, "state_lgd": "01", "state_name": "JAMMU AND KASHMIR", "district_lgd": "001", "district_name": "KUPWARA", "district_name_source": "district_table", "subdistrict_lgd": "6470", "subdistrict_name": "LOLAB", "subdistrict_type": "", "name_corrupted": false, "remarks": "", "label_lon": 74.42065597138658, "label_lat": 34.476775532270594 }, "geometry": { "type": "Polygon", "coordinates": [ [ [ 74.47329, 34.46962 ], [ 74.47383, 34.45804 ], [ 74.47152, 34.44356 ], [ 74.46598, 34.43873 ], [ 74.45456, 34.4357 ], [ 74.43799, 34.44082 ], [ 74.42243, 34.44058 ], [ 74.41063, 34.44819 ], [ 74.39995, 34.4636 ], [ 74.39191, 34.4617 ], [ 74.38554, 34.46517 ], [ 74.38314, 34.47074 ], [ 74.38302, 34.47743 ], [ 74.38432, 34.48159 ], [ 74.38145, 34.48159 ], [ 74.37484, 34.48502 ], [ 74.37342, 34.49207 ], [ 74.37899, 34.51099 ], [ 74.37915, 34.5317 ], [ 74.4026, 34.52689 ], [ 74.40541, 34.51665 ], [ 74.41203, 34.50933 ], [ 74.41338, 34.50303 ], [ 74.42228, 34.49717 ], [ 74.42796, 34.49206 ], [ 74.42693, 34.48797 ], [ 74.43417, 34.48443 ], [ 74.44178, 34.48356 ], [ 74.45443, 34.47946 ], [ 74.47576, 34.47715 ], [ 74.47329, 34.46962 ] ] ] } },
{ "type": "Feature", "properties": { "OBJECTID": 3109, "state_lgd": "01", "state_name": "JAMMU AND KASHMIR", "district_lgd": "001", "district_name": "KUPWARA", "district_name_source": "district_table", "subdistrict_lgd": "6517", "subdistrict_name": "LALPORA", "subdistrict_type": "", "name_corrupted": false, "remarks": "", "label_lon": 74.402157929989187, "label_lat": 34.532651 }, "geometry": { "type": "Polygon", "coordinates": [ [ [ 74.50059, 34.58055 ], [ 74.49754, 34.57886 ], [ 74.48534, 34.57921 ], [ 74.47954, 34.56602 ], [ 74.47372, 34.55895 ], [ 74.47222, 34.55363 ], [ 74.47358, 34.5456 ], [ 74.47539, 34.54201 ], [ 74.47964, 34.53697 ], [ 74.48747, 34.53346 ], [ 74.49964, 34.53037 ], [ 74.50361, 34.52833 ], [ 74.50617, 34.52553 ], [ 74.50759, 34.5214 ], [ 74.50673, 34.51743 ], [ 74.50424, 34.5156 ], [ 74.50039, 34.51467 ], [ 74.49148, 34.51551 ], [ 74.4738, 34.52073 ], [ 74.46654, 34.52522 ], [ 74.4616, 34.53184 ], [ 74.45716, 34.53556 ], [ 74.45086, 34.53791 ], [ 74.43497, 34.53529 ], [ 74.42497, 34.53113 ], [ 74.4317, 34.52349 ], [ 74.43996, 34.51862 ], [ 74.45214, 34.50934 ], [ 74.46236, 34.499 ], [ 74.46943, 34.49436 ], [ 74.48301, 34.49157 ], [ 74.48897, 34.48646 ], [ 74.49061, 34.47911 ], [ 74.48194, 34.47653 ], [ 74.45443, 34.47946 ], [ 74.44178, 34.48356 ], [ 74.43417, 34.48443 ], [ 74.42693, 34.48797 ], [ 74.42796, 34.49206 ], [ 74.42228, 34.49717 ], [ 74.41338, 34.50303 ], [ 74.41203, 34.50933 ], [ 74.40541, 34.51665 ], [ 74.4026, 34.52689 ], [ 74.38493, 34.53022 ], [ 74.37003, 34.53414 ], [ 74.35331, 34.53005 ], [ 74.34525, 34.5312 ], [ 74.34228, 34.53381 ], [ 74.34205, 34.53834 ], [ 74.34378, 34.54501 ], [ 74.34546, 34.54765 ], [ 74.34944, 34.54882 ], [ 74.35327, 34.55148 ], [ 74.35608, 34.55539 ], [ 74.36034, 34.55661 ], [ 74.36514, 34.55524 ], [ 74.36796, 34.55628 ], [ 74.3713, 34.5588 ], [ 74.37454, 34.55913 ], [ 74.37637, 34.55659 ], [ 74.37304, 34.55073 ], [ 74.37309, 34.54784 ], [ 74.37584, 34.54612 ], [ 74.37909, 34.54622 ], [ 74.38365, 34.54809 ], [ 74.38806, 34.55185 ], [ 74.3898, 34.55565 ], [ 74.38967, 34.56203 ], [ 74.39076, 34.56668 ], [ 74.39258, 34.57015 ], [ 74.39546, 34.57189 ], [ 74.39856, 34.57134 ], [ 74.40138, 34.56743 ], [ 74.40857, 34.56833 ], [ 74.41213, 34.56591 ], [ 74.40501, 34.55722 ], [ 74.40365, 34.55368 ], [ 74.40497, 34.55089 ], [ 74.40829, 34.55361 ], [ 74.41078, 34.55704 ], [ 74.41417, 34.55944 ], [ 74.41869, 34.55957 ], [ 74.42395, 34.55861 ], [ 74.42829, 34.56033 ], [ 74.43008, 34.56532 ], [ 74.4342, 34.56754 ], [ 74.43832, 34.56633 ], [ 74.44235, 34.55826 ], [ 74.44649, 34.55804 ], [ 74.45178, 34.56045 ], [ 74.45561, 34.56406 ], [ 74.46307, 34.57845 ], [ 74.46546, 34.58112 ], [ 74.46962, 34.58419 ], [ 74.47539, 34.58634 ], [ 74.48293, 34.58863 ], [ 74.48936, 34.58919 ], [ 74.49402, 34.58815 ], [ 74.49822, 34.58591 ], [ 74.50016, 34.58371 ], [ 74.50059, 34.58055 ] ] ] } },
{ "type": "Feature", "properties": { "OBJECTID": 3110, "state_lgd": "01", "state_name": "JAMMU AND KASHMIR", "district_lgd": "001", "district_name": "KUPWARA", "district_name_source": "district_table", "subdistrict_lgd": "6425", "subdistrict_name": "MACHIL", "subdistrict_type": "", "name_corrupted": false, "remarks": "", "label_lon": 74.445147111256318, "label_lat": 34.700138688786183 }, "geometry": { "type": "Polygon", "coordinates": [ [ [ 74.50061, 34.71491 ], [ 74.50728, 34.69727 ], [ 74.50725, 34.68975 ], [ 74.50421, 34.67349 ], [ 74.49864, 34.66038 ], [ 74.49885, 34.64668 ], [ 74.44369, 34.64658 ], [ 74.43484, 34.65112 ], [ 74.42584, 34.65861 ], [ 74.4167, 34.67945 ], [ 74.41238, 34.68673 ], [ 74.41301, 34.7057 ], [ 74.39736, 34.70885 ], [ 74.38955, 34.71744 ], [ 74.38152, 34.72691 ], [ 74.37943, 34.73601 ], [ 74.37945, 34.74433 ], [ 74.38219, 34.74956 ], [ 74.3902, 34.75664 ], [ 74.40029, 34.76161 ], [ 74.40771, 34.7629 ], [ 74.41683, 34.76288 ], [ 74.43388, 34.75663 ], [ 74.43564, 34.74542 ], [ 74.44196, 34.73701 ], [ 74.44427, 34.73088 ], [ 74.44999, 34.7285 ], [ 74.45801, 34.71344 ], [ 74.47324, 34.71348 ], [ 74.48183, 34.71564 ], [ 74.4971, 34.71708 ], [ 74.50061, 34.71491 ] ] ] } },
{ "type": "Feature", "properties": { "OBJECTID": 3111, "state_lgd": "01", "state_name": "JAMMU AND KASHMIR", "district_lgd": "001", "district_name": "KUPWARA", "district_name_source": "district_table", "subdistrict_lgd": "1", "subdistrict_name": "KUPWARA", "subdistrict_type": "", "name_corrupted": false, "remarks": "", "label_lon": 74.244045210472493, "label_lat": 34.535859128613147 }, "geometry": { "type": "MultiPolygon", "coordinates": [ [ [ [ 74.26435, 34.62011 ], [ 74.26201, 34.61 ], [ 74.25459, 34.60006 ], [ 74.25775, 34.59791 ], [ 74.25881, 34.59415 ], [ 74.25689, 34.59139 ], [ 74.25172, 34.59 ], [ 74.25198, 34.58567 ], [ 74.257, 34.58195 ], [ 74.2602, 34.58206 ], [ 74.26615, 34.58373 ], [ 74.26769, 34.58731 ], [ 74.27691, 34.58834 ], [ 74.27985, 34.59112 ], [ 74.27786, 34.59321 ], [ 74.2741, 34.59365 ], [ 74.27184, 34.59603 ], [ 74.27066, 34.59917 ], [ 74.27173, 34.61303 ], [ 74.27477, 34.61448 ], [ 74.28153, 34.61402 ], [ 74.2844, 34.61115 ], [ 74.2879, 34.60915 ], [ 74.28804, 34.606 ], [ 74.29449, 34.60705 ], [ 74.2983, 34.60675 ], [ 74.29895, 34.60185 ], [ 74.29887, 34.59362 ], [ 74.29578, 34.58952 ], [ 74.2916, 34.58814 ], [ 74.29049, 34.58436 ], [ 74.28735, 34.5814 ], [ 74.2816, 34.5782 ], [ 74.28303, 34.57135 ], [ 74.28076, 34.56714 ], [ 74.27714, 34.56561 ], [ 74.27463, 34.5629 ], [ 74.26654, 34.56136 ], [ 74.26911, 34.55659 ], [ 74.2698, 34.55235 ], [ 74.27387, 34.54504 ], [ 74.27311, 34.54125 ], [ 74.28214, 34.54402 ], [ 74.28549, 34.54338 ], [ 74.28683, 34.54625 ], [ 74.28601, 34.56075 ], [ 74.28796, 34.56393 ], [ 74.29495, 34.56609 ], [ 74.29785, 34.56518 ], [ 74.2986, 34.56011 ], [ 74.29716, 34.55598 ], [ 74.29797, 34.55277 ], [ 74.29587, 34.54711 ], [ 74.29401, 34.54348 ], [ 74.29166, 34.54123 ], [ 74.289, 34.54012 ], [ 74.28752, 34.53499 ], [ 74.28487, 34.53203 ], [ 74.28166, 34.5301 ], [ 74.27865, 34.5294 ], [ 74.26995, 34.51909 ], [ 74.26032, 34.51754 ], [ 74.26108, 34.51383 ], [ 74.27372, 34.50146 ], [ 74.2653, 34.49242 ], [ 74.26811, 34.48842 ], [ 74.26963, 34.48466 ], [ 74.27246, 34.48432 ], [ 74.27535, 34.48257 ], [ 74.27301, 34.47352 ], [ 74.27422, 34.46993 ], [ 74.27361, 34.46618 ], [ 74.26961, 34.46568 ], [ 74.26802, 34.46142 ], [ 74.26929, 34.45726 ], [ 74.26448, 34.45607 ], [ 74.2567, 34.45576 ], [ 74.24518, 34.45556 ], [ 74.2411, 34.45808 ], [ 74.24124, 34.46169 ], [ 74.23677, 34.46648 ], [ 74.22575, 34.46735 ], [ 74.22164, 34.46693 ], [ 74.21147, 34.46276 ], [ 74.207, 34.46303 ], [ 74.20333, 34.46438 ], [ 74.20017, 34.46681 ], [ 74.20128, 34.47058 ], [ 74.20066, 34.47393 ], [ 74.19833, 34.47662 ], [ 74.19437, 34.47745 ], [ 74.18427, 34.47719 ], [ 74.18752, 34.48282 ], [ 74.19444, 34.48427 ], [ 74.19926, 34.4931 ], [ 74.19916, 34.49623 ], [ 74.19567, 34.49836 ], [ 74.19125, 34.49954 ], [ 74.20542, 34.50383 ], [ 74.21027, 34.50638 ], [ 74.21545, 34.51142 ], [ 74.21916, 34.51051 ], [ 74.22175, 34.50884 ], [ 74.22471, 34.50899 ], [ 74.22714, 34.51105 ], [ 74.22386, 34.51917 ], [ 74.22459, 34.52281 ], [ 74.223, 34.52614 ], [ 74.22003, 34.52857 ], [ 74.2188, 34.53293 ], [ 74.2116, 34.54145 ], [ 74.20878, 34.54299 ], [ 74.19755, 34.54007 ], [ 74.19397, 34.54075 ], [ 74.19377, 34.5444 ], [ 74.19998, 34.55053 ], [ 74.19453, 34.56127 ], [ 74.19221, 34.56424 ], [ 74.19042, 34.57247 ], [ 74.18773, 34.57706 ], [ 74.18974, 34.58194 ], [ 74.19471, 34.58452 ], [ 74.20044, 34.58444 ], [ 74.20725, 34.57889 ], [ 74.21082, 34.57394 ], [ 74.21792, 34.56827 ], [ 74.22435, 34.5561 ], [ 74.23162, 34.5474 ], [ 74.23663, 34.53989 ], [ 74.25536, 34.53803 ], [ 74.25835, 34.53843 ], [ 74.25561, 34.54288 ], [ 74.24984, 34.54447 ], [ 74.2473, 34.54629 ], [ 74.24469, 34.55279 ], [ 74.23802, 34.55852 ], [ 74.2385, 34.56363 ], [ 74.23985, 34.56768 ], [ 74.23204, 34.5746 ], [ 74.22993, 34.57761 ], [ 74.23351, 34.58875 ], [ 74.22987, 34.59029 ], [ 74.22691, 34.59299 ], [ 74.23101, 34.60577 ], [ 74.23592, 34.60967 ], [ 74.23351, 34.61315 ], [ 74.23026, 34.6157 ], [ 74.22859, 34.61926 ], [ 74.23126, 34.62197 ], [ 74.24062, 34.62153 ], [ 74.24318, 34.61992 ], [ 74.24692, 34.62032 ], [ 74.25066, 34.62249 ], [ 74.26276, 34.62311 ], [ 74.26435, 34.62011 ] ] ], [ [ [ 74.34909, 34.60681 ], [ 74.36185, 34.61286 ], [ 74.3767, 34.62569 ], [ 74.39066, 34.62693 ], [ 74.40037, 34.62509 ], [ 74.40814, 34.62123 ], [ 74.41311, 34.61416 ], [ 74.41291, 34.60605 ], [ 74.40902, 34.60341 ], [ 74.3872, 34.59947 ], [ 74.37317, 34.59922 ], [ 74.3554, 34.58876 ], [ 74.34592, 34.58185 ], [ 74.34209, 34.57221 ], [ 74.3333, 34.573 ], [ 74.33476, 34.58306 ], [ 74.33808, 34.59095 ], [ 74.32785, 34.59271 ], [ 74.3277, 34.60169 ], [ 74.33077, 34.61509 ], [ 74.32771, 34.62832 ], [ 74.3254, 34.63434 ], [ 74.31988, 34.64158 ], [ 74.31158, 34.6577 ], [ 74.31506, 34.66545 ], [ 74.32869, 34.67172 ], [ 74.33917, 34.66821 ], [ 74.33873, 34.65962 ], [ 74.34666, 34.65115 ], [ 74.3491, 34.64374 ], [ 74.34833, 34.63975 ], [ 74.35271, 34.63192 ], [ 74.35446, 34.62332 ], [ 74.35123, 34.61669 ], [ 74.35148, 34.61151 ], [ 74.34909, 34.60681 ] ] ], [ [ [ 74.23176, 34.65804 ], [ 74.22941, 34.66001 ], [ 74.22774, 34.66384 ], [ 74.22553, 34.67322 ], [ 74.22951, 34.6757 ], [ 74.23327, 34.67639 ], [ 74.23966, 34.67398 ], [ 74.24215, 34.67139 ], [ 74.24479, 34.66297 ], [ 74.24205, 34.6601 ], [ 74.23892, 34.65941 ], [ 74.23574, 34.65725 ], [ 74.23176, 34.65804 ] ] ] ] } },
{ "type": "Feature", "properties": { "OBJECTID": 3112, "state_lgd": "01", "state_name": "JAMMU AND KASHMIR", "district_lgd": "001", "district_name": "KUPWARA", "district_name_source": "district_table", "subdistrict_lgd": "6377", "subdistrict_name": "KERAN", "subdistrict_type": "", "name_corrupted": false, "remarks": "", "label_lon": 73.985428454838612, "label_lat": 34.621359345714851 }, "geometry": { "type": "Polygon", "coordinates": [ [ [ 73.95864, 34.5791 ], [ 73.9609, 34.58233 ], [ 73.95274, 34.58281 ], [ 73.95466, 34.59279 ], [ 73.95476, 34.59828 ], [ 73.93663, 34.60178 ], [ 73.92991, 34.60446 ], [ 73.9308, 34.61061 ], [ 73.93337, 34.61456 ], [ 73.93386, 34.62155 ], [ 73.93213, 34.62647 ], [ 73.93161, 34.63145 ], [ 73.93241, 34.63429 ], [ 73.93163, 34.63979 ], [ 73.93217, 34.64461 ], [ 73.93557, 34.6475 ], [ 73.94814, 34.64773 ], [ 73.95266, 34.65084 ], [ 73.94884, 34.6546 ], [ 73.9483, 34.65649 ], [ 73.95075, 34.66048 ], [ 73.95587, 34.66419 ], [ 73.95578, 34.66787 ], [ 73.95392, 34.66928 ], [ 73.95361, 34.67062 ], [ 73.97612, 34.6732 ], [ 73.99151, 34.67013 ], [ 73.99605, 34.66208 ], [ 73.99596, 34.65366 ], [ 73.99015, 34.64524 ], [ 73.99578, 34.63348 ], [ 74.00629, 34.62481 ], [ 74.0133, 34.62534 ], [ 74.01548, 34.63032 ], [ 74.02656, 34.63857 ], [ 74.05236, 34.64066 ], [ 74.06318, 34.62675 ], [ 74.04397, 34.61007 ], [ 74.02394, 34.59571 ], [ 74.00838, 34.58264 ], [ 74.00141, 34.58022 ], [ 73.98961, 34.58021 ], [ 73.96093, 34.57413 ], [ 73.95767, 34.57511 ], [ 73.95864, 34.5791 ] ] ] } },
{ "type": "Feature", "properties": { "OBJECTID": 3113, "state_lgd": "01", "state_name": "JAMMU AND KASHMIR", "district_lgd": "001", "district_name": "KUPWARA", "district_name_source": "district_table", "subdistrict_lgd": "3", "subdistrict_name": "KARNAH", "subdistrict_type": "", "name_corrupted": false, "remarks": "", "label_lon": 73.889884266710297, "label_lat": 34.37001650084656 }, "geometry": { "type": "Polygon", "coordinates": [ [ [ 73.91044, 34.51894 ], [ 73.92274, 34.51693 ], [ 73.92275, 34.51343 ], [ 73.92161, 34.51076 ], [ 73.92273, 34.50746 ], [ 73.92315, 34.50095 ], [ 73.92298, 34.49741 ], [ 73.91648, 34.49359 ], [ 73.91386, 34.49055 ], [ 73.91391, 34.48472 ], [ 73.91516, 34.48165 ], [ 73.91406, 34.47257 ], [ 73.91454, 34.4589 ], [ 73.91287, 34.45417 ], [ 73.91383, 34.45059 ], [ 73.91226, 34.44776 ], [ 73.90743, 34.44291 ], [ 73.90995, 34.44009 ], [ 73.91673, 34.43774 ], [ 73.91852, 34.43314 ], [ 73.91985, 34.42478 ], [ 73.92307, 34.41931 ], [ 73.93418, 34.41478 ], [ 73.93733, 34.41602 ], [ 73.94192, 34.41597 ], [ 73.94511, 34.4138 ], [ 73.94761, 34.40982 ], [ 73.95214, 34.40795 ], [ 73.95391, 34.40476 ], [ 73.95289, 34.4 ], [ 73.95639, 34.39038 ], [ 73.95547, 34.37887 ], [ 73.94832, 34.37519 ], [ 73.94732, 34.37192 ], [ 73.94103, 34.36701 ], [ 73.94137, 34.36249 ], [ 73.94558, 34.35569 ], [ 73.94979, 34.35284 ], [ 73.95805, 34.34892 ], [ 73.96734, 34.34148 ], [ 73.97025, 34.33735 ], [ 73.97443, 34.3354 ], [ 73.97716, 34.33211 ], [ 73.97849, 34.31574 ], [ 73.97986, 34.31253 ], [ 73.98804, 34.30422 ], [ 73.99919, 34.3016 ], [ 74.00475, 34.29919 ], [ 74.01381, 34.29742 ], [ 74.0153, 34.29428 ], [ 74.01835, 34.29207 ], [ 74.02489, 34.28922 ], [ 74.03247, 34.28203 ], [ 74.04035, 34.27003 ], [ 74.0403, 34.26666 ], [ 74.03928, 34.26252 ], [ 74.0366, 34.25908 ], [ 74.0351, 34.24893 ], [ 74.02711, 34.24392 ], [ 74.02324, 34.24403 ], [ 74.01932, 34.24598 ], [ 74.01234, 34.24647 ], [ 73.99562, 34.25755 ], [ 73.98919, 34.25957 ], [ 73.98358, 34.2575 ], [ 73.98297, 34.26657 ], [ 73.98071, 34.27067 ], [ 73.97691, 34.27227 ], [ 73.96821, 34.27414 ], [ 73.9424, 34.27482 ], [ 73.93922, 34.27853 ], [ 73.93805, 34.28249 ], [ 73.93379, 34.28277 ], [ 73.93374, 34.29255 ], [ 73.9385, 34.29907 ], [ 73.93855, 34.30932 ], [ 73.92699, 34.31006 ], [ 73.92707, 34.3035 ], [ 73.91468, 34.30379 ], [ 73.91452, 34.30765 ], [ 73.91859, 34.31232 ], [ 73.92534, 34.31717 ], [ 73.92503, 34.32104 ], [ 73.9303, 34.3269 ], [ 73.93342, 34.33404 ], [ 73.92974, 34.33551 ], [ 73.92176, 34.33676 ], [ 73.91769, 34.34037 ], [ 73.91263, 34.34265 ], [ 73.91163, 34.34799 ], [ 73.90442, 34.34835 ], [ 73.89963, 34.34776 ], [ 73.89868, 34.33981 ], [ 73.89376, 34.33963 ], [ 73.89143, 34.33686 ], [ 73.88403, 34.33136 ], [ 73.8756, 34.33166 ], [ 73.87063, 34.32999 ], [ 73.87059, 34.33379 ], [ 73.8628, 34.33458 ], [ 73.86172, 34.32985 ], [ 73.85873, 34.32276 ], [ 73.85594, 34.32196 ], [ 73.85134, 34.32198 ], [ 73.84259, 34.32838 ], [ 73.83867, 34.32846 ], [ 73.83501, 34.33094 ], [ 73.83084, 34.33106 ], [ 73.82348, 34.32943 ], [ 73.81005, 34.33459 ], [ 73.80856, 34.33825 ], [ 73.81059, 34.34182 ], [ 73.80709, 34.34476 ], [ 73.8, 34.345 ], [ 73.79765, 34.34299 ], [ 73.79662, 34.33863 ], [ 73.79153, 34.3359 ], [ 73.78268, 34.33348 ], [ 73.7734, 34.33506 ], [ 73.7676, 34.33793 ], [ 73.76147, 34.34454 ], [ 73.75343, 34.34585 ], [ 73.75613, 34.36181 ], [ 73.75273, 34.36349 ], [ 73.75041, 34.36582 ], [ 73.75078, 34.37082 ], [ 73.75237, 34.37425 ], [ 73.75593, 34.3776 ], [ 73.75404, 34.38127 ], [ 73.75707, 34.38218 ], [ 73.76122, 34.38486 ], [ 73.76444, 34.38471 ], [ 73.76811, 34.387 ], [ 73.7744, 34.39809 ], [ 73.77653, 34.40012 ], [ 73.78234, 34.40341 ], [ 73.7849, 34.40689 ], [ 73.8012, 34.41891 ], [ 73.80296, 34.42236 ], [ 73.81033, 34.42354 ], [ 73.83307, 34.42152 ], [ 73.8389, 34.42201 ], [ 73.83677, 34.42739 ], [ 73.8396, 34.43097 ], [ 73.847, 34.42891 ], [ 73.85768, 34.43545 ], [ 73.8761, 34.45016 ], [ 73.88475, 34.44953 ], [ 73.88518, 34.46227 ], [ 73.88291, 34.46009 ], [ 73.88316, 34.46692 ], [ 73.87893, 34.47151 ], [ 73.8796, 34.47946 ], [ 73.88612, 34.48754 ], [ 73.88886, 34.50003 ], [ 73.89606, 34.51476 ], [ 73.90461, 34.51535 ], [ 73.91044, 34.51894 ] ] ] } },
{ "type": "Feature", "properties": { "OBJECTID": 3114, "state_lgd": "01", "state_name": "JAMMU AND KASHMIR", "district_lgd": "001", "district_name": "KUPWARA", "district_name_source": "district_table", "subdistrict_lgd": "2", "subdistrict_name": "HANDWARA", "subdistrict_type": "", "name_corrupted": false, "remarks": "", "label_lon": 74.264662572125474, "label_lat": 34.426379768793581 }, "geometry": { "type": "Polygon", "coordinates": [ [ [ 74.207, 34.46303 ], [ 74.21147, 34.46276 ], [ 74.22164, 34.46693 ], [ 74.22575, 34.46735 ], [ 74.23677, 34.46648 ], [ 74.24124, 34.46169 ], [ 74.2411, 34.45808 ], [ 74.24518, 34.45556 ], [ 74.26448, 34.45607 ], [ 74.26929, 34.45726 ], [ 74.26802, 34.46142 ], [ 74.26961, 34.46568 ], [ 74.27361, 34.46618 ], [ 74.27642, 34.46345 ], [ 74.29196, 34.45998 ], [ 74.29422, 34.45803 ], [ 74.29569, 34.45536 ], [ 74.29971, 34.45191 ], [ 74.30417, 34.45207 ], [ 74.30911, 34.45646 ], [ 74.31639, 34.45877 ], [ 74.32796, 34.45999 ], [ 74.33661, 34.45941 ], [ 74.34092, 34.4606 ], [ 74.34502, 34.45912 ], [ 74.34847, 34.46045 ], [ 74.34913, 34.44824 ], [ 74.34816, 34.43725 ], [ 74.34422, 34.42984 ], [ 74.35018, 34.42595 ], [ 74.34615, 34.42356 ], [ 74.34791, 34.41707 ], [ 74.34751, 34.40821 ], [ 74.3487, 34.40172 ], [ 74.3409, 34.39985 ], [ 74.3347, 34.40131 ], [ 74.33094, 34.40095 ], [ 74.32174, 34.39511 ], [ 74.31166, 34.39552 ], [ 74.30944, 34.39225 ], [ 74.30946, 34.38837 ], [ 74.30619, 34.38679 ], [ 74.30185, 34.38897 ], [ 74.29764, 34.38807 ], [ 74.30221, 34.38279 ], [ 74.3003, 34.38047 ], [ 74.29282, 34.37481 ], [ 74.28996, 34.37374 ], [ 74.28651, 34.37483 ], [ 74.27732, 34.37569 ], [ 74.27266, 34.37558 ], [ 74.26569, 34.3741 ], [ 74.25992, 34.37593 ], [ 74.24426, 34.37564 ], [ 74.23026, 34.37652 ], [ 74.22428, 34.38539 ], [ 74.22427, 34.38977 ], [ 74.22319, 34.39422 ], [ 74.2176, 34.40129 ], [ 74.21832, 34.40561 ], [ 74.21724, 34.40956 ], [ 74.21483, 34.41295 ], [ 74.21548, 34.41659 ], [ 74.22382, 34.41933 ], [ 74.21678, 34.42304 ], [ 74.21337, 34.42899 ], [ 74.20816, 34.43184 ], [ 74.20431, 34.43201 ], [ 74.19004, 34.43538 ], [ 74.18351, 34.43421 ], [ 74.17691, 34.42617 ], [ 74.17277, 34.42862 ], [ 74.16713, 34.43708 ], [ 74.16203, 34.44232 ], [ 74.16706, 34.44856 ], [ 74.17842, 34.44586 ], [ 74.18209, 34.44718 ], [ 74.17675, 34.45406 ], [ 74.17573, 34.45842 ], [ 74.15966, 34.46072 ], [ 74.15882, 34.46381 ], [ 74.16193, 34.46584 ], [ 74.1713, 34.4663 ], [ 74.1744, 34.46718 ], [ 74.17704, 34.4701 ], [ 74.18162, 34.47325 ], [ 74.18427, 34.47719 ], [ 74.19437, 34.47745 ], [ 74.19833, 34.47662 ], [ 74.20066, 34.47393 ], [ 74.20128, 34.47058 ], [ 74.20017, 34.46681 ], [ 74.20333, 34.46438 ], [ 74.207, 34.46303 ] ] ] } },
{ "type": "Feature", "properties": { "OBJECTID": 3115, "state_lgd": "01", "state_name": "JAMMU AND KASHMIR", "district_lgd": "001", "district_name": "KUPWARA", "district_name_source": "district_table", "subdistrict_lgd": "6468", "subdistrict_name": "LANGATE", "subdistrict_type": "", "name_corrupted": false, "remarks": "", "label_lon": 74.315720546673759, "label_lat": 34.372840563009348 }, "geometry": { "type": "Polygon", "coordinates": [ [ [ 74.38047, 34.38448 ], [ 74.37345, 34.37696 ], [ 74.36713, 34.37237 ], [ 74.36767, 34.36859 ], [ 74.36012, 34.36935 ], [ 74.35764, 34.37152 ], [ 74.35161, 34.37292 ], [ 74.33681, 34.37167 ], [ 74.3301, 34.36225 ], [ 74.32495, 34.35695 ], [ 74.31954, 34.35419 ], [ 74.31053, 34.35297 ], [ 74.30567, 34.35514 ], [ 74.30182, 34.35511 ], [ 74.29811, 34.35373 ], [ 74.29568, 34.35162 ], [ 74.30257, 34.34476 ], [ 74.2994, 34.34342 ], [ 74.29714, 34.34069 ], [ 74.29099, 34.34079 ], [ 74.28358, 34.34321 ], [ 74.27493, 34.34251 ], [ 74.27075, 34.34716 ], [ 74.26717, 34.34861 ], [ 74.26385, 34.35123 ], [ 74.26177, 34.35409 ], [ 74.26176, 34.35862 ], [ 74.25803, 34.36121 ], [ 74.25534, 34.36739 ], [ 74.25844, 34.37017 ], [ 74.26569, 34.3741 ], [ 74.27266, 34.37558 ], [ 74.28651, 34.37483 ], [ 74.28996, 34.37374 ], [ 74.29282, 34.37481 ], [ 74.3003, 34.38047 ], [ 74.30221, 34.38279 ], [ 74.29764, 34.38807 ], [ 74.30185, 34.38897 ], [ 74.30619, 34.38679 ], [ 74.30946, 34.38837 ], [ 74.30944, 34.39225 ], [ 74.31166, 34.39552 ], [ 74.32174, 34.39511 ], [ 74.33094, 34.40095 ], [ 74.3347, 34.40131 ], [ 74.3409, 34.39985 ], [ 74.3487, 34.40172 ], [ 74.35115, 34.39823 ], [ 74.35447, 34.39674 ], [ 74.36561, 34.39293 ], [ 74.37708, 34.3907 ], [ 74.37998, 34.38882 ], [ 74.38047, 34.38448 ] ] ] } },
{ "type": "Feature", "properties": { "OBJECTID": 3116, "state_lgd": "01", "state_name": "JAMMU AND KASHMIR", "district_lgd": "001", "district_name": "KUPWARA", "district_name_source": "district_table", "subdistrict_lgd": "6429", "subdistrict_name": "QAZIABAD", "subdistrict_type": "", "name_corrupted": false, "remarks": "", "label_lon": 74.322924703626981, "label_lat": 34.33945859946602 }, "geometry": { "type": "Polygon", "coordinates": [ [ [ 74.38698, 34.35019 ], [ 74.38486, 34.34874 ], [ 74.38088, 34.34865 ], [ 74.37597, 34.34658 ], [ 74.36961, 34.33876 ], [ 74.36651, 34.3332 ], [ 74.36355, 34.33141 ], [ 74.35339, 34.32777 ], [ 74.35027, 34.32562 ], [ 74.34703, 34.32226 ], [ 74.34562, 34.31753 ], [ 74.33464, 34.31101 ], [ 74.32639, 34.30941 ], [ 74.31086, 34.31789 ], [ 74.30734, 34.31782 ], [ 74.29953, 34.31507 ], [ 74.29107, 34.31504 ], [ 74.28748, 34.31257 ], [ 74.27098, 34.30683 ], [ 74.26393, 34.30785 ], [ 74.26052, 34.30978 ], [ 74.26122, 34.31293 ], [ 74.25984, 34.31909 ], [ 74.26057, 34.32472 ], [ 74.25066, 34.32886 ], [ 74.25294, 34.3335 ], [ 74.25895, 34.33738 ], [ 74.25951, 34.34368 ], [ 74.26717, 34.34861 ], [ 74.27075, 34.34716 ], [ 74.27493, 34.34251 ], [ 74.28358, 34.34321 ], [ 74.29099, 34.34079 ], [ 74.29714, 34.34069 ], [ 74.2994, 34.34342 ], [ 74.30257, 34.34476 ], [ 74.29568, 34.35162 ], [ 74.29811, 34.35373 ], [ 74.30182, 34.35511 ], [ 74.30567, 34.35514 ], [ 74.31053, 34.35297 ], [ 74.31954, 34.35419 ], [ 74.32495, 34.35695 ], [ 74.3301, 34.36225 ], [ 74.33681, 34.37167 ], [ 74.35161, 34.37292 ], [ 74.35764, 34.37152 ], [ 74.36012, 34.36935 ], [ 74.36767, 34.36859 ], [ 74.36713, 34.37237 ], [ 74.37345, 34.37696 ], [ 74.38047, 34.38448 ], [ 74.38278, 34.38332 ], [ 74.38185, 34.37655 ], [ 74.38046, 34.37321 ], [ 74.37475, 34.3663 ], [ 74.37853, 34.36264 ], [ 74.38357, 34.36253 ], [ 74.38783, 34.36076 ], [ 74.39014, 34.35818 ], [ 74.38797, 34.3541 ], [ 74.38698, 34.35019 ] ] ] } },
{ "type": "Feature", "properties": { "OBJECTID": 3117, "state_lgd": "01", "state_name": "JAMMU AND KASHMIR", "district_lgd": "001", "district_name": "KUPWARA", "district_name_source": "district_table", "subdistrict_lgd": "6382", "subdistrict_name": "KRALPORA", "subdistrict_type": "", "name_corrupted": false, "remarks": "", "label_lon": 74.088173950076325, "label_lat": 34.511644844415329 }, "geometry": { "type": "Polygon", "coordinates": [ [ [ 74.15501, 34.55171 ], [ 74.1613, 34.54634 ], [ 74.16053, 34.53147 ], [ 74.15882, 34.5265 ], [ 74.14698, 34.51231 ], [ 74.14367, 34.50507 ], [ 74.13428, 34.49902 ], [ 74.13694, 34.49614 ], [ 74.14168, 34.49509 ], [ 74.14488, 34.49255 ], [ 74.14214, 34.49038 ], [ 74.13706, 34.4893 ], [ 74.13351, 34.48736 ], [ 74.13296, 34.48328 ], [ 74.12847, 34.48381 ], [ 74.11273, 34.48243 ], [ 74.10884, 34.48358 ], [ 74.10413, 34.48365 ], [ 74.10047, 34.4832 ], [ 74.09723, 34.48181 ], [ 74.09336, 34.48157 ], [ 74.07688, 34.47753 ], [ 74.06144, 34.47204 ], [ 74.05134, 34.47114 ], [ 74.04407, 34.46715 ], [ 74.04089, 34.46908 ], [ 74.03733, 34.46637 ], [ 74.03127, 34.46439 ], [ 74.019, 34.45705 ], [ 74.0139, 34.463 ], [ 74.00241, 34.48591 ], [ 73.99864, 34.49578 ], [ 73.99797, 34.50316 ], [ 73.99973, 34.5079 ], [ 74.01279, 34.51561 ], [ 74.0174, 34.5094 ], [ 74.02067, 34.50135 ], [ 74.02371, 34.49745 ], [ 74.03094, 34.49534 ], [ 74.04756, 34.49556 ], [ 74.05636, 34.49454 ], [ 74.06529, 34.51094 ], [ 74.0774, 34.52354 ], [ 74.07204, 34.52883 ], [ 74.07035, 34.53271 ], [ 74.07091, 34.54189 ], [ 74.07673, 34.55091 ], [ 74.08048, 34.55853 ], [ 74.08593, 34.56335 ], [ 74.09194, 34.56522 ], [ 74.10021, 34.56568 ], [ 74.10585, 34.56495 ], [ 74.11243, 34.56251 ], [ 74.11638, 34.55958 ], [ 74.11938, 34.55577 ], [ 74.12145, 34.54946 ], [ 74.13028, 34.55218 ], [ 74.14475, 34.55389 ], [ 74.15501, 34.55171 ] ] ] } },
{ "type": "Feature", "properties": { "OBJECTID": 3118, "state_lgd": "01", "state_name": "JAMMU AND KASHMIR", "district_lgd": "001", "district_name": "KUPWARA", "district_name_source": "district_table", "subdistrict_lgd": "6426", "subdistrict_name": "DRUGMULLA", "subdistrict_type": "", "name_corrupted": false, "remarks": "", "label_lon": 74.301931390532388, "label_lat": 34.482013426994349 }, "geometry": { "type": "Polygon", "coordinates": [ [ [ 74.34609, 34.47612 ], [ 74.34847, 34.46045 ], [ 74.34502, 34.45912 ], [ 74.34092, 34.4606 ], [ 74.33661, 34.45941 ], [ 74.32796, 34.45999 ], [ 74.31639, 34.45877 ], [ 74.30911, 34.45646 ], [ 74.30417, 34.45207 ], [ 74.29971, 34.45191 ], [ 74.29569, 34.45536 ], [ 74.29422, 34.45803 ], [ 74.29196, 34.45998 ], [ 74.27642, 34.46345 ], [ 74.27361, 34.46618 ], [ 74.27422, 34.46993 ], [ 74.27301, 34.47352 ], [ 74.27535, 34.48257 ], [ 74.27246, 34.48432 ], [ 74.26963, 34.48466 ], [ 74.26811, 34.48842 ], [ 74.2653, 34.49242 ], [ 74.27372, 34.50146 ], [ 74.26108, 34.51383 ], [ 74.26032, 34.51754 ], [ 74.26995, 34.51909 ], [ 74.27523, 34.5189 ], [ 74.28036, 34.51142 ], [ 74.29552, 34.50913 ], [ 74.30314, 34.50593 ], [ 74.31116, 34.50035 ], [ 74.31389, 34.49125 ], [ 74.32625, 34.48779 ], [ 74.33612, 34.48794 ], [ 74.34609, 34.47612 ] ] ] } },
{ "type": "Feature", "properties": { "OBJECTID": 3205, "state_lgd": "01", "state_name": "JAMMU AND KASHMIR", "district_lgd": "001", "district_name": "KUPWARA", "district_name_source": "district_table", "subdistrict_lgd": "", "subdistrict_name": "", "subdistrict_type": "", "name_corrupted": false, "remarks": "Open Area", "label_lon": 74.235857484745864, "label_lat": 34.56241899967165 }, "geometry": { "type": "Polygon", "coordinates": [ [ [ 74.33502, 34.78776 ], [ 74.34149, 34.78608 ], [ 74.35228, 34.78524 ], [ 74.35972, 34.78633 ], [ 74.37272, 34.7903 ], [ 74.37763, 34.79079 ], [ 74.38579, 34.78874 ], [ 74.39298, 34.785 ], [ 74.39658, 34.78428 ], [ 74.41169, 34.78861 ], [ 74.41672, 34.78861 ], [ 74.4227, 34.78704 ], [ 74.42737, 34.78463 ], [ 74.43769, 34.78366 ], [ 74.44368, 34.78498 ], [ 74.45016, 34.78787 ], [ 74.45628, 34.78895 ], [ 74.46215, 34.78798 ], [ 74.47737, 34.78291 ], [ 74.48181, 34.78254 ], [ 74.49976, 34.78826 ], [ 74.51323, 34.78418 ], [ 74.5202, 34.78305 ], [ 74.53143, 34.78382 ], [ 74.54481, 34.78222 ], [ 74.56571, 34.77835 ], [ 74.58168, 34.77248 ], [ 74.5918, 34.76529 ], [ 74.59812, 34.7563 ], [ 74.59979, 34.74998 ], [ 74.6061, 34.73777 ], [ 74.59094, 34.71126 ], [ 74.5695, 34.69225 ], [ 74.56667, 34.68773 ], [ 74.56295, 34.674 ], [ 74.56373, 34.66087 ], [ 74.56519, 34.65402 ], [ 74.56525, 34.64664 ], [ 74.56386, 34.64036 ], [ 74.55894, 34.62996 ], [ 74.54736, 34.62424 ], [ 74.54645, 34.61816 ], [ 74.54769, 34.6112 ], [ 74.54749, 34.60453 ], [ 74.54165, 34.59021 ], [ 74.53316, 34.58273 ], [ 74.53179, 34.57489 ], [ 74.52896, 34.57155 ], [ 74.52571, 34.56095 ], [ 74.52174, 34.55271 ], [ 74.52235, 34.54868 ], [ 74.5281, 34.54288 ], [ 74.53137, 34.53808 ], [ 74.53408, 34.52942 ], [ 74.53234, 34.51899 ], [ 74.53396, 34.51127 ], [ 74.52083, 34.50199 ], [ 74.51781, 34.48421 ], [ 74.48512, 34.46248 ], [ 74.48295, 34.45884 ], [ 74.47721, 34.43736 ], [ 74.47951, 34.43261 ], [ 74.47303, 34.43232 ], [ 74.46787, 34.43052 ], [ 74.46219, 34.42591 ], [ 74.45458, 34.417 ], [ 74.45018, 34.41583 ], [ 74.43895, 34.41608 ], [ 74.41578, 34.41437 ], [ 74.4075, 34.41557 ], [ 74.40082, 34.42458 ], [ 74.39895, 34.43447 ], [ 74.39581, 34.43662 ], [ 74.39268, 34.43751 ], [ 74.38274, 34.43729 ], [ 74.37828, 34.43547 ], [ 74.36917, 34.4297 ], [ 74.35918, 34.42549 ], [ 74.35323, 34.42462 ], [ 74.34715, 34.42752 ], [ 74.34422, 34.42984 ], [ 74.34816, 34.43725 ], [ 74.34913, 34.44824 ], [ 74.34903, 34.45659 ], [ 74.34609, 34.47612 ], [ 74.33612, 34.48794 ], [ 74.32625, 34.48779 ], [ 74.31389, 34.49125 ], [ 74.31116, 34.50035 ], [ 74.30314, 34.50593 ], [ 74.29552, 34.50913 ], [ 74.28036, 34.51142 ], [ 74.27523, 34.5189 ], [ 74.26995, 34.51909 ], [ 74.27865, 34.5294 ], [ 74.28166, 34.5301 ], [ 74.28487, 34.53203 ], [ 74.28752, 34.53499 ], [ 74.289, 34.54012 ], [ 74.29166, 34.54123 ], [ 74.29401, 34.54348 ], [ 74.29797, 34.55277 ], [ 74.29716, 34.55598 ], [ 74.2986, 34.56011 ], [ 74.29785, 34.56518 ], [ 74.29495, 34.56609 ], [ 74.28796, 34.56393 ], [ 74.28601, 34.56075 ], [ 74.28683, 34.54625 ], [ 74.28549, 34.54338 ], [ 74.28214, 34.54402 ], [ 74.27311, 34.54125 ], [ 74.27387, 34.54504 ], [ 74.2698, 34.55235 ], [ 74.26911, 34.55659 ], [ 74.26654, 34.56136 ], [ 74.27463, 34.5629 ], [ 74.27714, 34.56561 ], [ 74.28076, 34.56714 ], [ 74.28303, 34.57135 ], [ 74.2816, 34.5782 ], [ 74.28735, 34.5814 ], [ 74.29049, 34.58436 ], [ 74.2916, 34.58814 ], [ 74.29578, 34.58952 ], [ 74.29887, 34.59362 ], [ 74.29895, 34.60185 ], [ 74.2983, 34.60675 ], [ 74.29449, 34.60705 ], [ 74.28804, 34.606 ], [ 74.2879, 34.60915 ], [ 74.2844, 34.61115 ], [ 74.28153, 34.61402 ], [ 74.27477, 34.61448 ], [ 74.27173, 34.61303 ], [ 74.27066, 34.59917 ], [ 74.27184, 34.59603 ], [ 74.2741, 34.59365 ], [ 74.27786, 34.59321 ], [ 74.27985, 34.59112 ], [ 74.27691, 34.58834 ], [ 74.26769, 34.58731 ], [ 74.26615, 34.58373 ], [ 74.2602, 34.58206 ], [ 74.257, 34.58195 ], [ 74.25198, 34.58567 ], [ 74.25172, 34.59 ], [ 74.25689, 34.59139 ], [ 74.25881, 34.59415 ], [ 74.25775, 34.59791 ], [ 74.25459, 34.60006 ], [ 74.26201, 34.61 ], [ 74.26435, 34.62011 ], [ 74.26276, 34.62311 ], [ 74.25066, 34.62249 ], [ 74.24692, 34.62032 ], [ 74.24318, 34.61992 ], [ 74.24062, 34.62153 ], [ 74.23126, 34.62197 ], [ 74.22859, 34.61926 ], [ 74.23026, 34.6157 ], [ 74.23351, 34.61315 ], [ 74.23592, 34.60967 ], [ 74.23101, 34.60577 ], [ 74.22691, 34.59299 ], [ 74.22987, 34.59029 ], [ 74.23351, 34.58875 ], [ 74.22993, 34.57761 ], [ 74.23204, 34.5746 ], [ 74.23985, 34.56768 ], [ 74.2385, 34.56363 ], [ 74.23802, 34.55852 ], [ 74.24469, 34.55279 ], [ 74.2473, 34.54629 ], [ 74.24984, 34.54447 ], [ 74.25561, 34.54288 ], [ 74.25835, 34.53843 ], [ 74.25536, 34.53803 ], [ 74.23663, 34.53989 ], [ 74.23162, 34.5474 ], [ 74.22435, 34.5561 ], [ 74.21792, 34.56827 ], [ 74.21082, 34.57394 ], [ 74.20725, 34.57889 ], [ 74.20044, 34.58444 ], [ 74.19471, 34.58452 ], [ 74.18974, 34.58194 ], [ 74.18773, 34.57706 ], [ 74.19042, 34.57247 ], [ 74.19221, 34.56424 ], [ 74.18079, 34.57054 ], [ 74.17567, 34.57446 ], [ 74.17243, 34.57504 ], [ 74.16775, 34.57318 ], [ 74.15805, 34.57099 ], [ 74.15381, 34.5552 ], [ 74.15501, 34.55171 ], [ 74.14475, 34.55389 ], [ 74.13028, 34.55218 ], [ 74.12145, 34.54946 ], [ 74.11938, 34.55577 ], [ 74.11638, 34.55958 ], [ 74.11243, 34.56251 ], [ 74.10585, 34.56495 ], [ 74.10021, 34.56568 ], [ 74.09194, 34.56522 ], [ 74.08593, 34.56335 ], [ 74.08048, 34.55853 ], [ 74.07673, 34.55091 ], [ 74.07091, 34.54189 ], [ 74.07035, 34.53271 ], [ 74.07204, 34.52883 ], [ 74.0774, 34.52354 ], [ 74.06529, 34.51094 ], [ 74.05636, 34.49454 ], [ 74.04756, 34.49556 ], [ 74.03094, 34.49534 ], [ 74.02371, 34.49745 ], [ 74.02067, 34.50135 ], [ 74.0174, 34.5094 ], [ 74.01279, 34.51561 ], [ 73.99973, 34.5079 ], [ 73.99797, 34.50316 ], [ 73.99782, 34.49932 ], [ 74.00007, 34.49157 ], [ 74.0139, 34.463 ], [ 74.019, 34.45705 ], [ 74.00261, 34.45279 ], [ 73.99968, 34.45033 ], [ 73.99998, 34.44678 ], [ 74.0116, 34.44897 ], [ 74.01999, 34.45157 ], [ 74.02344, 34.44927 ], [ 74.02949, 34.4527 ], [ 74.03819, 34.4551 ], [ 74.06487, 34.45201 ], [ 74.06786, 34.44902 ], [ 74.06924, 34.44551 ], [ 74.07282, 34.44315 ], [ 74.07924, 34.44289 ], [ 74.08392, 34.44381 ], [ 74.08843, 34.44595 ], [ 74.09095, 34.44875 ], [ 74.09095, 34.45286 ], [ 74.10374, 34.45656 ], [ 74.10673, 34.45817 ], [ 74.11378, 34.45544 ], [ 74.12933, 34.45309 ], [ 74.13366, 34.45146 ], [ 74.12292, 34.44111 ], [ 74.10217, 34.43538 ], [ 74.09963, 34.43388 ], [ 74.09456, 34.42877 ], [ 74.09192, 34.42188 ], [ 74.0918, 34.41427 ], [ 74.08827, 34.40587 ], [ 74.08848, 34.40184 ], [ 74.09074, 34.3997 ], [ 74.09572, 34.3974 ], [ 74.10457, 34.3916 ], [ 74.10834, 34.386 ], [ 74.1183, 34.37667 ], [ 74.12023, 34.37287 ], [ 74.12575, 34.36861 ], [ 74.14039, 34.36531 ], [ 74.15785, 34.36464 ], [ 74.16717, 34.36669 ], [ 74.1759, 34.36414 ], [ 74.18114, 34.36872 ], [ 74.18431, 34.37807 ], [ 74.19293, 34.38007 ], [ 74.19691, 34.37494 ], [ 74.20428, 34.38036 ], [ 74.22067, 34.38683 ], [ 74.22427, 34.38977 ], [ 74.22428, 34.38539 ], [ 74.23026, 34.37652 ], [ 74.24426, 34.37564 ], [ 74.25992, 34.37593 ], [ 74.26569, 34.3741 ], [ 74.25844, 34.37017 ], [ 74.25534, 34.36739 ], [ 74.25803, 34.36121 ], [ 74.25221, 34.36115 ], [ 74.24403, 34.35903 ], [ 74.23244, 34.35744 ], [ 74.22843, 34.35428 ], [ 74.21841, 34.35371 ], [ 74.20561, 34.35146 ], [ 74.20033, 34.35108 ], [ 74.19604, 34.35277 ], [ 74.1806, 34.35084 ], [ 74.17806, 34.35211 ], [ 74.17596, 34.34838 ], [ 74.16649, 34.34434 ], [ 74.16061, 34.34338 ], [ 74.15346, 34.34107 ], [ 74.1487, 34.34085 ], [ 74.13801, 34.33445 ], [ 74.13473, 34.33169 ], [ 74.1324, 34.32797 ], [ 74.13349, 34.32505 ], [ 74.13592, 34.32193 ], [ 74.14436, 34.31507 ], [ 74.14739, 34.31359 ], [ 74.15362, 34.31121 ], [ 74.17336, 34.31031 ], [ 74.17627, 34.30926 ], [ 74.17497, 34.30615 ], [ 74.17155, 34.30508 ], [ 74.17188, 34.30211 ], [ 74.16949, 34.30018 ], [ 74.17272, 34.29926 ], [ 74.17593, 34.29628 ], [ 74.18046, 34.29608 ], [ 74.18819, 34.2996 ], [ 74.19457, 34.29774 ], [ 74.1997, 34.29755 ], [ 74.20875, 34.29942 ], [ 74.2117, 34.29887 ], [ 74.21541, 34.29252 ], [ 74.21345, 34.28908 ], [ 74.20981, 34.2888 ], [ 74.19854, 34.28314 ], [ 74.19102, 34.28194 ], [ 74.18098, 34.28187 ], [ 74.17736, 34.27936 ], [ 74.16925, 34.27878 ], [ 74.16507, 34.27692 ], [ 74.15672, 34.2795 ], [ 74.1521, 34.27957 ], [ 74.14774, 34.28118 ], [ 74.14341, 34.28129 ], [ 74.13719, 34.27683 ], [ 74.13483, 34.27404 ], [ 74.12754, 34.27054 ], [ 74.12391, 34.27012 ], [ 74.11889, 34.27103 ], [ 74.11149, 34.26967 ], [ 74.10572, 34.27108 ], [ 74.10089, 34.27019 ], [ 74.09752, 34.26761 ], [ 74.09349, 34.26814 ], [ 74.0814, 34.26446 ], [ 74.07814, 34.26167 ], [ 74.0752, 34.26053 ], [ 74.0634, 34.26252 ], [ 74.0537, 34.26072 ], [ 74.05114, 34.2589 ], [ 74.04131, 34.25849 ], [ 74.03846, 34.25699 ], [ 74.0366, 34.25908 ], [ 74.03928, 34.26252 ], [ 74.04035, 34.27003 ], [ 74.03247, 34.28203 ], [ 74.02489, 34.28922 ], [ 74.01835, 34.29207 ], [ 74.0153, 34.29428 ], [ 74.01381, 34.29742 ], [ 74.00475, 34.29919 ], [ 73.99919, 34.3016 ], [ 73.98804, 34.30422 ], [ 73.97986, 34.31253 ], [ 73.97849, 34.31574 ], [ 73.97716, 34.33211 ], [ 73.97443, 34.3354 ], [ 73.97025, 34.33735 ], [ 73.96734, 34.34148 ], [ 73.95805, 34.34892 ], [ 73.94979, 34.35284 ], [ 73.94558, 34.35569 ], [ 73.94137, 34.36249 ], [ 73.94103, 34.36701 ], [ 73.94732, 34.37192 ], [ 73.94832, 34.37519 ], [ 73.95547, 34.37887 ], [ 73.95639, 34.39038 ], [ 73.95289, 34.4 ], [ 73.95391, 34.40476 ], [ 73.95214, 34.40795 ], [ 73.94761, 34.40982 ], [ 73.94511, 34.4138 ], [ 73.94192, 34.41597 ], [ 73.93733, 34.41602 ], [ 73.93418, 34.41478 ], [ 73.92307, 34.41931 ], [ 73.91985, 34.42478 ], [ 73.91852, 34.43314 ], [ 73.91673, 34.43774 ], [ 73.90995, 34.44009 ], [ 73.90743, 34.44291 ], [ 73.91226, 34.44776 ], [ 73.91383, 34.45059 ], [ 73.91287, 34.45417 ], [ 73.91454, 34.4589 ], [ 73.91406, 34.47257 ], [ 73.91516, 34.48165 ], [ 73.91391, 34.48472 ], [ 73.91386, 34.49055 ], [ 73.91648, 34.49359 ], [ 73.92298, 34.49741 ], [ 73.92313, 34.50386 ], [ 73.92161, 34.51076 ], [ 73.92275, 34.51343 ], [ 73.92274, 34.51693 ], [ 73.91044, 34.51894 ], [ 73.91155, 34.51988 ], [ 73.90945, 34.52442 ], [ 73.905, 34.52871 ], [ 73.93879, 34.55479 ], [ 73.94041, 34.55268 ], [ 73.94547, 34.55439 ], [ 73.9551, 34.56185 ], [ 73.95692, 34.5651 ], [ 73.95672, 34.5668 ], [ 73.95214, 34.56953 ], [ 73.95864, 34.5791 ], [ 73.95767, 34.57511 ], [ 73.96093, 34.57413 ], [ 73.98961, 34.58021 ], [ 74.00141, 34.58022 ], [ 74.00838, 34.58264 ], [ 74.02394, 34.59571 ], [ 74.04397, 34.61007 ], [ 74.06318, 34.62675 ], [ 74.05236, 34.64066 ], [ 74.02656, 34.63857 ], [ 74.01548, 34.63032 ], [ 74.0133, 34.62534 ], [ 74.00629, 34.62481 ], [ 73.99578, 34.63348 ], [ 73.99015, 34.64524 ], [ 73.99596, 34.65366 ], [ 73.99605, 34.66208 ], [ 73.99151, 34.67013 ], [ 73.97612, 34.6732 ], [ 73.95361, 34.67062 ], [ 73.95382, 34.67232 ], [ 73.95609, 34.67414 ], [ 73.96221, 34.67663 ], [ 73.9684, 34.68434 ], [ 73.97043, 34.68857 ], [ 73.98195, 34.68521 ], [ 73.98782, 34.68255 ], [ 73.99515, 34.68287 ], [ 73.9968, 34.68317 ], [ 73.99992, 34.68557 ], [ 74.00745, 34.68734 ], [ 74.01725, 34.6943 ], [ 74.02996, 34.69437 ], [ 74.03401, 34.69283 ], [ 74.04137, 34.68264 ], [ 74.04439, 34.6811 ], [ 74.05142, 34.68072 ], [ 74.06537, 34.68314 ], [ 74.07149, 34.68516 ], [ 74.07743, 34.68555 ], [ 74.08704, 34.6843 ], [ 74.09204, 34.68622 ], [ 74.09326, 34.68998 ], [ 74.09543, 34.69181 ], [ 74.10062, 34.68912 ], [ 74.09911, 34.67804 ], [ 74.09959, 34.67112 ], [ 74.10138, 34.66611 ], [ 74.11016, 34.65723 ], [ 74.10573, 34.65342 ], [ 74.09411, 34.64844 ], [ 74.09209, 34.64151 ], [ 74.09308, 34.63826 ], [ 74.09592, 34.63425 ], [ 74.09595, 34.6308 ], [ 74.10368, 34.6251 ], [ 74.10025, 34.62046 ], [ 74.10239, 34.61529 ], [ 74.11148, 34.61191 ], [ 74.12744, 34.61778 ], [ 74.13511, 34.61726 ], [ 74.13716, 34.6213 ], [ 74.13814, 34.63255 ], [ 74.1411, 34.63596 ], [ 74.14018, 34.641 ], [ 74.14925, 34.6402 ], [ 74.14746, 34.64422 ], [ 74.14708, 34.64767 ], [ 74.15011, 34.65806 ], [ 74.14384, 34.65801 ], [ 74.14249, 34.65369 ], [ 74.13517, 34.65318 ], [ 74.13729, 34.65774 ], [ 74.13654, 34.66573 ], [ 74.13739, 34.66833 ], [ 74.14436, 34.67266 ], [ 74.1454, 34.67506 ], [ 74.14512, 34.67929 ], [ 74.14616, 34.68334 ], [ 74.14748, 34.68507 ], [ 74.16367, 34.69036 ], [ 74.17477, 34.6968 ], [ 74.20202, 34.71738 ], [ 74.20756, 34.72004 ], [ 74.22172, 34.72189 ], [ 74.22757, 34.72487 ], [ 74.23577, 34.73274 ], [ 74.24041, 34.73525 ], [ 74.26106, 34.74147 ], [ 74.27038, 34.74635 ], [ 74.27599, 34.75001 ], [ 74.28647, 34.76642 ], [ 74.29569, 34.77775 ], [ 74.30456, 34.78547 ], [ 74.31307, 34.79161 ], [ 74.31847, 34.79366 ], [ 74.3253, 34.79391 ], [ 74.33502, 34.78776 ] ], [ [ 74.13876, 34.35235 ], [ 74.13901, 34.34461 ], [ 74.14545, 34.34587 ], [ 74.14824, 34.34825 ], [ 74.14981, 34.35265 ], [ 74.14102, 34.35423 ], [ 74.13876, 34.35235 ] ], [ [ 74.46962, 34.58419 ], [ 74.46307, 34.57845 ], [ 74.45561, 34.56406 ], [ 74.45178, 34.56045 ], [ 74.44649, 34.55804 ], [ 74.44235, 34.55826 ], [ 74.43832, 34.56633 ], [ 74.4342, 34.56754 ], [ 74.43008, 34.56532 ], [ 74.42829, 34.56033 ], [ 74.42395, 34.55861 ], [ 74.41869, 34.55957 ], [ 74.41417, 34.55944 ], [ 74.41078, 34.55704 ], [ 74.40829, 34.55361 ], [ 74.40497, 34.55089 ], [ 74.40365, 34.55368 ], [ 74.40501, 34.55722 ], [ 74.41213, 34.56591 ], [ 74.40857, 34.56833 ], [ 74.40138, 34.56743 ], [ 74.39856, 34.57134 ], [ 74.39546, 34.57189 ], [ 74.39258, 34.57015 ], [ 74.39076, 34.56668 ], [ 74.38967, 34.56203 ], [ 74.3898, 34.55565 ], [ 74.38806, 34.55185 ], [ 74.38365, 34.54809 ], [ 74.37909, 34.54622 ], [ 74.37584, 34.54612 ], [ 74.37309, 34.54784 ], [ 74.37304, 34.55073 ], [ 74.37637, 34.55659 ], [ 74.37454, 34.55913 ], [ 74.3713, 34.5588 ], [ 74.36796, 34.55628 ], [ 74.36514, 34.55524 ], [ 74.36034, 34.55661 ], [ 74.35608, 34.55539 ], [ 74.35327, 34.55148 ], [ 74.34944, 34.54882 ], [ 74.34546, 34.54765 ], [ 74.34378, 34.54501 ], [ 74.34205, 34.53834 ], [ 74.34228, 34.53381 ], [ 74.34525, 34.5312 ], [ 74.35331, 34.53005 ], [ 74.37003, 34.53414 ], [ 74.37915, 34.5317 ], [ 74.37899, 34.51099 ], [ 74.37342, 34.49207 ], [ 74.37484, 34.48502 ], [ 74.38145, 34.48159 ], [ 74.38432, 34.48159 ], [ 74.38302, 34.47743 ], [ 74.38314, 34.47074 ], [ 74.38554, 34.46517 ], [ 74.39191, 34.4617 ], [ 74.39995, 34.4636 ], [ 74.41063, 34.44819 ], [ 74.42243, 34.44058 ], [ 74.43799, 34.44082 ], [ 74.45456, 34.4357 ], [ 74.46598, 34.43873 ], [ 74.47152, 34.44356 ], [ 74.47383, 34.45804 ], [ 74.47329, 34.46962 ], [ 74.47576, 34.47715 ], [ 74.48194, 34.47653 ], [ 74.49061, 34.47911 ], [ 74.48897, 34.48646 ], [ 74.48301, 34.49157 ], [ 74.46943, 34.49436 ], [ 74.46236, 34.499 ], [ 74.45214, 34.50934 ], [ 74.43996, 34.51862 ], [ 74.4317, 34.52349 ], [ 74.42497, 34.53113 ], [ 74.43497, 34.53529 ], [ 74.45086, 34.53791 ], [ 74.45716, 34.53556 ], [ 74.4616, 34.53184 ], [ 74.46654, 34.52522 ], [ 74.4738, 34.52073 ], [ 74.49148, 34.51551 ], [ 74.50039, 34.51467 ], [ 74.50424, 34.5156 ], [ 74.50673, 34.51743 ], [ 74.50759, 34.5214 ], [ 74.50617, 34.52553 ], [ 74.50361, 34.52833 ], [ 74.49964, 34.53037 ], [ 74.48747, 34.53346 ], [ 74.47964, 34.53697 ], [ 74.47539, 34.54201 ], [ 74.47247, 34.5495 ], [ 74.47222, 34.55363 ], [ 74.47372, 34.55895 ], [ 74.47954, 34.56602 ], [ 74.48534, 34.57921 ], [ 74.49754, 34.57886 ], [ 74.50059, 34.58055 ], [ 74.50016, 34.58371 ], [ 74.49822, 34.58591 ], [ 74.49402, 34.58815 ], [ 74.48936, 34.58919 ], [ 74.48293, 34.58863 ], [ 74.47539, 34.58634 ], [ 74.46962, 34.58419 ] ], [ [ 74.33873, 34.65962 ], [ 74.33917, 34.66821 ], [ 74.32869, 34.67172 ], [ 74.31506, 34.66545 ], [ 74.31158, 34.6577 ], [ 74.31988, 34.64158 ], [ 74.3254, 34.63434 ], [ 74.32771, 34.62832 ], [ 74.33077, 34.61509 ], [ 74.3277, 34.60169 ], [ 74.32785, 34.59271 ], [ 74.33808, 34.59095 ], [ 74.33476, 34.58306 ], [ 74.3333, 34.573 ], [ 74.34209, 34.57221 ], [ 74.34592, 34.58185 ], [ 74.3554, 34.58876 ], [ 74.37317, 34.59922 ], [ 74.3872, 34.59947 ], [ 74.40902, 34.60341 ], [ 74.41291, 34.60605 ], [ 74.41311, 34.61416 ], [ 74.40814, 34.62123 ], [ 74.40037, 34.62509 ], [ 74.39066, 34.62693 ], [ 74.3767, 34.62569 ], [ 74.36185, 34.61286 ], [ 74.34909, 34.60681 ], [ 74.35148, 34.61151 ], [ 74.35123, 34.61669 ], [ 74.35446, 34.62332 ], [ 74.35271, 34.63192 ], [ 74.34833, 34.63975 ], [ 74.3491, 34.64374 ], [ 74.34666, 34.65115 ], [ 74.33873, 34.65962 ] ], [ [ 74.24205, 34.6601 ], [ 74.24479, 34.66297 ], [ 74.24215, 34.67139 ], [ 74.23966, 34.67398 ], [ 74.23327, 34.67639 ], [ 74.22951, 34.6757 ], [ 74.22553, 34.67322 ], [ 74.22774, 34.66384 ], [ 74.22941, 34.66001 ], [ 74.23176, 34.65804 ], [ 74.23574, 34.65725 ], [ 74.23892, 34.65941 ], [ 74.24205, 34.6601 ] ], [ [ 74.39736, 34.70885 ], [ 74.41301, 34.7057 ], [ 74.41238, 34.68673 ], [ 74.4167, 34.67945 ], [ 74.42584, 34.65861 ], [ 74.43484, 34.65112 ], [ 74.44369, 34.64658 ], [ 74.49885, 34.64668 ], [ 74.49864, 34.66038 ], [ 74.50421, 34.67349 ], [ 74.50725, 34.68975 ], [ 74.50728, 34.69727 ], [ 74.50061, 34.71491 ], [ 74.4971, 34.71708 ], [ 74.48183, 34.71564 ], [ 74.47324, 34.71348 ], [ 74.45801, 34.71344 ], [ 74.44999, 34.7285 ], [ 74.44427, 34.73088 ], [ 74.44196, 34.73701 ], [ 74.43564, 34.74542 ], [ 74.43388, 34.75663 ], [ 74.41683, 34.76288 ], [ 74.40771, 34.7629 ], [ 74.40029, 34.76161 ], [ 74.3902, 34.75664 ], [ 74.38219, 34.74956 ], [ 74.37945, 34.74433 ], [ 74.37943, 34.73601 ], [ 74.38152, 34.72691 ], [ 74.39736, 34.70885 ] ] ] } }
]
}
