{
"type": "FeatureCollection",
"name": "013_SHUPIYAN",
"crs": { "type": "name", "properties": { "name": "urn:ogc:def:crs:OGC:1.3:CRS84" } },
"xy_coordinate_resolution": 1e-05,
"features": [
{ "type": "Feature", "properties": { "OBJECTID": 3171, "state_lgd": "01", "state_name": "JAMMU AND KASHMIR", "district_lgd": "013", "district_name": "SHUPIYAN", "district_name_source": "district_table", "subdistrict_lgd": "6092", "subdistrict_name": "KEEGAM", "subdistrict_type": "", "name_corrupted": false, "remarks": "", "label_lon": 74.870825145351702, "label_lat": 33.785124696224443 }, "geometry": { "type": "Polygon", "coordinates": [ [ [ 74.85758, 33.81611 ], [ 74.86757, 33.8157 ], [ 74.876, 33.81708 ], [ 74.87729, 33.81376 ], [ 74.86437, 33.80662 ], [ 74.85773, 33.8013 ], [ 74.85769, 33.79782 ], [ 74.86185, 33.79528 ], [ 74.87061, 33.79604 ], [ 74.87409, 33.79547 ], [ 74.87702, 33.79162 ], [ 74.88048, 33.79174 ], [ 74.88373, 33.79611 ], [ 74.88711, 33.79797 ], [ 74.8918, 33.7981 ], [ 74.89108, 33.80181 ], [ 74.89481, 33.8062 ], [ 74.89996, 33.8088 ], [ 74.90447, 33.8098 ], [ 74.90814, 33.80643 ], [ 74.91211, 33.80675 ], [ 74.91907, 33.81221 ], [ 74.92242, 33.81386 ], [ 74.92593, 33.81378 ], [ 74.92703, 33.81016 ], [ 74.93362, 33.80908 ], [ 74.92691, 33.80241 ], [ 74.93022, 33.80169 ], [ 74.93441, 33.80203 ], [ 74.9349, 33.79657 ], [ 74.93675, 33.79276 ], [ 74.93177, 33.79251 ], [ 74.92243, 33.79636 ], [ 74.92481, 33.78975 ], [ 74.92284, 33.78591 ], [ 74.91878, 33.78675 ], [ 74.91519, 33.78919 ], [ 74.90219, 33.78801 ], [ 74.90231, 33.78347 ], [ 74.88302, 33.77038 ], [ 74.87794, 33.7671 ], [ 74.85644, 33.75759 ], [ 74.85766, 33.75415 ], [ 74.85571, 33.74905 ], [ 74.85325, 33.74536 ], [ 74.84899, 33.74316 ], [ 74.84278, 33.74378 ], [ 74.82895, 33.75405 ], [ 74.82538, 33.75903 ], [ 74.82914, 33.7609 ], [ 74.83028, 33.76561 ], [ 74.83277, 33.76868 ], [ 74.83437, 33.77589 ], [ 74.83803, 33.77757 ], [ 74.84294, 33.7771 ], [ 74.84806, 33.7742 ], [ 74.84968, 33.77657 ], [ 74.85055, 33.78064 ], [ 74.84682, 33.78341 ], [ 74.84423, 33.78697 ], [ 74.83219, 33.78457 ], [ 74.82726, 33.78622 ], [ 74.84603, 33.80945 ], [ 74.84596, 33.81396 ], [ 74.84389, 33.81725 ], [ 74.84725, 33.82018 ], [ 74.85023, 33.82136 ], [ 74.85758, 33.81611 ] ] ] } },
{ "type": "Feature", "properties": { "OBJECTID": 3172, "state_lgd": "01", "state_name": "JAMMU AND KASHMIR", "district_lgd": "013", "district_name": "SHUPIYAN", "district_name_source": "district_table", "subdistrict_lgd": "6179", "subdistrict_name": "HERMAIN", "subdistrict_type": "", "name_corrupted": false, "remarks": "", "label_lon": 74.92952249611281, "label_lat": 33.700043031979071 }, "geometry": { "type": "Polygon", "coordinates": [ [ [ 74.93782, 33.71148 ], [ 74.95379, 33.7073 ], [ 74.96025, 33.7071 ], [ 74.96747, 33.6967 ], [ 74.96694, 33.69377 ], [ 74.96184, 33.69635 ], [ 74.96021, 33.69205 ], [ 74.95992, 33.6866 ], [ 74.96696, 33.68461 ], [ 74.96291, 33.68204 ], [ 74.9585, 33.68076 ], [ 74.94731, 33.67354 ], [ 74.94346, 33.67227 ], [ 74.94051, 33.66965 ], [ 74.93848, 33.6602 ], [ 74.93469, 33.6619 ], [ 74.93147, 33.67046 ], [ 74.93293, 33.67337 ], [ 74.92714, 33.67854 ], [ 74.92643, 33.68316 ], [ 74.92233, 33.68656 ], [ 74.91473, 33.68927 ], [ 74.90659, 33.68943 ], [ 74.89828, 33.68842 ], [ 74.89022, 33.69203 ], [ 74.88771, 33.69501 ], [ 74.89099, 33.69633 ], [ 74.8924, 33.6982 ], [ 74.88898, 33.70213 ], [ 74.88538, 33.70399 ], [ 74.87891, 33.70445 ], [ 74.88139, 33.70832 ], [ 74.88428, 33.70934 ], [ 74.88662, 33.70684 ], [ 74.89295, 33.70424 ], [ 74.90232, 33.70569 ], [ 74.90418, 33.70965 ], [ 74.90378, 33.71539 ], [ 74.91068, 33.72412 ], [ 74.91573, 33.72628 ], [ 74.92042, 33.7249 ], [ 74.92354, 33.72599 ], [ 74.9259, 33.72886 ], [ 74.93757, 33.73358 ], [ 74.94539, 33.73294 ], [ 74.94535, 33.72766 ], [ 74.94433, 33.72332 ], [ 74.94233, 33.71967 ], [ 74.93628, 33.71563 ], [ 74.93467, 33.71097 ], [ 74.93782, 33.71148 ] ] ] } },
{ "type": "Feature", "properties": { "OBJECTID": 3173, "state_lgd": "01", "state_name": "JAMMU AND KASHMIR", "district_lgd": "013", "district_name": "SHUPIYAN", "district_name_source": "district_table", "subdistrict_lgd": "6091", "subdistrict_name": "KELLER", "subdistrict_type": "", "name_corrupted": false, "remarks": "", "label_lon": 74.716456904552317, "label_lat": 33.741678245076521 }, "geometry": { "type": "Polygon", "coordinates": [ [ [ 74.71575, 33.80483 ], [ 74.71323, 33.8005 ], [ 74.71266, 33.79507 ], [ 74.72626, 33.79864 ], [ 74.72913, 33.80042 ], [ 74.73269, 33.80141 ], [ 74.73772, 33.802 ], [ 74.7393, 33.80449 ], [ 74.74483, 33.80694 ], [ 74.75529, 33.8088 ], [ 74.75964, 33.80803 ], [ 74.76408, 33.80246 ], [ 74.76507, 33.79913 ], [ 74.76823, 33.79641 ], [ 74.7729, 33.79517 ], [ 74.77717, 33.79216 ], [ 74.7807, 33.79261 ], [ 74.79718, 33.79981 ], [ 74.80564, 33.79877 ], [ 74.80978, 33.79756 ], [ 74.81387, 33.79484 ], [ 74.81808, 33.78947 ], [ 74.82136, 33.78879 ], [ 74.82343, 33.78591 ], [ 74.82726, 33.78622 ], [ 74.83219, 33.78457 ], [ 74.84423, 33.78697 ], [ 74.84682, 33.78341 ], [ 74.85055, 33.78064 ], [ 74.84968, 33.77657 ], [ 74.84806, 33.7742 ], [ 74.84294, 33.7771 ], [ 74.83803, 33.77757 ], [ 74.83437, 33.77589 ], [ 74.83277, 33.76868 ], [ 74.83028, 33.76561 ], [ 74.82914, 33.7609 ], [ 74.82538, 33.75903 ], [ 74.82895, 33.75405 ], [ 74.82398, 33.75297 ], [ 74.81989, 33.75054 ], [ 74.82311, 33.74635 ], [ 74.82107, 33.74395 ], [ 74.81759, 33.7434 ], [ 74.81248, 33.73915 ], [ 74.80996, 33.73428 ], [ 74.80958, 33.72625 ], [ 74.8113, 33.72319 ], [ 74.80779, 33.71653 ], [ 74.80565, 33.70585 ], [ 74.80333, 33.70303 ], [ 74.80373, 33.69999 ], [ 74.8027, 33.69674 ], [ 74.79867, 33.69422 ], [ 74.77968, 33.68798 ], [ 74.75893, 33.68751 ], [ 74.74901, 33.68472 ], [ 74.73511, 33.68364 ], [ 74.73313, 33.68631 ], [ 74.72602, 33.68974 ], [ 74.72268, 33.68942 ], [ 74.71937, 33.69202 ], [ 74.71465, 33.69428 ], [ 74.71011, 33.69533 ], [ 74.70033, 33.69427 ], [ 74.69686, 33.69627 ], [ 74.69326, 33.69568 ], [ 74.68864, 33.69833 ], [ 74.68341, 33.69984 ], [ 74.67951, 33.70234 ], [ 74.67364, 33.70018 ], [ 74.66618, 33.69259 ], [ 74.66152, 33.69142 ], [ 74.65623, 33.69225 ], [ 74.6525, 33.69172 ], [ 74.6479, 33.68965 ], [ 74.63292, 33.69183 ], [ 74.62819, 33.69297 ], [ 74.62543, 33.69495 ], [ 74.62238, 33.69564 ], [ 74.61052, 33.69393 ], [ 74.60762, 33.69051 ], [ 74.60774, 33.68722 ], [ 74.60296, 33.68166 ], [ 74.60026, 33.68079 ], [ 74.59731, 33.68167 ], [ 74.59542, 33.68389 ], [ 74.59157, 33.68522 ], [ 74.58275, 33.68788 ], [ 74.57871, 33.68754 ], [ 74.56985, 33.68908 ], [ 74.56718, 33.69123 ], [ 74.57038, 33.70221 ], [ 74.573, 33.70636 ], [ 74.57753, 33.71129 ], [ 74.57852, 33.71532 ], [ 74.5804, 33.71848 ], [ 74.60035, 33.72458 ], [ 74.61168, 33.73588 ], [ 74.62467, 33.73969 ], [ 74.62588, 33.7428 ], [ 74.6255, 33.75016 ], [ 74.63776, 33.75861 ], [ 74.64364, 33.76394 ], [ 74.64602, 33.76673 ], [ 74.64926, 33.77288 ], [ 74.65812, 33.78266 ], [ 74.67855, 33.79551 ], [ 74.68475, 33.80057 ], [ 74.69025, 33.80777 ], [ 74.69313, 33.80876 ], [ 74.70827, 33.8047 ], [ 74.71575, 33.80483 ] ] ] } },
{ "type": "Feature", "properties": { "OBJECTID": 3174, "state_lgd": "01", "state_name": "JAMMU AND KASHMIR", "district_lgd": "013", "district_name": "SHUPIYAN", "district_name_source": "district_table", "subdistrict_lgd": "52", "subdistrict_name": "SHOPIAN", "subdistrict_type": "", "name_corrupted": false, "remarks": "", "label_lon": 74.694577523721719, "label_lat": 33.647487081585076 }, "geometry": { "type": "Polygon", "coordinates": [ [ [ 74.93147, 33.67046 ], [ 74.92702, 33.67137 ], [ 74.92173, 33.67126 ], [ 74.91702, 33.66931 ], [ 74.90913, 33.66835 ], [ 74.91549, 33.65739 ], [ 74.91192, 33.65504 ], [ 74.90493, 33.6528 ], [ 74.90611, 33.64832 ], [ 74.89839, 33.64445 ], [ 74.88958, 33.63628 ], [ 74.88657, 33.632 ], [ 74.88259, 33.62976 ], [ 74.87839, 33.62931 ], [ 74.87276, 33.62727 ], [ 74.86453, 33.63178 ], [ 74.85594, 33.63925 ], [ 74.85017, 33.64136 ], [ 74.84831, 33.64432 ], [ 74.84222, 33.64886 ], [ 74.83962, 33.65183 ], [ 74.83142, 33.65701 ], [ 74.82599, 33.65736 ], [ 74.82093, 33.65657 ], [ 74.81747, 33.65512 ], [ 74.79741, 33.65443 ], [ 74.78999, 33.65829 ], [ 74.78583, 33.65507 ], [ 74.78414, 33.65105 ], [ 74.78056, 33.64679 ], [ 74.77666, 33.63792 ], [ 74.77325, 33.63412 ], [ 74.76061, 33.63545 ], [ 74.7543, 33.63771 ], [ 74.75145, 33.63784 ], [ 74.74697, 33.63734 ], [ 74.74372, 33.63471 ], [ 74.7405, 33.63383 ], [ 74.72142, 33.63276 ], [ 74.71227, 33.62932 ], [ 74.70753, 33.6293 ], [ 74.70955, 33.63206 ], [ 74.71557, 33.63628 ], [ 74.71607, 33.64066 ], [ 74.70651, 33.63906 ], [ 74.70171, 33.63931 ], [ 74.69793, 33.63759 ], [ 74.68018, 33.63348 ], [ 74.67458, 33.63011 ], [ 74.66992, 33.62562 ], [ 74.66578, 33.6233 ], [ 74.66116, 33.6219 ], [ 74.65283, 33.62544 ], [ 74.64764, 33.62383 ], [ 74.64679, 33.61836 ], [ 74.64193, 33.61292 ], [ 74.63084, 33.60815 ], [ 74.62791, 33.60612 ], [ 74.62337, 33.59987 ], [ 74.62268, 33.59609 ], [ 74.61923, 33.59275 ], [ 74.61805, 33.58862 ], [ 74.61111, 33.57795 ], [ 74.61358, 33.56264 ], [ 74.61239, 33.55256 ], [ 74.61437, 33.54882 ], [ 74.61291, 33.54565 ], [ 74.60788, 33.5416 ], [ 74.60413, 33.53504 ], [ 74.60367, 33.5314 ], [ 74.6066, 33.52241 ], [ 74.60856, 33.51274 ], [ 74.6062, 33.50612 ], [ 74.60394, 33.5023 ], [ 74.60102, 33.5013 ], [ 74.59775, 33.50234 ], [ 74.59362, 33.5018 ], [ 74.58943, 33.50366 ], [ 74.5887, 33.50829 ], [ 74.58102, 33.50878 ], [ 74.57437, 33.5073 ], [ 74.5744, 33.51114 ], [ 74.57578, 33.51416 ], [ 74.56776, 33.5195 ], [ 74.56595, 33.52313 ], [ 74.55754, 33.52461 ], [ 74.55488, 33.5273 ], [ 74.54691, 33.52945 ], [ 74.54292, 33.52764 ], [ 74.5382, 33.52788 ], [ 74.53329, 33.53225 ], [ 74.52881, 33.54689 ], [ 74.5191, 33.55143 ], [ 74.51605, 33.55457 ], [ 74.5172, 33.55878 ], [ 74.52689, 33.56692 ], [ 74.52294, 33.5752 ], [ 74.52347, 33.57978 ], [ 74.52116, 33.58291 ], [ 74.52049, 33.58585 ], [ 74.51562, 33.59159 ], [ 74.51428, 33.6003 ], [ 74.5199, 33.60555 ], [ 74.52129, 33.61057 ], [ 74.52711, 33.61704 ], [ 74.52488, 33.62419 ], [ 74.52173, 33.62571 ], [ 74.51962, 33.62966 ], [ 74.51988, 33.63995 ], [ 74.52444, 33.64232 ], [ 74.52886, 33.6431 ], [ 74.52992, 33.64584 ], [ 74.53088, 33.65356 ], [ 74.53396, 33.66214 ], [ 74.53925, 33.66629 ], [ 74.54027, 33.66903 ], [ 74.54337, 33.6733 ], [ 74.5452, 33.68064 ], [ 74.5553, 33.68482 ], [ 74.55911, 33.68724 ], [ 74.56043, 33.69027 ], [ 74.56718, 33.69123 ], [ 74.56985, 33.68908 ], [ 74.57871, 33.68754 ], [ 74.58275, 33.68788 ], [ 74.59542, 33.68389 ], [ 74.59731, 33.68167 ], [ 74.60026, 33.68079 ], [ 74.60296, 33.68166 ], [ 74.60774, 33.68722 ], [ 74.60762, 33.69051 ], [ 74.61052, 33.69393 ], [ 74.62238, 33.69564 ], [ 74.62543, 33.69495 ], [ 74.62819, 33.69297 ], [ 74.63292, 33.69183 ], [ 74.6479, 33.68965 ], [ 74.6525, 33.69172 ], [ 74.65623, 33.69225 ], [ 74.66152, 33.69142 ], [ 74.66618, 33.69259 ], [ 74.67364, 33.70018 ], [ 74.67951, 33.70234 ], [ 74.68341, 33.69984 ], [ 74.68864, 33.69833 ], [ 74.69326, 33.69568 ], [ 74.69686, 33.69627 ], [ 74.70033, 33.69427 ], [ 74.71011, 33.69533 ], [ 74.71465, 33.69428 ], [ 74.71937, 33.69202 ], [ 74.72268, 33.68942 ], [ 74.72602, 33.68974 ], [ 74.73313, 33.68631 ], [ 74.73511, 33.68364 ], [ 74.74901, 33.68472 ], [ 74.75893, 33.68751 ], [ 74.77968, 33.68798 ], [ 74.79867, 33.69422 ], [ 74.8027, 33.69674 ], [ 74.80373, 33.69999 ], [ 74.80333, 33.70303 ], [ 74.80565, 33.70585 ], [ 74.80779, 33.71653 ], [ 74.8113, 33.72319 ], [ 74.80958, 33.72625 ], [ 74.80996, 33.73428 ], [ 74.81248, 33.73915 ], [ 74.81485, 33.74155 ], [ 74.81759, 33.7434 ], [ 74.82107, 33.74395 ], [ 74.82311, 33.74635 ], [ 74.81989, 33.75054 ], [ 74.82398, 33.75297 ], [ 74.82895, 33.75405 ], [ 74.84278, 33.74378 ], [ 74.84899, 33.74316 ], [ 74.85325, 33.74536 ], [ 74.85571, 33.74905 ], [ 74.85766, 33.75415 ], [ 74.85644, 33.75759 ], [ 74.87794, 33.7671 ], [ 74.88302, 33.77038 ], [ 74.90231, 33.78347 ], [ 74.90219, 33.78801 ], [ 74.91519, 33.78919 ], [ 74.91878, 33.78675 ], [ 74.92284, 33.78591 ], [ 74.91364, 33.76737 ], [ 74.90057, 33.768 ], [ 74.89825, 33.7725 ], [ 74.89077, 33.77006 ], [ 74.88203, 33.76282 ], [ 74.88135, 33.7597 ], [ 74.88345, 33.75738 ], [ 74.88679, 33.75715 ], [ 74.8926, 33.75955 ], [ 74.89615, 33.75865 ], [ 74.89524, 33.7547 ], [ 74.88912, 33.75124 ], [ 74.88818, 33.74488 ], [ 74.88635, 33.74071 ], [ 74.88265, 33.73814 ], [ 74.87815, 33.73696 ], [ 74.87362, 33.73346 ], [ 74.87679, 33.72653 ], [ 74.88299, 33.72233 ], [ 74.88872, 33.72082 ], [ 74.89332, 33.7183 ], [ 74.90078, 33.7179 ], [ 74.90378, 33.71539 ], [ 74.90418, 33.70965 ], [ 74.90232, 33.70569 ], [ 74.89295, 33.70424 ], [ 74.88662, 33.70684 ], [ 74.88428, 33.70934 ], [ 74.88139, 33.70832 ], [ 74.87891, 33.70445 ], [ 74.88538, 33.70399 ], [ 74.88898, 33.70213 ], [ 74.8924, 33.6982 ], [ 74.89099, 33.69633 ], [ 74.88771, 33.69501 ], [ 74.89022, 33.69203 ], [ 74.89828, 33.68842 ], [ 74.90659, 33.68943 ], [ 74.91473, 33.68927 ], [ 74.92233, 33.68656 ], [ 74.92643, 33.68316 ], [ 74.92714, 33.67854 ], [ 74.93293, 33.67337 ], [ 74.93147, 33.67046 ] ] ] } },
{ "type": "Feature", "properties": { "OBJECTID": 3175, "state_lgd": "01", "state_name": "JAMMU AND KASHMIR", "district_lgd": "013", "district_name": "SHUPIYAN", "district_name_source": "district_table", "subdistrict_lgd": "6204", "subdistrict_name": "IMAMSAHIB / BARBUGH", "subdistrict_type": "", "name_corrupted": false, "remarks": "", "label_lon": 74.916431379339031, "label_lat": 33.741414224779533 }, "geometry": { "type": "Polygon", "coordinates": [ [ [ 74.92934, 33.77104 ], [ 74.93351, 33.77137 ], [ 74.93716, 33.76824 ], [ 74.93064, 33.7645 ], [ 74.92572, 33.7606 ], [ 74.93114, 33.75962 ], [ 74.93635, 33.76019 ], [ 74.93714, 33.75771 ], [ 74.92992, 33.75367 ], [ 74.9326, 33.75096 ], [ 74.93615, 33.75012 ], [ 74.9471, 33.75232 ], [ 74.95096, 33.75169 ], [ 74.9424, 33.74188 ], [ 74.94602, 33.73941 ], [ 74.9524, 33.7406 ], [ 74.95664, 33.73273 ], [ 74.95593, 33.72869 ], [ 74.9573, 33.72081 ], [ 74.96188, 33.70985 ], [ 74.96025, 33.7071 ], [ 74.95379, 33.7073 ], [ 74.93782, 33.71148 ], [ 74.93467, 33.71097 ], [ 74.93628, 33.71563 ], [ 74.94233, 33.71967 ], [ 74.94433, 33.72332 ], [ 74.94535, 33.72766 ], [ 74.94539, 33.73294 ], [ 74.93757, 33.73358 ], [ 74.9259, 33.72886 ], [ 74.92354, 33.72599 ], [ 74.92042, 33.7249 ], [ 74.91573, 33.72628 ], [ 74.91068, 33.72412 ], [ 74.90378, 33.71539 ], [ 74.90078, 33.7179 ], [ 74.89332, 33.7183 ], [ 74.88872, 33.72082 ], [ 74.88299, 33.72233 ], [ 74.87679, 33.72653 ], [ 74.87537, 33.72914 ], [ 74.87362, 33.73346 ], [ 74.87815, 33.73696 ], [ 74.88265, 33.73814 ], [ 74.88635, 33.74071 ], [ 74.88818, 33.74488 ], [ 74.88912, 33.75124 ], [ 74.89524, 33.7547 ], [ 74.89615, 33.75865 ], [ 74.8926, 33.75955 ], [ 74.88679, 33.75715 ], [ 74.88345, 33.75738 ], [ 74.88135, 33.7597 ], [ 74.88203, 33.76282 ], [ 74.89077, 33.77006 ], [ 74.89825, 33.7725 ], [ 74.90057, 33.768 ], [ 74.91364, 33.76737 ], [ 74.91761, 33.77551 ], [ 74.92487, 33.77168 ], [ 74.92806, 33.77388 ], [ 74.92934, 33.77104 ] ] ] } },
{ "type": "Feature", "properties": { "OBJECTID": 3176, "state_lgd": "01", "state_name": "JAMMU AND KASHMIR", "district_lgd": "013", "district_name": "SHUPIYAN", "district_name_source": "district_table", "subdistrict_lgd": "6183", "subdistrict_name": "CHITRAGAM", "subdistrict_type": "", "name_corrupted": false, "remarks": "", "label_lon": 74.961361243208827, "label_lat": 33.77355984736932 }, "geometry": { "type": "Polygon", "coordinates": [ [ [ 75.00176, 33.80165 ], [ 75.00201, 33.79725 ], [ 75.00008, 33.79393 ], [ 74.99463, 33.79222 ], [ 74.99563, 33.78829 ], [ 74.99454, 33.77988 ], [ 74.99274, 33.77716 ], [ 74.9881, 33.77533 ], [ 74.9812, 33.77442 ], [ 74.97959, 33.77182 ], [ 74.98162, 33.76969 ], [ 74.99104, 33.7712 ], [ 74.98897, 33.76645 ], [ 74.98914, 33.7577 ], [ 74.98857, 33.7544 ], [ 74.986, 33.75121 ], [ 74.98167, 33.75411 ], [ 74.97803, 33.75515 ], [ 74.97601, 33.75243 ], [ 74.97741, 33.74853 ], [ 74.98022, 33.74519 ], [ 74.97705, 33.74316 ], [ 74.97432, 33.7397 ], [ 74.96932, 33.73947 ], [ 74.95689, 33.74359 ], [ 74.9524, 33.7406 ], [ 74.94602, 33.73941 ], [ 74.9424, 33.74188 ], [ 74.95096, 33.75169 ], [ 74.9471, 33.75232 ], [ 74.93615, 33.75012 ], [ 74.9326, 33.75096 ], [ 74.92992, 33.75367 ], [ 74.93714, 33.75771 ], [ 74.93635, 33.76019 ], [ 74.93114, 33.75962 ], [ 74.92572, 33.7606 ], [ 74.93064, 33.7645 ], [ 74.93716, 33.76824 ], [ 74.93351, 33.77137 ], [ 74.92934, 33.77104 ], [ 74.92806, 33.77388 ], [ 74.92487, 33.77168 ], [ 74.91761, 33.77551 ], [ 74.92481, 33.78975 ], [ 74.92243, 33.79636 ], [ 74.93177, 33.79251 ], [ 74.93675, 33.79276 ], [ 74.94055, 33.79141 ], [ 74.96609, 33.79506 ], [ 74.98033, 33.80944 ], [ 74.98449, 33.8073 ], [ 74.98898, 33.80337 ], [ 74.9955, 33.79943 ], [ 74.9985, 33.79988 ], [ 75.00176, 33.80165 ] ] ] } },
{ "type": "Feature", "properties": { "OBJECTID": 3177, "state_lgd": "01", "state_name": "JAMMU AND KASHMIR", "district_lgd": "013", "district_name": "SHUPIYAN", "district_name_source": "district_table", "subdistrict_lgd": "6502", "subdistrict_name": "ZAINPORA", "subdistrict_type": "", "name_corrupted": false, "remarks": "", "label_lon": 75.013974878910489, "label_lat": 33.778635450312763 }, "geometry": { "type": "Polygon", "coordinates": [ [ [ 75.0431, 33.81441 ], [ 75.04524, 33.81249 ], [ 75.04873, 33.8145 ], [ 75.05038, 33.81239 ], [ 75.05362, 33.81253 ], [ 75.05542, 33.80965 ], [ 75.05519, 33.80676 ], [ 75.05084, 33.79922 ], [ 75.04774, 33.79839 ], [ 75.04115, 33.79843 ], [ 75.03351, 33.79633 ], [ 75.03031, 33.79385 ], [ 75.02912, 33.78905 ], [ 75.03, 33.77969 ], [ 75.03243, 33.77568 ], [ 75.03767, 33.77206 ], [ 75.03378, 33.77065 ], [ 75.0315, 33.76841 ], [ 75.02935, 33.7586 ], [ 75.026, 33.75317 ], [ 75.02528, 33.74968 ], [ 75.01966, 33.74189 ], [ 75.01496, 33.74007 ], [ 75.01122, 33.74518 ], [ 75.01043, 33.74825 ], [ 75.00701, 33.75034 ], [ 75.00001, 33.75269 ], [ 74.9961, 33.74954 ], [ 74.99565, 33.74603 ], [ 74.99905, 33.74598 ], [ 75.00167, 33.74416 ], [ 74.99703, 33.74178 ], [ 74.98462, 33.74509 ], [ 74.98022, 33.74519 ], [ 74.97741, 33.74853 ], [ 74.97601, 33.75243 ], [ 74.97803, 33.75515 ], [ 74.98167, 33.75411 ], [ 74.986, 33.75121 ], [ 74.98857, 33.7544 ], [ 74.98947, 33.76059 ], [ 74.98897, 33.76645 ], [ 74.99104, 33.7712 ], [ 74.98162, 33.76969 ], [ 74.97959, 33.77182 ], [ 74.9812, 33.77442 ], [ 74.9881, 33.77533 ], [ 74.99274, 33.77716 ], [ 74.99454, 33.77988 ], [ 74.99563, 33.78829 ], [ 74.99463, 33.79222 ], [ 75.00008, 33.79393 ], [ 75.00201, 33.79725 ], [ 75.00176, 33.80165 ], [ 75.00015, 33.8068 ], [ 75.0015, 33.81119 ], [ 75.00877, 33.81049 ], [ 75.01151, 33.80938 ], [ 75.01454, 33.81041 ], [ 75.02255, 33.81064 ], [ 75.02612, 33.80935 ], [ 75.03027, 33.80979 ], [ 75.03388, 33.81125 ], [ 75.04124, 33.81143 ], [ 75.04001, 33.81526 ], [ 75.0431, 33.81441 ] ] ] } }
]
}
