{
"type": "FeatureCollection",
"name": "022_SAMBA",
"crs": { "type": "name", "properties": { "name": "urn:ogc:def:crs:OGC:1.3:CRS84" } },
"xy_coordinate_resolution": 1e-05,
"features": [
{ "type": "Feature", "properties": { "OBJECTID": 3165, "state_lgd": "01", "state_name": "JAMMU AND KASHMIR", "district_lgd": "022", "district_name": "SAMBA", "district_name_source": "district_table", "subdistrict_lgd": "6249", "subdistrict_name": "RAJPURA", "subdistrict_type": "", "name_corrupted": false, "remarks": "", "label_lon": 75.165096095987352, "label_lat": 32.462090446674367 }, "geometry": { "type": "Polygon", "coordinates": [ [ [ 75.19764, 32.42137 ], [ 75.19175, 32.42209 ], [ 75.192, 32.42401 ], [ 75.18977, 32.42581 ], [ 75.18709, 32.42605 ], [ 75.18251, 32.42429 ], [ 75.18033, 32.42424 ], [ 75.17903, 32.42352 ], [ 75.17825, 32.42155 ], [ 75.16763, 32.42321 ], [ 75.16386, 32.42264 ], [ 75.16012, 32.41864 ], [ 75.15266, 32.42108 ], [ 75.14111, 32.41235 ], [ 75.13325, 32.4085 ], [ 75.13142, 32.40886 ], [ 75.13166, 32.41447 ], [ 75.12753, 32.41725 ], [ 75.12663, 32.42028 ], [ 75.12725, 32.42551 ], [ 75.12992, 32.42659 ], [ 75.13301, 32.42641 ], [ 75.13323, 32.4278 ], [ 75.13194, 32.42981 ], [ 75.12936, 32.43118 ], [ 75.1284, 32.43352 ], [ 75.12445, 32.43462 ], [ 75.1244, 32.43655 ], [ 75.1186, 32.44434 ], [ 75.11819, 32.447 ], [ 75.11927, 32.45422 ], [ 75.10777, 32.46057 ], [ 75.10872, 32.46735 ], [ 75.11277, 32.46715 ], [ 75.11515, 32.47955 ], [ 75.11609, 32.48569 ], [ 75.11371, 32.48981 ], [ 75.11346, 32.4939 ], [ 75.11738, 32.49526 ], [ 75.12341, 32.49404 ], [ 75.12934, 32.48873 ], [ 75.13952, 32.49061 ], [ 75.14607, 32.49321 ], [ 75.14707, 32.4896 ], [ 75.15026, 32.48747 ], [ 75.15303, 32.48831 ], [ 75.15206, 32.49166 ], [ 75.15257, 32.49448 ], [ 75.16077, 32.50908 ], [ 75.16466, 32.51247 ], [ 75.17129, 32.5135 ], [ 75.17291, 32.51079 ], [ 75.1777, 32.5113 ], [ 75.17805, 32.49337 ], [ 75.18464, 32.4931 ], [ 75.19979, 32.49898 ], [ 75.20431, 32.49904 ], [ 75.21339, 32.49451 ], [ 75.21793, 32.49418 ], [ 75.22294, 32.49141 ], [ 75.21839, 32.48354 ], [ 75.21776, 32.48028 ], [ 75.22368, 32.4713 ], [ 75.22542, 32.4674 ], [ 75.22614, 32.46265 ], [ 75.21551, 32.46046 ], [ 75.21669, 32.45713 ], [ 75.21436, 32.455 ], [ 75.20752, 32.45515 ], [ 75.20497, 32.44825 ], [ 75.19572, 32.44378 ], [ 75.19866, 32.44164 ], [ 75.1989, 32.43396 ], [ 75.20077, 32.42968 ], [ 75.19885, 32.42692 ], [ 75.19764, 32.42137 ] ] ] } },
{ "type": "Feature", "properties": { "OBJECTID": 3166, "state_lgd": "01", "state_name": "JAMMU AND KASHMIR", "district_lgd": "022", "district_name": "SAMBA", "district_name_source": "district_table", "subdistrict_lgd": "6248", "subdistrict_name": "GHAGWAL", "subdistrict_type": "", "name_corrupted": false, "remarks": "", "label_lon": 75.204010517838725, "label_lat": 32.539906086988793 }, "geometry": { "type": "Polygon", "coordinates": [ [ [ 75.198, 32.58302 ], [ 75.2003, 32.5796 ], [ 75.20505, 32.57957 ], [ 75.20639, 32.57471 ], [ 75.21126, 32.58013 ], [ 75.21451, 32.5726 ], [ 75.21774, 32.57198 ], [ 75.22217, 32.57272 ], [ 75.22978, 32.57609 ], [ 75.23427, 32.57581 ], [ 75.24219, 32.57693 ], [ 75.24586, 32.57938 ], [ 75.25007, 32.57805 ], [ 75.25337, 32.57908 ], [ 75.2592, 32.58636 ], [ 75.29187, 32.57917 ], [ 75.29478, 32.57725 ], [ 75.29353, 32.57415 ], [ 75.28845, 32.57404 ], [ 75.28568, 32.57263 ], [ 75.28212, 32.56939 ], [ 75.28148, 32.5624 ], [ 75.27198, 32.5532 ], [ 75.26823, 32.54719 ], [ 75.26455, 32.54601 ], [ 75.26127, 32.54366 ], [ 75.25774, 32.54312 ], [ 75.25674, 32.53954 ], [ 75.25092, 32.53452 ], [ 75.24916, 32.53145 ], [ 75.24556, 32.52844 ], [ 75.24432, 32.52494 ], [ 75.23832, 32.51668 ], [ 75.23812, 32.51302 ], [ 75.23458, 32.50573 ], [ 75.23582, 32.50385 ], [ 75.23806, 32.50245 ], [ 75.23671, 32.49878 ], [ 75.23004, 32.49874 ], [ 75.2261, 32.49377 ], [ 75.22294, 32.49141 ], [ 75.21793, 32.49418 ], [ 75.21339, 32.49451 ], [ 75.20431, 32.49904 ], [ 75.19979, 32.49898 ], [ 75.18464, 32.4931 ], [ 75.17805, 32.49337 ], [ 75.1777, 32.5113 ], [ 75.17291, 32.51079 ], [ 75.17129, 32.5135 ], [ 75.16466, 32.51247 ], [ 75.16077, 32.50908 ], [ 75.15257, 32.49448 ], [ 75.15206, 32.49166 ], [ 75.15303, 32.48831 ], [ 75.15026, 32.48747 ], [ 75.14707, 32.4896 ], [ 75.14607, 32.49321 ], [ 75.13952, 32.49061 ], [ 75.12934, 32.48873 ], [ 75.12341, 32.49404 ], [ 75.11738, 32.49526 ], [ 75.11346, 32.4939 ], [ 75.1135, 32.49735 ], [ 75.11622, 32.50194 ], [ 75.11615, 32.50569 ], [ 75.11889, 32.50782 ], [ 75.12384, 32.50857 ], [ 75.12692, 32.51114 ], [ 75.12738, 32.51438 ], [ 75.12625, 32.5172 ], [ 75.12957, 32.51848 ], [ 75.13623, 32.51021 ], [ 75.14213, 32.50671 ], [ 75.14461, 32.50945 ], [ 75.14698, 32.51742 ], [ 75.14905, 32.52037 ], [ 75.15455, 32.52544 ], [ 75.14844, 32.52682 ], [ 75.14702, 32.52845 ], [ 75.15012, 32.53098 ], [ 75.14743, 32.53457 ], [ 75.14904, 32.53783 ], [ 75.15192, 32.53985 ], [ 75.15559, 32.53915 ], [ 75.16112, 32.54689 ], [ 75.16206, 32.55883 ], [ 75.16121, 32.56535 ], [ 75.15897, 32.56781 ], [ 75.15586, 32.56866 ], [ 75.15236, 32.56952 ], [ 75.14754, 32.56889 ], [ 75.14615, 32.57103 ], [ 75.15302, 32.57265 ], [ 75.15573, 32.57461 ], [ 75.15878, 32.57498 ], [ 75.16193, 32.57652 ], [ 75.16395, 32.57302 ], [ 75.16908, 32.57971 ], [ 75.1736, 32.58018 ], [ 75.17238, 32.58315 ], [ 75.17305, 32.58648 ], [ 75.18812, 32.58286 ], [ 75.19226, 32.5846 ], [ 75.19255, 32.58875 ], [ 75.19632, 32.59033 ], [ 75.198, 32.58302 ] ] ] } },
{ "type": "Feature", "properties": { "OBJECTID": 3167, "state_lgd": "01", "state_name": "JAMMU AND KASHMIR", "district_lgd": "022", "district_name": "SAMBA", "district_name_source": "district_table", "subdistrict_lgd": "6247", "subdistrict_name": "RAMGARH", "subdistrict_type": "", "name_corrupted": false, "remarks": "", "label_lon": 74.956241238468905, "label_lat": 32.508632361744205 }, "geometry": { "type": "Polygon", "coordinates": [ [ [ 75.01639, 32.53542 ], [ 75.00716, 32.52686 ], [ 75.0056, 32.52249 ], [ 75.00575, 32.51732 ], [ 75.00854, 32.51484 ], [ 75.02037, 32.51856 ], [ 75.02885, 32.51518 ], [ 75.03511, 32.51427 ], [ 75.03835, 32.51212 ], [ 75.03901, 32.50858 ], [ 75.03508, 32.50023 ], [ 75.03044, 32.49457 ], [ 75.02802, 32.49709 ], [ 75.02609, 32.49491 ], [ 75.01682, 32.47946 ], [ 75.01656, 32.47079 ], [ 75.01975, 32.46789 ], [ 75.0193, 32.46616 ], [ 75.01736, 32.46513 ], [ 75.01469, 32.46545 ], [ 75.0119, 32.46412 ], [ 75.00329, 32.45723 ], [ 75.00096, 32.45657 ], [ 74.99927, 32.45745 ], [ 74.99187, 32.45146 ], [ 74.98874, 32.45242 ], [ 74.98652, 32.45044 ], [ 74.98324, 32.45089 ], [ 74.97128, 32.45954 ], [ 74.96858, 32.45934 ], [ 74.96071, 32.4553 ], [ 74.95266, 32.4475 ], [ 74.94865, 32.44781 ], [ 74.94704, 32.44842 ], [ 74.94163, 32.46285 ], [ 74.9362, 32.46753 ], [ 74.93591, 32.46922 ], [ 74.93793, 32.4713 ], [ 74.931, 32.47124 ], [ 74.92151, 32.46501 ], [ 74.91742, 32.46427 ], [ 74.91395, 32.46621 ], [ 74.90831, 32.47232 ], [ 74.9066, 32.47294 ], [ 74.90079, 32.46738 ], [ 74.87925, 32.47672 ], [ 74.87835, 32.47843 ], [ 74.87914, 32.48199 ], [ 74.88389, 32.48875 ], [ 74.88354, 32.49087 ], [ 74.879, 32.49243 ], [ 74.88134, 32.49732 ], [ 74.88844, 32.50728 ], [ 74.89013, 32.51101 ], [ 74.88647, 32.51529 ], [ 74.8844, 32.52004 ], [ 74.8845, 32.52462 ], [ 74.88697, 32.5283 ], [ 74.89288, 32.5314 ], [ 74.9001, 32.52626 ], [ 74.90385, 32.52851 ], [ 74.9068, 32.53122 ], [ 74.90821, 32.53451 ], [ 74.90537, 32.53767 ], [ 74.90542, 32.54152 ], [ 74.90305, 32.54529 ], [ 74.9022, 32.54961 ], [ 74.90526, 32.55088 ], [ 74.90855, 32.55058 ], [ 74.91338, 32.54819 ], [ 74.91872, 32.5488 ], [ 74.92622, 32.55094 ], [ 74.92871, 32.55248 ], [ 74.93501, 32.56367 ], [ 74.94159, 32.56723 ], [ 74.94528, 32.56796 ], [ 74.94764, 32.56977 ], [ 74.94804, 32.57647 ], [ 74.95182, 32.57673 ], [ 74.95438, 32.57844 ], [ 74.96249, 32.57822 ], [ 74.96606, 32.57942 ], [ 74.96947, 32.57932 ], [ 74.98035, 32.58153 ], [ 74.98518, 32.57994 ], [ 74.98884, 32.57623 ], [ 74.99393, 32.57509 ], [ 74.9968, 32.57325 ], [ 74.99758, 32.56977 ], [ 74.99144, 32.56732 ], [ 74.97678, 32.55792 ], [ 74.97575, 32.54841 ], [ 74.9691, 32.54236 ], [ 74.97224, 32.538 ], [ 74.97625, 32.53555 ], [ 74.98014, 32.53671 ], [ 74.98254, 32.53882 ], [ 74.99248, 32.54255 ], [ 74.99849, 32.54292 ], [ 75.00311, 32.54203 ], [ 75.01215, 32.53567 ], [ 75.01639, 32.53542 ] ] ] } },
{ "type": "Feature", "properties": { "OBJECTID": 3168, "state_lgd": "01", "state_name": "JAMMU AND KASHMIR", "district_lgd": "022", "district_name": "SAMBA", "district_name_source": "district_table", "subdistrict_lgd": "6245", "subdistrict_name": "VIJAYPUR", "subdistrict_type": "", "name_corrupted": false, "remarks": "", "label_lon": 75.02284311897742, "label_lat": 32.583590426182496 }, "geometry": { "type": "Polygon", "coordinates": [ [ [ 75.01056, 32.63609 ], [ 75.01797, 32.63742 ], [ 75.01308, 32.63044 ], [ 75.01425, 32.62803 ], [ 75.01481, 32.62388 ], [ 75.01838, 32.62239 ], [ 75.02171, 32.62328 ], [ 75.02473, 32.62178 ], [ 75.02613, 32.61879 ], [ 75.02939, 32.61692 ], [ 75.03448, 32.62087 ], [ 75.03736, 32.62126 ], [ 75.04125, 32.62362 ], [ 75.04519, 32.62344 ], [ 75.04863, 32.62612 ], [ 75.05494, 32.62345 ], [ 75.05545, 32.61615 ], [ 75.0589, 32.61588 ], [ 75.0631, 32.61405 ], [ 75.0677, 32.61501 ], [ 75.06834, 32.61912 ], [ 75.07149, 32.61651 ], [ 75.06666, 32.60127 ], [ 75.07156, 32.60125 ], [ 75.07561, 32.60219 ], [ 75.0798, 32.60132 ], [ 75.08877, 32.59341 ], [ 75.08207, 32.5797 ], [ 75.07503, 32.56723 ], [ 75.07269, 32.56486 ], [ 75.07169, 32.56208 ], [ 75.07182, 32.5589 ], [ 75.07557, 32.55831 ], [ 75.07223, 32.55523 ], [ 75.07354, 32.55229 ], [ 75.07724, 32.54902 ], [ 75.07523, 32.54566 ], [ 75.07007, 32.54149 ], [ 75.06876, 32.53894 ], [ 75.06464, 32.53701 ], [ 75.05824, 32.53147 ], [ 75.05292, 32.52991 ], [ 75.05204, 32.53327 ], [ 75.05403, 32.53747 ], [ 75.0536, 32.54052 ], [ 75.05055, 32.54463 ], [ 75.04923, 32.54911 ], [ 75.03359, 32.55134 ], [ 75.03422, 32.55532 ], [ 75.03585, 32.55834 ], [ 75.03448, 32.56215 ], [ 75.03116, 32.55926 ], [ 75.02941, 32.55514 ], [ 75.02354, 32.54833 ], [ 75.01639, 32.53542 ], [ 75.01215, 32.53567 ], [ 75.00311, 32.54203 ], [ 74.99849, 32.54292 ], [ 74.99248, 32.54255 ], [ 74.98254, 32.53882 ], [ 74.98014, 32.53671 ], [ 74.97625, 32.53555 ], [ 74.97224, 32.538 ], [ 74.9691, 32.54236 ], [ 74.97575, 32.54841 ], [ 74.97678, 32.55792 ], [ 74.99144, 32.56732 ], [ 74.99758, 32.56977 ], [ 74.9968, 32.57325 ], [ 74.99393, 32.57509 ], [ 74.98884, 32.57623 ], [ 74.98518, 32.57994 ], [ 74.98035, 32.58153 ], [ 74.96947, 32.57932 ], [ 74.96606, 32.57942 ], [ 74.96249, 32.57822 ], [ 74.95438, 32.57844 ], [ 74.95182, 32.57673 ], [ 74.94804, 32.57647 ], [ 74.94698, 32.58215 ], [ 74.9442, 32.58598 ], [ 74.94028, 32.58632 ], [ 74.94648, 32.59111 ], [ 74.94925, 32.59422 ], [ 74.95508, 32.59357 ], [ 74.95866, 32.59474 ], [ 74.96148, 32.59276 ], [ 74.96453, 32.59423 ], [ 74.96671, 32.59815 ], [ 74.98335, 32.60919 ], [ 74.98939, 32.61598 ], [ 74.98809, 32.61934 ], [ 74.98587, 32.62192 ], [ 74.98553, 32.62396 ], [ 74.98876, 32.62713 ], [ 74.99837, 32.63378 ], [ 75.00473, 32.63693 ], [ 75.0074, 32.64084 ], [ 75.00853, 32.64473 ], [ 75.01257, 32.64717 ], [ 75.01589, 32.64384 ], [ 75.01265, 32.64074 ], [ 75.01056, 32.63609 ] ] ] } },
{ "type": "Feature", "properties": { "OBJECTID": 3169, "state_lgd": "01", "state_name": "JAMMU AND KASHMIR", "district_lgd": "022", "district_name": "SAMBA", "district_name_source": "district_table", "subdistrict_lgd": "6246", "subdistrict_name": "BARI BRAHAMANA", "subdistrict_type": "", "name_corrupted": false, "remarks": "", "label_lon": 74.999546072953891, "label_lat": 32.663221913939182 }, "geometry": { "type": "Polygon", "coordinates": [ [ [ 75.05829, 32.74108 ], [ 75.07306, 32.73366 ], [ 75.07095, 32.72783 ], [ 75.07697, 32.7224 ], [ 75.07918, 32.71775 ], [ 75.07931, 32.71281 ], [ 75.07596, 32.70898 ], [ 75.07523, 32.69973 ], [ 75.06718, 32.69709 ], [ 75.06396, 32.69485 ], [ 75.06709, 32.6915 ], [ 75.07318, 32.68799 ], [ 75.07599, 32.68494 ], [ 75.08038, 32.68508 ], [ 75.08371, 32.68367 ], [ 75.08624, 32.68126 ], [ 75.0897, 32.68024 ], [ 75.09096, 32.67717 ], [ 75.09127, 32.67358 ], [ 75.09668, 32.6694 ], [ 75.09532, 32.66638 ], [ 75.09546, 32.66254 ], [ 75.0942, 32.65883 ], [ 75.09249, 32.65648 ], [ 75.08849, 32.65406 ], [ 75.08613, 32.65157 ], [ 75.08678, 32.64677 ], [ 75.08544, 32.64253 ], [ 75.08262, 32.63967 ], [ 75.07882, 32.63941 ], [ 75.07589, 32.63611 ], [ 75.07397, 32.6322 ], [ 75.06778, 32.62759 ], [ 75.06834, 32.61912 ], [ 75.0677, 32.61501 ], [ 75.0631, 32.61405 ], [ 75.0589, 32.61588 ], [ 75.05545, 32.61615 ], [ 75.05494, 32.62345 ], [ 75.04863, 32.62612 ], [ 75.04519, 32.62344 ], [ 75.04125, 32.62362 ], [ 75.03736, 32.62126 ], [ 75.03448, 32.62087 ], [ 75.02939, 32.61692 ], [ 75.02613, 32.61879 ], [ 75.02473, 32.62178 ], [ 75.02171, 32.62328 ], [ 75.01838, 32.62239 ], [ 75.01481, 32.62388 ], [ 75.01425, 32.62803 ], [ 75.01308, 32.63044 ], [ 75.01797, 32.63742 ], [ 75.01056, 32.63609 ], [ 75.01265, 32.64074 ], [ 75.01589, 32.64384 ], [ 75.01257, 32.64717 ], [ 75.00853, 32.64473 ], [ 75.0074, 32.64084 ], [ 75.00473, 32.63693 ], [ 74.99837, 32.63378 ], [ 74.98876, 32.62713 ], [ 74.98553, 32.62396 ], [ 74.98587, 32.62192 ], [ 74.98809, 32.61934 ], [ 74.98939, 32.61598 ], [ 74.98659, 32.61253 ], [ 74.97942, 32.60608 ], [ 74.96671, 32.59815 ], [ 74.96453, 32.59423 ], [ 74.96148, 32.59276 ], [ 74.95866, 32.59474 ], [ 74.95508, 32.59357 ], [ 74.94925, 32.59422 ], [ 74.94637, 32.59659 ], [ 74.93838, 32.59176 ], [ 74.93034, 32.59492 ], [ 74.92431, 32.60263 ], [ 74.92037, 32.60363 ], [ 74.92085, 32.60725 ], [ 74.92679, 32.61281 ], [ 74.9235, 32.61722 ], [ 74.90871, 32.62673 ], [ 74.90508, 32.62334 ], [ 74.89642, 32.61853 ], [ 74.89148, 32.6118 ], [ 74.88822, 32.60925 ], [ 74.88465, 32.61011 ], [ 74.87497, 32.61535 ], [ 74.87063, 32.62036 ], [ 74.87763, 32.62117 ], [ 74.88172, 32.62015 ], [ 74.88522, 32.62126 ], [ 74.88701, 32.62588 ], [ 74.89182, 32.63138 ], [ 74.89135, 32.63484 ], [ 74.89601, 32.63887 ], [ 74.89544, 32.6417 ], [ 74.89629, 32.65055 ], [ 74.89807, 32.65308 ], [ 74.90348, 32.65375 ], [ 74.90795, 32.65528 ], [ 74.91459, 32.66077 ], [ 74.92266, 32.66445 ], [ 74.92898, 32.66893 ], [ 74.92832, 32.67216 ], [ 74.94408, 32.67799 ], [ 74.95488, 32.68475 ], [ 74.95683, 32.68689 ], [ 74.95755, 32.69035 ], [ 74.95711, 32.69705 ], [ 74.96228, 32.70207 ], [ 74.96531, 32.70329 ], [ 74.96674, 32.70733 ], [ 74.96651, 32.7113 ], [ 74.96924, 32.71266 ], [ 74.97823, 32.71247 ], [ 74.98176, 32.71209 ], [ 74.98411, 32.7104 ], [ 74.98769, 32.7096 ], [ 74.99084, 32.71084 ], [ 74.9949, 32.71601 ], [ 74.99799, 32.7176 ], [ 74.99892, 32.72056 ], [ 75.00531, 32.72299 ], [ 75.00912, 32.72317 ], [ 75.01041, 32.72589 ], [ 75.00997, 32.72974 ], [ 75.01139, 32.73214 ], [ 75.01512, 32.73213 ], [ 75.01921, 32.73412 ], [ 75.0227, 32.73339 ], [ 75.0261, 32.73131 ], [ 75.03347, 32.73356 ], [ 75.03734, 32.73242 ], [ 75.04126, 32.72999 ], [ 75.04502, 32.73194 ], [ 75.04702, 32.73524 ], [ 75.04723, 32.73855 ], [ 75.0495, 32.74107 ], [ 75.05374, 32.74198 ], [ 75.05829, 32.74108 ] ] ] } },
{ "type": "Feature", "properties": { "OBJECTID": 3170, "state_lgd": "01", "state_name": "JAMMU AND KASHMIR", "district_lgd": "022", "district_name": "SAMBA", "district_name_source": "district_table", "subdistrict_lgd": "82", "subdistrict_name": "SAMBA", "subdistrict_type": "", "name_corrupted": false, "remarks": "", "label_lon": 75.154551272085982, "label_lat": 32.603663283607418 }, "geometry": { "type": "Polygon", "coordinates": [ [ [ 75.10872, 32.46735 ], [ 75.10794, 32.47197 ], [ 75.10666, 32.47406 ], [ 75.10135, 32.47769 ], [ 75.09898, 32.47774 ], [ 75.09268, 32.47011 ], [ 75.09075, 32.46926 ], [ 75.08713, 32.4706 ], [ 75.08554, 32.46876 ], [ 75.08424, 32.46936 ], [ 75.08403, 32.472 ], [ 75.06994, 32.47973 ], [ 75.06959, 32.47791 ], [ 75.06782, 32.47774 ], [ 75.06484, 32.47931 ], [ 75.06224, 32.4792 ], [ 75.05946, 32.48076 ], [ 75.05477, 32.48164 ], [ 75.04535, 32.48831 ], [ 75.04164, 32.48711 ], [ 75.03044, 32.49457 ], [ 75.03508, 32.50023 ], [ 75.03901, 32.50858 ], [ 75.03835, 32.51212 ], [ 75.03511, 32.51427 ], [ 75.02885, 32.51518 ], [ 75.02037, 32.51856 ], [ 75.00854, 32.51484 ], [ 75.00575, 32.51732 ], [ 75.0056, 32.52249 ], [ 75.00716, 32.52686 ], [ 75.01639, 32.53542 ], [ 75.02354, 32.54833 ], [ 75.02941, 32.55514 ], [ 75.03116, 32.55926 ], [ 75.03448, 32.56215 ], [ 75.03585, 32.55834 ], [ 75.03422, 32.55532 ], [ 75.03359, 32.55134 ], [ 75.04923, 32.54911 ], [ 75.05055, 32.54463 ], [ 75.0536, 32.54052 ], [ 75.05403, 32.53747 ], [ 75.05204, 32.53327 ], [ 75.05292, 32.52991 ], [ 75.05824, 32.53147 ], [ 75.06464, 32.53701 ], [ 75.06876, 32.53894 ], [ 75.07007, 32.54149 ], [ 75.07523, 32.54566 ], [ 75.07724, 32.54902 ], [ 75.07354, 32.55229 ], [ 75.07223, 32.55523 ], [ 75.07557, 32.55831 ], [ 75.07182, 32.5589 ], [ 75.07169, 32.56208 ], [ 75.07269, 32.56486 ], [ 75.07503, 32.56723 ], [ 75.08207, 32.5797 ], [ 75.08877, 32.59341 ], [ 75.0798, 32.60132 ], [ 75.07561, 32.60219 ], [ 75.07156, 32.60125 ], [ 75.06666, 32.60127 ], [ 75.07149, 32.61651 ], [ 75.06834, 32.61912 ], [ 75.06778, 32.62759 ], [ 75.07397, 32.6322 ], [ 75.07589, 32.63611 ], [ 75.07882, 32.63941 ], [ 75.08262, 32.63967 ], [ 75.08544, 32.64253 ], [ 75.08678, 32.64677 ], [ 75.08613, 32.65157 ], [ 75.08849, 32.65406 ], [ 75.09249, 32.65648 ], [ 75.0942, 32.65883 ], [ 75.09546, 32.66254 ], [ 75.09532, 32.66638 ], [ 75.09668, 32.6694 ], [ 75.09127, 32.67358 ], [ 75.09096, 32.67717 ], [ 75.0897, 32.68024 ], [ 75.08624, 32.68126 ], [ 75.08371, 32.68367 ], [ 75.08038, 32.68508 ], [ 75.07599, 32.68494 ], [ 75.07318, 32.68799 ], [ 75.06709, 32.6915 ], [ 75.06396, 32.69485 ], [ 75.06718, 32.69709 ], [ 75.07523, 32.69973 ], [ 75.07596, 32.70898 ], [ 75.07931, 32.71281 ], [ 75.07918, 32.71775 ], [ 75.07697, 32.7224 ], [ 75.07095, 32.72783 ], [ 75.07306, 32.73366 ], [ 75.07886, 32.73268 ], [ 75.08227, 32.7337 ], [ 75.08726, 32.7255 ], [ 75.09459, 32.71681 ], [ 75.09813, 32.71796 ], [ 75.10413, 32.71588 ], [ 75.11067, 32.71085 ], [ 75.11933, 32.70986 ], [ 75.12259, 32.70748 ], [ 75.12373, 32.71093 ], [ 75.12186, 32.71558 ], [ 75.12658, 32.71675 ], [ 75.13089, 32.71913 ], [ 75.13358, 32.72124 ], [ 75.1355, 32.72436 ], [ 75.13838, 32.72536 ], [ 75.14287, 32.72351 ], [ 75.1462, 32.72596 ], [ 75.15022, 32.72426 ], [ 75.15106, 32.72094 ], [ 75.15717, 32.71617 ], [ 75.15725, 32.71302 ], [ 75.1605, 32.71041 ], [ 75.16462, 32.71076 ], [ 75.16828, 32.70972 ], [ 75.17424, 32.70655 ], [ 75.17937, 32.70059 ], [ 75.18202, 32.69938 ], [ 75.18799, 32.69154 ], [ 75.19371, 32.689 ], [ 75.19867, 32.68926 ], [ 75.20686, 32.68327 ], [ 75.20239, 32.67757 ], [ 75.2024, 32.67324 ], [ 75.20487, 32.66661 ], [ 75.20498, 32.66255 ], [ 75.20719, 32.65973 ], [ 75.20293, 32.65907 ], [ 75.20279, 32.65661 ], [ 75.19982, 32.65345 ], [ 75.20326, 32.65251 ], [ 75.20713, 32.65303 ], [ 75.20833, 32.64981 ], [ 75.20855, 32.6451 ], [ 75.21192, 32.6433 ], [ 75.22425, 32.64069 ], [ 75.23176, 32.6439 ], [ 75.23566, 32.64317 ], [ 75.24242, 32.64599 ], [ 75.24608, 32.6486 ], [ 75.24629, 32.6536 ], [ 75.25039, 32.65543 ], [ 75.26133, 32.65018 ], [ 75.27128, 32.6506 ], [ 75.27783, 32.64839 ], [ 75.28396, 32.64305 ], [ 75.28467, 32.63959 ], [ 75.29012, 32.63179 ], [ 75.29762, 32.63008 ], [ 75.30315, 32.62699 ], [ 75.31573, 32.62537 ], [ 75.32093, 32.62385 ], [ 75.33208, 32.61458 ], [ 75.34035, 32.60617 ], [ 75.34328, 32.60166 ], [ 75.3455, 32.59466 ], [ 75.34321, 32.59262 ], [ 75.34437, 32.58829 ], [ 75.34208, 32.5837 ], [ 75.33946, 32.58064 ], [ 75.33695, 32.57913 ], [ 75.32854, 32.58039 ], [ 75.32455, 32.57994 ], [ 75.3179, 32.57382 ], [ 75.29858, 32.57766 ], [ 75.29478, 32.57725 ], [ 75.29187, 32.57917 ], [ 75.2592, 32.58636 ], [ 75.25337, 32.57908 ], [ 75.25007, 32.57805 ], [ 75.24586, 32.57938 ], [ 75.24219, 32.57693 ], [ 75.23427, 32.57581 ], [ 75.22978, 32.57609 ], [ 75.22217, 32.57272 ], [ 75.21774, 32.57198 ], [ 75.21451, 32.5726 ], [ 75.21126, 32.58013 ], [ 75.20639, 32.57471 ], [ 75.20505, 32.57957 ], [ 75.2003, 32.5796 ], [ 75.198, 32.58302 ], [ 75.19632, 32.59033 ], [ 75.19255, 32.58875 ], [ 75.19226, 32.5846 ], [ 75.18812, 32.58286 ], [ 75.17305, 32.58648 ], [ 75.17238, 32.58315 ], [ 75.1736, 32.58018 ], [ 75.16908, 32.57971 ], [ 75.16395, 32.57302 ], [ 75.16193, 32.57652 ], [ 75.15878, 32.57498 ], [ 75.15573, 32.57461 ], [ 75.15302, 32.57265 ], [ 75.14615, 32.57103 ], [ 75.14754, 32.56889 ], [ 75.15236, 32.56952 ], [ 75.15586, 32.56866 ], [ 75.15897, 32.56781 ], [ 75.16121, 32.56535 ], [ 75.16206, 32.55883 ], [ 75.16112, 32.54689 ], [ 75.15559, 32.53915 ], [ 75.15192, 32.53985 ], [ 75.14904, 32.53783 ], [ 75.14743, 32.53457 ], [ 75.15012, 32.53098 ], [ 75.14702, 32.52845 ], [ 75.14844, 32.52682 ], [ 75.15455, 32.52544 ], [ 75.14905, 32.52037 ], [ 75.14698, 32.51742 ], [ 75.14461, 32.50945 ], [ 75.14213, 32.50671 ], [ 75.13623, 32.51021 ], [ 75.12957, 32.51848 ], [ 75.12625, 32.5172 ], [ 75.12738, 32.51438 ], [ 75.12692, 32.51114 ], [ 75.12384, 32.50857 ], [ 75.11889, 32.50782 ], [ 75.11615, 32.50569 ], [ 75.11622, 32.50194 ], [ 75.1135, 32.49735 ], [ 75.11371, 32.48981 ], [ 75.11609, 32.48569 ], [ 75.11409, 32.47388 ], [ 75.11277, 32.46715 ], [ 75.10872, 32.46735 ] ] ] } }
]
}
