{"type":"FeatureCollection","name":"BONGAIGAON, ASSAM - Sub-district boundaries","crs_note":"RFC 7946 WGS84 lon/lat (EPSG:4326); source CRS was LCC_WGS84","features":[{"type":"Feature","properties":{"OBJECTID":5807,"state_lgd":"18","state_name":"ASSAM","district_lgd":"319","district_name":"BONGAIGAON","district_name_source":"district_table","subdistrict_lgd":"02110","subdistrict_name":"BONGAIGAON CIRCLE","subdistrict_type":"","name_corrupted":false,"remarks":""},"geometry":{"type":"Polygon","coordinates":[[[90.619913,26.49479],[90.619908,26.494734],[90.619902,26.494661],[90.619895,26.494577],[90.619894,26.494571],[90.61989,26.494515],[90.619917,26.494487],[90.619929,26.494474],[90.619964,26.494437],[90.619968,26.494433],[90.620094,26.494302],[90.620109,26.494286],[90.620259,26.494129],[90.62027,26.494117],[90.620408,26.493973],[90.62042,26.49396],[90.620559,26.493814],[90.620571,26.493802],[90.6207,26.493667],[90.62071,26.493657],[90.620743,26.493622],[90.620753,26.493612],[90.620774,26.493589],[90.620882,26.493599],[90.620887,26.4936],[90.62119,26.493629],[90.621196,26.493629],[90.621508,26.493659],[90.621519,26.49366],[90.621848,26.493691],[90.621851,26.493692],[90.62217,26.493722],[90.622172,26.493722],[90.622466,26.49375],[90.622474,26.493751],[90.622778,26.49378],[90.622785,26.493781],[90.623096,26.493811],[90.623103,26.493811],[90.623394,26.493839],[90.623401,26.49384],[90.623548,26.493854],[90.62356,26.493855],[90.623631,26.493862],[90.623634,26.493862],[90.623719,26.49387],[90.623722,26.49387],[90.623805,26.493878],[90.623806,26.493878],[90.623891,26.493886],[90.623894,26.493887],[90.623964,26.493893],[90.623966,26.493894],[90.624027,26.493899],[90.624029,26.4939],[90.624029,26.4939],[90.62403,26.4939],[90.624032,26.493901],[90.624032,26.493901],[90.624034,26.493901],[90.624037,26.493899],[90.625381,26.493172],[90.630146,26.491904],[90.631322,26.491183],[90.634552,26.488604],[90.634552,26.487621],[90.634553,26.484153],[90.634462,26.483076],[90.634322,26.481404],[90.63454,26.479046],[90.634636,26.478012],[90.634583,26.477376],[90.634496,26.476335],[90.635363,26.473635],[90.63749,26.472288],[90.638851,26.469768],[90.638867,26.469662],[90.639702,26.463844],[90.639911,26.459162],[90.64004,26.456269],[90.641306,26.456182],[90.641283,26.455912],[90.64127,26.455751],[90.641171,26.454573],[90.640277,26.450622],[90.641192,26.447694],[90.642259,26.446576],[90.6454,26.445182],[90.647562,26.443794],[90.649209,26.441926],[90.649028,26.439776],[90.648371,26.438306],[90.648106,26.437715],[90.647932,26.435644],[90.647898,26.435234],[90.648418,26.433289],[90.65023,26.432238],[90.651244,26.432169],[90.651244,26.432169],[90.653145,26.430831],[90.6538,26.429269],[90.651575,26.426858],[90.649618,26.42469],[90.649139,26.424158],[90.646938,26.422488],[90.64369,26.419034],[90.641043,26.416917],[90.640077,26.416144],[90.63811,26.41412],[90.635883,26.411709],[90.635773,26.410392],[90.635594,26.407346],[90.635702,26.403731],[90.634518,26.402366],[90.634376,26.402203],[90.634317,26.401499],[90.63324,26.398032],[90.632021,26.395552],[90.630723,26.393859],[90.628392,26.392461],[90.62476,26.391562],[90.621298,26.391797],[90.619067,26.392421],[90.617267,26.393285],[90.616527,26.392992],[90.614944,26.392364],[90.61144,26.390309],[90.610121,26.39008],[90.608933,26.389873],[90.606551,26.390945],[90.60463,26.392592],[90.602144,26.395088],[90.600769,26.397002],[90.599348,26.398818],[90.598177,26.400482],[90.596688,26.400583],[90.596427,26.4006],[90.595906,26.400636],[90.595356,26.399117],[90.595322,26.399023],[90.595998,26.395909],[90.597364,26.393895],[90.598634,26.393457],[90.599788,26.391539],[90.600518,26.389534],[90.600297,26.386885],[90.599761,26.385404],[90.597607,26.38292],[90.596582,26.381405],[90.596367,26.38096],[90.595495,26.379152],[90.595374,26.377711],[90.594653,26.375377],[90.594048,26.371893],[90.593864,26.370834],[90.592428,26.366649],[90.592302,26.365141],[90.590961,26.361931],[90.590384,26.36055],[90.587323,26.353475],[90.585829,26.350807],[90.585432,26.350096],[90.584252,26.348963],[90.583609,26.347489],[90.583584,26.347185],[90.583551,26.3468],[90.584091,26.347196],[90.584583,26.347558],[90.588444,26.34942],[90.591417,26.35141],[90.593915,26.353534],[90.597032,26.355008],[90.600108,26.355979],[90.603606,26.355742],[90.605582,26.354765],[90.606112,26.353043],[90.606059,26.346007],[90.607054,26.342092],[90.607417,26.340662],[90.608652,26.34061],[90.609173,26.341014],[90.611593,26.342888],[90.614318,26.343765],[90.61695,26.342347],[90.619696,26.339255],[90.621155,26.337147],[90.623498,26.33376],[90.62324,26.33068],[90.623215,26.330647],[90.620231,26.32676],[90.617889,26.323079],[90.614102,26.320062],[90.610815,26.318338],[90.608358,26.319491],[90.608538,26.321641],[90.608718,26.323791],[90.608303,26.325827],[90.608296,26.325862],[90.606357,26.326525],[90.603815,26.32635],[90.599702,26.324956],[90.5952,26.32231],[90.593554,26.320516],[90.593088,26.318642],[90.596325,26.315319],[90.596274,26.314708],[90.596095,26.312558],[90.595472,26.310138],[90.594756,26.30928],[90.59335,26.307888],[90.591966,26.307982],[90.591204,26.309421],[90.59083,26.310127],[90.59095,26.31156],[90.590692,26.313111],[90.590004,26.314436],[90.589074,26.315661],[90.587636,26.317269],[90.58723,26.318273],[90.588013,26.319312],[90.589252,26.319948],[90.588796,26.320978],[90.588667,26.321029],[90.587848,26.321352],[90.587373,26.321539],[90.586575,26.321245],[90.585061,26.319163],[90.584015,26.318374],[90.583297,26.318423],[90.5814,26.320411],[90.580646,26.321577],[90.579175,26.322792],[90.577844,26.323533],[90.576634,26.323871],[90.575817,26.324275],[90.574154,26.324736],[90.572774,26.325201],[90.571731,26.326294],[90.571856,26.327796],[90.571658,26.330064],[90.571028,26.331477],[90.570426,26.33261],[90.569829,26.333674],[90.569775,26.33377],[90.569063,26.336049],[90.569153,26.337135],[90.567913,26.338032],[90.567283,26.337985],[90.566122,26.337898],[90.565087,26.338479],[90.564413,26.339169],[90.564151,26.340866],[90.563068,26.341799],[90.56063,26.342243],[90.559495,26.343482],[90.55823,26.344706],[90.558016,26.345859],[90.557862,26.347101],[90.55799,26.348643],[90.55801,26.34888],[90.558151,26.350567],[90.558706,26.35197],[90.558922,26.354558],[90.558954,26.354951],[90.558527,26.35663],[90.557585,26.358645],[90.557575,26.358661],[90.556914,26.359682],[90.555414,26.361999],[90.554187,26.363284],[90.554109,26.363365],[90.55304,26.36446],[90.552559,26.365817],[90.552738,26.367966],[90.553445,26.369637],[90.553991,26.370623],[90.554945,26.372162],[90.557066,26.374087],[90.558604,26.374587],[90.559408,26.375104],[90.559796,26.376202],[90.55934,26.376846],[90.559242,26.376983],[90.559139,26.376963],[90.556698,26.376482],[90.551874,26.374623],[90.548742,26.373417],[90.547747,26.373033],[90.5461,26.372399],[90.546069,26.372434],[90.544915,26.373769],[90.545175,26.375029],[90.545745,26.377799],[90.546289,26.378811],[90.544817,26.379453],[90.542564,26.378691],[90.540311,26.377929],[90.538794,26.376784],[90.537561,26.376542],[90.536429,26.377199],[90.535323,26.378482],[90.535987,26.379948],[90.53625,26.381255],[90.536215,26.381286],[90.535458,26.381959],[90.532293,26.380824],[90.529129,26.37969],[90.528069,26.379041],[90.52742,26.378644],[90.527326,26.378586],[90.527009,26.378392],[90.527519,26.37708],[90.527403,26.375995],[90.525311,26.375346],[90.522806,26.375306],[90.52068,26.375798],[90.519407,26.376323],[90.519133,26.376436],[90.518718,26.377649],[90.51888,26.378127],[90.519026,26.378558],[90.518017,26.378835],[90.517011,26.378357],[90.516437,26.378085],[90.516432,26.378082],[90.514884,26.377768],[90.512795,26.377769],[90.511423,26.377997],[90.510683,26.378121],[90.510283,26.377978],[90.508822,26.377456],[90.506961,26.376791],[90.502819,26.376303],[90.502355,26.376339],[90.500845,26.376459],[90.497999,26.376683],[90.497431,26.377753],[90.497052,26.378465],[90.497274,26.379654],[90.497287,26.379722],[90.497585,26.381325],[90.498655,26.385203],[90.498799,26.385727],[90.49957,26.388523],[90.499661,26.388852],[90.499874,26.389625],[90.499954,26.390336],[90.500262,26.393088],[90.49969,26.393963],[90.498764,26.394304],[90.497051,26.394971],[90.496309,26.395817],[90.49604,26.396625],[90.496148,26.397617],[90.497051,26.399135],[90.498761,26.400643],[90.499961,26.404456],[90.501556,26.407092],[90.503124,26.40704],[90.503325,26.407144],[90.505997,26.408519],[90.511999,26.412112],[90.51287,26.416745],[90.513311,26.419088],[90.513775,26.421558],[90.51419,26.423762],[90.514234,26.424617],[90.514348,26.426813],[90.5146,26.431654],[90.515603,26.437825],[90.519648,26.442452],[90.51973,26.442547],[90.520136,26.444349],[90.520684,26.446783],[90.521032,26.449936],[90.521429,26.453537],[90.522806,26.458673],[90.523537,26.4614],[90.524154,26.4637],[90.524662,26.465595],[90.525775,26.469747],[90.526601,26.472435],[90.526865,26.473295],[90.52725,26.476851],[90.527341,26.477694],[90.527674,26.480767],[90.527887,26.482731],[90.528098,26.484676],[90.529519,26.489359],[90.53074,26.491704],[90.531099,26.492393],[90.53515,26.502092],[90.53516,26.502115],[90.535197,26.502104],[90.535211,26.5021],[90.535214,26.502102],[90.535477,26.502242],[90.535488,26.502248],[90.535816,26.502422],[90.535817,26.502423],[90.536093,26.502569],[90.536098,26.502572],[90.536366,26.502715],[90.536367,26.502714],[90.536402,26.502705],[90.536432,26.502697],[90.537418,26.502434],[90.537467,26.502421],[90.538433,26.502164],[90.538466,26.502155],[90.539452,26.501892],[90.53949,26.501882],[90.539866,26.501782],[90.539891,26.501775],[90.540328,26.501659],[90.540437,26.501609],[90.540468,26.501595],[90.54057,26.501549],[90.541302,26.501215],[90.541337,26.501199],[90.542041,26.500879],[90.542074,26.500864],[90.542845,26.500513],[90.542854,26.500509],[90.542854,26.500508],[90.542874,26.500499],[90.542875,26.500499],[90.542886,26.500494],[90.542906,26.500485],[90.542958,26.500461],[90.542958,26.500461],[90.543098,26.500377],[90.543113,26.500368],[90.543133,26.500355],[90.543148,26.500346],[90.543159,26.50034],[90.543351,26.500224],[90.54345,26.500164],[90.543542,26.500108],[90.543668,26.500032],[90.543669,26.500031],[90.545795,26.498752],[90.545853,26.498717],[90.547355,26.497814],[90.547375,26.497814],[90.548246,26.497828],[90.548567,26.497834],[90.548653,26.497835],[90.54889,26.497839],[90.548931,26.49784],[90.549298,26.497846],[90.55008,26.497859],[90.550203,26.497861],[90.551397,26.49788],[90.551464,26.497882],[90.552686,26.497902],[90.552733,26.497903],[90.554067,26.497925],[90.554176,26.497926],[90.55562,26.49795],[90.555692,26.497952],[90.556142,26.497959],[90.556841,26.498069],[90.556871,26.498074],[90.558339,26.498306],[90.558491,26.49833],[90.559004,26.498411],[90.559044,26.498417],[90.559109,26.498428],[90.559109,26.498428],[90.559159,26.498428],[90.559185,26.498428],[90.559767,26.498428],[90.559784,26.498428],[90.56035,26.498429],[90.560402,26.498429],[90.560989,26.49843],[90.561038,26.49843],[90.561544,26.49843],[90.561568,26.49843],[90.562137,26.498431],[90.562159,26.498431],[90.562527,26.498432],[90.562747,26.498415],[90.562791,26.498411],[90.563366,26.498367],[90.563388,26.498365],[90.564051,26.498314],[90.564076,26.498312],[90.565216,26.498225],[90.565255,26.498222],[90.566231,26.498146],[90.566384,26.498091],[90.566439,26.498071],[90.567503,26.497687],[90.567555,26.497668],[90.568492,26.49733],[90.568746,26.497273],[90.568778,26.497266],[90.56989,26.497018],[90.569916,26.497012],[90.570954,26.496781],[90.570956,26.496783],[90.570971,26.496795],[90.570986,26.496809],[90.571145,26.496947],[90.571155,26.496956],[90.571342,26.497118],[90.571345,26.497121],[90.571528,26.497279],[90.57153,26.497281],[90.571714,26.497441],[90.571889,26.497593],[90.571895,26.497599],[90.572104,26.49778],[90.572104,26.49778],[90.572251,26.497908],[90.572252,26.497909],[90.572583,26.498197],[90.572587,26.498199],[90.572899,26.498471],[90.572901,26.498472],[90.572904,26.498472],[90.572946,26.49848],[90.572946,26.49848],[90.572999,26.498491],[90.572999,26.498491],[90.573049,26.498501],[90.57305,26.498501],[90.573101,26.498511],[90.573101,26.498511],[90.573141,26.498519],[90.573147,26.49852],[90.573197,26.49853],[90.573197,26.49853],[90.573256,26.498542],[90.573257,26.498542],[90.573312,26.498553],[90.573312,26.498553],[90.573364,26.498563],[90.573364,26.498563],[90.573422,26.498575],[90.573422,26.498575],[90.57347,26.498584],[90.57347,26.498584],[90.573517,26.498594],[90.573565,26.498603],[90.573565,26.498603],[90.573614,26.498613],[90.573614,26.498613],[90.573661,26.498622],[90.573662,26.498622],[90.573704,26.498631],[90.573704,26.498631],[90.573753,26.49864],[90.573753,26.49864],[90.573796,26.498649],[90.573798,26.498649],[90.573809,26.498652],[90.573851,26.49866],[90.573851,26.49866],[90.573897,26.498669],[90.573898,26.498669],[90.57394,26.498677],[90.57394,26.498677],[90.573986,26.498686],[90.573986,26.498686],[90.574031,26.498695],[90.574031,26.498695],[90.57407,26.498703],[90.574071,26.498703],[90.574102,26.49871],[90.574108,26.498711],[90.574155,26.49872],[90.574155,26.49872],[90.574197,26.498728],[90.574197,26.498728],[90.574229,26.498735],[90.574229,26.498735],[90.57427,26.498743],[90.574271,26.498743],[90.574304,26.49875],[90.574308,26.49875],[90.574344,26.498757],[90.574344,26.498757],[90.574385,26.498766],[90.574426,26.498774],[90.574428,26.498774],[90.574472,26.498783],[90.574473,26.498783],[90.574509,26.49879],[90.574509,26.49879],[90.574539,26.498796],[90.574539,26.498796],[90.574572,26.498803],[90.574573,26.498803],[90.574618,26.498812],[90.574618,26.498812],[90.574654,26.498819],[90.574659,26.49882],[90.574673,26.498823],[90.574691,26.498826],[90.574692,26.498826],[90.575044,26.498896],[90.575202,26.498928],[90.575214,26.498921],[90.576542,26.498194],[90.576574,26.498176],[90.577506,26.497666],[90.578425,26.497458],[90.578434,26.497456],[90.578905,26.49735],[90.578972,26.497304],[90.57902,26.497272],[90.580208,26.496465],[90.580239,26.49646],[90.580381,26.496434],[90.58123,26.496281],[90.581631,26.495899],[90.581657,26.495875],[90.582,26.495548],[90.582749,26.494833],[90.582778,26.494805],[90.583548,26.494071],[90.5837,26.493724],[90.58371,26.493701],[90.584167,26.492658],[90.58422,26.492614],[90.584252,26.492587],[90.58495,26.492],[90.584951,26.492001],[90.584954,26.492002],[90.585083,26.492044],[90.585083,26.492044],[90.585244,26.492096],[90.585247,26.492097],[90.585446,26.492162],[90.585449,26.492163],[90.585606,26.492214],[90.585606,26.492214],[90.585812,26.492281],[90.585813,26.492281],[90.586023,26.49235],[90.586031,26.492352],[90.586221,26.492414],[90.586228,26.492416],[90.586446,26.492487],[90.586448,26.492488],[90.586613,26.492541],[90.586614,26.492542],[90.586821,26.492609],[90.586831,26.492612],[90.587038,26.49268],[90.587044,26.492682],[90.587252,26.492749],[90.587253,26.49275],[90.587312,26.492769],[90.587313,26.492769],[90.587316,26.492766],[90.587318,26.492765],[90.587348,26.492743],[90.587386,26.492715],[90.588332,26.492025],[90.588372,26.491996],[90.588806,26.49168],[90.588955,26.491424],[90.588971,26.491397],[90.589344,26.490757],[90.589359,26.490732],[90.589776,26.490018],[90.589788,26.489997],[90.589881,26.489838],[90.589928,26.489837],[90.589993,26.489837],[90.591017,26.489827],[90.591032,26.489827],[90.591033,26.489828],[90.591151,26.4899],[90.59116,26.489905],[90.59134,26.490014],[90.591343,26.490016],[90.59151,26.490118],[90.591518,26.490122],[90.591709,26.490239],[90.591733,26.490253],[90.591849,26.490324],[90.591873,26.490338],[90.59195,26.490386],[90.592045,26.490443],[90.59209,26.49047],[90.592101,26.490477],[90.592349,26.490628],[90.592365,26.490637],[90.592613,26.490789],[90.592626,26.490796],[90.592861,26.490939],[90.592896,26.49096],[90.593158,26.49112],[90.593178,26.491132],[90.593511,26.491334],[90.593528,26.491345],[90.593838,26.491533],[90.593882,26.49156],[90.594213,26.491761],[90.594218,26.491764],[90.594593,26.491992],[90.594668,26.492038],[90.594684,26.492047],[90.594973,26.492223],[90.595026,26.492274],[90.595027,26.492274],[90.595286,26.492521],[90.595312,26.492546],[90.595701,26.492916],[90.595707,26.492921],[90.596086,26.493282],[90.596088,26.493283],[90.596091,26.493283],[90.596156,26.493295],[90.596156,26.493295],[90.596256,26.493313],[90.596257,26.493314],[90.596389,26.493338],[90.59639,26.493338],[90.596522,26.493362],[90.596523,26.493362],[90.596649,26.493385],[90.596649,26.493385],[90.596776,26.493409],[90.596776,26.493409],[90.596905,26.493432],[90.596906,26.493432],[90.596992,26.493448],[90.596997,26.493443],[90.597001,26.493438],[90.597048,26.49339],[90.597055,26.493382],[90.597111,26.493324],[90.59714,26.493293],[90.597454,26.492965],[90.597458,26.492961],[90.597738,26.492668],[90.597826,26.492577],[90.597836,26.492566],[90.598161,26.492226],[90.598192,26.492194],[90.598842,26.491514],[90.598858,26.491498],[90.599639,26.490681],[90.599769,26.490672],[90.599835,26.490668],[90.600908,26.490595],[90.600909,26.490596],[90.600948,26.49063],[90.600972,26.490652],[90.601474,26.491102],[90.601511,26.491135],[90.601811,26.491403],[90.60193,26.491753],[90.601944,26.491792],[90.602151,26.4924],[90.60216,26.492424],[90.602366,26.493029],[90.602367,26.493031],[90.602535,26.493522],[90.602553,26.493573],[90.602658,26.493883],[90.602622,26.494208],[90.602619,26.494231],[90.602545,26.494883],[90.602543,26.4949],[90.602517,26.495131],[90.602696,26.495498],[90.602714,26.495533],[90.602873,26.495859],[90.602747,26.496189],[90.602738,26.496212],[90.602444,26.496983],[90.602438,26.497],[90.602291,26.497384],[90.602284,26.497403],[90.602289,26.497403],[90.602648,26.497379],[90.60266,26.497378],[90.603047,26.497352],[90.603049,26.497353],[90.603189,26.497442],[90.603207,26.497454],[90.603459,26.497616],[90.60346,26.497617],[90.603671,26.497752],[90.603843,26.497862],[90.603845,26.497863],[90.604203,26.498093],[90.60421,26.498098],[90.604294,26.498152],[90.60417,26.498309],[90.604147,26.498338],[90.60385,26.498713],[90.603348,26.49878],[90.603339,26.498781],[90.602763,26.498858],[90.60228,26.499175],[90.602182,26.499232],[90.602097,26.499281],[90.601075,26.499876],[90.601066,26.499882],[90.600774,26.500052],[90.600772,26.500053],[90.600164,26.500422],[90.600157,26.500427],[90.599175,26.501023],[90.599171,26.501024],[90.598151,26.501644],[90.598139,26.501651],[90.597292,26.502165],[90.597281,26.502172],[90.597186,26.50223],[90.596421,26.502482],[90.596333,26.50251],[90.594835,26.503003],[90.594815,26.50301],[90.593376,26.503483],[90.593366,26.503487],[90.592367,26.503815],[90.592039,26.503923],[90.592022,26.503929],[90.590518,26.504424],[90.590473,26.504439],[90.590394,26.504464],[90.59029,26.50484],[90.590279,26.504882],[90.590125,26.505437],[90.59012,26.505455],[90.589954,26.506056],[90.589949,26.506074],[90.589813,26.506566],[90.589787,26.506657],[90.589629,26.507229],[90.589626,26.50724],[90.589406,26.508032],[90.589402,26.508047],[90.589193,26.508801],[90.589134,26.509344],[90.58913,26.509373],[90.588983,26.510708],[90.58898,26.51074],[90.588885,26.511602],[90.589185,26.51201],[90.589248,26.512096],[90.58945,26.512369],[90.589461,26.512383],[90.589544,26.512497],[90.590841,26.512791],[90.590844,26.512791],[90.590859,26.512795],[90.591204,26.512873],[90.591204,26.512873],[90.591217,26.512872],[90.591233,26.51287],[90.591397,26.512856],[90.591454,26.51285],[90.593433,26.512671],[90.593503,26.512665],[90.594478,26.512576],[90.594949,26.512365],[90.594982,26.512351],[90.595565,26.512089],[90.595647,26.511875],[90.595665,26.51183],[90.595863,26.511316],[90.595868,26.511302],[90.596041,26.510852],[90.596728,26.510571],[90.596741,26.510566],[90.597249,26.510358],[90.597252,26.51036],[90.597454,26.510499],[90.597503,26.510533],[90.598047,26.510907],[90.598061,26.510982],[90.598071,26.511032],[90.598139,26.511387],[90.598182,26.511613],[90.598192,26.511665],[90.59833,26.512388],[90.598332,26.512397],[90.598359,26.512539],[90.598431,26.512918],[90.598456,26.513045],[90.598559,26.513585],[90.598561,26.513598],[90.598579,26.51369],[90.598497,26.514174],[90.598493,26.514193],[90.598422,26.514614],[90.598687,26.514978],[90.5987,26.514996],[90.599014,26.515426],[90.599059,26.515486],[90.599066,26.515496],[90.599605,26.516051],[90.59961,26.516056],[90.599748,26.516198],[90.599751,26.516201],[90.599755,26.516202],[90.599904,26.516217],[90.599936,26.516221],[90.600267,26.516256],[90.600268,26.516256],[90.600687,26.516301],[90.600689,26.516301],[90.601044,26.516339],[90.601044,26.516339],[90.601103,26.516345],[90.601229,26.516298],[90.601235,26.516296],[90.601497,26.516198],[90.601558,26.516175],[90.601626,26.516149],[90.602792,26.515711],[90.603034,26.515701],[90.603037,26.515701],[90.604391,26.515643],[90.604395,26.515643],[90.604476,26.515639],[90.605577,26.515592],[90.605661,26.515588],[90.606629,26.515547],[90.606886,26.515573],[90.606887,26.515574],[90.60811,26.515699],[90.608233,26.515681],[90.608334,26.515665],[90.608887,26.515582],[90.609618,26.515471],[90.609642,26.515467],[90.610988,26.515263],[90.611091,26.515202],[90.611126,26.515181],[90.611541,26.514935],[90.611551,26.514929],[90.612245,26.514517],[90.612254,26.514511],[90.61288,26.51414],[90.612906,26.514124],[90.612939,26.514105],[90.613768,26.513612],[90.613804,26.513591],[90.614566,26.513138],[90.614592,26.513123],[90.61542,26.512631],[90.615429,26.512626],[90.616321,26.512096],[90.616341,26.512084],[90.616729,26.511854],[90.617062,26.511585],[90.61709,26.511562],[90.617744,26.511034],[90.617755,26.511025],[90.61825,26.510627],[90.618517,26.510507],[90.618524,26.510504],[90.619192,26.510205],[90.619813,26.509928],[90.619847,26.509913],[90.620135,26.509784],[90.621128,26.50934],[90.621139,26.509335],[90.622564,26.508698],[90.622597,26.508666],[90.622619,26.508646],[90.623053,26.508233],[90.623127,26.508163],[90.623142,26.508148],[90.623542,26.507768],[90.62354,26.507753],[90.623533,26.507707],[90.623463,26.507262],[90.623447,26.50716],[90.623447,26.507156],[90.623375,26.506692],[90.623355,26.506565],[90.623345,26.506503],[90.623302,26.506225],[90.623245,26.505859],[90.623242,26.505842],[90.623142,26.505195],[90.623125,26.505089],[90.62303,26.504478],[90.622867,26.504233],[90.622864,26.504229],[90.622239,26.503291],[90.622191,26.502717],[90.622183,26.502614],[90.62212,26.501872],[90.622111,26.501708],[90.622071,26.500992],[90.622062,26.500823],[90.622019,26.500055],[90.62202,26.500051],[90.622142,26.499565],[90.62215,26.499536],[90.622293,26.498963],[90.622293,26.498963],[90.622408,26.498504],[90.622137,26.498185],[90.622107,26.49815],[90.621349,26.497256],[90.621342,26.497248],[90.621223,26.497108],[90.621223,26.497108],[90.621081,26.496941],[90.621079,26.496938],[90.620948,26.496784],[90.620946,26.496782],[90.620946,26.496781],[90.620828,26.496641],[90.620827,26.49664],[90.6207,26.496489],[90.620696,26.496483],[90.620586,26.496353],[90.620584,26.49635],[90.62046,26.496203],[90.62045,26.49619],[90.620285,26.495993],[90.620277,26.495984],[90.620185,26.495875],[90.620155,26.495839],[90.620154,26.495838],[90.62013,26.49581],[90.620016,26.495673],[90.619989,26.495641],[90.619984,26.495635],[90.619962,26.49538],[90.619959,26.495341],[90.61995,26.49523],[90.619943,26.495148],[90.619938,26.495088],[90.619919,26.494863],[90.619913,26.49479]]]}},{"type":"Feature","properties":{"OBJECTID":5851,"state_lgd":"18","state_name":"ASSAM","district_lgd":"319","district_name":"BONGAIGAON","district_name_source":"district_table","subdistrict_lgd":"02112","subdistrict_name":"SRIJANGRAM CIRCLE","subdistrict_type":"","name_corrupted":false,"remarks":""},"geometry":{"type":"Polygon","coordinates":[[[90.844958,26.403299],[90.844952,26.403262],[90.844781,26.402244],[90.845331,26.400407],[90.845493,26.399866],[90.845704,26.399273],[90.846591,26.396779],[90.846446,26.39562],[90.846066,26.394591],[90.846161,26.393688],[90.846733,26.39223],[90.848518,26.39035],[90.848816,26.390036],[90.849472,26.389346],[90.85154,26.387168],[90.856201,26.382642],[90.860485,26.37827],[90.861713,26.375675],[90.861906,26.37427],[90.861979,26.373739],[90.862031,26.373361],[90.862038,26.373313],[90.862049,26.373229],[90.861429,26.368594],[90.860287,26.363833],[90.859672,26.362181],[90.858765,26.361495],[90.858642,26.361448],[90.857197,26.360894],[90.852488,26.360849],[90.848586,26.360721],[90.844368,26.359389],[90.842224,26.358188],[90.840897,26.3578],[90.839755,26.357975],[90.836423,26.359775],[90.829057,26.363234],[90.824347,26.365633],[90.823154,26.366061],[90.818109,26.366876],[90.815781,26.363527],[90.814735,26.361342],[90.81402,26.360051],[90.811801,26.358439],[90.811466,26.357238],[90.810946,26.355861],[90.807522,26.351572],[90.803578,26.347473],[90.804771,26.345329],[90.804868,26.343569],[90.804678,26.34254],[90.803772,26.341123],[90.80168,26.33859],[90.80007,26.335601],[90.798834,26.334143],[90.797457,26.332982],[90.792556,26.330873],[90.792175,26.330709],[90.789571,26.329697],[90.789792,26.328584],[90.78992,26.327939],[90.790718,26.323907],[90.792703,26.323099],[90.796619,26.321505],[90.798332,26.321294],[90.800565,26.320953],[90.802555,26.319045],[90.804891,26.315657],[90.806174,26.31304],[90.806606,26.312097],[90.806556,26.31072],[90.806416,26.310165],[90.805891,26.309565],[90.805466,26.308919],[90.804275,26.306775],[90.803235,26.305623],[90.801617,26.305406],[90.798573,26.305404],[90.797336,26.305534],[90.796715,26.305448],[90.793068,26.303863],[90.792961,26.303817],[90.788681,26.302523],[90.78418,26.302187],[90.780805,26.302139],[90.775617,26.303381],[90.773248,26.303632],[90.770348,26.305259],[90.769155,26.306161],[90.768489,26.306205],[90.767537,26.306462],[90.766445,26.307359],[90.765918,26.308473],[90.763968,26.310277],[90.76268,26.311517],[90.761378,26.311981],[90.758999,26.312195],[90.755765,26.311119],[90.752912,26.310214],[90.751821,26.309743],[90.750632,26.307382],[90.750004,26.306463],[90.746971,26.303008],[90.745908,26.301826],[90.745423,26.301099],[90.74506,26.300953],[90.744698,26.300845],[90.744012,26.300991],[90.742722,26.300373],[90.737649,26.297884],[90.730994,26.294032],[90.729784,26.293196],[90.727246,26.290415],[90.722647,26.284632],[90.720313,26.282662],[90.720312,26.282407],[90.720433,26.282007],[90.720916,26.281497],[90.720956,26.281133],[90.720949,26.281056],[90.72053,26.276614],[90.71982,26.269078],[90.719838,26.26903],[90.719981,26.268642],[90.720021,26.268605],[90.725771,26.26882],[90.730083,26.268817],[90.730849,26.268708],[90.731091,26.268526],[90.733137,26.261773],[90.733232,26.260456],[90.733374,26.258502],[90.733374,26.258138],[90.733253,26.257956],[90.728278,26.256874],[90.725819,26.256293],[90.725094,26.256548],[90.721304,26.260267],[90.717613,26.263889],[90.717291,26.263853],[90.709994,26.260087],[90.70804,26.259079],[90.702799,26.256098],[90.694718,26.257121],[90.687155,26.257597],[90.68377,26.257926],[90.682279,26.257526],[90.679592,26.256511],[90.67471,26.254667],[90.666908,26.250815],[90.666806,26.250764],[90.666643,26.250684],[90.666533,26.25063],[90.666315,26.250522],[90.665337,26.250049],[90.665337,26.250049],[90.66525,26.249999],[90.665192,26.249976],[90.664954,26.249883],[90.664915,26.249868],[90.664147,26.249567],[90.663096,26.249155],[90.661604,26.248564],[90.660323,26.247165],[90.657945,26.2443],[90.657229,26.24347],[90.655302,26.241114],[90.652814,26.238096],[90.653014,26.237563],[90.653214,26.237031],[90.654219,26.234751],[90.65472,26.233862],[90.65586,26.232255],[90.656901,26.23063],[90.658722,26.228712],[90.659276,26.228051],[90.660393,26.226721],[90.661763,26.225114],[90.662403,26.22423],[90.663293,26.222226],[90.663519,26.221743],[90.663628,26.22151],[90.663789,26.221166],[90.663817,26.221106],[90.663952,26.220817],[90.664261,26.220156],[90.664609,26.219414],[90.66484,26.218977],[90.664843,26.218971],[90.664983,26.218708],[90.665103,26.218481],[90.665113,26.218462],[90.665267,26.218173],[90.66541,26.217903],[90.665449,26.217829],[90.665765,26.216791],[90.665825,26.216592],[90.665983,26.216075],[90.666058,26.215825],[90.666388,26.214747],[90.666983,26.21277],[90.668003,26.210157],[90.669028,26.207444],[90.669498,26.206203],[90.670317,26.204335],[90.670322,26.204324],[90.670442,26.20405],[90.670953,26.203093],[90.671031,26.202824],[90.671065,26.202703],[90.671135,26.202461],[90.671452,26.20136],[90.672138,26.199206],[90.67187,26.199458],[90.671035,26.200246],[90.669563,26.201368],[90.667924,26.202618],[90.663468,26.206398],[90.659394,26.209362],[90.65643,26.211214],[90.654812,26.211218],[90.652775,26.211222],[90.651088,26.211226],[90.650846,26.211176],[90.650597,26.211125],[90.646908,26.210369],[90.646145,26.210213],[90.645807,26.210143],[90.645737,26.210129],[90.645517,26.21007],[90.645292,26.210009],[90.640331,26.208668],[90.640204,26.208634],[90.639934,26.208561],[90.639503,26.208445],[90.636675,26.207482],[90.632735,26.206383],[90.629327,26.204763],[90.624626,26.206983],[90.622005,26.206459],[90.61844,26.209466],[90.614975,26.21047],[90.610558,26.211602],[90.610457,26.211537],[90.604703,26.21356],[90.606808,26.215225],[90.608559,26.216609],[90.616172,26.219112],[90.62028,26.220988],[90.623972,26.222673],[90.629475,26.224099],[90.631482,26.224501],[90.634151,26.225035],[90.635406,26.225324],[90.638177,26.225961],[90.63614,26.228555],[90.635468,26.229911],[90.631991,26.230355],[90.631991,26.230355],[90.626462,26.230743],[90.621904,26.231217],[90.621546,26.23146],[90.6195,26.232854],[90.617517,26.234462],[90.612929,26.236029],[90.61191,26.236862],[90.609137,26.23873],[90.606345,26.240612],[90.604127,26.242319],[90.601055,26.244001],[90.600258,26.244438],[90.599686,26.24626],[90.600022,26.250479],[90.5992,26.250874],[90.60011,26.253432],[90.599728,26.253896],[90.599425,26.254263],[90.598492,26.254902],[90.5978,26.254949],[90.597887,26.255989],[90.598973,26.256595],[90.59912,26.258351],[90.600116,26.25976],[90.600229,26.261113],[90.60162,26.262482],[90.602777,26.263136],[90.603175,26.264019],[90.604015,26.26588],[90.601737,26.266659],[90.600799,26.267925],[90.599387,26.269948],[90.598154,26.269912],[90.59748,26.270557],[90.597558,26.271493],[90.599444,26.273927],[90.603374,26.277217],[90.603828,26.277186],[90.605566,26.277068],[90.61037,26.274858],[90.612306,26.273733],[90.612587,26.273714],[90.613172,26.273674],[90.613245,26.273828],[90.614295,26.276004],[90.617022,26.279479],[90.618291,26.281075],[90.618357,26.281159],[90.617134,26.281511],[90.616307,26.282761],[90.615918,26.284314],[90.616836,26.287651],[90.617529,26.289172],[90.61761,26.289352],[90.617535,26.289488],[90.617616,26.293508],[90.618486,26.296273],[90.619183,26.297359],[90.619354,26.297626],[90.619973,26.298438],[90.620051,26.298541],[90.620207,26.298745],[90.620983,26.299764],[90.621056,26.299836],[90.623389,26.302163],[90.624266,26.303694],[90.625292,26.305485],[90.623816,26.307259],[90.623032,26.308748],[90.622816,26.309157],[90.624206,26.311918],[90.624954,26.314608],[90.62636,26.318226],[90.626565,26.32067],[90.627467,26.322439],[90.628716,26.324184],[90.627892,26.326123],[90.626565,26.326214],[90.625164,26.326309],[90.625286,26.327756],[90.625421,26.33126],[90.624555,26.331319],[90.623215,26.330647],[90.623215,26.330647],[90.62324,26.33068],[90.623498,26.33376],[90.621155,26.337147],[90.619696,26.339255],[90.61695,26.342347],[90.614318,26.343765],[90.611593,26.342888],[90.609173,26.341014],[90.608652,26.34061],[90.607417,26.340662],[90.607054,26.342092],[90.606059,26.346007],[90.606112,26.353043],[90.605582,26.354765],[90.603606,26.355742],[90.600108,26.355979],[90.597032,26.355008],[90.593915,26.353534],[90.591417,26.35141],[90.588444,26.34942],[90.584583,26.347558],[90.584091,26.347196],[90.583551,26.3468],[90.583584,26.347185],[90.583609,26.347489],[90.584252,26.348963],[90.585432,26.350096],[90.585829,26.350807],[90.587323,26.353475],[90.590384,26.36055],[90.590961,26.361931],[90.592302,26.365141],[90.592428,26.366649],[90.593864,26.370834],[90.594048,26.371893],[90.594653,26.375377],[90.595374,26.377711],[90.595495,26.379152],[90.596367,26.38096],[90.596582,26.381405],[90.597607,26.38292],[90.599761,26.385404],[90.600297,26.386885],[90.600518,26.389534],[90.599788,26.391539],[90.598634,26.393457],[90.597364,26.393895],[90.595998,26.395909],[90.595322,26.399023],[90.595356,26.399117],[90.595906,26.400636],[90.596427,26.4006],[90.596688,26.400583],[90.598177,26.400482],[90.599348,26.398818],[90.600769,26.397002],[90.602144,26.395088],[90.60463,26.392592],[90.606551,26.390945],[90.608933,26.389873],[90.610121,26.39008],[90.61144,26.390309],[90.614944,26.392364],[90.616527,26.392992],[90.617267,26.393285],[90.619067,26.392421],[90.621298,26.391797],[90.62476,26.391562],[90.628392,26.392461],[90.630723,26.393859],[90.632021,26.395552],[90.63324,26.398032],[90.634317,26.401499],[90.634376,26.402203],[90.634518,26.402366],[90.635702,26.403731],[90.635594,26.407346],[90.635773,26.410392],[90.635883,26.411709],[90.63811,26.41412],[90.640077,26.416144],[90.641043,26.416917],[90.64369,26.419034],[90.646938,26.422488],[90.649139,26.424158],[90.649618,26.42469],[90.651575,26.426858],[90.6538,26.429269],[90.653145,26.430831],[90.651244,26.432169],[90.651244,26.432169],[90.65023,26.432238],[90.648418,26.433289],[90.647898,26.435234],[90.647932,26.435644],[90.648106,26.437715],[90.648371,26.438306],[90.649028,26.439776],[90.649209,26.441926],[90.647562,26.443794],[90.6454,26.445182],[90.642259,26.446576],[90.641192,26.447694],[90.640277,26.450622],[90.641171,26.454573],[90.64127,26.455751],[90.641653,26.455981],[90.645112,26.458064],[90.64991,26.456294],[90.651293,26.454703],[90.652824,26.45294],[90.654372,26.450515],[90.655888,26.449337],[90.656597,26.448786],[90.658716,26.447018],[90.661442,26.445115],[90.661749,26.445095],[90.664619,26.444899],[90.668033,26.445168],[90.668406,26.445197],[90.671104,26.445533],[90.671532,26.445587],[90.674672,26.446161],[90.675997,26.446368],[90.678798,26.446807],[90.681048,26.447257],[90.681198,26.447287],[90.683464,26.447741],[90.685994,26.448403],[90.686176,26.448279],[90.687895,26.447113],[90.688405,26.445222],[90.688094,26.441532],[90.688047,26.440979],[90.686811,26.439161],[90.686079,26.438187],[90.685418,26.437308],[90.682898,26.435531],[90.680424,26.434912],[90.677605,26.435104],[90.67753,26.435164],[90.675563,26.436728],[90.67396,26.438323],[90.673733,26.438291],[90.671509,26.43798],[90.669848,26.437421],[90.667955,26.436784],[90.666819,26.434913],[90.666663,26.433068],[90.667245,26.430801],[90.668513,26.42872],[90.669669,26.427759],[90.671523,26.426519],[90.673861,26.425524],[90.67639,26.426187],[90.677867,26.427199],[90.678061,26.427261],[90.678089,26.427269],[90.679561,26.427733],[90.681218,26.429058],[90.684901,26.427507],[90.687656,26.427393],[90.687922,26.427382],[90.688114,26.427375],[90.691052,26.428339],[90.694901,26.429375],[90.696912,26.42817],[90.697985,26.425917],[90.696088,26.420247],[90.695145,26.418223],[90.694205,26.415643],[90.694038,26.413659],[90.695392,26.412352],[90.696293,26.411482],[90.699118,26.412801],[90.7013,26.41457],[90.701441,26.414684],[90.703461,26.416633],[90.705524,26.418487],[90.707642,26.420986],[90.707852,26.423477],[90.707448,26.42601],[90.710331,26.427808],[90.712606,26.426678],[90.713637,26.424241],[90.713945,26.422826],[90.714119,26.422027],[90.713043,26.418436],[90.711376,26.416229],[90.710071,26.4145],[90.706509,26.410234],[90.70724,26.407698],[90.708822,26.407197],[90.710602,26.406632],[90.71361,26.408104],[90.716695,26.409506],[90.719496,26.411206],[90.719658,26.411304],[90.722452,26.412991],[90.722557,26.413055],[90.725139,26.412227],[90.725392,26.412345],[90.727983,26.413038],[90.730603,26.413598],[90.730603,26.413598],[90.731097,26.412155],[90.731629,26.409337],[90.732047,26.407996],[90.732465,26.406656],[90.732669,26.403736],[90.735131,26.403899],[90.736928,26.403219],[90.73701,26.404184],[90.737195,26.406373],[90.73789,26.407756],[90.739574,26.411107],[90.740551,26.413878],[90.741704,26.415083],[90.74245,26.415863],[90.744107,26.417919],[90.744862,26.418777],[90.745698,26.419727],[90.745954,26.420018],[90.746897,26.42048],[90.749125,26.421618],[90.751335,26.422162],[90.754338,26.421723],[90.755528,26.420212],[90.756152,26.419418],[90.754602,26.41572],[90.752387,26.41513],[90.74912,26.415494],[90.748116,26.414588],[90.747021,26.413758],[90.74618,26.41312],[90.745897,26.412787],[90.744751,26.409471],[90.741064,26.409725],[90.740759,26.406128],[90.740562,26.403804],[90.742773,26.402001],[90.743394,26.401495],[90.745825,26.401307],[90.746835,26.401982],[90.74731,26.402591],[90.74737,26.402668],[90.748104,26.403611],[90.75024,26.404099],[90.753706,26.403163],[90.756854,26.405334],[90.759546,26.404487],[90.757794,26.402626],[90.755046,26.399961],[90.753578,26.397478],[90.753578,26.397478],[90.752259,26.395248],[90.751694,26.390141],[90.75178,26.38867],[90.751841,26.38761],[90.755571,26.382109],[90.76456,26.382567],[90.767692,26.384474],[90.767692,26.384474],[90.767692,26.384474],[90.767696,26.384476],[90.767697,26.384476],[90.767708,26.384483],[90.768034,26.384682],[90.76976,26.386785],[90.770093,26.389996],[90.769451,26.394712],[90.770018,26.397456],[90.770053,26.397624],[90.770261,26.397778],[90.77525,26.40148],[90.777538,26.403515],[90.780831,26.406443],[90.783638,26.409079],[90.787863,26.411255],[90.788277,26.411468],[90.792106,26.413167],[90.796388,26.414216],[90.800444,26.41568],[90.80175,26.415571],[90.804225,26.415365],[90.810852,26.413014],[90.81181,26.412169],[90.814545,26.409757],[90.815485,26.408742],[90.815821,26.408378],[90.818185,26.40681],[90.819553,26.40605],[90.819932,26.405628],[90.821282,26.404126],[90.821391,26.401603],[90.821391,26.401603],[90.82149,26.399323],[90.824636,26.396412],[90.824699,26.396353],[90.83008,26.398374],[90.83464,26.398697],[90.839574,26.399017],[90.841562,26.400084],[90.843398,26.402313],[90.844117,26.403186],[90.84464,26.403259],[90.844745,26.403274],[90.844912,26.403293],[90.844958,26.403299]]]}},{"type":"Feature","properties":{"OBJECTID":5885,"state_lgd":"18","state_name":"ASSAM","district_lgd":"319","district_name":"BONGAIGAON","district_name_source":"district_table","subdistrict_lgd":"02111","subdistrict_name":"BOITAMARI CIRCLE","subdistrict_type":"","name_corrupted":false,"remarks":""},"geometry":{"type":"Polygon","coordinates":[[[90.368743,26.177181],[90.368995,26.177216],[90.369538,26.177325],[90.369994,26.177416],[90.371071,26.177632],[90.371413,26.177795],[90.372736,26.178426],[90.373886,26.179676],[90.374997,26.18126],[90.375687,26.182885],[90.375987,26.185616],[90.376082,26.187908],[90.376497,26.191117],[90.376708,26.195517],[90.37681,26.196445],[90.376893,26.197187],[90.377353,26.199019],[90.377308,26.20027],[90.377858,26.201479],[90.378784,26.202521],[90.378924,26.20323],[90.378163,26.20596],[90.377378,26.207919],[90.376963,26.209381],[90.376727,26.211214],[90.376637,26.212965],[90.376823,26.216259],[90.376637,26.218177],[90.376497,26.219843],[90.376893,26.221449],[90.377673,26.222411],[90.378829,26.22316],[90.38054,26.223828],[90.382182,26.22464],[90.384308,26.225181],[90.386155,26.225723],[90.387956,26.225723],[90.389062,26.2251],[90.390218,26.224138],[90.391373,26.222929],[90.392529,26.221764],[90.394005,26.220595],[90.395206,26.220302],[90.397192,26.22022],[90.398483,26.220342],[90.399734,26.220888],[90.401601,26.222282],[90.402757,26.223031],[90.404168,26.225012],[90.404443,26.225553],[90.405139,26.226307],[90.407006,26.228035],[90.407652,26.229118],[90.409204,26.231058],[90.41045,26.231812],[90.412111,26.232728],[90.41546,26.234956],[90.417172,26.236413],[90.419224,26.238186],[90.420656,26.239436],[90.422994,26.241416],[90.424841,26.242499],[90.427103,26.243793],[90.428585,26.24396],[90.431773,26.243665],[90.434174,26.242997],[90.436852,26.242535],[90.439809,26.241952],[90.441145,26.241703],[90.441746,26.241951],[90.442051,26.242722],[90.442052,26.243178],[90.442052,26.243891],[90.441772,26.244929],[90.440712,26.245724],[90.439556,26.246433],[90.438215,26.247142],[90.4372,26.247725],[90.436465,26.248894],[90.436141,26.250041],[90.436043,26.250398],[90.436074,26.25067],[90.435163,26.251544],[90.433016,26.253176],[90.431688,26.254437],[90.430973,26.255514],[90.43053,26.257237],[90.430565,26.258406],[90.431213,26.259667],[90.431683,26.260238],[90.432161,26.260853],[90.432774,26.261191],[90.433627,26.261622],[90.434206,26.261806],[90.434854,26.261929],[90.435706,26.261836],[90.436456,26.261744],[90.436831,26.261528],[90.437239,26.261159],[90.437682,26.260667],[90.437955,26.25999],[90.438329,26.259282],[90.438806,26.258051],[90.439214,26.256974],[90.43935,26.256236],[90.439929,26.254575],[90.441317,26.252474],[90.441828,26.251982],[90.443293,26.250505],[90.443605,26.250376],[90.443824,26.250327],[90.444076,26.250182],[90.444397,26.25],[90.444908,26.249558],[90.446294,26.248474],[90.447309,26.248014],[90.448235,26.247973],[90.449206,26.248306],[90.450408,26.249181],[90.451082,26.249999],[90.45109,26.250034],[90.451095,26.250046],[90.451278,26.250495],[90.45184,26.253925],[90.451976,26.254908],[90.451436,26.256154],[90.450961,26.256556],[90.44929,26.257663],[90.448134,26.258403],[90.447143,26.259112],[90.446188,26.259848],[90.445548,26.260639],[90.445003,26.261623],[90.444833,26.263225],[90.444454,26.265278],[90.4448,26.266844],[90.445447,26.268162],[90.446333,26.269082],[90.44749,26.269822],[90.449428,26.271039],[90.451065,26.271869],[90.452087,26.272266],[90.452803,26.272328],[90.453418,26.272084],[90.453928,26.271682],[90.454303,26.271095],[90.454608,26.270482],[90.455153,26.269312],[90.455563,26.267868],[90.456073,26.267096],[90.456448,26.266482],[90.457193,26.266084],[90.457739,26.265836],[90.4591,26.265777],[90.460462,26.26602],[90.461553,26.266082],[90.462269,26.266203],[90.462985,26.266171],[90.463596,26.266261],[90.464341,26.266234],[90.465468,26.26617],[90.466694,26.266539],[90.467921,26.266845],[90.468877,26.266998],[90.470069,26.267521],[90.47085,26.267886],[90.471907,26.268472],[90.472317,26.26881],[90.472928,26.269365],[90.473204,26.269825],[90.47327,26.270349],[90.473036,26.272132],[90.472761,26.272655],[90.472181,26.273116],[90.471675,26.273324],[90.470824,26.273478],[90.468812,26.273267],[90.466188,26.27265],[90.464581,26.272529],[90.462574,26.272192],[90.461652,26.271732],[90.460801,26.271764],[90.459675,26.272009],[90.457698,26.272687],[90.456608,26.273983],[90.456063,26.275057],[90.455623,26.276307],[90.45549,26.279137],[90.455117,26.282937],[90.454913,26.284165],[90.455118,26.284801],[90.455459,26.285203],[90.4559,26.285202],[90.45614,26.285049],[90.45655,26.284557],[90.45699,26.284033],[90.457095,26.283387],[90.4574,26.282403],[90.457704,26.280864],[90.457738,26.279204],[90.458113,26.278066],[90.458557,26.276938],[90.459068,26.276414],[90.460189,26.276075],[90.46101,26.275921],[90.464349,26.276104],[90.466261,26.276166],[90.467693,26.276409],[90.468955,26.276904],[90.469671,26.277333],[90.470042,26.277703],[90.470558,26.278808],[90.470214,26.280009],[90.469674,26.281056],[90.467728,26.282777],[90.466812,26.283752],[90.465106,26.284832],[90.46405,26.285906],[90.46378,26.286308],[90.463641,26.287567],[90.463642,26.288723],[90.464118,26.289463],[90.464494,26.289832],[90.464975,26.289891],[90.46562,26.289552],[90.466606,26.288874],[90.467321,26.288075],[90.467902,26.28752],[90.468482,26.287551],[90.469128,26.287889],[90.471342,26.288438],[90.472704,26.288622],[90.473449,26.288225],[90.476072,26.287668],[90.476413,26.287668],[90.476789,26.288281],[90.478388,26.290767],[90.478764,26.29138],[90.479345,26.29175],[90.481388,26.292642],[90.48224,26.293255],[90.482886,26.29381],[90.483633,26.29491],[90.483739,26.295894],[90.4835,26.296662],[90.482274,26.298138],[90.480399,26.300071],[90.479313,26.301548],[90.478968,26.302098],[90.479139,26.303073],[90.479721,26.30449],[90.479617,26.305749],[90.479208,26.307555],[90.479109,26.308263],[90.478494,26.309401],[90.477238,26.311017],[90.475912,26.31225],[90.475909,26.312253],[90.473866,26.314125],[90.473185,26.314987],[90.472885,26.315407],[90.47217,26.316364],[90.470739,26.318062],[90.470434,26.318423],[90.469518,26.319304],[90.468973,26.319828],[90.467337,26.322446],[90.466657,26.323358],[90.465907,26.325236],[90.466178,26.326364],[90.467135,26.327379],[90.469079,26.328208],[90.469808,26.32843],[90.470508,26.328669],[90.47157,26.329031],[90.472681,26.329588],[90.473626,26.330368],[90.474005,26.330829],[90.474009,26.331002],[90.473946,26.33261],[90.473025,26.334118],[90.472074,26.334579],[90.470386,26.334293],[90.470266,26.334273],[90.469038,26.333443],[90.467875,26.332153],[90.466988,26.331075],[90.464808,26.329335],[90.464057,26.329024],[90.462794,26.328839],[90.460997,26.329671],[90.460211,26.330533],[90.457624,26.334136],[90.454662,26.338213],[90.453882,26.339842],[90.454053,26.340799],[90.454158,26.341345],[90.454564,26.34181],[90.456919,26.343374],[90.457086,26.344873],[90.457908,26.346443],[90.456101,26.34764],[90.454128,26.349419],[90.454203,26.34969],[90.457744,26.349496],[90.458134,26.349567],[90.459942,26.349893],[90.460698,26.35003],[90.462001,26.350265],[90.464591,26.351036],[90.46647,26.352566],[90.468149,26.354594],[90.46914,26.35737],[90.469318,26.357867],[90.469841,26.35933],[90.469896,26.359484],[90.470646,26.363113],[90.470864,26.364164],[90.470441,26.365633],[90.472482,26.371406],[90.472887,26.372553],[90.476938,26.372831],[90.477647,26.373671],[90.486868,26.373738],[90.487295,26.374389],[90.487714,26.375028],[90.488643,26.377599],[90.489245,26.379264],[90.49024,26.379741],[90.493311,26.379578],[90.497287,26.379722],[90.497274,26.379654],[90.497052,26.378465],[90.497431,26.377753],[90.497999,26.376683],[90.500845,26.376459],[90.502355,26.376339],[90.502819,26.376303],[90.506961,26.376791],[90.508822,26.377456],[90.510283,26.377978],[90.510683,26.378121],[90.511423,26.377997],[90.512795,26.377769],[90.514884,26.377768],[90.516432,26.378082],[90.516437,26.378085],[90.517011,26.378357],[90.518017,26.378835],[90.519026,26.378558],[90.51888,26.378127],[90.518718,26.377649],[90.519133,26.376436],[90.519407,26.376323],[90.52068,26.375798],[90.522806,26.375306],[90.525311,26.375346],[90.527403,26.375995],[90.527519,26.37708],[90.527009,26.378392],[90.527326,26.378586],[90.52742,26.378644],[90.528069,26.379041],[90.529129,26.37969],[90.532293,26.380824],[90.535458,26.381959],[90.536215,26.381286],[90.53625,26.381255],[90.535987,26.379948],[90.535323,26.378482],[90.536429,26.377199],[90.537561,26.376542],[90.538794,26.376784],[90.540311,26.377929],[90.542564,26.378691],[90.544817,26.379453],[90.546289,26.378811],[90.545745,26.377799],[90.545175,26.375029],[90.544915,26.373769],[90.546069,26.372434],[90.5461,26.372399],[90.547747,26.373033],[90.548742,26.373417],[90.551874,26.374623],[90.556698,26.376482],[90.559139,26.376963],[90.559242,26.376983],[90.55934,26.376846],[90.559796,26.376202],[90.559408,26.375104],[90.558604,26.374587],[90.557066,26.374087],[90.554945,26.372162],[90.553991,26.370623],[90.553445,26.369637],[90.552738,26.367966],[90.552559,26.365817],[90.55304,26.36446],[90.554109,26.363365],[90.554187,26.363284],[90.555414,26.361999],[90.556914,26.359682],[90.557575,26.358661],[90.557585,26.358645],[90.558527,26.35663],[90.558954,26.354951],[90.558922,26.354558],[90.558706,26.35197],[90.558151,26.350567],[90.55801,26.34888],[90.55799,26.348643],[90.557862,26.347101],[90.558016,26.345859],[90.55823,26.344706],[90.559495,26.343482],[90.56063,26.342243],[90.563068,26.341799],[90.564151,26.340866],[90.564413,26.339169],[90.565087,26.338479],[90.566122,26.337898],[90.567283,26.337985],[90.567913,26.338032],[90.569153,26.337135],[90.569063,26.336049],[90.569775,26.33377],[90.569829,26.333674],[90.570426,26.33261],[90.571028,26.331477],[90.571658,26.330064],[90.571856,26.327796],[90.571731,26.326294],[90.572774,26.325201],[90.574154,26.324736],[90.575817,26.324275],[90.576634,26.323871],[90.577844,26.323533],[90.579175,26.322792],[90.580646,26.321577],[90.5814,26.320411],[90.583297,26.318423],[90.584015,26.318374],[90.585061,26.319163],[90.586575,26.321245],[90.587373,26.321539],[90.587848,26.321352],[90.588667,26.321029],[90.588796,26.320978],[90.589252,26.319948],[90.588013,26.319312],[90.58723,26.318273],[90.587636,26.317269],[90.589074,26.315661],[90.590004,26.314436],[90.590692,26.313111],[90.59095,26.31156],[90.59083,26.310127],[90.591204,26.309421],[90.591966,26.307982],[90.59335,26.307888],[90.594756,26.30928],[90.595472,26.310138],[90.596095,26.312558],[90.596274,26.314708],[90.596325,26.315319],[90.593088,26.318642],[90.593554,26.320516],[90.5952,26.32231],[90.599702,26.324956],[90.603815,26.32635],[90.606357,26.326525],[90.608296,26.325862],[90.608303,26.325827],[90.608718,26.323791],[90.608538,26.321641],[90.608358,26.319491],[90.610815,26.318338],[90.614102,26.320062],[90.617889,26.323079],[90.620231,26.32676],[90.623215,26.330647],[90.623215,26.330647],[90.624555,26.331319],[90.625421,26.33126],[90.625286,26.327756],[90.625164,26.326309],[90.626565,26.326214],[90.627892,26.326123],[90.628716,26.324184],[90.627467,26.322439],[90.626565,26.32067],[90.62636,26.318226],[90.624954,26.314608],[90.624206,26.311918],[90.622816,26.309157],[90.623032,26.308748],[90.623816,26.307259],[90.625292,26.305485],[90.624266,26.303694],[90.623389,26.302163],[90.621056,26.299836],[90.620983,26.299764],[90.620207,26.298745],[90.620051,26.298541],[90.619973,26.298438],[90.619354,26.297626],[90.619183,26.297359],[90.618486,26.296273],[90.617616,26.293508],[90.617535,26.289488],[90.61761,26.289352],[90.617529,26.289172],[90.616836,26.287651],[90.615918,26.284314],[90.616307,26.282761],[90.617134,26.281511],[90.618357,26.281159],[90.618291,26.281075],[90.617022,26.279479],[90.614295,26.276004],[90.613245,26.273828],[90.613172,26.273674],[90.612587,26.273714],[90.612306,26.273733],[90.61037,26.274858],[90.605566,26.277068],[90.603828,26.277186],[90.603374,26.277217],[90.599444,26.273927],[90.597558,26.271493],[90.59748,26.270557],[90.598154,26.269912],[90.599387,26.269948],[90.600799,26.267925],[90.601737,26.266659],[90.604015,26.26588],[90.603175,26.264019],[90.602777,26.263136],[90.60162,26.262482],[90.600229,26.261113],[90.600116,26.25976],[90.59912,26.258351],[90.598973,26.256595],[90.597887,26.255989],[90.5978,26.254949],[90.598492,26.254902],[90.599425,26.254263],[90.599728,26.253896],[90.60011,26.253432],[90.5992,26.250874],[90.600022,26.250479],[90.599686,26.24626],[90.600258,26.244438],[90.601055,26.244001],[90.604127,26.242319],[90.606345,26.240612],[90.609137,26.23873],[90.61191,26.236862],[90.612929,26.236029],[90.617517,26.234462],[90.6195,26.232854],[90.621546,26.23146],[90.621904,26.231217],[90.626462,26.230743],[90.631991,26.230355],[90.631991,26.230355],[90.635468,26.229911],[90.63614,26.228555],[90.638177,26.225961],[90.635406,26.225324],[90.634151,26.225035],[90.631482,26.224501],[90.629475,26.224099],[90.623972,26.222673],[90.62028,26.220988],[90.616172,26.219112],[90.608559,26.216609],[90.606808,26.215225],[90.604703,26.21356],[90.610457,26.211537],[90.6099,26.211182],[90.608517,26.210299],[90.605656,26.208473],[90.602084,26.20659],[90.589212,26.204904],[90.583465,26.204265],[90.574468,26.202833],[90.564994,26.201626],[90.55834,26.201241],[90.554394,26.200514],[90.552773,26.200216],[90.548822,26.200071],[90.538826,26.199171],[90.532297,26.198943],[90.524879,26.198117],[90.519435,26.197441],[90.51572,26.196291],[90.510826,26.193996],[90.50611,26.191431],[90.50336,26.189366],[90.500967,26.186726],[90.500189,26.185694],[90.500278,26.182845],[90.500239,26.180433],[90.500222,26.178705],[90.500005,26.176796],[90.493999,26.171216],[90.489219,26.16825],[90.486553,26.166597],[90.479198,26.162034],[90.464307,26.157311],[90.439529,26.14795],[90.424548,26.147686],[90.414473,26.151974],[90.404392,26.156257],[90.394405,26.156083],[90.389416,26.155993],[90.385858,26.155929],[90.381635,26.155853],[90.37917,26.155809],[90.376507,26.155761],[90.375243,26.155738],[90.374435,26.155723],[90.367495,26.174551],[90.367411,26.174778],[90.367161,26.175457],[90.366625,26.176909],[90.367194,26.176964],[90.368581,26.177158],[90.368743,26.177181]]]}},{"type":"Feature","properties":{"OBJECTID":5889,"state_lgd":"18","state_name":"ASSAM","district_lgd":"319","district_name":"BONGAIGAON","district_name_source":"district_table","subdistrict_lgd":"05967","subdistrict_name":"DANGTOL CIRCLE","subdistrict_type":"","name_corrupted":false,"remarks":""},"geometry":{"type":"Polygon","coordinates":[[[90.53516,26.502115],[90.53515,26.502092],[90.531099,26.492393],[90.53074,26.491704],[90.529519,26.489359],[90.528098,26.484676],[90.527887,26.482731],[90.527674,26.480767],[90.527341,26.477694],[90.52725,26.476851],[90.526865,26.473295],[90.526601,26.472435],[90.525775,26.469747],[90.524662,26.465595],[90.524154,26.4637],[90.523537,26.4614],[90.522806,26.458673],[90.521429,26.453537],[90.521032,26.449936],[90.520684,26.446783],[90.520136,26.444349],[90.51973,26.442547],[90.519648,26.442452],[90.515603,26.437825],[90.5146,26.431654],[90.514348,26.426813],[90.514234,26.424617],[90.51419,26.423762],[90.513775,26.421558],[90.513311,26.419088],[90.51287,26.416745],[90.511999,26.412112],[90.505997,26.408519],[90.503325,26.407144],[90.503124,26.40704],[90.501556,26.407092],[90.499961,26.404456],[90.498761,26.400643],[90.497051,26.399135],[90.496148,26.397617],[90.49604,26.396625],[90.496309,26.395817],[90.497051,26.394971],[90.498764,26.394304],[90.49969,26.393963],[90.500262,26.393088],[90.499954,26.390336],[90.499874,26.389625],[90.499661,26.388852],[90.49957,26.388523],[90.498799,26.385727],[90.498655,26.385203],[90.497585,26.381325],[90.497287,26.379722],[90.493311,26.379578],[90.49024,26.379741],[90.489245,26.379264],[90.488643,26.377599],[90.487714,26.375028],[90.487295,26.374389],[90.486868,26.373738],[90.477647,26.373671],[90.476938,26.372831],[90.472887,26.372553],[90.472482,26.371406],[90.470441,26.365633],[90.470864,26.364164],[90.470646,26.363113],[90.469896,26.359484],[90.469841,26.35933],[90.469318,26.357867],[90.46914,26.35737],[90.468149,26.354594],[90.46647,26.352566],[90.464591,26.351036],[90.462001,26.350265],[90.460698,26.35003],[90.459942,26.349893],[90.458134,26.349567],[90.457744,26.349496],[90.454203,26.34969],[90.45458,26.351057],[90.455623,26.35218],[90.456966,26.353741],[90.457578,26.35504],[90.457599,26.356092],[90.456949,26.35708],[90.455907,26.357668],[90.454414,26.35802],[90.453963,26.35789],[90.452806,26.357227],[90.452008,26.355661],[90.450659,26.353342],[90.448618,26.349358],[90.447766,26.348118],[90.447154,26.346994],[90.446377,26.346349],[90.44505,26.345835],[90.444479,26.34589],[90.443047,26.346608],[90.442271,26.347344],[90.442416,26.348066],[90.443479,26.349595],[90.445214,26.351977],[90.446031,26.353345],[90.446151,26.353981],[90.44542,26.354527],[90.444558,26.353864],[90.443702,26.353535],[90.442865,26.353093],[90.442259,26.352967],[90.442359,26.353852],[90.442445,26.355359],[90.443183,26.358594],[90.443385,26.359817],[90.443345,26.360165],[90.442363,26.36026],[90.441666,26.360003],[90.439672,26.359801],[90.439074,26.359849],[90.436937,26.360023],[90.436261,26.359947],[90.43571,26.359672],[90.435224,26.35927],[90.435078,26.358756],[90.435143,26.35811],[90.435468,26.35756],[90.436345,26.356765],[90.437691,26.355144],[90.438042,26.354575],[90.438041,26.35347],[90.4382,26.351489],[90.43853,26.350148],[90.438444,26.348898],[90.438589,26.346348],[90.438773,26.34526],[90.438752,26.343812],[90.438387,26.343094],[90.437855,26.342855],[90.435626,26.34231],[90.434624,26.342401],[90.433994,26.342789],[90.432892,26.343471],[90.4315,26.345182],[90.430644,26.346969],[90.430565,26.348048],[90.430931,26.349357],[90.43226,26.35252],[90.432506,26.353883],[90.431895,26.355106],[90.430974,26.356027],[90.430313,26.35639],[90.429832,26.356655],[90.428634,26.357596],[90.428125,26.357995],[90.427774,26.35842],[90.427124,26.359321],[90.425877,26.361052],[90.425696,26.361638],[90.425446,26.362068],[90.425431,26.362094],[90.425282,26.362445],[90.42508,26.362921],[90.425002,26.363104],[90.42476,26.363674],[90.424769,26.363749],[90.424932,26.363707],[90.4251,26.363664],[90.425143,26.363653],[90.425209,26.363636],[90.425401,26.363587],[90.425576,26.363542],[90.425597,26.363537],[90.427122,26.363146],[90.427125,26.363146],[90.429023,26.363267],[90.429241,26.363281],[90.429728,26.363312],[90.43273,26.363504],[90.432732,26.363505],[90.434011,26.363886],[90.435121,26.364217],[90.435822,26.364426],[90.437248,26.364851],[90.437247,26.364853],[90.436758,26.366565],[90.436758,26.366566],[90.436249,26.366611],[90.432727,26.366924],[90.429881,26.366684],[90.428462,26.366565],[90.428455,26.366564],[90.427032,26.367146],[90.427028,26.367147],[90.426962,26.367175],[90.426732,26.367268],[90.426717,26.367275],[90.426377,26.367413],[90.426381,26.367446],[90.426399,26.367637],[90.426399,26.367641],[90.426412,26.367768],[90.426413,26.367779],[90.426455,26.368213],[90.426457,26.368234],[90.426465,26.368318],[90.426466,26.36833],[90.426502,26.368703],[90.426503,26.368712],[90.426515,26.368836],[90.426515,26.368842],[90.426545,26.369153],[90.426548,26.369178],[90.426551,26.369214],[90.426554,26.369242],[90.426588,26.369601],[90.426591,26.369632],[90.426608,26.369805],[90.426609,26.369817],[90.426613,26.369861],[90.426619,26.369917],[90.426624,26.369971],[90.426629,26.369973],[90.427078,26.370199],[90.427273,26.370297],[90.427349,26.370335],[90.427844,26.370584],[90.427911,26.370618],[90.428356,26.370842],[90.428415,26.370871],[90.428864,26.371097],[90.428925,26.371127],[90.429125,26.371228],[90.429171,26.371251],[90.429237,26.371284],[90.429616,26.371475],[90.429669,26.371501],[90.42979,26.371562],[90.429844,26.371603],[90.429867,26.37162],[90.43035,26.371982],[90.430353,26.371985],[90.430902,26.372396],[90.430987,26.372461],[90.431202,26.372622],[90.431343,26.372728],[90.431834,26.373096],[90.431838,26.373099],[90.43223,26.373393],[90.432366,26.37361],[90.432375,26.373626],[90.43286,26.3744],[90.432868,26.374412],[90.43331,26.37512],[90.433312,26.375123],[90.433528,26.375467],[90.433558,26.376019],[90.43356,26.37607],[90.433588,26.376586],[90.43345,26.376663],[90.433441,26.376668],[90.433298,26.376748],[90.432847,26.377069],[90.432841,26.377334],[90.432841,26.377334],[90.432826,26.377892],[90.432826,26.377929],[90.432812,26.378472],[90.432811,26.378482],[90.432794,26.379181],[90.432794,26.379183],[90.432779,26.379775],[90.432762,26.379844],[90.432757,26.379865],[90.432583,26.380606],[90.432577,26.38063],[90.432519,26.380876],[90.432305,26.381033],[90.432279,26.381052],[90.432068,26.381206],[90.431669,26.381169],[90.43164,26.381167],[90.431114,26.381119],[90.431081,26.381116],[90.430631,26.381075],[90.430467,26.381098],[90.430457,26.3811],[90.429891,26.381179],[90.429882,26.38118],[90.429609,26.381218],[90.429605,26.381219],[90.42951,26.381232],[90.429508,26.381232],[90.429413,26.381245],[90.429408,26.381246],[90.429324,26.381258],[90.429321,26.381258],[90.429095,26.38129],[90.42909,26.381291],[90.429049,26.381296],[90.429045,26.381297],[90.429043,26.381297],[90.428861,26.381201],[90.42886,26.381201],[90.4288,26.381169],[90.428777,26.381157],[90.42856,26.381043],[90.428556,26.381041],[90.428481,26.381001],[90.428406,26.380962],[90.428405,26.380962],[90.428394,26.380956],[90.428299,26.380906],[90.428297,26.380905],[90.427445,26.379967],[90.425698,26.378697],[90.425696,26.378695],[90.424229,26.378597],[90.422451,26.378927],[90.420829,26.379586],[90.420536,26.380173],[90.419972,26.381302],[90.419187,26.382875],[90.420054,26.384182],[90.420058,26.384182],[90.420316,26.384135],[90.420324,26.384134],[90.42059,26.384085],[90.420597,26.384084],[90.420993,26.384012],[90.421007,26.38401],[90.421144,26.383985],[90.421162,26.383982],[90.42164,26.383895],[90.421649,26.383894],[90.422305,26.383775],[90.42231,26.383774],[90.422473,26.383744],[90.422839,26.383612],[90.422847,26.38361],[90.422949,26.383573],[90.422952,26.383572],[90.423504,26.383372],[90.42351,26.38337],[90.42396,26.383208],[90.424081,26.383164],[90.424815,26.3829],[90.424818,26.382899],[90.425258,26.38274],[90.425265,26.382738],[90.42556,26.382631],[90.425578,26.382625],[90.425799,26.382673],[90.425811,26.382675],[90.426419,26.382807],[90.42642,26.382808],[90.426474,26.382819],[90.42658,26.382842],[90.426602,26.382847],[90.426685,26.382865],[90.426696,26.382867],[90.426702,26.382869],[90.426756,26.382881],[90.426771,26.382884],[90.426825,26.382896],[90.426828,26.382896],[90.426907,26.382913],[90.426908,26.382914],[90.426913,26.382915],[90.42692,26.382916],[90.426982,26.38293],[90.426983,26.38293],[90.427055,26.382946],[90.427066,26.382948],[90.427068,26.382949],[90.427073,26.38295],[90.427183,26.382974],[90.427186,26.382974],[90.427288,26.382996],[90.42729,26.382997],[90.427362,26.383012],[90.427365,26.383013],[90.427381,26.383017],[90.427383,26.383017],[90.427472,26.383036],[90.427474,26.383037],[90.427562,26.383056],[90.427564,26.383056],[90.427637,26.383072],[90.427638,26.383072],[90.427651,26.383075],[90.427653,26.383076],[90.427739,26.383094],[90.427742,26.383095],[90.427809,26.38311],[90.427811,26.38311],[90.427849,26.383118],[90.427851,26.383119],[90.427853,26.383119],[90.427871,26.383123],[90.427877,26.383124],[90.427877,26.383125],[90.427877,26.383126],[90.427877,26.383128],[90.427886,26.383253],[90.427886,26.383262],[90.427932,26.383952],[90.427936,26.38401],[90.427967,26.384489],[90.427992,26.384866],[90.427993,26.384873],[90.428041,26.385598],[90.428052,26.385762],[90.428052,26.385763],[90.428059,26.385862],[90.42792,26.386599],[90.427913,26.386637],[90.427884,26.386786],[90.427738,26.387564],[90.427727,26.387622],[90.427719,26.387662],[90.427613,26.388228],[90.427608,26.388252],[90.427505,26.388797],[90.4275,26.388825],[90.427418,26.389261],[90.427412,26.389292],[90.427366,26.38954],[90.427319,26.389787],[90.427315,26.38981],[90.427248,26.390164],[90.427212,26.390352],[90.427208,26.390374],[90.427102,26.390938],[90.4271,26.390948],[90.42699,26.391534],[90.426986,26.391554],[90.426884,26.392096],[90.426881,26.39211],[90.426829,26.392386],[90.42676,26.392612],[90.426751,26.392642],[90.426624,26.393058],[90.426619,26.393075],[90.426482,26.393523],[90.426477,26.39354],[90.42633,26.394021],[90.426324,26.394042],[90.426183,26.394502],[90.426178,26.394518],[90.426047,26.394945],[90.426038,26.394977],[90.425934,26.395317],[90.425926,26.395344],[90.425808,26.395728],[90.425805,26.39574],[90.425733,26.395973],[90.425731,26.395983],[90.425709,26.396053],[90.425082,26.396197],[90.42508,26.396197],[90.424431,26.396346],[90.424416,26.39635],[90.424093,26.396423],[90.424091,26.396424],[90.424069,26.396412],[90.420925,26.394684],[90.418422,26.391868],[90.418412,26.391856],[90.418383,26.391824],[90.418379,26.39182],[90.418342,26.391799],[90.41834,26.391798],[90.418134,26.391682],[90.418133,26.391681],[90.41812,26.391674],[90.418101,26.391663],[90.417131,26.391118],[90.417109,26.391106],[90.417055,26.391076],[90.4168,26.390932],[90.416799,26.390932],[90.416737,26.390897],[90.416714,26.390884],[90.416713,26.390883],[90.416648,26.390847],[90.416616,26.390828],[90.416616,26.390828],[90.416615,26.390828],[90.416612,26.390826],[90.416612,26.390826],[90.416607,26.390824],[90.416607,26.390824],[90.4166,26.39082],[90.4166,26.390819],[90.416583,26.39081],[90.416582,26.39081],[90.416578,26.390807],[90.416577,26.390807],[90.41657,26.390803],[90.41657,26.390803],[90.416526,26.390778],[90.416524,26.390777],[90.416523,26.390777],[90.416523,26.390777],[90.416482,26.390753],[90.416482,26.390753],[90.416481,26.390753],[90.41644,26.39073],[90.416439,26.390729],[90.416433,26.390726],[90.41643,26.390724],[90.416396,26.390705],[90.416394,26.390704],[90.416392,26.390703],[90.416391,26.390702],[90.41639,26.390702],[90.416222,26.391074],[90.416218,26.391083],[90.416098,26.391347],[90.416087,26.391372],[90.41571,26.392204],[90.415964,26.393553],[90.415967,26.393567],[90.416447,26.39611],[90.416546,26.396523],[90.416568,26.396615],[90.417248,26.399469],[90.417474,26.400416],[90.417479,26.400436],[90.417576,26.400842],[90.417673,26.404218],[90.417675,26.404271],[90.417682,26.404525],[90.417686,26.404665],[90.417692,26.404861],[90.417692,26.404866],[90.417698,26.40506],[90.417597,26.405396],[90.417594,26.405404],[90.417455,26.405869],[90.417454,26.405869],[90.417312,26.406344],[90.417311,26.406346],[90.41714,26.406915],[90.417135,26.406933],[90.416973,26.407472],[90.416972,26.407474],[90.416892,26.407739],[90.416394,26.407918],[90.416392,26.407918],[90.416172,26.407997],[90.416167,26.407999],[90.416023,26.40805],[90.416021,26.408051],[90.416013,26.408047],[90.416005,26.408042],[90.415995,26.408037],[90.415793,26.407926],[90.415791,26.407924],[90.415593,26.407815],[90.415592,26.407815],[90.415567,26.407801],[90.415563,26.407799],[90.41506,26.407521],[90.415053,26.407518],[90.414846,26.407404],[90.414841,26.407401],[90.414545,26.407238],[90.41454,26.407235],[90.414116,26.407001],[90.414106,26.406996],[90.414067,26.406975],[90.414066,26.406974],[90.413628,26.406733],[90.413627,26.406732],[90.413411,26.406613],[90.413402,26.406608],[90.413254,26.406527],[90.413031,26.406404],[90.41303,26.406403],[90.412791,26.406271],[90.412781,26.406266],[90.412581,26.406156],[90.412567,26.406148],[90.412086,26.405883],[90.412067,26.405872],[90.412027,26.405851],[90.412026,26.40585],[90.411529,26.405576],[90.411526,26.405575],[90.411405,26.405508],[90.411389,26.405499],[90.411176,26.405382],[90.410942,26.405251],[90.410941,26.405251],[90.410713,26.405123],[90.410699,26.405116],[90.410542,26.405028],[90.410521,26.405017],[90.410393,26.404945],[90.410364,26.404929],[90.410135,26.404801],[90.410124,26.404795],[90.409894,26.404667],[90.409889,26.404664],[90.409621,26.404515],[90.409609,26.404508],[90.409419,26.404402],[90.409412,26.404398],[90.409104,26.404227],[90.409081,26.404214],[90.408852,26.404086],[90.408846,26.404083],[90.408698,26.404],[90.408696,26.403999],[90.408348,26.403805],[90.408344,26.403803],[90.408289,26.403772],[90.408289,26.403772],[90.407953,26.403585],[90.407917,26.403565],[90.407914,26.403563],[90.407896,26.403553],[90.407887,26.403548],[90.407845,26.403525],[90.407825,26.403513],[90.407819,26.40351],[90.407769,26.403527],[90.407723,26.403542],[90.406859,26.403831],[90.406854,26.403832],[90.406429,26.403974],[90.406419,26.403977],[90.405439,26.404304],[90.405407,26.404315],[90.404935,26.404472],[90.404912,26.40448],[90.404463,26.40463],[90.404372,26.404831],[90.404366,26.404844],[90.404366,26.404844],[90.404364,26.404848],[90.404174,26.405268],[90.404168,26.405282],[90.404143,26.405337],[90.404132,26.405361],[90.403996,26.405663],[90.403995,26.405664],[90.403932,26.405805],[90.40393,26.405808],[90.403786,26.406127],[90.403783,26.406132],[90.403715,26.406284],[90.40371,26.406294],[90.403604,26.40653],[90.403594,26.406551],[90.403564,26.406617],[90.403554,26.406639],[90.403537,26.406678],[90.403761,26.406889],[90.403794,26.40692],[90.403933,26.40705],[90.403942,26.407058],[90.404314,26.407408],[90.404381,26.407471],[90.404464,26.407548],[90.404467,26.407548],[90.406407,26.407425],[90.406453,26.407422],[90.407449,26.407358],[90.408129,26.407701],[90.409186,26.408234],[90.409318,26.408301],[90.409318,26.408302],[90.409106,26.409199],[90.40908,26.409312],[90.409066,26.40937],[90.409061,26.40939],[90.409034,26.409507],[90.408998,26.409658],[90.408923,26.409747],[90.408707,26.410006],[90.408689,26.410026],[90.408316,26.410471],[90.408302,26.410487],[90.408044,26.410795],[90.408034,26.410807],[90.407926,26.410935],[90.407906,26.410952],[90.407137,26.411574],[90.407131,26.411579],[90.406873,26.411788],[90.406441,26.412138],[90.406368,26.412197],[90.405943,26.412541],[90.405926,26.412555],[90.405207,26.413137],[90.405231,26.41335],[90.405233,26.413372],[90.405311,26.41406],[90.405316,26.414102],[90.405318,26.414119],[90.405327,26.414197],[90.405369,26.414278],[90.405485,26.414503],[90.405488,26.414509],[90.405515,26.414562],[90.405517,26.414564],[90.405662,26.414846],[90.405668,26.414857],[90.40586,26.415228],[90.405873,26.415254],[90.405954,26.41541],[90.405958,26.415419],[90.406028,26.415553],[90.406037,26.415572],[90.406128,26.415747],[90.406149,26.415788],[90.406215,26.415916],[90.406217,26.415919],[90.406242,26.415968],[90.406243,26.41597],[90.406324,26.416128],[90.406374,26.416198],[90.406375,26.4162],[90.406579,26.416489],[90.406585,26.416497],[90.406733,26.416709],[90.406734,26.416709],[90.406764,26.416753],[90.406766,26.416754],[90.406884,26.416922],[90.406884,26.416923],[90.406916,26.416969],[90.406918,26.416971],[90.40702,26.417117],[90.407021,26.417118],[90.407126,26.417266],[90.407126,26.417267],[90.407161,26.417317],[90.407171,26.417331],[90.407231,26.417416],[90.407246,26.417437],[90.407246,26.417438],[90.407655,26.418018],[90.407943,26.418428],[90.407947,26.418429],[90.408445,26.418618],[90.409241,26.418919],[90.409394,26.419192],[90.409461,26.419312],[90.409527,26.41943],[90.409847,26.42],[90.410048,26.420358],[90.410118,26.420684],[90.410424,26.422099],[90.412224,26.425018],[90.413686,26.426563],[90.414161,26.427065],[90.414639,26.42757],[90.414758,26.42776],[90.414915,26.42801],[90.415572,26.429059],[90.415257,26.430669],[90.413769,26.430796],[90.411158,26.430115],[90.410439,26.429675],[90.410434,26.429672],[90.408305,26.428368],[90.408302,26.428366],[90.404879,26.427685],[90.403572,26.428745],[90.404194,26.431786],[90.405885,26.434349],[90.405949,26.434445],[90.40686,26.435827],[90.406981,26.437753],[90.405745,26.437816],[90.405739,26.437816],[90.403072,26.436013],[90.399968,26.433967],[90.399966,26.433965],[90.399288,26.434134],[90.397721,26.434525],[90.396729,26.437881],[90.397216,26.440245],[90.398263,26.441157],[90.398411,26.441286],[90.398774,26.441602],[90.399558,26.441934],[90.399559,26.441935],[90.400338,26.442265],[90.401706,26.442315],[90.40342,26.442162],[90.403872,26.442121],[90.404238,26.442088],[90.404566,26.442059],[90.405087,26.442011],[90.405123,26.442007],[90.406817,26.442358],[90.408586,26.442724],[90.412104,26.444234],[90.412279,26.444399],[90.413227,26.445286],[90.415522,26.447436],[90.41877,26.448735],[90.419708,26.448706],[90.419139,26.445502],[90.418921,26.443912],[90.41868,26.44223],[90.417934,26.439241],[90.417606,26.436899],[90.419617,26.437279],[90.421019,26.437459],[90.42289,26.437319],[90.425092,26.436899],[90.426682,26.436568],[90.430557,26.435308],[90.431588,26.434987],[90.430339,26.433727],[90.427849,26.430406],[90.427759,26.428335],[90.429269,26.428225],[90.430109,26.427134],[90.429989,26.425373],[90.429869,26.424764],[90.42837,26.422262],[90.42668,26.419681],[90.425931,26.416908],[90.426079,26.415547],[90.427009,26.415459],[90.429208,26.416628],[90.430999,26.416588],[90.431977,26.415689],[90.432777,26.414197],[90.433381,26.41336],[90.434966,26.414147],[90.438514,26.41697],[90.441174,26.418099],[90.443672,26.41762],[90.445613,26.418099],[90.444722,26.420601],[90.442945,26.421],[90.440936,26.422292],[90.440437,26.424305],[90.441696,26.424222],[90.444544,26.424102],[90.447035,26.425254],[90.447223,26.426954],[90.446483,26.427686],[90.445823,26.429016],[90.444005,26.428955],[90.442847,26.428896],[90.44281,26.429062],[90.442485,26.430535],[90.443396,26.432296],[90.445028,26.43373],[90.444855,26.433897],[90.444677,26.435159],[90.444557,26.43667],[90.445096,26.439011],[90.444436,26.440102],[90.442327,26.441362],[90.441259,26.441291],[90.438129,26.441341],[90.434612,26.442287],[90.434574,26.443542],[90.434662,26.445924],[90.433917,26.449196],[90.433167,26.450646],[90.431935,26.452772],[90.431935,26.452773],[90.431833,26.452935],[90.432746,26.454423],[90.434298,26.456958],[90.437163,26.461052],[90.438349,26.459288],[90.440218,26.457745],[90.44377,26.455686],[90.446014,26.454336],[90.447126,26.452757],[90.450795,26.453418],[90.454824,26.453489],[90.45976,26.452999],[90.459931,26.454086],[90.460298,26.456066],[90.46066,26.457938],[90.461679,26.459855],[90.462828,26.462263],[90.463191,26.464496],[90.463166,26.464681],[90.46487,26.465275],[90.468298,26.464434],[90.475754,26.462742],[90.477063,26.46262],[90.4766,26.461005],[90.476949,26.459191],[90.477138,26.456791],[90.47653,26.454622],[90.473828,26.453726],[90.470094,26.453485],[90.466721,26.453293],[90.463964,26.452816],[90.462405,26.451978],[90.461437,26.450715],[90.459515,26.447108],[90.458812,26.444974],[90.458486,26.443977],[90.457104,26.438917],[90.456193,26.43267],[90.457511,26.432119],[90.45971,26.431729],[90.46215,26.431218],[90.463167,26.430938],[90.463126,26.429328],[90.463164,26.426851],[90.463208,26.42571],[90.462044,26.423392],[90.460038,26.421092],[90.459376,26.419194],[90.459665,26.416482],[90.460274,26.41368],[90.460193,26.412363],[90.460021,26.410712],[90.461563,26.409651],[90.463787,26.40905],[90.46533,26.407967],[90.468317,26.406622],[90.469589,26.406251],[90.471007,26.406124],[90.471533,26.406079],[90.471799,26.405885],[90.471919,26.405623],[90.471723,26.404571],[90.471723,26.404571],[90.471775,26.404275],[90.47141,26.403934],[90.470545,26.403863],[90.470116,26.403651],[90.469801,26.402957],[90.469299,26.402365],[90.469106,26.401748],[90.468768,26.401146],[90.468361,26.400879],[90.468014,26.400705],[90.467836,26.400367],[90.467909,26.399848],[90.467925,26.399104],[90.468168,26.398364],[90.468658,26.397703],[90.469096,26.397507],[90.469387,26.397382],[90.469331,26.397139],[90.469106,26.397005],[90.469153,26.396712],[90.469588,26.396664],[90.469755,26.396574],[90.469967,26.396336],[90.470032,26.396151],[90.470019,26.395834],[90.470292,26.395616],[90.470669,26.395344],[90.471006,26.395071],[90.471377,26.395077],[90.471889,26.395254],[90.472159,26.395203],[90.473119,26.394717],[90.473787,26.394376],[90.474148,26.393899],[90.474122,26.393228],[90.473602,26.392484],[90.47366,26.391759],[90.473638,26.390848],[90.473895,26.389494],[90.474787,26.387371],[90.475451,26.386285],[90.47639,26.385818],[90.477008,26.385885],[90.477413,26.386227],[90.477916,26.386813],[90.479052,26.387586],[90.480303,26.388892],[90.48074,26.389699],[90.480459,26.390289],[90.479996,26.390709],[90.479045,26.39073],[90.478547,26.390888],[90.478541,26.391148],[90.478753,26.391822],[90.479419,26.392559],[90.480081,26.393445],[90.480762,26.395317],[90.480765,26.396135],[90.480662,26.397101],[90.480196,26.397632],[90.480115,26.398505],[90.480197,26.39935],[90.480915,26.400497],[90.481227,26.401376],[90.481275,26.401973],[90.480883,26.402951],[90.480777,26.404028],[90.480832,26.405294],[90.48037,26.406588],[90.479795,26.407396],[90.478433,26.408289],[90.47826,26.408677],[90.478225,26.409327],[90.47866,26.41019],[90.479094,26.411128],[90.479457,26.412492],[90.479627,26.413221],[90.479581,26.413443],[90.479533,26.413758],[90.47987,26.414397],[90.480183,26.415202],[90.480171,26.415741],[90.480253,26.416236],[90.480569,26.416911],[90.480788,26.418217],[90.480599,26.419906],[90.480865,26.420588],[90.481626,26.420037],[90.483294,26.418777],[90.484425,26.418298],[90.485212,26.417918],[90.485212,26.417918],[90.487612,26.417742],[90.491141,26.418808],[90.493269,26.419664],[90.494787,26.422034],[90.496047,26.424883],[90.496632,26.42839],[90.496976,26.429714],[90.496976,26.429714],[90.497043,26.430003],[90.497043,26.430003],[90.500005,26.428429],[90.504101,26.426255],[90.503478,26.429654],[90.504577,26.433908],[90.505292,26.436677],[90.506501,26.441692],[90.508013,26.447073],[90.509732,26.448898],[90.509135,26.451724],[90.505677,26.455459],[90.501423,26.457826],[90.500003,26.458542],[90.49818,26.459465],[90.500003,26.462721],[90.500004,26.462723],[90.500939,26.464392],[90.504316,26.467717],[90.504316,26.467717],[90.503087,26.468642],[90.502886,26.471759],[90.502906,26.471807],[90.505325,26.478065],[90.507413,26.483222],[90.50754,26.483535],[90.509327,26.487949],[90.511513,26.496741],[90.511696,26.497283],[90.509667,26.499062],[90.509938,26.500008],[90.510082,26.500511],[90.510082,26.500511],[90.514212,26.50259],[90.517736,26.508176],[90.519571,26.509237],[90.520909,26.508376],[90.522672,26.508179],[90.524039,26.507585],[90.526023,26.506436],[90.527037,26.505762],[90.52814,26.505327],[90.529639,26.504375],[90.530609,26.503384],[90.532736,26.502791],[90.533035,26.502707],[90.53516,26.502115]]]}},{"type":"Feature","properties":{"OBJECTID":5890,"state_lgd":"18","state_name":"ASSAM","district_lgd":"319","district_name":"BONGAIGAON","district_name_source":"district_table","subdistrict_lgd":"06191","subdistrict_name":"MANIKPUR CIRCLE","subdistrict_type":"","name_corrupted":false,"remarks":""},"geometry":{"type":"Polygon","coordinates":[[[90.851702,26.527022],[90.851702,26.527022],[90.851351,26.526295],[90.850869,26.525153],[90.850478,26.52398],[90.850348,26.523226],[90.850454,26.521967],[90.85063,26.520478],[90.850926,26.519242],[90.850981,26.5181],[90.850967,26.517116],[90.851373,26.515785],[90.851343,26.514765],[90.851337,26.514744],[90.850992,26.513673],[90.850777,26.512508],[90.850005,26.510681],[90.849764,26.509832],[90.849469,26.50818],[90.848938,26.50698],[90.84813,26.50577],[90.847213,26.504822],[90.846245,26.503658],[90.845357,26.502787],[90.844415,26.502132],[90.843663,26.5015],[90.841813,26.500051],[90.841801,26.500045],[90.8418,26.500051],[90.841842,26.500745],[90.841739,26.501775],[90.840609,26.502362],[90.839568,26.502749],[90.839281,26.503147],[90.837855,26.503151],[90.836432,26.502978],[90.835034,26.502957],[90.833279,26.502628],[90.832111,26.502284],[90.83019,26.501902],[90.829078,26.501533],[90.827726,26.500606],[90.827022,26.500047],[90.826402,26.499358],[90.826003,26.498077],[90.825826,26.495556],[90.825872,26.493516],[90.825117,26.492315],[90.824185,26.491115],[90.823608,26.490674],[90.822587,26.490514],[90.821565,26.490634],[90.820455,26.491073],[90.819299,26.491833],[90.8173,26.493392],[90.816056,26.494712],[90.814856,26.496672],[90.813877,26.498472],[90.813611,26.498752],[90.811468,26.500041],[90.810463,26.500423],[90.810145,26.500551],[90.809403,26.500737],[90.808895,26.500746],[90.8086,26.500713],[90.807807,26.500039],[90.807518,26.499736],[90.805511,26.497637],[90.804579,26.49612],[90.805191,26.495543],[90.805869,26.494352],[90.80594,26.493223],[90.803941,26.489084],[90.80273,26.485284],[90.802055,26.483094],[90.802411,26.482048],[90.803696,26.48092],[90.803912,26.479828],[90.803738,26.477878],[90.805273,26.477396],[90.806291,26.477266],[90.807309,26.477492],[90.808383,26.476464],[90.810349,26.476013],[90.813157,26.475482],[90.815569,26.475339],[90.817745,26.475949],[90.818302,26.475661],[90.818357,26.475051],[90.818172,26.474546],[90.819136,26.471681],[90.818886,26.470295],[90.816712,26.467749],[90.816532,26.466386],[90.816427,26.465063],[90.817034,26.464468],[90.818569,26.464166],[90.81907,26.463842],[90.819642,26.462876],[90.819016,26.461251],[90.818967,26.460367],[90.820242,26.457835],[90.821782,26.456387],[90.823888,26.454682],[90.827168,26.453289],[90.827419,26.452725],[90.827134,26.451195],[90.827134,26.450617],[90.82749,26.449264],[90.827205,26.448298],[90.824474,26.445034],[90.823337,26.443684],[90.821037,26.440727],[90.818682,26.439535],[90.816362,26.438049],[90.811359,26.438178],[90.807929,26.439575],[90.804018,26.440462],[90.801838,26.440587],[90.799621,26.442423],[90.798958,26.443226],[90.798833,26.443483],[90.79801,26.443645],[90.796942,26.444258],[90.796331,26.444127],[90.794887,26.443593],[90.793509,26.442758],[90.790091,26.441677],[90.788367,26.440764],[90.787275,26.439942],[90.787176,26.43913],[90.787683,26.438291],[90.788365,26.437696],[90.789103,26.4359],[90.789631,26.433229],[90.790509,26.432367],[90.791843,26.431587],[90.793033,26.429661],[90.793871,26.428055],[90.796975,26.427014],[90.798734,26.426844],[90.804162,26.427533],[90.810543,26.42801],[90.812682,26.42908],[90.814827,26.430115],[90.821092,26.432396],[90.823408,26.432483],[90.829644,26.431669],[90.830691,26.431971],[90.831884,26.432743],[90.836785,26.436518],[90.840068,26.439308],[90.841771,26.441696],[90.842583,26.442255],[90.843961,26.442942],[90.845059,26.443971],[90.845676,26.444016],[90.846202,26.443885],[90.848107,26.443114],[90.849296,26.442686],[90.851772,26.441183],[90.855187,26.439555],[90.856044,26.438697],[90.860903,26.432091],[90.861559,26.431121],[90.858563,26.424211],[90.857,26.420461],[90.856334,26.420032],[90.854955,26.419775],[90.853572,26.419477],[90.853191,26.419133],[90.85294,26.418544],[90.852305,26.417054],[90.852248,26.416921],[90.851264,26.414612],[90.849625,26.410766],[90.849187,26.410009],[90.848895,26.409503],[90.848347,26.408554],[90.845541,26.406153],[90.845351,26.405634],[90.845129,26.404312],[90.844968,26.403354],[90.844958,26.403299],[90.844912,26.403293],[90.844745,26.403274],[90.84464,26.403259],[90.844117,26.403186],[90.843398,26.402313],[90.841562,26.400084],[90.839574,26.399017],[90.83464,26.398697],[90.83008,26.398374],[90.824699,26.396353],[90.824636,26.396412],[90.82149,26.399323],[90.821391,26.401603],[90.821391,26.401603],[90.821282,26.404126],[90.819932,26.405628],[90.819553,26.40605],[90.818185,26.40681],[90.815821,26.408378],[90.815485,26.408742],[90.814545,26.409757],[90.81181,26.412169],[90.810852,26.413014],[90.804225,26.415365],[90.80175,26.415571],[90.800444,26.41568],[90.796388,26.414216],[90.792106,26.413167],[90.788277,26.411468],[90.787863,26.411255],[90.783638,26.409079],[90.780831,26.406443],[90.777538,26.403515],[90.77525,26.40148],[90.770261,26.397778],[90.770053,26.397624],[90.770018,26.397456],[90.769451,26.394712],[90.770093,26.389996],[90.76976,26.386785],[90.768034,26.384682],[90.767708,26.384483],[90.767697,26.384476],[90.767696,26.384476],[90.767692,26.384474],[90.767692,26.384474],[90.767692,26.384474],[90.76456,26.382567],[90.755571,26.382109],[90.751841,26.38761],[90.75178,26.38867],[90.751694,26.390141],[90.752259,26.395248],[90.753578,26.397478],[90.753578,26.397478],[90.755046,26.399961],[90.757794,26.402626],[90.759546,26.404487],[90.756854,26.405334],[90.753706,26.403163],[90.75024,26.404099],[90.748104,26.403611],[90.74737,26.402668],[90.74731,26.402591],[90.746835,26.401982],[90.745825,26.401307],[90.743394,26.401495],[90.742773,26.402001],[90.740562,26.403804],[90.740759,26.406128],[90.741064,26.409725],[90.744751,26.409471],[90.745897,26.412787],[90.74618,26.41312],[90.747021,26.413758],[90.748116,26.414588],[90.74912,26.415494],[90.752387,26.41513],[90.754602,26.41572],[90.756152,26.419418],[90.755528,26.420212],[90.754338,26.421723],[90.751335,26.422162],[90.749125,26.421618],[90.746897,26.42048],[90.745954,26.420018],[90.745698,26.419727],[90.744862,26.418777],[90.744107,26.417919],[90.74245,26.415863],[90.741704,26.415083],[90.740551,26.413878],[90.739574,26.411107],[90.73789,26.407756],[90.737195,26.406373],[90.73701,26.404184],[90.736928,26.403219],[90.735131,26.403899],[90.732669,26.403736],[90.732465,26.406656],[90.732047,26.407996],[90.731629,26.409337],[90.731097,26.412155],[90.730603,26.413598],[90.730603,26.413598],[90.727983,26.413038],[90.725392,26.412345],[90.725139,26.412227],[90.722557,26.413055],[90.722452,26.412991],[90.719658,26.411304],[90.719496,26.411206],[90.716695,26.409506],[90.71361,26.408104],[90.710602,26.406632],[90.708822,26.407197],[90.70724,26.407698],[90.706509,26.410234],[90.710071,26.4145],[90.711376,26.416229],[90.713043,26.418436],[90.714119,26.422027],[90.713945,26.422826],[90.713637,26.424241],[90.712606,26.426678],[90.710331,26.427808],[90.707448,26.42601],[90.707852,26.423477],[90.707642,26.420986],[90.705524,26.418487],[90.703461,26.416633],[90.701441,26.414684],[90.7013,26.41457],[90.699118,26.412801],[90.696293,26.411482],[90.695392,26.412352],[90.694038,26.413659],[90.694205,26.415643],[90.695145,26.418223],[90.696088,26.420247],[90.697985,26.425917],[90.696912,26.42817],[90.694901,26.429375],[90.691052,26.428339],[90.688114,26.427375],[90.687922,26.427382],[90.687656,26.427393],[90.684901,26.427507],[90.681218,26.429058],[90.679561,26.427733],[90.678089,26.427269],[90.678061,26.427261],[90.677867,26.427199],[90.67639,26.426187],[90.673861,26.425524],[90.671523,26.426519],[90.669669,26.427759],[90.668513,26.42872],[90.667245,26.430801],[90.666663,26.433068],[90.666819,26.434913],[90.667955,26.436784],[90.669848,26.437421],[90.671509,26.43798],[90.673733,26.438291],[90.67396,26.438323],[90.675563,26.436728],[90.67753,26.435164],[90.677605,26.435104],[90.680424,26.434912],[90.682898,26.435531],[90.685418,26.437308],[90.686079,26.438187],[90.686811,26.439161],[90.688047,26.440979],[90.688094,26.441532],[90.688405,26.445222],[90.687895,26.447113],[90.686176,26.448279],[90.685994,26.448403],[90.683464,26.447741],[90.681198,26.447287],[90.681048,26.447257],[90.678798,26.446807],[90.675997,26.446368],[90.674672,26.446161],[90.671532,26.445587],[90.671104,26.445533],[90.668406,26.445197],[90.668033,26.445168],[90.664619,26.444899],[90.661749,26.445095],[90.661442,26.445115],[90.658716,26.447018],[90.656597,26.448786],[90.655888,26.449337],[90.654372,26.450515],[90.652824,26.45294],[90.651293,26.454703],[90.64991,26.456294],[90.645112,26.458064],[90.641653,26.455981],[90.64127,26.455751],[90.641283,26.455912],[90.641306,26.456182],[90.64004,26.456269],[90.639911,26.459162],[90.639702,26.463844],[90.638867,26.469662],[90.638851,26.469768],[90.63749,26.472288],[90.635363,26.473635],[90.634496,26.476335],[90.634583,26.477376],[90.634636,26.478012],[90.63454,26.479046],[90.634322,26.481404],[90.634462,26.483076],[90.634553,26.484153],[90.634552,26.487621],[90.634552,26.488604],[90.631322,26.491183],[90.630146,26.491904],[90.625381,26.493172],[90.624037,26.493899],[90.624034,26.493901],[90.624032,26.493901],[90.624034,26.493902],[90.624035,26.493903],[90.62888,26.496611],[90.630508,26.496986],[90.634865,26.497946],[90.636417,26.498289],[90.644423,26.500054],[90.655881,26.504999],[90.666132,26.503786],[90.66841,26.500417],[90.668471,26.500048],[90.668472,26.500048],[90.668564,26.499789],[90.675064,26.49947],[90.682203,26.499074],[90.682468,26.499061],[90.681328,26.496049],[90.680053,26.492615],[90.678184,26.489436],[90.678895,26.487421],[90.679682,26.486475],[90.682396,26.484345],[90.68562,26.481796],[90.687036,26.481346],[90.6901,26.481424],[90.693691,26.482053],[90.697106,26.482604],[90.701572,26.483311],[90.705587,26.483124],[90.710241,26.482676],[90.71313,26.482043],[90.715143,26.481024],[90.71698,26.479209],[90.71584,26.476923],[90.714087,26.473928],[90.713209,26.470538],[90.713644,26.467777],[90.714814,26.465232],[90.716118,26.461177],[90.716139,26.457546],[90.713845,26.454582],[90.710096,26.451602],[90.71626,26.445552],[90.72127,26.446404],[90.728171,26.446332],[90.73237,26.444421],[90.735674,26.441844],[90.739603,26.443021],[90.741579,26.444798],[90.739361,26.445102],[90.738719,26.446567],[90.740162,26.451506],[90.741666,26.454812],[90.742617,26.454775],[90.74382,26.459359],[90.744046,26.460388],[90.743728,26.462559],[90.744271,26.464634],[90.744724,26.465622],[90.731005,26.471826],[90.732295,26.475743],[90.732637,26.477378],[90.732638,26.477719],[90.731845,26.480309],[90.730899,26.480344],[90.731015,26.482899],[90.733469,26.485129],[90.734718,26.485912],[90.739716,26.487646],[90.741723,26.488087],[90.743717,26.488537],[90.744275,26.488599],[90.746264,26.488802],[90.747597,26.488852],[90.749869,26.488667],[90.75057,26.488318],[90.752341,26.487438],[90.756988,26.4837],[90.759673,26.48329],[90.761634,26.483215],[90.764617,26.484603],[90.76606,26.485441],[90.766281,26.485843],[90.766737,26.486349],[90.767168,26.48662],[90.768369,26.487685],[90.768369,26.489378],[90.773987,26.498878],[90.774295,26.500019],[90.77514,26.50152],[90.777047,26.504091],[90.777397,26.504826],[90.776139,26.507791],[90.775521,26.507958],[90.772697,26.507939],[90.767546,26.506852],[90.764231,26.506221],[90.76364,26.506413],[90.761528,26.507185],[90.760908,26.507478],[90.760335,26.508148],[90.758836,26.510515],[90.757798,26.512135],[90.757531,26.512885],[90.757582,26.514622],[90.75817,26.516016],[90.759449,26.517823],[90.76054,26.518917],[90.761954,26.519543],[90.768013,26.51999],[90.76956,26.520614],[90.771721,26.521655],[90.772572,26.523933],[90.773781,26.527928],[90.774764,26.530636],[90.776044,26.530932],[90.779349,26.530657],[90.785221,26.529238],[90.787067,26.527513],[90.787689,26.524276],[90.78709,26.520492],[90.786884,26.518098],[90.788226,26.517538],[90.789367,26.517832],[90.792858,26.519522],[90.79721,26.521502],[90.799156,26.522086],[90.80108,26.522367],[90.804099,26.521835],[90.808893,26.521179],[90.814666,26.522023],[90.817312,26.522011],[90.828267,26.52233],[90.833223,26.522773],[90.83651,26.523452],[90.837343,26.523766],[90.839006,26.526006],[90.842839,26.531877],[90.843282,26.532136],[90.845083,26.531534],[90.847053,26.530859],[90.849007,26.52958],[90.850825,26.528072],[90.851702,26.527022],[90.851702,26.527022]]]}}]}