{
"type": "FeatureCollection",
"name": "603_CHENNAI",
"crs": { "type": "name", "properties": { "name": "urn:ogc:def:crs:OGC:1.3:CRS84" } },
"xy_coordinate_resolution": 1e-05,
"features": [
{ "type": "Feature", "properties": { "OBJECTID": 5214, "state_lgd": "33", "state_name": "TAMIL NADU", "district_lgd": "603", "district_name": "CHENNAI", "district_name_source": "district_table", "subdistrict_lgd": "05705", "subdistrict_name": "SHOLINGANALLUR", "subdistrict_type": "", "name_corrupted": false, "remarks": "", "label_lon": 80.230801957249554, "label_lat": 12.923948587340254 }, "geometry": { "type": "Polygon", "coordinates": [ [ [ 80.25302, 12.97667 ], [ 80.26783, 12.97509 ], [ 80.25923, 12.93353 ], [ 80.24935, 12.85717 ], [ 80.23638, 12.85834 ], [ 80.23287, 12.85221 ], [ 80.22002, 12.85251 ], [ 80.21958, 12.85405 ], [ 80.21776, 12.85455 ], [ 80.2172, 12.85616 ], [ 80.21585, 12.8567 ], [ 80.21288, 12.86085 ], [ 80.20893, 12.87285 ], [ 80.20933, 12.87551 ], [ 80.2135, 12.88041 ], [ 80.21648, 12.89021 ], [ 80.21734, 12.89821 ], [ 80.21738, 12.91056 ], [ 80.19883, 12.9111 ], [ 80.19876, 12.91376 ], [ 80.19999, 12.91652 ], [ 80.2014, 12.92388 ], [ 80.19871, 12.92712 ], [ 80.19815, 12.93179 ], [ 80.19922, 12.93336 ], [ 80.19646, 12.93546 ], [ 80.19632, 12.93633 ], [ 80.19432, 12.93716 ], [ 80.18794, 12.93785 ], [ 80.19011, 12.94192 ], [ 80.19426, 12.9428 ], [ 80.19823, 12.94555 ], [ 80.19923, 12.9473 ], [ 80.19894, 12.95032 ], [ 80.20229, 12.95311 ], [ 80.2008, 12.95625 ], [ 80.20076, 12.95886 ], [ 80.19563, 12.96021 ], [ 80.19588, 12.96854 ], [ 80.19686, 12.96998 ], [ 80.19199, 12.97185 ], [ 80.19184, 12.9735 ], [ 80.19323, 12.97736 ], [ 80.19253, 12.98152 ], [ 80.19512, 12.98228 ], [ 80.19831, 12.98167 ], [ 80.20047, 12.97998 ], [ 80.20443, 12.97964 ], [ 80.20749, 12.97728 ], [ 80.2091, 12.97695 ], [ 80.20889, 12.97566 ], [ 80.21625, 12.96739 ], [ 80.22121, 12.96508 ], [ 80.22881, 12.97256 ], [ 80.24366, 12.9799 ], [ 80.24335, 12.98392 ], [ 80.25298, 12.98033 ], [ 80.25302, 12.97667 ] ] ] } },
{ "type": "Feature", "properties": { "OBJECTID": 5474, "state_lgd": "33", "state_name": "TAMIL NADU", "district_lgd": "603", "district_name": "CHENNAI", "district_name_source": "district_table", "subdistrict_lgd": "05982", "subdistrict_name": "TIRUVOTTIYUR", "subdistrict_type": "", "name_corrupted": false, "remarks": "", "label_lon": 80.286168758332508, "label_lat": 13.185066534791828 }, "geometry": { "type": "Polygon", "coordinates": [ [ [ 80.33188, 13.23544 ], [ 80.33188, 13.23471 ], [ 80.33293, 13.23539 ], [ 80.33343, 13.23483 ], [ 80.32931, 13.22472 ], [ 80.32008, 13.19069 ], [ 80.31234, 13.17053 ], [ 80.31278, 13.16745 ], [ 80.30246, 13.14485 ], [ 80.30112, 13.14309 ], [ 80.29666, 13.14427 ], [ 80.29064, 13.14414 ], [ 80.28636, 13.14597 ], [ 80.27415, 13.13917 ], [ 80.26525, 13.14089 ], [ 80.26602, 13.14702 ], [ 80.26759, 13.14707 ], [ 80.26825, 13.14827 ], [ 80.26352, 13.1499 ], [ 80.25819, 13.14985 ], [ 80.25954, 13.16023 ], [ 80.25673, 13.16362 ], [ 80.25004, 13.1663 ], [ 80.25196, 13.17073 ], [ 80.25238, 13.17779 ], [ 80.25322, 13.17905 ], [ 80.25186, 13.18103 ], [ 80.25053, 13.18101 ], [ 80.25136, 13.18799 ], [ 80.25006, 13.18927 ], [ 80.24165, 13.1924 ], [ 80.23601, 13.19253 ], [ 80.2334, 13.19016 ], [ 80.23053, 13.18896 ], [ 80.22805, 13.19781 ], [ 80.23773, 13.19666 ], [ 80.23855, 13.19948 ], [ 80.24888, 13.19865 ], [ 80.24906, 13.20472 ], [ 80.24999, 13.20609 ], [ 80.25604, 13.20588 ], [ 80.25698, 13.20484 ], [ 80.2653, 13.20335 ], [ 80.27044, 13.20327 ], [ 80.27132, 13.20435 ], [ 80.2708, 13.20624 ], [ 80.27268, 13.21806 ], [ 80.27079, 13.22161 ], [ 80.2707, 13.22408 ], [ 80.27698, 13.22385 ], [ 80.28378, 13.2249 ], [ 80.2839, 13.2213 ], [ 80.28615, 13.21888 ], [ 80.29058, 13.21854 ], [ 80.29874, 13.21266 ], [ 80.30335, 13.21285 ], [ 80.31021, 13.21608 ], [ 80.31746, 13.22645 ], [ 80.31768, 13.22962 ], [ 80.32506, 13.23236 ], [ 80.32954, 13.23505 ], [ 80.33188, 13.23544 ] ] ] } },
{ "type": "Feature", "properties": { "OBJECTID": 5475, "state_lgd": "33", "state_name": "TAMIL NADU", "district_lgd": "603", "district_name": "CHENNAI", "district_name_source": "district_table", "subdistrict_lgd": "05701", "subdistrict_name": "MADHAVARAM", "subdistrict_type": "", "name_corrupted": false, "remarks": "", "label_lon": 80.222045037970844, "label_lat": 13.156756921562586 }, "geometry": { "type": "Polygon", "coordinates": [ [ [ 80.24165, 13.1924 ], [ 80.25006, 13.18927 ], [ 80.25136, 13.18799 ], [ 80.25053, 13.18101 ], [ 80.25186, 13.18103 ], [ 80.25322, 13.17905 ], [ 80.25238, 13.17779 ], [ 80.25196, 13.17073 ], [ 80.25004, 13.1663 ], [ 80.25673, 13.16362 ], [ 80.25868, 13.16196 ], [ 80.25956, 13.15924 ], [ 80.25819, 13.14985 ], [ 80.25145, 13.14982 ], [ 80.24947, 13.14653 ], [ 80.24754, 13.14734 ], [ 80.24735, 13.14406 ], [ 80.24234, 13.14456 ], [ 80.24229, 13.14348 ], [ 80.24016, 13.14324 ], [ 80.2405, 13.13591 ], [ 80.24308, 13.13567 ], [ 80.24289, 13.13389 ], [ 80.24188, 13.13389 ], [ 80.24142, 13.13249 ], [ 80.24145, 13.12808 ], [ 80.23549, 13.12755 ], [ 80.23461, 13.1267 ], [ 80.22636, 13.12669 ], [ 80.22235, 13.12994 ], [ 80.2139, 13.13119 ], [ 80.20437, 13.12722 ], [ 80.2007, 13.1309 ], [ 80.19649, 13.13025 ], [ 80.19531, 13.13076 ], [ 80.19254, 13.13462 ], [ 80.19267, 13.13579 ], [ 80.18912, 13.13733 ], [ 80.18833, 13.13951 ], [ 80.18741, 13.14003 ], [ 80.18281, 13.13744 ], [ 80.17545, 13.13883 ], [ 80.17713, 13.13963 ], [ 80.17775, 13.14222 ], [ 80.17574, 13.1459 ], [ 80.17597, 13.14734 ], [ 80.17799, 13.14775 ], [ 80.17848, 13.14913 ], [ 80.18144, 13.14735 ], [ 80.1845, 13.14756 ], [ 80.19449, 13.1538 ], [ 80.1924, 13.16033 ], [ 80.19388, 13.16437 ], [ 80.19336, 13.16601 ], [ 80.1908, 13.16872 ], [ 80.19248, 13.17315 ], [ 80.1942, 13.17335 ], [ 80.19467, 13.17516 ], [ 80.19754, 13.17436 ], [ 80.19915, 13.17545 ], [ 80.19961, 13.17642 ], [ 80.19871, 13.17949 ], [ 80.19956, 13.18123 ], [ 80.20184, 13.18137 ], [ 80.20725, 13.17681 ], [ 80.21593, 13.17226 ], [ 80.21955, 13.17893 ], [ 80.22396, 13.18426 ], [ 80.22361, 13.18576 ], [ 80.22567, 13.1849 ], [ 80.22752, 13.18537 ], [ 80.22874, 13.18447 ], [ 80.23048, 13.18536 ], [ 80.23053, 13.18896 ], [ 80.2334, 13.19016 ], [ 80.23601, 13.19253 ], [ 80.24165, 13.1924 ] ] ] } },
{ "type": "Feature", "properties": { "OBJECTID": 5476, "state_lgd": "33", "state_name": "TAMIL NADU", "district_lgd": "603", "district_name": "CHENNAI", "district_name_source": "district_table", "subdistrict_lgd": "07168", "subdistrict_name": "TONDIARPET", "subdistrict_type": "", "name_corrupted": false, "remarks": "", "label_lon": 80.286651754823737, "label_lat": 13.122889237635908 }, "geometry": { "type": "Polygon", "coordinates": [ [ [ 80.29284, 13.1439 ], [ 80.29666, 13.14427 ], [ 80.30112, 13.14309 ], [ 80.29795, 13.13495 ], [ 80.30272, 13.13367 ], [ 80.30425, 13.13096 ], [ 80.30329, 13.12939 ], [ 80.30108, 13.13221 ], [ 80.29784, 13.13271 ], [ 80.29763, 13.13004 ], [ 80.29915, 13.12906 ], [ 80.29686, 13.12393 ], [ 80.2984, 13.1227 ], [ 80.29961, 13.12293 ], [ 80.305, 13.13059 ], [ 80.30557, 13.13023 ], [ 80.30042, 13.12141 ], [ 80.30208, 13.11483 ], [ 80.30497, 13.11022 ], [ 80.30387, 13.10604 ], [ 80.30279, 13.10682 ], [ 80.30353, 13.10994 ], [ 80.3019, 13.11218 ], [ 80.30018, 13.10842 ], [ 80.29931, 13.10814 ], [ 80.29968, 13.10682 ], [ 80.29844, 13.10048 ], [ 80.30139, 13.09944 ], [ 80.30173, 13.09867 ], [ 80.28474, 13.10503 ], [ 80.27991, 13.10566 ], [ 80.27304, 13.10377 ], [ 80.27119, 13.10498 ], [ 80.27159, 13.10634 ], [ 80.26978, 13.10966 ], [ 80.26944, 13.1114 ], [ 80.27278, 13.12491 ], [ 80.27015, 13.12708 ], [ 80.27415, 13.13917 ], [ 80.28636, 13.14597 ], [ 80.29284, 13.1439 ] ] ] } },
{ "type": "Feature", "properties": { "OBJECTID": 5477, "state_lgd": "33", "state_name": "TAMIL NADU", "district_lgd": "603", "district_name": "CHENNAI", "district_name_source": "district_table", "subdistrict_lgd": "07166", "subdistrict_name": "PERAMBUR", "subdistrict_type": "", "name_corrupted": false, "remarks": "", "label_lon": 80.254964348674136, "label_lat": 13.123536879150286 }, "geometry": { "type": "Polygon", "coordinates": [ [ [ 80.27415, 13.13917 ], [ 80.27015, 13.12708 ], [ 80.27278, 13.12491 ], [ 80.26944, 13.1114 ], [ 80.27159, 13.10634 ], [ 80.27118, 13.10495 ], [ 80.27012, 13.10374 ], [ 80.26837, 13.10369 ], [ 80.26819, 13.10173 ], [ 80.26458, 13.10193 ], [ 80.26424, 13.09943 ], [ 80.26084, 13.09994 ], [ 80.25825, 13.09877 ], [ 80.25457, 13.09949 ], [ 80.2473, 13.09684 ], [ 80.24266, 13.0975 ], [ 80.24381, 13.10189 ], [ 80.24245, 13.10584 ], [ 80.24432, 13.11042 ], [ 80.24427, 13.11253 ], [ 80.23886, 13.11171 ], [ 80.23626, 13.11345 ], [ 80.23557, 13.11166 ], [ 80.23323, 13.11228 ], [ 80.2349, 13.11622 ], [ 80.23562, 13.1245 ], [ 80.23471, 13.12461 ], [ 80.23461, 13.1267 ], [ 80.23549, 13.12755 ], [ 80.24145, 13.12808 ], [ 80.24142, 13.13249 ], [ 80.24188, 13.13389 ], [ 80.24289, 13.13389 ], [ 80.24308, 13.13567 ], [ 80.2405, 13.13591 ], [ 80.24016, 13.14324 ], [ 80.24229, 13.14348 ], [ 80.24234, 13.14456 ], [ 80.24735, 13.14406 ], [ 80.24754, 13.14734 ], [ 80.24947, 13.14653 ], [ 80.25145, 13.14982 ], [ 80.26352, 13.1499 ], [ 80.26825, 13.14827 ], [ 80.26759, 13.14707 ], [ 80.26602, 13.14702 ], [ 80.26525, 13.14089 ], [ 80.27415, 13.13917 ] ] ] } },
{ "type": "Feature", "properties": { "OBJECTID": 5478, "state_lgd": "33", "state_name": "TAMIL NADU", "district_lgd": "603", "district_name": "CHENNAI", "district_name_source": "district_table", "subdistrict_lgd": "07163", "subdistrict_name": "KOLATHUR", "subdistrict_type": "", "name_corrupted": false, "remarks": "", "label_lon": 80.22259749643743, "label_lat": 13.117691930627748 }, "geometry": { "type": "Polygon", "coordinates": [ [ [ 80.23461, 13.1267 ], [ 80.23471, 13.12461 ], [ 80.23562, 13.1245 ], [ 80.2349, 13.11622 ], [ 80.23323, 13.11228 ], [ 80.23557, 13.11166 ], [ 80.23626, 13.11345 ], [ 80.23886, 13.11171 ], [ 80.24352, 13.11261 ], [ 80.24448, 13.11204 ], [ 80.24289, 13.1069 ], [ 80.24028, 13.10315 ], [ 80.23422, 13.10274 ], [ 80.23365, 13.09818 ], [ 80.23132, 13.09838 ], [ 80.23174, 13.10224 ], [ 80.23099, 13.10361 ], [ 80.23273, 13.10621 ], [ 80.23323, 13.10873 ], [ 80.22424, 13.1077 ], [ 80.21804, 13.10853 ], [ 80.21476, 13.10967 ], [ 80.21287, 13.11163 ], [ 80.2132, 13.11642 ], [ 80.20994, 13.1161 ], [ 80.20239, 13.11719 ], [ 80.2019, 13.12604 ], [ 80.20418, 13.12619 ], [ 80.20437, 13.12722 ], [ 80.2139, 13.13119 ], [ 80.22235, 13.12994 ], [ 80.22636, 13.12669 ], [ 80.23461, 13.1267 ] ] ] } },
{ "type": "Feature", "properties": { "OBJECTID": 5479, "state_lgd": "33", "state_name": "TAMIL NADU", "district_lgd": "603", "district_name": "CHENNAI", "district_name_source": "district_table", "subdistrict_lgd": "05700", "subdistrict_name": "AMBATTUR", "subdistrict_type": "", "name_corrupted": false, "remarks": "", "label_lon": 80.171251099316635, "label_lat": 13.10997422357771 }, "geometry": { "type": "Polygon", "coordinates": [ [ [ 80.17072, 13.14091 ], [ 80.17532, 13.13886 ], [ 80.18281, 13.13744 ], [ 80.18741, 13.14003 ], [ 80.18833, 13.13951 ], [ 80.18912, 13.13733 ], [ 80.19267, 13.13579 ], [ 80.19254, 13.13462 ], [ 80.19531, 13.13076 ], [ 80.19649, 13.13025 ], [ 80.2007, 13.1309 ], [ 80.20437, 13.12722 ], [ 80.20418, 13.12619 ], [ 80.2019, 13.12604 ], [ 80.20251, 13.11841 ], [ 80.19735, 13.10813 ], [ 80.19529, 13.10794 ], [ 80.19428, 13.09956 ], [ 80.19603, 13.09826 ], [ 80.19397, 13.09312 ], [ 80.19658, 13.09057 ], [ 80.1961, 13.08872 ], [ 80.19138, 13.07832 ], [ 80.19109, 13.07586 ], [ 80.18695, 13.07362 ], [ 80.17834, 13.07267 ], [ 80.1735, 13.0801 ], [ 80.17386, 13.08163 ], [ 80.17121, 13.08339 ], [ 80.16809, 13.08292 ], [ 80.164, 13.08444 ], [ 80.16244, 13.08362 ], [ 80.16137, 13.08114 ], [ 80.16028, 13.08208 ], [ 80.15499, 13.08337 ], [ 80.15079, 13.08725 ], [ 80.1461, 13.08819 ], [ 80.14417, 13.09113 ], [ 80.14489, 13.09432 ], [ 80.14188, 13.0982 ], [ 80.14044, 13.09855 ], [ 80.1402, 13.10696 ], [ 80.14333, 13.11797 ], [ 80.14408, 13.12501 ], [ 80.14798, 13.13045 ], [ 80.14578, 13.13941 ], [ 80.14877, 13.13934 ], [ 80.15429, 13.14231 ], [ 80.1581, 13.14205 ], [ 80.16165, 13.14051 ], [ 80.16441, 13.13613 ], [ 80.16586, 13.13575 ], [ 80.16822, 13.1422 ], [ 80.16966, 13.14297 ], [ 80.17072, 13.14091 ] ] ] } },
{ "type": "Feature", "properties": { "OBJECTID": 5480, "state_lgd": "33", "state_name": "TAMIL NADU", "district_lgd": "603", "district_name": "CHENNAI", "district_name_source": "district_table", "subdistrict_lgd": "06703", "subdistrict_name": "AYANAVARAM", "subdistrict_type": "", "name_corrupted": false, "remarks": "", "label_lon": 80.220670230203339, "label_lat": 13.102306449608527 }, "geometry": { "type": "Polygon", "coordinates": [ [ [ 80.24289, 13.1069 ], [ 80.24241, 13.10482 ], [ 80.24381, 13.10189 ], [ 80.24266, 13.0975 ], [ 80.24183, 13.09773 ], [ 80.24095, 13.09539 ], [ 80.24071, 13.09269 ], [ 80.23246, 13.09314 ], [ 80.23181, 13.08665 ], [ 80.22883, 13.08837 ], [ 80.22738, 13.08695 ], [ 80.22437, 13.09039 ], [ 80.218, 13.09077 ], [ 80.21802, 13.09606 ], [ 80.21548, 13.0972 ], [ 80.2152, 13.09616 ], [ 80.21074, 13.09596 ], [ 80.21108, 13.10215 ], [ 80.21037, 13.1039 ], [ 80.20517, 13.10593 ], [ 80.19726, 13.10552 ], [ 80.19529, 13.10794 ], [ 80.19735, 13.10813 ], [ 80.20224, 13.11795 ], [ 80.20239, 13.11719 ], [ 80.20518, 13.11672 ], [ 80.2132, 13.11642 ], [ 80.21287, 13.11163 ], [ 80.21476, 13.10967 ], [ 80.21804, 13.10853 ], [ 80.22424, 13.1077 ], [ 80.23323, 13.10873 ], [ 80.23273, 13.10621 ], [ 80.23099, 13.10361 ], [ 80.23174, 13.10224 ], [ 80.23146, 13.09815 ], [ 80.23365, 13.09818 ], [ 80.23429, 13.10281 ], [ 80.24028, 13.10315 ], [ 80.24289, 13.1069 ] ] ] } },
{ "type": "Feature", "properties": { "OBJECTID": 5481, "state_lgd": "33", "state_name": "TAMIL NADU", "district_lgd": "603", "district_name": "CHENNAI", "district_name_source": "district_table", "subdistrict_lgd": "07167", "subdistrict_name": "PURASAWALKAM", "subdistrict_type": "", "name_corrupted": false, "remarks": "", "label_lon": 80.272950933498748, "label_lat": 13.089040850132834 }, "geometry": { "type": "Polygon", "coordinates": [ [ [ 80.31075, 13.10838 ], [ 80.30779, 13.10351 ], [ 80.30468, 13.10023 ], [ 80.30357, 13.09355 ], [ 80.30173, 13.09073 ], [ 80.30232, 13.09002 ], [ 80.30092, 13.09007 ], [ 80.29381, 13.07943 ], [ 80.28909, 13.0686 ], [ 80.2798, 13.0696 ], [ 80.27852, 13.07035 ], [ 80.27402, 13.07395 ], [ 80.2738, 13.07874 ], [ 80.27103, 13.08094 ], [ 80.26739, 13.08118 ], [ 80.26514, 13.07814 ], [ 80.26194, 13.07959 ], [ 80.25894, 13.07912 ], [ 80.25922, 13.07983 ], [ 80.2503, 13.07924 ], [ 80.24684, 13.07806 ], [ 80.2472, 13.07959 ], [ 80.24542, 13.07991 ], [ 80.2457, 13.08206 ], [ 80.23998, 13.08395 ], [ 80.24095, 13.09539 ], [ 80.24183, 13.09773 ], [ 80.2473, 13.09684 ], [ 80.25457, 13.09949 ], [ 80.25825, 13.09877 ], [ 80.26084, 13.09994 ], [ 80.26424, 13.09943 ], [ 80.26458, 13.10193 ], [ 80.26819, 13.10173 ], [ 80.26837, 13.10369 ], [ 80.27012, 13.10374 ], [ 80.27119, 13.10498 ], [ 80.27304, 13.10377 ], [ 80.27991, 13.10566 ], [ 80.28474, 13.10503 ], [ 80.30173, 13.09867 ], [ 80.30051, 13.09873 ], [ 80.29974, 13.09761 ], [ 80.29969, 13.099 ], [ 80.29913, 13.09837 ], [ 80.29864, 13.09955 ], [ 80.29691, 13.09926 ], [ 80.29488, 13.09303 ], [ 80.30067, 13.09112 ], [ 80.30311, 13.09466 ], [ 80.30332, 13.09738 ], [ 80.30207, 13.09835 ], [ 80.30296, 13.09837 ], [ 80.30398, 13.10044 ], [ 80.3038, 13.10259 ], [ 80.30477, 13.1012 ], [ 80.30983, 13.10832 ], [ 80.31075, 13.10838 ] ] ] } },
{ "type": "Feature", "properties": { "OBJECTID": 5482, "state_lgd": "33", "state_name": "TAMIL NADU", "district_lgd": "603", "district_name": "CHENNAI", "district_name_source": "district_table", "subdistrict_lgd": "07170", "subdistrict_name": "MYLAPORE", "subdistrict_type": "", "name_corrupted": false, "remarks": "", "label_lon": 80.26584342793285, "label_lat": 13.041348746291398 }, "geometry": { "type": "Polygon", "coordinates": [ [ [ 80.2738, 13.07874 ], [ 80.27402, 13.07395 ], [ 80.27852, 13.07035 ], [ 80.2798, 13.0696 ], [ 80.28909, 13.0686 ], [ 80.28686, 13.06458 ], [ 80.28339, 13.05145 ], [ 80.28106, 13.03962 ], [ 80.27802, 13.0161 ], [ 80.27686, 13.01314 ], [ 80.27593, 13.01263 ], [ 80.27653, 13.01112 ], [ 80.2696, 13.01291 ], [ 80.26083, 13.01169 ], [ 80.25927, 13.01238 ], [ 80.25666, 13.01155 ], [ 80.25007, 13.01634 ], [ 80.24687, 13.02242 ], [ 80.24275, 13.02647 ], [ 80.23935, 13.02601 ], [ 80.23894, 13.02653 ], [ 80.2405, 13.03128 ], [ 80.24365, 13.03001 ], [ 80.24339, 13.03338 ], [ 80.24554, 13.03506 ], [ 80.24786, 13.0474 ], [ 80.24928, 13.04858 ], [ 80.25035, 13.05244 ], [ 80.26467, 13.06314 ], [ 80.26939, 13.068 ], [ 80.26792, 13.07237 ], [ 80.26544, 13.0752 ], [ 80.26396, 13.07462 ], [ 80.26358, 13.07833 ], [ 80.26514, 13.07814 ], [ 80.26625, 13.0804 ], [ 80.26822, 13.08132 ], [ 80.27103, 13.08094 ], [ 80.2738, 13.07874 ] ] ] } },
{ "type": "Feature", "properties": { "OBJECTID": 5483, "state_lgd": "33", "state_name": "TAMIL NADU", "district_lgd": "603", "district_name": "CHENNAI", "district_name_source": "district_table", "subdistrict_lgd": "07161", "subdistrict_name": "AMINJIKARAI", "subdistrict_type": "", "name_corrupted": false, "remarks": "", "label_lon": 80.207683895252984, "label_lat": 13.080008420083995 }, "geometry": { "type": "Polygon", "coordinates": [ [ [ 80.23181, 13.08665 ], [ 80.23028, 13.08496 ], [ 80.23017, 13.07366 ], [ 80.2284, 13.06907 ], [ 80.22876, 13.06627 ], [ 80.22405, 13.06709 ], [ 80.22138, 13.06918 ], [ 80.21842, 13.06869 ], [ 80.21612, 13.06598 ], [ 80.21597, 13.06187 ], [ 80.20965, 13.06511 ], [ 80.20682, 13.06044 ], [ 80.19992, 13.06073 ], [ 80.19994, 13.05727 ], [ 80.1971, 13.05761 ], [ 80.18801, 13.05507 ], [ 80.18401, 13.05576 ], [ 80.18704, 13.05978 ], [ 80.1893, 13.06062 ], [ 80.19103, 13.06884 ], [ 80.19012, 13.07152 ], [ 80.19138, 13.07832 ], [ 80.19658, 13.09057 ], [ 80.19397, 13.09312 ], [ 80.19603, 13.09826 ], [ 80.19428, 13.09956 ], [ 80.19529, 13.10794 ], [ 80.19726, 13.10552 ], [ 80.20517, 13.10593 ], [ 80.21037, 13.1039 ], [ 80.21108, 13.10215 ], [ 80.21074, 13.09596 ], [ 80.2152, 13.09616 ], [ 80.21548, 13.0972 ], [ 80.21802, 13.09606 ], [ 80.218, 13.09077 ], [ 80.22437, 13.09039 ], [ 80.22738, 13.08695 ], [ 80.22883, 13.08837 ], [ 80.23181, 13.08665 ] ] ] } },
{ "type": "Feature", "properties": { "OBJECTID": 5484, "state_lgd": "33", "state_name": "TAMIL NADU", "district_lgd": "603", "district_name": "CHENNAI", "district_name_source": "district_table", "subdistrict_lgd": "07164", "subdistrict_name": "EGMORE", "subdistrict_type": "", "name_corrupted": false, "remarks": "", "label_lon": 80.238362500392171, "label_lat": 13.065223768310444 }, "geometry": { "type": "Polygon", "coordinates": [ [ [ 80.24071, 13.09269 ], [ 80.23998, 13.08395 ], [ 80.2457, 13.08206 ], [ 80.24542, 13.07991 ], [ 80.2472, 13.07959 ], [ 80.24684, 13.07806 ], [ 80.2503, 13.07924 ], [ 80.25922, 13.07983 ], [ 80.25894, 13.07912 ], [ 80.26329, 13.0793 ], [ 80.26396, 13.07462 ], [ 80.26544, 13.0752 ], [ 80.26656, 13.07395 ], [ 80.26855, 13.07138 ], [ 80.26948, 13.06829 ], [ 80.26798, 13.06594 ], [ 80.25098, 13.0524 ], [ 80.24976, 13.05335 ], [ 80.24043, 13.0525 ], [ 80.23157, 13.05443 ], [ 80.23145, 13.05337 ], [ 80.23248, 13.05331 ], [ 80.23105, 13.05065 ], [ 80.23042, 13.04553 ], [ 80.22795, 13.03743 ], [ 80.21844, 13.04252 ], [ 80.21928, 13.05232 ], [ 80.21556, 13.05083 ], [ 80.21531, 13.05379 ], [ 80.21401, 13.05378 ], [ 80.21268, 13.05354 ], [ 80.21265, 13.05209 ], [ 80.21145, 13.05201 ], [ 80.21076, 13.05377 ], [ 80.20872, 13.05459 ], [ 80.20873, 13.05991 ], [ 80.20682, 13.06044 ], [ 80.20965, 13.06511 ], [ 80.21597, 13.06187 ], [ 80.21612, 13.06598 ], [ 80.21842, 13.06869 ], [ 80.22138, 13.06918 ], [ 80.22405, 13.06709 ], [ 80.22876, 13.06627 ], [ 80.2284, 13.06907 ], [ 80.23017, 13.07366 ], [ 80.23028, 13.08496 ], [ 80.23194, 13.08674 ], [ 80.23246, 13.09314 ], [ 80.24071, 13.09269 ] ] ] } },
{ "type": "Feature", "properties": { "OBJECTID": 5485, "state_lgd": "33", "state_name": "TAMIL NADU", "district_lgd": "603", "district_name": "CHENNAI", "district_name_source": "district_table", "subdistrict_lgd": "05981", "subdistrict_name": "MADURAVOYAL", "subdistrict_type": "", "name_corrupted": false, "remarks": "", "label_lon": 80.168126337132563, "label_lat": 13.049043142530426 }, "geometry": { "type": "Polygon", "coordinates": [ [ [ 80.19109, 13.07586 ], [ 80.19012, 13.07152 ], [ 80.19103, 13.06884 ], [ 80.1893, 13.06062 ], [ 80.18704, 13.05978 ], [ 80.18401, 13.05576 ], [ 80.18512, 13.05585 ], [ 80.18555, 13.04685 ], [ 80.18626, 13.04281 ], [ 80.18709, 13.04256 ], [ 80.1867, 13.03339 ], [ 80.18746, 13.03308 ], [ 80.18748, 13.02849 ], [ 80.18968, 13.02811 ], [ 80.18949, 13.0245 ], [ 80.18858, 13.02304 ], [ 80.18341, 13.02528 ], [ 80.18088, 13.02269 ], [ 80.17971, 13.02244 ], [ 80.17411, 13.02532 ], [ 80.16748, 13.02525 ], [ 80.16558, 13.02192 ], [ 80.16479, 13.02207 ], [ 80.16452, 13.02518 ], [ 80.1625, 13.02499 ], [ 80.16165, 13.02316 ], [ 80.15931, 13.0237 ], [ 80.15931, 13.02486 ], [ 80.15024, 13.02602 ], [ 80.14455, 13.02432 ], [ 80.14428, 13.03163 ], [ 80.1465, 13.03212 ], [ 80.14564, 13.03748 ], [ 80.14197, 13.03829 ], [ 80.14147, 13.04048 ], [ 80.13883, 13.04143 ], [ 80.1399, 13.04569 ], [ 80.13439, 13.04465 ], [ 80.13548, 13.04834 ], [ 80.14059, 13.04895 ], [ 80.14234, 13.05357 ], [ 80.14629, 13.05404 ], [ 80.1457, 13.05698 ], [ 80.14681, 13.06114 ], [ 80.14849, 13.06441 ], [ 80.14919, 13.06433 ], [ 80.15406, 13.06286 ], [ 80.15281, 13.05427 ], [ 80.15164, 13.05336 ], [ 80.14932, 13.05341 ], [ 80.14944, 13.05077 ], [ 80.15296, 13.05027 ], [ 80.15336, 13.04949 ], [ 80.14951, 13.04888 ], [ 80.14951, 13.04763 ], [ 80.14599, 13.04429 ], [ 80.14571, 13.03986 ], [ 80.15878, 13.04168 ], [ 80.16032, 13.04488 ], [ 80.15899, 13.05224 ], [ 80.16084, 13.06429 ], [ 80.16218, 13.06438 ], [ 80.16299, 13.06863 ], [ 80.16237, 13.07133 ], [ 80.1634, 13.07343 ], [ 80.16137, 13.08114 ], [ 80.16244, 13.08362 ], [ 80.164, 13.08444 ], [ 80.16809, 13.08292 ], [ 80.17121, 13.08339 ], [ 80.17277, 13.08257 ], [ 80.17386, 13.08163 ], [ 80.1735, 13.0801 ], [ 80.17446, 13.07821 ], [ 80.17928, 13.07229 ], [ 80.18695, 13.07362 ], [ 80.19109, 13.07586 ] ] ] } },
{ "type": "Feature", "properties": { "OBJECTID": 5486, "state_lgd": "33", "state_name": "TAMIL NADU", "district_lgd": "603", "district_name": "CHENNAI", "district_name_source": "district_table", "subdistrict_lgd": "07165", "subdistrict_name": "MAMBALAM", "subdistrict_type": "", "name_corrupted": false, "remarks": "", "label_lon": 80.206872049762609, "label_lat": 13.038987845376314 }, "geometry": { "type": "Polygon", "coordinates": [ [ [ 80.19992, 13.06073 ], [ 80.20873, 13.05991 ], [ 80.20872, 13.05459 ], [ 80.21076, 13.05377 ], [ 80.21145, 13.05201 ], [ 80.21265, 13.05209 ], [ 80.21268, 13.05354 ], [ 80.21401, 13.05378 ], [ 80.21531, 13.05379 ], [ 80.21556, 13.05083 ], [ 80.21928, 13.05232 ], [ 80.21844, 13.04252 ], [ 80.22787, 13.03748 ], [ 80.22631, 13.03222 ], [ 80.22565, 13.03163 ], [ 80.22358, 13.03187 ], [ 80.22356, 13.03021 ], [ 80.22705, 13.02884 ], [ 80.22874, 13.03095 ], [ 80.23722, 13.03249 ], [ 80.23716, 13.03022 ], [ 80.22445, 13.02229 ], [ 80.225, 13.0177 ], [ 80.22329, 13.01654 ], [ 80.21702, 13.0175 ], [ 80.2131, 13.01942 ], [ 80.21143, 13.02151 ], [ 80.21062, 13.02581 ], [ 80.20813, 13.0275 ], [ 80.20241, 13.02849 ], [ 80.19596, 13.02844 ], [ 80.19588, 13.02956 ], [ 80.19292, 13.02797 ], [ 80.18949, 13.0245 ], [ 80.18968, 13.02811 ], [ 80.18748, 13.02849 ], [ 80.18746, 13.03308 ], [ 80.1867, 13.03339 ], [ 80.18709, 13.04256 ], [ 80.18626, 13.04281 ], [ 80.18555, 13.04685 ], [ 80.18512, 13.05585 ], [ 80.18801, 13.05507 ], [ 80.1971, 13.05761 ], [ 80.19994, 13.05727 ], [ 80.19992, 13.06073 ] ] ] } },
{ "type": "Feature", "properties": { "OBJECTID": 5487, "state_lgd": "33", "state_name": "TAMIL NADU", "district_lgd": "603", "district_name": "CHENNAI", "district_name_source": "district_table", "subdistrict_lgd": "07169", "subdistrict_name": "GUINDY", "subdistrict_type": "", "name_corrupted": false, "remarks": "", "label_lon": 80.229961254969396, "label_lat": 13.016171478315879 }, "geometry": { "type": "Polygon", "coordinates": [ [ [ 80.24103, 13.05246 ], [ 80.24976, 13.05335 ], [ 80.25035, 13.05244 ], [ 80.24928, 13.04858 ], [ 80.24786, 13.0474 ], [ 80.24554, 13.03506 ], [ 80.24339, 13.03338 ], [ 80.24365, 13.03001 ], [ 80.2405, 13.03128 ], [ 80.23894, 13.02653 ], [ 80.23935, 13.02601 ], [ 80.24275, 13.02647 ], [ 80.24687, 13.02242 ], [ 80.25007, 13.01634 ], [ 80.25666, 13.01155 ], [ 80.25922, 13.01235 ], [ 80.25893, 13.01032 ], [ 80.25748, 13.00676 ], [ 80.24298, 13.00662 ], [ 80.24217, 13.00372 ], [ 80.24308, 13.00357 ], [ 80.24318, 13.00057 ], [ 80.24406, 13.0 ], [ 80.24366, 12.99539 ], [ 80.24428, 12.99398 ], [ 80.2437, 12.99269 ], [ 80.24268, 12.99171 ], [ 80.23893, 12.99171 ], [ 80.23837, 12.98758 ], [ 80.23617, 12.98427 ], [ 80.22769, 12.98501 ], [ 80.22135, 12.98982 ], [ 80.21752, 12.99526 ], [ 80.21717, 12.998 ], [ 80.22008, 13.00287 ], [ 80.20987, 13.00482 ], [ 80.20893, 13.00095 ], [ 80.20256, 13.00128 ], [ 80.20427, 13.01216 ], [ 80.19874, 13.01614 ], [ 80.1996, 13.02543 ], [ 80.20048, 13.02828 ], [ 80.20813, 13.0275 ], [ 80.21062, 13.02581 ], [ 80.21143, 13.02151 ], [ 80.2131, 13.01942 ], [ 80.21702, 13.0175 ], [ 80.22156, 13.01651 ], [ 80.22387, 13.01686 ], [ 80.225, 13.0177 ], [ 80.22445, 13.02229 ], [ 80.23716, 13.03022 ], [ 80.23722, 13.03249 ], [ 80.22874, 13.03095 ], [ 80.22705, 13.02884 ], [ 80.22356, 13.03021 ], [ 80.22358, 13.03187 ], [ 80.22604, 13.03181 ], [ 80.22697, 13.03408 ], [ 80.23042, 13.04553 ], [ 80.23105, 13.05065 ], [ 80.23248, 13.05331 ], [ 80.23145, 13.05337 ], [ 80.23157, 13.05443 ], [ 80.24103, 13.05246 ] ] ] } },
{ "type": "Feature", "properties": { "OBJECTID": 5488, "state_lgd": "33", "state_name": "TAMIL NADU", "district_lgd": "603", "district_name": "CHENNAI", "district_name_source": "district_table", "subdistrict_lgd": "07171", "subdistrict_name": "VELACHERI", "subdistrict_type": "", "name_corrupted": false, "remarks": "", "label_lon": 80.241529214814079, "label_lat": 12.989578846978006 }, "geometry": { "type": "Polygon", "coordinates": [ [ [ 80.2696, 13.01291 ], [ 80.27653, 13.01112 ], [ 80.27209, 12.997 ], [ 80.26783, 12.97509 ], [ 80.25302, 12.97667 ], [ 80.25298, 12.98033 ], [ 80.24335, 12.98392 ], [ 80.24366, 12.9799 ], [ 80.22881, 12.97256 ], [ 80.22121, 12.96508 ], [ 80.21625, 12.96739 ], [ 80.20889, 12.97566 ], [ 80.2091, 12.97695 ], [ 80.20749, 12.97728 ], [ 80.20765, 12.98028 ], [ 80.20646, 12.98057 ], [ 80.2057, 12.98293 ], [ 80.20416, 12.98305 ], [ 80.20494, 12.98882 ], [ 80.20987, 13.00482 ], [ 80.22008, 13.00287 ], [ 80.21717, 12.998 ], [ 80.21752, 12.99526 ], [ 80.22135, 12.98982 ], [ 80.22498, 12.9865 ], [ 80.22769, 12.98501 ], [ 80.23617, 12.98427 ], [ 80.23837, 12.98758 ], [ 80.23859, 12.99132 ], [ 80.24268, 12.99171 ], [ 80.24425, 12.99367 ], [ 80.24366, 12.99539 ], [ 80.24406, 13.0 ], [ 80.24318, 13.00057 ], [ 80.24308, 13.00357 ], [ 80.24217, 13.00372 ], [ 80.24298, 13.00662 ], [ 80.25748, 13.00676 ], [ 80.25843, 13.00808 ], [ 80.25927, 13.01238 ], [ 80.26083, 13.01169 ], [ 80.2696, 13.01291 ] ] ] } },
{ "type": "Feature", "properties": { "OBJECTID": 5489, "state_lgd": "33", "state_name": "TAMIL NADU", "district_lgd": "603", "district_name": "CHENNAI", "district_name_source": "district_table", "subdistrict_lgd": "05704", "subdistrict_name": "ALANDUR", "subdistrict_type": "", "name_corrupted": false, "remarks": "", "label_lon": 80.178692959984929, "label_lat": 13.000919584547608 }, "geometry": { "type": "Polygon", "coordinates": [ [ [ 80.19569, 13.02947 ], [ 80.194, 13.02726 ], [ 80.19345, 13.02422 ], [ 80.19238, 13.01585 ], [ 80.19365, 13.01406 ], [ 80.19263, 13.01033 ], [ 80.19192, 13.00965 ], [ 80.18806, 13.01014 ], [ 80.18577, 13.0085 ], [ 80.18436, 13.00874 ], [ 80.1813, 13.00623 ], [ 80.17848, 13.00172 ], [ 80.17985, 13.00079 ], [ 80.1796, 12.99822 ], [ 80.18096, 12.99333 ], [ 80.18046, 12.99094 ], [ 80.18868, 12.99475 ], [ 80.19194, 12.99495 ], [ 80.19284, 12.99596 ], [ 80.1987, 12.99736 ], [ 80.20256, 13.00128 ], [ 80.20893, 13.00095 ], [ 80.20494, 12.98882 ], [ 80.20416, 12.98305 ], [ 80.2057, 12.98293 ], [ 80.20646, 12.98057 ], [ 80.20765, 12.98028 ], [ 80.20749, 12.97728 ], [ 80.20443, 12.97964 ], [ 80.20047, 12.97998 ], [ 80.19831, 12.98167 ], [ 80.19292, 12.98205 ], [ 80.19323, 12.97736 ], [ 80.19185, 12.97229 ], [ 80.1929, 12.97111 ], [ 80.19672, 12.97029 ], [ 80.19665, 12.96905 ], [ 80.19518, 12.96857 ], [ 80.19063, 12.9701 ], [ 80.18602, 12.96821 ], [ 80.18169, 12.97118 ], [ 80.1807, 12.97824 ], [ 80.17999, 12.97909 ], [ 80.17801, 12.97984 ], [ 80.1738, 12.97945 ], [ 80.16877, 12.98048 ], [ 80.16746, 12.98662 ], [ 80.16239, 12.9941 ], [ 80.16068, 12.99798 ], [ 80.16182, 13.0008 ], [ 80.16517, 13.00424 ], [ 80.16374, 13.00607 ], [ 80.15971, 13.00797 ], [ 80.16128, 13.01099 ], [ 80.15819, 13.01542 ], [ 80.15552, 13.01408 ], [ 80.15184, 13.01701 ], [ 80.14722, 13.01606 ], [ 80.14484, 13.017 ], [ 80.14517, 13.02223 ], [ 80.14401, 13.02358 ], [ 80.15024, 13.02602 ], [ 80.15931, 13.02486 ], [ 80.15931, 13.0237 ], [ 80.16165, 13.02316 ], [ 80.1625, 13.02499 ], [ 80.16452, 13.02518 ], [ 80.16521, 13.02193 ], [ 80.16605, 13.02193 ], [ 80.16748, 13.02525 ], [ 80.17411, 13.02532 ], [ 80.17971, 13.02244 ], [ 80.18088, 13.02269 ], [ 80.18341, 13.02528 ], [ 80.18858, 13.02304 ], [ 80.19133, 13.02659 ], [ 80.19569, 13.02947 ] ] ] } }
]
}
