{
"type": "FeatureCollection",
"name": "615_PERAMBALUR",
"crs": { "type": "name", "properties": { "name": "urn:ogc:def:crs:OGC:1.3:CRS84" } },
"xy_coordinate_resolution": 1e-05,
"features": [
{ "type": "Feature", "properties": { "OBJECTID": 5186, "state_lgd": "33", "state_name": "TAMIL NADU", "district_lgd": "615", "district_name": "PERAMBALUR", "district_name_source": "district_table", "subdistrict_lgd": "05784N001", "subdistrict_name": "ALATHUR", "subdistrict_type": "", "name_corrupted": false, "remarks": "", "label_lon": 78.884174335927696, "label_lat": 11.136800231316434 }, "geometry": { "type": "Polygon", "coordinates": [ [ [ 79.06798, 11.19509 ], [ 79.06723, 11.18886 ], [ 79.07577, 11.18927 ], [ 79.07632, 11.18537 ], [ 79.07832, 11.18244 ], [ 79.07836, 11.18045 ], [ 79.07646, 11.17949 ], [ 79.07587, 11.17831 ], [ 79.07189, 11.17815 ], [ 79.0717, 11.17713 ], [ 79.06937, 11.17711 ], [ 79.06971, 11.17407 ], [ 79.07127, 11.17398 ], [ 79.07103, 11.17151 ], [ 79.07226, 11.17136 ], [ 79.07298, 11.17018 ], [ 79.07218, 11.16458 ], [ 79.07287, 11.1626 ], [ 79.07247, 11.15925 ], [ 79.07075, 11.15446 ], [ 79.06065, 11.15334 ], [ 79.05952, 11.15227 ], [ 79.06073, 11.15034 ], [ 79.06057, 11.14588 ], [ 79.05964, 11.14389 ], [ 79.06057, 11.14127 ], [ 79.0561, 11.14053 ], [ 79.05507, 11.12987 ], [ 79.05714, 11.12989 ], [ 79.05783, 11.12906 ], [ 79.05745, 11.12758 ], [ 79.05925, 11.12555 ], [ 79.06005, 11.126 ], [ 79.06017, 11.1276 ], [ 79.06117, 11.12809 ], [ 79.06393, 11.12814 ], [ 79.0654, 11.12687 ], [ 79.06452, 11.12196 ], [ 79.0675, 11.11832 ], [ 79.06609, 11.11477 ], [ 79.06763, 11.11282 ], [ 79.06768, 11.11013 ], [ 79.06914, 11.10972 ], [ 79.06941, 11.1089 ], [ 79.06664, 11.10496 ], [ 79.06483, 11.10049 ], [ 79.06302, 11.09976 ], [ 79.06228, 11.09767 ], [ 79.06124, 11.0978 ], [ 79.0594, 11.09273 ], [ 79.05436, 11.08498 ], [ 79.04891, 11.08545 ], [ 79.0488, 11.0867 ], [ 79.03228, 11.08388 ], [ 79.03181, 11.08068 ], [ 79.03059, 11.07942 ], [ 79.03042, 11.07606 ], [ 79.02576, 11.07539 ], [ 79.02522, 11.07333 ], [ 79.02444, 11.07313 ], [ 79.0238, 11.07174 ], [ 79.02441, 11.06767 ], [ 79.02218, 11.06653 ], [ 79.02234, 11.06708 ], [ 79.01825, 11.06644 ], [ 79.01843, 11.06291 ], [ 79.01315, 11.06271 ], [ 79.01026, 11.06042 ], [ 79.00645, 11.05885 ], [ 79.00598, 11.06029 ], [ 79.00171, 11.06062 ], [ 79.00089, 11.0658 ], [ 79.00005, 11.06583 ], [ 79.00031, 11.0699 ], [ 78.99879, 11.07028 ], [ 78.99833, 11.07621 ], [ 78.99334, 11.07671 ], [ 78.99282, 11.07802 ], [ 78.98867, 11.07739 ], [ 78.98877, 11.07796 ], [ 78.98474, 11.07885 ], [ 78.98546, 11.08577 ], [ 78.9841, 11.08718 ], [ 78.98416, 11.08882 ], [ 78.98086, 11.0889 ], [ 78.98086, 11.08991 ], [ 78.98008, 11.09005 ], [ 78.98038, 11.09099 ], [ 78.97396, 11.09428 ], [ 78.95401, 11.09476 ], [ 78.94987, 11.09399 ], [ 78.94984, 11.09283 ], [ 78.94685, 11.09279 ], [ 78.94398, 11.09424 ], [ 78.93819, 11.09472 ], [ 78.92944, 11.0936 ], [ 78.92642, 11.08943 ], [ 78.91752, 11.0926 ], [ 78.91791, 11.09426 ], [ 78.91647, 11.09508 ], [ 78.91661, 11.09616 ], [ 78.90515, 11.09719 ], [ 78.90354, 11.09575 ], [ 78.89613, 11.10006 ], [ 78.89525, 11.10009 ], [ 78.89516, 11.09933 ], [ 78.88932, 11.09989 ], [ 78.88927, 11.10159 ], [ 78.88646, 11.10174 ], [ 78.88563, 11.09885 ], [ 78.88432, 11.09934 ], [ 78.88154, 11.09858 ], [ 78.88038, 11.09944 ], [ 78.87946, 11.09812 ], [ 78.87702, 11.09849 ], [ 78.87672, 11.09677 ], [ 78.87459, 11.09732 ], [ 78.8745, 11.09662 ], [ 78.87321, 11.09672 ], [ 78.87338, 11.09392 ], [ 78.87167, 11.09348 ], [ 78.87207, 11.08809 ], [ 78.87266, 11.08806 ], [ 78.87249, 11.08424 ], [ 78.86387, 11.08556 ], [ 78.86337, 11.08884 ], [ 78.86213, 11.09014 ], [ 78.8541, 11.08974 ], [ 78.85345, 11.08864 ], [ 78.85219, 11.08944 ], [ 78.84791, 11.08938 ], [ 78.84746, 11.09019 ], [ 78.84434, 11.08824 ], [ 78.84391, 11.08356 ], [ 78.84252, 11.08291 ], [ 78.84239, 11.08125 ], [ 78.84069, 11.0805 ], [ 78.84003, 11.07644 ], [ 78.83432, 11.07641 ], [ 78.82116, 11.0786 ], [ 78.81934, 11.07808 ], [ 78.80725, 11.07893 ], [ 78.80808, 11.08187 ], [ 78.80602, 11.09031 ], [ 78.80849, 11.10119 ], [ 78.80918, 11.10121 ], [ 78.80933, 11.10542 ], [ 78.81094, 11.11174 ], [ 78.80473, 11.1117 ], [ 78.8031, 11.11398 ], [ 78.80031, 11.11438 ], [ 78.79913, 11.11436 ], [ 78.7975, 11.11254 ], [ 78.79665, 11.11256 ], [ 78.79315, 11.11479 ], [ 78.78726, 11.11576 ], [ 78.77939, 11.11492 ], [ 78.77941, 11.11306 ], [ 78.77677, 11.11282 ], [ 78.77667, 11.1169 ], [ 78.77345, 11.11748 ], [ 78.77272, 11.11826 ], [ 78.76653, 11.11865 ], [ 78.76063, 11.12011 ], [ 78.76072, 11.12147 ], [ 78.75967, 11.12155 ], [ 78.75916, 11.11934 ], [ 78.75689, 11.11884 ], [ 78.75554, 11.11653 ], [ 78.74881, 11.11596 ], [ 78.74766, 11.11403 ], [ 78.74588, 11.11335 ], [ 78.74613, 11.11256 ], [ 78.74506, 11.11233 ], [ 78.74475, 11.11102 ], [ 78.74219, 11.11063 ], [ 78.74063, 11.10947 ], [ 78.73808, 11.10975 ], [ 78.73806, 11.10866 ], [ 78.7374, 11.10865 ], [ 78.73753, 11.10613 ], [ 78.73529, 11.10555 ], [ 78.73443, 11.09885 ], [ 78.73658, 11.09771 ], [ 78.73776, 11.08949 ], [ 78.73887, 11.08668 ], [ 78.73999, 11.08471 ], [ 78.7413, 11.08465 ], [ 78.74143, 11.08372 ], [ 78.74549, 11.08307 ], [ 78.7447, 11.07929 ], [ 78.74275, 11.07548 ], [ 78.73643, 11.07429 ], [ 78.72642, 11.07508 ], [ 78.72023, 11.07398 ], [ 78.71955, 11.06433 ], [ 78.71851, 11.06419 ], [ 78.71765, 11.05563 ], [ 78.71173, 11.0556 ], [ 78.71168, 11.05665 ], [ 78.71052, 11.05645 ], [ 78.70977, 11.06217 ], [ 78.70104, 11.06857 ], [ 78.70032, 11.08446 ], [ 78.69826, 11.09198 ], [ 78.69542, 11.09376 ], [ 78.69432, 11.10396 ], [ 78.69244, 11.10462 ], [ 78.69165, 11.10773 ], [ 78.68705, 11.11422 ], [ 78.68764, 11.12182 ], [ 78.68835, 11.12279 ], [ 78.68818, 11.12589 ], [ 78.68712, 11.12622 ], [ 78.68691, 11.12905 ], [ 78.68097, 11.13034 ], [ 78.68138, 11.13448 ], [ 78.68001, 11.14171 ], [ 78.6809, 11.14543 ], [ 78.68012, 11.14542 ], [ 78.68058, 11.14736 ], [ 78.67989, 11.14732 ], [ 78.67998, 11.14813 ], [ 78.67808, 11.14781 ], [ 78.67791, 11.15055 ], [ 78.67895, 11.1507 ], [ 78.67879, 11.15433 ], [ 78.67866, 11.15493 ], [ 78.67747, 11.15471 ], [ 78.6769, 11.15881 ], [ 78.67585, 11.15862 ], [ 78.67582, 11.16156 ], [ 78.67497, 11.1615 ], [ 78.67382, 11.16502 ], [ 78.67154, 11.16637 ], [ 78.6693, 11.16499 ], [ 78.66068, 11.16339 ], [ 78.65882, 11.16323 ], [ 78.65476, 11.16463 ], [ 78.65204, 11.16361 ], [ 78.6512, 11.16826 ], [ 78.65965, 11.17216 ], [ 78.66322, 11.17471 ], [ 78.66697, 11.18108 ], [ 78.67295, 11.1857 ], [ 78.67477, 11.1941 ], [ 78.6768, 11.19563 ], [ 78.68113, 11.19485 ], [ 78.68532, 11.19575 ], [ 78.69854, 11.19083 ], [ 78.70572, 11.20227 ], [ 78.70997, 11.19994 ], [ 78.70519, 11.19267 ], [ 78.70532, 11.19072 ], [ 78.70824, 11.19262 ], [ 78.71195, 11.1924 ], [ 78.71453, 11.19117 ], [ 78.72236, 11.19176 ], [ 78.73146, 11.19297 ], [ 78.73206, 11.19365 ], [ 78.74255, 11.19571 ], [ 78.7435, 11.19363 ], [ 78.73993, 11.18905 ], [ 78.7401, 11.18781 ], [ 78.73707, 11.18632 ], [ 78.73735, 11.18572 ], [ 78.74227, 11.18647 ], [ 78.74881, 11.18553 ], [ 78.74995, 11.1864 ], [ 78.74941, 11.18274 ], [ 78.75058, 11.18107 ], [ 78.75288, 11.1805 ], [ 78.75804, 11.18229 ], [ 78.75787, 11.17238 ], [ 78.75594, 11.17163 ], [ 78.75581, 11.17053 ], [ 78.7613, 11.1548 ], [ 78.76307, 11.14571 ], [ 78.75893, 11.1423 ], [ 78.7563, 11.14132 ], [ 78.75793, 11.13917 ], [ 78.75637, 11.13714 ], [ 78.75642, 11.13627 ], [ 78.75797, 11.13676 ], [ 78.75741, 11.13454 ], [ 78.76037, 11.13306 ], [ 78.76149, 11.1339 ], [ 78.76083, 11.13685 ], [ 78.76604, 11.13942 ], [ 78.76862, 11.13924 ], [ 78.7695, 11.13977 ], [ 78.77028, 11.14217 ], [ 78.77183, 11.14285 ], [ 78.77972, 11.14429 ], [ 78.78027, 11.14495 ], [ 78.78405, 11.15482 ], [ 78.78391, 11.15835 ], [ 78.78936, 11.16263 ], [ 78.78965, 11.16485 ], [ 78.78586, 11.16511 ], [ 78.78422, 11.16677 ], [ 78.78513, 11.16885 ], [ 78.78949, 11.16823 ], [ 78.79011, 11.16891 ], [ 78.79279, 11.16684 ], [ 78.79476, 11.16943 ], [ 78.8007, 11.16909 ], [ 78.81348, 11.17019 ], [ 78.81329, 11.1674 ], [ 78.81754, 11.16439 ], [ 78.82335, 11.17019 ], [ 78.82449, 11.16994 ], [ 78.83203, 11.17464 ], [ 78.85741, 11.17544 ], [ 78.85887, 11.17278 ], [ 78.86641, 11.17299 ], [ 78.86696, 11.1713 ], [ 78.87153, 11.17083 ], [ 78.87221, 11.16986 ], [ 78.8785, 11.16982 ], [ 78.88457, 11.17202 ], [ 78.88704, 11.16821 ], [ 78.88906, 11.16893 ], [ 78.89812, 11.16893 ], [ 78.8991, 11.16746 ], [ 78.90148, 11.16784 ], [ 78.90371, 11.16594 ], [ 78.90668, 11.16552 ], [ 78.90945, 11.16312 ], [ 78.91082, 11.16122 ], [ 78.91087, 11.15877 ], [ 78.91374, 11.15665 ], [ 78.91626, 11.15839 ], [ 78.92005, 11.15856 ], [ 78.92137, 11.15961 ], [ 78.92219, 11.16346 ], [ 78.92073, 11.16748 ], [ 78.92183, 11.16875 ], [ 78.92786, 11.17098 ], [ 78.929, 11.17209 ], [ 78.93206, 11.17128 ], [ 78.93562, 11.1723 ], [ 78.93713, 11.17517 ], [ 78.93734, 11.17883 ], [ 78.93634, 11.17891 ], [ 78.93615, 11.18056 ], [ 78.9341, 11.18094 ], [ 78.93711, 11.18369 ], [ 78.93835, 11.18661 ], [ 78.94029, 11.18604 ], [ 78.94344, 11.18644 ], [ 78.94533, 11.18501 ], [ 78.95068, 11.19166 ], [ 78.95541, 11.19209 ], [ 78.95745, 11.18866 ], [ 78.95942, 11.19025 ], [ 78.96673, 11.19032 ], [ 78.97347, 11.19704 ], [ 78.97431, 11.197 ], [ 78.97442, 11.19579 ], [ 78.98382, 11.19404 ], [ 78.98702, 11.19702 ], [ 78.99402, 11.19904 ], [ 79.00092, 11.19869 ], [ 79.00471, 11.19527 ], [ 79.01173, 11.19642 ], [ 79.01234, 11.19464 ], [ 79.0109, 11.1927 ], [ 79.01092, 11.19149 ], [ 79.0114, 11.18648 ], [ 79.01252, 11.18457 ], [ 79.01777, 11.18152 ], [ 79.02988, 11.18181 ], [ 79.03206, 11.18939 ], [ 79.03288, 11.19582 ], [ 79.03245, 11.19875 ], [ 79.03353, 11.20492 ], [ 79.03342, 11.21302 ], [ 79.03503, 11.21387 ], [ 79.05319, 11.20962 ], [ 79.05635, 11.20792 ], [ 79.05852, 11.20508 ], [ 79.06593, 11.20436 ], [ 79.06666, 11.20082 ], [ 79.06626, 11.19697 ], [ 79.06677, 11.1953 ], [ 79.06798, 11.19509 ] ] ] } },
{ "type": "Feature", "properties": { "OBJECTID": 5288, "state_lgd": "33", "state_name": "TAMIL NADU", "district_lgd": "615", "district_name": "PERAMBALUR", "district_name_source": "district_table", "subdistrict_lgd": "05784", "subdistrict_name": "KUNNAM", "subdistrict_type": "", "name_corrupted": false, "remarks": "", "label_lon": 79.037847418111085, "label_lat": 11.298308394048613 }, "geometry": { "type": "Polygon", "coordinates": [ [ [ 78.99941, 11.4062 ], [ 79.00636, 11.39958 ], [ 79.01072, 11.39743 ], [ 79.01997, 11.39503 ], [ 79.02549, 11.39489 ], [ 79.03244, 11.39357 ], [ 79.0488, 11.40186 ], [ 79.053, 11.40283 ], [ 79.07117, 11.40039 ], [ 79.08314, 11.39679 ], [ 79.08769, 11.39682 ], [ 79.10016, 11.40113 ], [ 79.10587, 11.40172 ], [ 79.12366, 11.39517 ], [ 79.12839, 11.3942 ], [ 79.13387, 11.38938 ], [ 79.14247, 11.38426 ], [ 79.14691, 11.38308 ], [ 79.16145, 11.38181 ], [ 79.16815, 11.37842 ], [ 79.16637, 11.37556 ], [ 79.16322, 11.3753 ], [ 79.1635, 11.3704 ], [ 79.16277, 11.36971 ], [ 79.15811, 11.36721 ], [ 79.15314, 11.36683 ], [ 79.15261, 11.36476 ], [ 79.15075, 11.36343 ], [ 79.15064, 11.35779 ], [ 79.15197, 11.35785 ], [ 79.15257, 11.3564 ], [ 79.15498, 11.35593 ], [ 79.15961, 11.34878 ], [ 79.15746, 11.33842 ], [ 79.15032, 11.33973 ], [ 79.14961, 11.33497 ], [ 79.1471, 11.3338 ], [ 79.14071, 11.3324 ], [ 79.13078, 11.33239 ], [ 79.13005, 11.33097 ], [ 79.12887, 11.32147 ], [ 79.12496, 11.31076 ], [ 79.1345, 11.31072 ], [ 79.14091, 11.30931 ], [ 79.1427, 11.29911 ], [ 79.14236, 11.29843 ], [ 79.14167, 11.29886 ], [ 79.14148, 11.29726 ], [ 79.13962, 11.29574 ], [ 79.13927, 11.29001 ], [ 79.13663, 11.293 ], [ 79.1301, 11.29758 ], [ 79.12588, 11.2959 ], [ 79.12342, 11.29603 ], [ 79.11881, 11.29333 ], [ 79.11409, 11.29373 ], [ 79.11102, 11.28896 ], [ 79.11089, 11.28755 ], [ 79.1134, 11.28698 ], [ 79.11303, 11.2828 ], [ 79.10959, 11.28287 ], [ 79.10898, 11.27023 ], [ 79.11523, 11.27043 ], [ 79.11579, 11.26811 ], [ 79.11979, 11.26682 ], [ 79.12054, 11.26371 ], [ 79.12197, 11.26411 ], [ 79.12244, 11.25906 ], [ 79.11998, 11.25885 ], [ 79.12217, 11.24873 ], [ 79.10944, 11.24438 ], [ 79.11117, 11.2306 ], [ 79.1074, 11.23219 ], [ 79.1039, 11.22946 ], [ 79.09891, 11.23067 ], [ 79.09518, 11.21672 ], [ 79.09345, 11.19985 ], [ 79.09146, 11.20046 ], [ 79.09146, 11.19977 ], [ 79.08912, 11.19975 ], [ 79.0874, 11.20317 ], [ 79.08563, 11.2033 ], [ 79.08548, 11.20477 ], [ 79.07989, 11.20382 ], [ 79.07457, 11.20456 ], [ 79.07313, 11.20811 ], [ 79.06593, 11.20436 ], [ 79.05852, 11.20508 ], [ 79.05635, 11.20792 ], [ 79.05319, 11.20962 ], [ 79.03503, 11.21387 ], [ 79.03342, 11.21302 ], [ 79.03353, 11.20492 ], [ 79.03245, 11.19875 ], [ 79.03288, 11.19582 ], [ 79.03206, 11.18939 ], [ 79.02988, 11.18181 ], [ 79.01687, 11.18169 ], [ 79.01203, 11.18498 ], [ 79.0114, 11.18648 ], [ 79.0109, 11.1927 ], [ 79.01245, 11.19542 ], [ 79.01173, 11.19642 ], [ 79.00471, 11.19527 ], [ 79.00092, 11.19869 ], [ 78.99402, 11.19904 ], [ 78.98702, 11.19702 ], [ 78.98382, 11.19404 ], [ 78.97442, 11.19579 ], [ 78.97431, 11.197 ], [ 78.97347, 11.19704 ], [ 78.96673, 11.19032 ], [ 78.95942, 11.19025 ], [ 78.95745, 11.18866 ], [ 78.95541, 11.19209 ], [ 78.95068, 11.19166 ], [ 78.94533, 11.18501 ], [ 78.94344, 11.18644 ], [ 78.94029, 11.18604 ], [ 78.93835, 11.18661 ], [ 78.93935, 11.18851 ], [ 78.93853, 11.19004 ], [ 78.93972, 11.19997 ], [ 78.94451, 11.21132 ], [ 78.94213, 11.21204 ], [ 78.94026, 11.22012 ], [ 78.93941, 11.22111 ], [ 78.93539, 11.22293 ], [ 78.93242, 11.22314 ], [ 78.93228, 11.22538 ], [ 78.9338, 11.22669 ], [ 78.93339, 11.23418 ], [ 78.93179, 11.23604 ], [ 78.9321, 11.23836 ], [ 78.93366, 11.23962 ], [ 78.93631, 11.24007 ], [ 78.93836, 11.24371 ], [ 78.94033, 11.24469 ], [ 78.94115, 11.24714 ], [ 78.94135, 11.25385 ], [ 78.94285, 11.25405 ], [ 78.94189, 11.26226 ], [ 78.94002, 11.2621 ], [ 78.93973, 11.2644 ], [ 78.94129, 11.26451 ], [ 78.94072, 11.2722 ], [ 78.93252, 11.27316 ], [ 78.93178, 11.27234 ], [ 78.92934, 11.27342 ], [ 78.92741, 11.27255 ], [ 78.9253, 11.27329 ], [ 78.92337, 11.27289 ], [ 78.92313, 11.27553 ], [ 78.92201, 11.27597 ], [ 78.92224, 11.28138 ], [ 78.91676, 11.28258 ], [ 78.91675, 11.28444 ], [ 78.91788, 11.28625 ], [ 78.91626, 11.28685 ], [ 78.91596, 11.29348 ], [ 78.92003, 11.29752 ], [ 78.92335, 11.29897 ], [ 78.92403, 11.30415 ], [ 78.92998, 11.3052 ], [ 78.9301, 11.30962 ], [ 78.94178, 11.30926 ], [ 78.94189, 11.31338 ], [ 78.94396, 11.31312 ], [ 78.9442, 11.31642 ], [ 78.94541, 11.31841 ], [ 78.94917, 11.31855 ], [ 78.94961, 11.31971 ], [ 78.95219, 11.32111 ], [ 78.95212, 11.32327 ], [ 78.95056, 11.32385 ], [ 78.95039, 11.32859 ], [ 78.94907, 11.33184 ], [ 78.96509, 11.33388 ], [ 78.96572, 11.34045 ], [ 78.9795, 11.34194 ], [ 78.9882, 11.33881 ], [ 78.99183, 11.34182 ], [ 78.99647, 11.35577 ], [ 78.9974, 11.35557 ], [ 78.99813, 11.36124 ], [ 78.99458, 11.36247 ], [ 78.99346, 11.36602 ], [ 78.99038, 11.36773 ], [ 78.99107, 11.37883 ], [ 78.9799, 11.37701 ], [ 78.98127, 11.38565 ], [ 78.98135, 11.39518 ], [ 78.97669, 11.39522 ], [ 78.97397, 11.39625 ], [ 78.97274, 11.39751 ], [ 78.97249, 11.39994 ], [ 78.97335, 11.40135 ], [ 78.98103, 11.39971 ], [ 78.98192, 11.40297 ], [ 78.98575, 11.40317 ], [ 78.99236, 11.4071 ], [ 78.99508, 11.4076 ], [ 78.99699, 11.40755 ], [ 78.99941, 11.4062 ] ] ] } },
{ "type": "Feature", "properties": { "OBJECTID": 5342, "state_lgd": "33", "state_name": "TAMIL NADU", "district_lgd": "615", "district_name": "PERAMBALUR", "district_name_source": "district_table", "subdistrict_lgd": "05783", "subdistrict_name": "PERAMBALUR", "subdistrict_type": "", "name_corrupted": false, "remarks": "", "label_lon": 78.830922163791428, "label_lat": 11.230337547676609 }, "geometry": { "type": "Polygon", "coordinates": [ [ [ 78.91596, 11.29348 ], [ 78.91626, 11.28685 ], [ 78.91788, 11.28625 ], [ 78.91675, 11.28444 ], [ 78.91676, 11.28258 ], [ 78.92224, 11.28138 ], [ 78.92201, 11.27597 ], [ 78.92313, 11.27553 ], [ 78.92337, 11.27289 ], [ 78.9253, 11.27329 ], [ 78.92741, 11.27255 ], [ 78.92934, 11.27342 ], [ 78.93178, 11.27234 ], [ 78.93252, 11.27316 ], [ 78.94072, 11.2722 ], [ 78.94129, 11.26451 ], [ 78.93973, 11.2644 ], [ 78.94002, 11.2621 ], [ 78.94189, 11.26226 ], [ 78.94285, 11.25405 ], [ 78.94135, 11.25385 ], [ 78.94163, 11.2503 ], [ 78.94033, 11.24469 ], [ 78.93836, 11.24371 ], [ 78.93631, 11.24007 ], [ 78.93366, 11.23962 ], [ 78.9321, 11.23836 ], [ 78.93179, 11.23604 ], [ 78.93339, 11.23418 ], [ 78.9338, 11.22669 ], [ 78.93228, 11.22538 ], [ 78.93242, 11.22314 ], [ 78.93539, 11.22293 ], [ 78.93941, 11.22111 ], [ 78.94026, 11.22012 ], [ 78.94213, 11.21204 ], [ 78.94451, 11.21132 ], [ 78.94004, 11.20177 ], [ 78.93853, 11.19004 ], [ 78.93935, 11.18851 ], [ 78.93711, 11.18369 ], [ 78.9341, 11.18094 ], [ 78.93615, 11.18056 ], [ 78.93634, 11.17891 ], [ 78.93734, 11.17883 ], [ 78.93713, 11.17517 ], [ 78.93562, 11.1723 ], [ 78.93206, 11.17128 ], [ 78.929, 11.17209 ], [ 78.92786, 11.17098 ], [ 78.92183, 11.16875 ], [ 78.92073, 11.16748 ], [ 78.92219, 11.16346 ], [ 78.92169, 11.16016 ], [ 78.92005, 11.15856 ], [ 78.91626, 11.15839 ], [ 78.91374, 11.15665 ], [ 78.91087, 11.15877 ], [ 78.91014, 11.16245 ], [ 78.90668, 11.16552 ], [ 78.90371, 11.16594 ], [ 78.90148, 11.16784 ], [ 78.8991, 11.16746 ], [ 78.89812, 11.16893 ], [ 78.88906, 11.16893 ], [ 78.88704, 11.16821 ], [ 78.88457, 11.17202 ], [ 78.8785, 11.16982 ], [ 78.87221, 11.16986 ], [ 78.87153, 11.17083 ], [ 78.86696, 11.1713 ], [ 78.86641, 11.17299 ], [ 78.85887, 11.17278 ], [ 78.85741, 11.17544 ], [ 78.83203, 11.17464 ], [ 78.82449, 11.16994 ], [ 78.82335, 11.17019 ], [ 78.81754, 11.16439 ], [ 78.81329, 11.1674 ], [ 78.81348, 11.17019 ], [ 78.8007, 11.16909 ], [ 78.79476, 11.16943 ], [ 78.79279, 11.16684 ], [ 78.79011, 11.16891 ], [ 78.78949, 11.16823 ], [ 78.78513, 11.16885 ], [ 78.78422, 11.16677 ], [ 78.78586, 11.16511 ], [ 78.78965, 11.16485 ], [ 78.78936, 11.16263 ], [ 78.78391, 11.15835 ], [ 78.78405, 11.15482 ], [ 78.78027, 11.14495 ], [ 78.77972, 11.14429 ], [ 78.77183, 11.14285 ], [ 78.77028, 11.14217 ], [ 78.7695, 11.13977 ], [ 78.76862, 11.13924 ], [ 78.76604, 11.13942 ], [ 78.76083, 11.13685 ], [ 78.76149, 11.1339 ], [ 78.76037, 11.13306 ], [ 78.75741, 11.13454 ], [ 78.75797, 11.13676 ], [ 78.75642, 11.13627 ], [ 78.75637, 11.13714 ], [ 78.75793, 11.13917 ], [ 78.7563, 11.14132 ], [ 78.75893, 11.1423 ], [ 78.76307, 11.14571 ], [ 78.7613, 11.1548 ], [ 78.75581, 11.17053 ], [ 78.75594, 11.17163 ], [ 78.75787, 11.17238 ], [ 78.75804, 11.18229 ], [ 78.75288, 11.1805 ], [ 78.75058, 11.18107 ], [ 78.74941, 11.18274 ], [ 78.74995, 11.1864 ], [ 78.74881, 11.18553 ], [ 78.74227, 11.18647 ], [ 78.73735, 11.18572 ], [ 78.73707, 11.18632 ], [ 78.7401, 11.18781 ], [ 78.73993, 11.18905 ], [ 78.7435, 11.19363 ], [ 78.74255, 11.19571 ], [ 78.73206, 11.19365 ], [ 78.73146, 11.19297 ], [ 78.72236, 11.19176 ], [ 78.71453, 11.19117 ], [ 78.71195, 11.1924 ], [ 78.70824, 11.19262 ], [ 78.70532, 11.19072 ], [ 78.70519, 11.19267 ], [ 78.70997, 11.19994 ], [ 78.70572, 11.20227 ], [ 78.70625, 11.20753 ], [ 78.70735, 11.20883 ], [ 78.71126, 11.21075 ], [ 78.71278, 11.21379 ], [ 78.7092, 11.22366 ], [ 78.70884, 11.22767 ], [ 78.70428, 11.22733 ], [ 78.70272, 11.22875 ], [ 78.7097, 11.23349 ], [ 78.71344, 11.24001 ], [ 78.7124, 11.24387 ], [ 78.70986, 11.24836 ], [ 78.71307, 11.25139 ], [ 78.71659, 11.25844 ], [ 78.72107, 11.25889 ], [ 78.72607, 11.261 ], [ 78.72602, 11.26379 ], [ 78.72927, 11.26512 ], [ 78.73107, 11.26258 ], [ 78.75055, 11.26813 ], [ 78.75104, 11.27363 ], [ 78.75314, 11.27455 ], [ 78.75896, 11.27947 ], [ 78.76326, 11.2816 ], [ 78.77323, 11.27957 ], [ 78.79235, 11.27965 ], [ 78.80204, 11.28704 ], [ 78.81182, 11.29241 ], [ 78.81222, 11.29647 ], [ 78.81002, 11.30027 ], [ 78.79944, 11.30194 ], [ 78.79999, 11.30391 ], [ 78.79926, 11.30513 ], [ 78.81641, 11.31478 ], [ 78.82426, 11.32121 ], [ 78.82694, 11.32209 ], [ 78.85014, 11.32197 ], [ 78.85083, 11.31693 ], [ 78.85734, 11.3164 ], [ 78.85343, 11.30674 ], [ 78.8535, 11.29957 ], [ 78.87824, 11.30093 ], [ 78.87909, 11.29308 ], [ 78.87793, 11.29187 ], [ 78.878, 11.27915 ], [ 78.89226, 11.28368 ], [ 78.89294, 11.28972 ], [ 78.89383, 11.28901 ], [ 78.89772, 11.29091 ], [ 78.90098, 11.29133 ], [ 78.90195, 11.29587 ], [ 78.90921, 11.29617 ], [ 78.91066, 11.29353 ], [ 78.91596, 11.29348 ] ] ] } },
{ "type": "Feature", "properties": { "OBJECTID": 5450, "state_lgd": "33", "state_name": "TAMIL NADU", "district_lgd": "615", "district_name": "PERAMBALUR", "district_name_source": "district_table", "subdistrict_lgd": "05782", "subdistrict_name": "VEPPANTHATTAI", "subdistrict_type": "", "name_corrupted": false, "remarks": "", "label_lon": 78.823368734493428, "label_lat": 11.384794330318725 }, "geometry": { "type": "Polygon", "coordinates": [ [ [ 78.85673, 11.52348 ], [ 78.86418, 11.51867 ], [ 78.87189, 11.51712 ], [ 78.87262, 11.51163 ], [ 78.87904, 11.50649 ], [ 78.88399, 11.49783 ], [ 78.89007, 11.49371 ], [ 78.89156, 11.4891 ], [ 78.89627, 11.48652 ], [ 78.90867, 11.47592 ], [ 78.9094, 11.47061 ], [ 78.91157, 11.46542 ], [ 78.9157, 11.46283 ], [ 78.91662, 11.45998 ], [ 78.92151, 11.4537 ], [ 78.92475, 11.45258 ], [ 78.92917, 11.44331 ], [ 78.94167, 11.43198 ], [ 78.94447, 11.42786 ], [ 78.94827, 11.41955 ], [ 78.94949, 11.41806 ], [ 78.95608, 11.41417 ], [ 78.96074, 11.4061 ], [ 78.96277, 11.40537 ], [ 78.97218, 11.40562 ], [ 78.98192, 11.40297 ], [ 78.98103, 11.39971 ], [ 78.97335, 11.40135 ], [ 78.97249, 11.39994 ], [ 78.97274, 11.39751 ], [ 78.97397, 11.39625 ], [ 78.97669, 11.39522 ], [ 78.98135, 11.39518 ], [ 78.98127, 11.38565 ], [ 78.9799, 11.37701 ], [ 78.99107, 11.37883 ], [ 78.99038, 11.36773 ], [ 78.99346, 11.36602 ], [ 78.99458, 11.36247 ], [ 78.99813, 11.36124 ], [ 78.9974, 11.35557 ], [ 78.99647, 11.35577 ], [ 78.99262, 11.34367 ], [ 78.99053, 11.34021 ], [ 78.9882, 11.33881 ], [ 78.9795, 11.34194 ], [ 78.96572, 11.34045 ], [ 78.96509, 11.33388 ], [ 78.94907, 11.33184 ], [ 78.95039, 11.32859 ], [ 78.95056, 11.32385 ], [ 78.95212, 11.32327 ], [ 78.95219, 11.32111 ], [ 78.94961, 11.31971 ], [ 78.94917, 11.31855 ], [ 78.94541, 11.31841 ], [ 78.9442, 11.31642 ], [ 78.94396, 11.31312 ], [ 78.94189, 11.31338 ], [ 78.94178, 11.30926 ], [ 78.9301, 11.30962 ], [ 78.92998, 11.3052 ], [ 78.92403, 11.30415 ], [ 78.92335, 11.29897 ], [ 78.92003, 11.29752 ], [ 78.91596, 11.29348 ], [ 78.91066, 11.29353 ], [ 78.90921, 11.29617 ], [ 78.90195, 11.29587 ], [ 78.90098, 11.29133 ], [ 78.89772, 11.29091 ], [ 78.89383, 11.28901 ], [ 78.89294, 11.28972 ], [ 78.89226, 11.28368 ], [ 78.878, 11.27915 ], [ 78.87793, 11.29187 ], [ 78.87909, 11.29308 ], [ 78.87824, 11.30093 ], [ 78.8535, 11.29957 ], [ 78.85343, 11.30674 ], [ 78.85734, 11.3164 ], [ 78.85083, 11.31693 ], [ 78.85014, 11.32197 ], [ 78.82694, 11.32209 ], [ 78.82426, 11.32121 ], [ 78.81641, 11.31478 ], [ 78.79926, 11.30513 ], [ 78.79999, 11.30391 ], [ 78.79944, 11.30194 ], [ 78.81002, 11.30027 ], [ 78.81222, 11.29647 ], [ 78.81182, 11.29241 ], [ 78.80204, 11.28704 ], [ 78.79235, 11.27965 ], [ 78.77323, 11.27957 ], [ 78.76326, 11.2816 ], [ 78.75896, 11.27947 ], [ 78.75314, 11.27455 ], [ 78.75104, 11.27363 ], [ 78.75055, 11.26813 ], [ 78.73107, 11.26258 ], [ 78.72927, 11.26512 ], [ 78.7287, 11.27247 ], [ 78.73556, 11.27469 ], [ 78.73779, 11.27444 ], [ 78.74395, 11.28048 ], [ 78.75121, 11.28479 ], [ 78.74879, 11.28946 ], [ 78.74198, 11.29398 ], [ 78.73887, 11.29406 ], [ 78.73599, 11.31013 ], [ 78.73803, 11.31677 ], [ 78.73313, 11.32336 ], [ 78.71757, 11.32337 ], [ 78.70571, 11.32522 ], [ 78.68687, 11.32433 ], [ 78.68581, 11.32298 ], [ 78.68121, 11.32659 ], [ 78.67844, 11.32746 ], [ 78.67536, 11.32704 ], [ 78.6717, 11.3225 ], [ 78.66585, 11.31727 ], [ 78.66278, 11.32011 ], [ 78.66001, 11.31935 ], [ 78.66098, 11.32233 ], [ 78.6612, 11.33144 ], [ 78.65627, 11.33383 ], [ 78.63973, 11.32856 ], [ 78.63845, 11.33158 ], [ 78.63641, 11.33152 ], [ 78.63544, 11.33389 ], [ 78.63425, 11.33394 ], [ 78.63458, 11.33603 ], [ 78.6408, 11.33653 ], [ 78.65011, 11.34147 ], [ 78.65027, 11.34412 ], [ 78.65523, 11.34465 ], [ 78.65712, 11.34673 ], [ 78.65569, 11.3511 ], [ 78.65965, 11.35795 ], [ 78.66802, 11.36088 ], [ 78.6721, 11.35998 ], [ 78.67378, 11.36305 ], [ 78.67393, 11.36761 ], [ 78.68099, 11.37507 ], [ 78.68849, 11.37716 ], [ 78.69007, 11.38017 ], [ 78.68911, 11.38169 ], [ 78.67624, 11.37869 ], [ 78.67196, 11.37627 ], [ 78.66562, 11.37539 ], [ 78.66319, 11.37379 ], [ 78.66213, 11.37665 ], [ 78.65882, 11.37964 ], [ 78.65838, 11.39399 ], [ 78.65669, 11.40063 ], [ 78.65078, 11.40748 ], [ 78.65133, 11.42242 ], [ 78.66148, 11.42541 ], [ 78.67575, 11.42818 ], [ 78.68835, 11.4355 ], [ 78.68855, 11.44315 ], [ 78.69815, 11.45168 ], [ 78.69967, 11.45574 ], [ 78.70319, 11.45699 ], [ 78.70824, 11.457 ], [ 78.72012, 11.45367 ], [ 78.73255, 11.45188 ], [ 78.74135, 11.44965 ], [ 78.74323, 11.44329 ], [ 78.74881, 11.4414 ], [ 78.75604, 11.43712 ], [ 78.76031, 11.42829 ], [ 78.76238, 11.42855 ], [ 78.7653, 11.42172 ], [ 78.77255, 11.41536 ], [ 78.77129, 11.41252 ], [ 78.77323, 11.40829 ], [ 78.78102, 11.40272 ], [ 78.7814, 11.39854 ], [ 78.78918, 11.3865 ], [ 78.79136, 11.38863 ], [ 78.79233, 11.38843 ], [ 78.79289, 11.38991 ], [ 78.79884, 11.38423 ], [ 78.80143, 11.40221 ], [ 78.80602, 11.40154 ], [ 78.80611, 11.40519 ], [ 78.80778, 11.40473 ], [ 78.80831, 11.40645 ], [ 78.80979, 11.40657 ], [ 78.81211, 11.411 ], [ 78.81275, 11.41663 ], [ 78.82008, 11.42282 ], [ 78.82279, 11.42708 ], [ 78.81889, 11.43215 ], [ 78.81934, 11.43956 ], [ 78.80482, 11.44565 ], [ 78.8034, 11.44636 ], [ 78.80359, 11.44727 ], [ 78.79828, 11.44856 ], [ 78.79842, 11.45033 ], [ 78.79715, 11.45039 ], [ 78.79736, 11.45156 ], [ 78.79417, 11.45244 ], [ 78.79429, 11.45315 ], [ 78.78952, 11.45377 ], [ 78.79045, 11.45721 ], [ 78.79144, 11.45742 ], [ 78.79166, 11.4589 ], [ 78.79258, 11.45894 ], [ 78.79269, 11.46024 ], [ 78.79623, 11.46094 ], [ 78.79843, 11.48188 ], [ 78.80974, 11.48194 ], [ 78.81014, 11.48709 ], [ 78.80869, 11.49042 ], [ 78.81072, 11.49458 ], [ 78.81073, 11.49853 ], [ 78.81198, 11.49875 ], [ 78.81143, 11.50418 ], [ 78.80955, 11.50497 ], [ 78.81027, 11.50792 ], [ 78.81451, 11.5076 ], [ 78.81657, 11.50867 ], [ 78.82209, 11.50963 ], [ 78.8263, 11.50864 ], [ 78.82894, 11.50901 ], [ 78.83036, 11.50721 ], [ 78.83386, 11.50663 ], [ 78.83478, 11.51053 ], [ 78.83389, 11.51083 ], [ 78.83522, 11.51465 ], [ 78.84305, 11.52302 ], [ 78.84479, 11.52198 ], [ 78.85075, 11.52126 ], [ 78.85673, 11.52348 ] ] ] } }
]
}
