{
"type": "FeatureCollection",
"name": "586_SOUTH_GOA",
"crs": { "type": "name", "properties": { "name": "urn:ogc:def:crs:OGC:1.3:CRS84" } },
"xy_coordinate_resolution": 1e-05,
"features": [
{ "type": "Feature", "properties": { "OBJECTID": 3636, "state_lgd": "30", "state_name": "GOA", "district_lgd": "586", "district_name": "SOUTH GOA", "district_name_source": "district_table", "subdistrict_lgd": "05615", "subdistrict_name": "MORMUGAO", "subdistrict_type": "", "name_corrupted": false, "remarks": "", "label_lon": 73.869212228867809, "label_lat": 15.389505201419059 }, "geometry": { "type": "MultiPolygon", "coordinates": [ [ [ [ 73.76032, 15.34406 ], [ 73.76015, 15.34426 ], [ 73.7604, 15.34424 ], [ 73.76032, 15.34406 ] ] ], [ [ [ 73.76641, 15.34861 ], [ 73.76639, 15.34894 ], [ 73.76666, 15.34899 ], [ 73.76641, 15.34861 ] ] ], [ [ [ 73.77369, 15.34916 ], [ 73.77333, 15.34919 ], [ 73.7738, 15.34932 ], [ 73.77369, 15.34916 ] ] ], [ [ [ 73.76424, 15.34941 ], [ 73.76419, 15.34883 ], [ 73.76372, 15.34917 ], [ 73.76424, 15.34941 ] ] ], [ [ [ 73.77143, 15.34982 ], [ 73.77194, 15.34937 ], [ 73.77125, 15.34946 ], [ 73.77143, 15.34982 ] ] ], [ [ [ 73.77448, 15.34962 ], [ 73.77432, 15.34988 ], [ 73.77468, 15.34978 ], [ 73.77448, 15.34962 ] ] ], [ [ [ 73.77335, 15.34961 ], [ 73.77303, 15.34979 ], [ 73.77342, 15.34973 ], [ 73.77335, 15.34961 ] ] ], [ [ [ 73.77108, 15.3496 ], [ 73.77072, 15.34979 ], [ 73.7711, 15.34973 ], [ 73.77108, 15.3496 ] ] ], [ [ [ 73.76822, 15.35177 ], [ 73.76839, 15.35213 ], [ 73.7685, 15.3521 ], [ 73.76822, 15.35177 ] ] ], [ [ [ 73.76168, 15.35365 ], [ 73.76502, 15.35318 ], [ 73.76502, 15.35206 ], [ 73.76735, 15.35155 ], [ 73.76532, 15.35033 ], [ 73.76506, 15.35121 ], [ 73.76351, 15.35093 ], [ 73.76155, 15.35179 ], [ 73.76168, 15.35365 ] ] ], [ [ [ 73.76905, 15.35343 ], [ 73.76902, 15.35359 ], [ 73.76911, 15.35357 ], [ 73.76905, 15.35343 ] ] ], [ [ [ 73.7756, 15.34946 ], [ 73.77575, 15.34966 ], [ 73.77585, 15.34966 ], [ 73.7756, 15.34946 ] ] ], [ [ [ 73.78311, 15.3499 ], [ 73.78304, 15.35011 ], [ 73.78315, 15.35006 ], [ 73.78311, 15.3499 ] ] ], [ [ [ 73.7764, 15.34967 ], [ 73.77655, 15.34981 ], [ 73.77657, 15.34971 ], [ 73.7764, 15.34967 ] ] ], [ [ [ 73.785, 15.35158 ], [ 73.7849, 15.35173 ], [ 73.78516, 15.35171 ], [ 73.785, 15.35158 ] ] ], [ [ [ 73.7825, 15.35482 ], [ 73.78422, 15.35226 ], [ 73.78405, 15.35126 ], [ 73.78244, 15.35052 ], [ 73.78234, 15.34912 ], [ 73.78071, 15.3493 ], [ 73.78136, 15.35025 ], [ 73.7797, 15.35134 ], [ 73.77223, 15.35056 ], [ 73.76882, 15.35199 ], [ 73.77262, 15.35223 ], [ 73.77397, 15.35322 ], [ 73.7825, 15.35482 ] ] ], [ [ [ 73.77626, 15.3546 ], [ 73.77633, 15.35483 ], [ 73.77635, 15.35462 ], [ 73.77626, 15.3546 ] ] ], [ [ [ 73.77461, 15.35487 ], [ 73.77458, 15.35501 ], [ 73.77469, 15.35499 ], [ 73.77461, 15.35487 ] ] ], [ [ [ 73.79431, 15.37808 ], [ 73.79861, 15.37803 ], [ 73.79893, 15.37679 ], [ 73.79682, 15.37316 ], [ 73.79383, 15.37461 ], [ 73.79336, 15.37607 ], [ 73.79431, 15.37808 ] ] ], [ [ [ 73.87464, 15.41777 ], [ 73.89829, 15.41079 ], [ 73.90781, 15.41146 ], [ 73.91741, 15.40966 ], [ 73.92805, 15.40644 ], [ 73.94737, 15.40349 ], [ 73.95019, 15.40082 ], [ 73.95453, 15.38989 ], [ 73.95744, 15.37403 ], [ 73.95018, 15.37364 ], [ 73.94472, 15.36973 ], [ 73.93591, 15.36926 ], [ 73.93271, 15.36968 ], [ 73.92647, 15.37313 ], [ 73.92559, 15.36438 ], [ 73.92432, 15.36395 ], [ 73.92325, 15.36465 ], [ 73.92096, 15.36355 ], [ 73.91911, 15.36736 ], [ 73.91754, 15.3656 ], [ 73.91635, 15.3662 ], [ 73.91587, 15.36379 ], [ 73.91682, 15.36373 ], [ 73.91569, 15.35956 ], [ 73.91611, 15.35769 ], [ 73.91495, 15.35755 ], [ 73.91492, 15.35646 ], [ 73.91196, 15.35595 ], [ 73.91257, 15.35296 ], [ 73.91185, 15.35083 ], [ 73.91126, 15.35092 ], [ 73.91116, 15.34836 ], [ 73.91291, 15.34674 ], [ 73.91448, 15.34281 ], [ 73.91549, 15.34228 ], [ 73.91394, 15.33978 ], [ 73.91422, 15.33855 ], [ 73.91329, 15.3381 ], [ 73.91485, 15.33558 ], [ 73.90669, 15.33192 ], [ 73.90769, 15.3245 ], [ 73.89659, 15.32382 ], [ 73.89496, 15.32745 ], [ 73.89449, 15.33084 ], [ 73.88416, 15.35326 ], [ 73.87918, 15.3619 ], [ 73.87263, 15.36859 ], [ 73.87007, 15.36938 ], [ 73.8684, 15.36843 ], [ 73.86385, 15.36803 ], [ 73.86328, 15.36486 ], [ 73.85379, 15.36391 ], [ 73.8531, 15.36312 ], [ 73.85302, 15.36016 ], [ 73.85133, 15.35899 ], [ 73.84267, 15.35839 ], [ 73.83755, 15.36124 ], [ 73.83551, 15.36523 ], [ 73.83585, 15.36599 ], [ 73.83182, 15.36951 ], [ 73.8303, 15.3681 ], [ 73.82857, 15.36798 ], [ 73.82295, 15.36966 ], [ 73.82166, 15.37185 ], [ 73.81653, 15.37209 ], [ 73.81552, 15.37361 ], [ 73.81181, 15.37582 ], [ 73.80888, 15.37561 ], [ 73.80782, 15.37743 ], [ 73.80969, 15.37894 ], [ 73.80977, 15.38103 ], [ 73.81057, 15.38176 ], [ 73.80959, 15.38105 ], [ 73.80937, 15.37918 ], [ 73.80793, 15.3791 ], [ 73.80816, 15.38404 ], [ 73.80596, 15.39182 ], [ 73.80397, 15.39373 ], [ 73.80035, 15.39239 ], [ 73.79584, 15.39337 ], [ 73.79504, 15.39241 ], [ 73.79059, 15.39386 ], [ 73.78979, 15.39534 ], [ 73.79004, 15.39675 ], [ 73.79092, 15.39721 ], [ 73.79198, 15.39893 ], [ 73.79141, 15.39828 ], [ 73.78946, 15.39915 ], [ 73.78617, 15.40597 ], [ 73.78444, 15.40669 ], [ 73.78369, 15.4081 ], [ 73.7832, 15.41079 ], [ 73.78416, 15.41261 ], [ 73.78691, 15.41319 ], [ 73.7896, 15.41205 ], [ 73.79177, 15.41747 ], [ 73.7919, 15.41917 ], [ 73.78611, 15.43841 ], [ 73.80927, 15.43111 ], [ 73.8391, 15.42852 ], [ 73.84925, 15.4253 ], [ 73.86213, 15.41859 ], [ 73.87464, 15.41777 ] ] ], [ [ [ 73.77436, 15.4002 ], [ 73.77371, 15.39975 ], [ 73.77362, 15.40028 ], [ 73.77436, 15.4002 ] ] ] ] } },
{ "type": "Feature", "properties": { "OBJECTID": 3638, "state_lgd": "30", "state_name": "GOA", "district_lgd": "586", "district_name": "SOUTH GOA", "district_name_source": "district_table", "subdistrict_lgd": "05614", "subdistrict_name": "PONDA", "subdistrict_type": "", "name_corrupted": false, "remarks": "", "label_lon": 74.022828172950042, "label_lat": 15.403937223614649 }, "geometry": { "type": "Polygon", "coordinates": [ [ [ 73.97083, 15.52482 ], [ 73.97437, 15.52284 ], [ 73.98775, 15.51834 ], [ 73.9958, 15.51307 ], [ 73.99825, 15.50871 ], [ 73.99977, 15.50168 ], [ 74.00232, 15.49922 ], [ 74.00595, 15.49798 ], [ 74.01629, 15.49649 ], [ 74.02022, 15.49326 ], [ 74.02227, 15.48946 ], [ 74.02283, 15.48143 ], [ 74.0236, 15.47966 ], [ 74.0316, 15.47763 ], [ 74.03069, 15.47516 ], [ 74.02628, 15.47275 ], [ 74.02867, 15.46949 ], [ 74.03501, 15.46577 ], [ 74.03492, 15.45785 ], [ 74.03701, 15.45522 ], [ 74.03953, 15.45401 ], [ 74.04219, 15.44951 ], [ 74.0467, 15.44504 ], [ 74.0526, 15.44265 ], [ 74.05393, 15.44314 ], [ 74.05353, 15.45013 ], [ 74.0508, 15.45586 ], [ 74.0527, 15.45809 ], [ 74.05984, 15.45977 ], [ 74.06189, 15.45985 ], [ 74.06541, 15.45785 ], [ 74.06755, 15.45905 ], [ 74.06839, 15.46143 ], [ 74.06633, 15.46622 ], [ 74.06678, 15.46924 ], [ 74.06829, 15.4696 ], [ 74.06992, 15.46893 ], [ 74.07829, 15.46047 ], [ 74.08309, 15.46524 ], [ 74.09388, 15.46764 ], [ 74.10038, 15.45894 ], [ 74.10166, 15.44953 ], [ 74.10413, 15.44189 ], [ 74.11959, 15.43358 ], [ 74.11245, 15.42965 ], [ 74.1099, 15.42629 ], [ 74.11021, 15.42426 ], [ 74.10878, 15.42012 ], [ 74.10726, 15.42144 ], [ 74.10398, 15.42741 ], [ 74.09142, 15.42221 ], [ 74.08469, 15.42051 ], [ 74.08275, 15.41798 ], [ 74.07152, 15.41283 ], [ 74.07461, 15.40969 ], [ 74.07188, 15.40488 ], [ 74.07415, 15.40137 ], [ 74.07666, 15.40082 ], [ 74.07731, 15.39973 ], [ 74.07523, 15.39639 ], [ 74.07634, 15.39181 ], [ 74.07716, 15.39148 ], [ 74.07853, 15.39238 ], [ 74.08041, 15.39581 ], [ 74.08108, 15.39392 ], [ 74.08427, 15.39008 ], [ 74.08809, 15.3917 ], [ 74.09074, 15.38206 ], [ 74.09161, 15.38238 ], [ 74.09184, 15.38388 ], [ 74.09433, 15.38362 ], [ 74.09631, 15.38273 ], [ 74.09876, 15.37883 ], [ 74.09811, 15.37781 ], [ 74.09717, 15.37789 ], [ 74.09488, 15.37986 ], [ 74.09342, 15.3762 ], [ 74.09369, 15.37436 ], [ 74.09591, 15.37616 ], [ 74.09735, 15.37574 ], [ 74.09817, 15.3743 ], [ 74.10076, 15.37396 ], [ 74.10099, 15.37119 ], [ 74.10223, 15.36944 ], [ 74.10154, 15.3663 ], [ 74.10456, 15.36517 ], [ 74.10457, 15.36307 ], [ 74.10248, 15.36221 ], [ 74.10111, 15.35904 ], [ 74.10422, 15.35522 ], [ 74.10302, 15.35424 ], [ 74.1018, 15.35542 ], [ 74.10024, 15.35536 ], [ 74.0987, 15.35145 ], [ 74.09968, 15.3502 ], [ 74.10333, 15.34966 ], [ 74.10521, 15.34705 ], [ 74.10366, 15.34617 ], [ 74.10191, 15.34704 ], [ 74.09802, 15.3466 ], [ 74.09607, 15.34523 ], [ 74.09692, 15.34375 ], [ 74.09474, 15.33906 ], [ 74.09536, 15.33792 ], [ 74.09327, 15.33619 ], [ 74.09305, 15.33422 ], [ 74.09096, 15.33199 ], [ 74.08928, 15.33173 ], [ 74.08578, 15.32854 ], [ 74.08387, 15.32784 ], [ 74.0828, 15.32341 ], [ 74.08485, 15.31866 ], [ 74.08788, 15.31741 ], [ 74.08663, 15.31528 ], [ 74.08739, 15.31259 ], [ 74.08672, 15.31129 ], [ 74.09071, 15.30492 ], [ 74.08863, 15.30295 ], [ 74.08816, 15.30008 ], [ 74.09119, 15.29903 ], [ 74.09139, 15.29702 ], [ 74.09288, 15.29605 ], [ 74.0955, 15.29601 ], [ 74.09675, 15.29425 ], [ 74.10534, 15.28745 ], [ 74.10476, 15.28542 ], [ 74.10599, 15.28316 ], [ 74.10201, 15.27574 ], [ 74.10181, 15.27265 ], [ 74.09959, 15.27138 ], [ 74.09961, 15.26976 ], [ 74.09104, 15.26881 ], [ 74.08849, 15.27294 ], [ 74.08639, 15.27429 ], [ 74.08353, 15.27785 ], [ 74.0805, 15.27745 ], [ 74.07496, 15.2748 ], [ 74.06901, 15.28526 ], [ 74.07068, 15.29279 ], [ 74.06394, 15.29794 ], [ 74.05394, 15.30043 ], [ 74.04513, 15.2996 ], [ 74.04228, 15.30146 ], [ 74.04014, 15.3064 ], [ 74.03888, 15.30742 ], [ 74.02998, 15.30331 ], [ 74.02538, 15.30212 ], [ 74.01788, 15.30242 ], [ 74.01406, 15.30349 ], [ 74.01161, 15.3062 ], [ 74.01193, 15.30979 ], [ 74.00964, 15.31485 ], [ 74.00504, 15.33552 ], [ 74.00478, 15.33815 ], [ 74.00626, 15.34337 ], [ 74.00572, 15.34755 ], [ 74.00023, 15.35193 ], [ 73.9927, 15.35426 ], [ 73.98768, 15.3568 ], [ 73.97703, 15.36797 ], [ 73.97177, 15.36914 ], [ 73.96586, 15.36868 ], [ 73.9601, 15.37097 ], [ 73.9573, 15.37421 ], [ 73.95453, 15.38989 ], [ 73.95131, 15.39814 ], [ 73.95019, 15.40082 ], [ 73.94737, 15.40349 ], [ 73.92805, 15.40644 ], [ 73.91847, 15.40934 ], [ 73.92145, 15.4153 ], [ 73.92727, 15.42252 ], [ 73.92712, 15.42808 ], [ 73.92929, 15.43144 ], [ 73.93367, 15.43424 ], [ 73.94086, 15.43552 ], [ 73.94652, 15.43815 ], [ 73.94701, 15.44145 ], [ 73.94522, 15.44749 ], [ 73.94658, 15.45475 ], [ 73.94937, 15.45917 ], [ 73.95488, 15.4601 ], [ 73.95783, 15.46252 ], [ 73.95815, 15.4647 ], [ 73.95717, 15.4685 ], [ 73.95249, 15.47284 ], [ 73.95114, 15.47647 ], [ 73.95199, 15.48039 ], [ 73.95555, 15.48429 ], [ 73.95587, 15.4862 ], [ 73.95583, 15.49001 ], [ 73.95414, 15.49763 ], [ 73.95968, 15.50096 ], [ 73.9622, 15.50099 ], [ 73.96242, 15.502 ], [ 73.9583, 15.50865 ], [ 73.95445, 15.50944 ], [ 73.94985, 15.51328 ], [ 73.94967, 15.51702 ], [ 73.94492, 15.52225 ], [ 73.94476, 15.52331 ], [ 73.9484, 15.52348 ], [ 73.95405, 15.52633 ], [ 73.95561, 15.53043 ], [ 73.95806, 15.5338 ], [ 73.95814, 15.536 ], [ 73.96221, 15.53879 ], [ 73.96513, 15.53672 ], [ 73.96716, 15.53362 ], [ 73.97083, 15.52482 ] ] ] } },
{ "type": "Feature", "properties": { "OBJECTID": 3640, "state_lgd": "30", "state_name": "GOA", "district_lgd": "586", "district_name": "SOUTH GOA", "district_name_source": "district_table", "subdistrict_lgd": "05616", "subdistrict_name": "SALCETE", "subdistrict_type": "", "name_corrupted": false, "remarks": "", "label_lon": 73.979901034287352, "label_lat": 15.259780236741431 }, "geometry": { "type": "Polygon", "coordinates": [ [ [ 73.93438, 15.36938 ], [ 73.94472, 15.36973 ], [ 73.95018, 15.37364 ], [ 73.95538, 15.37414 ], [ 73.95744, 15.37403 ], [ 73.9601, 15.37097 ], [ 73.96495, 15.36885 ], [ 73.97177, 15.36914 ], [ 73.97703, 15.36797 ], [ 73.98768, 15.3568 ], [ 73.9927, 15.35426 ], [ 74.00023, 15.35193 ], [ 74.00572, 15.34755 ], [ 74.00626, 15.34337 ], [ 74.00478, 15.33815 ], [ 74.00504, 15.33552 ], [ 74.00964, 15.31485 ], [ 74.01193, 15.30979 ], [ 74.01161, 15.3062 ], [ 74.0125, 15.30472 ], [ 74.01571, 15.30282 ], [ 74.02538, 15.30212 ], [ 74.02998, 15.30331 ], [ 74.03888, 15.30742 ], [ 74.04014, 15.3064 ], [ 74.04228, 15.30146 ], [ 74.04513, 15.2996 ], [ 74.05394, 15.30043 ], [ 74.05927, 15.29954 ], [ 74.06582, 15.29706 ], [ 74.07068, 15.29279 ], [ 74.06901, 15.28526 ], [ 74.07306, 15.27872 ], [ 74.0744, 15.275 ], [ 74.07076, 15.27109 ], [ 74.0694, 15.26706 ], [ 74.06679, 15.26623 ], [ 74.06252, 15.26684 ], [ 74.06375, 15.26 ], [ 74.05881, 15.25916 ], [ 74.05719, 15.25313 ], [ 74.05226, 15.25342 ], [ 74.04904, 15.24957 ], [ 74.04436, 15.2462 ], [ 74.04608, 15.24357 ], [ 74.04711, 15.23964 ], [ 74.04622, 15.22957 ], [ 74.05598, 15.2252 ], [ 74.06119, 15.22694 ], [ 74.0636, 15.2244 ], [ 74.06367, 15.22251 ], [ 74.063, 15.22089 ], [ 74.05978, 15.21999 ], [ 74.05541, 15.21617 ], [ 74.05193, 15.21488 ], [ 74.04797, 15.21551 ], [ 74.04511, 15.21719 ], [ 74.04429, 15.21626 ], [ 74.04617, 15.21375 ], [ 74.04598, 15.21217 ], [ 74.04815, 15.20621 ], [ 74.04706, 15.20551 ], [ 74.0472, 15.20316 ], [ 74.04645, 15.20169 ], [ 74.04795, 15.20128 ], [ 74.04824, 15.20032 ], [ 74.04512, 15.19802 ], [ 74.04171, 15.19342 ], [ 74.03505, 15.19274 ], [ 74.0352, 15.18461 ], [ 74.04108, 15.17672 ], [ 74.03918, 15.17476 ], [ 74.03177, 15.17395 ], [ 74.02332, 15.17127 ], [ 74.02435, 15.16498 ], [ 74.01764, 15.16359 ], [ 74.0187, 15.16166 ], [ 74.01607, 15.15878 ], [ 74.01344, 15.15835 ], [ 74.0134, 15.15612 ], [ 74.00913, 15.15126 ], [ 74.00575, 15.15189 ], [ 74.00587, 15.15285 ], [ 74.00129, 15.15513 ], [ 74.00123, 15.15655 ], [ 74.00062, 15.15525 ], [ 73.99136, 15.15378 ], [ 73.98107, 15.14837 ], [ 73.97999, 15.14595 ], [ 73.97649, 15.14463 ], [ 73.97562, 15.14526 ], [ 73.97535, 15.14342 ], [ 73.97353, 15.14352 ], [ 73.97073, 15.14149 ], [ 73.97021, 15.14014 ], [ 73.96896, 15.14057 ], [ 73.96789, 15.13945 ], [ 73.96384, 15.1408 ], [ 73.96344, 15.13927 ], [ 73.96191, 15.13881 ], [ 73.96116, 15.13704 ], [ 73.95685, 15.13542 ], [ 73.95529, 15.13631 ], [ 73.95338, 15.14012 ], [ 73.94918, 15.14477 ], [ 73.93869, 15.1846 ], [ 73.9388, 15.18702 ], [ 73.93792, 15.18774 ], [ 73.93604, 15.19497 ], [ 73.93028, 15.2208 ], [ 73.92781, 15.22656 ], [ 73.92833, 15.22856 ], [ 73.92609, 15.2331 ], [ 73.92201, 15.24806 ], [ 73.92001, 15.25129 ], [ 73.91517, 15.2694 ], [ 73.91361, 15.27191 ], [ 73.90921, 15.28549 ], [ 73.90843, 15.29085 ], [ 73.89659, 15.32382 ], [ 73.90769, 15.3245 ], [ 73.90669, 15.33192 ], [ 73.91477, 15.33536 ], [ 73.91329, 15.3381 ], [ 73.91422, 15.33855 ], [ 73.91394, 15.33978 ], [ 73.91549, 15.34228 ], [ 73.91448, 15.34281 ], [ 73.91291, 15.34674 ], [ 73.91116, 15.34836 ], [ 73.91126, 15.35092 ], [ 73.91185, 15.35083 ], [ 73.91257, 15.35296 ], [ 73.91196, 15.35595 ], [ 73.91492, 15.35646 ], [ 73.91495, 15.35755 ], [ 73.91611, 15.35769 ], [ 73.91569, 15.35956 ], [ 73.91682, 15.36373 ], [ 73.91587, 15.36379 ], [ 73.91635, 15.3662 ], [ 73.91754, 15.3656 ], [ 73.91911, 15.36736 ], [ 73.92096, 15.36355 ], [ 73.92325, 15.36465 ], [ 73.92432, 15.36395 ], [ 73.92559, 15.36438 ], [ 73.92647, 15.37313 ], [ 73.93438, 15.36938 ] ] ] } }
]
}
