{"type":"FeatureCollection","name":"DIMAPUR, NAGALAND - Sub-district boundaries","crs_note":"RFC 7946 WGS84 lon/lat (EPSG:4326); source CRS was LCC_WGS84","features":[{"type":"Feature","properties":{"OBJECTID":6092,"state_lgd":"13","state_name":"NAGALAND","district_lgd":"265","district_name":"DIMAPUR","district_name_source":"district_table","subdistrict_lgd":"01796","subdistrict_name":"DIMAPUR SADAR","subdistrict_type":"","name_corrupted":false,"remarks":""},"geometry":{"type":"Polygon","coordinates":[[[93.776329,25.96895],[93.776335,25.968945],[93.776335,25.968947],[93.776343,25.968941],[93.776349,25.968937],[93.776568,25.968778],[93.77658,25.968769],[93.776582,25.968768],[93.776588,25.968763],[93.776589,25.968763],[93.77659,25.968762],[93.776594,25.96876],[93.776594,25.968759],[93.776594,25.968759],[93.776594,25.968759],[93.776595,25.968759],[93.776595,25.968759],[93.776595,25.968758],[93.776595,25.968758],[93.776595,25.968758],[93.776595,25.968757],[93.776598,25.968747],[93.776598,25.968746],[93.776598,25.968746],[93.776599,25.968745],[93.776601,25.968736],[93.776601,25.968736],[93.776606,25.968716],[93.776606,25.968716],[93.776612,25.968695],[93.776612,25.968694],[93.776616,25.96868],[93.776616,25.96868],[93.776621,25.968663],[93.776621,25.968663],[93.776623,25.968654],[93.776623,25.968654],[93.776653,25.968545],[93.776712,25.968326],[93.776724,25.968279],[93.776726,25.968272],[93.776729,25.968263],[93.776728,25.968246],[93.776727,25.968201],[93.776726,25.968192],[93.776725,25.968146],[93.776725,25.968146],[93.776725,25.968139],[93.776725,25.968134],[93.776724,25.96813],[93.77672,25.968005],[93.776715,25.967843],[93.776715,25.967831],[93.776715,25.967825],[93.776714,25.967815],[93.776714,25.967809],[93.776713,25.967775],[93.776699,25.967333],[93.77667,25.9673],[93.77663,25.967256],[93.776571,25.96719],[93.776562,25.96718],[93.776505,25.967116],[93.77646,25.967066],[93.776217,25.966794],[93.775933,25.966737],[93.775282,25.966604],[93.774059,25.966286],[93.773818,25.96605],[93.773864,25.965725],[93.774432,25.965053],[93.774434,25.965051],[93.774837,25.964486],[93.774807,25.963534],[93.774728,25.962344],[93.774617,25.961192],[93.774625,25.961167],[93.774865,25.960923],[93.775063,25.960793],[93.775469,25.960661],[93.776153,25.960624],[93.776974,25.960699],[93.777671,25.960645],[93.777894,25.960412],[93.777856,25.960174],[93.777639,25.959959],[93.776643,25.959499],[93.776281,25.959003],[93.776219,25.958744],[93.77628,25.958528],[93.776355,25.958135],[93.776479,25.957873],[93.777725,25.957278],[93.778741,25.956963],[93.778866,25.956924],[93.779433,25.956749],[93.77985,25.956519],[93.780052,25.956247],[93.78018,25.955662],[93.78024,25.955343],[93.780387,25.954554],[93.780791,25.954062],[93.781466,25.953063],[93.781803,25.952512],[93.781975,25.95223],[93.782101,25.952024],[93.782424,25.951315],[93.782635,25.950697],[93.782727,25.950422],[93.783193,25.950092],[93.783567,25.950002],[93.78386,25.949959],[93.784494,25.949912],[93.785152,25.949855],[93.785343,25.949679],[93.785722,25.949075],[93.786882,25.946648],[93.78688,25.946225],[93.786878,25.946006],[93.786823,25.945728],[93.786522,25.945372],[93.786173,25.945028],[93.785705,25.944944],[93.785012,25.944959],[93.784413,25.944832],[93.784081,25.944461],[93.78409,25.943883],[93.78423,25.943725],[93.784451,25.943457],[93.784905,25.943358],[93.785372,25.943452],[93.785769,25.943667],[93.786153,25.943838],[93.786477,25.943987],[93.786788,25.94396],[93.786851,25.943879],[93.786846,25.943726],[93.786761,25.943479],[93.786423,25.943127],[93.786241,25.942727],[93.786058,25.942106],[93.785978,25.94184],[93.786003,25.94165],[93.786014,25.941574],[93.786018,25.941538],[93.786193,25.941307],[93.786943,25.940527],[93.787023,25.940428],[93.787118,25.94004],[93.786927,25.939769],[93.786722,25.939543],[93.786481,25.939263],[93.786299,25.938614],[93.786279,25.938559],[93.78628,25.938257],[93.786675,25.937102],[93.78706,25.935877],[93.78719,25.935404],[93.787201,25.935364],[93.787516,25.935012],[93.787801,25.934901],[93.788495,25.934693],[93.788545,25.934677],[93.788841,25.934583],[93.789328,25.934305],[93.789428,25.933967],[93.789301,25.933542],[93.789131,25.933261],[93.788676,25.933165],[93.788282,25.933238],[93.787253,25.933287],[93.786535,25.933172],[93.785963,25.93273],[93.785768,25.932463],[93.785807,25.932153],[93.785989,25.931985],[93.786418,25.931852],[93.786872,25.931763],[93.787301,25.931538],[93.787377,25.931271],[93.787382,25.931254],[93.78724,25.931035],[93.786811,25.930574],[93.786632,25.930308],[93.786692,25.930182],[93.786835,25.929919],[93.787229,25.929787],[93.78791,25.929813],[93.788412,25.929854],[93.788939,25.929927],[93.789417,25.929805],[93.789666,25.929512],[93.789795,25.929078],[93.789506,25.928809],[93.788895,25.928707],[93.788237,25.928646],[93.788062,25.928376],[93.78821,25.928138],[93.788279,25.928044],[93.788385,25.927901],[93.788955,25.927653],[93.789584,25.927299],[93.789918,25.927047],[93.790253,25.926623],[93.790328,25.926284],[93.790254,25.926],[93.789748,25.925575],[93.789529,25.925263],[93.789326,25.924975],[93.789271,25.924781],[93.789271,25.924522],[93.789272,25.923982],[93.789192,25.923535],[93.788958,25.923039],[93.788524,25.922524],[93.788485,25.922312],[93.788545,25.921973],[93.788705,25.921725],[93.789134,25.921333],[93.789683,25.920967],[93.789918,25.920701],[93.789938,25.920435],[93.789864,25.920115],[93.789567,25.919934],[93.789049,25.919439],[93.788782,25.918886],[93.788627,25.918268],[93.788414,25.91777],[93.788404,25.917748],[93.788113,25.917194],[93.788081,25.916882],[93.788075,25.916826],[93.78815,25.916729],[93.788287,25.916552],[93.789242,25.916298],[93.7904,25.915924],[93.791056,25.915628],[93.791245,25.9154],[93.791244,25.915128],[93.791243,25.915108],[93.790858,25.91471],[93.79064,25.914354],[93.790698,25.913985],[93.791011,25.913482],[93.791076,25.913377],[93.791586,25.91266],[93.79198,25.912496],[93.792506,25.912558],[93.793082,25.912814],[93.793418,25.912899],[93.793669,25.912876],[93.793811,25.912756],[93.793773,25.912432],[93.793374,25.911774],[93.792962,25.910943],[93.792898,25.91041],[93.793345,25.909228],[93.793721,25.908252],[93.793658,25.907711],[93.793489,25.907463],[93.793189,25.907367],[93.792615,25.907392],[93.791659,25.90743],[93.791442,25.90729],[93.791333,25.907074],[93.791486,25.906641],[93.792343,25.906019],[93.793012,25.905994],[93.793384,25.906122],[93.794429,25.906722],[93.794813,25.906926],[93.795028,25.90687],[93.79517,25.906675],[93.795059,25.906221],[93.794647,25.905347],[93.794473,25.904576],[93.794546,25.904478],[93.794699,25.904272],[93.795162,25.903879],[93.795505,25.903239],[93.795406,25.902666],[93.795352,25.90242],[93.79534,25.902364],[93.795332,25.902329],[93.795319,25.902271],[93.795245,25.901931],[93.795179,25.901492],[93.795107,25.901023],[93.795094,25.900827],[93.795088,25.900737],[93.795085,25.900692],[93.795078,25.900586],[93.795068,25.900439],[93.794803,25.90017],[93.794132,25.900054],[93.793618,25.900025],[93.793318,25.89994],[93.79321,25.899789],[93.793339,25.899474],[93.793463,25.899331],[93.793743,25.899007],[93.793788,25.898671],[93.793628,25.898044],[93.793481,25.897394],[93.793344,25.896692],[93.792955,25.895633],[93.793047,25.895178],[93.794046,25.89435],[93.794664,25.893687],[93.794834,25.893183],[93.794765,25.892527],[93.794757,25.892447],[93.79442,25.892081],[93.793941,25.892019],[93.792626,25.892134],[93.792075,25.891964],[93.791715,25.891706],[93.791378,25.891383],[93.791304,25.891081],[93.791506,25.890625],[93.791563,25.890495],[93.791727,25.88991],[93.791582,25.889694],[93.790889,25.889849],[93.789745,25.890397],[93.789124,25.890552],[93.788788,25.890337],[93.788353,25.889668],[93.787704,25.889239],[93.787296,25.889025],[93.787127,25.888744],[93.78681,25.887837],[93.786543,25.887254],[93.785773,25.886501],[93.784643,25.885685],[93.783635,25.885127],[93.783442,25.884782],[93.783546,25.884094],[93.783546,25.883869],[93.783686,25.883621],[93.784116,25.883179],[93.784311,25.88275],[93.784351,25.88243],[93.784317,25.88224],[93.784157,25.881346],[93.784123,25.881091],[93.784026,25.880363],[93.784003,25.880191],[93.783893,25.880296],[93.783336,25.880825],[93.783269,25.880806],[93.783207,25.880811],[93.782998,25.880825],[93.782539,25.880864],[93.782236,25.881008],[93.781873,25.88118],[93.781394,25.881469],[93.781131,25.881593],[93.780889,25.881629],[93.780823,25.881588],[93.78055,25.881116],[93.780285,25.880742],[93.780048,25.880726],[93.779809,25.880836],[93.779443,25.881052],[93.778967,25.881307],[93.778068,25.881768],[93.775671,25.882847],[93.773804,25.883739],[93.773648,25.883817],[93.773644,25.883819],[93.771627,25.884827],[93.770671,25.885213],[93.770604,25.885246],[93.770592,25.885252],[93.769546,25.885767],[93.767924,25.886553],[93.767917,25.886557],[93.767279,25.886866],[93.767265,25.886872],[93.766435,25.887225],[93.764981,25.887955],[93.76432,25.888251],[93.764307,25.888256],[93.763588,25.888578],[93.762994,25.888931],[93.762287,25.889295],[93.762068,25.889383],[93.762039,25.889395],[93.761758,25.889508],[93.761549,25.889593],[93.761538,25.889597],[93.761424,25.889643],[93.760929,25.889716],[93.760563,25.889993],[93.760563,25.889993],[93.760479,25.890057],[93.760023,25.890608],[93.759907,25.890631],[93.759488,25.890593],[93.75948,25.890592],[93.759028,25.890517],[93.758653,25.890395],[93.758637,25.89039],[93.758155,25.890232],[93.758138,25.890227],[93.75814,25.890224],[93.758146,25.890208],[93.758777,25.888699],[93.758781,25.88869],[93.758991,25.888187],[93.759094,25.88794],[93.759113,25.887894],[93.759292,25.887465],[93.759343,25.887343],[93.759527,25.886906],[93.759802,25.886254],[93.759807,25.886242],[93.759835,25.886177],[93.760063,25.885633],[93.760182,25.885352],[93.76072,25.884073],[93.760925,25.883588],[93.76103,25.883341],[93.761062,25.883265],[93.761138,25.883088],[93.761436,25.882389],[93.761439,25.882382],[93.761454,25.882347],[93.761481,25.882284],[93.761465,25.882278],[93.760853,25.882324],[93.760666,25.882338],[93.760627,25.882347],[93.760583,25.882358],[93.760319,25.882425],[93.760156,25.882425],[93.760122,25.882425],[93.759577,25.882425],[93.75951,25.882421],[93.759212,25.882402],[93.75877,25.882213],[93.758286,25.882005],[93.758046,25.881937],[93.758042,25.881936],[93.757682,25.881833],[93.757078,25.881738],[93.756554,25.881737],[93.756114,25.881832],[93.755627,25.88198],[93.755624,25.881981],[93.75542,25.882043],[93.755126,25.882161],[93.755107,25.882168],[93.754856,25.882269],[93.754227,25.882583],[93.753737,25.882827],[93.753722,25.882828],[93.753699,25.882811],[93.753637,25.882766],[93.753126,25.882382],[93.752947,25.882197],[93.752939,25.882189],[93.752471,25.881702],[93.75182,25.881003],[93.751704,25.880929],[93.751694,25.880923],[93.751501,25.8808],[93.751498,25.880798],[93.751135,25.880567],[93.75108,25.880553],[93.751079,25.880552],[93.750345,25.880366],[93.750081,25.880375],[93.749999,25.880371],[93.749859,25.880373],[93.749843,25.880373],[93.749773,25.880375],[93.749137,25.880444],[93.749056,25.88046],[93.749004,25.880471],[93.74899,25.880473],[93.748858,25.8805],[93.748284,25.880616],[93.748279,25.880617],[93.748244,25.880622],[93.748244,25.880622],[93.747772,25.880678],[93.747479,25.880713],[93.747207,25.880715],[93.747165,25.880716],[93.747162,25.880716],[93.746831,25.880719],[93.74683,25.880719],[93.746748,25.88072],[93.746747,25.88072],[93.746712,25.880721],[93.746709,25.880721],[93.746682,25.880724],[93.746131,25.880789],[93.745921,25.880798],[93.745393,25.880819],[93.744039,25.880998],[93.743783,25.881066],[93.74262,25.881378],[93.74189,25.881628],[93.740724,25.881849],[93.739703,25.882008],[93.73934,25.881952],[93.738875,25.881748],[93.738513,25.881736],[93.73841,25.881573],[93.73829,25.881363],[93.7382,25.881192],[93.738148,25.881092],[93.737969,25.880839],[93.737771,25.880714],[93.737624,25.880703],[93.73742,25.880765],[93.736954,25.880977],[93.736832,25.881032],[93.736271,25.881238],[93.735699,25.881548],[93.735179,25.881795],[93.734329,25.882139],[93.733537,25.882366],[93.73285,25.882559],[93.732296,25.882637],[93.731702,25.88265],[93.730614,25.882812],[93.730563,25.882819],[93.729651,25.88313],[93.729028,25.883278],[93.728756,25.88331],[93.728756,25.88331],[93.728311,25.882524],[93.728296,25.882483],[93.727981,25.881631],[93.727551,25.880092],[93.727844,25.879905],[93.728293,25.879749],[93.729093,25.879453],[93.729746,25.87945],[93.730522,25.879685],[93.730523,25.879685],[93.730644,25.879776],[93.731073,25.880098],[93.731227,25.880145],[93.731312,25.880171],[93.731612,25.880166],[93.731783,25.880067],[93.731871,25.880017],[93.731871,25.880017],[93.731907,25.879963],[93.731987,25.879838],[93.732112,25.879559],[93.732115,25.879551],[93.732116,25.879549],[93.732121,25.879446],[93.73214,25.879114],[93.732044,25.878472],[93.731999,25.878171],[93.731944,25.877602],[93.73193,25.877131],[93.731923,25.876859],[93.731921,25.876806],[93.731887,25.875607],[93.731836,25.875247],[93.731823,25.875151],[93.731803,25.875096],[93.731732,25.874894],[93.731477,25.874502],[93.731475,25.874499],[93.731078,25.874118],[93.73095,25.874012],[93.730678,25.873785],[93.730634,25.87376],[93.730613,25.873749],[93.730444,25.873631],[93.730105,25.873538],[93.730099,25.873537],[93.729311,25.873384],[93.728982,25.873384],[93.728433,25.87347],[93.727286,25.87385],[93.726313,25.874149],[93.726084,25.874203],[93.726052,25.87421],[93.725795,25.874271],[93.725316,25.874361],[93.724622,25.874389],[93.724238,25.874326],[93.724238,25.874326],[93.724107,25.874227],[93.724107,25.874227],[93.72393,25.874091],[93.723656,25.873743],[93.72358,25.873542],[93.723558,25.873485],[93.723424,25.873122],[93.723321,25.872522],[93.723289,25.872337],[93.723289,25.872336],[93.723174,25.872165],[93.722959,25.871777],[93.72273,25.871549],[93.722757,25.871462],[93.722982,25.870987],[93.723308,25.870892],[93.723487,25.870865],[93.72418,25.870892],[93.724626,25.870853],[93.725013,25.870797],[93.725309,25.870613],[93.725412,25.870398],[93.725401,25.87015],[93.7252,25.869749],[93.725201,25.869419],[93.725429,25.869168],[93.725626,25.869],[93.725626,25.86893],[93.725539,25.868835],[93.725339,25.868669],[93.725166,25.868461],[93.72518,25.868364],[93.725234,25.868077],[93.72533,25.867833],[93.725591,25.867517],[93.72563,25.867121],[93.725612,25.866803],[93.725209,25.866421],[93.724499,25.866039],[93.724121,25.865768],[93.72369,25.865271],[93.723462,25.864887],[93.723348,25.864544],[93.723462,25.864174],[93.723749,25.863598],[93.724103,25.86312],[93.724124,25.862795],[93.723899,25.862213],[93.723504,25.86216],[93.722931,25.862108],[93.722904,25.862161],[93.722821,25.862367],[93.722689,25.862723],[93.722518,25.863091],[93.722419,25.863452],[93.722294,25.863866],[93.722232,25.864195],[93.722005,25.864501],[93.721691,25.864742],[93.721265,25.864933],[93.720873,25.86521],[93.720124,25.865702],[93.719446,25.866033],[93.718632,25.866311],[93.71795,25.866452],[93.717682,25.86638],[93.717422,25.865999],[93.71721,25.865306],[93.71717,25.865204],[93.71666,25.863895],[93.716083,25.862757],[93.715556,25.862004],[93.715113,25.861588],[93.714936,25.861376],[93.714924,25.861113],[93.715125,25.86064],[93.71548,25.860029],[93.715634,25.858974],[93.71575,25.858171],[93.715345,25.857649],[93.715263,25.857571],[93.714161,25.856521],[93.713128,25.855746],[93.712425,25.855789],[93.712425,25.855789],[93.712294,25.855797],[93.712102,25.855658],[93.712024,25.855558],[93.712018,25.855551],[93.711882,25.855378],[93.711742,25.855017],[93.711697,25.854805],[93.711767,25.854547],[93.711991,25.854168],[93.712475,25.853658],[93.713447,25.852953],[93.713975,25.852574],[93.71418,25.852339],[93.714229,25.852167],[93.714237,25.851971],[93.714237,25.851968],[93.714254,25.851522],[93.714208,25.851282],[93.714169,25.85108],[93.714064,25.850452],[93.713844,25.849834],[93.713784,25.849351],[93.713798,25.849004],[93.713893,25.848589],[93.713999,25.848415],[93.714062,25.848313],[93.714456,25.847943],[93.714718,25.847723],[93.714735,25.847708],[93.715169,25.847302],[93.715512,25.846936],[93.715513,25.846936],[93.715657,25.846651],[93.715786,25.846123],[93.715701,25.84578],[93.715397,25.84532],[93.715122,25.845054],[93.714987,25.844896],[93.714799,25.844764],[93.714674,25.844677],[93.714491,25.844548],[93.714322,25.844513],[93.714126,25.844629],[93.714123,25.844631],[93.713954,25.844731],[93.713879,25.844776],[93.713799,25.844823],[93.710382,25.846845],[93.708761,25.847804],[93.708504,25.847956],[93.702805,25.851186],[93.702612,25.851281],[93.702077,25.851543],[93.702025,25.851717],[93.702024,25.851721],[93.701871,25.852236],[93.701854,25.852294],[93.70182,25.852408],[93.701743,25.852667],[93.701668,25.852852],[93.701351,25.853625],[93.701163,25.854084],[93.701011,25.854455],[93.701,25.854482],[93.700751,25.855116],[93.700329,25.85619],[93.700164,25.856609],[93.700053,25.85689],[93.699888,25.85731],[93.699707,25.857772],[93.699657,25.857899],[93.699603,25.858029],[93.699593,25.858053],[93.699393,25.858534],[93.698627,25.86038],[93.698605,25.860432],[93.698581,25.86049],[93.698527,25.860621],[93.698212,25.861379],[93.698145,25.861529],[93.698103,25.861623],[93.698097,25.861637],[93.698063,25.861713],[93.698037,25.861771],[93.698034,25.861777],[93.697987,25.861883],[93.697943,25.86198],[93.697921,25.862031],[93.697879,25.862123],[93.697868,25.862148],[93.697836,25.862219],[93.697767,25.862373],[93.697749,25.862413],[93.697682,25.862563],[93.697672,25.862586],[93.697653,25.86263],[93.6976,25.862746],[93.697568,25.86282],[93.697543,25.862875],[93.697543,25.862875],[93.697514,25.86294],[93.697513,25.862941],[93.697513,25.862942],[93.697505,25.862959],[93.697497,25.86298],[93.697495,25.862984],[93.697457,25.863084],[93.697413,25.863195],[93.697408,25.863208],[93.697135,25.863909],[93.696756,25.864883],[93.696524,25.865479],[93.695849,25.86721],[93.695567,25.867934],[93.695385,25.868387],[93.694924,25.869533],[93.694605,25.870326],[93.694494,25.870602],[93.694275,25.871146],[93.693803,25.872318],[93.693791,25.872349],[93.693645,25.872712],[93.693524,25.87301],[93.693428,25.873251],[93.693259,25.873669],[93.693251,25.87369],[93.693131,25.873988],[93.692949,25.87444],[93.692866,25.874647],[93.69283,25.874736],[93.692652,25.875179],[93.692275,25.876118],[93.692055,25.876664],[93.691914,25.877067],[93.691323,25.878742],[93.690855,25.880071],[93.69074,25.880397],[93.690624,25.880727],[93.690422,25.881296],[93.690408,25.881336],[93.690171,25.882005],[93.690147,25.882074],[93.690135,25.882107],[93.690063,25.882311],[93.689064,25.884742],[93.688688,25.885656],[93.68859,25.885933],[93.688511,25.886156],[93.688061,25.887425],[93.688046,25.887468],[93.687487,25.889044],[93.687208,25.889833],[93.687034,25.890323],[93.687028,25.890341],[93.686904,25.890689],[93.686831,25.890862],[93.686176,25.892411],[93.685922,25.893012],[93.685776,25.893356],[93.685705,25.893526],[93.685412,25.894219],[93.685411,25.894219],[93.685373,25.894311],[93.685337,25.894395],[93.685072,25.895022],[93.685013,25.895163],[93.684883,25.89547],[93.684638,25.896047],[93.684587,25.896169],[93.684227,25.897019],[93.68413,25.897248],[93.684129,25.897252],[93.68397,25.897627],[93.683934,25.897713],[93.683919,25.897751],[93.683905,25.897784],[93.683806,25.898031],[93.683579,25.898596],[93.683552,25.898663],[93.683417,25.898997],[93.683296,25.899298],[93.683196,25.899548],[93.682974,25.9001],[93.682882,25.900329],[93.682686,25.900816],[93.682681,25.900829],[93.682596,25.901039],[93.682188,25.902053],[93.682025,25.902459],[93.681861,25.902868],[93.681685,25.903441],[93.681629,25.903553],[93.681505,25.903803],[93.681506,25.90383],[93.681529,25.904386],[93.681661,25.904383],[93.681856,25.904379],[93.682286,25.904235],[93.682872,25.903681],[93.683091,25.903513],[93.683471,25.903377],[93.683596,25.903381],[93.68419,25.903398],[93.684765,25.903702],[93.684957,25.90407],[93.684885,25.904569],[93.684885,25.904713],[93.685005,25.904786],[93.685269,25.904786],[93.685748,25.904829],[93.686419,25.905328],[93.686946,25.906108],[93.687082,25.906392],[93.687258,25.906759],[93.687642,25.907431],[93.687732,25.907579],[93.687884,25.907651],[93.688204,25.90775],[93.689666,25.907623],[93.689713,25.907619],[93.690072,25.907662],[93.69036,25.907857],[93.690912,25.908963],[93.690997,25.909376],[93.691272,25.909852],[93.691727,25.910264],[93.692278,25.910611],[93.69374,25.911456],[93.693976,25.911723],[93.694287,25.911766],[93.695581,25.911635],[93.696228,25.911635],[93.697162,25.911331],[93.698073,25.9112],[93.698598,25.911197],[93.699127,25.91133],[93.700109,25.911047],[93.700876,25.910657],[93.701619,25.911307],[93.702366,25.912146],[93.703267,25.912929],[93.704178,25.913948],[93.705065,25.914555],[93.705449,25.914923],[93.705449,25.915422],[93.705369,25.91555],[93.705042,25.916073],[93.705021,25.916168],[93.704947,25.916506],[93.705115,25.91694],[93.705906,25.917829],[93.706242,25.918349],[93.706406,25.918553],[93.706626,25.918826],[93.707057,25.918999],[93.707848,25.91889],[93.708106,25.918867],[93.708429,25.918839],[93.708806,25.918651],[93.709596,25.918239],[93.710171,25.917631],[93.711124,25.917093],[93.712418,25.916919],[93.713616,25.91681],[93.714023,25.916875],[93.714742,25.917525],[93.715337,25.918372],[93.715553,25.918625],[93.715792,25.918726],[93.716103,25.91877],[93.71675,25.918813],[93.71723,25.91916],[93.717925,25.919571],[93.718692,25.919853],[93.719316,25.919751],[93.719626,25.9197],[93.720729,25.9197],[93.722214,25.920002],[93.722948,25.920148],[93.724108,25.920608],[93.72504,25.920836],[93.725992,25.920921],[93.725999,25.920922],[93.726609,25.920826],[93.727245,25.920639],[93.727973,25.920536],[93.728212,25.920579],[93.728644,25.920926],[93.729316,25.921815],[93.729867,25.922356],[93.730898,25.922659],[93.732192,25.922962],[93.733246,25.923005],[93.733558,25.922961],[93.733654,25.923048],[93.733782,25.923307],[93.733702,25.923498],[93.733654,25.923611],[93.733654,25.923612],[93.73375,25.923807],[93.733966,25.923893],[93.734253,25.923893],[93.734281,25.923853],[93.734373,25.923719],[93.734309,25.923411],[93.734301,25.923372],[93.734325,25.923221],[93.73454,25.92322],[93.73466,25.923307],[93.734804,25.923589],[93.734972,25.923654],[93.735094,25.923622],[93.73514,25.92361],[93.735251,25.923039],[93.735283,25.922873],[93.73545,25.922786],[93.735906,25.922742],[93.736145,25.922764],[93.736481,25.923024],[93.736553,25.923479],[93.736865,25.923913],[93.736866,25.924476],[93.736866,25.924802],[93.736898,25.925005],[93.737034,25.925149],[93.737921,25.925343],[93.7384,25.925256],[93.73864,25.925321],[93.738688,25.925624],[93.738588,25.925689],[93.738353,25.925842],[93.738161,25.925907],[93.738113,25.926059],[93.738128,25.926082],[93.738257,25.926287],[93.738258,25.926532],[93.738177,25.926555],[93.73809,25.926579],[93.737251,25.926797],[93.737207,25.926978],[93.737156,25.927187],[93.737113,25.927225],[93.736992,25.927332],[93.736768,25.927361],[93.736653,25.927491],[93.736553,25.927671],[93.736561,25.927704],[93.736606,25.927903],[93.73737,25.92815],[93.737681,25.928106],[93.73785,25.928216],[93.738045,25.928532],[93.738321,25.928649],[93.73856,25.928685],[93.73864,25.928771],[93.7388,25.929139],[93.738977,25.929472],[93.739103,25.929637],[93.739289,25.929688],[93.73939,25.929665],[93.739528,25.929818],[93.739523,25.929976],[93.739523,25.929978],[93.739522,25.93],[93.739505,25.930555],[93.739426,25.930699],[93.739218,25.931076],[93.739214,25.931129],[93.739194,25.93138],[93.739317,25.93153],[93.73953,25.931792],[93.740322,25.931737],[93.740793,25.93183],[93.74108,25.932017],[93.741399,25.932082],[93.742236,25.932053],[93.742856,25.932222],[93.743451,25.932505],[93.74407,25.933324],[93.744853,25.933846],[93.745677,25.93433],[93.746624,25.934733],[93.746645,25.934743],[93.747395,25.934878],[93.747642,25.934922],[93.748351,25.934941],[93.748889,25.93489],[93.74892,25.934887],[93.749235,25.934725],[93.749247,25.934714],[93.749625,25.934355],[93.749662,25.934277],[93.749745,25.934103],[93.749645,25.933412],[93.749626,25.933074],[93.749666,25.932863],[93.749686,25.932753],[93.749841,25.932541],[93.750096,25.932456],[93.75051,25.932456],[93.750864,25.932578],[93.751313,25.932809],[93.751822,25.93322],[93.752116,25.933559],[93.75241,25.933897],[93.75253,25.934231],[93.752521,25.934424],[93.752509,25.934678],[93.752354,25.935423],[93.752293,25.93552],[93.752019,25.93596],[93.751469,25.936401],[93.750875,25.936685],[93.749542,25.936932],[93.749187,25.937094],[93.748578,25.93759],[93.747634,25.938398],[93.747064,25.938555],[93.74681,25.938489],[93.746762,25.938477],[93.746455,25.938518],[93.746451,25.938522],[93.746204,25.938701],[93.745467,25.939762],[93.745431,25.939889],[93.745185,25.940761],[93.745106,25.942137],[93.745117,25.942337],[93.745382,25.942779],[93.745766,25.943046],[93.746213,25.94308],[93.746691,25.943171],[93.746788,25.943172],[93.747139,25.943177],[93.747689,25.942681],[93.748694,25.941382],[93.749183,25.940922],[93.749538,25.940796],[93.749676,25.940784],[93.749912,25.940764],[93.750381,25.940869],[93.75115,25.941136],[93.751833,25.941493],[93.752327,25.94185],[93.752462,25.942116],[93.752421,25.942612],[93.752394,25.94269],[93.752126,25.943447],[93.751951,25.943957],[93.75191,25.944417],[93.751969,25.945058],[93.752323,25.945695],[93.752697,25.946444],[93.752931,25.946675],[93.753106,25.946693],[93.753386,25.946585],[93.754068,25.94619],[93.75418,25.946125],[93.755358,25.945503],[93.755944,25.945329],[93.756068,25.945292],[93.756751,25.94522],[93.75746,25.945275],[93.758089,25.945348],[93.758463,25.945506],[93.758718,25.9457],[93.758932,25.946057],[93.759012,25.94645],[93.759029,25.946719],[93.759031,25.946752],[93.759031,25.947108],[93.75895,25.947295],[93.758938,25.947321],[93.758676,25.947925],[93.758674,25.947933],[93.758535,25.948814],[93.758432,25.949271],[93.758304,25.949834],[93.758231,25.949993],[93.757769,25.950989],[93.757765,25.951014],[93.757709,25.951359],[93.757828,25.951873],[93.758202,25.952393],[93.758651,25.952623],[93.759065,25.952696],[93.75952,25.952642],[93.760069,25.952304],[93.760934,25.951578],[93.761221,25.951331],[93.761243,25.951312],[93.761498,25.951168],[93.761813,25.951136],[93.762107,25.951259],[93.762207,25.951349],[93.762322,25.951453],[93.762675,25.952094],[93.762809,25.952929],[93.763008,25.953963],[93.763202,25.954315],[93.763692,25.95446],[93.764206,25.954442],[93.764595,25.95437],[93.764876,25.954165],[93.76491,25.95414],[93.76497,25.953928],[93.764891,25.953571],[93.764188,25.951951],[93.764181,25.951933],[93.763989,25.951436],[93.763995,25.95138],[93.764019,25.95116],[93.764029,25.951061],[93.764189,25.950849],[93.764504,25.95071],[93.765133,25.950728],[93.765777,25.950693],[93.766329,25.950577],[93.766466,25.950549],[93.766975,25.950373],[93.767103,25.950381],[93.767275,25.950391],[93.767549,25.950513],[93.767958,25.951015],[93.768272,25.951548],[93.768366,25.952522],[93.768366,25.953019],[93.76823,25.953587],[93.768172,25.953684],[93.767735,25.954404],[93.766958,25.955245],[93.766885,25.955325],[93.765831,25.956465],[93.763867,25.958553],[93.76383,25.958615],[93.763592,25.959],[93.763585,25.959072],[93.763552,25.95937],[93.763707,25.959672],[93.764061,25.959975],[93.764236,25.960029],[93.764415,25.960084],[93.765044,25.959994],[93.766597,25.95948],[93.768071,25.958949],[93.768415,25.958844],[93.768895,25.958697],[93.769284,25.958697],[93.769524,25.958752],[93.769678,25.95886],[93.769893,25.959217],[93.770052,25.959889],[93.770031,25.961261],[93.769894,25.962246],[93.769654,25.963969],[93.769043,25.965905],[93.768998,25.965981],[93.768985,25.966003],[93.768984,25.966004],[93.768143,25.967425],[93.767413,25.968047],[93.766669,25.968241],[93.765506,25.968312],[93.764802,25.968366],[93.764582,25.968528],[93.764568,25.968664],[93.764568,25.968665],[93.764568,25.96867],[93.764547,25.96888],[93.764781,25.969237],[93.76545,25.969752],[93.766313,25.969983],[93.767272,25.969952],[93.76879,25.969294],[93.768985,25.969191],[93.770923,25.968167],[93.771418,25.967991],[93.771927,25.9681],[93.772261,25.968385],[93.772436,25.968863],[93.772749,25.970033],[93.772789,25.970181],[93.772969,25.970357],[93.773578,25.970484],[93.774362,25.97034],[93.774657,25.970193],[93.774888,25.970077],[93.775426,25.969809],[93.775506,25.969732],[93.77632,25.968956],[93.776329,25.96895]]]}}]}