{
"type": "FeatureCollection",
"name": "273_TAMENGLONG",
"crs": { "type": "name", "properties": { "name": "urn:ogc:def:crs:OGC:1.3:CRS84" } },
"xy_coordinate_resolution": 1e-05,
"features": [
{ "type": "Feature", "properties": { "OBJECTID": 5986, "state_lgd": "14", "state_name": "MANIPUR", "district_lgd": "273", "district_name": "TAMENGLONG", "district_name_source": "district_table", "subdistrict_lgd": "1866", "subdistrict_name": "TAMENGLONG", "subdistrict_type": "", "name_corrupted": false, "remarks": "", "label_lon": 93.587626236311351, "label_lat": 24.928673901157762 }, "geometry": { "type": "Polygon", "coordinates": [ [ [ 93.77734, 24.93155 ], [ 93.77725, 24.92433 ], [ 93.77419, 24.92258 ], [ 93.77275, 24.91988 ], [ 93.77034, 24.91802 ], [ 93.76851, 24.91423 ], [ 93.75917, 24.90806 ], [ 93.75854, 24.90684 ], [ 93.75871, 24.90446 ], [ 93.76104, 24.90111 ], [ 93.76512, 24.89644 ], [ 93.76691, 24.89565 ], [ 93.76631, 24.89332 ], [ 93.76368, 24.88998 ], [ 93.76145, 24.88258 ], [ 93.76918, 24.86949 ], [ 93.76824, 24.86417 ], [ 93.76924, 24.86124 ], [ 93.77013, 24.86068 ], [ 93.77017, 24.85835 ], [ 93.77168, 24.85695 ], [ 93.77103, 24.85428 ], [ 93.77198, 24.85287 ], [ 93.77218, 24.84902 ], [ 93.76501, 24.84312 ], [ 93.76236, 24.84406 ], [ 93.76152, 24.84181 ], [ 93.76201, 24.83905 ], [ 93.76106, 24.83748 ], [ 93.76228, 24.83506 ], [ 93.76274, 24.83169 ], [ 93.76131, 24.82998 ], [ 93.75881, 24.82859 ], [ 93.75567, 24.82892 ], [ 93.75481, 24.82714 ], [ 93.74992, 24.82608 ], [ 93.74933, 24.82419 ], [ 93.7501, 24.81989 ], [ 93.74908, 24.81755 ], [ 93.74956, 24.81412 ], [ 93.74764, 24.8124 ], [ 93.74545, 24.80818 ], [ 93.74412, 24.80782 ], [ 93.74434, 24.80703 ], [ 93.7477, 24.80588 ], [ 93.75109, 24.80573 ], [ 93.74962, 24.80412 ], [ 93.75077, 24.80117 ], [ 93.74981, 24.79599 ], [ 93.75804, 24.79193 ], [ 93.75631, 24.79057 ], [ 93.75638, 24.78831 ], [ 93.75182, 24.78904 ], [ 93.75, 24.79153 ], [ 93.7489, 24.79111 ], [ 93.74797, 24.7877 ], [ 93.75152, 24.78567 ], [ 93.74914, 24.78315 ], [ 93.74927, 24.78058 ], [ 93.74711, 24.77508 ], [ 93.74127, 24.76819 ], [ 93.7415, 24.76701 ], [ 93.74367, 24.76617 ], [ 93.7437, 24.76448 ], [ 93.74007, 24.7619 ], [ 93.73734, 24.75454 ], [ 93.73734, 24.75259 ], [ 93.73567, 24.75084 ], [ 93.7353, 24.74825 ], [ 93.73238, 24.74849 ], [ 93.72719, 24.74712 ], [ 93.72528, 24.74931 ], [ 93.721, 24.75075 ], [ 93.71051, 24.75993 ], [ 93.70716, 24.76426 ], [ 93.70489, 24.76959 ], [ 93.6989, 24.77293 ], [ 93.69559, 24.7769 ], [ 93.69517, 24.77882 ], [ 93.68697, 24.78484 ], [ 93.68343, 24.78494 ], [ 93.68056, 24.78354 ], [ 93.67757, 24.78378 ], [ 93.67625, 24.78442 ], [ 93.67513, 24.78744 ], [ 93.67156, 24.78675 ], [ 93.6695, 24.78717 ], [ 93.65702, 24.79309 ], [ 93.65026, 24.79152 ], [ 93.64224, 24.79095 ], [ 93.62284, 24.79668 ], [ 93.62004, 24.80713 ], [ 93.61245, 24.8177 ], [ 93.61025, 24.83038 ], [ 93.60468, 24.83262 ], [ 93.59673, 24.83155 ], [ 93.58815, 24.84415 ], [ 93.5815, 24.84671 ], [ 93.58128, 24.84393 ], [ 93.58004, 24.84332 ], [ 93.57518, 24.84637 ], [ 93.57518, 24.84388 ], [ 93.57759, 24.84198 ], [ 93.57811, 24.84042 ], [ 93.57718, 24.83888 ], [ 93.57471, 24.83947 ], [ 93.57459, 24.83803 ], [ 93.57744, 24.83611 ], [ 93.57768, 24.83515 ], [ 93.57203, 24.83316 ], [ 93.57084, 24.83206 ], [ 93.56811, 24.83248 ], [ 93.56703, 24.82336 ], [ 93.56794, 24.823 ], [ 93.57008, 24.82431 ], [ 93.57166, 24.82218 ], [ 93.56694, 24.82034 ], [ 93.56535, 24.81894 ], [ 93.57108, 24.81792 ], [ 93.57191, 24.81555 ], [ 93.56624, 24.81502 ], [ 93.56363, 24.81694 ], [ 93.56092, 24.81739 ], [ 93.55923, 24.81439 ], [ 93.55594, 24.81266 ], [ 93.55594, 24.81147 ], [ 93.55744, 24.81104 ], [ 93.55687, 24.80891 ], [ 93.55173, 24.80735 ], [ 93.55094, 24.8097 ], [ 93.54982, 24.81021 ], [ 93.547, 24.80809 ], [ 93.54538, 24.81075 ], [ 93.54091, 24.81035 ], [ 93.53762, 24.81164 ], [ 93.536, 24.81354 ], [ 93.53106, 24.81651 ], [ 93.52555, 24.81716 ], [ 93.52262, 24.81994 ], [ 93.51604, 24.82154 ], [ 93.51378, 24.82365 ], [ 93.50957, 24.82373 ], [ 93.50862, 24.82592 ], [ 93.50678, 24.82706 ], [ 93.5007, 24.82732 ], [ 93.48495, 24.83066 ], [ 93.48359, 24.83264 ], [ 93.48411, 24.83562 ], [ 93.47279, 24.83995 ], [ 93.46967, 24.84316 ], [ 93.46632, 24.84335 ], [ 93.4654, 24.84483 ], [ 93.46549, 24.84973 ], [ 93.4637, 24.85095 ], [ 93.46205, 24.85016 ], [ 93.45065, 24.85138 ], [ 93.44469, 24.84836 ], [ 93.4411, 24.84369 ], [ 93.43632, 24.84307 ], [ 93.43409, 24.84445 ], [ 93.42842, 24.84351 ], [ 93.42409, 24.84385 ], [ 93.41881, 24.84613 ], [ 93.41159, 24.84258 ], [ 93.40851, 24.83852 ], [ 93.40431, 24.83737 ], [ 93.40301, 24.83577 ], [ 93.4021, 24.83741 ], [ 93.39796, 24.84018 ], [ 93.39735, 24.84774 ], [ 93.39797, 24.85154 ], [ 93.40295, 24.86028 ], [ 93.40217, 24.8674 ], [ 93.40141, 24.86853 ], [ 93.3976, 24.86983 ], [ 93.39485, 24.8741 ], [ 93.39367, 24.87843 ], [ 93.39051, 24.8803 ], [ 93.38983, 24.88171 ], [ 93.38996, 24.88315 ], [ 93.39231, 24.88526 ], [ 93.39593, 24.88606 ], [ 93.39774, 24.88794 ], [ 93.3986, 24.89115 ], [ 93.3977, 24.89513 ], [ 93.40103, 24.89981 ], [ 93.39864, 24.90489 ], [ 93.3911, 24.91037 ], [ 93.39, 24.91253 ], [ 93.39181, 24.9164 ], [ 93.3956, 24.92112 ], [ 93.39338, 24.93274 ], [ 93.39871, 24.94143 ], [ 93.40526, 24.94238 ], [ 93.40799, 24.9588 ], [ 93.40902, 24.95965 ], [ 93.41065, 24.95937 ], [ 93.41289, 24.95629 ], [ 93.41441, 24.95725 ], [ 93.41672, 24.96546 ], [ 93.41689, 24.97076 ], [ 93.41955, 24.97473 ], [ 93.42117, 24.97619 ], [ 93.42627, 24.97448 ], [ 93.42767, 24.97585 ], [ 93.4299, 24.98077 ], [ 93.4284, 24.98391 ], [ 93.4276, 24.989 ], [ 93.42855, 24.99017 ], [ 93.43369, 24.99128 ], [ 93.43704, 24.99649 ], [ 93.43737, 24.99838 ], [ 93.43648, 25.00061 ], [ 93.4381, 25.00449 ], [ 93.43702, 25.00807 ], [ 93.43731, 25.00953 ], [ 93.44091, 25.01446 ], [ 93.44386, 25.01434 ], [ 93.44986, 25.01718 ], [ 93.44823, 25.01981 ], [ 93.44495, 25.01987 ], [ 93.44345, 25.02167 ], [ 93.44679, 25.02985 ], [ 93.44992, 25.03466 ], [ 93.44851, 25.03754 ], [ 93.44872, 25.03856 ], [ 93.45194, 25.0393 ], [ 93.4518, 25.04466 ], [ 93.45298, 25.04515 ], [ 93.45815, 25.04433 ], [ 93.45878, 25.04273 ], [ 93.45717, 25.03921 ], [ 93.45926, 25.03831 ], [ 93.46125, 25.03897 ], [ 93.4637, 25.05115 ], [ 93.46612, 25.05244 ], [ 93.46709, 25.05387 ], [ 93.46697, 25.05661 ], [ 93.46554, 25.05848 ], [ 93.46756, 25.06033 ], [ 93.47098, 25.06091 ], [ 93.47321, 25.06234 ], [ 93.47389, 25.06766 ], [ 93.47563, 25.07153 ], [ 93.47458, 25.08207 ], [ 93.47822, 25.08697 ], [ 93.47698, 25.08872 ], [ 93.47312, 25.08733 ], [ 93.4715, 25.08753 ], [ 93.4709, 25.08905 ], [ 93.47226, 25.09233 ], [ 93.47421, 25.09397 ], [ 93.47626, 25.09346 ], [ 93.47969, 25.09508 ], [ 93.48245, 25.09308 ], [ 93.48541, 25.09239 ], [ 93.48951, 25.09726 ], [ 93.49329, 25.09803 ], [ 93.49427, 25.10068 ], [ 93.49555, 25.10157 ], [ 93.51066, 25.09938 ], [ 93.51752, 25.09993 ], [ 93.52044, 25.10101 ], [ 93.55223, 25.07576 ], [ 93.5828, 25.05277 ], [ 93.58296, 25.05133 ], [ 93.58928, 25.04622 ], [ 93.59077, 25.04406 ], [ 93.5993, 25.03931 ], [ 93.60244, 25.03458 ], [ 93.60819, 25.03072 ], [ 93.61785, 25.02732 ], [ 93.62175, 25.02451 ], [ 93.6302, 25.03384 ], [ 93.6352, 25.0373 ], [ 93.63347, 25.04097 ], [ 93.63436, 25.0472 ], [ 93.63834, 25.04958 ], [ 93.6401, 25.05226 ], [ 93.6434, 25.05503 ], [ 93.64284, 25.05709 ], [ 93.64359, 25.05959 ], [ 93.64793, 25.06387 ], [ 93.64973, 25.06718 ], [ 93.65011, 25.07572 ], [ 93.65569, 25.07585 ], [ 93.65969, 25.0747 ], [ 93.67123, 25.0651 ], [ 93.68041, 25.06014 ], [ 93.68689, 25.05844 ], [ 93.7004, 25.04883 ], [ 93.7033, 25.04581 ], [ 93.70537, 25.04626 ], [ 93.70662, 25.04503 ], [ 93.70921, 25.04435 ], [ 93.71107, 25.04096 ], [ 93.71403, 25.03867 ], [ 93.71699, 25.03946 ], [ 93.71929, 25.03891 ], [ 93.72549, 25.03073 ], [ 93.72745, 25.03018 ], [ 93.72939, 25.02806 ], [ 93.72992, 25.02615 ], [ 93.73151, 25.02561 ], [ 93.7316, 25.02387 ], [ 93.73258, 25.02272 ], [ 93.73234, 25.01869 ], [ 93.72996, 25.01719 ], [ 93.72933, 25.01464 ], [ 93.73116, 25.01354 ], [ 93.72537, 25.00395 ], [ 93.72504, 25.00233 ], [ 93.72581, 25.00002 ], [ 93.71996, 25.00001 ], [ 93.72103, 24.99789 ], [ 93.72339, 24.99651 ], [ 93.72228, 24.99267 ], [ 93.7193, 24.98913 ], [ 93.71709, 24.98837 ], [ 93.7162, 24.98574 ], [ 93.7146, 24.98444 ], [ 93.71457, 24.98275 ], [ 93.71626, 24.98066 ], [ 93.71403, 24.9794 ], [ 93.71463, 24.9773 ], [ 93.71054, 24.97706 ], [ 93.70803, 24.97787 ], [ 93.70771, 24.97508 ], [ 93.70547, 24.9764 ], [ 93.70411, 24.97608 ], [ 93.7046, 24.97367 ], [ 93.70326, 24.972 ], [ 93.704, 24.97007 ], [ 93.70188, 24.96713 ], [ 93.69983, 24.96836 ], [ 93.69957, 24.96639 ], [ 93.69803, 24.96473 ], [ 93.69615, 24.96453 ], [ 93.69526, 24.96256 ], [ 93.69662, 24.96087 ], [ 93.69673, 24.95847 ], [ 93.69457, 24.95906 ], [ 93.69326, 24.95812 ], [ 93.6934, 24.95496 ], [ 93.69181, 24.95047 ], [ 93.69295, 24.95008 ], [ 93.69317, 24.94806 ], [ 93.69594, 24.94999 ], [ 93.69747, 24.9486 ], [ 93.69737, 24.94687 ], [ 93.69904, 24.94644 ], [ 93.69974, 24.94496 ], [ 93.70024, 24.94855 ], [ 93.70203, 24.95004 ], [ 93.70411, 24.95003 ], [ 93.70646, 24.95126 ], [ 93.71026, 24.95823 ], [ 93.71285, 24.95944 ], [ 93.72056, 24.95902 ], [ 93.72394, 24.95786 ], [ 93.72376, 24.95425 ], [ 93.72572, 24.95014 ], [ 93.72886, 24.94645 ], [ 93.73286, 24.94594 ], [ 93.73766, 24.94166 ], [ 93.74298, 24.94011 ], [ 93.75, 24.9404 ], [ 93.75689, 24.94342 ], [ 93.76489, 24.94381 ], [ 93.76495, 24.94024 ], [ 93.76899, 24.93478 ], [ 93.77323, 24.9321 ], [ 93.77734, 24.93155 ] ] ] } },
{ "type": "Feature", "properties": { "OBJECTID": 6000, "state_lgd": "14", "state_name": "MANIPUR", "district_lgd": "273", "district_name": "TAMENGLONG", "district_name_source": "district_table", "subdistrict_lgd": "1865", "subdistrict_name": "TAMEI", "subdistrict_type": "", "name_corrupted": false, "remarks": "", "label_lon": 93.732891184691141, "label_lat": 25.208127331898545 }, "geometry": { "type": "Polygon", "coordinates": [ [ [ 93.8109, 25.45948 ], [ 93.81535, 25.45965 ], [ 93.81854, 25.46163 ], [ 93.82046, 25.46072 ], [ 93.8217, 25.45798 ], [ 93.82236, 25.44948 ], [ 93.82592, 25.44291 ], [ 93.83119, 25.43835 ], [ 93.8315, 25.43663 ], [ 93.83064, 25.43406 ], [ 93.83354, 25.42733 ], [ 93.83649, 25.42795 ], [ 93.8474, 25.42654 ], [ 93.85737, 25.42701 ], [ 93.87002, 25.42315 ], [ 93.87638, 25.42216 ], [ 93.88298, 25.42383 ], [ 93.89264, 25.42267 ], [ 93.89447, 25.41883 ], [ 93.89583, 25.41827 ], [ 93.89886, 25.41875 ], [ 93.90108, 25.41769 ], [ 93.90234, 25.4162 ], [ 93.90166, 25.41526 ], [ 93.90392, 25.41343 ], [ 93.90456, 25.41086 ], [ 93.90655, 25.41047 ], [ 93.91754, 25.40236 ], [ 93.92069, 25.39736 ], [ 93.92295, 25.38989 ], [ 93.92263, 25.38869 ], [ 93.92055, 25.3855 ], [ 93.91819, 25.38462 ], [ 93.91345, 25.38496 ], [ 93.90825, 25.38174 ], [ 93.90644, 25.37774 ], [ 93.90449, 25.37579 ], [ 93.90326, 25.36955 ], [ 93.89921, 25.3642 ], [ 93.90053, 25.36295 ], [ 93.89982, 25.35691 ], [ 93.88749, 25.34895 ], [ 93.88963, 25.34433 ], [ 93.88833, 25.34124 ], [ 93.88767, 25.33575 ], [ 93.88852, 25.33469 ], [ 93.89217, 25.33489 ], [ 93.89537, 25.33402 ], [ 93.90234, 25.32999 ], [ 93.90847, 25.32965 ], [ 93.91138, 25.3304 ], [ 93.91915, 25.32757 ], [ 93.92075, 25.32405 ], [ 93.92485, 25.32211 ], [ 93.92706, 25.31853 ], [ 93.93146, 25.31559 ], [ 93.93397, 25.31208 ], [ 93.93684, 25.31024 ], [ 93.93716, 25.30549 ], [ 93.94275, 25.29792 ], [ 93.94364, 25.29511 ], [ 93.94586, 25.29468 ], [ 93.94975, 25.29125 ], [ 93.95507, 25.29032 ], [ 93.95516, 25.28652 ], [ 93.9535, 25.28459 ], [ 93.95288, 25.28169 ], [ 93.9369, 25.2746 ], [ 93.92906, 25.27274 ], [ 93.92615, 25.27062 ], [ 93.91672, 25.26823 ], [ 93.9126, 25.26988 ], [ 93.90744, 25.27384 ], [ 93.90246, 25.27206 ], [ 93.89692, 25.26922 ], [ 93.89193, 25.26416 ], [ 93.88813, 25.2627 ], [ 93.885, 25.25743 ], [ 93.88245, 25.25586 ], [ 93.87938, 25.25564 ], [ 93.87307, 25.25077 ], [ 93.87009, 25.25109 ], [ 93.86903, 25.2503 ], [ 93.86773, 25.24656 ], [ 93.8653, 25.24423 ], [ 93.863, 25.2438 ], [ 93.85898, 25.23746 ], [ 93.85588, 25.23571 ], [ 93.85506, 25.2309 ], [ 93.8536, 25.22882 ], [ 93.84878, 25.2274 ], [ 93.84534, 25.22733 ], [ 93.84414, 25.2256 ], [ 93.83827, 25.22204 ], [ 93.83396, 25.22273 ], [ 93.83081, 25.22142 ], [ 93.82825, 25.22305 ], [ 93.82675, 25.22296 ], [ 93.82163, 25.21904 ], [ 93.8213, 25.21685 ], [ 93.81757, 25.21226 ], [ 93.81785, 25.20913 ], [ 93.81724, 25.20749 ], [ 93.81117, 25.20623 ], [ 93.81218, 25.20162 ], [ 93.80925, 25.19809 ], [ 93.8073, 25.19388 ], [ 93.8023, 25.18842 ], [ 93.80197, 25.1845 ], [ 93.79897, 25.18504 ], [ 93.7972, 25.18363 ], [ 93.79658, 25.1801 ], [ 93.79763, 25.17671 ], [ 93.79399, 25.17346 ], [ 93.79119, 25.1735 ], [ 93.79296, 25.16828 ], [ 93.79257, 25.16728 ], [ 93.7841, 25.16673 ], [ 93.78244, 25.16103 ], [ 93.78089, 25.16006 ], [ 93.77924, 25.16018 ], [ 93.77778, 25.15835 ], [ 93.77749, 25.15277 ], [ 93.77291, 25.15383 ], [ 93.77316, 25.15158 ], [ 93.77231, 25.14976 ], [ 93.77402, 25.14773 ], [ 93.77412, 25.14512 ], [ 93.77561, 25.1436 ], [ 93.77544, 25.14106 ], [ 93.77851, 25.13622 ], [ 93.77883, 25.13221 ], [ 93.78046, 25.12898 ], [ 93.78001, 25.12605 ], [ 93.78334, 25.12624 ], [ 93.78419, 25.12298 ], [ 93.78676, 25.12074 ], [ 93.78989, 25.11584 ], [ 93.79183, 25.11446 ], [ 93.79211, 25.11123 ], [ 93.79513, 25.10754 ], [ 93.79522, 25.10404 ], [ 93.79734, 25.10104 ], [ 93.79698, 25.09985 ], [ 93.79471, 25.09802 ], [ 93.79566, 25.09477 ], [ 93.79467, 25.09302 ], [ 93.79531, 25.09083 ], [ 93.7936, 25.08434 ], [ 93.79644, 25.08032 ], [ 93.79469, 25.06974 ], [ 93.79619, 25.06683 ], [ 93.79643, 25.06438 ], [ 93.79838, 25.05941 ], [ 93.80102, 25.056 ], [ 93.8084, 25.05038 ], [ 93.81006, 25.04651 ], [ 93.80853, 25.04303 ], [ 93.81607, 25.03128 ], [ 93.81739, 25.02204 ], [ 93.81545, 25.01947 ], [ 93.81248, 25.01816 ], [ 93.80076, 25.02085 ], [ 93.7963, 25.01854 ], [ 93.79213, 25.01762 ], [ 93.79089, 25.0164 ], [ 93.7893, 25.00884 ], [ 93.78785, 25.00692 ], [ 93.78888, 25.00557 ], [ 93.78924, 25.00294 ], [ 93.79252, 24.9989 ], [ 93.79348, 24.99534 ], [ 93.793, 24.99281 ], [ 93.78897, 24.9909 ], [ 93.79478, 24.98631 ], [ 93.79882, 24.97976 ], [ 93.80054, 24.97344 ], [ 93.80083, 24.96846 ], [ 93.79785, 24.96671 ], [ 93.79765, 24.96464 ], [ 93.79821, 24.96084 ], [ 93.79986, 24.95739 ], [ 93.79825, 24.9558 ], [ 93.79801, 24.95377 ], [ 93.79291, 24.95354 ], [ 93.79258, 24.95018 ], [ 93.78823, 24.95022 ], [ 93.78682, 24.94747 ], [ 93.78176, 24.94576 ], [ 93.78154, 24.9397 ], [ 93.77734, 24.93155 ], [ 93.77323, 24.9321 ], [ 93.76899, 24.93478 ], [ 93.76495, 24.94024 ], [ 93.76489, 24.94381 ], [ 93.75689, 24.94342 ], [ 93.75, 24.9404 ], [ 93.74298, 24.94011 ], [ 93.73766, 24.94166 ], [ 93.73286, 24.94594 ], [ 93.72886, 24.94645 ], [ 93.72572, 24.95014 ], [ 93.72376, 24.95425 ], [ 93.72394, 24.95786 ], [ 93.72056, 24.95902 ], [ 93.71285, 24.95944 ], [ 93.71026, 24.95823 ], [ 93.70646, 24.95126 ], [ 93.70411, 24.95003 ], [ 93.70203, 24.95004 ], [ 93.70024, 24.94855 ], [ 93.69974, 24.94496 ], [ 93.69904, 24.94644 ], [ 93.69737, 24.94687 ], [ 93.69747, 24.9486 ], [ 93.69594, 24.94999 ], [ 93.69317, 24.94806 ], [ 93.69295, 24.95008 ], [ 93.69181, 24.95047 ], [ 93.6934, 24.95496 ], [ 93.69316, 24.95788 ], [ 93.69457, 24.95906 ], [ 93.69658, 24.95829 ], [ 93.69662, 24.96087 ], [ 93.69526, 24.96256 ], [ 93.69615, 24.96453 ], [ 93.69803, 24.96473 ], [ 93.69957, 24.96639 ], [ 93.69983, 24.96836 ], [ 93.70188, 24.96713 ], [ 93.704, 24.97007 ], [ 93.70326, 24.972 ], [ 93.7046, 24.97367 ], [ 93.70411, 24.97608 ], [ 93.70547, 24.9764 ], [ 93.70771, 24.97508 ], [ 93.70803, 24.97787 ], [ 93.71054, 24.97706 ], [ 93.71463, 24.9773 ], [ 93.71403, 24.9794 ], [ 93.71626, 24.98066 ], [ 93.71457, 24.98275 ], [ 93.7146, 24.98444 ], [ 93.7162, 24.98574 ], [ 93.71709, 24.98837 ], [ 93.7193, 24.98913 ], [ 93.72228, 24.99267 ], [ 93.72339, 24.99651 ], [ 93.72103, 24.99789 ], [ 93.71996, 25.00001 ], [ 93.72581, 25.00002 ], [ 93.72504, 25.00233 ], [ 93.72537, 25.00395 ], [ 93.73116, 25.01354 ], [ 93.72933, 25.01464 ], [ 93.72996, 25.01719 ], [ 93.73234, 25.01869 ], [ 93.73258, 25.02272 ], [ 93.7316, 25.02387 ], [ 93.73151, 25.02561 ], [ 93.72992, 25.02615 ], [ 93.72939, 25.02806 ], [ 93.72745, 25.03018 ], [ 93.72549, 25.03073 ], [ 93.71929, 25.03891 ], [ 93.71699, 25.03946 ], [ 93.71403, 25.03867 ], [ 93.71107, 25.04096 ], [ 93.70921, 25.04435 ], [ 93.70662, 25.04503 ], [ 93.70537, 25.04626 ], [ 93.7033, 25.04581 ], [ 93.7004, 25.04883 ], [ 93.68689, 25.05844 ], [ 93.68041, 25.06014 ], [ 93.67123, 25.0651 ], [ 93.65969, 25.0747 ], [ 93.65569, 25.07585 ], [ 93.65011, 25.07572 ], [ 93.64973, 25.06718 ], [ 93.64793, 25.06387 ], [ 93.64359, 25.05959 ], [ 93.64284, 25.05709 ], [ 93.6434, 25.05503 ], [ 93.6401, 25.05226 ], [ 93.63834, 25.04958 ], [ 93.63436, 25.0472 ], [ 93.63347, 25.04097 ], [ 93.6352, 25.0373 ], [ 93.6302, 25.03384 ], [ 93.62175, 25.02451 ], [ 93.61785, 25.02732 ], [ 93.60819, 25.03072 ], [ 93.60244, 25.03458 ], [ 93.5993, 25.03931 ], [ 93.59077, 25.04406 ], [ 93.58928, 25.04622 ], [ 93.58296, 25.05133 ], [ 93.5828, 25.05277 ], [ 93.55223, 25.07576 ], [ 93.52044, 25.10101 ], [ 93.51752, 25.09993 ], [ 93.51066, 25.09938 ], [ 93.49555, 25.10157 ], [ 93.49427, 25.10068 ], [ 93.49329, 25.09803 ], [ 93.48951, 25.09726 ], [ 93.48541, 25.09239 ], [ 93.48245, 25.09308 ], [ 93.47969, 25.09508 ], [ 93.47509, 25.09348 ], [ 93.47421, 25.09397 ], [ 93.47501, 25.09458 ], [ 93.47493, 25.09645 ], [ 93.47058, 25.10182 ], [ 93.46954, 25.10802 ], [ 93.47262, 25.11614 ], [ 93.47909, 25.12073 ], [ 93.47873, 25.12543 ], [ 93.48487, 25.12883 ], [ 93.4881, 25.13162 ], [ 93.49135, 25.14025 ], [ 93.49549, 25.14177 ], [ 93.49918, 25.14077 ], [ 93.50325, 25.14216 ], [ 93.50468, 25.14395 ], [ 93.50639, 25.14937 ], [ 93.51331, 25.15628 ], [ 93.52146, 25.16076 ], [ 93.53888, 25.15924 ], [ 93.5425, 25.16036 ], [ 93.54816, 25.16456 ], [ 93.55259, 25.164 ], [ 93.56154, 25.16466 ], [ 93.56558, 25.16692 ], [ 93.57005, 25.16721 ], [ 93.57741, 25.17168 ], [ 93.58026, 25.17641 ], [ 93.58372, 25.178 ], [ 93.58438, 25.18216 ], [ 93.58603, 25.18438 ], [ 93.58642, 25.18685 ], [ 93.60357, 25.19573 ], [ 93.60429, 25.19962 ], [ 93.60535, 25.19918 ], [ 93.60592, 25.20065 ], [ 93.61087, 25.20424 ], [ 93.61095, 25.20694 ], [ 93.60832, 25.21099 ], [ 93.60929, 25.21383 ], [ 93.61059, 25.21576 ], [ 93.61518, 25.21882 ], [ 93.61966, 25.22858 ], [ 93.62299, 25.23154 ], [ 93.62344, 25.2332 ], [ 93.62229, 25.23569 ], [ 93.62757, 25.24109 ], [ 93.62904, 25.2483 ], [ 93.63462, 25.25418 ], [ 93.63717, 25.25975 ], [ 93.63739, 25.26349 ], [ 93.64139, 25.26592 ], [ 93.64431, 25.2653 ], [ 93.64638, 25.26672 ], [ 93.64405, 25.27181 ], [ 93.64532, 25.2744 ], [ 93.64501, 25.27604 ], [ 93.65232, 25.28418 ], [ 93.65443, 25.28894 ], [ 93.66056, 25.29868 ], [ 93.66067, 25.30041 ], [ 93.65841, 25.30418 ], [ 93.66078, 25.30618 ], [ 93.66449, 25.30745 ], [ 93.66727, 25.31004 ], [ 93.66859, 25.31407 ], [ 93.66688, 25.32192 ], [ 93.66477, 25.32572 ], [ 93.66576, 25.32636 ], [ 93.66829, 25.3249 ], [ 93.67067, 25.32511 ], [ 93.67389, 25.32782 ], [ 93.67637, 25.32651 ], [ 93.68149, 25.3281 ], [ 93.68189, 25.33077 ], [ 93.68114, 25.33467 ], [ 93.68297, 25.34091 ], [ 93.68743, 25.34582 ], [ 93.68534, 25.35123 ], [ 93.68788, 25.35562 ], [ 93.68695, 25.36047 ], [ 93.68873, 25.36012 ], [ 93.69338, 25.35699 ], [ 93.69644, 25.35622 ], [ 93.70233, 25.35818 ], [ 93.70765, 25.3566 ], [ 93.70976, 25.35737 ], [ 93.71076, 25.35872 ], [ 93.7128, 25.36624 ], [ 93.71617, 25.37208 ], [ 93.72591, 25.37831 ], [ 93.73152, 25.38002 ], [ 93.736, 25.38498 ], [ 93.7366, 25.38813 ], [ 93.73495, 25.39427 ], [ 93.73655, 25.39674 ], [ 93.74031, 25.39962 ], [ 93.74226, 25.40371 ], [ 93.74544, 25.40561 ], [ 93.75028, 25.40711 ], [ 93.7607, 25.41532 ], [ 93.76562, 25.4162 ], [ 93.76743, 25.41789 ], [ 93.76762, 25.42053 ], [ 93.77226, 25.41956 ], [ 93.77417, 25.42048 ], [ 93.77464, 25.4225 ], [ 93.77246, 25.42508 ], [ 93.77232, 25.42637 ], [ 93.77354, 25.42761 ], [ 93.77662, 25.42829 ], [ 93.7802, 25.43043 ], [ 93.78289, 25.43365 ], [ 93.7832, 25.43558 ], [ 93.78185, 25.43821 ], [ 93.78201, 25.44044 ], [ 93.78497, 25.44238 ], [ 93.78602, 25.44629 ], [ 93.78991, 25.44974 ], [ 93.79308, 25.45472 ], [ 93.80514, 25.46397 ], [ 93.80796, 25.46026 ], [ 93.8109, 25.45948 ] ] ] } },
{ "type": "Feature", "properties": { "OBJECTID": 6002, "state_lgd": "14", "state_name": "MANIPUR", "district_lgd": "273", "district_name": "TAMENGLONG", "district_name_source": "district_table", "subdistrict_lgd": "1864", "subdistrict_name": "TOUSEM", "subdistrict_type": "", "name_corrupted": false, "remarks": "", "label_lon": 93.35718565953573, "label_lat": 24.985583106618321 }, "geometry": { "type": "Polygon", "coordinates": [ [ [ 93.60429, 25.19933 ], [ 93.60357, 25.19573 ], [ 93.58642, 25.18685 ], [ 93.58603, 25.18438 ], [ 93.58438, 25.18216 ], [ 93.58372, 25.178 ], [ 93.58026, 25.17641 ], [ 93.57741, 25.17168 ], [ 93.57036, 25.16736 ], [ 93.56558, 25.16692 ], [ 93.56154, 25.16466 ], [ 93.55259, 25.164 ], [ 93.54816, 25.16456 ], [ 93.5425, 25.16036 ], [ 93.53888, 25.15924 ], [ 93.52146, 25.16076 ], [ 93.51331, 25.15628 ], [ 93.50639, 25.14937 ], [ 93.50468, 25.14395 ], [ 93.50325, 25.14216 ], [ 93.49918, 25.14077 ], [ 93.49549, 25.14177 ], [ 93.49135, 25.14025 ], [ 93.4881, 25.13162 ], [ 93.48487, 25.12883 ], [ 93.4791, 25.12587 ], [ 93.47841, 25.12478 ], [ 93.47909, 25.12073 ], [ 93.47203, 25.11514 ], [ 93.46961, 25.10848 ], [ 93.46959, 25.10525 ], [ 93.47058, 25.10182 ], [ 93.47519, 25.09528 ], [ 93.47226, 25.09233 ], [ 93.47101, 25.0883 ], [ 93.47259, 25.08728 ], [ 93.47698, 25.08872 ], [ 93.47822, 25.08697 ], [ 93.47458, 25.08207 ], [ 93.47563, 25.07153 ], [ 93.47389, 25.06766 ], [ 93.47321, 25.06234 ], [ 93.47098, 25.06091 ], [ 93.46756, 25.06033 ], [ 93.46554, 25.05848 ], [ 93.46697, 25.05661 ], [ 93.46709, 25.05387 ], [ 93.46612, 25.05244 ], [ 93.4637, 25.05115 ], [ 93.46125, 25.03897 ], [ 93.45926, 25.03831 ], [ 93.45717, 25.03921 ], [ 93.45878, 25.04273 ], [ 93.45815, 25.04433 ], [ 93.45298, 25.04515 ], [ 93.4518, 25.04466 ], [ 93.45194, 25.0393 ], [ 93.44872, 25.03856 ], [ 93.44851, 25.03754 ], [ 93.44992, 25.03466 ], [ 93.44679, 25.02985 ], [ 93.44345, 25.02167 ], [ 93.44495, 25.01987 ], [ 93.44823, 25.01981 ], [ 93.44986, 25.01718 ], [ 93.44386, 25.01434 ], [ 93.44091, 25.01446 ], [ 93.43731, 25.00953 ], [ 93.43702, 25.00807 ], [ 93.4381, 25.00449 ], [ 93.43648, 25.00061 ], [ 93.43737, 24.99838 ], [ 93.43704, 24.99649 ], [ 93.43369, 24.99128 ], [ 93.42855, 24.99017 ], [ 93.4276, 24.989 ], [ 93.4284, 24.98391 ], [ 93.4299, 24.98077 ], [ 93.42767, 24.97585 ], [ 93.42627, 24.97448 ], [ 93.42117, 24.97619 ], [ 93.41955, 24.97473 ], [ 93.41689, 24.97076 ], [ 93.41672, 24.96546 ], [ 93.41441, 24.95725 ], [ 93.41289, 24.95629 ], [ 93.41065, 24.95937 ], [ 93.40902, 24.95965 ], [ 93.40799, 24.9588 ], [ 93.40526, 24.94238 ], [ 93.39871, 24.94143 ], [ 93.39338, 24.93274 ], [ 93.3956, 24.92112 ], [ 93.39181, 24.9164 ], [ 93.39, 24.91253 ], [ 93.3911, 24.91037 ], [ 93.39864, 24.90489 ], [ 93.40103, 24.89981 ], [ 93.3977, 24.89513 ], [ 93.3986, 24.89115 ], [ 93.39774, 24.88794 ], [ 93.39593, 24.88606 ], [ 93.39231, 24.88526 ], [ 93.38996, 24.88315 ], [ 93.38983, 24.88171 ], [ 93.39051, 24.8803 ], [ 93.39367, 24.87843 ], [ 93.39485, 24.8741 ], [ 93.3976, 24.86983 ], [ 93.40207, 24.86771 ], [ 93.40295, 24.86028 ], [ 93.39765, 24.85063 ], [ 93.39766, 24.84118 ], [ 93.39875, 24.83922 ], [ 93.40251, 24.83699 ], [ 93.40346, 24.83467 ], [ 93.406, 24.83182 ], [ 93.4071, 24.8288 ], [ 93.40058, 24.8254 ], [ 93.40044, 24.82261 ], [ 93.40296, 24.81821 ], [ 93.40103, 24.81689 ], [ 93.3995, 24.81231 ], [ 93.39852, 24.81151 ], [ 93.39674, 24.81217 ], [ 93.394, 24.81718 ], [ 93.38339, 24.82102 ], [ 93.37381, 24.82175 ], [ 93.36848, 24.82 ], [ 93.36456, 24.82051 ], [ 93.36371, 24.81996 ], [ 93.36106, 24.81153 ], [ 93.3616, 24.80642 ], [ 93.35836, 24.80191 ], [ 93.35762, 24.79934 ], [ 93.3612, 24.78872 ], [ 93.35466, 24.78164 ], [ 93.35334, 24.7775 ], [ 93.35369, 24.77566 ], [ 93.35982, 24.76736 ], [ 93.35997, 24.76517 ], [ 93.3576, 24.76285 ], [ 93.34721, 24.75916 ], [ 93.34043, 24.76081 ], [ 93.33263, 24.76472 ], [ 93.33048, 24.764 ], [ 93.32866, 24.76154 ], [ 93.32886, 24.75804 ], [ 93.32986, 24.75587 ], [ 93.33512, 24.74974 ], [ 93.33563, 24.7476 ], [ 93.33481, 24.7462 ], [ 93.3296, 24.74313 ], [ 93.32448, 24.73832 ], [ 93.31912, 24.73102 ], [ 93.31922, 24.72968 ], [ 93.32032, 24.72872 ], [ 93.32301, 24.72821 ], [ 93.32916, 24.72879 ], [ 93.33468, 24.72666 ], [ 93.33627, 24.72469 ], [ 93.3369, 24.72213 ], [ 93.33484, 24.71892 ], [ 93.33333, 24.71782 ], [ 93.32892, 24.71758 ], [ 93.3259, 24.71619 ], [ 93.32264, 24.70949 ], [ 93.31797, 24.70551 ], [ 93.31564, 24.70089 ], [ 93.313, 24.69917 ], [ 93.31116, 24.69954 ], [ 93.30844, 24.70247 ], [ 93.3029, 24.70512 ], [ 93.30018, 24.70601 ], [ 93.29611, 24.70553 ], [ 93.2949, 24.70415 ], [ 93.29475, 24.70247 ], [ 93.29638, 24.70094 ], [ 93.2976, 24.6961 ], [ 93.29623, 24.69163 ], [ 93.29469, 24.67838 ], [ 93.29152, 24.67522 ], [ 93.28482, 24.67079 ], [ 93.28057, 24.66888 ], [ 93.27207, 24.6667 ], [ 93.25533, 24.66916 ], [ 93.24724, 24.6746 ], [ 93.23016, 24.68105 ], [ 93.22832, 24.68424 ], [ 93.22883, 24.69109 ], [ 93.22638, 24.69906 ], [ 93.22128, 24.70648 ], [ 93.21591, 24.7089 ], [ 93.2088, 24.70917 ], [ 93.20505, 24.70695 ], [ 93.20382, 24.70501 ], [ 93.205, 24.70027 ], [ 93.20092, 24.70225 ], [ 93.20033, 24.70449 ], [ 93.20106, 24.70916 ], [ 93.19951, 24.70937 ], [ 93.18613, 24.71095 ], [ 93.17309, 24.70999 ], [ 93.1594, 24.70771 ], [ 93.14195, 24.70764 ], [ 93.1401, 24.70876 ], [ 93.13704, 24.71235 ], [ 93.14223, 24.72523 ], [ 93.15566, 24.74787 ], [ 93.1604, 24.76849 ], [ 93.16354, 24.77464 ], [ 93.16768, 24.77987 ], [ 93.1744, 24.78551 ], [ 93.18939, 24.78696 ], [ 93.19755, 24.78645 ], [ 93.21058, 24.79177 ], [ 93.21959, 24.80007 ], [ 93.22572, 24.81614 ], [ 93.22912, 24.82917 ], [ 93.23831, 24.85356 ], [ 93.22808, 24.86271 ], [ 93.21993, 24.86864 ], [ 93.22177, 24.87024 ], [ 93.22036, 24.87352 ], [ 93.22192, 24.87376 ], [ 93.22531, 24.87239 ], [ 93.22648, 24.87306 ], [ 93.22196, 24.87766 ], [ 93.22132, 24.88098 ], [ 93.2221, 24.88191 ], [ 93.2253, 24.88034 ], [ 93.22829, 24.88525 ], [ 93.23124, 24.88392 ], [ 93.2327, 24.8844 ], [ 93.23155, 24.88754 ], [ 93.22799, 24.88834 ], [ 93.22598, 24.89169 ], [ 93.22759, 24.89293 ], [ 93.23115, 24.89174 ], [ 93.23235, 24.89214 ], [ 93.23206, 24.89388 ], [ 93.22926, 24.8962 ], [ 93.23016, 24.89848 ], [ 93.23556, 24.89914 ], [ 93.23849, 24.8987 ], [ 93.23921, 24.8996 ], [ 93.24068, 24.90475 ], [ 93.23778, 24.90582 ], [ 93.2373, 24.90761 ], [ 93.23492, 24.91042 ], [ 93.2352, 24.91141 ], [ 93.23651, 24.91227 ], [ 93.23903, 24.91062 ], [ 93.24406, 24.91055 ], [ 93.24884, 24.91485 ], [ 93.24597, 24.92525 ], [ 93.23934, 24.92437 ], [ 93.23849, 24.92568 ], [ 93.24096, 24.92764 ], [ 93.2417, 24.93059 ], [ 93.24471, 24.9325 ], [ 93.2451, 24.93539 ], [ 93.24264, 24.93611 ], [ 93.23713, 24.93253 ], [ 93.23682, 24.93716 ], [ 93.24492, 24.94119 ], [ 93.24762, 24.9398 ], [ 93.25127, 24.94064 ], [ 93.25164, 24.94225 ], [ 93.25097, 24.94341 ], [ 93.24732, 24.94512 ], [ 93.24917, 24.94684 ], [ 93.24913, 24.94817 ], [ 93.24536, 24.95081 ], [ 93.24844, 24.95329 ], [ 93.25615, 24.94928 ], [ 93.25809, 24.94968 ], [ 93.25851, 24.95054 ], [ 93.25618, 24.95341 ], [ 93.25813, 24.95452 ], [ 93.25812, 24.95778 ], [ 93.26032, 24.95895 ], [ 93.26177, 24.96298 ], [ 93.25956, 24.96549 ], [ 93.25896, 24.96961 ], [ 93.25788, 24.97133 ], [ 93.2534, 24.96907 ], [ 93.24942, 24.97256 ], [ 93.25203, 24.97645 ], [ 93.25182, 24.97729 ], [ 93.24934, 24.97704 ], [ 93.24944, 24.97934 ], [ 93.25343, 24.98207 ], [ 93.25141, 24.98601 ], [ 93.25371, 24.98995 ], [ 93.25433, 24.99279 ], [ 93.25704, 24.99607 ], [ 93.25443, 24.99746 ], [ 93.25298, 24.99734 ], [ 93.25277, 24.99891 ], [ 93.25416, 25.00023 ], [ 93.25863, 24.99948 ], [ 93.25978, 25.00159 ], [ 93.25701, 25.00474 ], [ 93.25234, 25.00093 ], [ 93.2505, 25.00432 ], [ 93.24878, 25.00299 ], [ 93.24957, 25.00037 ], [ 93.24888, 24.99891 ], [ 93.24686, 24.99738 ], [ 93.24439, 24.99809 ], [ 93.24372, 24.99954 ], [ 93.2442, 25.00326 ], [ 93.24216, 25.0033 ], [ 93.24178, 25.00392 ], [ 93.24364, 25.00694 ], [ 93.24472, 25.01171 ], [ 93.24767, 25.0149 ], [ 93.24668, 25.01587 ], [ 93.24374, 25.01612 ], [ 93.24388, 25.01829 ], [ 93.24459, 25.01874 ], [ 93.24728, 25.01799 ], [ 93.24908, 25.02009 ], [ 93.25395, 25.02058 ], [ 93.2525, 25.02293 ], [ 93.25404, 25.02547 ], [ 93.25117, 25.02585 ], [ 93.25135, 25.02714 ], [ 93.2519, 25.02789 ], [ 93.25379, 25.02716 ], [ 93.25484, 25.02999 ], [ 93.25669, 25.03082 ], [ 93.25989, 25.03497 ], [ 93.25835, 25.03802 ], [ 93.25962, 25.04121 ], [ 93.26219, 25.04072 ], [ 93.26398, 25.04312 ], [ 93.26605, 25.04384 ], [ 93.26462, 25.04565 ], [ 93.26227, 25.04591 ], [ 93.26421, 25.04936 ], [ 93.26737, 25.04951 ], [ 93.27045, 25.05077 ], [ 93.27215, 25.04844 ], [ 93.27451, 25.05094 ], [ 93.27639, 25.05087 ], [ 93.27731, 25.04957 ], [ 93.28007, 25.051 ], [ 93.27966, 25.04722 ], [ 93.2827, 25.04901 ], [ 93.28261, 25.04581 ], [ 93.28346, 25.045 ], [ 93.28718, 25.04701 ], [ 93.28811, 25.04558 ], [ 93.28897, 25.04568 ], [ 93.29136, 25.04864 ], [ 93.29368, 25.04633 ], [ 93.2948, 25.05107 ], [ 93.29735, 25.05078 ], [ 93.2988, 25.05195 ], [ 93.2994, 25.04935 ], [ 93.29754, 25.04658 ], [ 93.29996, 25.04604 ], [ 93.3021, 25.05424 ], [ 93.30079, 25.05586 ], [ 93.30206, 25.05646 ], [ 93.30423, 25.05561 ], [ 93.30556, 25.05743 ], [ 93.30259, 25.06137 ], [ 93.30282, 25.06436 ], [ 93.30631, 25.06826 ], [ 93.30611, 25.07164 ], [ 93.31274, 25.07935 ], [ 93.31492, 25.08462 ], [ 93.31742, 25.08599 ], [ 93.32188, 25.09082 ], [ 93.3246, 25.09133 ], [ 93.32754, 25.0934 ], [ 93.33237, 25.09352 ], [ 93.3317, 25.09605 ], [ 93.33354, 25.09799 ], [ 93.33246, 25.10073 ], [ 93.33808, 25.1099 ], [ 93.33675, 25.1116 ], [ 93.34141, 25.11383 ], [ 93.33933, 25.11549 ], [ 93.3422, 25.11989 ], [ 93.34118, 25.12306 ], [ 93.34199, 25.12376 ], [ 93.34526, 25.12346 ], [ 93.34421, 25.12529 ], [ 93.34172, 25.12671 ], [ 93.34211, 25.12763 ], [ 93.34499, 25.129 ], [ 93.34534, 25.13034 ], [ 93.34238, 25.13749 ], [ 93.34396, 25.13829 ], [ 93.34625, 25.13776 ], [ 93.34751, 25.13877 ], [ 93.34614, 25.14058 ], [ 93.34686, 25.14302 ], [ 93.34518, 25.15074 ], [ 93.34657, 25.15708 ], [ 93.34401, 25.15913 ], [ 93.34409, 25.1628 ], [ 93.34624, 25.16689 ], [ 93.34587, 25.16981 ], [ 93.34781, 25.17461 ], [ 93.34961, 25.17674 ], [ 93.34981, 25.1795 ], [ 93.3515, 25.17966 ], [ 93.35134, 25.1832 ], [ 93.35496, 25.18593 ], [ 93.35412, 25.18767 ], [ 93.35616, 25.18896 ], [ 93.35737, 25.1876 ], [ 93.35769, 25.19001 ], [ 93.35671, 25.19188 ], [ 93.35999, 25.19185 ], [ 93.35938, 25.19531 ], [ 93.36332, 25.1961 ], [ 93.36562, 25.19808 ], [ 93.3661, 25.2061 ], [ 93.36779, 25.20734 ], [ 93.37072, 25.20789 ], [ 93.36914, 25.20954 ], [ 93.36894, 25.21097 ], [ 93.37383, 25.21183 ], [ 93.37338, 25.21484 ], [ 93.37463, 25.21557 ], [ 93.37493, 25.21725 ], [ 93.37671, 25.21788 ], [ 93.37561, 25.22014 ], [ 93.37662, 25.22108 ], [ 93.37854, 25.22046 ], [ 93.3794, 25.22222 ], [ 93.3817, 25.22277 ], [ 93.38223, 25.22659 ], [ 93.38127, 25.22736 ], [ 93.38376, 25.22933 ], [ 93.38465, 25.23136 ], [ 93.38426, 25.23352 ], [ 93.38164, 25.23431 ], [ 93.38269, 25.23725 ], [ 93.38096, 25.23794 ], [ 93.38112, 25.23963 ], [ 93.38334, 25.24228 ], [ 93.3865, 25.24268 ], [ 93.3877, 25.245 ], [ 93.38987, 25.24656 ], [ 93.39079, 25.24897 ], [ 93.39259, 25.24997 ], [ 93.39366, 25.25474 ], [ 93.40199, 25.2611 ], [ 93.40668, 25.26078 ], [ 93.40898, 25.26246 ], [ 93.41594, 25.26427 ], [ 93.41728, 25.26871 ], [ 93.41909, 25.27073 ], [ 93.4194, 25.27469 ], [ 93.42053, 25.27746 ], [ 93.42515, 25.27988 ], [ 93.4267, 25.27964 ], [ 93.4264, 25.28114 ], [ 93.42752, 25.28324 ], [ 93.4287, 25.28254 ], [ 93.43077, 25.28295 ], [ 93.43606, 25.28782 ], [ 93.43858, 25.28782 ], [ 93.44294, 25.29021 ], [ 93.44409, 25.28985 ], [ 93.44532, 25.29134 ], [ 93.44754, 25.29211 ], [ 93.44906, 25.29143 ], [ 93.4527, 25.29217 ], [ 93.45536, 25.29347 ], [ 93.45863, 25.29577 ], [ 93.45909, 25.29739 ], [ 93.46316, 25.30147 ], [ 93.4673, 25.30166 ], [ 93.47065, 25.30508 ], [ 93.47202, 25.30312 ], [ 93.47358, 25.29366 ], [ 93.47155, 25.28982 ], [ 93.4709, 25.28442 ], [ 93.4699, 25.28259 ], [ 93.47112, 25.27558 ], [ 93.47045, 25.27359 ], [ 93.47145, 25.27185 ], [ 93.47439, 25.2708 ], [ 93.47772, 25.27109 ], [ 93.48019, 25.26989 ], [ 93.48384, 25.27123 ], [ 93.48732, 25.27454 ], [ 93.48957, 25.27492 ], [ 93.49805, 25.27282 ], [ 93.50113, 25.27078 ], [ 93.5044, 25.27041 ], [ 93.50642, 25.26932 ], [ 93.50114, 25.25609 ], [ 93.50024, 25.2507 ], [ 93.50105, 25.24253 ], [ 93.50375, 25.24216 ], [ 93.50863, 25.24477 ], [ 93.5093, 25.24348 ], [ 93.51287, 25.24308 ], [ 93.51703, 25.24688 ], [ 93.52064, 25.2475 ], [ 93.52417, 25.24665 ], [ 93.52605, 25.24494 ], [ 93.52931, 25.24496 ], [ 93.53302, 25.24616 ], [ 93.5351, 25.24356 ], [ 93.54388, 25.24777 ], [ 93.5509, 25.24782 ], [ 93.55597, 25.24598 ], [ 93.56299, 25.24093 ], [ 93.56424, 25.23838 ], [ 93.56455, 25.23132 ], [ 93.56557, 25.23027 ], [ 93.56861, 25.23 ], [ 93.56947, 25.22866 ], [ 93.56938, 25.22639 ], [ 93.57204, 25.2244 ], [ 93.57395, 25.22505 ], [ 93.57912, 25.22351 ], [ 93.58088, 25.22129 ], [ 93.58405, 25.22208 ], [ 93.58455, 25.22144 ], [ 93.58495, 25.21885 ], [ 93.58702, 25.21777 ], [ 93.58623, 25.2142 ], [ 93.5894, 25.21376 ], [ 93.59072, 25.21197 ], [ 93.5916, 25.20822 ], [ 93.59151, 25.20714 ], [ 93.58898, 25.20591 ], [ 93.58819, 25.20106 ], [ 93.59079, 25.20121 ], [ 93.59348, 25.20343 ], [ 93.59468, 25.20286 ], [ 93.59554, 25.19871 ], [ 93.59923, 25.20168 ], [ 93.60429, 25.19933 ] ] ] } }
]
}
