{
"type": "FeatureCollection",
"name": "277_IMPHAL_WEST",
"crs": { "type": "name", "properties": { "name": "urn:ogc:def:crs:OGC:1.3:CRS84" } },
"xy_coordinate_resolution": 1e-05,
"features": [
{ "type": "Feature", "properties": { "OBJECTID": 6003, "state_lgd": "14", "state_name": "MANIPUR", "district_lgd": "277", "district_name": "IMPHAL WEST", "district_name_source": "district_table", "subdistrict_lgd": "1879", "subdistrict_name": "LAMSANG", "subdistrict_type": "", "name_corrupted": false, "remarks": "", "label_lon": 93.858595103336327, "label_lat": 24.884134714451772 }, "geometry": { "type": "Polygon", "coordinates": [ [ [ 93.87857, 24.9884 ], [ 93.88347, 24.98587 ], [ 93.88777, 24.98574 ], [ 93.89369, 24.98282 ], [ 93.90002, 24.9821 ], [ 93.9018, 24.97718 ], [ 93.90482, 24.97593 ], [ 93.90651, 24.97653 ], [ 93.90745, 24.9735 ], [ 93.90951, 24.97395 ], [ 93.91411, 24.97239 ], [ 93.91379, 24.97049 ], [ 93.91025, 24.96916 ], [ 93.90645, 24.96906 ], [ 93.9092, 24.9664 ], [ 93.90882, 24.96473 ], [ 93.90757, 24.96413 ], [ 93.90494, 24.96476 ], [ 93.90489, 24.96107 ], [ 93.90209, 24.96125 ], [ 93.90152, 24.95799 ], [ 93.90015, 24.9583 ], [ 93.89829, 24.95692 ], [ 93.89569, 24.95763 ], [ 93.89045, 24.95382 ], [ 93.89124, 24.95029 ], [ 93.88978, 24.94766 ], [ 93.89077, 24.9456 ], [ 93.88684, 24.94173 ], [ 93.88669, 24.93924 ], [ 93.89263, 24.9372 ], [ 93.89531, 24.93915 ], [ 93.89652, 24.93898 ], [ 93.8975, 24.93566 ], [ 93.89552, 24.93276 ], [ 93.89588, 24.93185 ], [ 93.89779, 24.93177 ], [ 93.90378, 24.93375 ], [ 93.90458, 24.9333 ], [ 93.90452, 24.93124 ], [ 93.90532, 24.9301 ], [ 93.90843, 24.92917 ], [ 93.90712, 24.93235 ], [ 93.90758, 24.93517 ], [ 93.9091, 24.93593 ], [ 93.90856, 24.9374 ], [ 93.9093, 24.93868 ], [ 93.90842, 24.94003 ], [ 93.90964, 24.94542 ], [ 93.91265, 24.94781 ], [ 93.91585, 24.95457 ], [ 93.91777, 24.95587 ], [ 93.91857, 24.95989 ], [ 93.92021, 24.96107 ], [ 93.91983, 24.96281 ], [ 93.9245, 24.96861 ], [ 93.92527, 24.96821 ], [ 93.92668, 24.96435 ], [ 93.93191, 24.96771 ], [ 93.92874, 24.96129 ], [ 93.927, 24.96004 ], [ 93.92751, 24.9584 ], [ 93.92332, 24.95078 ], [ 93.92426, 24.94808 ], [ 93.92258, 24.94586 ], [ 93.92114, 24.94174 ], [ 93.92205, 24.93978 ], [ 93.92123, 24.93815 ], [ 93.92158, 24.93622 ], [ 93.92306, 24.93391 ], [ 93.92188, 24.93077 ], [ 93.92249, 24.9273 ], [ 93.92452, 24.92693 ], [ 93.92419, 24.92545 ], [ 93.92549, 24.92567 ], [ 93.92351, 24.9224 ], [ 93.92109, 24.92069 ], [ 93.92069, 24.91481 ], [ 93.91718, 24.9138 ], [ 93.91855, 24.91077 ], [ 93.90998, 24.9106 ], [ 93.89695, 24.90813 ], [ 93.89985, 24.89689 ], [ 93.9025, 24.89513 ], [ 93.90524, 24.89177 ], [ 93.90501, 24.89067 ], [ 93.90338, 24.89132 ], [ 93.90478, 24.88842 ], [ 93.90334, 24.88787 ], [ 93.90276, 24.88649 ], [ 93.90659, 24.88289 ], [ 93.90506, 24.88056 ], [ 93.90299, 24.88016 ], [ 93.9013, 24.88096 ], [ 93.89708, 24.88538 ], [ 93.89441, 24.8725 ], [ 93.87521, 24.84312 ], [ 93.87594, 24.83432 ], [ 93.87219, 24.82532 ], [ 93.87205, 24.82139 ], [ 93.87494, 24.80533 ], [ 93.87742, 24.80095 ], [ 93.87606, 24.80024 ], [ 93.86633, 24.80223 ], [ 93.85125, 24.80019 ], [ 93.84494, 24.80029 ], [ 93.81753, 24.80257 ], [ 93.81132, 24.80072 ], [ 93.79668, 24.80047 ], [ 93.78595, 24.79922 ], [ 93.78285, 24.80094 ], [ 93.78292, 24.80292 ], [ 93.78168, 24.80458 ], [ 93.78335, 24.80743 ], [ 93.7856, 24.80711 ], [ 93.78704, 24.80988 ], [ 93.78581, 24.81166 ], [ 93.78553, 24.81442 ], [ 93.78839, 24.81723 ], [ 93.78804, 24.81886 ], [ 93.79168, 24.82392 ], [ 93.79759, 24.82745 ], [ 93.79875, 24.83049 ], [ 93.80544, 24.83273 ], [ 93.80867, 24.83586 ], [ 93.8098, 24.83978 ], [ 93.80962, 24.84597 ], [ 93.81069, 24.85025 ], [ 93.80929, 24.85297 ], [ 93.8093, 24.85636 ], [ 93.81081, 24.85821 ], [ 93.80783, 24.86161 ], [ 93.80692, 24.86529 ], [ 93.81069, 24.87222 ], [ 93.81577, 24.8723 ], [ 93.81799, 24.87413 ], [ 93.81769, 24.87956 ], [ 93.81822, 24.88134 ], [ 93.82036, 24.88294 ], [ 93.82068, 24.88709 ], [ 93.82231, 24.88795 ], [ 93.82276, 24.89094 ], [ 93.82478, 24.89092 ], [ 93.82613, 24.89385 ], [ 93.82737, 24.89462 ], [ 93.82696, 24.89709 ], [ 93.82819, 24.89976 ], [ 93.82771, 24.90172 ], [ 93.83157, 24.90825 ], [ 93.83049, 24.9104 ], [ 93.83068, 24.91404 ], [ 93.83419, 24.92096 ], [ 93.83689, 24.92484 ], [ 93.84182, 24.92619 ], [ 93.84636, 24.9305 ], [ 93.84323, 24.93824 ], [ 93.84447, 24.94088 ], [ 93.8442, 24.94461 ], [ 93.84768, 24.94818 ], [ 93.84683, 24.95114 ], [ 93.84745, 24.95444 ], [ 93.84975, 24.95617 ], [ 93.85945, 24.95793 ], [ 93.8629, 24.95971 ], [ 93.86461, 24.96305 ], [ 93.86609, 24.96367 ], [ 93.86545, 24.9677 ], [ 93.86877, 24.97605 ], [ 93.87328, 24.98132 ], [ 93.8734, 24.9864 ], [ 93.87485, 24.98765 ], [ 93.87857, 24.9884 ] ] ] } },
{ "type": "Feature", "properties": { "OBJECTID": 6006, "state_lgd": "14", "state_name": "MANIPUR", "district_lgd": "277", "district_name": "IMPHAL WEST", "district_name_source": "district_table", "subdistrict_lgd": "1882", "subdistrict_name": "WANGOI", "subdistrict_type": "", "name_corrupted": false, "remarks": "", "label_lon": 93.877363331313717, "label_lat": 24.659057779231631 }, "geometry": { "type": "Polygon", "coordinates": [ [ [ 93.93302, 24.76716 ], [ 93.93648, 24.76537 ], [ 93.93335, 24.7508 ], [ 93.9411, 24.72026 ], [ 93.94002, 24.71786 ], [ 93.93726, 24.71573 ], [ 93.92833, 24.71311 ], [ 93.92576, 24.70749 ], [ 93.92579, 24.70566 ], [ 93.92387, 24.70405 ], [ 93.92056, 24.70382 ], [ 93.91663, 24.7056 ], [ 93.91552, 24.70497 ], [ 93.9125, 24.69999 ], [ 93.90655, 24.70081 ], [ 93.90443, 24.70006 ], [ 93.9042, 24.69865 ], [ 93.90733, 24.69292 ], [ 93.9048, 24.68696 ], [ 93.90479, 24.68508 ], [ 93.90942, 24.68166 ], [ 93.90765, 24.67974 ], [ 93.90543, 24.6792 ], [ 93.90412, 24.67659 ], [ 93.90534, 24.6746 ], [ 93.91463, 24.67392 ], [ 93.91732, 24.67211 ], [ 93.91432, 24.66648 ], [ 93.91497, 24.66478 ], [ 93.91751, 24.66426 ], [ 93.92316, 24.66484 ], [ 93.92824, 24.66326 ], [ 93.93064, 24.66498 ], [ 93.93282, 24.6649 ], [ 93.93442, 24.66273 ], [ 93.93474, 24.65701 ], [ 93.93364, 24.65393 ], [ 93.9348, 24.64871 ], [ 93.93404, 24.64824 ], [ 93.93228, 24.64898 ], [ 93.92809, 24.65306 ], [ 93.92604, 24.65311 ], [ 93.91998, 24.64405 ], [ 93.91948, 24.64022 ], [ 93.91753, 24.63904 ], [ 93.90886, 24.63671 ], [ 93.90587, 24.634 ], [ 93.9004, 24.63097 ], [ 93.90001, 24.62822 ], [ 93.90087, 24.62159 ], [ 93.89979, 24.61931 ], [ 93.88891, 24.61635 ], [ 93.88885, 24.61472 ], [ 93.89187, 24.61314 ], [ 93.89406, 24.60965 ], [ 93.89875, 24.60789 ], [ 93.90177, 24.60909 ], [ 93.90641, 24.61434 ], [ 93.91009, 24.61337 ], [ 93.9116, 24.61203 ], [ 93.91206, 24.60877 ], [ 93.91057, 24.60158 ], [ 93.91121, 24.59773 ], [ 93.91022, 24.59534 ], [ 93.91113, 24.59294 ], [ 93.90976, 24.5923 ], [ 93.90567, 24.59243 ], [ 93.90475, 24.59144 ], [ 93.90566, 24.58805 ], [ 93.91126, 24.58259 ], [ 93.91168, 24.57355 ], [ 93.90946, 24.56997 ], [ 93.90933, 24.56758 ], [ 93.90583, 24.56565 ], [ 93.9056, 24.56221 ], [ 93.90059, 24.55951 ], [ 93.89919, 24.55717 ], [ 93.89266, 24.55618 ], [ 93.88532, 24.55305 ], [ 93.88204, 24.55296 ], [ 93.88029, 24.559 ], [ 93.86667, 24.56562 ], [ 93.86033, 24.56637 ], [ 93.86832, 24.58789 ], [ 93.87028, 24.59586 ], [ 93.87159, 24.59786 ], [ 93.86703, 24.59873 ], [ 93.86343, 24.59565 ], [ 93.86368, 24.59157 ], [ 93.86229, 24.5865 ], [ 93.86104, 24.58515 ], [ 93.86244, 24.58276 ], [ 93.86251, 24.58076 ], [ 93.86101, 24.57959 ], [ 93.86064, 24.57785 ], [ 93.85245, 24.5727 ], [ 93.85044, 24.57461 ], [ 93.85221, 24.57987 ], [ 93.85203, 24.58176 ], [ 93.85026, 24.58409 ], [ 93.84587, 24.58637 ], [ 93.83154, 24.59135 ], [ 93.82916, 24.59455 ], [ 93.8297, 24.59801 ], [ 93.83573, 24.60734 ], [ 93.83603, 24.60864 ], [ 93.83502, 24.61043 ], [ 93.8317, 24.61313 ], [ 93.82933, 24.61395 ], [ 93.82299, 24.614 ], [ 93.81724, 24.61573 ], [ 93.81215, 24.61296 ], [ 93.80622, 24.618 ], [ 93.80462, 24.62375 ], [ 93.80486, 24.62624 ], [ 93.81167, 24.63356 ], [ 93.81433, 24.64223 ], [ 93.80401, 24.65025 ], [ 93.80294, 24.65572 ], [ 93.79926, 24.66076 ], [ 93.80069, 24.66352 ], [ 93.80098, 24.67019 ], [ 93.80204, 24.67403 ], [ 93.80761, 24.67886 ], [ 93.81259, 24.67951 ], [ 93.82071, 24.68223 ], [ 93.82332, 24.68125 ], [ 93.82575, 24.67806 ], [ 93.82712, 24.67789 ], [ 93.83156, 24.6857 ], [ 93.83482, 24.67931 ], [ 93.8369, 24.67085 ], [ 93.83945, 24.66771 ], [ 93.85646, 24.66138 ], [ 93.86477, 24.65924 ], [ 93.86634, 24.66158 ], [ 93.87544, 24.66574 ], [ 93.87684, 24.6676 ], [ 93.87871, 24.67346 ], [ 93.88366, 24.67789 ], [ 93.88288, 24.68413 ], [ 93.88468, 24.68846 ], [ 93.88356, 24.6916 ], [ 93.88367, 24.69491 ], [ 93.88663, 24.69655 ], [ 93.88734, 24.69823 ], [ 93.88647, 24.70119 ], [ 93.88182, 24.70104 ], [ 93.8753, 24.70234 ], [ 93.87837, 24.70617 ], [ 93.87877, 24.71305 ], [ 93.87052, 24.71529 ], [ 93.87123, 24.72574 ], [ 93.86879, 24.73895 ], [ 93.8671, 24.73999 ], [ 93.8646, 24.73953 ], [ 93.86203, 24.7416 ], [ 93.85852, 24.7418 ], [ 93.85783, 24.74362 ], [ 93.85792, 24.74946 ], [ 93.86104, 24.75202 ], [ 93.87182, 24.7548 ], [ 93.87448, 24.75639 ], [ 93.88689, 24.75724 ], [ 93.89212, 24.76076 ], [ 93.89642, 24.76499 ], [ 93.90224, 24.77314 ], [ 93.90829, 24.77578 ], [ 93.9103, 24.77577 ], [ 93.91107, 24.76877 ], [ 93.91219, 24.76561 ], [ 93.91295, 24.76387 ], [ 93.91706, 24.75982 ], [ 93.92364, 24.75962 ], [ 93.92862, 24.76449 ], [ 93.93302, 24.76716 ] ] ] } },
{ "type": "Feature", "properties": { "OBJECTID": 6009, "state_lgd": "14", "state_name": "MANIPUR", "district_lgd": "277", "district_name": "IMPHAL WEST", "district_name_source": "district_table", "subdistrict_lgd": "1880", "subdistrict_name": "PATSOI", "subdistrict_type": "", "name_corrupted": false, "remarks": "", "label_lon": 93.837490908154479, "label_lat": 24.768825423245566 }, "geometry": { "type": "Polygon", "coordinates": [ [ [ 93.87499, 24.80054 ], [ 93.87742, 24.80095 ], [ 93.88269, 24.7944 ], [ 93.89372, 24.78841 ], [ 93.89897, 24.78915 ], [ 93.90112, 24.79199 ], [ 93.90131, 24.79522 ], [ 93.90607, 24.79621 ], [ 93.90993, 24.78266 ], [ 93.9103, 24.77577 ], [ 93.90721, 24.7755 ], [ 93.90224, 24.77314 ], [ 93.89642, 24.76499 ], [ 93.89212, 24.76076 ], [ 93.88689, 24.75724 ], [ 93.87448, 24.75639 ], [ 93.87182, 24.7548 ], [ 93.86104, 24.75202 ], [ 93.85792, 24.74946 ], [ 93.85783, 24.74362 ], [ 93.85852, 24.7418 ], [ 93.86203, 24.7416 ], [ 93.8646, 24.73953 ], [ 93.85846, 24.73567 ], [ 93.8493, 24.73052 ], [ 93.83824, 24.72712 ], [ 93.83418, 24.7216 ], [ 93.8315, 24.72204 ], [ 93.82841, 24.72371 ], [ 93.82897, 24.72847 ], [ 93.82626, 24.73075 ], [ 93.81285, 24.7349 ], [ 93.81011, 24.73379 ], [ 93.7983, 24.7402 ], [ 93.79434, 24.73879 ], [ 93.79079, 24.74007 ], [ 93.7851, 24.73743 ], [ 93.77867, 24.73841 ], [ 93.77244, 24.73357 ], [ 93.76989, 24.73476 ], [ 93.77131, 24.73628 ], [ 93.77231, 24.74015 ], [ 93.77371, 24.73987 ], [ 93.77549, 24.74117 ], [ 93.77696, 24.74086 ], [ 93.77668, 24.74538 ], [ 93.77845, 24.747 ], [ 93.77936, 24.74966 ], [ 93.77891, 24.75091 ], [ 93.7803, 24.75118 ], [ 93.77928, 24.75354 ], [ 93.78196, 24.75434 ], [ 93.78251, 24.75669 ], [ 93.78411, 24.75852 ], [ 93.78327, 24.75991 ], [ 93.78438, 24.76319 ], [ 93.78613, 24.76253 ], [ 93.78735, 24.76466 ], [ 93.78871, 24.7645 ], [ 93.78806, 24.76601 ], [ 93.78888, 24.76651 ], [ 93.78889, 24.76812 ], [ 93.79201, 24.76475 ], [ 93.79261, 24.76547 ], [ 93.79258, 24.76678 ], [ 93.79078, 24.76734 ], [ 93.79129, 24.77056 ], [ 93.789, 24.77094 ], [ 93.78907, 24.77362 ], [ 93.79197, 24.77761 ], [ 93.79185, 24.77906 ], [ 93.7915, 24.78012 ], [ 93.79024, 24.78051 ], [ 93.7903, 24.78223 ], [ 93.78678, 24.78511 ], [ 93.78746, 24.78749 ], [ 93.78672, 24.792 ], [ 93.78533, 24.7939 ], [ 93.78454, 24.79774 ], [ 93.78265, 24.79906 ], [ 93.78285, 24.80094 ], [ 93.78595, 24.79922 ], [ 93.79668, 24.80047 ], [ 93.81132, 24.80072 ], [ 93.81753, 24.80257 ], [ 93.85125, 24.80019 ], [ 93.86633, 24.80223 ], [ 93.87499, 24.80054 ] ] ] } },
{ "type": "Feature", "properties": { "OBJECTID": 6010, "state_lgd": "14", "state_name": "MANIPUR", "district_lgd": "277", "district_name": "IMPHAL WEST", "district_name_source": "district_table", "subdistrict_lgd": "1881", "subdistrict_name": "LAMPHEL", "subdistrict_type": "", "name_corrupted": false, "remarks": "", "label_lon": 93.909616243737929, "label_lat": 24.820352302569777 }, "geometry": { "type": "Polygon", "coordinates": [ [ [ 93.91724, 24.88427 ], [ 93.91905, 24.87977 ], [ 93.91656, 24.87917 ], [ 93.91647, 24.87511 ], [ 93.91415, 24.87388 ], [ 93.91326, 24.87187 ], [ 93.90923, 24.87026 ], [ 93.90712, 24.86789 ], [ 93.90553, 24.86438 ], [ 93.90115, 24.86245 ], [ 93.89917, 24.85877 ], [ 93.90207, 24.85753 ], [ 93.90393, 24.85398 ], [ 93.91972, 24.8592 ], [ 93.92304, 24.85884 ], [ 93.92276, 24.85702 ], [ 93.9185, 24.85423 ], [ 93.918, 24.85305 ], [ 93.91857, 24.85171 ], [ 93.92416, 24.84889 ], [ 93.92883, 24.84853 ], [ 93.93213, 24.84401 ], [ 93.9349, 24.84541 ], [ 93.93713, 24.84438 ], [ 93.93853, 24.8376 ], [ 93.94048, 24.8356 ], [ 93.94481, 24.83328 ], [ 93.94581, 24.83104 ], [ 93.94489, 24.82544 ], [ 93.94055, 24.82561 ], [ 93.9382, 24.81456 ], [ 93.9442, 24.81231 ], [ 93.94437, 24.81027 ], [ 93.94337, 24.80925 ], [ 93.94524, 24.80884 ], [ 93.9465, 24.80694 ], [ 93.9452, 24.80413 ], [ 93.94306, 24.80344 ], [ 93.94445, 24.79962 ], [ 93.9439, 24.79764 ], [ 93.94123, 24.79494 ], [ 93.94319, 24.79331 ], [ 93.94271, 24.79193 ], [ 93.94336, 24.79092 ], [ 93.9399, 24.78337 ], [ 93.94032, 24.78219 ], [ 93.93743, 24.782 ], [ 93.93544, 24.77982 ], [ 93.93495, 24.77618 ], [ 93.93358, 24.77366 ], [ 93.93302, 24.76716 ], [ 93.92862, 24.76449 ], [ 93.92364, 24.75962 ], [ 93.9216, 24.75929 ], [ 93.91706, 24.75982 ], [ 93.91295, 24.76387 ], [ 93.91219, 24.76561 ], [ 93.91069, 24.7713 ], [ 93.90993, 24.78266 ], [ 93.9067, 24.79561 ], [ 93.90501, 24.79649 ], [ 93.90175, 24.79559 ], [ 93.9003, 24.79034 ], [ 93.89684, 24.78843 ], [ 93.89372, 24.78841 ], [ 93.88269, 24.7944 ], [ 93.8785, 24.79919 ], [ 93.87494, 24.80533 ], [ 93.87205, 24.82139 ], [ 93.87219, 24.82532 ], [ 93.87594, 24.83432 ], [ 93.87521, 24.84312 ], [ 93.89441, 24.8725 ], [ 93.89708, 24.88538 ], [ 93.9013, 24.88096 ], [ 93.90299, 24.88016 ], [ 93.90506, 24.88056 ], [ 93.90694, 24.88202 ], [ 93.91142, 24.88688 ], [ 93.91366, 24.88486 ], [ 93.91724, 24.88427 ] ] ] } }
]
}
