{
"type": "FeatureCollection",
"name": "107_KARAULI",
"crs": { "type": "name", "properties": { "name": "urn:ogc:def:crs:OGC:1.3:CRS84" } },
"xy_coordinate_resolution": 1e-05,
"features": [
{ "type": "Feature", "properties": { "OBJECTID": 3495, "state_lgd": "08", "state_name": "RAJASTHAN", "district_lgd": "107", "district_name": "KARAULI", "district_name_source": "district_table", "subdistrict_lgd": "00520N001", "subdistrict_name": "Balghat", "subdistrict_type": "", "name_corrupted": false, "remarks": "", "label_lon": 76.854483016719982, "label_lat": 26.784671731743853 }, "geometry": { "type": "MultiPolygon", "coordinates": [ [ [ [ 76.82011, 26.8594 ], [ 76.82117, 26.8602 ], [ 76.82264, 26.85982 ], [ 76.82722, 26.86298 ], [ 76.83284, 26.8684 ], [ 76.83869, 26.86543 ], [ 76.85205, 26.85267 ], [ 76.85688, 26.85173 ], [ 76.8749, 26.83917 ], [ 76.89103, 26.83153 ], [ 76.89862, 26.84651 ], [ 76.89933, 26.85063 ], [ 76.90849, 26.84924 ], [ 76.91607, 26.84939 ], [ 76.91727, 26.8503 ], [ 76.91581, 26.85272 ], [ 76.91712, 26.85664 ], [ 76.92115, 26.85656 ], [ 76.9256, 26.85887 ], [ 76.92494, 26.85651 ], [ 76.92597, 26.84676 ], [ 76.92935, 26.83412 ], [ 76.93326, 26.8243 ], [ 76.93311, 26.82086 ], [ 76.94096, 26.81675 ], [ 76.94732, 26.81533 ], [ 76.95431, 26.81938 ], [ 76.95867, 26.82411 ], [ 76.96074, 26.82495 ], [ 76.96046, 26.82287 ], [ 76.95702, 26.81703 ], [ 76.95902, 26.79539 ], [ 76.95882, 26.78491 ], [ 76.9547, 26.78575 ], [ 76.95222, 26.78504 ], [ 76.94776, 26.78529 ], [ 76.93567, 26.78889 ], [ 76.93273, 26.78522 ], [ 76.93187, 26.78569 ], [ 76.9284, 26.77937 ], [ 76.93299, 26.77759 ], [ 76.93157, 26.77273 ], [ 76.93318, 26.77092 ], [ 76.93648, 26.76926 ], [ 76.93366, 26.76496 ], [ 76.93435, 26.76474 ], [ 76.93391, 26.7539 ], [ 76.9427, 26.75016 ], [ 76.94122, 26.74745 ], [ 76.93704, 26.74907 ], [ 76.93576, 26.74682 ], [ 76.93236, 26.74806 ], [ 76.93018, 26.74198 ], [ 76.93244, 26.74162 ], [ 76.93402, 26.7447 ], [ 76.93497, 26.74452 ], [ 76.93537, 26.74566 ], [ 76.93923, 26.74451 ], [ 76.938, 26.73855 ], [ 76.93544, 26.73853 ], [ 76.93509, 26.73746 ], [ 76.93116, 26.73779 ], [ 76.9304, 26.73224 ], [ 76.93233, 26.72769 ], [ 76.9257, 26.72687 ], [ 76.92187, 26.72106 ], [ 76.90793, 26.71683 ], [ 76.90953, 26.71374 ], [ 76.90788, 26.71311 ], [ 76.89973, 26.71069 ], [ 76.88911, 26.70871 ], [ 76.87098, 26.71269 ], [ 76.87161, 26.70694 ], [ 76.86699, 26.70579 ], [ 76.86433, 26.70612 ], [ 76.85678, 26.70875 ], [ 76.84306, 26.7098 ], [ 76.83665, 26.71128 ], [ 76.83937, 26.71725 ], [ 76.83896, 26.71998 ], [ 76.82901, 26.72501 ], [ 76.82436, 26.72859 ], [ 76.82137, 26.73272 ], [ 76.81898, 26.73453 ], [ 76.80751, 26.73657 ], [ 76.79822, 26.74277 ], [ 76.79437, 26.74428 ], [ 76.78108, 26.74654 ], [ 76.77438, 26.74551 ], [ 76.75028, 26.7512 ], [ 76.74878, 26.76881 ], [ 76.74905, 26.77129 ], [ 76.75158, 26.77432 ], [ 76.75174, 26.77755 ], [ 76.74933, 26.77884 ], [ 76.74365, 26.79003 ], [ 76.74469, 26.79054 ], [ 76.74423, 26.79162 ], [ 76.74646, 26.79355 ], [ 76.74429, 26.79417 ], [ 76.74424, 26.7974 ], [ 76.74678, 26.80341 ], [ 76.75125, 26.80783 ], [ 76.76008, 26.81073 ], [ 76.76671, 26.81189 ], [ 76.77058, 26.81543 ], [ 76.77535, 26.81668 ], [ 76.77931, 26.81938 ], [ 76.78053, 26.81795 ], [ 76.78381, 26.81908 ], [ 76.79691, 26.82902 ], [ 76.8021, 26.83133 ], [ 76.80667, 26.83603 ], [ 76.8074, 26.8385 ], [ 76.80025, 26.84454 ], [ 76.80331, 26.84601 ], [ 76.80524, 26.84817 ], [ 76.80571, 26.85034 ], [ 76.80949, 26.85279 ], [ 76.8101, 26.85416 ], [ 76.81441, 26.85534 ], [ 76.81493, 26.8567 ], [ 76.80806, 26.86946 ], [ 76.81656, 26.87567 ], [ 76.81809, 26.87481 ], [ 76.8171, 26.87363 ], [ 76.81794, 26.86921 ], [ 76.81705, 26.86698 ], [ 76.81911, 26.86219 ], [ 76.81893, 26.86085 ], [ 76.82011, 26.8594 ] ] ], [ [ [ 76.96472, 26.79629 ], [ 76.96725, 26.79676 ], [ 76.96541, 26.79189 ], [ 76.96442, 26.78613 ], [ 76.96208, 26.78485 ], [ 76.96295, 26.79586 ], [ 76.96156, 26.8013 ], [ 76.96146, 26.8116 ], [ 76.96183, 26.81694 ], [ 76.96413, 26.825 ], [ 76.96625, 26.82493 ], [ 76.96442, 26.81703 ], [ 76.96483, 26.81479 ], [ 76.96348, 26.80331 ], [ 76.96472, 26.79629 ] ] ] ] } },
{ "type": "Feature", "properties": { "OBJECTID": 3496, "state_lgd": "08", "state_name": "RAJASTHAN", "district_lgd": "107", "district_name": "KARAULI", "district_name_source": "district_table", "subdistrict_lgd": "00522", "subdistrict_name": "Hindaun", "subdistrict_type": "", "name_corrupted": false, "remarks": "", "label_lon": 77.042818638211671, "label_lat": 26.712375754597527 }, "geometry": { "type": "Polygon", "coordinates": [ [ [ 76.96208, 26.78485 ], [ 76.95882, 26.78491 ], [ 76.95902, 26.79539 ], [ 76.95796, 26.81216 ], [ 76.9571, 26.81402 ], [ 76.95737, 26.8185 ], [ 76.96046, 26.82287 ], [ 76.96074, 26.82495 ], [ 76.95867, 26.82411 ], [ 76.95431, 26.81938 ], [ 76.94732, 26.81533 ], [ 76.94096, 26.81675 ], [ 76.93311, 26.82086 ], [ 76.93326, 26.8243 ], [ 76.92935, 26.83412 ], [ 76.92597, 26.84676 ], [ 76.92494, 26.85651 ], [ 76.9256, 26.85887 ], [ 76.94421, 26.85375 ], [ 76.94403, 26.85897 ], [ 76.94653, 26.86366 ], [ 76.95225, 26.86629 ], [ 76.95377, 26.86631 ], [ 76.95385, 26.86693 ], [ 76.95954, 26.86263 ], [ 76.96434, 26.86065 ], [ 76.9756, 26.86017 ], [ 76.98245, 26.85916 ], [ 76.98501, 26.85789 ], [ 76.98565, 26.86128 ], [ 76.99778, 26.87129 ], [ 76.99885, 26.8712 ], [ 77.01079, 26.865 ], [ 77.00968, 26.86289 ], [ 77.01048, 26.85906 ], [ 77.01369, 26.85422 ], [ 77.01696, 26.85158 ], [ 77.02722, 26.84578 ], [ 77.03722, 26.84464 ], [ 77.03847, 26.84387 ], [ 77.03826, 26.84277 ], [ 77.0358, 26.84056 ], [ 77.03036, 26.82754 ], [ 77.03074, 26.82244 ], [ 77.03189, 26.8209 ], [ 77.03327, 26.81492 ], [ 77.03953, 26.81269 ], [ 77.03844, 26.80616 ], [ 77.04087, 26.80484 ], [ 77.04477, 26.8053 ], [ 77.05066, 26.80322 ], [ 77.05539, 26.80333 ], [ 77.06207, 26.8049 ], [ 77.06516, 26.80476 ], [ 77.06661, 26.80648 ], [ 77.0661, 26.80777 ], [ 77.07088, 26.80824 ], [ 77.07164, 26.80562 ], [ 77.07009, 26.8024 ], [ 77.07599, 26.79841 ], [ 77.07917, 26.79523 ], [ 77.08231, 26.79519 ], [ 77.08696, 26.79171 ], [ 77.09247, 26.7909 ], [ 77.09465, 26.78917 ], [ 77.09485, 26.78822 ], [ 77.09387, 26.787 ], [ 77.08929, 26.78409 ], [ 77.08552, 26.77942 ], [ 77.08298, 26.77865 ], [ 77.083, 26.77763 ], [ 77.08586, 26.77479 ], [ 77.09491, 26.77541 ], [ 77.10205, 26.77208 ], [ 77.1017, 26.77111 ], [ 77.10413, 26.76935 ], [ 77.1027, 26.76253 ], [ 77.09989, 26.76012 ], [ 77.09618, 26.75306 ], [ 77.09429, 26.75243 ], [ 77.0947, 26.7468 ], [ 77.09415, 26.74453 ], [ 77.09808, 26.74232 ], [ 77.10135, 26.74188 ], [ 77.10452, 26.74307 ], [ 77.10443, 26.74725 ], [ 77.10747, 26.74663 ], [ 77.10859, 26.7461 ], [ 77.10881, 26.74449 ], [ 77.11728, 26.73846 ], [ 77.11718, 26.73678 ], [ 77.11904, 26.73517 ], [ 77.11676, 26.73357 ], [ 77.11259, 26.72715 ], [ 77.11226, 26.72422 ], [ 77.11288, 26.72331 ], [ 77.11003, 26.72015 ], [ 77.10531, 26.71141 ], [ 77.10212, 26.71235 ], [ 77.09188, 26.7083 ], [ 77.09449, 26.70557 ], [ 77.11077, 26.69556 ], [ 77.12083, 26.68737 ], [ 77.12311, 26.68643 ], [ 77.13356, 26.67273 ], [ 77.14002, 26.6859 ], [ 77.14489, 26.68874 ], [ 77.1447, 26.69343 ], [ 77.14614, 26.69869 ], [ 77.15059, 26.70846 ], [ 77.16547, 26.72011 ], [ 77.16591, 26.72254 ], [ 77.16822, 26.72208 ], [ 77.1694, 26.72088 ], [ 77.17239, 26.72204 ], [ 77.17345, 26.71999 ], [ 77.1721, 26.71901 ], [ 77.17498, 26.71797 ], [ 77.17409, 26.71694 ], [ 77.17532, 26.71652 ], [ 77.17554, 26.71562 ], [ 77.17464, 26.71429 ], [ 77.17631, 26.71439 ], [ 77.17558, 26.71207 ], [ 77.17935, 26.71239 ], [ 77.18145, 26.71017 ], [ 77.18178, 26.70558 ], [ 77.17996, 26.70381 ], [ 77.1797, 26.69893 ], [ 77.18171, 26.70051 ], [ 77.18294, 26.70016 ], [ 77.1846, 26.69822 ], [ 77.18332, 26.69515 ], [ 77.184, 26.69245 ], [ 77.18512, 26.69178 ], [ 77.18736, 26.69218 ], [ 77.18741, 26.69104 ], [ 77.18571, 26.68916 ], [ 77.1853, 26.68673 ], [ 77.18386, 26.68605 ], [ 77.18385, 26.68482 ], [ 77.18097, 26.68434 ], [ 77.18079, 26.68295 ], [ 77.18214, 26.68181 ], [ 77.18026, 26.67941 ], [ 77.18128, 26.67755 ], [ 77.17506, 26.66999 ], [ 77.17278, 26.66873 ], [ 77.17286, 26.66659 ], [ 77.16961, 26.66538 ], [ 77.16816, 26.66273 ], [ 77.15999, 26.66161 ], [ 77.15658, 26.65925 ], [ 77.1567, 26.65842 ], [ 77.15445, 26.65834 ], [ 77.15309, 26.65597 ], [ 77.15214, 26.65648 ], [ 77.1509, 26.65538 ], [ 77.15204, 26.65456 ], [ 77.15096, 26.65377 ], [ 77.15165, 26.65325 ], [ 77.15089, 26.65184 ], [ 77.14861, 26.65018 ], [ 77.14557, 26.64967 ], [ 77.14974, 26.6476 ], [ 77.1583, 26.6454 ], [ 77.15537, 26.64057 ], [ 77.14886, 26.63584 ], [ 77.14225, 26.62802 ], [ 77.1387, 26.62597 ], [ 77.12978, 26.62564 ], [ 77.11037, 26.60934 ], [ 77.10587, 26.59888 ], [ 77.10334, 26.59597 ], [ 77.09602, 26.59105 ], [ 77.08843, 26.58818 ], [ 77.06415, 26.56868 ], [ 77.05205, 26.56159 ], [ 77.04981, 26.56549 ], [ 77.04813, 26.56642 ], [ 77.04649, 26.57003 ], [ 77.03658, 26.57746 ], [ 77.03873, 26.58146 ], [ 77.04462, 26.58749 ], [ 77.04345, 26.58806 ], [ 77.0422, 26.59062 ], [ 77.03891, 26.59173 ], [ 77.0428, 26.59364 ], [ 77.04436, 26.59634 ], [ 77.03874, 26.60123 ], [ 77.03687, 26.60243 ], [ 77.03258, 26.59934 ], [ 77.0313, 26.60024 ], [ 77.02149, 26.59739 ], [ 77.02123, 26.59954 ], [ 77.01894, 26.60128 ], [ 77.01735, 26.60411 ], [ 77.01257, 26.60669 ], [ 77.01177, 26.60813 ], [ 77.00894, 26.60731 ], [ 77.00771, 26.60787 ], [ 77.00776, 26.60888 ], [ 77.00949, 26.60885 ], [ 77.00926, 26.61184 ], [ 77.01238, 26.61693 ], [ 77.01087, 26.61921 ], [ 77.00824, 26.61774 ], [ 77.00432, 26.61802 ], [ 77.00281, 26.62023 ], [ 77.00084, 26.6205 ], [ 76.99794, 26.61958 ], [ 76.99576, 26.61678 ], [ 76.99645, 26.61523 ], [ 76.99582, 26.61444 ], [ 76.99241, 26.61353 ], [ 76.98941, 26.61415 ], [ 76.98491, 26.61132 ], [ 76.98024, 26.61014 ], [ 76.97904, 26.6125 ], [ 76.97612, 26.61385 ], [ 76.97539, 26.61813 ], [ 76.97012, 26.62095 ], [ 76.96917, 26.62422 ], [ 76.96144, 26.62467 ], [ 76.9591, 26.62572 ], [ 76.9587, 26.62752 ], [ 76.96021, 26.63024 ], [ 76.96051, 26.63515 ], [ 76.95803, 26.63566 ], [ 76.95762, 26.64001 ], [ 76.95427, 26.64272 ], [ 76.95658, 26.64646 ], [ 76.9538, 26.64967 ], [ 76.95356, 26.65478 ], [ 76.95721, 26.65525 ], [ 76.95982, 26.65471 ], [ 76.96687, 26.6575 ], [ 76.96797, 26.66079 ], [ 76.96288, 26.66232 ], [ 76.96365, 26.66717 ], [ 76.96269, 26.6676 ], [ 76.96436, 26.67213 ], [ 76.96962, 26.67107 ], [ 76.96979, 26.67339 ], [ 76.97151, 26.67584 ], [ 76.96979, 26.67766 ], [ 76.97353, 26.67728 ], [ 76.97719, 26.67829 ], [ 76.98294, 26.6808 ], [ 76.98615, 26.68316 ], [ 76.98772, 26.68919 ], [ 76.98708, 26.68922 ], [ 76.98729, 26.69365 ], [ 76.98513, 26.69464 ], [ 76.98, 26.69921 ], [ 76.97526, 26.70079 ], [ 76.97601, 26.70482 ], [ 76.9753, 26.70619 ], [ 76.97793, 26.70736 ], [ 76.97802, 26.70889 ], [ 76.98151, 26.71157 ], [ 76.98289, 26.71404 ], [ 76.9825, 26.71669 ], [ 76.98483, 26.71647 ], [ 76.98625, 26.71749 ], [ 76.9865, 26.71872 ], [ 76.98572, 26.71991 ], [ 76.98847, 26.72124 ], [ 76.99062, 26.72786 ], [ 76.99542, 26.72896 ], [ 76.99532, 26.73082 ], [ 76.99605, 26.73137 ], [ 77.00045, 26.73216 ], [ 77.00023, 26.73379 ], [ 76.99833, 26.73663 ], [ 77.00081, 26.73927 ], [ 77.00081, 26.74037 ], [ 77.00307, 26.74177 ], [ 77.00402, 26.74159 ], [ 77.00646, 26.74428 ], [ 77.00811, 26.74488 ], [ 77.00487, 26.74638 ], [ 77.00508, 26.74773 ], [ 77.00736, 26.74858 ], [ 77.00788, 26.75195 ], [ 77.0034, 26.75221 ], [ 76.99316, 26.75516 ], [ 76.99171, 26.75354 ], [ 76.99258, 26.75289 ], [ 76.99156, 26.7507 ], [ 76.99204, 26.74894 ], [ 76.99408, 26.74681 ], [ 76.99372, 26.74545 ], [ 76.99425, 26.74525 ], [ 76.98938, 26.73782 ], [ 76.98529, 26.73961 ], [ 76.98018, 26.73929 ], [ 76.97495, 26.73708 ], [ 76.96854, 26.73875 ], [ 76.9615, 26.74294 ], [ 76.962, 26.74732 ], [ 76.96043, 26.74774 ], [ 76.96295, 26.76268 ], [ 76.97357, 26.76524 ], [ 76.97744, 26.77241 ], [ 76.97199, 26.77301 ], [ 76.96823, 26.77475 ], [ 76.97044, 26.78065 ], [ 76.96465, 26.78288 ], [ 76.96383, 26.78038 ], [ 76.96419, 26.77809 ], [ 76.96629, 26.77762 ], [ 76.96621, 26.77663 ], [ 76.96751, 26.77625 ], [ 76.96688, 26.77454 ], [ 76.96582, 26.7746 ], [ 76.96522, 26.77265 ], [ 76.94624, 26.77723 ], [ 76.94371, 26.77117 ], [ 76.93908, 26.76921 ], [ 76.93648, 26.76926 ], [ 76.93318, 26.77092 ], [ 76.93157, 26.77273 ], [ 76.93299, 26.77759 ], [ 76.9284, 26.77937 ], [ 76.93187, 26.78569 ], [ 76.93273, 26.78522 ], [ 76.93567, 26.78889 ], [ 76.94917, 26.7851 ], [ 76.9466, 26.77818 ], [ 76.9493, 26.77731 ], [ 76.95011, 26.77904 ], [ 76.95241, 26.7783 ], [ 76.95297, 26.77891 ], [ 76.96107, 26.77671 ], [ 76.96148, 26.77949 ], [ 76.96332, 26.77938 ], [ 76.96304, 26.78161 ], [ 76.9619, 26.78196 ], [ 76.96208, 26.78485 ] ], [ [ 76.96208, 26.78485 ], [ 76.96442, 26.78613 ], [ 76.96541, 26.79189 ], [ 76.96725, 26.79676 ], [ 76.96472, 26.79629 ], [ 76.96348, 26.80331 ], [ 76.96483, 26.81479 ], [ 76.96442, 26.81703 ], [ 76.96625, 26.82493 ], [ 76.96413, 26.825 ], [ 76.96183, 26.81694 ], [ 76.96156, 26.8013 ], [ 76.96297, 26.7949 ], [ 76.96208, 26.78485 ] ] ] } },
{ "type": "Feature", "properties": { "OBJECTID": 3497, "state_lgd": "08", "state_name": "RAJASTHAN", "district_lgd": "107", "district_name": "KARAULI", "district_name_source": "district_table", "subdistrict_lgd": "00523", "subdistrict_name": "Karauli", "subdistrict_type": "", "name_corrupted": false, "remarks": "", "label_lon": 76.963997244785205, "label_lat": 26.445297913986607 }, "geometry": { "type": "Polygon", "coordinates": [ [ [ 76.99794, 26.61958 ], [ 77.00281, 26.62023 ], [ 77.00432, 26.61802 ], [ 77.00824, 26.61774 ], [ 77.01087, 26.61921 ], [ 77.01238, 26.61693 ], [ 77.00926, 26.61184 ], [ 77.00949, 26.60885 ], [ 77.00776, 26.60888 ], [ 77.00771, 26.60787 ], [ 77.00894, 26.60731 ], [ 77.01177, 26.60813 ], [ 77.01257, 26.60669 ], [ 77.01735, 26.60411 ], [ 77.01894, 26.60128 ], [ 77.02123, 26.59954 ], [ 77.02149, 26.59739 ], [ 77.0313, 26.60024 ], [ 77.03258, 26.59934 ], [ 77.03687, 26.60243 ], [ 77.04436, 26.59634 ], [ 77.0428, 26.59364 ], [ 77.03891, 26.59173 ], [ 77.0422, 26.59062 ], [ 77.04456, 26.58701 ], [ 77.03873, 26.58146 ], [ 77.03658, 26.57746 ], [ 77.04649, 26.57003 ], [ 77.04813, 26.56642 ], [ 77.04981, 26.56549 ], [ 77.05205, 26.56159 ], [ 77.06136, 26.56676 ], [ 77.0773, 26.57898 ], [ 77.08041, 26.57735 ], [ 77.08527, 26.57261 ], [ 77.08567, 26.57068 ], [ 77.08509, 26.5701 ], [ 77.08638, 26.57035 ], [ 77.08622, 26.57237 ], [ 77.08791, 26.5731 ], [ 77.09265, 26.57244 ], [ 77.09978, 26.57594 ], [ 77.09996, 26.57367 ], [ 77.10233, 26.57494 ], [ 77.1018, 26.57287 ], [ 77.10323, 26.57253 ], [ 77.10443, 26.57052 ], [ 77.10289, 26.56874 ], [ 77.10347, 26.56777 ], [ 77.09861, 26.55634 ], [ 77.10075, 26.55209 ], [ 77.09863, 26.54192 ], [ 77.09669, 26.54015 ], [ 77.09519, 26.53667 ], [ 77.09335, 26.5307 ], [ 77.09371, 26.5294 ], [ 77.09296, 26.52879 ], [ 77.08779, 26.52882 ], [ 77.086, 26.52605 ], [ 77.08702, 26.52544 ], [ 77.08899, 26.52752 ], [ 77.0896, 26.52245 ], [ 77.09229, 26.52041 ], [ 77.09207, 26.51923 ], [ 77.09398, 26.51458 ], [ 77.09727, 26.51016 ], [ 77.0973, 26.50853 ], [ 77.0958, 26.50727 ], [ 77.10525, 26.5093 ], [ 77.10788, 26.50798 ], [ 77.11054, 26.50844 ], [ 77.1123, 26.50705 ], [ 77.11521, 26.5018 ], [ 77.11963, 26.49683 ], [ 77.12368, 26.49449 ], [ 77.12581, 26.49418 ], [ 77.13065, 26.49415 ], [ 77.13218, 26.49509 ], [ 77.13359, 26.49034 ], [ 77.13623, 26.48963 ], [ 77.13734, 26.48771 ], [ 77.14082, 26.48477 ], [ 77.14386, 26.48417 ], [ 77.14931, 26.48475 ], [ 77.15417, 26.48361 ], [ 77.15688, 26.48615 ], [ 77.15939, 26.48537 ], [ 77.16002, 26.4812 ], [ 77.154, 26.47831 ], [ 77.15556, 26.47632 ], [ 77.14972, 26.47455 ], [ 77.14653, 26.47175 ], [ 77.14039, 26.46933 ], [ 77.13158, 26.46897 ], [ 77.13235, 26.46503 ], [ 77.13112, 26.46026 ], [ 77.13192, 26.4594 ], [ 77.13029, 26.45891 ], [ 77.13043, 26.45695 ], [ 77.12608, 26.45555 ], [ 77.12195, 26.45544 ], [ 77.12085, 26.45634 ], [ 77.11917, 26.45541 ], [ 77.11734, 26.45679 ], [ 77.11497, 26.45589 ], [ 77.11543, 26.4534 ], [ 77.12062, 26.45184 ], [ 77.11939, 26.44791 ], [ 77.12025, 26.44581 ], [ 77.12256, 26.44649 ], [ 77.12275, 26.44505 ], [ 77.12337, 26.44559 ], [ 77.12522, 26.44417 ], [ 77.12665, 26.44464 ], [ 77.12772, 26.44345 ], [ 77.12825, 26.44057 ], [ 77.13229, 26.43991 ], [ 77.13298, 26.43861 ], [ 77.13637, 26.43629 ], [ 77.13577, 26.43567 ], [ 77.133, 26.43629 ], [ 77.13111, 26.434 ], [ 77.12719, 26.43436 ], [ 77.12626, 26.43378 ], [ 77.12471, 26.43495 ], [ 77.12242, 26.43067 ], [ 77.12109, 26.43053 ], [ 77.11854, 26.42713 ], [ 77.11507, 26.42777 ], [ 77.11471, 26.43089 ], [ 77.11349, 26.43114 ], [ 77.11168, 26.43318 ], [ 77.10523, 26.43317 ], [ 77.1043, 26.43423 ], [ 77.103, 26.43406 ], [ 77.09795, 26.42333 ], [ 77.09822, 26.42047 ], [ 77.09504, 26.41858 ], [ 77.09276, 26.41937 ], [ 77.08754, 26.41788 ], [ 77.08292, 26.40741 ], [ 77.08174, 26.40765 ], [ 77.08031, 26.40335 ], [ 77.07655, 26.39853 ], [ 77.07683, 26.39457 ], [ 77.07976, 26.38668 ], [ 77.07612, 26.38272 ], [ 77.0752, 26.37943 ], [ 77.07554, 26.37678 ], [ 77.07402, 26.37426 ], [ 77.07085, 26.37453 ], [ 77.06949, 26.3761 ], [ 77.06743, 26.37514 ], [ 77.06106, 26.37834 ], [ 77.05327, 26.39068 ], [ 77.04787, 26.39763 ], [ 77.04592, 26.40611 ], [ 77.04758, 26.4062 ], [ 77.04677, 26.40836 ], [ 77.04593, 26.40892 ], [ 77.04425, 26.40844 ], [ 77.04303, 26.40677 ], [ 77.04206, 26.40704 ], [ 77.04059, 26.40567 ], [ 77.0362, 26.40731 ], [ 77.0348, 26.40558 ], [ 77.03425, 26.40685 ], [ 77.03201, 26.40793 ], [ 77.03421, 26.40824 ], [ 77.03421, 26.40934 ], [ 77.03002, 26.41182 ], [ 77.0307, 26.41402 ], [ 77.02681, 26.41562 ], [ 77.02339, 26.4147 ], [ 77.01485, 26.40566 ], [ 77.01176, 26.40585 ], [ 77.01004, 26.4047 ], [ 77.00433, 26.40367 ], [ 77.00169, 26.39992 ], [ 76.98729, 26.40215 ], [ 76.97252, 26.39884 ], [ 76.97226, 26.39589 ], [ 76.9743, 26.39497 ], [ 76.97517, 26.39199 ], [ 76.97366, 26.38523 ], [ 76.9669, 26.37802 ], [ 76.96463, 26.37296 ], [ 76.96683, 26.36753 ], [ 76.9563, 26.35683 ], [ 76.95589, 26.35328 ], [ 76.95398, 26.35188 ], [ 76.95496, 26.35013 ], [ 76.95372, 26.34948 ], [ 76.95325, 26.34778 ], [ 76.95018, 26.3473 ], [ 76.9504, 26.34465 ], [ 76.94883, 26.34326 ], [ 76.95007, 26.34158 ], [ 76.94974, 26.34087 ], [ 76.94808, 26.34097 ], [ 76.94671, 26.33986 ], [ 76.94362, 26.34035 ], [ 76.94305, 26.33784 ], [ 76.94017, 26.34049 ], [ 76.93896, 26.34049 ], [ 76.93516, 26.33911 ], [ 76.93537, 26.33693 ], [ 76.93193, 26.33907 ], [ 76.92951, 26.3378 ], [ 76.92691, 26.33765 ], [ 76.92708, 26.33477 ], [ 76.92345, 26.33568 ], [ 76.92221, 26.33373 ], [ 76.91876, 26.33148 ], [ 76.9221, 26.32663 ], [ 76.9261, 26.32576 ], [ 76.92524, 26.3236 ], [ 76.92676, 26.31737 ], [ 76.92852, 26.31809 ], [ 76.93097, 26.32093 ], [ 76.93368, 26.31823 ], [ 76.93647, 26.32016 ], [ 76.93918, 26.31849 ], [ 76.94424, 26.32191 ], [ 76.94484, 26.32047 ], [ 76.94284, 26.31602 ], [ 76.94324, 26.31537 ], [ 76.94687, 26.31683 ], [ 76.9456, 26.3137 ], [ 76.94663, 26.31193 ], [ 76.94754, 26.31202 ], [ 76.94845, 26.31491 ], [ 76.94941, 26.31527 ], [ 76.95008, 26.31498 ], [ 76.95025, 26.31135 ], [ 76.95171, 26.31119 ], [ 76.95512, 26.31324 ], [ 76.95596, 26.31108 ], [ 76.95985, 26.30912 ], [ 76.95853, 26.30758 ], [ 76.95442, 26.30692 ], [ 76.95416, 26.30594 ], [ 76.95565, 26.30447 ], [ 76.9585, 26.30498 ], [ 76.95936, 26.30425 ], [ 76.95872, 26.2995 ], [ 76.9596, 26.29835 ], [ 76.96, 26.29433 ], [ 76.95861, 26.29342 ], [ 76.95978, 26.29207 ], [ 76.95766, 26.29019 ], [ 76.95727, 26.28773 ], [ 76.95414, 26.2824 ], [ 76.94593, 26.28216 ], [ 76.94553, 26.27927 ], [ 76.9481, 26.26869 ], [ 76.94738, 26.26591 ], [ 76.94419, 26.26087 ], [ 76.94027, 26.26001 ], [ 76.93588, 26.2604 ], [ 76.92894, 26.26242 ], [ 76.92398, 26.26267 ], [ 76.91639, 26.27063 ], [ 76.91732, 26.27444 ], [ 76.91582, 26.27679 ], [ 76.90763, 26.27873 ], [ 76.90696, 26.2825 ], [ 76.90787, 26.28341 ], [ 76.90516, 26.28256 ], [ 76.90103, 26.28441 ], [ 76.89296, 26.27566 ], [ 76.88958, 26.27508 ], [ 76.88747, 26.27659 ], [ 76.884, 26.27363 ], [ 76.87974, 26.27312 ], [ 76.87571, 26.26957 ], [ 76.87193, 26.2746 ], [ 76.87051, 26.27493 ], [ 76.87006, 26.27616 ], [ 76.86724, 26.27787 ], [ 76.86695, 26.27924 ], [ 76.86485, 26.28018 ], [ 76.86356, 26.2826 ], [ 76.86202, 26.28299 ], [ 76.85994, 26.28705 ], [ 76.86173, 26.28948 ], [ 76.8612, 26.29133 ], [ 76.85632, 26.29485 ], [ 76.85611, 26.29605 ], [ 76.85277, 26.29676 ], [ 76.85235, 26.29922 ], [ 76.85134, 26.29923 ], [ 76.85078, 26.30167 ], [ 76.84947, 26.30277 ], [ 76.85049, 26.30414 ], [ 76.84702, 26.30901 ], [ 76.84599, 26.3088 ], [ 76.84409, 26.3108 ], [ 76.84237, 26.31097 ], [ 76.83394, 26.30553 ], [ 76.82932, 26.3095 ], [ 76.82533, 26.30908 ], [ 76.8255, 26.31047 ], [ 76.82783, 26.31219 ], [ 76.828, 26.3135 ], [ 76.83195, 26.31626 ], [ 76.82972, 26.32172 ], [ 76.83088, 26.32825 ], [ 76.8218, 26.32737 ], [ 76.81676, 26.32234 ], [ 76.80647, 26.31973 ], [ 76.79314, 26.32362 ], [ 76.78961, 26.32313 ], [ 76.78719, 26.3242 ], [ 76.79368, 26.33084 ], [ 76.78702, 26.33276 ], [ 76.78942, 26.34199 ], [ 76.78897, 26.34312 ], [ 76.78615, 26.34474 ], [ 76.78647, 26.3468 ], [ 76.79051, 26.34949 ], [ 76.79421, 26.3598 ], [ 76.80023, 26.37052 ], [ 76.80097, 26.36843 ], [ 76.80572, 26.36326 ], [ 76.80855, 26.36732 ], [ 76.80973, 26.37052 ], [ 76.82022, 26.37498 ], [ 76.82249, 26.37713 ], [ 76.82778, 26.38517 ], [ 76.83697, 26.3953 ], [ 76.84273, 26.40304 ], [ 76.83643, 26.40534 ], [ 76.8383, 26.41056 ], [ 76.83685, 26.41172 ], [ 76.84484, 26.42197 ], [ 76.84541, 26.42476 ], [ 76.85383, 26.431 ], [ 76.85827, 26.43623 ], [ 76.86228, 26.43728 ], [ 76.86947, 26.44374 ], [ 76.87526, 26.44763 ], [ 76.88076, 26.45405 ], [ 76.87884, 26.46045 ], [ 76.86787, 26.47255 ], [ 76.86629, 26.47018 ], [ 76.86525, 26.47077 ], [ 76.86433, 26.46971 ], [ 76.86349, 26.4703 ], [ 76.86415, 26.47163 ], [ 76.86344, 26.47189 ], [ 76.86254, 26.47015 ], [ 76.84832, 26.47483 ], [ 76.83777, 26.48088 ], [ 76.83387, 26.48174 ], [ 76.83397, 26.48251 ], [ 76.83804, 26.48569 ], [ 76.84233, 26.48764 ], [ 76.84779, 26.49301 ], [ 76.84892, 26.49278 ], [ 76.85093, 26.49544 ], [ 76.8585, 26.50192 ], [ 76.86449, 26.50183 ], [ 76.86664, 26.50767 ], [ 76.86865, 26.50945 ], [ 76.87048, 26.50974 ], [ 76.87325, 26.5079 ], [ 76.87375, 26.5097 ], [ 76.87694, 26.51349 ], [ 76.88206, 26.51401 ], [ 76.88629, 26.51673 ], [ 76.88702, 26.51857 ], [ 76.89261, 26.51868 ], [ 76.90521, 26.52298 ], [ 76.90544, 26.52804 ], [ 76.90642, 26.52942 ], [ 76.90672, 26.53538 ], [ 76.90782, 26.53843 ], [ 76.90735, 26.54289 ], [ 76.90965, 26.55795 ], [ 76.91151, 26.55751 ], [ 76.9126, 26.5586 ], [ 76.92641, 26.55123 ], [ 76.92824, 26.55188 ], [ 76.93193, 26.54935 ], [ 76.93908, 26.54692 ], [ 76.94044, 26.54587 ], [ 76.9404, 26.54215 ], [ 76.94191, 26.54193 ], [ 76.94928, 26.54152 ], [ 76.95141, 26.54317 ], [ 76.95503, 26.54335 ], [ 76.96296, 26.5492 ], [ 76.96483, 26.54897 ], [ 76.97028, 26.55121 ], [ 76.97249, 26.5587 ], [ 76.96992, 26.5612 ], [ 76.96847, 26.56618 ], [ 76.96833, 26.57151 ], [ 76.9644, 26.5721 ], [ 76.96013, 26.57017 ], [ 76.95269, 26.56882 ], [ 76.94951, 26.57043 ], [ 76.93493, 26.57389 ], [ 76.93468, 26.5783 ], [ 76.9379, 26.58895 ], [ 76.93929, 26.58947 ], [ 76.9454, 26.5877 ], [ 76.95521, 26.58772 ], [ 76.95594, 26.58904 ], [ 76.9631, 26.59012 ], [ 76.96994, 26.59436 ], [ 76.97634, 26.59631 ], [ 76.97792, 26.59795 ], [ 76.97685, 26.60089 ], [ 76.97725, 26.60174 ], [ 76.98129, 26.60209 ], [ 76.98132, 26.6039 ], [ 76.97799, 26.60594 ], [ 76.98024, 26.61014 ], [ 76.98491, 26.61132 ], [ 76.98941, 26.61415 ], [ 76.99241, 26.61353 ], [ 76.99582, 26.61444 ], [ 76.99645, 26.61523 ], [ 76.99576, 26.61678 ], [ 76.99794, 26.61958 ] ] ] } },
{ "type": "Feature", "properties": { "OBJECTID": 3498, "state_lgd": "08", "state_name": "RAJASTHAN", "district_lgd": "107", "district_name": "KARAULI", "district_name_source": "district_table", "subdistrict_lgd": "00524", "subdistrict_name": "Mandrail", "subdistrict_type": "", "name_corrupted": false, "remarks": "", "label_lon": 77.207126549183485, "label_lat": 26.366003573331767 }, "geometry": { "type": "Polygon", "coordinates": [ [ [ 77.22897, 26.52258 ], [ 77.22935, 26.52055 ], [ 77.23122, 26.51977 ], [ 77.22963, 26.51686 ], [ 77.23058, 26.51414 ], [ 77.23371, 26.51253 ], [ 77.23359, 26.50999 ], [ 77.23525, 26.5102 ], [ 77.23623, 26.50912 ], [ 77.23668, 26.50749 ], [ 77.23524, 26.50601 ], [ 77.23753, 26.50461 ], [ 77.23905, 26.49899 ], [ 77.23891, 26.49834 ], [ 77.23508, 26.49683 ], [ 77.23439, 26.49513 ], [ 77.239, 26.49269 ], [ 77.23766, 26.4889 ], [ 77.23828, 26.48644 ], [ 77.23991, 26.48348 ], [ 77.24232, 26.48147 ], [ 77.24015, 26.47526 ], [ 77.23741, 26.47051 ], [ 77.23842, 26.46974 ], [ 77.23969, 26.47024 ], [ 77.24193, 26.4739 ], [ 77.2435, 26.47456 ], [ 77.2439, 26.47066 ], [ 77.24836, 26.46908 ], [ 77.24999, 26.46751 ], [ 77.24761, 26.46591 ], [ 77.24829, 26.46299 ], [ 77.24727, 26.45946 ], [ 77.24806, 26.45869 ], [ 77.25092, 26.45843 ], [ 77.25069, 26.4521 ], [ 77.24898, 26.44434 ], [ 77.25207, 26.44113 ], [ 77.25264, 26.43814 ], [ 77.2548, 26.43607 ], [ 77.25532, 26.4314 ], [ 77.26155, 26.42805 ], [ 77.26408, 26.43078 ], [ 77.27011, 26.43226 ], [ 77.27485, 26.43117 ], [ 77.27844, 26.43356 ], [ 77.28186, 26.43714 ], [ 77.28597, 26.43671 ], [ 77.28922, 26.43852 ], [ 77.29325, 26.43492 ], [ 77.29513, 26.43495 ], [ 77.2969, 26.43654 ], [ 77.30358, 26.43777 ], [ 77.30651, 26.43911 ], [ 77.30979, 26.43832 ], [ 77.31555, 26.43884 ], [ 77.31717, 26.43581 ], [ 77.3317, 26.43206 ], [ 77.32922, 26.42585 ], [ 77.34071, 26.42511 ], [ 77.34399, 26.42384 ], [ 77.3462, 26.41411 ], [ 77.34526, 26.40729 ], [ 77.34243, 26.40414 ], [ 77.34097, 26.39909 ], [ 77.33905, 26.39598 ], [ 77.34155, 26.39631 ], [ 77.34622, 26.39396 ], [ 77.35509, 26.39708 ], [ 77.35654, 26.39067 ], [ 77.35655, 26.37882 ], [ 77.35732, 26.37764 ], [ 77.35857, 26.37748 ], [ 77.35924, 26.37832 ], [ 77.36011, 26.3774 ], [ 77.36533, 26.37873 ], [ 77.36524, 26.3797 ], [ 77.36779, 26.37767 ], [ 77.37014, 26.3774 ], [ 77.36944, 26.37556 ], [ 77.37015, 26.37406 ], [ 77.37143, 26.37471 ], [ 77.3719, 26.37304 ], [ 77.37128, 26.37197 ], [ 77.37253, 26.36984 ], [ 77.37583, 26.36882 ], [ 77.37567, 26.36554 ], [ 77.37293, 26.36544 ], [ 77.36685, 26.36345 ], [ 77.35483, 26.3545 ], [ 77.34212, 26.35181 ], [ 77.33526, 26.34134 ], [ 77.33059, 26.34387 ], [ 77.32965, 26.34319 ], [ 77.32139, 26.334 ], [ 77.31709, 26.32252 ], [ 77.31464, 26.31872 ], [ 77.31507, 26.31772 ], [ 77.31762, 26.31746 ], [ 77.3166, 26.31147 ], [ 77.3113, 26.30474 ], [ 77.29843, 26.29102 ], [ 77.28644, 26.28075 ], [ 77.27898, 26.27596 ], [ 77.27106, 26.26758 ], [ 77.25177, 26.25978 ], [ 77.23089, 26.24598 ], [ 77.2168, 26.24004 ], [ 77.21284, 26.23377 ], [ 77.20714, 26.23203 ], [ 77.20389, 26.22987 ], [ 77.19993, 26.22981 ], [ 77.19349, 26.23141 ], [ 77.18005, 26.23791 ], [ 77.17355, 26.2388 ], [ 77.17105, 26.23747 ], [ 77.17047, 26.23415 ], [ 77.16898, 26.23275 ], [ 77.15391, 26.2318 ], [ 77.14704, 26.23274 ], [ 77.14248, 26.23426 ], [ 77.13946, 26.23421 ], [ 77.13472, 26.23295 ], [ 77.12412, 26.22641 ], [ 77.11561, 26.23146 ], [ 77.11402, 26.23616 ], [ 77.1144, 26.24393 ], [ 77.11866, 26.25371 ], [ 77.11478, 26.25713 ], [ 77.11385, 26.25904 ], [ 77.11414, 26.26258 ], [ 77.11296, 26.26415 ], [ 77.11591, 26.2683 ], [ 77.11115, 26.27311 ], [ 77.10642, 26.28084 ], [ 77.10516, 26.28562 ], [ 77.1063, 26.28718 ], [ 77.10423, 26.28881 ], [ 77.10288, 26.29252 ], [ 77.10094, 26.29347 ], [ 77.1017, 26.29526 ], [ 77.10123, 26.30757 ], [ 77.09718, 26.31175 ], [ 77.09299, 26.31423 ], [ 77.09016, 26.31441 ], [ 77.0875, 26.31328 ], [ 77.08468, 26.31343 ], [ 77.0832, 26.31247 ], [ 77.08212, 26.3147 ], [ 77.07621, 26.31862 ], [ 77.07646, 26.31956 ], [ 77.07992, 26.32006 ], [ 77.0849, 26.32348 ], [ 77.08528, 26.32552 ], [ 77.0814, 26.3266 ], [ 77.08152, 26.32747 ], [ 77.08912, 26.3336 ], [ 77.09602, 26.33759 ], [ 77.10032, 26.34623 ], [ 77.10273, 26.34753 ], [ 77.10501, 26.35004 ], [ 77.10611, 26.35423 ], [ 77.10501, 26.35613 ], [ 77.10231, 26.35778 ], [ 77.10155, 26.36174 ], [ 77.09644, 26.36249 ], [ 77.09517, 26.36432 ], [ 77.08882, 26.36588 ], [ 77.08473, 26.37115 ], [ 77.08527, 26.37557 ], [ 77.08464, 26.3775 ], [ 77.07969, 26.37712 ], [ 77.07554, 26.37773 ], [ 77.0752, 26.37943 ], [ 77.07612, 26.38272 ], [ 77.07976, 26.38668 ], [ 77.07683, 26.39457 ], [ 77.07655, 26.39853 ], [ 77.08031, 26.40335 ], [ 77.08174, 26.40765 ], [ 77.08292, 26.40741 ], [ 77.08754, 26.41788 ], [ 77.09276, 26.41937 ], [ 77.09504, 26.41858 ], [ 77.09822, 26.42047 ], [ 77.09795, 26.42333 ], [ 77.103, 26.43406 ], [ 77.1043, 26.43423 ], [ 77.10523, 26.43317 ], [ 77.11168, 26.43318 ], [ 77.11349, 26.43114 ], [ 77.11471, 26.43089 ], [ 77.11507, 26.42777 ], [ 77.11854, 26.42713 ], [ 77.12109, 26.43053 ], [ 77.12242, 26.43067 ], [ 77.12471, 26.43495 ], [ 77.12626, 26.43378 ], [ 77.12719, 26.43436 ], [ 77.13111, 26.434 ], [ 77.133, 26.43629 ], [ 77.13577, 26.43567 ], [ 77.13637, 26.43629 ], [ 77.13298, 26.43861 ], [ 77.13229, 26.43991 ], [ 77.12825, 26.44057 ], [ 77.12772, 26.44345 ], [ 77.12665, 26.44464 ], [ 77.12522, 26.44417 ], [ 77.12337, 26.44559 ], [ 77.12275, 26.44505 ], [ 77.12256, 26.44649 ], [ 77.12025, 26.44581 ], [ 77.11939, 26.44791 ], [ 77.12062, 26.45184 ], [ 77.11543, 26.4534 ], [ 77.11497, 26.45589 ], [ 77.11734, 26.45679 ], [ 77.11917, 26.45541 ], [ 77.12085, 26.45634 ], [ 77.12195, 26.45544 ], [ 77.12608, 26.45555 ], [ 77.13043, 26.45695 ], [ 77.13029, 26.45891 ], [ 77.13192, 26.4594 ], [ 77.13112, 26.46026 ], [ 77.13235, 26.46503 ], [ 77.13158, 26.46897 ], [ 77.14039, 26.46933 ], [ 77.14653, 26.47175 ], [ 77.14972, 26.47455 ], [ 77.15556, 26.47632 ], [ 77.154, 26.47831 ], [ 77.16002, 26.4812 ], [ 77.15939, 26.48537 ], [ 77.15688, 26.48615 ], [ 77.15722, 26.48961 ], [ 77.16185, 26.49714 ], [ 77.16358, 26.50365 ], [ 77.16103, 26.51227 ], [ 77.1588, 26.51315 ], [ 77.15921, 26.51435 ], [ 77.15843, 26.51481 ], [ 77.16266, 26.517 ], [ 77.16689, 26.51693 ], [ 77.17072, 26.51826 ], [ 77.17526, 26.51808 ], [ 77.19095, 26.52106 ], [ 77.20249, 26.5199 ], [ 77.20884, 26.51814 ], [ 77.21735, 26.51944 ], [ 77.22065, 26.52184 ], [ 77.22635, 26.52287 ], [ 77.22897, 26.52258 ] ] ] } },
{ "type": "Feature", "properties": { "OBJECTID": 3499, "state_lgd": "08", "state_name": "RAJASTHAN", "district_lgd": "107", "district_name": "KARAULI", "district_name_source": "district_table", "subdistrict_lgd": "00523N001", "subdistrict_name": "Masalpur", "subdistrict_type": "", "name_corrupted": false, "remarks": "", "label_lon": 77.238510379058766, "label_lat": 26.649341655500304 }, "geometry": { "type": "Polygon", "coordinates": [ [ [ 77.27433, 26.80388 ], [ 77.27764, 26.80419 ], [ 77.27634, 26.80274 ], [ 77.27697, 26.80107 ], [ 77.28007, 26.79845 ], [ 77.28133, 26.79827 ], [ 77.28262, 26.794 ], [ 77.29114, 26.78179 ], [ 77.29323, 26.78028 ], [ 77.29946, 26.7802 ], [ 77.30624, 26.78549 ], [ 77.31392, 26.78864 ], [ 77.31652, 26.7921 ], [ 77.31693, 26.79502 ], [ 77.31947, 26.79549 ], [ 77.32168, 26.79795 ], [ 77.32418, 26.79809 ], [ 77.32965, 26.80106 ], [ 77.33176, 26.79996 ], [ 77.33332, 26.80033 ], [ 77.33422, 26.80157 ], [ 77.33314, 26.80499 ], [ 77.33605, 26.80662 ], [ 77.33666, 26.80797 ], [ 77.3407, 26.80465 ], [ 77.34573, 26.80202 ], [ 77.35097, 26.80509 ], [ 77.35805, 26.79633 ], [ 77.35008, 26.78746 ], [ 77.35253, 26.78598 ], [ 77.3473, 26.7763 ], [ 77.34746, 26.77487 ], [ 77.34465, 26.77316 ], [ 77.34061, 26.76814 ], [ 77.33751, 26.76654 ], [ 77.34029, 26.76292 ], [ 77.34781, 26.75892 ], [ 77.3505, 26.75583 ], [ 77.34806, 26.75354 ], [ 77.34658, 26.74666 ], [ 77.34725, 26.74299 ], [ 77.35069, 26.73525 ], [ 77.34975, 26.7309 ], [ 77.34844, 26.72864 ], [ 77.34954, 26.72703 ], [ 77.34944, 26.72547 ], [ 77.34691, 26.71678 ], [ 77.34721, 26.71439 ], [ 77.34598, 26.71275 ], [ 77.34601, 26.69138 ], [ 77.35831, 26.67905 ], [ 77.36324, 26.66831 ], [ 77.36573, 26.66465 ], [ 77.36972, 26.66104 ], [ 77.37208, 26.65631 ], [ 77.36932, 26.6546 ], [ 77.36789, 26.65511 ], [ 77.36826, 26.65652 ], [ 77.36762, 26.65706 ], [ 77.36499, 26.65703 ], [ 77.35699, 26.65404 ], [ 77.35146, 26.65586 ], [ 77.35, 26.65446 ], [ 77.34976, 26.64944 ], [ 77.34624, 26.64469 ], [ 77.34667, 26.64261 ], [ 77.34592, 26.6415 ], [ 77.34956, 26.63975 ], [ 77.35099, 26.63591 ], [ 77.35502, 26.63654 ], [ 77.35544, 26.63407 ], [ 77.35754, 26.63183 ], [ 77.36, 26.6345 ], [ 77.35957, 26.63734 ], [ 77.36492, 26.63692 ], [ 77.37524, 26.63462 ], [ 77.3889, 26.63528 ], [ 77.39465, 26.63346 ], [ 77.39142, 26.61944 ], [ 77.38946, 26.61562 ], [ 77.38282, 26.61574 ], [ 77.37614, 26.61855 ], [ 77.37599, 26.61643 ], [ 77.37283, 26.61499 ], [ 77.37396, 26.61341 ], [ 77.37033, 26.61179 ], [ 77.36954, 26.61246 ], [ 77.36908, 26.61195 ], [ 77.36922, 26.60615 ], [ 77.35526, 26.59184 ], [ 77.34613, 26.59242 ], [ 77.33546, 26.58642 ], [ 77.33291, 26.58676 ], [ 77.32888, 26.58469 ], [ 77.31496, 26.58014 ], [ 77.31254, 26.57711 ], [ 77.29434, 26.56639 ], [ 77.28889, 26.56095 ], [ 77.2893, 26.55461 ], [ 77.28711, 26.55455 ], [ 77.28192, 26.55688 ], [ 77.27766, 26.5543 ], [ 77.26922, 26.55328 ], [ 77.26696, 26.55077 ], [ 77.25533, 26.5547 ], [ 77.25547, 26.55159 ], [ 77.25232, 26.55131 ], [ 77.24834, 26.54819 ], [ 77.24148, 26.54746 ], [ 77.23544, 26.53701 ], [ 77.22767, 26.53042 ], [ 77.22706, 26.52676 ], [ 77.22886, 26.5246 ], [ 77.22897, 26.52258 ], [ 77.22635, 26.52287 ], [ 77.22065, 26.52184 ], [ 77.21735, 26.51944 ], [ 77.20884, 26.51814 ], [ 77.20249, 26.5199 ], [ 77.19181, 26.52115 ], [ 77.17625, 26.51823 ], [ 77.17072, 26.51826 ], [ 77.16689, 26.51693 ], [ 77.16092, 26.51658 ], [ 77.15843, 26.51481 ], [ 77.15921, 26.51435 ], [ 77.1588, 26.51315 ], [ 77.16103, 26.51227 ], [ 77.16358, 26.50347 ], [ 77.16185, 26.49714 ], [ 77.15722, 26.48961 ], [ 77.15684, 26.48583 ], [ 77.15417, 26.48361 ], [ 77.14931, 26.48475 ], [ 77.14386, 26.48417 ], [ 77.14082, 26.48477 ], [ 77.13734, 26.48771 ], [ 77.13623, 26.48963 ], [ 77.13359, 26.49034 ], [ 77.13218, 26.49509 ], [ 77.13065, 26.49415 ], [ 77.12368, 26.49449 ], [ 77.11963, 26.49683 ], [ 77.11521, 26.5018 ], [ 77.1123, 26.50705 ], [ 77.11054, 26.50844 ], [ 77.10788, 26.50798 ], [ 77.10525, 26.5093 ], [ 77.0958, 26.50727 ], [ 77.0973, 26.50853 ], [ 77.09727, 26.51016 ], [ 77.09398, 26.51458 ], [ 77.09207, 26.51923 ], [ 77.09229, 26.52041 ], [ 77.0896, 26.52245 ], [ 77.08899, 26.52752 ], [ 77.08702, 26.52544 ], [ 77.086, 26.52605 ], [ 77.08779, 26.52882 ], [ 77.09296, 26.52879 ], [ 77.09374, 26.52946 ], [ 77.09335, 26.5307 ], [ 77.09474, 26.53543 ], [ 77.09669, 26.54015 ], [ 77.09863, 26.54192 ], [ 77.10038, 26.54815 ], [ 77.10075, 26.55209 ], [ 77.09861, 26.55634 ], [ 77.10347, 26.56777 ], [ 77.10289, 26.56874 ], [ 77.10443, 26.57061 ], [ 77.10323, 26.57253 ], [ 77.1018, 26.57287 ], [ 77.10233, 26.57494 ], [ 77.0997, 26.57381 ], [ 77.09978, 26.57594 ], [ 77.09265, 26.57244 ], [ 77.0873, 26.5729 ], [ 77.08622, 26.57237 ], [ 77.08638, 26.57035 ], [ 77.08509, 26.5701 ], [ 77.08567, 26.57068 ], [ 77.08527, 26.57261 ], [ 77.08041, 26.57735 ], [ 77.0773, 26.57898 ], [ 77.08255, 26.58402 ], [ 77.08843, 26.58818 ], [ 77.09602, 26.59105 ], [ 77.10334, 26.59597 ], [ 77.10587, 26.59888 ], [ 77.11037, 26.60934 ], [ 77.12978, 26.62564 ], [ 77.1387, 26.62597 ], [ 77.14113, 26.62713 ], [ 77.14886, 26.63584 ], [ 77.15537, 26.64057 ], [ 77.1583, 26.6454 ], [ 77.14974, 26.6476 ], [ 77.14557, 26.64967 ], [ 77.14861, 26.65018 ], [ 77.15089, 26.65184 ], [ 77.15165, 26.65325 ], [ 77.15096, 26.65377 ], [ 77.15204, 26.65456 ], [ 77.1509, 26.65538 ], [ 77.15214, 26.65648 ], [ 77.15309, 26.65597 ], [ 77.15445, 26.65834 ], [ 77.1567, 26.65842 ], [ 77.15658, 26.65925 ], [ 77.15999, 26.66161 ], [ 77.16816, 26.66273 ], [ 77.16961, 26.66538 ], [ 77.17301, 26.66673 ], [ 77.17278, 26.66873 ], [ 77.17506, 26.66999 ], [ 77.18128, 26.67755 ], [ 77.18026, 26.67941 ], [ 77.18214, 26.68181 ], [ 77.18079, 26.68295 ], [ 77.18097, 26.68434 ], [ 77.18385, 26.68482 ], [ 77.18386, 26.68605 ], [ 77.1853, 26.68673 ], [ 77.18571, 26.68916 ], [ 77.18753, 26.69142 ], [ 77.18736, 26.69218 ], [ 77.18512, 26.69178 ], [ 77.184, 26.69245 ], [ 77.18332, 26.69515 ], [ 77.1846, 26.69822 ], [ 77.18294, 26.70016 ], [ 77.18171, 26.70051 ], [ 77.1797, 26.69893 ], [ 77.17996, 26.70381 ], [ 77.18178, 26.70558 ], [ 77.18145, 26.71017 ], [ 77.17935, 26.71239 ], [ 77.17558, 26.71207 ], [ 77.17636, 26.71411 ], [ 77.17464, 26.71429 ], [ 77.17554, 26.71562 ], [ 77.17532, 26.71652 ], [ 77.17409, 26.71694 ], [ 77.17498, 26.71797 ], [ 77.1721, 26.71901 ], [ 77.17341, 26.71974 ], [ 77.1729, 26.72185 ], [ 77.1694, 26.72088 ], [ 77.16822, 26.72208 ], [ 77.16596, 26.72228 ], [ 77.16586, 26.72405 ], [ 77.16696, 26.72534 ], [ 77.16588, 26.72688 ], [ 77.16052, 26.73051 ], [ 77.16301, 26.733 ], [ 77.1608, 26.73502 ], [ 77.16346, 26.73514 ], [ 77.17053, 26.74259 ], [ 77.18762, 26.76426 ], [ 77.198, 26.77172 ], [ 77.2054, 26.77965 ], [ 77.21499, 26.78533 ], [ 77.22386, 26.79177 ], [ 77.22684, 26.79221 ], [ 77.22872, 26.79462 ], [ 77.23375, 26.79788 ], [ 77.23594, 26.80171 ], [ 77.25563, 26.82086 ], [ 77.26549, 26.81444 ], [ 77.27291, 26.80745 ], [ 77.27227, 26.8065 ], [ 77.27431, 26.80533 ], [ 77.27433, 26.80388 ] ] ] } },
{ "type": "Feature", "properties": { "OBJECTID": 3500, "state_lgd": "08", "state_name": "RAJASTHAN", "district_lgd": "107", "district_name": "KARAULI", "district_name_source": "district_table", "subdistrict_lgd": "00521", "subdistrict_name": "Nadoti", "subdistrict_type": "", "name_corrupted": false, "remarks": "", "label_lon": 76.687338619247555, "label_lat": 26.707417235305741 }, "geometry": { "type": "Polygon", "coordinates": [ [ [ 76.7605, 26.86236 ], [ 76.75437, 26.8554 ], [ 76.75413, 26.85142 ], [ 76.75, 26.85031 ], [ 76.74542, 26.84772 ], [ 76.73781, 26.83524 ], [ 76.73317, 26.83304 ], [ 76.73269, 26.8251 ], [ 76.72371, 26.81455 ], [ 76.72919, 26.81234 ], [ 76.73157, 26.80855 ], [ 76.73789, 26.80355 ], [ 76.74244, 26.80491 ], [ 76.74678, 26.80341 ], [ 76.74424, 26.7974 ], [ 76.74429, 26.79417 ], [ 76.74646, 26.79355 ], [ 76.74423, 26.79162 ], [ 76.74469, 26.79054 ], [ 76.74365, 26.79003 ], [ 76.74933, 26.77884 ], [ 76.75174, 26.77755 ], [ 76.75158, 26.77432 ], [ 76.74905, 26.77129 ], [ 76.74878, 26.76881 ], [ 76.75028, 26.7512 ], [ 76.77438, 26.74551 ], [ 76.78108, 26.74654 ], [ 76.79437, 26.74428 ], [ 76.79822, 26.74277 ], [ 76.80751, 26.73657 ], [ 76.81898, 26.73453 ], [ 76.82137, 26.73272 ], [ 76.82436, 26.72859 ], [ 76.82901, 26.72501 ], [ 76.83896, 26.71998 ], [ 76.83937, 26.71725 ], [ 76.83665, 26.71128 ], [ 76.84306, 26.7098 ], [ 76.85678, 26.70875 ], [ 76.86433, 26.70612 ], [ 76.86699, 26.70579 ], [ 76.87161, 26.70694 ], [ 76.87234, 26.69727 ], [ 76.87194, 26.69369 ], [ 76.87029, 26.6897 ], [ 76.87045, 26.68677 ], [ 76.87469, 26.68443 ], [ 76.87812, 26.67924 ], [ 76.8855, 26.67658 ], [ 76.8905, 26.67318 ], [ 76.88909, 26.66933 ], [ 76.87945, 26.67094 ], [ 76.87747, 26.66831 ], [ 76.87577, 26.66847 ], [ 76.87531, 26.66772 ], [ 76.87832, 26.6663 ], [ 76.87705, 26.66345 ], [ 76.87549, 26.66425 ], [ 76.87582, 26.66512 ], [ 76.87223, 26.66715 ], [ 76.86934, 26.66014 ], [ 76.85819, 26.65408 ], [ 76.8561, 26.64716 ], [ 76.84909, 26.64937 ], [ 76.83128, 26.65182 ], [ 76.83032, 26.64583 ], [ 76.82146, 26.63158 ], [ 76.8019, 26.60993 ], [ 76.79649, 26.60496 ], [ 76.79244, 26.59826 ], [ 76.77854, 26.59922 ], [ 76.77793, 26.58828 ], [ 76.77869, 26.58345 ], [ 76.76047, 26.56781 ], [ 76.75824, 26.56893 ], [ 76.75527, 26.56659 ], [ 76.74554, 26.5716 ], [ 76.74588, 26.57351 ], [ 76.74178, 26.57455 ], [ 76.73313, 26.57283 ], [ 76.73123, 26.57139 ], [ 76.7238, 26.57213 ], [ 76.71908, 26.57415 ], [ 76.71419, 26.57388 ], [ 76.70711, 26.5749 ], [ 76.69994, 26.5789 ], [ 76.69381, 26.58036 ], [ 76.69095, 26.5862 ], [ 76.68728, 26.58843 ], [ 76.68523, 26.59096 ], [ 76.68466, 26.59341 ], [ 76.67653, 26.5984 ], [ 76.67571, 26.60069 ], [ 76.67045, 26.60177 ], [ 76.67069, 26.60597 ], [ 76.66952, 26.60891 ], [ 76.66235, 26.60926 ], [ 76.65278, 26.60728 ], [ 76.6385, 26.61012 ], [ 76.63983, 26.61042 ], [ 76.64231, 26.61686 ], [ 76.63755, 26.62462 ], [ 76.62224, 26.64095 ], [ 76.6132, 26.64339 ], [ 76.61435, 26.64346 ], [ 76.62033, 26.65415 ], [ 76.61699, 26.65676 ], [ 76.61589, 26.65697 ], [ 76.61483, 26.6556 ], [ 76.6067, 26.66112 ], [ 76.60397, 26.66431 ], [ 76.60241, 26.66456 ], [ 76.60089, 26.66116 ], [ 76.59728, 26.65855 ], [ 76.59512, 26.65824 ], [ 76.58663, 26.64989 ], [ 76.56595, 26.6624 ], [ 76.55848, 26.66492 ], [ 76.55566, 26.66664 ], [ 76.54882, 26.67226 ], [ 76.54993, 26.67241 ], [ 76.55008, 26.6733 ], [ 76.54503, 26.67671 ], [ 76.54233, 26.67974 ], [ 76.53864, 26.68141 ], [ 76.53516, 26.68415 ], [ 76.53266, 26.68712 ], [ 76.52669, 26.68835 ], [ 76.52168, 26.69215 ], [ 76.5142, 26.69377 ], [ 76.51063, 26.69604 ], [ 76.50608, 26.6965 ], [ 76.49832, 26.69914 ], [ 76.48937, 26.70498 ], [ 76.48733, 26.71171 ], [ 76.48168, 26.71308 ], [ 76.47267, 26.71786 ], [ 76.47578, 26.71817 ], [ 76.48034, 26.72449 ], [ 76.4796, 26.72785 ], [ 76.49017, 26.74308 ], [ 76.49347, 26.74653 ], [ 76.4934, 26.74773 ], [ 76.49679, 26.75009 ], [ 76.49803, 26.75226 ], [ 76.5093, 26.76366 ], [ 76.51386, 26.76632 ], [ 76.51744, 26.77018 ], [ 76.52247, 26.77193 ], [ 76.53572, 26.78206 ], [ 76.53724, 26.78169 ], [ 76.54067, 26.77853 ], [ 76.54141, 26.77269 ], [ 76.54257, 26.77245 ], [ 76.55411, 26.77778 ], [ 76.5587, 26.77506 ], [ 76.56976, 26.77144 ], [ 76.57412, 26.77989 ], [ 76.57484, 26.78818 ], [ 76.57709, 26.7876 ], [ 76.59328, 26.77871 ], [ 76.60232, 26.77797 ], [ 76.60422, 26.78038 ], [ 76.61348, 26.7822 ], [ 76.61712, 26.78847 ], [ 76.61577, 26.79155 ], [ 76.6219, 26.79238 ], [ 76.62373, 26.79575 ], [ 76.6291, 26.80211 ], [ 76.63495, 26.80543 ], [ 76.63716, 26.8056 ], [ 76.64263, 26.80831 ], [ 76.64963, 26.81427 ], [ 76.65214, 26.81761 ], [ 76.65158, 26.81852 ], [ 76.65283, 26.81851 ], [ 76.66194, 26.82625 ], [ 76.66632, 26.83027 ], [ 76.66599, 26.8315 ], [ 76.66852, 26.83376 ], [ 76.6797, 26.8409 ], [ 76.68357, 26.84441 ], [ 76.68447, 26.84404 ], [ 76.68602, 26.84589 ], [ 76.69605, 26.85091 ], [ 76.69858, 26.85345 ], [ 76.70978, 26.85839 ], [ 76.71058, 26.85799 ], [ 76.71394, 26.86337 ], [ 76.72853, 26.86755 ], [ 76.73715, 26.87207 ], [ 76.74783, 26.87636 ], [ 76.75238, 26.87688 ], [ 76.75913, 26.88278 ], [ 76.76308, 26.88466 ], [ 76.76385, 26.87815 ], [ 76.76147, 26.87144 ], [ 76.76248, 26.86801 ], [ 76.7605, 26.86236 ] ] ] } },
{ "type": "Feature", "properties": { "OBJECTID": 3501, "state_lgd": "08", "state_name": "RAJASTHAN", "district_lgd": "107", "district_name": "KARAULI", "district_name_source": "district_table", "subdistrict_lgd": "00525", "subdistrict_name": "Sapotra", "subdistrict_type": "", "name_corrupted": false, "remarks": "", "label_lon": 76.850050256885353, "label_lat": 26.257377996647914 }, "geometry": { "type": "Polygon", "coordinates": [ [ [ 76.81803, 26.48292 ], [ 76.82715, 26.47738 ], [ 76.83387, 26.48174 ], [ 76.83777, 26.48088 ], [ 76.84832, 26.47483 ], [ 76.86254, 26.47015 ], [ 76.86344, 26.47189 ], [ 76.86415, 26.47163 ], [ 76.86349, 26.4703 ], [ 76.86433, 26.46971 ], [ 76.86525, 26.47077 ], [ 76.86629, 26.47018 ], [ 76.86787, 26.47255 ], [ 76.87884, 26.46045 ], [ 76.88076, 26.45405 ], [ 76.87526, 26.44763 ], [ 76.86947, 26.44374 ], [ 76.86228, 26.43728 ], [ 76.85827, 26.43623 ], [ 76.85383, 26.431 ], [ 76.84541, 26.42476 ], [ 76.84484, 26.42197 ], [ 76.83685, 26.41172 ], [ 76.8383, 26.41056 ], [ 76.83643, 26.40534 ], [ 76.84273, 26.40304 ], [ 76.83697, 26.3953 ], [ 76.82778, 26.38517 ], [ 76.82249, 26.37713 ], [ 76.82022, 26.37498 ], [ 76.80973, 26.37052 ], [ 76.80855, 26.36732 ], [ 76.80572, 26.36326 ], [ 76.80097, 26.36843 ], [ 76.80023, 26.37052 ], [ 76.79421, 26.3598 ], [ 76.79051, 26.34949 ], [ 76.78647, 26.3468 ], [ 76.78615, 26.34474 ], [ 76.78897, 26.34312 ], [ 76.78942, 26.34199 ], [ 76.78702, 26.33276 ], [ 76.79368, 26.33084 ], [ 76.78719, 26.3242 ], [ 76.78961, 26.32313 ], [ 76.79314, 26.32362 ], [ 76.80647, 26.31973 ], [ 76.81676, 26.32234 ], [ 76.8218, 26.32737 ], [ 76.83088, 26.32825 ], [ 76.82972, 26.32172 ], [ 76.83195, 26.31626 ], [ 76.828, 26.3135 ], [ 76.82783, 26.31219 ], [ 76.8255, 26.31047 ], [ 76.82533, 26.30908 ], [ 76.82932, 26.3095 ], [ 76.83394, 26.30553 ], [ 76.84237, 26.31097 ], [ 76.84409, 26.3108 ], [ 76.84599, 26.3088 ], [ 76.84702, 26.30901 ], [ 76.85049, 26.30414 ], [ 76.84947, 26.30277 ], [ 76.85078, 26.30167 ], [ 76.85134, 26.29923 ], [ 76.85235, 26.29922 ], [ 76.85277, 26.29676 ], [ 76.85611, 26.29605 ], [ 76.85632, 26.29485 ], [ 76.8612, 26.29133 ], [ 76.86173, 26.28948 ], [ 76.85994, 26.28705 ], [ 76.86202, 26.28299 ], [ 76.86356, 26.2826 ], [ 76.86485, 26.28018 ], [ 76.86695, 26.27924 ], [ 76.86724, 26.27787 ], [ 76.87006, 26.27616 ], [ 76.87051, 26.27493 ], [ 76.87193, 26.2746 ], [ 76.87571, 26.26957 ], [ 76.87974, 26.27312 ], [ 76.884, 26.27363 ], [ 76.88747, 26.27659 ], [ 76.88958, 26.27508 ], [ 76.89296, 26.27566 ], [ 76.90103, 26.28441 ], [ 76.90516, 26.28256 ], [ 76.90787, 26.28341 ], [ 76.90696, 26.2825 ], [ 76.90763, 26.27873 ], [ 76.91582, 26.27679 ], [ 76.91732, 26.27444 ], [ 76.91639, 26.27063 ], [ 76.92398, 26.26267 ], [ 76.92894, 26.26242 ], [ 76.93588, 26.2604 ], [ 76.94027, 26.26001 ], [ 76.94419, 26.26087 ], [ 76.94738, 26.26591 ], [ 76.9481, 26.26869 ], [ 76.94553, 26.27927 ], [ 76.94593, 26.28216 ], [ 76.95414, 26.2824 ], [ 76.95727, 26.28773 ], [ 76.95766, 26.29019 ], [ 76.95978, 26.29207 ], [ 76.95861, 26.29342 ], [ 76.96, 26.29433 ], [ 76.9596, 26.29835 ], [ 76.95872, 26.2995 ], [ 76.95936, 26.30425 ], [ 76.9585, 26.30498 ], [ 76.95565, 26.30447 ], [ 76.95416, 26.30594 ], [ 76.95442, 26.30692 ], [ 76.95853, 26.30758 ], [ 76.95985, 26.30912 ], [ 76.95596, 26.31108 ], [ 76.95512, 26.31324 ], [ 76.95171, 26.31119 ], [ 76.95025, 26.31135 ], [ 76.95008, 26.31498 ], [ 76.94941, 26.31527 ], [ 76.94845, 26.31491 ], [ 76.94754, 26.31202 ], [ 76.94663, 26.31193 ], [ 76.9456, 26.3137 ], [ 76.94687, 26.31683 ], [ 76.94324, 26.31537 ], [ 76.94284, 26.31602 ], [ 76.94484, 26.32047 ], [ 76.94424, 26.32191 ], [ 76.93918, 26.31849 ], [ 76.93647, 26.32016 ], [ 76.93368, 26.31823 ], [ 76.93097, 26.32093 ], [ 76.92852, 26.31809 ], [ 76.92676, 26.31737 ], [ 76.92524, 26.3236 ], [ 76.9261, 26.32576 ], [ 76.9221, 26.32663 ], [ 76.91876, 26.33148 ], [ 76.92221, 26.33373 ], [ 76.92345, 26.33568 ], [ 76.92708, 26.33477 ], [ 76.92691, 26.33765 ], [ 76.92951, 26.3378 ], [ 76.93193, 26.33907 ], [ 76.93537, 26.33693 ], [ 76.93516, 26.33911 ], [ 76.93896, 26.34049 ], [ 76.94017, 26.34049 ], [ 76.94305, 26.33784 ], [ 76.94362, 26.34035 ], [ 76.94671, 26.33986 ], [ 76.94808, 26.34097 ], [ 76.94974, 26.34087 ], [ 76.95007, 26.34158 ], [ 76.94883, 26.34326 ], [ 76.9504, 26.34465 ], [ 76.95018, 26.3473 ], [ 76.95325, 26.34778 ], [ 76.95372, 26.34948 ], [ 76.95496, 26.35013 ], [ 76.95398, 26.35188 ], [ 76.95589, 26.35328 ], [ 76.9563, 26.35683 ], [ 76.96683, 26.36753 ], [ 76.96463, 26.37296 ], [ 76.9669, 26.37802 ], [ 76.97366, 26.38523 ], [ 76.97517, 26.39199 ], [ 76.9743, 26.39497 ], [ 76.97226, 26.39589 ], [ 76.97252, 26.39884 ], [ 76.98729, 26.40215 ], [ 77.00169, 26.39992 ], [ 77.00433, 26.40367 ], [ 77.01607, 26.40646 ], [ 77.02402, 26.41513 ], [ 77.0282, 26.41524 ], [ 77.0307, 26.41402 ], [ 77.0304, 26.4112 ], [ 77.03421, 26.40934 ], [ 77.03421, 26.40824 ], [ 77.03201, 26.40793 ], [ 77.03425, 26.40685 ], [ 77.0348, 26.40558 ], [ 77.0362, 26.40731 ], [ 77.04059, 26.40567 ], [ 77.04206, 26.40704 ], [ 77.04303, 26.40677 ], [ 77.04425, 26.40844 ], [ 77.04593, 26.40892 ], [ 77.04677, 26.40836 ], [ 77.04758, 26.4062 ], [ 77.04592, 26.40611 ], [ 77.04787, 26.39763 ], [ 77.05327, 26.39068 ], [ 77.06106, 26.37834 ], [ 77.06743, 26.37514 ], [ 77.06975, 26.37606 ], [ 77.07085, 26.37453 ], [ 77.07317, 26.37411 ], [ 77.07482, 26.37506 ], [ 77.0757, 26.37796 ], [ 77.07969, 26.37712 ], [ 77.08401, 26.37792 ], [ 77.08527, 26.37557 ], [ 77.08473, 26.37115 ], [ 77.08882, 26.36588 ], [ 77.09517, 26.36432 ], [ 77.09644, 26.36249 ], [ 77.10155, 26.36174 ], [ 77.10231, 26.35778 ], [ 77.10581, 26.35533 ], [ 77.10556, 26.35095 ], [ 77.10273, 26.34753 ], [ 77.10032, 26.34623 ], [ 77.09602, 26.33759 ], [ 77.08912, 26.3336 ], [ 77.08152, 26.32747 ], [ 77.0814, 26.3266 ], [ 77.08528, 26.32552 ], [ 77.08541, 26.32409 ], [ 77.07992, 26.32006 ], [ 77.07646, 26.31956 ], [ 77.07621, 26.31862 ], [ 77.08212, 26.3147 ], [ 77.0832, 26.31247 ], [ 77.08468, 26.31343 ], [ 77.0875, 26.31328 ], [ 77.09016, 26.31441 ], [ 77.09299, 26.31423 ], [ 77.09718, 26.31175 ], [ 77.10123, 26.30757 ], [ 77.1017, 26.29526 ], [ 77.10094, 26.29347 ], [ 77.10288, 26.29252 ], [ 77.10423, 26.28881 ], [ 77.1063, 26.28718 ], [ 77.10516, 26.28562 ], [ 77.10642, 26.28084 ], [ 77.11115, 26.27311 ], [ 77.11591, 26.2683 ], [ 77.11296, 26.26415 ], [ 77.11414, 26.26258 ], [ 77.11385, 26.25904 ], [ 77.11478, 26.25713 ], [ 77.11866, 26.25371 ], [ 77.1144, 26.24393 ], [ 77.11402, 26.23616 ], [ 77.11561, 26.23146 ], [ 77.12412, 26.22641 ], [ 77.11692, 26.22107 ], [ 77.11445, 26.21765 ], [ 77.11185, 26.20899 ], [ 77.11198, 26.20235 ], [ 77.10596, 26.19614 ], [ 77.10093, 26.18656 ], [ 77.09675, 26.18324 ], [ 77.09116, 26.1811 ], [ 77.08226, 26.17906 ], [ 77.05448, 26.17957 ], [ 77.04186, 26.17576 ], [ 77.03513, 26.17289 ], [ 77.03162, 26.17261 ], [ 77.02399, 26.16733 ], [ 77.01913, 26.16058 ], [ 77.01525, 26.15704 ], [ 77.00914, 26.15366 ], [ 77.00631, 26.15102 ], [ 77.00155, 26.14246 ], [ 77.00288, 26.138 ], [ 77.00215, 26.13398 ], [ 76.99761, 26.12907 ], [ 76.98712, 26.12804 ], [ 76.97748, 26.12486 ], [ 76.9652, 26.1167 ], [ 76.94766, 26.10274 ], [ 76.94077, 26.10053 ], [ 76.93653, 26.10177 ], [ 76.91811, 26.09877 ], [ 76.89978, 26.0925 ], [ 76.89899, 26.09118 ], [ 76.90025, 26.08708 ], [ 76.89835, 26.08192 ], [ 76.89772, 26.07425 ], [ 76.89416, 26.06724 ], [ 76.88973, 26.06266 ], [ 76.887, 26.05207 ], [ 76.88485, 26.04804 ], [ 76.88244, 26.04606 ], [ 76.87581, 26.04315 ], [ 76.86584, 26.03413 ], [ 76.85707, 26.03481 ], [ 76.85144, 26.03211 ], [ 76.84774, 26.03674 ], [ 76.84737, 26.03874 ], [ 76.84774, 26.04054 ], [ 76.85124, 26.04247 ], [ 76.84863, 26.04904 ], [ 76.84881, 26.05072 ], [ 76.84536, 26.05217 ], [ 76.84136, 26.05542 ], [ 76.83451, 26.06625 ], [ 76.83006, 26.0678 ], [ 76.82784, 26.07251 ], [ 76.82645, 26.07283 ], [ 76.82347, 26.0726 ], [ 76.82117, 26.07108 ], [ 76.82108, 26.07021 ], [ 76.81935, 26.06975 ], [ 76.81327, 26.07074 ], [ 76.81014, 26.06992 ], [ 76.80941, 26.07523 ], [ 76.80794, 26.07886 ], [ 76.8057, 26.08036 ], [ 76.80723, 26.0818 ], [ 76.80615, 26.08542 ], [ 76.80345, 26.08906 ], [ 76.80101, 26.09589 ], [ 76.79455, 26.10317 ], [ 76.7898, 26.10655 ], [ 76.78757, 26.10587 ], [ 76.78111, 26.10678 ], [ 76.77711, 26.10651 ], [ 76.77414, 26.11015 ], [ 76.77161, 26.11089 ], [ 76.76734, 26.1153 ], [ 76.76442, 26.12067 ], [ 76.76335, 26.12126 ], [ 76.76382, 26.12353 ], [ 76.76162, 26.12455 ], [ 76.76034, 26.12722 ], [ 76.75868, 26.12844 ], [ 76.75822, 26.13053 ], [ 76.75535, 26.13411 ], [ 76.75434, 26.13704 ], [ 76.74531, 26.14758 ], [ 76.74382, 26.15039 ], [ 76.74076, 26.15233 ], [ 76.74035, 26.15504 ], [ 76.73641, 26.1559 ], [ 76.73415, 26.15255 ], [ 76.73216, 26.15507 ], [ 76.73059, 26.15536 ], [ 76.72795, 26.15441 ], [ 76.72457, 26.15495 ], [ 76.72405, 26.15602 ], [ 76.7257, 26.15748 ], [ 76.72659, 26.16134 ], [ 76.72397, 26.16281 ], [ 76.72201, 26.1661 ], [ 76.71846, 26.16969 ], [ 76.71065, 26.17145 ], [ 76.70784, 26.17688 ], [ 76.70221, 26.17735 ], [ 76.70197, 26.17807 ], [ 76.70339, 26.17961 ], [ 76.70278, 26.1803 ], [ 76.69873, 26.1819 ], [ 76.69448, 26.17974 ], [ 76.69113, 26.1812 ], [ 76.68858, 26.18117 ], [ 76.68336, 26.17379 ], [ 76.68354, 26.17069 ], [ 76.67416, 26.16676 ], [ 76.67139, 26.16612 ], [ 76.66787, 26.16645 ], [ 76.66435, 26.17059 ], [ 76.66322, 26.17498 ], [ 76.66076, 26.17618 ], [ 76.65921, 26.18012 ], [ 76.65749, 26.18044 ], [ 76.65695, 26.18253 ], [ 76.65591, 26.1832 ], [ 76.65113, 26.18439 ], [ 76.64715, 26.18381 ], [ 76.64515, 26.18459 ], [ 76.639, 26.18441 ], [ 76.63307, 26.18575 ], [ 76.62775, 26.18445 ], [ 76.62329, 26.18736 ], [ 76.62095, 26.1901 ], [ 76.6022, 26.20225 ], [ 76.57696, 26.2155 ], [ 76.5809, 26.21949 ], [ 76.58644, 26.22277 ], [ 76.58084, 26.22874 ], [ 76.58059, 26.23071 ], [ 76.58208, 26.23296 ], [ 76.59539, 26.23947 ], [ 76.59649, 26.23922 ], [ 76.6037, 26.24463 ], [ 76.60607, 26.25161 ], [ 76.60593, 26.25415 ], [ 76.60799, 26.25777 ], [ 76.60662, 26.26015 ], [ 76.60264, 26.26113 ], [ 76.60204, 26.26195 ], [ 76.60157, 26.26661 ], [ 76.60325, 26.27282 ], [ 76.59618, 26.27405 ], [ 76.59479, 26.26671 ], [ 76.59072, 26.26681 ], [ 76.59103, 26.26909 ], [ 76.5894, 26.26992 ], [ 76.58799, 26.26843 ], [ 76.58476, 26.27073 ], [ 76.58344, 26.27009 ], [ 76.57959, 26.27109 ], [ 76.57955, 26.27031 ], [ 76.57692, 26.26915 ], [ 76.57528, 26.26956 ], [ 76.57103, 26.26834 ], [ 76.56841, 26.26892 ], [ 76.56353, 26.26568 ], [ 76.55504, 26.26414 ], [ 76.55412, 26.26283 ], [ 76.55075, 26.26481 ], [ 76.55001, 26.26721 ], [ 76.55592, 26.27905 ], [ 76.56641, 26.28284 ], [ 76.56779, 26.28434 ], [ 76.56558, 26.29177 ], [ 76.56701, 26.29362 ], [ 76.57042, 26.29521 ], [ 76.57081, 26.29666 ], [ 76.56683, 26.30016 ], [ 76.56567, 26.305 ], [ 76.56359, 26.30459 ], [ 76.56279, 26.30524 ], [ 76.56528, 26.30909 ], [ 76.56465, 26.31143 ], [ 76.56551, 26.31276 ], [ 76.56492, 26.31538 ], [ 76.56573, 26.31695 ], [ 76.56875, 26.31705 ], [ 76.57095, 26.31869 ], [ 76.5794, 26.31528 ], [ 76.5839, 26.31568 ], [ 76.58486, 26.3167 ], [ 76.58496, 26.31828 ], [ 76.58422, 26.31981 ], [ 76.58248, 26.32065 ], [ 76.58274, 26.32237 ], [ 76.58753, 26.3268 ], [ 76.59105, 26.32681 ], [ 76.59422, 26.32914 ], [ 76.59374, 26.33211 ], [ 76.59457, 26.33325 ], [ 76.59677, 26.33361 ], [ 76.60123, 26.33605 ], [ 76.60647, 26.33135 ], [ 76.6059, 26.32572 ], [ 76.60801, 26.32557 ], [ 76.61216, 26.32917 ], [ 76.6136, 26.32947 ], [ 76.61527, 26.32728 ], [ 76.62353, 26.32368 ], [ 76.62212, 26.31792 ], [ 76.62228, 26.31571 ], [ 76.62416, 26.31559 ], [ 76.62684, 26.31742 ], [ 76.63045, 26.31735 ], [ 76.63121, 26.32084 ], [ 76.62814, 26.32603 ], [ 76.62845, 26.3285 ], [ 76.62725, 26.33017 ], [ 76.62989, 26.33234 ], [ 76.63684, 26.34168 ], [ 76.64828, 26.34802 ], [ 76.65387, 26.34944 ], [ 76.65831, 26.3492 ], [ 76.66192, 26.35196 ], [ 76.66916, 26.34917 ], [ 76.66976, 26.35051 ], [ 76.67567, 26.35184 ], [ 76.67435, 26.35164 ], [ 76.67759, 26.35777 ], [ 76.67836, 26.35763 ], [ 76.6863, 26.36906 ], [ 76.68737, 26.36871 ], [ 76.68414, 26.3705 ], [ 76.68016, 26.37997 ], [ 76.67679, 26.38462 ], [ 76.68426, 26.39422 ], [ 76.69233, 26.39639 ], [ 76.69884, 26.40177 ], [ 76.70066, 26.40279 ], [ 76.70128, 26.4023 ], [ 76.70881, 26.40656 ], [ 76.71187, 26.41163 ], [ 76.71585, 26.41327 ], [ 76.71821, 26.41537 ], [ 76.724, 26.41607 ], [ 76.72992, 26.41546 ], [ 76.72898, 26.41598 ], [ 76.72913, 26.41684 ], [ 76.73128, 26.42204 ], [ 76.74029, 26.42867 ], [ 76.74559, 26.42797 ], [ 76.749, 26.43029 ], [ 76.75271, 26.42839 ], [ 76.75238, 26.42962 ], [ 76.75902, 26.43306 ], [ 76.76303, 26.43704 ], [ 76.77522, 26.44044 ], [ 76.77896, 26.44779 ], [ 76.78163, 26.44983 ], [ 76.78384, 26.45039 ], [ 76.78213, 26.45105 ], [ 76.78012, 26.45398 ], [ 76.77474, 26.45778 ], [ 76.77189, 26.46101 ], [ 76.77894, 26.46931 ], [ 76.78297, 26.46929 ], [ 76.7858, 26.47057 ], [ 76.79058, 26.47467 ], [ 76.79261, 26.47531 ], [ 76.80115, 26.48315 ], [ 76.81151, 26.48529 ], [ 76.81803, 26.48292 ] ] ] } },
{ "type": "Feature", "properties": { "OBJECTID": 3502, "state_lgd": "08", "state_name": "RAJASTHAN", "district_lgd": "107", "district_name": "KARAULI", "district_name_source": "district_table", "subdistrict_lgd": "00522N002", "subdistrict_name": "Shri Mahaveer Ji", "subdistrict_type": "", "name_corrupted": false, "remarks": "", "label_lon": 76.942350369322256, "label_lat": 26.712015565119678 }, "geometry": { "type": "MultiPolygon", "coordinates": [ [ [ [ 76.97044, 26.78065 ], [ 76.96823, 26.77475 ], [ 76.96989, 26.77425 ], [ 76.96965, 26.77365 ], [ 76.97744, 26.77241 ], [ 76.97357, 26.76524 ], [ 76.96295, 26.76268 ], [ 76.96043, 26.74774 ], [ 76.962, 26.74732 ], [ 76.9615, 26.74294 ], [ 76.96854, 26.73875 ], [ 76.97308, 26.73726 ], [ 76.97495, 26.73708 ], [ 76.98018, 26.73929 ], [ 76.98529, 26.73961 ], [ 76.98938, 26.73782 ], [ 76.99425, 26.74525 ], [ 76.99372, 26.74545 ], [ 76.99408, 26.74681 ], [ 76.99204, 26.74894 ], [ 76.99156, 26.7507 ], [ 76.99258, 26.75289 ], [ 76.99171, 26.75354 ], [ 76.9924, 26.75494 ], [ 76.99411, 26.7552 ], [ 77.0034, 26.75221 ], [ 77.00788, 26.75195 ], [ 77.00736, 26.74858 ], [ 77.00508, 26.74773 ], [ 77.00487, 26.74638 ], [ 77.00811, 26.74488 ], [ 77.00646, 26.74428 ], [ 77.00402, 26.74159 ], [ 77.00307, 26.74177 ], [ 77.00081, 26.74037 ], [ 77.00081, 26.73927 ], [ 76.99833, 26.73663 ], [ 77.00023, 26.73379 ], [ 77.00045, 26.73216 ], [ 76.99605, 26.73137 ], [ 76.99532, 26.73082 ], [ 76.99542, 26.72896 ], [ 76.99062, 26.72786 ], [ 76.98847, 26.72124 ], [ 76.98572, 26.71991 ], [ 76.9865, 26.71872 ], [ 76.98625, 26.71749 ], [ 76.98483, 26.71647 ], [ 76.9825, 26.71669 ], [ 76.98289, 26.71404 ], [ 76.98151, 26.71157 ], [ 76.97802, 26.70889 ], [ 76.97793, 26.70736 ], [ 76.9753, 26.70619 ], [ 76.97601, 26.70482 ], [ 76.97526, 26.70079 ], [ 76.98, 26.69921 ], [ 76.98513, 26.69464 ], [ 76.98729, 26.69365 ], [ 76.98708, 26.68922 ], [ 76.98772, 26.68919 ], [ 76.98543, 26.68238 ], [ 76.97719, 26.67829 ], [ 76.97353, 26.67728 ], [ 76.96979, 26.67766 ], [ 76.97151, 26.67584 ], [ 76.96979, 26.67339 ], [ 76.96962, 26.67107 ], [ 76.96436, 26.67213 ], [ 76.96269, 26.6676 ], [ 76.96365, 26.66717 ], [ 76.96288, 26.66232 ], [ 76.96797, 26.66079 ], [ 76.96687, 26.6575 ], [ 76.95982, 26.65471 ], [ 76.95721, 26.65525 ], [ 76.95356, 26.65478 ], [ 76.95203, 26.66251 ], [ 76.95254, 26.66905 ], [ 76.95159, 26.67075 ], [ 76.94884, 26.6718 ], [ 76.94279, 26.6717 ], [ 76.93608, 26.67585 ], [ 76.92835, 26.67637 ], [ 76.9228, 26.68018 ], [ 76.9184, 26.68166 ], [ 76.91647, 26.68367 ], [ 76.90023, 26.67752 ], [ 76.89202, 26.67601 ], [ 76.8905, 26.67318 ], [ 76.8855, 26.67658 ], [ 76.87812, 26.67924 ], [ 76.87469, 26.68443 ], [ 76.87045, 26.68677 ], [ 76.87029, 26.6897 ], [ 76.87194, 26.69369 ], [ 76.87242, 26.70054 ], [ 76.87098, 26.71269 ], [ 76.88911, 26.70871 ], [ 76.89973, 26.71069 ], [ 76.90953, 26.71374 ], [ 76.90793, 26.71683 ], [ 76.92187, 26.72106 ], [ 76.9257, 26.72687 ], [ 76.93233, 26.72769 ], [ 76.9304, 26.73224 ], [ 76.93116, 26.73779 ], [ 76.93509, 26.73746 ], [ 76.93544, 26.73853 ], [ 76.938, 26.73855 ], [ 76.93923, 26.74451 ], [ 76.93537, 26.74566 ], [ 76.93497, 26.74452 ], [ 76.93402, 26.7447 ], [ 76.93244, 26.74162 ], [ 76.93018, 26.74198 ], [ 76.93236, 26.74806 ], [ 76.93576, 26.74682 ], [ 76.93704, 26.74907 ], [ 76.94122, 26.74745 ], [ 76.9427, 26.75016 ], [ 76.93391, 26.7539 ], [ 76.93435, 26.76474 ], [ 76.93366, 26.76496 ], [ 76.93649, 26.76928 ], [ 76.93908, 26.76921 ], [ 76.94371, 26.77117 ], [ 76.94624, 26.77723 ], [ 76.96522, 26.77265 ], [ 76.96582, 26.7746 ], [ 76.96688, 26.77454 ], [ 76.96751, 26.77625 ], [ 76.96621, 26.77663 ], [ 76.96629, 26.77762 ], [ 76.96419, 26.77809 ], [ 76.96383, 26.78038 ], [ 76.96465, 26.78288 ], [ 76.97044, 26.78065 ] ] ], [ [ [ 76.9547, 26.78575 ], [ 76.96208, 26.78485 ], [ 76.9619, 26.78196 ], [ 76.96304, 26.78161 ], [ 76.96332, 26.77938 ], [ 76.96148, 26.77949 ], [ 76.96107, 26.77671 ], [ 76.95297, 26.77891 ], [ 76.95241, 26.7783 ], [ 76.95011, 26.77904 ], [ 76.9493, 26.77731 ], [ 76.9466, 26.77818 ], [ 76.94917, 26.7851 ], [ 76.9547, 26.78575 ] ] ] ] } },
{ "type": "Feature", "properties": { "OBJECTID": 3503, "state_lgd": "08", "state_name": "RAJASTHAN", "district_lgd": "107", "district_name": "KARAULI", "district_name_source": "district_table", "subdistrict_lgd": "00522N001", "subdistrict_name": "Suroth", "subdistrict_type": "", "name_corrupted": false, "remarks": "", "label_lon": 77.118954261369964, "label_lat": 26.791531497987503 }, "geometry": { "type": "Polygon", "coordinates": [ [ [ 77.10901, 26.86894 ], [ 77.11606, 26.85738 ], [ 77.11621, 26.85411 ], [ 77.11993, 26.85181 ], [ 77.12416, 26.84751 ], [ 77.13353, 26.84179 ], [ 77.13539, 26.83606 ], [ 77.13847, 26.83428 ], [ 77.14637, 26.8329 ], [ 77.15282, 26.83022 ], [ 77.15694, 26.82348 ], [ 77.15838, 26.82449 ], [ 77.1599, 26.82833 ], [ 77.16738, 26.83331 ], [ 77.17186, 26.82919 ], [ 77.17131, 26.82419 ], [ 77.18128, 26.82225 ], [ 77.18664, 26.82252 ], [ 77.19043, 26.81961 ], [ 77.20866, 26.81146 ], [ 77.20381, 26.80493 ], [ 77.1977, 26.79921 ], [ 77.19614, 26.7968 ], [ 77.19646, 26.79219 ], [ 77.19943, 26.78746 ], [ 77.19872, 26.78587 ], [ 77.2054, 26.77965 ], [ 77.198, 26.77172 ], [ 77.18762, 26.76426 ], [ 77.17053, 26.74259 ], [ 77.16346, 26.73514 ], [ 77.1608, 26.73502 ], [ 77.16301, 26.733 ], [ 77.16052, 26.73051 ], [ 77.16588, 26.72688 ], [ 77.16696, 26.72534 ], [ 77.16586, 26.72405 ], [ 77.16559, 26.72032 ], [ 77.15059, 26.70846 ], [ 77.14614, 26.69869 ], [ 77.1447, 26.69343 ], [ 77.14489, 26.68874 ], [ 77.14002, 26.6859 ], [ 77.13356, 26.67273 ], [ 77.12311, 26.68643 ], [ 77.12083, 26.68737 ], [ 77.11077, 26.69556 ], [ 77.09449, 26.70557 ], [ 77.09188, 26.7083 ], [ 77.10212, 26.71235 ], [ 77.10531, 26.71141 ], [ 77.11003, 26.72015 ], [ 77.11288, 26.72331 ], [ 77.11226, 26.72422 ], [ 77.11259, 26.72715 ], [ 77.11676, 26.73357 ], [ 77.11904, 26.73517 ], [ 77.11718, 26.73678 ], [ 77.11728, 26.73846 ], [ 77.10881, 26.74449 ], [ 77.10859, 26.7461 ], [ 77.10747, 26.74663 ], [ 77.10443, 26.74725 ], [ 77.10452, 26.74307 ], [ 77.10135, 26.74188 ], [ 77.09808, 26.74232 ], [ 77.09415, 26.74453 ], [ 77.0947, 26.7468 ], [ 77.09429, 26.75243 ], [ 77.09618, 26.75306 ], [ 77.09989, 26.76012 ], [ 77.1027, 26.76253 ], [ 77.10413, 26.76935 ], [ 77.1017, 26.77111 ], [ 77.10205, 26.77208 ], [ 77.09491, 26.77541 ], [ 77.08586, 26.77479 ], [ 77.083, 26.77763 ], [ 77.08298, 26.77865 ], [ 77.08552, 26.77942 ], [ 77.08929, 26.78409 ], [ 77.09387, 26.787 ], [ 77.09485, 26.78822 ], [ 77.09425, 26.78979 ], [ 77.09016, 26.79166 ], [ 77.08696, 26.79171 ], [ 77.08231, 26.79519 ], [ 77.07917, 26.79523 ], [ 77.07599, 26.79841 ], [ 77.07117, 26.80154 ], [ 77.07009, 26.8024 ], [ 77.07164, 26.80562 ], [ 77.07088, 26.80824 ], [ 77.0661, 26.80777 ], [ 77.06661, 26.80648 ], [ 77.06516, 26.80476 ], [ 77.06207, 26.8049 ], [ 77.05539, 26.80333 ], [ 77.05066, 26.80322 ], [ 77.04477, 26.8053 ], [ 77.04087, 26.80484 ], [ 77.03844, 26.80616 ], [ 77.03953, 26.81269 ], [ 77.03327, 26.81492 ], [ 77.03189, 26.8209 ], [ 77.03074, 26.82244 ], [ 77.03036, 26.82754 ], [ 77.0358, 26.84056 ], [ 77.03826, 26.84277 ], [ 77.03847, 26.84387 ], [ 77.03722, 26.84464 ], [ 77.02948, 26.84504 ], [ 77.01948, 26.84999 ], [ 77.01369, 26.85422 ], [ 77.00964, 26.86155 ], [ 77.01079, 26.865 ], [ 77.01881, 26.86634 ], [ 77.02751, 26.86614 ], [ 77.04335, 26.86857 ], [ 77.05887, 26.86599 ], [ 77.07422, 26.85854 ], [ 77.07652, 26.85849 ], [ 77.09759, 26.86264 ], [ 77.10162, 26.87303 ], [ 77.10351, 26.87418 ], [ 77.10901, 26.86894 ] ] ] } },
{ "type": "Feature", "properties": { "OBJECTID": 3504, "state_lgd": "08", "state_name": "RAJASTHAN", "district_lgd": "107", "district_name": "KARAULI", "district_name_source": "district_table", "subdistrict_lgd": "00520", "subdistrict_name": "Todabhim", "subdistrict_type": "", "name_corrupted": false, "remarks": "", "label_lon": 76.849470743283575, "label_lat": 26.900821975905799 }, "geometry": { "type": "Polygon", "coordinates": [ [ [ 76.83855, 26.99546 ], [ 76.85515, 26.9952 ], [ 76.85826, 26.99433 ], [ 76.87901, 26.98332 ], [ 76.87887, 26.97975 ], [ 76.88053, 26.97908 ], [ 76.88106, 26.97515 ], [ 76.88758, 26.97338 ], [ 76.90089, 26.97174 ], [ 76.90101, 26.96882 ], [ 76.90569, 26.96607 ], [ 76.91156, 26.96079 ], [ 76.91416, 26.95657 ], [ 76.91438, 26.95341 ], [ 76.91641, 26.95075 ], [ 76.9215, 26.94788 ], [ 76.92669, 26.94247 ], [ 76.93134, 26.93889 ], [ 76.93182, 26.93922 ], [ 76.94148, 26.92944 ], [ 76.94436, 26.92413 ], [ 76.95155, 26.91537 ], [ 76.95241, 26.90808 ], [ 76.95625, 26.89945 ], [ 76.95638, 26.89437 ], [ 76.95522, 26.89184 ], [ 76.95675, 26.8878 ], [ 76.95379, 26.88104 ], [ 76.95144, 26.87242 ], [ 76.95288, 26.87091 ], [ 76.95244, 26.86833 ], [ 76.95377, 26.86631 ], [ 76.95225, 26.86629 ], [ 76.94653, 26.86366 ], [ 76.94403, 26.85897 ], [ 76.94421, 26.85375 ], [ 76.9256, 26.85887 ], [ 76.92115, 26.85656 ], [ 76.91712, 26.85664 ], [ 76.91581, 26.85272 ], [ 76.91727, 26.8503 ], [ 76.91607, 26.84939 ], [ 76.90849, 26.84924 ], [ 76.89933, 26.85063 ], [ 76.89862, 26.84651 ], [ 76.89103, 26.83153 ], [ 76.8749, 26.83917 ], [ 76.85688, 26.85173 ], [ 76.85205, 26.85267 ], [ 76.83869, 26.86543 ], [ 76.83284, 26.8684 ], [ 76.82722, 26.86298 ], [ 76.82264, 26.85982 ], [ 76.82117, 26.8602 ], [ 76.82011, 26.8594 ], [ 76.81893, 26.86085 ], [ 76.81911, 26.86219 ], [ 76.81705, 26.86698 ], [ 76.81794, 26.86921 ], [ 76.8171, 26.87363 ], [ 76.81809, 26.87481 ], [ 76.81656, 26.87567 ], [ 76.80806, 26.86946 ], [ 76.81493, 26.8567 ], [ 76.8143, 26.85517 ], [ 76.8101, 26.85416 ], [ 76.80949, 26.85279 ], [ 76.80571, 26.85034 ], [ 76.80524, 26.84817 ], [ 76.80331, 26.84601 ], [ 76.80025, 26.84454 ], [ 76.8074, 26.8385 ], [ 76.80667, 26.83603 ], [ 76.8021, 26.83133 ], [ 76.79691, 26.82902 ], [ 76.78381, 26.81908 ], [ 76.78053, 26.81795 ], [ 76.77931, 26.81938 ], [ 76.77535, 26.81668 ], [ 76.77058, 26.81543 ], [ 76.76671, 26.81189 ], [ 76.76008, 26.81073 ], [ 76.75125, 26.80783 ], [ 76.74678, 26.80341 ], [ 76.74244, 26.80491 ], [ 76.73789, 26.80355 ], [ 76.73157, 26.80855 ], [ 76.72919, 26.81234 ], [ 76.72371, 26.81455 ], [ 76.72382, 26.81526 ], [ 76.72558, 26.8164 ], [ 76.73269, 26.8251 ], [ 76.73317, 26.83304 ], [ 76.73781, 26.83524 ], [ 76.74139, 26.84016 ], [ 76.74269, 26.84406 ], [ 76.74525, 26.84753 ], [ 76.75, 26.85031 ], [ 76.75413, 26.85142 ], [ 76.75437, 26.8554 ], [ 76.7605, 26.86236 ], [ 76.76248, 26.86801 ], [ 76.76147, 26.87144 ], [ 76.76385, 26.87815 ], [ 76.76308, 26.88466 ], [ 76.77545, 26.89377 ], [ 76.76937, 26.90139 ], [ 76.767, 26.90317 ], [ 76.76746, 26.90361 ], [ 76.76555, 26.90806 ], [ 76.77156, 26.91254 ], [ 76.77697, 26.91505 ], [ 76.78229, 26.91592 ], [ 76.78717, 26.92448 ], [ 76.78794, 26.92836 ], [ 76.7904, 26.92984 ], [ 76.79323, 26.93334 ], [ 76.79393, 26.93943 ], [ 76.79607, 26.94576 ], [ 76.79612, 26.94642 ], [ 76.79501, 26.94682 ], [ 76.79629, 26.95032 ], [ 76.79743, 26.95934 ], [ 76.79682, 26.96357 ], [ 76.79789, 26.96296 ], [ 76.79807, 26.96415 ], [ 76.79606, 26.97138 ], [ 76.81679, 26.96944 ], [ 76.81715, 26.97173 ], [ 76.81897, 26.97168 ], [ 76.81923, 26.9725 ], [ 76.82022, 26.9724 ], [ 76.82036, 26.97341 ], [ 76.82275, 26.97426 ], [ 76.82298, 26.97566 ], [ 76.82177, 26.97618 ], [ 76.8225, 26.97752 ], [ 76.8217, 26.97856 ], [ 76.82204, 26.97986 ], [ 76.82437, 26.97898 ], [ 76.82502, 26.98175 ], [ 76.8337, 26.98182 ], [ 76.83496, 26.98376 ], [ 76.83635, 26.98969 ], [ 76.83579, 26.99014 ], [ 76.83855, 26.99546 ] ] ] } }
]
}
