{
"type": "FeatureCollection",
"name": "108_SAWAI_MADHOPUR",
"crs": { "type": "name", "properties": { "name": "urn:ogc:def:crs:OGC:1.3:CRS84" } },
"xy_coordinate_resolution": 1e-05,
"features": [
{ "type": "Feature", "properties": { "OBJECTID": 3576, "state_lgd": "08", "state_name": "RAJASTHAN", "district_lgd": "108", "district_name": "SAWAI MADHOPUR", "district_name_source": "district_table", "subdistrict_lgd": "00527", "subdistrict_name": "Bamanwas", "subdistrict_type": "", "name_corrupted": false, "remarks": "", "label_lon": 76.538497229295359, "label_lat": 26.57369962879109 }, "geometry": { "type": "Polygon", "coordinates": [ [ [ 76.52638, 26.68852 ], [ 76.53266, 26.68712 ], [ 76.53856, 26.68146 ], [ 76.54263, 26.67951 ], [ 76.54503, 26.67671 ], [ 76.55008, 26.6733 ], [ 76.54993, 26.67241 ], [ 76.54882, 26.67226 ], [ 76.55676, 26.66589 ], [ 76.56595, 26.6624 ], [ 76.58681, 26.64982 ], [ 76.59512, 26.65824 ], [ 76.59728, 26.65855 ], [ 76.60089, 26.66116 ], [ 76.60241, 26.66456 ], [ 76.60397, 26.66431 ], [ 76.6067, 26.66112 ], [ 76.61483, 26.6556 ], [ 76.61589, 26.65697 ], [ 76.61699, 26.65676 ], [ 76.62033, 26.65415 ], [ 76.61435, 26.64346 ], [ 76.6132, 26.64339 ], [ 76.62224, 26.64095 ], [ 76.63755, 26.62462 ], [ 76.64231, 26.61686 ], [ 76.63983, 26.61042 ], [ 76.6385, 26.61012 ], [ 76.65278, 26.60728 ], [ 76.66235, 26.60926 ], [ 76.66952, 26.60891 ], [ 76.67069, 26.60597 ], [ 76.67045, 26.60177 ], [ 76.67571, 26.60069 ], [ 76.67653, 26.5984 ], [ 76.68466, 26.59341 ], [ 76.68531, 26.59086 ], [ 76.68728, 26.58843 ], [ 76.69095, 26.5862 ], [ 76.69357, 26.58169 ], [ 76.69345, 26.58072 ], [ 76.69533, 26.57971 ], [ 76.69561, 26.57628 ], [ 76.69257, 26.56903 ], [ 76.69523, 26.56654 ], [ 76.69425, 26.565 ], [ 76.69572, 26.56415 ], [ 76.69501, 26.56271 ], [ 76.69747, 26.56204 ], [ 76.69617, 26.56062 ], [ 76.6922, 26.56253 ], [ 76.69147, 26.56158 ], [ 76.69048, 26.5617 ], [ 76.68885, 26.56011 ], [ 76.68799, 26.55754 ], [ 76.68595, 26.55762 ], [ 76.6846, 26.55565 ], [ 76.68181, 26.55735 ], [ 76.68059, 26.55547 ], [ 76.67335, 26.55545 ], [ 76.67222, 26.55457 ], [ 76.66768, 26.55717 ], [ 76.66648, 26.55695 ], [ 76.66223, 26.55944 ], [ 76.65737, 26.56093 ], [ 76.65154, 26.55353 ], [ 76.65314, 26.54478 ], [ 76.65713, 26.53724 ], [ 76.66169, 26.53379 ], [ 76.66672, 26.53146 ], [ 76.66601, 26.5273 ], [ 76.66811, 26.52692 ], [ 76.6668, 26.52306 ], [ 76.64427, 26.52459 ], [ 76.64234, 26.52603 ], [ 76.6255, 26.53159 ], [ 76.62411, 26.53039 ], [ 76.62069, 26.52425 ], [ 76.62028, 26.51923 ], [ 76.62503, 26.5105 ], [ 76.62382, 26.5064 ], [ 76.62051, 26.50116 ], [ 76.62187, 26.5009 ], [ 76.61924, 26.48998 ], [ 76.61316, 26.48394 ], [ 76.61414, 26.47851 ], [ 76.61644, 26.47585 ], [ 76.60288, 26.46936 ], [ 76.59473, 26.47077 ], [ 76.58473, 26.47385 ], [ 76.58092, 26.47333 ], [ 76.57651, 26.46199 ], [ 76.56951, 26.46457 ], [ 76.5596, 26.46614 ], [ 76.5571, 26.46168 ], [ 76.55685, 26.45949 ], [ 76.55809, 26.45777 ], [ 76.56139, 26.44715 ], [ 76.55945, 26.44527 ], [ 76.55241, 26.44695 ], [ 76.55065, 26.44847 ], [ 76.54863, 26.44776 ], [ 76.54844, 26.44892 ], [ 76.54442, 26.44938 ], [ 76.544, 26.45055 ], [ 76.54246, 26.45134 ], [ 76.5401, 26.45789 ], [ 76.53515, 26.45742 ], [ 76.53471, 26.45649 ], [ 76.53064, 26.45541 ], [ 76.52786, 26.45566 ], [ 76.52621, 26.45499 ], [ 76.52196, 26.45589 ], [ 76.51825, 26.46526 ], [ 76.51036, 26.46036 ], [ 76.50811, 26.46155 ], [ 76.5066, 26.45851 ], [ 76.49961, 26.45994 ], [ 76.4891, 26.46464 ], [ 76.48454, 26.4596 ], [ 76.47324, 26.46065 ], [ 76.47233, 26.45712 ], [ 76.46997, 26.45278 ], [ 76.4618, 26.44311 ], [ 76.45941, 26.43891 ], [ 76.44134, 26.44378 ], [ 76.44187, 26.44851 ], [ 76.44481, 26.45773 ], [ 76.44795, 26.47255 ], [ 76.45377, 26.47879 ], [ 76.46421, 26.47636 ], [ 76.46648, 26.48534 ], [ 76.46957, 26.49075 ], [ 76.47074, 26.49154 ], [ 76.47337, 26.49128 ], [ 76.47662, 26.49462 ], [ 76.47791, 26.49963 ], [ 76.47808, 26.50429 ], [ 76.47517, 26.5132 ], [ 76.47503, 26.51827 ], [ 76.47327, 26.51816 ], [ 76.47121, 26.51672 ], [ 76.4697, 26.51689 ], [ 76.46686, 26.51843 ], [ 76.46492, 26.52145 ], [ 76.46097, 26.52203 ], [ 76.45742, 26.53472 ], [ 76.45853, 26.5418 ], [ 76.45804, 26.54477 ], [ 76.44803, 26.55286 ], [ 76.44731, 26.55676 ], [ 76.44284, 26.56022 ], [ 76.43772, 26.55677 ], [ 76.43613, 26.55021 ], [ 76.43248, 26.55043 ], [ 76.43009, 26.54779 ], [ 76.4257, 26.54596 ], [ 76.42397, 26.54401 ], [ 76.42215, 26.54325 ], [ 76.41845, 26.54461 ], [ 76.41012, 26.54521 ], [ 76.4111, 26.54789 ], [ 76.41251, 26.54805 ], [ 76.41439, 26.54963 ], [ 76.41475, 26.55158 ], [ 76.40527, 26.55601 ], [ 76.40627, 26.55971 ], [ 76.40604, 26.56251 ], [ 76.40285, 26.56612 ], [ 76.40353, 26.5707 ], [ 76.40679, 26.57463 ], [ 76.40855, 26.58007 ], [ 76.41183, 26.58376 ], [ 76.41333, 26.58687 ], [ 76.41309, 26.5897 ], [ 76.41512, 26.5934 ], [ 76.41522, 26.59623 ], [ 76.41755, 26.60025 ], [ 76.41697, 26.60238 ], [ 76.41804, 26.60757 ], [ 76.41949, 26.60879 ], [ 76.42248, 26.60945 ], [ 76.43355, 26.62547 ], [ 76.43862, 26.63393 ], [ 76.43998, 26.63803 ], [ 76.44181, 26.64025 ], [ 76.44159, 26.64285 ], [ 76.44312, 26.64643 ], [ 76.44457, 26.64833 ], [ 76.44912, 26.65139 ], [ 76.45397, 26.665 ], [ 76.4557, 26.66675 ], [ 76.46024, 26.66745 ], [ 76.46247, 26.66985 ], [ 76.46311, 26.67309 ], [ 76.46265, 26.67801 ], [ 76.45745, 26.68336 ], [ 76.45508, 26.68419 ], [ 76.45245, 26.68831 ], [ 76.45452, 26.68858 ], [ 76.45627, 26.68986 ], [ 76.46678, 26.70395 ], [ 76.47055, 26.71469 ], [ 76.47267, 26.71786 ], [ 76.48168, 26.71308 ], [ 76.48733, 26.71171 ], [ 76.48897, 26.70544 ], [ 76.49782, 26.6994 ], [ 76.50608, 26.6965 ], [ 76.51063, 26.69604 ], [ 76.5142, 26.69377 ], [ 76.52168, 26.69215 ], [ 76.52638, 26.68852 ] ] ] } },
{ "type": "Feature", "properties": { "OBJECTID": 3577, "state_lgd": "08", "state_name": "RAJASTHAN", "district_lgd": "108", "district_name": "SAWAI MADHOPUR", "district_name_source": "district_table", "subdistrict_lgd": "00527N001", "subdistrict_name": "Barnala", "subdistrict_type": "", "name_corrupted": false, "remarks": "", "label_lon": 76.511151777720201, "label_lat": 26.391101834748955 }, "geometry": { "type": "Polygon", "coordinates": [ [ [ 76.58473, 26.47385 ], [ 76.59473, 26.47077 ], [ 76.60289, 26.46943 ], [ 76.60329, 26.45681 ], [ 76.61065, 26.45385 ], [ 76.60984, 26.4472 ], [ 76.61286, 26.44652 ], [ 76.61281, 26.4453 ], [ 76.62132, 26.44042 ], [ 76.62311, 26.43794 ], [ 76.62035, 26.43282 ], [ 76.61657, 26.42985 ], [ 76.61328, 26.42485 ], [ 76.61156, 26.4237 ], [ 76.6097, 26.42437 ], [ 76.60924, 26.42597 ], [ 76.60823, 26.42621 ], [ 76.60567, 26.42507 ], [ 76.60434, 26.42529 ], [ 76.60281, 26.42776 ], [ 76.59577, 26.42761 ], [ 76.59087, 26.43203 ], [ 76.58661, 26.43174 ], [ 76.58455, 26.43299 ], [ 76.58281, 26.42741 ], [ 76.58267, 26.423 ], [ 76.5794, 26.41659 ], [ 76.57431, 26.41009 ], [ 76.57308, 26.40974 ], [ 76.57184, 26.40695 ], [ 76.56713, 26.40668 ], [ 76.57289, 26.40505 ], [ 76.57819, 26.40234 ], [ 76.58018, 26.39879 ], [ 76.58564, 26.39439 ], [ 76.58429, 26.38827 ], [ 76.5853, 26.38548 ], [ 76.58111, 26.38224 ], [ 76.57837, 26.38152 ], [ 76.57604, 26.38236 ], [ 76.57264, 26.38051 ], [ 76.57279, 26.3789 ], [ 76.57422, 26.37768 ], [ 76.57379, 26.37522 ], [ 76.56442, 26.36743 ], [ 76.564, 26.36526 ], [ 76.56617, 26.36216 ], [ 76.56905, 26.36314 ], [ 76.57149, 26.3558 ], [ 76.57045, 26.34679 ], [ 76.56934, 26.346 ], [ 76.56902, 26.34404 ], [ 76.56733, 26.34426 ], [ 76.56379, 26.33982 ], [ 76.56429, 26.33932 ], [ 76.56311, 26.33866 ], [ 76.56884, 26.33556 ], [ 76.56754, 26.32812 ], [ 76.56672, 26.32848 ], [ 76.5658, 26.32731 ], [ 76.56772, 26.32503 ], [ 76.56492, 26.31538 ], [ 76.56556, 26.31304 ], [ 76.56465, 26.31143 ], [ 76.56528, 26.30909 ], [ 76.56267, 26.30577 ], [ 76.55979, 26.30521 ], [ 76.55566, 26.30566 ], [ 76.55494, 26.30339 ], [ 76.55123, 26.29827 ], [ 76.55022, 26.29359 ], [ 76.54495, 26.29255 ], [ 76.5439, 26.29415 ], [ 76.54491, 26.30675 ], [ 76.54164, 26.30686 ], [ 76.539, 26.30319 ], [ 76.53668, 26.30197 ], [ 76.53115, 26.30401 ], [ 76.5319, 26.30267 ], [ 76.52462, 26.30006 ], [ 76.52224, 26.30009 ], [ 76.51954, 26.30282 ], [ 76.51102, 26.30437 ], [ 76.51, 26.30633 ], [ 76.50577, 26.3091 ], [ 76.50173, 26.31306 ], [ 76.49682, 26.3088 ], [ 76.49241, 26.29971 ], [ 76.49056, 26.29365 ], [ 76.48079, 26.29717 ], [ 76.47896, 26.30002 ], [ 76.47872, 26.30285 ], [ 76.48251, 26.31052 ], [ 76.48507, 26.3179 ], [ 76.48582, 26.32266 ], [ 76.48479, 26.32591 ], [ 76.48341, 26.3275 ], [ 76.4822, 26.32855 ], [ 76.47311, 26.33123 ], [ 76.46894, 26.33349 ], [ 76.46592, 26.33703 ], [ 76.45669, 26.34476 ], [ 76.45062, 26.35209 ], [ 76.43865, 26.36296 ], [ 76.43563, 26.36671 ], [ 76.42949, 26.37147 ], [ 76.42431, 26.3742 ], [ 76.41763, 26.37331 ], [ 76.40252, 26.37889 ], [ 76.40543, 26.38327 ], [ 76.4043, 26.38526 ], [ 76.40577, 26.38655 ], [ 76.40544, 26.38985 ], [ 76.40865, 26.38874 ], [ 76.40957, 26.39065 ], [ 76.40842, 26.39357 ], [ 76.40957, 26.39528 ], [ 76.4109, 26.39505 ], [ 76.41289, 26.39993 ], [ 76.41167, 26.40195 ], [ 76.41303, 26.40563 ], [ 76.41276, 26.40889 ], [ 76.41339, 26.41004 ], [ 76.41275, 26.41387 ], [ 76.4114, 26.41622 ], [ 76.41515, 26.41908 ], [ 76.42073, 26.42057 ], [ 76.42362, 26.42474 ], [ 76.42575, 26.43487 ], [ 76.43197, 26.43556 ], [ 76.43728, 26.4402 ], [ 76.43861, 26.4426 ], [ 76.44134, 26.44378 ], [ 76.45941, 26.43891 ], [ 76.4618, 26.44311 ], [ 76.46997, 26.45278 ], [ 76.47233, 26.45712 ], [ 76.47324, 26.46065 ], [ 76.48454, 26.4596 ], [ 76.4891, 26.46464 ], [ 76.49961, 26.45994 ], [ 76.5066, 26.45851 ], [ 76.50811, 26.46155 ], [ 76.51036, 26.46036 ], [ 76.51825, 26.46526 ], [ 76.52196, 26.45589 ], [ 76.52621, 26.45499 ], [ 76.52786, 26.45566 ], [ 76.53064, 26.45541 ], [ 76.53471, 26.45649 ], [ 76.53515, 26.45742 ], [ 76.5401, 26.45789 ], [ 76.54246, 26.45134 ], [ 76.544, 26.45055 ], [ 76.54442, 26.44938 ], [ 76.54844, 26.44892 ], [ 76.54863, 26.44776 ], [ 76.55065, 26.44847 ], [ 76.55241, 26.44695 ], [ 76.55945, 26.44527 ], [ 76.56139, 26.44715 ], [ 76.55809, 26.45777 ], [ 76.55685, 26.45949 ], [ 76.5571, 26.46168 ], [ 76.5596, 26.46614 ], [ 76.56951, 26.46457 ], [ 76.57651, 26.46199 ], [ 76.58092, 26.47333 ], [ 76.58473, 26.47385 ] ] ] } },
{ "type": "Feature", "properties": { "OBJECTID": 3578, "state_lgd": "08", "state_name": "RAJASTHAN", "district_lgd": "108", "district_name": "SAWAI MADHOPUR", "district_name_source": "district_table", "subdistrict_lgd": "00529", "subdistrict_name": "Bonli", "subdistrict_type": "", "name_corrupted": false, "remarks": "", "label_lon": 76.239501397390768, "label_lat": 26.288867385949555 }, "geometry": { "type": "MultiPolygon", "coordinates": [ [ [ [ 76.23768, 26.37481 ], [ 76.24391, 26.38289 ], [ 76.24582, 26.384 ], [ 76.24582, 26.38551 ], [ 76.24764, 26.38481 ], [ 76.24665, 26.38662 ], [ 76.24751, 26.39339 ], [ 76.24631, 26.39443 ], [ 76.24429, 26.40225 ], [ 76.24166, 26.40583 ], [ 76.24303, 26.41174 ], [ 76.2426, 26.41345 ], [ 76.24465, 26.41595 ], [ 76.24584, 26.41575 ], [ 76.2486, 26.41192 ], [ 76.24845, 26.40606 ], [ 76.25086, 26.40279 ], [ 76.25921, 26.39718 ], [ 76.26519, 26.39953 ], [ 76.27069, 26.39313 ], [ 76.27376, 26.38768 ], [ 76.27496, 26.38873 ], [ 76.28459, 26.38965 ], [ 76.30191, 26.37814 ], [ 76.31761, 26.37076 ], [ 76.32521, 26.37969 ], [ 76.33073, 26.38357 ], [ 76.34009, 26.38645 ], [ 76.34301, 26.38557 ], [ 76.3464, 26.38295 ], [ 76.34749, 26.38321 ], [ 76.35431, 26.38963 ], [ 76.36843, 26.39881 ], [ 76.3775, 26.39277 ], [ 76.38146, 26.39251 ], [ 76.38703, 26.38946 ], [ 76.39389, 26.38751 ], [ 76.39903, 26.38188 ], [ 76.39833, 26.38031 ], [ 76.39669, 26.37993 ], [ 76.39576, 26.37866 ], [ 76.39669, 26.37696 ], [ 76.3938, 26.37703 ], [ 76.39464, 26.37615 ], [ 76.39361, 26.37503 ], [ 76.39472, 26.37448 ], [ 76.39307, 26.37406 ], [ 76.39489, 26.37343 ], [ 76.39471, 26.37286 ], [ 76.39389, 26.3725 ], [ 76.39305, 26.36986 ], [ 76.39014, 26.36793 ], [ 76.38894, 26.36447 ], [ 76.38825, 26.36444 ], [ 76.39061, 26.36088 ], [ 76.39599, 26.35646 ], [ 76.39372, 26.35318 ], [ 76.38511, 26.35684 ], [ 76.38481, 26.34477 ], [ 76.3837, 26.34108 ], [ 76.3779, 26.342 ], [ 76.37745, 26.33743 ], [ 76.3733, 26.33718 ], [ 76.37306, 26.33555 ], [ 76.37024, 26.3353 ], [ 76.37073, 26.33417 ], [ 76.36931, 26.33332 ], [ 76.36982, 26.33169 ], [ 76.36769, 26.33026 ], [ 76.36236, 26.33409 ], [ 76.35538, 26.32819 ], [ 76.35202, 26.32767 ], [ 76.35066, 26.32466 ], [ 76.35481, 26.32248 ], [ 76.35456, 26.3207 ], [ 76.36085, 26.31942 ], [ 76.36515, 26.31976 ], [ 76.36619, 26.31817 ], [ 76.36766, 26.31759 ], [ 76.36616, 26.31158 ], [ 76.36186, 26.30742 ], [ 76.36061, 26.30788 ], [ 76.36028, 26.30656 ], [ 76.36233, 26.30588 ], [ 76.35531, 26.29595 ], [ 76.32284, 26.30719 ], [ 76.3215, 26.29967 ], [ 76.3192, 26.29386 ], [ 76.3207, 26.289 ], [ 76.31952, 26.28303 ], [ 76.31048, 26.27992 ], [ 76.30814, 26.27687 ], [ 76.30449, 26.27588 ], [ 76.3018, 26.27292 ], [ 76.29986, 26.27296 ], [ 76.29781, 26.26989 ], [ 76.29572, 26.27093 ], [ 76.29168, 26.264 ], [ 76.28673, 26.26242 ], [ 76.28329, 26.26254 ], [ 76.28226, 26.25825 ], [ 76.28246, 26.25377 ], [ 76.28459, 26.24396 ], [ 76.2844, 26.23884 ], [ 76.27643, 26.24078 ], [ 76.27528, 26.23684 ], [ 76.2742, 26.23659 ], [ 76.2722, 26.23095 ], [ 76.2712, 26.22523 ], [ 76.28272, 26.22451 ], [ 76.28228, 26.22098 ], [ 76.28342, 26.21035 ], [ 76.28693, 26.19999 ], [ 76.28764, 26.19462 ], [ 76.2619, 26.191 ], [ 76.24789, 26.19222 ], [ 76.24257, 26.1911 ], [ 76.23134, 26.18497 ], [ 76.21511, 26.1784 ], [ 76.21112, 26.17771 ], [ 76.19265, 26.17852 ], [ 76.18372, 26.17736 ], [ 76.17656, 26.17476 ], [ 76.17238, 26.17149 ], [ 76.16625, 26.17269 ], [ 76.16544, 26.18265 ], [ 76.15912, 26.18078 ], [ 76.14838, 26.18009 ], [ 76.1434, 26.18056 ], [ 76.14065, 26.18404 ], [ 76.13957, 26.19021 ], [ 76.13846, 26.19222 ], [ 76.13655, 26.19226 ], [ 76.1404, 26.19842 ], [ 76.14311, 26.20027 ], [ 76.14509, 26.20341 ], [ 76.15195, 26.20577 ], [ 76.14911, 26.21025 ], [ 76.14843, 26.21379 ], [ 76.15284, 26.21103 ], [ 76.15449, 26.21268 ], [ 76.14922, 26.21559 ], [ 76.14953, 26.2173 ], [ 76.1396, 26.22062 ], [ 76.13543, 26.22041 ], [ 76.1318, 26.21892 ], [ 76.12744, 26.21981 ], [ 76.12454, 26.22134 ], [ 76.12258, 26.21975 ], [ 76.12051, 26.22046 ], [ 76.1208, 26.22099 ], [ 76.11795, 26.22352 ], [ 76.11622, 26.22288 ], [ 76.11115, 26.2264 ], [ 76.10935, 26.22522 ], [ 76.10575, 26.22764 ], [ 76.10061, 26.22718 ], [ 76.10197, 26.24541 ], [ 76.10389, 26.24585 ], [ 76.10429, 26.24795 ], [ 76.10622, 26.24871 ], [ 76.11171, 26.24826 ], [ 76.11748, 26.2507 ], [ 76.12019, 26.25418 ], [ 76.11967, 26.2561 ], [ 76.11739, 26.25865 ], [ 76.11094, 26.26028 ], [ 76.11042, 26.26375 ], [ 76.11127, 26.26914 ], [ 76.11021, 26.27249 ], [ 76.11027, 26.27638 ], [ 76.11876, 26.2778 ], [ 76.12148, 26.28043 ], [ 76.11914, 26.28468 ], [ 76.12322, 26.28512 ], [ 76.12363, 26.28696 ], [ 76.12252, 26.29055 ], [ 76.12733, 26.2902 ], [ 76.13195, 26.29368 ], [ 76.13234, 26.29627 ], [ 76.13645, 26.29522 ], [ 76.13788, 26.29641 ], [ 76.14032, 26.30333 ], [ 76.14048, 26.30868 ], [ 76.14488, 26.31096 ], [ 76.14347, 26.3156 ], [ 76.13896, 26.31759 ], [ 76.13694, 26.31944 ], [ 76.13496, 26.31967 ], [ 76.13616, 26.32103 ], [ 76.14037, 26.32242 ], [ 76.14113, 26.32429 ], [ 76.13966, 26.32682 ], [ 76.13334, 26.33151 ], [ 76.13405, 26.33392 ], [ 76.13456, 26.33448 ], [ 76.14058, 26.33397 ], [ 76.14974, 26.33057 ], [ 76.15102, 26.33114 ], [ 76.16234, 26.32929 ], [ 76.16476, 26.33194 ], [ 76.16647, 26.33642 ], [ 76.17228, 26.34527 ], [ 76.17401, 26.34575 ], [ 76.19006, 26.34114 ], [ 76.19692, 26.33603 ], [ 76.19747, 26.33045 ], [ 76.20027, 26.3302 ], [ 76.20105, 26.32795 ], [ 76.20798, 26.32723 ], [ 76.20949, 26.33064 ], [ 76.21037, 26.33613 ], [ 76.21728, 26.33955 ], [ 76.2175, 26.34629 ], [ 76.21653, 26.35089 ], [ 76.21761, 26.35403 ], [ 76.21606, 26.36555 ], [ 76.21851, 26.36344 ], [ 76.22774, 26.36163 ], [ 76.23875, 26.35763 ], [ 76.2389, 26.36035 ], [ 76.24154, 26.36122 ], [ 76.23972, 26.36331 ], [ 76.24033, 26.3755 ], [ 76.23829, 26.37475 ], [ 76.23768, 26.37481 ] ] ], [ [ [ 76.23768, 26.37481 ], [ 76.22742, 26.37498 ], [ 76.21725, 26.38112 ], [ 76.2075, 26.3846 ], [ 76.20328, 26.38534 ], [ 76.20566, 26.38908 ], [ 76.20448, 26.39093 ], [ 76.20774, 26.38939 ], [ 76.21434, 26.38845 ], [ 76.21967, 26.38658 ], [ 76.22554, 26.38208 ], [ 76.23102, 26.38067 ], [ 76.23768, 26.37481 ] ] ] ] } },
{ "type": "Feature", "properties": { "OBJECTID": 3579, "state_lgd": "08", "state_name": "RAJASTHAN", "district_lgd": "108", "district_name": "SAWAI MADHOPUR", "district_name_source": "district_table", "subdistrict_lgd": "00530", "subdistrict_name": "Chauth Ka Barwara", "subdistrict_type": "", "name_corrupted": false, "remarks": "", "label_lon": 76.139027126626218, "label_lat": 26.118135403508965 }, "geometry": { "type": "Polygon", "coordinates": [ [ [ 76.04626, 26.25017 ], [ 76.05111, 26.24713 ], [ 76.05018, 26.24715 ], [ 76.06084, 26.24371 ], [ 76.06775, 26.24345 ], [ 76.06867, 26.24515 ], [ 76.08328, 26.24123 ], [ 76.08981, 26.24041 ], [ 76.09637, 26.24 ], [ 76.10162, 26.24116 ], [ 76.10061, 26.22718 ], [ 76.10575, 26.22764 ], [ 76.10935, 26.22522 ], [ 76.11115, 26.2264 ], [ 76.11622, 26.22288 ], [ 76.11795, 26.22352 ], [ 76.1208, 26.22099 ], [ 76.12051, 26.22046 ], [ 76.12254, 26.21976 ], [ 76.12454, 26.22134 ], [ 76.12744, 26.21981 ], [ 76.1318, 26.21892 ], [ 76.13543, 26.22041 ], [ 76.1396, 26.22062 ], [ 76.14953, 26.2173 ], [ 76.14922, 26.21559 ], [ 76.15449, 26.21268 ], [ 76.15284, 26.21103 ], [ 76.14843, 26.21379 ], [ 76.14911, 26.21025 ], [ 76.15195, 26.20577 ], [ 76.14509, 26.20341 ], [ 76.14311, 26.20027 ], [ 76.1404, 26.19842 ], [ 76.13655, 26.19226 ], [ 76.13846, 26.19222 ], [ 76.13957, 26.19021 ], [ 76.14065, 26.18404 ], [ 76.1434, 26.18056 ], [ 76.14838, 26.18009 ], [ 76.15912, 26.18078 ], [ 76.16555, 26.18261 ], [ 76.16625, 26.17269 ], [ 76.17238, 26.17149 ], [ 76.17656, 26.17476 ], [ 76.18372, 26.17736 ], [ 76.19265, 26.17852 ], [ 76.21112, 26.17771 ], [ 76.21511, 26.1784 ], [ 76.23134, 26.18497 ], [ 76.24257, 26.1911 ], [ 76.24789, 26.19222 ], [ 76.2619, 26.191 ], [ 76.26421, 26.18865 ], [ 76.2639, 26.17759 ], [ 76.25872, 26.17341 ], [ 76.25739, 26.1712 ], [ 76.25301, 26.1695 ], [ 76.2522, 26.16061 ], [ 76.25446, 26.1596 ], [ 76.26127, 26.16031 ], [ 76.2674, 26.15492 ], [ 76.26771, 26.14278 ], [ 76.27234, 26.13315 ], [ 76.27735, 26.12811 ], [ 76.28212, 26.1274 ], [ 76.29071, 26.12806 ], [ 76.29436, 26.12737 ], [ 76.29003, 26.11512 ], [ 76.28855, 26.10797 ], [ 76.2892, 26.10578 ], [ 76.28616, 26.10203 ], [ 76.28068, 26.09842 ], [ 76.28624, 26.09095 ], [ 76.28443, 26.09076 ], [ 76.28221, 26.08557 ], [ 76.28805, 26.08367 ], [ 76.29872, 26.07676 ], [ 76.30263, 26.07193 ], [ 76.29436, 26.06864 ], [ 76.28935, 26.06927 ], [ 76.28892, 26.06844 ], [ 76.2863, 26.0691 ], [ 76.28588, 26.0683 ], [ 76.28429, 26.0685 ], [ 76.28395, 26.06743 ], [ 76.27841, 26.06798 ], [ 76.27705, 26.06476 ], [ 76.27481, 26.05291 ], [ 76.27132, 26.05279 ], [ 76.26908, 26.05599 ], [ 76.24716, 26.0561 ], [ 76.24279, 26.05746 ], [ 76.23866, 26.04803 ], [ 76.23707, 26.04201 ], [ 76.23004, 26.02727 ], [ 76.22604, 26.0283 ], [ 76.2261, 26.02218 ], [ 76.22309, 26.01503 ], [ 76.21692, 26.01119 ], [ 76.19531, 26.01238 ], [ 76.18752, 26.01073 ], [ 76.18654, 26.01511 ], [ 76.18024, 26.01588 ], [ 76.17952, 26.01095 ], [ 76.17814, 26.01084 ], [ 76.17641, 25.99844 ], [ 76.1739, 25.99257 ], [ 76.1749, 25.99222 ], [ 76.17233, 25.98625 ], [ 76.16747, 25.98738 ], [ 76.16664, 25.98655 ], [ 76.15707, 25.98758 ], [ 76.1508, 25.98992 ], [ 76.14673, 25.98269 ], [ 76.14486, 25.98271 ], [ 76.14367, 25.98008 ], [ 76.14253, 25.9806 ], [ 76.13975, 25.97577 ], [ 76.13787, 25.97215 ], [ 76.13583, 25.96393 ], [ 76.12971, 25.96544 ], [ 76.13141, 25.97318 ], [ 76.11822, 25.97643 ], [ 76.11838, 25.97816 ], [ 76.11766, 25.97892 ], [ 76.11924, 25.9818 ], [ 76.11584, 25.98352 ], [ 76.1144, 25.98512 ], [ 76.11098, 25.98638 ], [ 76.11252, 25.98908 ], [ 76.1106, 25.99209 ], [ 76.10761, 25.99337 ], [ 76.10353, 25.99653 ], [ 76.09811, 25.9986 ], [ 76.09529, 26.00107 ], [ 76.09083, 26.00243 ], [ 76.08965, 26.00206 ], [ 76.08913, 25.99914 ], [ 76.08568, 25.99131 ], [ 76.08194, 25.98705 ], [ 76.07118, 25.99043 ], [ 76.06315, 25.99199 ], [ 76.06026, 25.99344 ], [ 76.05938, 25.99612 ], [ 76.06179, 25.99491 ], [ 76.06301, 25.99773 ], [ 76.06411, 25.99569 ], [ 76.06508, 25.99566 ], [ 76.06569, 25.99654 ], [ 76.06407, 25.99889 ], [ 76.06692, 25.99782 ], [ 76.06678, 25.99956 ], [ 76.06861, 26.00035 ], [ 76.06788, 26.00133 ], [ 76.06555, 26.00097 ], [ 76.06535, 26.00246 ], [ 76.064, 26.00181 ], [ 76.06461, 26.00351 ], [ 76.06294, 26.00188 ], [ 76.06229, 26.00318 ], [ 76.06272, 26.00517 ], [ 76.06412, 26.00449 ], [ 76.06717, 26.00467 ], [ 76.06495, 26.00798 ], [ 76.06881, 26.00743 ], [ 76.06889, 26.00916 ], [ 76.06682, 26.01023 ], [ 76.06992, 26.01105 ], [ 76.06857, 26.01357 ], [ 76.07101, 26.01445 ], [ 76.07224, 26.01597 ], [ 76.07498, 26.01487 ], [ 76.08054, 26.01963 ], [ 76.07983, 26.02407 ], [ 76.08221, 26.02339 ], [ 76.08289, 26.0248 ], [ 76.08086, 26.02602 ], [ 76.08029, 26.02821 ], [ 76.08108, 26.02895 ], [ 76.08339, 26.02857 ], [ 76.08443, 26.0302 ], [ 76.08674, 26.03009 ], [ 76.0871, 26.03331 ], [ 76.08984, 26.03376 ], [ 76.08932, 26.03497 ], [ 76.08581, 26.03703 ], [ 76.08668, 26.03752 ], [ 76.08911, 26.03673 ], [ 76.08943, 26.03733 ], [ 76.09083, 26.04166 ], [ 76.08861, 26.04528 ], [ 76.09599, 26.04297 ], [ 76.10112, 26.04252 ], [ 76.10145, 26.04331 ], [ 76.10027, 26.04489 ], [ 76.10261, 26.04489 ], [ 76.10395, 26.04779 ], [ 76.10715, 26.04813 ], [ 76.10766, 26.04959 ], [ 76.1064, 26.05251 ], [ 76.10672, 26.05716 ], [ 76.10572, 26.06097 ], [ 76.0996, 26.06189 ], [ 76.09887, 26.06141 ], [ 76.09723, 26.06253 ], [ 76.09542, 26.06085 ], [ 76.0893, 26.06084 ], [ 76.08744, 26.05923 ], [ 76.08329, 26.06158 ], [ 76.08326, 26.06767 ], [ 76.08019, 26.06869 ], [ 76.07953, 26.06968 ], [ 76.08147, 26.07652 ], [ 76.08135, 26.08155 ], [ 76.08222, 26.08297 ], [ 76.08296, 26.08991 ], [ 76.08243, 26.09199 ], [ 76.08793, 26.10181 ], [ 76.08801, 26.1045 ], [ 76.08287, 26.10516 ], [ 76.07828, 26.10812 ], [ 76.07997, 26.11613 ], [ 76.07113, 26.12527 ], [ 76.0642, 26.13064 ], [ 76.06177, 26.13083 ], [ 76.05814, 26.12781 ], [ 76.05767, 26.12174 ], [ 76.05432, 26.11425 ], [ 76.04578, 26.11315 ], [ 76.03886, 26.11541 ], [ 76.02969, 26.1092 ], [ 76.01819, 26.10912 ], [ 76.01206, 26.11148 ], [ 76.0054, 26.11286 ], [ 75.99797, 26.1169 ], [ 75.99378, 26.11667 ], [ 75.99851, 26.14187 ], [ 75.99939, 26.15592 ], [ 75.99369, 26.1604 ], [ 75.99357, 26.16137 ], [ 76.00045, 26.16104 ], [ 76.00144, 26.16185 ], [ 76.00184, 26.16558 ], [ 76.00091, 26.16571 ], [ 75.99814, 26.17172 ], [ 76.00111, 26.17407 ], [ 76.00405, 26.18339 ], [ 76.00307, 26.1838 ], [ 76.00431, 26.18577 ], [ 76.00332, 26.18724 ], [ 76.00177, 26.18717 ], [ 76.00315, 26.18867 ], [ 76.00065, 26.18965 ], [ 76.00105, 26.1917 ], [ 75.99634, 26.19348 ], [ 75.99574, 26.1945 ], [ 75.98874, 26.19647 ], [ 75.98199, 26.19673 ], [ 75.9809, 26.196 ], [ 75.97906, 26.19833 ], [ 75.98093, 26.20275 ], [ 75.9815, 26.20498 ], [ 75.98086, 26.20538 ], [ 75.98266, 26.21166 ], [ 75.98727, 26.21108 ], [ 75.99013, 26.22224 ], [ 75.99427, 26.2206 ], [ 76.00639, 26.22023 ], [ 76.02783, 26.22333 ], [ 76.02609, 26.23467 ], [ 76.02581, 26.25261 ], [ 76.04626, 26.25017 ] ] ] } },
{ "type": "Feature", "properties": { "OBJECTID": 3580, "state_lgd": "08", "state_name": "RAJASTHAN", "district_lgd": "108", "district_name": "SAWAI MADHOPUR", "district_name_source": "district_table", "subdistrict_lgd": "00526", "subdistrict_name": "Gangapurcity", "subdistrict_type": "", "name_corrupted": false, "remarks": "", "label_lon": 76.70509421919391, "label_lat": 26.488445664899675 }, "geometry": { "type": "Polygon", "coordinates": [ [ [ 76.69523, 26.56654 ], [ 76.70162, 26.5657 ], [ 76.70721, 26.56376 ], [ 76.70666, 26.56267 ], [ 76.70945, 26.56167 ], [ 76.70986, 26.56226 ], [ 76.71546, 26.56143 ], [ 76.71799, 26.56225 ], [ 76.72603, 26.56187 ], [ 76.72532, 26.5594 ], [ 76.72681, 26.55925 ], [ 76.72702, 26.55747 ], [ 76.72963, 26.55496 ], [ 76.73471, 26.55443 ], [ 76.74435, 26.55556 ], [ 76.74586, 26.559 ], [ 76.74569, 26.56335 ], [ 76.75352, 26.55872 ], [ 76.75527, 26.54993 ], [ 76.75807, 26.54337 ], [ 76.75912, 26.53841 ], [ 76.75928, 26.5315 ], [ 76.76336, 26.52999 ], [ 76.76323, 26.52947 ], [ 76.77926, 26.52025 ], [ 76.7876, 26.51998 ], [ 76.79385, 26.52133 ], [ 76.7949, 26.51854 ], [ 76.79863, 26.51672 ], [ 76.80137, 26.51396 ], [ 76.79945, 26.51118 ], [ 76.79835, 26.511 ], [ 76.7923, 26.50456 ], [ 76.79342, 26.5037 ], [ 76.79311, 26.50222 ], [ 76.79425, 26.50044 ], [ 76.79406, 26.49756 ], [ 76.79194, 26.49751 ], [ 76.7915, 26.49613 ], [ 76.79281, 26.48519 ], [ 76.79408, 26.48144 ], [ 76.79725, 26.47956 ], [ 76.7858, 26.47057 ], [ 76.78297, 26.46929 ], [ 76.77894, 26.46931 ], [ 76.77169, 26.46063 ], [ 76.78012, 26.45398 ], [ 76.78213, 26.45105 ], [ 76.78384, 26.45039 ], [ 76.78163, 26.44983 ], [ 76.77896, 26.44779 ], [ 76.77522, 26.44044 ], [ 76.76303, 26.43704 ], [ 76.75902, 26.43306 ], [ 76.75238, 26.42962 ], [ 76.75271, 26.42839 ], [ 76.749, 26.43029 ], [ 76.74559, 26.42797 ], [ 76.74029, 26.42867 ], [ 76.73128, 26.42204 ], [ 76.72913, 26.41684 ], [ 76.72898, 26.41598 ], [ 76.72992, 26.41546 ], [ 76.724, 26.41607 ], [ 76.71821, 26.41537 ], [ 76.71585, 26.41327 ], [ 76.71187, 26.41163 ], [ 76.70881, 26.40656 ], [ 76.70128, 26.4023 ], [ 76.70012, 26.40252 ], [ 76.69834, 26.40514 ], [ 76.69071, 26.40892 ], [ 76.68633, 26.41206 ], [ 76.67931, 26.41365 ], [ 76.67805, 26.41522 ], [ 76.67696, 26.41936 ], [ 76.6736, 26.4238 ], [ 76.67091, 26.42549 ], [ 76.66932, 26.42959 ], [ 76.66738, 26.43167 ], [ 76.66643, 26.43121 ], [ 76.66605, 26.43254 ], [ 76.66295, 26.43317 ], [ 76.66298, 26.43413 ], [ 76.65748, 26.43928 ], [ 76.65598, 26.44205 ], [ 76.65652, 26.44947 ], [ 76.65808, 26.45553 ], [ 76.65239, 26.46153 ], [ 76.65127, 26.46142 ], [ 76.64951, 26.46343 ], [ 76.64717, 26.46422 ], [ 76.64547, 26.46827 ], [ 76.64194, 26.46906 ], [ 76.64056, 26.47032 ], [ 76.63862, 26.47008 ], [ 76.63829, 26.47184 ], [ 76.63717, 26.47091 ], [ 76.6362, 26.47125 ], [ 76.63448, 26.46971 ], [ 76.63097, 26.46954 ], [ 76.62826, 26.46501 ], [ 76.63204, 26.45905 ], [ 76.63158, 26.45381 ], [ 76.6282, 26.4511 ], [ 76.62748, 26.44663 ], [ 76.62507, 26.44256 ], [ 76.62, 26.44133 ], [ 76.61281, 26.4453 ], [ 76.61286, 26.44652 ], [ 76.60984, 26.4472 ], [ 76.61065, 26.45385 ], [ 76.60329, 26.45681 ], [ 76.60284, 26.46705 ], [ 76.60288, 26.46936 ], [ 76.60461, 26.47062 ], [ 76.60652, 26.4706 ], [ 76.61644, 26.47585 ], [ 76.61414, 26.47851 ], [ 76.61316, 26.48394 ], [ 76.61924, 26.48998 ], [ 76.62187, 26.5009 ], [ 76.62051, 26.50116 ], [ 76.62382, 26.5064 ], [ 76.62503, 26.5105 ], [ 76.62028, 26.51923 ], [ 76.62069, 26.52425 ], [ 76.62411, 26.53039 ], [ 76.6255, 26.53159 ], [ 76.64234, 26.52603 ], [ 76.64427, 26.52459 ], [ 76.6668, 26.52306 ], [ 76.66811, 26.52692 ], [ 76.66601, 26.5273 ], [ 76.66672, 26.53146 ], [ 76.66169, 26.53379 ], [ 76.65713, 26.53724 ], [ 76.65328, 26.54418 ], [ 76.65175, 26.55389 ], [ 76.65737, 26.56093 ], [ 76.66223, 26.55944 ], [ 76.66648, 26.55695 ], [ 76.66768, 26.55717 ], [ 76.67222, 26.55457 ], [ 76.67335, 26.55545 ], [ 76.68059, 26.55547 ], [ 76.68181, 26.55735 ], [ 76.6846, 26.55565 ], [ 76.68595, 26.55762 ], [ 76.68783, 26.55738 ], [ 76.68918, 26.56054 ], [ 76.69213, 26.56251 ], [ 76.69628, 26.56066 ], [ 76.69747, 26.56204 ], [ 76.69501, 26.56271 ], [ 76.69572, 26.56415 ], [ 76.69425, 26.565 ], [ 76.69523, 26.56654 ] ] ] } },
{ "type": "Feature", "properties": { "OBJECTID": 3581, "state_lgd": "08", "state_name": "RAJASTHAN", "district_lgd": "108", "district_name": "SAWAI MADHOPUR", "district_name_source": "district_table", "subdistrict_lgd": "00532", "subdistrict_name": "Khandar", "subdistrict_type": "", "name_corrupted": false, "remarks": "", "label_lon": 76.629402407132858, "label_lat": 26.018524099392661 }, "geometry": { "type": "Polygon", "coordinates": [ [ [ 76.58602, 26.21064 ], [ 76.6022, 26.20225 ], [ 76.61699, 26.19274 ], [ 76.62775, 26.18445 ], [ 76.63307, 26.18575 ], [ 76.639, 26.18441 ], [ 76.64515, 26.18459 ], [ 76.64715, 26.18381 ], [ 76.65113, 26.18439 ], [ 76.65591, 26.1832 ], [ 76.65695, 26.18253 ], [ 76.65749, 26.18044 ], [ 76.65921, 26.18012 ], [ 76.66076, 26.17618 ], [ 76.66322, 26.17498 ], [ 76.66435, 26.17059 ], [ 76.66787, 26.16645 ], [ 76.67139, 26.16612 ], [ 76.67416, 26.16676 ], [ 76.68354, 26.17069 ], [ 76.68336, 26.17379 ], [ 76.68858, 26.18117 ], [ 76.69113, 26.1812 ], [ 76.69448, 26.17974 ], [ 76.69873, 26.1819 ], [ 76.70325, 26.17993 ], [ 76.70197, 26.17807 ], [ 76.70246, 26.17716 ], [ 76.70784, 26.17688 ], [ 76.71065, 26.17145 ], [ 76.71846, 26.16969 ], [ 76.72184, 26.16629 ], [ 76.72397, 26.16281 ], [ 76.72665, 26.1612 ], [ 76.7257, 26.15748 ], [ 76.72405, 26.15602 ], [ 76.72457, 26.15495 ], [ 76.72795, 26.15441 ], [ 76.73059, 26.15536 ], [ 76.73216, 26.15507 ], [ 76.73415, 26.15255 ], [ 76.73619, 26.15578 ], [ 76.73969, 26.15557 ], [ 76.74053, 26.15467 ], [ 76.74076, 26.15233 ], [ 76.74382, 26.15039 ], [ 76.74531, 26.14758 ], [ 76.75434, 26.13704 ], [ 76.75535, 26.13411 ], [ 76.75822, 26.13053 ], [ 76.75868, 26.12844 ], [ 76.76034, 26.12722 ], [ 76.76081, 26.12548 ], [ 76.76365, 26.12381 ], [ 76.76335, 26.12126 ], [ 76.76442, 26.12067 ], [ 76.76734, 26.1153 ], [ 76.76992, 26.11238 ], [ 76.77161, 26.11089 ], [ 76.77414, 26.11015 ], [ 76.77711, 26.10651 ], [ 76.79092, 26.10629 ], [ 76.79966, 26.09757 ], [ 76.80101, 26.09589 ], [ 76.80345, 26.08906 ], [ 76.80615, 26.08542 ], [ 76.80723, 26.0818 ], [ 76.8057, 26.08036 ], [ 76.80794, 26.07886 ], [ 76.80941, 26.07523 ], [ 76.81014, 26.06992 ], [ 76.81327, 26.07074 ], [ 76.81935, 26.06975 ], [ 76.82108, 26.07021 ], [ 76.82117, 26.07108 ], [ 76.82347, 26.0726 ], [ 76.82784, 26.07251 ], [ 76.83006, 26.0678 ], [ 76.83451, 26.06625 ], [ 76.843, 26.05368 ], [ 76.84881, 26.05072 ], [ 76.84863, 26.04904 ], [ 76.85124, 26.04247 ], [ 76.84774, 26.04054 ], [ 76.84737, 26.03874 ], [ 76.84774, 26.03674 ], [ 76.85144, 26.03211 ], [ 76.84425, 26.02888 ], [ 76.83601, 26.02236 ], [ 76.83044, 26.01517 ], [ 76.82685, 26.00809 ], [ 76.82408, 26.00569 ], [ 76.81925, 26.00348 ], [ 76.80548, 25.98797 ], [ 76.80312, 25.9811 ], [ 76.80259, 25.9761 ], [ 76.80358, 25.97453 ], [ 76.80831, 25.97324 ], [ 76.80868, 25.97132 ], [ 76.80746, 25.96537 ], [ 76.80461, 25.96043 ], [ 76.79096, 25.94267 ], [ 76.78524, 25.93927 ], [ 76.7779, 25.93796 ], [ 76.76398, 25.93799 ], [ 76.75268, 25.94084 ], [ 76.74886, 25.94047 ], [ 76.7464, 25.93768 ], [ 76.74659, 25.9341 ], [ 76.74889, 25.9304 ], [ 76.7518, 25.92817 ], [ 76.75765, 25.92663 ], [ 76.75759, 25.92262 ], [ 76.75273, 25.91734 ], [ 76.74379, 25.91338 ], [ 76.73323, 25.90632 ], [ 76.71633, 25.90116 ], [ 76.70725, 25.90051 ], [ 76.6872, 25.90786 ], [ 76.67459, 25.91026 ], [ 76.66836, 25.91078 ], [ 76.656, 25.91019 ], [ 76.64608, 25.90912 ], [ 76.64026, 25.90761 ], [ 76.63575, 25.905 ], [ 76.63062, 25.89914 ], [ 76.62802, 25.89013 ], [ 76.6261, 25.87573 ], [ 76.62374, 25.8709 ], [ 76.61856, 25.86861 ], [ 76.61448, 25.86844 ], [ 76.60663, 25.87069 ], [ 76.596, 25.87499 ], [ 76.58928, 25.87498 ], [ 76.58277, 25.87104 ], [ 76.57886, 25.86697 ], [ 76.56678, 25.8505 ], [ 76.56601, 25.84812 ], [ 76.56292, 25.84869 ], [ 76.55665, 25.84695 ], [ 76.54908, 25.84286 ], [ 76.54611, 25.83876 ], [ 76.53767, 25.84033 ], [ 76.53065, 25.84349 ], [ 76.51425, 25.84071 ], [ 76.51118, 25.83857 ], [ 76.50911, 25.83857 ], [ 76.50074, 25.84117 ], [ 76.497, 25.8437 ], [ 76.49193, 25.84553 ], [ 76.48706, 25.84489 ], [ 76.47992, 25.84243 ], [ 76.47219, 25.84631 ], [ 76.46383, 25.84671 ], [ 76.46226, 25.84919 ], [ 76.46129, 25.84903 ], [ 76.45364, 25.85553 ], [ 76.46054, 25.85763 ], [ 76.46772, 25.86365 ], [ 76.46474, 25.86751 ], [ 76.46438, 25.86917 ], [ 76.46254, 25.87089 ], [ 76.45958, 25.87125 ], [ 76.45636, 25.87479 ], [ 76.45391, 25.87623 ], [ 76.45167, 25.8792 ], [ 76.44692, 25.88089 ], [ 76.44229, 25.8844 ], [ 76.4417, 25.88621 ], [ 76.44303, 25.88825 ], [ 76.44009, 25.89437 ], [ 76.43708, 25.89386 ], [ 76.43156, 25.88982 ], [ 76.42722, 25.88951 ], [ 76.42565, 25.89045 ], [ 76.42725, 25.89195 ], [ 76.42829, 25.89445 ], [ 76.4312, 25.90659 ], [ 76.43299, 25.91914 ], [ 76.43201, 25.92317 ], [ 76.42802, 25.92836 ], [ 76.42856, 25.93062 ], [ 76.43208, 25.93353 ], [ 76.43582, 25.93466 ], [ 76.43754, 25.93438 ], [ 76.43693, 25.9327 ], [ 76.43824, 25.93204 ], [ 76.4526, 25.92682 ], [ 76.45779, 25.93559 ], [ 76.45744, 25.93638 ], [ 76.45886, 25.93923 ], [ 76.47115, 25.94419 ], [ 76.46987, 25.9455 ], [ 76.47171, 25.94897 ], [ 76.47001, 25.94944 ], [ 76.47015, 25.95177 ], [ 76.4738, 25.95756 ], [ 76.4737, 25.9588 ], [ 76.47447, 25.9595 ], [ 76.4808, 25.95832 ], [ 76.47751, 25.96155 ], [ 76.47933, 25.96441 ], [ 76.47877, 25.96669 ], [ 76.47592, 25.96953 ], [ 76.47568, 25.97326 ], [ 76.47307, 25.97491 ], [ 76.46983, 25.98299 ], [ 76.46427, 25.98395 ], [ 76.46296, 25.98592 ], [ 76.47332, 25.99444 ], [ 76.47827, 26.00024 ], [ 76.48359, 26.01118 ], [ 76.48602, 26.01184 ], [ 76.48944, 26.01533 ], [ 76.48992, 26.02056 ], [ 76.49172, 26.02276 ], [ 76.49636, 26.02532 ], [ 76.50742, 26.03599 ], [ 76.50066, 26.04083 ], [ 76.49783, 26.0415 ], [ 76.49507, 26.04395 ], [ 76.4947, 26.04875 ], [ 76.49117, 26.05362 ], [ 76.48912, 26.05934 ], [ 76.48462, 26.06008 ], [ 76.48038, 26.0631 ], [ 76.47172, 26.06698 ], [ 76.47539, 26.06959 ], [ 76.47396, 26.07293 ], [ 76.47679, 26.07587 ], [ 76.48028, 26.07749 ], [ 76.48237, 26.07953 ], [ 76.48409, 26.0797 ], [ 76.48571, 26.08131 ], [ 76.48553, 26.08322 ], [ 76.48743, 26.08505 ], [ 76.49075, 26.08578 ], [ 76.49317, 26.08904 ], [ 76.49377, 26.09158 ], [ 76.49723, 26.09343 ], [ 76.49816, 26.09309 ], [ 76.50254, 26.09733 ], [ 76.5176, 26.10166 ], [ 76.52207, 26.1051 ], [ 76.52663, 26.10574 ], [ 76.53357, 26.11276 ], [ 76.52607, 26.12555 ], [ 76.52681, 26.12753 ], [ 76.53179, 26.13373 ], [ 76.53387, 26.13512 ], [ 76.53441, 26.14196 ], [ 76.53559, 26.1442 ], [ 76.53906, 26.14663 ], [ 76.54364, 26.15746 ], [ 76.5435, 26.1617 ], [ 76.54062, 26.16288 ], [ 76.53975, 26.16681 ], [ 76.53514, 26.17067 ], [ 76.53676, 26.17298 ], [ 76.5419, 26.17717 ], [ 76.54378, 26.17716 ], [ 76.5445, 26.1779 ], [ 76.54413, 26.17931 ], [ 76.54797, 26.18218 ], [ 76.54894, 26.18429 ], [ 76.55197, 26.18508 ], [ 76.55231, 26.18607 ], [ 76.55502, 26.18729 ], [ 76.55605, 26.19202 ], [ 76.5603, 26.19507 ], [ 76.56035, 26.1959 ], [ 76.55938, 26.19644 ], [ 76.55971, 26.19758 ], [ 76.56245, 26.19778 ], [ 76.56278, 26.19646 ], [ 76.56561, 26.19813 ], [ 76.56797, 26.19768 ], [ 76.5656, 26.19984 ], [ 76.56454, 26.19864 ], [ 76.56319, 26.19859 ], [ 76.56254, 26.2 ], [ 76.56681, 26.20495 ], [ 76.57303, 26.20658 ], [ 76.58126, 26.20719 ], [ 76.58602, 26.21064 ] ] ] } },
{ "type": "Feature", "properties": { "OBJECTID": 3582, "state_lgd": "08", "state_name": "RAJASTHAN", "district_lgd": "108", "district_name": "SAWAI MADHOPUR", "district_name_source": "district_table", "subdistrict_lgd": "00528", "subdistrict_name": "Malarna Doongar", "subdistrict_type": "", "name_corrupted": false, "remarks": "", "label_lon": 76.430266615097636, "label_lat": 26.265948339245636 }, "geometry": { "type": "Polygon", "coordinates": [ [ [ 76.40252, 26.37889 ], [ 76.41763, 26.37331 ], [ 76.42431, 26.3742 ], [ 76.42949, 26.37147 ], [ 76.43563, 26.36671 ], [ 76.43865, 26.36296 ], [ 76.45062, 26.35209 ], [ 76.45669, 26.34476 ], [ 76.46592, 26.33703 ], [ 76.46894, 26.33349 ], [ 76.47311, 26.33123 ], [ 76.4822, 26.32855 ], [ 76.48341, 26.3275 ], [ 76.48553, 26.32413 ], [ 76.48554, 26.31961 ], [ 76.48251, 26.31052 ], [ 76.47857, 26.30212 ], [ 76.47971, 26.29856 ], [ 76.48202, 26.29647 ], [ 76.49056, 26.29365 ], [ 76.49241, 26.29971 ], [ 76.49682, 26.3088 ], [ 76.50173, 26.31306 ], [ 76.50577, 26.3091 ], [ 76.51, 26.30633 ], [ 76.51102, 26.30437 ], [ 76.51954, 26.30282 ], [ 76.52224, 26.30009 ], [ 76.52462, 26.30006 ], [ 76.5319, 26.30267 ], [ 76.53115, 26.30401 ], [ 76.53668, 26.30197 ], [ 76.539, 26.30319 ], [ 76.54164, 26.30686 ], [ 76.54491, 26.30675 ], [ 76.54366, 26.29509 ], [ 76.54495, 26.29255 ], [ 76.55022, 26.29359 ], [ 76.55123, 26.29827 ], [ 76.55494, 26.30339 ], [ 76.55566, 26.30566 ], [ 76.55979, 26.30521 ], [ 76.56245, 26.30603 ], [ 76.56343, 26.30462 ], [ 76.56567, 26.305 ], [ 76.56683, 26.30016 ], [ 76.57081, 26.29666 ], [ 76.57042, 26.29521 ], [ 76.56701, 26.29362 ], [ 76.56558, 26.29177 ], [ 76.56779, 26.28434 ], [ 76.56641, 26.28284 ], [ 76.55592, 26.27905 ], [ 76.55001, 26.26721 ], [ 76.55051, 26.26511 ], [ 76.55412, 26.26283 ], [ 76.55504, 26.26414 ], [ 76.56353, 26.26568 ], [ 76.56841, 26.26892 ], [ 76.57103, 26.26834 ], [ 76.57528, 26.26956 ], [ 76.57692, 26.26915 ], [ 76.57955, 26.27031 ], [ 76.57959, 26.27109 ], [ 76.58344, 26.27009 ], [ 76.58476, 26.27073 ], [ 76.58799, 26.26843 ], [ 76.5894, 26.26992 ], [ 76.59103, 26.26909 ], [ 76.59072, 26.26681 ], [ 76.59479, 26.26671 ], [ 76.59618, 26.27405 ], [ 76.60325, 26.27282 ], [ 76.60157, 26.26661 ], [ 76.60204, 26.26195 ], [ 76.60264, 26.26113 ], [ 76.60662, 26.26015 ], [ 76.60799, 26.25777 ], [ 76.60593, 26.25415 ], [ 76.60607, 26.25161 ], [ 76.60362, 26.24448 ], [ 76.59649, 26.23922 ], [ 76.59539, 26.23947 ], [ 76.58208, 26.23296 ], [ 76.58059, 26.23071 ], [ 76.58084, 26.22874 ], [ 76.58644, 26.22277 ], [ 76.58158, 26.21984 ], [ 76.5769, 26.21943 ], [ 76.57039, 26.2202 ], [ 76.56193, 26.2168 ], [ 76.54243, 26.21215 ], [ 76.53518, 26.20822 ], [ 76.53272, 26.20768 ], [ 76.52335, 26.20993 ], [ 76.51928, 26.21004 ], [ 76.51527, 26.20857 ], [ 76.50907, 26.20901 ], [ 76.50687, 26.21369 ], [ 76.50222, 26.2155 ], [ 76.49605, 26.21403 ], [ 76.49325, 26.21139 ], [ 76.48517, 26.20844 ], [ 76.48003, 26.20516 ], [ 76.47148, 26.20411 ], [ 76.46848, 26.20507 ], [ 76.46035, 26.20566 ], [ 76.45614, 26.20409 ], [ 76.45247, 26.2118 ], [ 76.43103, 26.20624 ], [ 76.43127, 26.20555 ], [ 76.42351, 26.19967 ], [ 76.42087, 26.19968 ], [ 76.41905, 26.19875 ], [ 76.41668, 26.19976 ], [ 76.4106, 26.20022 ], [ 76.40687, 26.19988 ], [ 76.40336, 26.19844 ], [ 76.40169, 26.19881 ], [ 76.39798, 26.19551 ], [ 76.39608, 26.19535 ], [ 76.3957, 26.18938 ], [ 76.39615, 26.18814 ], [ 76.39831, 26.18676 ], [ 76.38913, 26.18562 ], [ 76.37067, 26.18764 ], [ 76.36215, 26.19413 ], [ 76.34939, 26.20905 ], [ 76.34484, 26.21149 ], [ 76.33994, 26.21251 ], [ 76.33617, 26.21131 ], [ 76.3294, 26.20695 ], [ 76.31603, 26.20315 ], [ 76.30245, 26.19744 ], [ 76.28764, 26.19462 ], [ 76.28693, 26.19999 ], [ 76.28342, 26.21035 ], [ 76.28228, 26.22098 ], [ 76.28272, 26.22451 ], [ 76.2712, 26.22523 ], [ 76.2722, 26.23095 ], [ 76.2742, 26.23659 ], [ 76.27528, 26.23684 ], [ 76.27643, 26.24078 ], [ 76.2844, 26.23884 ], [ 76.28459, 26.24396 ], [ 76.28246, 26.25377 ], [ 76.28226, 26.25825 ], [ 76.28329, 26.26254 ], [ 76.28673, 26.26242 ], [ 76.29168, 26.264 ], [ 76.29572, 26.27093 ], [ 76.29781, 26.26989 ], [ 76.29986, 26.27296 ], [ 76.3018, 26.27292 ], [ 76.30449, 26.27588 ], [ 76.30814, 26.27687 ], [ 76.31048, 26.27992 ], [ 76.31952, 26.28303 ], [ 76.3207, 26.289 ], [ 76.3192, 26.29386 ], [ 76.3215, 26.29967 ], [ 76.32284, 26.30719 ], [ 76.35531, 26.29595 ], [ 76.36233, 26.30588 ], [ 76.36028, 26.30656 ], [ 76.36061, 26.30788 ], [ 76.36186, 26.30742 ], [ 76.36616, 26.31158 ], [ 76.36766, 26.31759 ], [ 76.36619, 26.31817 ], [ 76.36515, 26.31976 ], [ 76.36085, 26.31942 ], [ 76.35456, 26.3207 ], [ 76.35481, 26.32248 ], [ 76.35066, 26.32466 ], [ 76.35202, 26.32767 ], [ 76.35538, 26.32819 ], [ 76.36236, 26.33409 ], [ 76.36769, 26.33026 ], [ 76.36982, 26.33169 ], [ 76.36931, 26.33332 ], [ 76.37073, 26.33417 ], [ 76.37024, 26.3353 ], [ 76.37306, 26.33555 ], [ 76.3733, 26.33718 ], [ 76.37745, 26.33743 ], [ 76.3779, 26.342 ], [ 76.3837, 26.34108 ], [ 76.38481, 26.34477 ], [ 76.38511, 26.35684 ], [ 76.39372, 26.35318 ], [ 76.39599, 26.35646 ], [ 76.39061, 26.36088 ], [ 76.38825, 26.36444 ], [ 76.38894, 26.36447 ], [ 76.39014, 26.36793 ], [ 76.39305, 26.36986 ], [ 76.39389, 26.3725 ], [ 76.39471, 26.37286 ], [ 76.39489, 26.37343 ], [ 76.39307, 26.37406 ], [ 76.39472, 26.37448 ], [ 76.39361, 26.37503 ], [ 76.39464, 26.37615 ], [ 76.3938, 26.37703 ], [ 76.39669, 26.37696 ], [ 76.39576, 26.37866 ], [ 76.39669, 26.37993 ], [ 76.39833, 26.38031 ], [ 76.39903, 26.38188 ], [ 76.40252, 26.37889 ] ] ] } },
{ "type": "Feature", "properties": { "OBJECTID": 3583, "state_lgd": "08", "state_name": "RAJASTHAN", "district_lgd": "108", "district_name": "SAWAI MADHOPUR", "district_name_source": "district_table", "subdistrict_lgd": "00529N001", "subdistrict_name": "Mitrapura", "subdistrict_type": "", "name_corrupted": false, "remarks": "", "label_lon": 76.224760882526496, "label_lat": 26.409639117494191 }, "geometry": { "type": "Polygon", "coordinates": [ [ [ 76.23768, 26.37481 ], [ 76.24033, 26.3755 ], [ 76.23972, 26.36331 ], [ 76.24154, 26.36122 ], [ 76.2389, 26.36035 ], [ 76.23875, 26.35763 ], [ 76.22774, 26.36163 ], [ 76.21851, 26.36344 ], [ 76.21606, 26.36555 ], [ 76.21761, 26.35403 ], [ 76.21653, 26.35089 ], [ 76.2175, 26.34629 ], [ 76.21728, 26.33955 ], [ 76.21037, 26.33613 ], [ 76.20949, 26.33064 ], [ 76.20798, 26.32723 ], [ 76.20105, 26.32795 ], [ 76.20027, 26.3302 ], [ 76.19747, 26.33045 ], [ 76.19692, 26.33603 ], [ 76.19006, 26.34114 ], [ 76.17401, 26.34575 ], [ 76.17228, 26.34527 ], [ 76.16647, 26.33642 ], [ 76.16476, 26.33194 ], [ 76.16234, 26.32929 ], [ 76.15102, 26.33114 ], [ 76.15005, 26.33051 ], [ 76.14103, 26.33388 ], [ 76.13456, 26.33448 ], [ 76.13334, 26.33151 ], [ 76.12991, 26.33324 ], [ 76.12923, 26.33483 ], [ 76.1251, 26.33482 ], [ 76.12674, 26.33938 ], [ 76.1235, 26.34022 ], [ 76.12346, 26.34533 ], [ 76.12569, 26.34561 ], [ 76.1277, 26.34977 ], [ 76.13191, 26.35054 ], [ 76.13654, 26.35006 ], [ 76.14064, 26.35854 ], [ 76.14068, 26.36072 ], [ 76.13816, 26.36384 ], [ 76.13513, 26.36466 ], [ 76.1331, 26.36658 ], [ 76.12923, 26.36811 ], [ 76.1295, 26.37196 ], [ 76.13052, 26.37679 ], [ 76.13561, 26.38573 ], [ 76.14218, 26.40114 ], [ 76.15109, 26.41177 ], [ 76.14784, 26.41834 ], [ 76.14805, 26.4227 ], [ 76.14837, 26.4258 ], [ 76.15108, 26.42853 ], [ 76.15298, 26.43865 ], [ 76.15284, 26.4428 ], [ 76.14378, 26.4443 ], [ 76.13845, 26.44752 ], [ 76.13696, 26.45069 ], [ 76.13368, 26.45451 ], [ 76.13183, 26.46015 ], [ 76.13443, 26.45958 ], [ 76.1368, 26.46045 ], [ 76.13791, 26.46269 ], [ 76.13761, 26.46572 ], [ 76.14127, 26.4681 ], [ 76.14148, 26.47029 ], [ 76.14303, 26.46975 ], [ 76.14505, 26.47032 ], [ 76.15096, 26.46737 ], [ 76.15616, 26.47403 ], [ 76.159, 26.47439 ], [ 76.16251, 26.47931 ], [ 76.16785, 26.48369 ], [ 76.17305, 26.48466 ], [ 76.17512, 26.48608 ], [ 76.17731, 26.48374 ], [ 76.18065, 26.48224 ], [ 76.19143, 26.48064 ], [ 76.20603, 26.47515 ], [ 76.21279, 26.47146 ], [ 76.22314, 26.46359 ], [ 76.22491, 26.46318 ], [ 76.22939, 26.46434 ], [ 76.23428, 26.46423 ], [ 76.24209, 26.46127 ], [ 76.24416, 26.45898 ], [ 76.24161, 26.45516 ], [ 76.24028, 26.44808 ], [ 76.24229, 26.44586 ], [ 76.2479, 26.44308 ], [ 76.25768, 26.44539 ], [ 76.26779, 26.45036 ], [ 76.27103, 26.45041 ], [ 76.27778, 26.44855 ], [ 76.28983, 26.45613 ], [ 76.29198, 26.45639 ], [ 76.29774, 26.45435 ], [ 76.30453, 26.45843 ], [ 76.31672, 26.45875 ], [ 76.32233, 26.45667 ], [ 76.32747, 26.45268 ], [ 76.33314, 26.44608 ], [ 76.33729, 26.43839 ], [ 76.33891, 26.43384 ], [ 76.34, 26.42576 ], [ 76.33796, 26.41713 ], [ 76.34242, 26.41587 ], [ 76.35149, 26.41063 ], [ 76.35097, 26.40927 ], [ 76.35415, 26.40674 ], [ 76.35809, 26.40481 ], [ 76.35801, 26.40425 ], [ 76.36439, 26.40183 ], [ 76.36843, 26.39881 ], [ 76.35431, 26.38963 ], [ 76.34749, 26.38321 ], [ 76.3464, 26.38295 ], [ 76.34301, 26.38557 ], [ 76.34009, 26.38645 ], [ 76.33073, 26.38357 ], [ 76.32521, 26.37969 ], [ 76.31761, 26.37076 ], [ 76.30191, 26.37814 ], [ 76.28459, 26.38965 ], [ 76.27496, 26.38873 ], [ 76.27376, 26.38768 ], [ 76.27069, 26.39313 ], [ 76.26519, 26.39953 ], [ 76.25921, 26.39718 ], [ 76.25086, 26.40279 ], [ 76.24845, 26.40606 ], [ 76.2486, 26.41192 ], [ 76.24584, 26.41575 ], [ 76.24465, 26.41595 ], [ 76.2426, 26.41345 ], [ 76.24303, 26.41174 ], [ 76.24166, 26.40583 ], [ 76.24429, 26.40225 ], [ 76.24631, 26.39443 ], [ 76.24751, 26.39339 ], [ 76.24665, 26.38662 ], [ 76.24764, 26.38481 ], [ 76.24582, 26.38551 ], [ 76.24582, 26.384 ], [ 76.24391, 26.38289 ], [ 76.23768, 26.37481 ] ], [ [ 76.23768, 26.37481 ], [ 76.23102, 26.38067 ], [ 76.22554, 26.38208 ], [ 76.21967, 26.38658 ], [ 76.21434, 26.38845 ], [ 76.20774, 26.38939 ], [ 76.20448, 26.39093 ], [ 76.20566, 26.38908 ], [ 76.20328, 26.38534 ], [ 76.2075, 26.3846 ], [ 76.21725, 26.38112 ], [ 76.22742, 26.37498 ], [ 76.23768, 26.37481 ] ] ] } },
{ "type": "Feature", "properties": { "OBJECTID": 3584, "state_lgd": "08", "state_name": "RAJASTHAN", "district_lgd": "108", "district_name": "SAWAI MADHOPUR", "district_name_source": "district_table", "subdistrict_lgd": "00531", "subdistrict_name": "Sawai Madhopur", "subdistrict_type": "", "name_corrupted": false, "remarks": "", "label_lon": 76.374025280114097, "label_lat": 26.000473538051196 }, "geometry": { "type": "Polygon", "coordinates": [ [ [ 76.57039, 26.2202 ], [ 76.5809, 26.21949 ], [ 76.57696, 26.2155 ], [ 76.58602, 26.21064 ], [ 76.58126, 26.20719 ], [ 76.57303, 26.20658 ], [ 76.56564, 26.2042 ], [ 76.56423, 26.20136 ], [ 76.56325, 26.20136 ], [ 76.56254, 26.2 ], [ 76.56319, 26.19859 ], [ 76.56454, 26.19864 ], [ 76.5656, 26.19984 ], [ 76.56797, 26.19768 ], [ 76.56561, 26.19813 ], [ 76.56278, 26.19646 ], [ 76.56245, 26.19778 ], [ 76.55971, 26.19758 ], [ 76.55938, 26.19644 ], [ 76.56035, 26.1959 ], [ 76.5603, 26.19507 ], [ 76.55605, 26.19202 ], [ 76.55502, 26.18729 ], [ 76.55231, 26.18607 ], [ 76.55197, 26.18508 ], [ 76.54894, 26.18429 ], [ 76.54797, 26.18218 ], [ 76.54413, 26.17931 ], [ 76.54444, 26.17779 ], [ 76.54102, 26.17663 ], [ 76.53513, 26.17078 ], [ 76.53975, 26.16681 ], [ 76.54062, 26.16288 ], [ 76.5435, 26.1617 ], [ 76.54377, 26.15826 ], [ 76.54276, 26.15439 ], [ 76.53906, 26.14663 ], [ 76.53559, 26.1442 ], [ 76.53441, 26.14196 ], [ 76.53387, 26.13512 ], [ 76.53179, 26.13373 ], [ 76.52681, 26.12753 ], [ 76.52607, 26.12555 ], [ 76.53357, 26.11276 ], [ 76.52663, 26.10574 ], [ 76.52207, 26.1051 ], [ 76.5176, 26.10166 ], [ 76.50254, 26.09733 ], [ 76.49816, 26.09309 ], [ 76.49723, 26.09343 ], [ 76.49377, 26.09158 ], [ 76.49317, 26.08904 ], [ 76.49075, 26.08578 ], [ 76.48743, 26.08505 ], [ 76.48553, 26.08322 ], [ 76.48571, 26.08131 ], [ 76.48409, 26.0797 ], [ 76.48237, 26.07953 ], [ 76.48028, 26.07749 ], [ 76.47679, 26.07587 ], [ 76.47396, 26.07293 ], [ 76.47539, 26.06959 ], [ 76.47172, 26.06698 ], [ 76.48038, 26.0631 ], [ 76.48462, 26.06008 ], [ 76.48912, 26.05934 ], [ 76.49117, 26.05362 ], [ 76.4947, 26.04875 ], [ 76.49507, 26.04395 ], [ 76.49783, 26.0415 ], [ 76.50066, 26.04083 ], [ 76.50742, 26.03599 ], [ 76.49636, 26.02532 ], [ 76.49172, 26.02276 ], [ 76.48992, 26.02056 ], [ 76.48944, 26.01533 ], [ 76.48602, 26.01184 ], [ 76.48359, 26.01118 ], [ 76.47827, 26.00024 ], [ 76.47332, 25.99444 ], [ 76.46296, 25.98592 ], [ 76.46427, 25.98395 ], [ 76.46983, 25.98299 ], [ 76.47307, 25.97491 ], [ 76.47568, 25.97326 ], [ 76.47592, 25.96953 ], [ 76.47877, 25.96669 ], [ 76.47933, 25.96441 ], [ 76.47751, 25.96155 ], [ 76.4808, 25.95829 ], [ 76.47447, 25.9595 ], [ 76.4737, 25.9588 ], [ 76.4738, 25.95756 ], [ 76.47015, 25.95177 ], [ 76.47001, 25.94944 ], [ 76.47171, 25.94897 ], [ 76.46987, 25.9455 ], [ 76.47115, 25.94419 ], [ 76.45886, 25.93923 ], [ 76.45744, 25.93638 ], [ 76.45779, 25.93559 ], [ 76.4526, 25.92682 ], [ 76.43824, 25.93204 ], [ 76.43693, 25.9327 ], [ 76.43754, 25.93438 ], [ 76.43546, 25.93471 ], [ 76.43188, 25.93341 ], [ 76.42856, 25.93062 ], [ 76.428, 25.92914 ], [ 76.43201, 25.92317 ], [ 76.43299, 25.91914 ], [ 76.4312, 25.90659 ], [ 76.42829, 25.89445 ], [ 76.42725, 25.89195 ], [ 76.42565, 25.89045 ], [ 76.42722, 25.88951 ], [ 76.43156, 25.88982 ], [ 76.43708, 25.89386 ], [ 76.44009, 25.89437 ], [ 76.44303, 25.88825 ], [ 76.4417, 25.88621 ], [ 76.44229, 25.8844 ], [ 76.44692, 25.88089 ], [ 76.45167, 25.8792 ], [ 76.45391, 25.87623 ], [ 76.45636, 25.87479 ], [ 76.45958, 25.87125 ], [ 76.46254, 25.87089 ], [ 76.46438, 25.86917 ], [ 76.46474, 25.86751 ], [ 76.46772, 25.86365 ], [ 76.46054, 25.85763 ], [ 76.45364, 25.85553 ], [ 76.46129, 25.84903 ], [ 76.46226, 25.84919 ], [ 76.46383, 25.84671 ], [ 76.47219, 25.84631 ], [ 76.47992, 25.84243 ], [ 76.47667, 25.84139 ], [ 76.47335, 25.83165 ], [ 76.47817, 25.8217 ], [ 76.47875, 25.81657 ], [ 76.46661, 25.80233 ], [ 76.46337, 25.79773 ], [ 76.46416, 25.79716 ], [ 76.46176, 25.79756 ], [ 76.46099, 25.79509 ], [ 76.45224, 25.78456 ], [ 76.45082, 25.78422 ], [ 76.45109, 25.78286 ], [ 76.45009, 25.78154 ], [ 76.44265, 25.77451 ], [ 76.44154, 25.77471 ], [ 76.44157, 25.77355 ], [ 76.43681, 25.77083 ], [ 76.43187, 25.76931 ], [ 76.41957, 25.76892 ], [ 76.4095, 25.76959 ], [ 76.40471, 25.769 ], [ 76.39962, 25.76488 ], [ 76.39593, 25.7572 ], [ 76.39431, 25.75603 ], [ 76.38672, 25.7537 ], [ 76.37273, 25.75258 ], [ 76.36669, 25.75024 ], [ 76.35626, 25.74107 ], [ 76.34694, 25.74744 ], [ 76.34554, 25.75287 ], [ 76.33595, 25.75824 ], [ 76.33472, 25.76291 ], [ 76.33235, 25.76543 ], [ 76.33293, 25.77007 ], [ 76.33135, 25.77311 ], [ 76.32205, 25.77893 ], [ 76.31946, 25.79385 ], [ 76.316, 25.79759 ], [ 76.31571, 25.80035 ], [ 76.31352, 25.80458 ], [ 76.31421, 25.80632 ], [ 76.31216, 25.81153 ], [ 76.317, 25.81718 ], [ 76.31698, 25.81872 ], [ 76.31422, 25.81957 ], [ 76.31077, 25.8228 ], [ 76.31031, 25.82454 ], [ 76.30575, 25.82591 ], [ 76.3036, 25.82385 ], [ 76.30048, 25.82518 ], [ 76.29638, 25.82556 ], [ 76.2944, 25.82286 ], [ 76.29224, 25.8227 ], [ 76.29148, 25.82109 ], [ 76.28983, 25.8207 ], [ 76.28994, 25.82607 ], [ 76.28771, 25.82924 ], [ 76.28792, 25.83194 ], [ 76.28211, 25.83416 ], [ 76.27882, 25.83693 ], [ 76.27672, 25.83236 ], [ 76.27556, 25.83176 ], [ 76.27589, 25.82985 ], [ 76.27496, 25.82828 ], [ 76.27204, 25.82709 ], [ 76.27029, 25.82543 ], [ 76.26908, 25.81927 ], [ 76.26475, 25.82102 ], [ 76.26194, 25.82113 ], [ 76.25912, 25.82287 ], [ 76.25897, 25.82479 ], [ 76.25697, 25.82535 ], [ 76.25329, 25.82831 ], [ 76.25061, 25.83184 ], [ 76.25086, 25.8345 ], [ 76.24958, 25.83594 ], [ 76.24883, 25.83545 ], [ 76.24459, 25.83765 ], [ 76.24339, 25.83725 ], [ 76.24254, 25.84402 ], [ 76.2409, 25.8468 ], [ 76.22922, 25.8502 ], [ 76.21384, 25.86109 ], [ 76.21137, 25.85983 ], [ 76.21025, 25.86084 ], [ 76.21091, 25.86261 ], [ 76.21055, 25.87516 ], [ 76.21221, 25.87884 ], [ 76.21111, 25.87923 ], [ 76.21087, 25.88313 ], [ 76.21218, 25.88548 ], [ 76.21424, 25.88675 ], [ 76.21307, 25.88795 ], [ 76.21295, 25.89147 ], [ 76.2103, 25.89681 ], [ 76.21043, 25.89792 ], [ 76.20899, 25.89786 ], [ 76.2078, 25.90001 ], [ 76.20764, 25.90265 ], [ 76.20936, 25.90461 ], [ 76.2082, 25.90747 ], [ 76.20719, 25.90788 ], [ 76.20841, 25.91011 ], [ 76.20715, 25.9108 ], [ 76.20873, 25.91533 ], [ 76.20932, 25.91599 ], [ 76.21501, 25.91631 ], [ 76.21805, 25.91605 ], [ 76.22376, 25.91406 ], [ 76.23751, 25.91434 ], [ 76.23968, 25.91607 ], [ 76.241, 25.91882 ], [ 76.24141, 25.92338 ], [ 76.24074, 25.92715 ], [ 76.24107, 25.92871 ], [ 76.24253, 25.92835 ], [ 76.24245, 25.93148 ], [ 76.2381, 25.93228 ], [ 76.23585, 25.93392 ], [ 76.23746, 25.93752 ], [ 76.23839, 25.9445 ], [ 76.24159, 25.95132 ], [ 76.24302, 25.95878 ], [ 76.24519, 25.95915 ], [ 76.24598, 25.9627 ], [ 76.24628, 25.96759 ], [ 76.24278, 25.97357 ], [ 76.24474, 25.98067 ], [ 76.23482, 25.98294 ], [ 76.23898, 25.99372 ], [ 76.24052, 26.00285 ], [ 76.24083, 26.01423 ], [ 76.23999, 26.01482 ], [ 76.24077, 26.02214 ], [ 76.23004, 26.02727 ], [ 76.23707, 26.04201 ], [ 76.2396, 26.05038 ], [ 76.24279, 26.05746 ], [ 76.24716, 26.0561 ], [ 76.26908, 26.05599 ], [ 76.27132, 26.05279 ], [ 76.27481, 26.05291 ], [ 76.27705, 26.06476 ], [ 76.27841, 26.06798 ], [ 76.28395, 26.06743 ], [ 76.28429, 26.0685 ], [ 76.28588, 26.0683 ], [ 76.2863, 26.0691 ], [ 76.28892, 26.06844 ], [ 76.28935, 26.06927 ], [ 76.29436, 26.06864 ], [ 76.30263, 26.07193 ], [ 76.29872, 26.07676 ], [ 76.28805, 26.08367 ], [ 76.28221, 26.08557 ], [ 76.28443, 26.09076 ], [ 76.28624, 26.09095 ], [ 76.28068, 26.09842 ], [ 76.28616, 26.10203 ], [ 76.2892, 26.10578 ], [ 76.28855, 26.10797 ], [ 76.29003, 26.11512 ], [ 76.29436, 26.12737 ], [ 76.29071, 26.12806 ], [ 76.28212, 26.1274 ], [ 76.27735, 26.12811 ], [ 76.27234, 26.13315 ], [ 76.26771, 26.14278 ], [ 76.2674, 26.15492 ], [ 76.26127, 26.16031 ], [ 76.25446, 26.1596 ], [ 76.2522, 26.16061 ], [ 76.25301, 26.1695 ], [ 76.25739, 26.1712 ], [ 76.25872, 26.17341 ], [ 76.2639, 26.17759 ], [ 76.26421, 26.18865 ], [ 76.2619, 26.191 ], [ 76.30126, 26.19707 ], [ 76.31603, 26.20315 ], [ 76.3294, 26.20695 ], [ 76.33617, 26.21131 ], [ 76.34123, 26.21252 ], [ 76.34575, 26.21115 ], [ 76.34939, 26.20905 ], [ 76.36215, 26.19413 ], [ 76.37067, 26.18764 ], [ 76.39083, 26.18568 ], [ 76.39831, 26.18676 ], [ 76.39615, 26.18814 ], [ 76.3957, 26.18938 ], [ 76.39608, 26.19535 ], [ 76.39798, 26.19551 ], [ 76.40169, 26.19881 ], [ 76.40336, 26.19844 ], [ 76.40687, 26.19988 ], [ 76.4106, 26.20022 ], [ 76.41668, 26.19976 ], [ 76.41905, 26.19875 ], [ 76.42087, 26.19968 ], [ 76.42351, 26.19967 ], [ 76.43127, 26.20555 ], [ 76.43103, 26.20624 ], [ 76.45247, 26.2118 ], [ 76.45614, 26.20409 ], [ 76.46035, 26.20566 ], [ 76.46848, 26.20507 ], [ 76.47148, 26.20411 ], [ 76.48003, 26.20516 ], [ 76.48517, 26.20844 ], [ 76.49325, 26.21139 ], [ 76.49605, 26.21403 ], [ 76.50222, 26.2155 ], [ 76.50687, 26.21369 ], [ 76.50907, 26.20901 ], [ 76.51527, 26.20857 ], [ 76.51928, 26.21004 ], [ 76.52335, 26.20993 ], [ 76.53272, 26.20768 ], [ 76.53518, 26.20822 ], [ 76.54243, 26.21215 ], [ 76.56193, 26.2168 ], [ 76.57039, 26.2202 ] ] ] } },
{ "type": "Feature", "properties": { "OBJECTID": 3585, "state_lgd": "08", "state_name": "RAJASTHAN", "district_lgd": "108", "district_name": "SAWAI MADHOPUR", "district_name_source": "district_table", "subdistrict_lgd": "00526N002", "subdistrict_name": "Talawara", "subdistrict_type": "", "name_corrupted": false, "remarks": "", "label_lon": 76.626216206138139, "label_lat": 26.386765065993142 }, "geometry": { "type": "Polygon", "coordinates": [ [ [ 76.63829, 26.47184 ], [ 76.63862, 26.47008 ], [ 76.64056, 26.47032 ], [ 76.64194, 26.46906 ], [ 76.64571, 26.46809 ], [ 76.64717, 26.46422 ], [ 76.64951, 26.46343 ], [ 76.65127, 26.46142 ], [ 76.65239, 26.46153 ], [ 76.65808, 26.45553 ], [ 76.65652, 26.44947 ], [ 76.65601, 26.44182 ], [ 76.65748, 26.43928 ], [ 76.66298, 26.43413 ], [ 76.66295, 26.43317 ], [ 76.66605, 26.43254 ], [ 76.66643, 26.43121 ], [ 76.66738, 26.43167 ], [ 76.66932, 26.42959 ], [ 76.67091, 26.42549 ], [ 76.6736, 26.4238 ], [ 76.67696, 26.41936 ], [ 76.67841, 26.41456 ], [ 76.67969, 26.41339 ], [ 76.68633, 26.41206 ], [ 76.69071, 26.40892 ], [ 76.69844, 26.40506 ], [ 76.70012, 26.40252 ], [ 76.69233, 26.39639 ], [ 76.68426, 26.39422 ], [ 76.67679, 26.38462 ], [ 76.68016, 26.37997 ], [ 76.68414, 26.3705 ], [ 76.68737, 26.36871 ], [ 76.6863, 26.36906 ], [ 76.67836, 26.35763 ], [ 76.67759, 26.35777 ], [ 76.67435, 26.35164 ], [ 76.67567, 26.35184 ], [ 76.66976, 26.35051 ], [ 76.66916, 26.34917 ], [ 76.66192, 26.35196 ], [ 76.65831, 26.3492 ], [ 76.65387, 26.34944 ], [ 76.64828, 26.34802 ], [ 76.63684, 26.34168 ], [ 76.62989, 26.33234 ], [ 76.62725, 26.33017 ], [ 76.62845, 26.3285 ], [ 76.62814, 26.32603 ], [ 76.63121, 26.32084 ], [ 76.6309, 26.31838 ], [ 76.62972, 26.31702 ], [ 76.62684, 26.31742 ], [ 76.62416, 26.31559 ], [ 76.62228, 26.31571 ], [ 76.62212, 26.31792 ], [ 76.62353, 26.32368 ], [ 76.61527, 26.32728 ], [ 76.6136, 26.32947 ], [ 76.61216, 26.32917 ], [ 76.60801, 26.32557 ], [ 76.6059, 26.32572 ], [ 76.60647, 26.33135 ], [ 76.60123, 26.33605 ], [ 76.59677, 26.33361 ], [ 76.59457, 26.33325 ], [ 76.59374, 26.33211 ], [ 76.59422, 26.32914 ], [ 76.59105, 26.32681 ], [ 76.58753, 26.3268 ], [ 76.58274, 26.32237 ], [ 76.58248, 26.32065 ], [ 76.58422, 26.31981 ], [ 76.58496, 26.31828 ], [ 76.58486, 26.3167 ], [ 76.5839, 26.31568 ], [ 76.5794, 26.31528 ], [ 76.57095, 26.31869 ], [ 76.56875, 26.31705 ], [ 76.56573, 26.31695 ], [ 76.56772, 26.32503 ], [ 76.5658, 26.32731 ], [ 76.56672, 26.32848 ], [ 76.56754, 26.32812 ], [ 76.56884, 26.33556 ], [ 76.56311, 26.33866 ], [ 76.56429, 26.33932 ], [ 76.56379, 26.33982 ], [ 76.56733, 26.34426 ], [ 76.56902, 26.34404 ], [ 76.56934, 26.346 ], [ 76.57045, 26.34679 ], [ 76.57149, 26.3558 ], [ 76.56905, 26.36314 ], [ 76.56617, 26.36216 ], [ 76.564, 26.36526 ], [ 76.56442, 26.36743 ], [ 76.57379, 26.37522 ], [ 76.57422, 26.37768 ], [ 76.57279, 26.3789 ], [ 76.57264, 26.38051 ], [ 76.57604, 26.38236 ], [ 76.57837, 26.38152 ], [ 76.58111, 26.38224 ], [ 76.5853, 26.38548 ], [ 76.58429, 26.38827 ], [ 76.58564, 26.39439 ], [ 76.58018, 26.39879 ], [ 76.57819, 26.40234 ], [ 76.57289, 26.40505 ], [ 76.56713, 26.40668 ], [ 76.57184, 26.40695 ], [ 76.57308, 26.40974 ], [ 76.57431, 26.41009 ], [ 76.5794, 26.41659 ], [ 76.58267, 26.423 ], [ 76.58281, 26.42741 ], [ 76.58455, 26.43299 ], [ 76.58661, 26.43174 ], [ 76.59087, 26.43203 ], [ 76.59577, 26.42761 ], [ 76.60281, 26.42776 ], [ 76.60356, 26.42578 ], [ 76.60467, 26.42519 ], [ 76.60823, 26.42621 ], [ 76.60924, 26.42597 ], [ 76.6097, 26.42437 ], [ 76.61156, 26.4237 ], [ 76.61315, 26.42469 ], [ 76.61657, 26.42985 ], [ 76.62035, 26.43282 ], [ 76.6228, 26.43718 ], [ 76.62273, 26.43872 ], [ 76.62, 26.44133 ], [ 76.62507, 26.44256 ], [ 76.62748, 26.44663 ], [ 76.6282, 26.4511 ], [ 76.6311, 26.45319 ], [ 76.63207, 26.45508 ], [ 76.63204, 26.45905 ], [ 76.62857, 26.46413 ], [ 76.62837, 26.4658 ], [ 76.63138, 26.46988 ], [ 76.63427, 26.46966 ], [ 76.6362, 26.47125 ], [ 76.63717, 26.47091 ], [ 76.63829, 26.47184 ] ] ] } },
{ "type": "Feature", "properties": { "OBJECTID": 3586, "state_lgd": "08", "state_name": "RAJASTHAN", "district_lgd": "108", "district_name": "SAWAI MADHOPUR", "district_name_source": "district_table", "subdistrict_lgd": "00526N001", "subdistrict_name": "Wazeerpur", "subdistrict_type": "", "name_corrupted": false, "remarks": "", "label_lon": 76.863232021588388, "label_lat": 26.58186466204344 }, "geometry": { "type": "Polygon", "coordinates": [ [ [ 76.9184, 26.68166 ], [ 76.9228, 26.68018 ], [ 76.92835, 26.67637 ], [ 76.93722, 26.6755 ], [ 76.94279, 26.6717 ], [ 76.94884, 26.6718 ], [ 76.95159, 26.67075 ], [ 76.95254, 26.66905 ], [ 76.95203, 26.66251 ], [ 76.95369, 26.65435 ], [ 76.9538, 26.64967 ], [ 76.95658, 26.64646 ], [ 76.95427, 26.64272 ], [ 76.95762, 26.64001 ], [ 76.95803, 26.63566 ], [ 76.96051, 26.63515 ], [ 76.96021, 26.63024 ], [ 76.9587, 26.62752 ], [ 76.9591, 26.62572 ], [ 76.96144, 26.62467 ], [ 76.96917, 26.62422 ], [ 76.97012, 26.62095 ], [ 76.97539, 26.61813 ], [ 76.97612, 26.61385 ], [ 76.97991, 26.61159 ], [ 76.98024, 26.61014 ], [ 76.97799, 26.60594 ], [ 76.98132, 26.6039 ], [ 76.98129, 26.60209 ], [ 76.97725, 26.60174 ], [ 76.97685, 26.60089 ], [ 76.97791, 26.59864 ], [ 76.97732, 26.59694 ], [ 76.96994, 26.59436 ], [ 76.9631, 26.59012 ], [ 76.95594, 26.58904 ], [ 76.95521, 26.58772 ], [ 76.9454, 26.5877 ], [ 76.93842, 26.5896 ], [ 76.93468, 26.5783 ], [ 76.9346, 26.57507 ], [ 76.93534, 26.57365 ], [ 76.94951, 26.57043 ], [ 76.95269, 26.56882 ], [ 76.96013, 26.57017 ], [ 76.9644, 26.5721 ], [ 76.96833, 26.57151 ], [ 76.96847, 26.56618 ], [ 76.96992, 26.5612 ], [ 76.97249, 26.5587 ], [ 76.97028, 26.55121 ], [ 76.96483, 26.54897 ], [ 76.96296, 26.5492 ], [ 76.95503, 26.54335 ], [ 76.95141, 26.54317 ], [ 76.94928, 26.54152 ], [ 76.94191, 26.54193 ], [ 76.9404, 26.54215 ], [ 76.94044, 26.54587 ], [ 76.93908, 26.54692 ], [ 76.93193, 26.54935 ], [ 76.92824, 26.55188 ], [ 76.92641, 26.55123 ], [ 76.9126, 26.5586 ], [ 76.91151, 26.55751 ], [ 76.90965, 26.55795 ], [ 76.90735, 26.54289 ], [ 76.90782, 26.53843 ], [ 76.90672, 26.53538 ], [ 76.90642, 26.52942 ], [ 76.90544, 26.52804 ], [ 76.90521, 26.52298 ], [ 76.89261, 26.51868 ], [ 76.88702, 26.51857 ], [ 76.88629, 26.51673 ], [ 76.88206, 26.51401 ], [ 76.87694, 26.51349 ], [ 76.87375, 26.5097 ], [ 76.87325, 26.5079 ], [ 76.87048, 26.50974 ], [ 76.86865, 26.50945 ], [ 76.86664, 26.50767 ], [ 76.86449, 26.50183 ], [ 76.8585, 26.50192 ], [ 76.85093, 26.49544 ], [ 76.84892, 26.49278 ], [ 76.84779, 26.49301 ], [ 76.84233, 26.48764 ], [ 76.83804, 26.48569 ], [ 76.83387, 26.48174 ], [ 76.82715, 26.47738 ], [ 76.82216, 26.48093 ], [ 76.81151, 26.48529 ], [ 76.80205, 26.48353 ], [ 76.79725, 26.47956 ], [ 76.79408, 26.48144 ], [ 76.79146, 26.49258 ], [ 76.79194, 26.49751 ], [ 76.79406, 26.49756 ], [ 76.79425, 26.50044 ], [ 76.79311, 26.50222 ], [ 76.79342, 26.5037 ], [ 76.7923, 26.50456 ], [ 76.79835, 26.511 ], [ 76.79945, 26.51118 ], [ 76.80134, 26.51388 ], [ 76.80092, 26.51494 ], [ 76.7949, 26.51854 ], [ 76.79385, 26.52133 ], [ 76.7876, 26.51998 ], [ 76.77926, 26.52025 ], [ 76.76323, 26.52947 ], [ 76.76336, 26.52999 ], [ 76.75928, 26.5315 ], [ 76.75912, 26.53841 ], [ 76.75807, 26.54337 ], [ 76.75527, 26.54993 ], [ 76.75352, 26.55872 ], [ 76.74569, 26.56335 ], [ 76.74586, 26.559 ], [ 76.74435, 26.55556 ], [ 76.73718, 26.55521 ], [ 76.73487, 26.55442 ], [ 76.72999, 26.55484 ], [ 76.72702, 26.55747 ], [ 76.72681, 26.55925 ], [ 76.72532, 26.5594 ], [ 76.72603, 26.56187 ], [ 76.71799, 26.56225 ], [ 76.71546, 26.56143 ], [ 76.70986, 26.56226 ], [ 76.70945, 26.56167 ], [ 76.70666, 26.56267 ], [ 76.70721, 26.56376 ], [ 76.70162, 26.5657 ], [ 76.69619, 26.5661 ], [ 76.69264, 26.56874 ], [ 76.69561, 26.57628 ], [ 76.69584, 26.58 ], [ 76.69994, 26.5789 ], [ 76.70711, 26.5749 ], [ 76.71419, 26.57388 ], [ 76.71908, 26.57415 ], [ 76.7238, 26.57213 ], [ 76.73123, 26.57139 ], [ 76.73313, 26.57283 ], [ 76.74178, 26.57455 ], [ 76.74588, 26.57351 ], [ 76.74554, 26.5716 ], [ 76.75527, 26.56659 ], [ 76.75824, 26.56893 ], [ 76.76047, 26.56781 ], [ 76.77869, 26.58345 ], [ 76.77793, 26.58828 ], [ 76.77854, 26.59922 ], [ 76.79244, 26.59826 ], [ 76.79649, 26.60496 ], [ 76.8019, 26.60993 ], [ 76.82146, 26.63158 ], [ 76.83032, 26.64583 ], [ 76.83128, 26.65182 ], [ 76.84909, 26.64937 ], [ 76.8561, 26.64716 ], [ 76.85819, 26.65408 ], [ 76.86934, 26.66014 ], [ 76.87223, 26.66715 ], [ 76.87582, 26.66512 ], [ 76.87549, 26.66425 ], [ 76.87737, 26.66363 ], [ 76.87832, 26.6663 ], [ 76.87529, 26.66781 ], [ 76.87798, 26.66867 ], [ 76.87897, 26.67075 ], [ 76.88909, 26.66933 ], [ 76.89202, 26.67601 ], [ 76.90023, 26.67752 ], [ 76.91647, 26.68367 ], [ 76.9184, 26.68166 ] ] ] } }
]
}
