{
"type": "FeatureCollection",
"name": "109_DAUSA",
"crs": { "type": "name", "properties": { "name": "urn:ogc:def:crs:OGC:1.3:CRS84" } },
"xy_coordinate_resolution": 1e-05,
"features": [
{ "type": "Feature", "properties": { "OBJECTID": 3344, "state_lgd": "08", "state_name": "RAJASTHAN", "district_lgd": "109", "district_name": "DAUSA", "district_name_source": "district_table", "subdistrict_lgd": "00535N001", "subdistrict_name": "Bahrawanda", "subdistrict_type": "", "name_corrupted": false, "remarks": "", "label_lon": 76.555409404476336, "label_lat": 26.82917700634242 }, "geometry": { "type": "Polygon", "coordinates": [ [ [ 76.52777, 26.89932 ], [ 76.53309, 26.89894 ], [ 76.53214, 26.8983 ], [ 76.54364, 26.88969 ], [ 76.54377, 26.89058 ], [ 76.54714, 26.89095 ], [ 76.5487, 26.89503 ], [ 76.54903, 26.8936 ], [ 76.55017, 26.89289 ], [ 76.55282, 26.89517 ], [ 76.56168, 26.89071 ], [ 76.56417, 26.89732 ], [ 76.5703, 26.89793 ], [ 76.57965, 26.90292 ], [ 76.58011, 26.90378 ], [ 76.58321, 26.90056 ], [ 76.58487, 26.89792 ], [ 76.58487, 26.89653 ], [ 76.58674, 26.89591 ], [ 76.58459, 26.88486 ], [ 76.58221, 26.87973 ], [ 76.58686, 26.87579 ], [ 76.58882, 26.87228 ], [ 76.59128, 26.87234 ], [ 76.5922, 26.87109 ], [ 76.59453, 26.87076 ], [ 76.59603, 26.86838 ], [ 76.59912, 26.86724 ], [ 76.60122, 26.86499 ], [ 76.60368, 26.86465 ], [ 76.60674, 26.86301 ], [ 76.61937, 26.86403 ], [ 76.62204, 26.86194 ], [ 76.62632, 26.8608 ], [ 76.62061, 26.85144 ], [ 76.61924, 26.84613 ], [ 76.61464, 26.84039 ], [ 76.61235, 26.836 ], [ 76.61227, 26.83435 ], [ 76.61582, 26.83458 ], [ 76.6173, 26.83155 ], [ 76.62296, 26.83381 ], [ 76.62727, 26.83698 ], [ 76.62943, 26.83671 ], [ 76.63405, 26.83911 ], [ 76.63475, 26.83561 ], [ 76.63663, 26.83432 ], [ 76.63667, 26.83347 ], [ 76.64748, 26.82646 ], [ 76.64833, 26.82358 ], [ 76.65214, 26.81761 ], [ 76.64907, 26.81368 ], [ 76.64263, 26.80831 ], [ 76.63716, 26.8056 ], [ 76.63495, 26.80543 ], [ 76.6291, 26.80211 ], [ 76.62373, 26.79575 ], [ 76.62218, 26.79256 ], [ 76.61577, 26.79155 ], [ 76.61712, 26.78847 ], [ 76.61606, 26.78565 ], [ 76.6134, 26.78216 ], [ 76.60422, 26.78038 ], [ 76.60223, 26.77794 ], [ 76.59473, 26.77843 ], [ 76.57484, 26.78818 ], [ 76.57412, 26.77989 ], [ 76.56968, 26.77143 ], [ 76.5587, 26.77506 ], [ 76.55411, 26.77778 ], [ 76.54377, 26.77276 ], [ 76.54144, 26.77266 ], [ 76.54067, 26.77853 ], [ 76.53724, 26.78169 ], [ 76.53583, 26.78209 ], [ 76.52247, 26.77193 ], [ 76.51744, 26.77018 ], [ 76.51386, 26.76632 ], [ 76.5093, 26.76366 ], [ 76.49803, 26.75226 ], [ 76.49679, 26.75009 ], [ 76.4934, 26.74773 ], [ 76.49209, 26.75043 ], [ 76.49726, 26.7588 ], [ 76.49836, 26.76918 ], [ 76.50122, 26.77433 ], [ 76.49777, 26.78276 ], [ 76.49581, 26.78314 ], [ 76.49253, 26.78634 ], [ 76.48641, 26.79537 ], [ 76.48255, 26.79858 ], [ 76.47978, 26.80215 ], [ 76.481, 26.80487 ], [ 76.48002, 26.80708 ], [ 76.48544, 26.81503 ], [ 76.48432, 26.81563 ], [ 76.48501, 26.81671 ], [ 76.48432, 26.81894 ], [ 76.48014, 26.82425 ], [ 76.4784, 26.82489 ], [ 76.47935, 26.82611 ], [ 76.47527, 26.82829 ], [ 76.4766, 26.83494 ], [ 76.47792, 26.83702 ], [ 76.48294, 26.84084 ], [ 76.48843, 26.84278 ], [ 76.49228, 26.84255 ], [ 76.49245, 26.84523 ], [ 76.49006, 26.84958 ], [ 76.49782, 26.86106 ], [ 76.50132, 26.86269 ], [ 76.50196, 26.86492 ], [ 76.50159, 26.86743 ], [ 76.51029, 26.87538 ], [ 76.51231, 26.87974 ], [ 76.51862, 26.88412 ], [ 76.52214, 26.90107 ], [ 76.522, 26.90379 ], [ 76.52777, 26.89932 ] ] ] } },
{ "type": "Feature", "properties": { "OBJECTID": 3345, "state_lgd": "08", "state_name": "RAJASTHAN", "district_lgd": "109", "district_name": "DAUSA", "district_name_source": "district_table", "subdistrict_lgd": "00533N001", "subdistrict_name": "Baijupara", "subdistrict_type": "", "name_corrupted": false, "remarks": "", "label_lon": 76.753239635070017, "label_lat": 27.051843242889657 }, "geometry": { "type": "Polygon", "coordinates": [ [ [ 76.79465, 27.13454 ], [ 76.79759, 27.13154 ], [ 76.79686, 27.13092 ], [ 76.79888, 27.12617 ], [ 76.80495, 27.12622 ], [ 76.81012, 27.12421 ], [ 76.8107, 27.12325 ], [ 76.80724, 27.1156 ], [ 76.80668, 27.11192 ], [ 76.80131, 27.10489 ], [ 76.8007, 27.10261 ], [ 76.80157, 27.09994 ], [ 76.80732, 27.09155 ], [ 76.80987, 27.09004 ], [ 76.81009, 27.08069 ], [ 76.81229, 27.08066 ], [ 76.81628, 27.07709 ], [ 76.81986, 27.07717 ], [ 76.82081, 27.07511 ], [ 76.82847, 27.07539 ], [ 76.82193, 27.05685 ], [ 76.81747, 27.04038 ], [ 76.81832, 27.03534 ], [ 76.80969, 27.03574 ], [ 76.78499, 27.04453 ], [ 76.77457, 27.04219 ], [ 76.77134, 27.03854 ], [ 76.77158, 27.03649 ], [ 76.76985, 27.03378 ], [ 76.76323, 27.026 ], [ 76.74946, 27.02378 ], [ 76.74264, 27.02556 ], [ 76.73614, 27.02582 ], [ 76.7367, 27.02379 ], [ 76.73422, 27.02273 ], [ 76.72958, 27.02307 ], [ 76.72874, 27.0201 ], [ 76.73327, 27.01921 ], [ 76.73589, 27.01761 ], [ 76.7485, 27.01646 ], [ 76.75753, 27.01847 ], [ 76.76888, 27.01727 ], [ 76.77295, 27.01346 ], [ 76.77305, 27.01103 ], [ 76.77568, 27.01208 ], [ 76.77959, 27.01211 ], [ 76.78561, 27.01449 ], [ 76.78822, 27.01337 ], [ 76.79258, 27.01414 ], [ 76.81141, 27.01282 ], [ 76.81184, 27.00142 ], [ 76.78144, 27.00671 ], [ 76.78059, 27.00381 ], [ 76.78624, 27.003 ], [ 76.78623, 27.00177 ], [ 76.77638, 27.003 ], [ 76.7736, 27.00159 ], [ 76.7737, 26.99865 ], [ 76.77307, 26.99828 ], [ 76.76356, 26.99666 ], [ 76.75501, 26.99963 ], [ 76.74951, 26.99942 ], [ 76.75047, 26.99468 ], [ 76.75036, 26.99343 ], [ 76.74887, 26.99205 ], [ 76.7477, 26.99293 ], [ 76.74278, 26.98975 ], [ 76.72886, 26.98792 ], [ 76.72092, 26.98272 ], [ 76.71115, 26.97959 ], [ 76.70309, 26.97897 ], [ 76.69672, 26.98095 ], [ 76.69059, 26.98093 ], [ 76.68367, 26.98248 ], [ 76.68103, 26.98218 ], [ 76.68049, 26.98109 ], [ 76.67441, 26.98134 ], [ 76.66807, 26.98333 ], [ 76.66486, 26.98356 ], [ 76.66613, 26.99753 ], [ 76.66658, 26.99848 ], [ 76.66987, 26.9989 ], [ 76.66874, 27.0007 ], [ 76.67192, 27.00136 ], [ 76.67301, 27.00485 ], [ 76.67826, 27.00386 ], [ 76.67835, 27.00682 ], [ 76.68733, 27.00407 ], [ 76.69261, 27.00374 ], [ 76.69768, 27.01241 ], [ 76.69863, 27.01561 ], [ 76.70078, 27.01604 ], [ 76.70244, 27.01357 ], [ 76.70829, 27.01044 ], [ 76.71642, 27.00942 ], [ 76.71667, 27.01385 ], [ 76.71449, 27.01473 ], [ 76.71506, 27.01883 ], [ 76.71324, 27.01899 ], [ 76.71494, 27.0273 ], [ 76.71351, 27.02767 ], [ 76.71648, 27.0355 ], [ 76.71679, 27.03916 ], [ 76.71878, 27.04086 ], [ 76.71939, 27.04263 ], [ 76.71529, 27.04398 ], [ 76.70896, 27.04237 ], [ 76.70936, 27.04763 ], [ 76.7073, 27.04856 ], [ 76.69874, 27.04951 ], [ 76.69692, 27.05702 ], [ 76.7079, 27.06813 ], [ 76.71335, 27.08204 ], [ 76.7172, 27.08812 ], [ 76.71863, 27.09189 ], [ 76.71815, 27.09966 ], [ 76.7197, 27.10673 ], [ 76.72061, 27.10728 ], [ 76.72245, 27.1067 ], [ 76.72301, 27.10812 ], [ 76.72707, 27.10833 ], [ 76.72739, 27.10935 ], [ 76.73051, 27.1095 ], [ 76.75628, 27.10631 ], [ 76.76189, 27.10851 ], [ 76.76309, 27.11004 ], [ 76.76237, 27.11061 ], [ 76.76384, 27.11423 ], [ 76.7661, 27.11307 ], [ 76.76684, 27.11303 ], [ 76.76705, 27.11391 ], [ 76.77285, 27.11274 ], [ 76.77718, 27.11367 ], [ 76.78382, 27.1126 ], [ 76.78715, 27.12418 ], [ 76.78836, 27.12538 ], [ 76.78768, 27.12891 ], [ 76.79283, 27.13904 ], [ 76.79503, 27.1356 ], [ 76.79465, 27.13454 ] ] ] } },
{ "type": "Feature", "properties": { "OBJECTID": 3346, "state_lgd": "08", "state_name": "RAJASTHAN", "district_lgd": "109", "district_name": "DAUSA", "district_name_source": "district_table", "subdistrict_lgd": "00533N002", "subdistrict_name": "Bandikui", "subdistrict_type": "", "name_corrupted": false, "remarks": "", "label_lon": 76.567343744090309, "label_lat": 27.017012698135559 }, "geometry": { "type": "MultiPolygon", "coordinates": [ [ [ [ 76.69858, 27.11462 ], [ 76.7073, 27.11252 ], [ 76.7072, 27.1107 ], [ 76.7197, 27.10673 ], [ 76.71815, 27.09966 ], [ 76.71863, 27.09189 ], [ 76.7172, 27.08812 ], [ 76.71335, 27.08204 ], [ 76.7079, 27.06813 ], [ 76.69692, 27.05702 ], [ 76.69874, 27.04951 ], [ 76.7073, 27.04856 ], [ 76.70936, 27.04763 ], [ 76.70896, 27.04237 ], [ 76.71529, 27.04398 ], [ 76.71939, 27.04263 ], [ 76.71878, 27.04086 ], [ 76.71679, 27.03916 ], [ 76.71648, 27.0355 ], [ 76.71351, 27.02767 ], [ 76.71494, 27.0273 ], [ 76.71324, 27.01899 ], [ 76.71506, 27.01883 ], [ 76.71449, 27.01473 ], [ 76.71667, 27.01385 ], [ 76.71642, 27.00942 ], [ 76.70829, 27.01044 ], [ 76.70244, 27.01357 ], [ 76.70078, 27.01604 ], [ 76.69863, 27.01561 ], [ 76.69768, 27.01241 ], [ 76.69261, 27.00374 ], [ 76.68733, 27.00407 ], [ 76.67835, 27.00682 ], [ 76.67826, 27.00386 ], [ 76.67301, 27.00485 ], [ 76.67192, 27.00136 ], [ 76.66874, 27.0007 ], [ 76.66987, 26.9989 ], [ 76.66658, 26.99848 ], [ 76.66613, 26.99753 ], [ 76.66486, 26.98356 ], [ 76.65765, 26.98346 ], [ 76.64905, 26.98476 ], [ 76.63614, 26.99036 ], [ 76.62841, 26.99149 ], [ 76.61969, 26.98811 ], [ 76.61306, 26.98384 ], [ 76.60975, 26.98263 ], [ 76.60222, 26.98093 ], [ 76.59508, 26.9812 ], [ 76.58751, 26.97795 ], [ 76.57937, 26.97752 ], [ 76.57503, 26.97482 ], [ 76.56744, 26.97217 ], [ 76.57001, 26.96694 ], [ 76.57073, 26.96228 ], [ 76.56752, 26.96295 ], [ 76.56702, 26.96242 ], [ 76.56677, 26.95869 ], [ 76.56549, 26.95545 ], [ 76.56652, 26.95266 ], [ 76.56384, 26.95211 ], [ 76.55651, 26.95292 ], [ 76.55712, 26.94851 ], [ 76.55537, 26.94781 ], [ 76.5566, 26.94433 ], [ 76.55359, 26.94572 ], [ 76.55339, 26.94737 ], [ 76.54917, 26.94928 ], [ 76.54651, 26.95364 ], [ 76.53544, 26.9522 ], [ 76.51865, 26.9519 ], [ 76.51827, 26.94592 ], [ 76.51478, 26.9451 ], [ 76.50635, 26.93997 ], [ 76.50291, 26.94174 ], [ 76.50199, 26.94431 ], [ 76.49627, 26.93959 ], [ 76.4912, 26.93977 ], [ 76.49009, 26.93757 ], [ 76.48403, 26.93192 ], [ 76.48954, 26.92672 ], [ 76.48626, 26.92496 ], [ 76.48609, 26.92421 ], [ 76.48287, 26.92314 ], [ 76.48278, 26.92529 ], [ 76.48126, 26.92799 ], [ 76.47493, 26.93003 ], [ 76.47666, 26.93501 ], [ 76.4781, 26.93498 ], [ 76.48218, 26.94255 ], [ 76.47431, 26.9458 ], [ 76.46587, 26.9479 ], [ 76.45437, 26.94894 ], [ 76.45415, 26.95233 ], [ 76.45136, 26.95534 ], [ 76.45074, 26.95733 ], [ 76.4538, 26.96437 ], [ 76.45049, 26.96476 ], [ 76.44635, 26.9666 ], [ 76.44716, 26.97001 ], [ 76.4478, 26.97017 ], [ 76.4484, 26.97461 ], [ 76.44409, 26.97556 ], [ 76.44434, 26.97744 ], [ 76.45041, 26.97747 ], [ 76.45135, 26.97625 ], [ 76.45068, 26.97442 ], [ 76.45509, 26.97383 ], [ 76.45697, 26.98121 ], [ 76.45227, 26.98219 ], [ 76.45327, 26.98491 ], [ 76.45312, 26.98697 ], [ 76.45586, 26.99203 ], [ 76.4544, 26.99235 ], [ 76.45385, 26.99644 ], [ 76.45182, 26.9971 ], [ 76.45274, 26.99941 ], [ 76.45185, 27.00036 ], [ 76.44842, 26.99986 ], [ 76.44904, 27.00234 ], [ 76.44425, 27.00333 ], [ 76.44443, 27.00543 ], [ 76.44245, 27.00638 ], [ 76.44138, 27.00845 ], [ 76.44155, 27.01005 ], [ 76.44059, 27.0107 ], [ 76.44126, 27.0113 ], [ 76.44035, 27.01206 ], [ 76.44116, 27.01351 ], [ 76.43925, 27.01433 ], [ 76.43743, 27.02151 ], [ 76.43555, 27.02254 ], [ 76.43572, 27.02321 ], [ 76.4327, 27.02391 ], [ 76.4326, 27.0232 ], [ 76.42848, 27.02496 ], [ 76.4301, 27.02736 ], [ 76.43156, 27.03248 ], [ 76.4279, 27.03388 ], [ 76.42907, 27.03985 ], [ 76.4183, 27.05327 ], [ 76.42142, 27.0546 ], [ 76.42856, 27.05373 ], [ 76.4297, 27.05484 ], [ 76.43113, 27.05426 ], [ 76.4331, 27.05135 ], [ 76.43421, 27.05148 ], [ 76.43691, 27.05428 ], [ 76.44463, 27.05214 ], [ 76.45623, 27.03983 ], [ 76.45922, 27.04207 ], [ 76.4654, 27.05171 ], [ 76.47029, 27.05359 ], [ 76.47133, 27.05516 ], [ 76.47332, 27.05489 ], [ 76.47707, 27.05115 ], [ 76.48063, 27.05575 ], [ 76.4815, 27.05538 ], [ 76.48245, 27.05712 ], [ 76.48142, 27.0582 ], [ 76.48477, 27.05678 ], [ 76.48534, 27.05802 ], [ 76.4883, 27.05742 ], [ 76.48993, 27.0591 ], [ 76.49266, 27.05818 ], [ 76.49528, 27.05532 ], [ 76.50069, 27.05163 ], [ 76.50038, 27.046 ], [ 76.49404, 27.04317 ], [ 76.49466, 27.03945 ], [ 76.4964, 27.03688 ], [ 76.49831, 27.03569 ], [ 76.50192, 27.03571 ], [ 76.50346, 27.03708 ], [ 76.50592, 27.03762 ], [ 76.50875, 27.04018 ], [ 76.51995, 27.05731 ], [ 76.52501, 27.05697 ], [ 76.52316, 27.0533 ], [ 76.52791, 27.05184 ], [ 76.52877, 27.05166 ], [ 76.5296, 27.0544 ], [ 76.5327, 27.05384 ], [ 76.53245, 27.05975 ], [ 76.53642, 27.06006 ], [ 76.53749, 27.06455 ], [ 76.53881, 27.06488 ], [ 76.53771, 27.06517 ], [ 76.53871, 27.06785 ], [ 76.54114, 27.06799 ], [ 76.54213, 27.06884 ], [ 76.54454, 27.07303 ], [ 76.54859, 27.07152 ], [ 76.5487, 27.07087 ], [ 76.55273, 27.0707 ], [ 76.55423, 27.06761 ], [ 76.56775, 27.0714 ], [ 76.56748, 27.07722 ], [ 76.56808, 27.07735 ], [ 76.57034, 27.0671 ], [ 76.57411, 27.06602 ], [ 76.57446, 27.06484 ], [ 76.58073, 27.06411 ], [ 76.58599, 27.0624 ], [ 76.58583, 27.06077 ], [ 76.58929, 27.05633 ], [ 76.59203, 27.05772 ], [ 76.59848, 27.05605 ], [ 76.60199, 27.05687 ], [ 76.60605, 27.06507 ], [ 76.61014, 27.06449 ], [ 76.61095, 27.06564 ], [ 76.61706, 27.06516 ], [ 76.62673, 27.06111 ], [ 76.63312, 27.05748 ], [ 76.63264, 27.05895 ], [ 76.63868, 27.0571 ], [ 76.64476, 27.04918 ], [ 76.65254, 27.05679 ], [ 76.65514, 27.05591 ], [ 76.65837, 27.05057 ], [ 76.65999, 27.04998 ], [ 76.6669, 27.05594 ], [ 76.6732, 27.0535 ], [ 76.67378, 27.05465 ], [ 76.6731, 27.05729 ], [ 76.67382, 27.05922 ], [ 76.6749, 27.05982 ], [ 76.68069, 27.057 ], [ 76.68528, 27.05963 ], [ 76.68688, 27.05974 ], [ 76.6905, 27.05617 ], [ 76.69222, 27.05717 ], [ 76.69324, 27.06559 ], [ 76.69528, 27.06918 ], [ 76.69731, 27.0784 ], [ 76.69489, 27.07893 ], [ 76.69774, 27.09387 ], [ 76.69574, 27.09405 ], [ 76.69502, 27.09108 ], [ 76.69325, 27.08958 ], [ 76.69153, 27.0899 ], [ 76.69003, 27.08885 ], [ 76.68679, 27.08963 ], [ 76.68295, 27.0886 ], [ 76.68028, 27.08975 ], [ 76.67974, 27.08878 ], [ 76.68061, 27.08776 ], [ 76.68, 27.0872 ], [ 76.6762, 27.08857 ], [ 76.67357, 27.08567 ], [ 76.66846, 27.0851 ], [ 76.6679, 27.08824 ], [ 76.66894, 27.09017 ], [ 76.66471, 27.09193 ], [ 76.66802, 27.09847 ], [ 76.67084, 27.11065 ], [ 76.67414, 27.11057 ], [ 76.67573, 27.11271 ], [ 76.67827, 27.11219 ], [ 76.68079, 27.11401 ], [ 76.68455, 27.11247 ], [ 76.68498, 27.1139 ], [ 76.68788, 27.113 ], [ 76.69096, 27.11377 ], [ 76.69355, 27.11301 ], [ 76.69471, 27.11437 ], [ 76.69809, 27.11396 ], [ 76.69858, 27.11462 ] ] ], [ [ [ 76.68895, 27.11504 ], [ 76.68753, 27.11505 ], [ 76.68708, 27.11421 ], [ 76.68627, 27.11463 ], [ 76.68681, 27.11778 ], [ 76.68954, 27.11696 ], [ 76.68895, 27.11504 ] ] ] ] } },
{ "type": "Feature", "properties": { "OBJECTID": 3347, "state_lgd": "08", "state_name": "RAJASTHAN", "district_lgd": "109", "district_name": "DAUSA", "district_name_source": "district_table", "subdistrict_lgd": "00533", "subdistrict_name": "Baswa", "subdistrict_type": "", "name_corrupted": false, "remarks": "", "label_lon": 76.540508425718386, "label_lat": 27.096247972729955 }, "geometry": { "type": "Polygon", "coordinates": [ [ [ 76.58389, 27.17666 ], [ 76.59296, 27.17351 ], [ 76.59359, 27.17458 ], [ 76.59467, 27.17417 ], [ 76.59813, 27.17622 ], [ 76.60086, 27.17456 ], [ 76.60224, 27.17585 ], [ 76.60493, 27.17464 ], [ 76.60734, 27.17697 ], [ 76.61354, 27.17432 ], [ 76.6186, 27.17098 ], [ 76.62726, 27.17009 ], [ 76.62895, 27.16948 ], [ 76.63137, 27.16687 ], [ 76.63891, 27.16664 ], [ 76.64056, 27.16534 ], [ 76.64562, 27.16404 ], [ 76.64429, 27.1617 ], [ 76.62865, 27.14756 ], [ 76.62657, 27.14393 ], [ 76.62139, 27.1399 ], [ 76.62201, 27.13722 ], [ 76.62006, 27.13527 ], [ 76.61976, 27.13333 ], [ 76.61848, 27.13165 ], [ 76.61897, 27.12883 ], [ 76.61701, 27.1273 ], [ 76.62052, 27.12497 ], [ 76.62679, 27.12359 ], [ 76.62728, 27.12068 ], [ 76.62713, 27.11817 ], [ 76.62463, 27.11451 ], [ 76.62548, 27.1121 ], [ 76.62125, 27.1076 ], [ 76.62434, 27.10757 ], [ 76.63125, 27.10296 ], [ 76.62785, 27.09892 ], [ 76.63009, 27.09485 ], [ 76.63649, 27.09198 ], [ 76.65011, 27.09482 ], [ 76.65196, 27.09671 ], [ 76.65823, 27.09371 ], [ 76.66894, 27.09017 ], [ 76.6679, 27.08824 ], [ 76.66846, 27.0851 ], [ 76.67357, 27.08567 ], [ 76.6762, 27.08857 ], [ 76.68, 27.0872 ], [ 76.68061, 27.08776 ], [ 76.67974, 27.08878 ], [ 76.68028, 27.08975 ], [ 76.68295, 27.0886 ], [ 76.68679, 27.08963 ], [ 76.69003, 27.08885 ], [ 76.69153, 27.0899 ], [ 76.69373, 27.08973 ], [ 76.69502, 27.09108 ], [ 76.69574, 27.09405 ], [ 76.69741, 27.09414 ], [ 76.69489, 27.07893 ], [ 76.69731, 27.0784 ], [ 76.69528, 27.06918 ], [ 76.69324, 27.06559 ], [ 76.69188, 27.05683 ], [ 76.68992, 27.05635 ], [ 76.68688, 27.05974 ], [ 76.68528, 27.05963 ], [ 76.68069, 27.057 ], [ 76.6749, 27.05982 ], [ 76.67382, 27.05922 ], [ 76.6731, 27.05729 ], [ 76.67378, 27.05465 ], [ 76.6732, 27.0535 ], [ 76.6669, 27.05594 ], [ 76.65999, 27.04998 ], [ 76.65837, 27.05057 ], [ 76.65475, 27.05624 ], [ 76.65196, 27.0567 ], [ 76.64476, 27.04918 ], [ 76.63868, 27.0571 ], [ 76.63264, 27.05895 ], [ 76.63312, 27.05748 ], [ 76.62673, 27.06111 ], [ 76.61706, 27.06516 ], [ 76.61095, 27.06564 ], [ 76.61014, 27.06449 ], [ 76.60605, 27.06507 ], [ 76.60199, 27.05687 ], [ 76.59848, 27.05605 ], [ 76.59203, 27.05772 ], [ 76.58929, 27.05633 ], [ 76.58583, 27.06077 ], [ 76.58599, 27.0624 ], [ 76.58073, 27.06411 ], [ 76.57446, 27.06484 ], [ 76.57411, 27.06602 ], [ 76.57034, 27.0671 ], [ 76.56808, 27.07735 ], [ 76.56748, 27.07722 ], [ 76.56775, 27.0714 ], [ 76.55423, 27.06761 ], [ 76.55273, 27.0707 ], [ 76.5487, 27.07087 ], [ 76.54859, 27.07152 ], [ 76.54454, 27.07303 ], [ 76.54213, 27.06884 ], [ 76.54114, 27.06799 ], [ 76.53871, 27.06785 ], [ 76.53771, 27.06517 ], [ 76.53881, 27.06488 ], [ 76.53749, 27.06455 ], [ 76.53642, 27.06006 ], [ 76.53245, 27.05975 ], [ 76.5327, 27.05384 ], [ 76.5296, 27.0544 ], [ 76.52877, 27.05166 ], [ 76.52791, 27.05184 ], [ 76.52316, 27.0533 ], [ 76.52501, 27.05697 ], [ 76.51995, 27.05731 ], [ 76.50875, 27.04018 ], [ 76.50592, 27.03762 ], [ 76.50346, 27.03708 ], [ 76.50192, 27.03571 ], [ 76.49831, 27.03569 ], [ 76.4964, 27.03688 ], [ 76.49466, 27.03945 ], [ 76.49404, 27.04317 ], [ 76.50038, 27.046 ], [ 76.50069, 27.05163 ], [ 76.49528, 27.05532 ], [ 76.49266, 27.05818 ], [ 76.48993, 27.0591 ], [ 76.4883, 27.05742 ], [ 76.48534, 27.05802 ], [ 76.48477, 27.05678 ], [ 76.48142, 27.0582 ], [ 76.48245, 27.05712 ], [ 76.4815, 27.05538 ], [ 76.48063, 27.05575 ], [ 76.47707, 27.05115 ], [ 76.47332, 27.05489 ], [ 76.47133, 27.05516 ], [ 76.47029, 27.05359 ], [ 76.4654, 27.05171 ], [ 76.45922, 27.04207 ], [ 76.45623, 27.03983 ], [ 76.44463, 27.05214 ], [ 76.43691, 27.05428 ], [ 76.43421, 27.05148 ], [ 76.4331, 27.05135 ], [ 76.43028, 27.05479 ], [ 76.42856, 27.05373 ], [ 76.42142, 27.0546 ], [ 76.4183, 27.05327 ], [ 76.41849, 27.05269 ], [ 76.42907, 27.03985 ], [ 76.4281, 27.03738 ], [ 76.4279, 27.03282 ], [ 76.42633, 27.03301 ], [ 76.42536, 27.02892 ], [ 76.42414, 27.02896 ], [ 76.41957, 27.02981 ], [ 76.41489, 27.03221 ], [ 76.41526, 27.03365 ], [ 76.41384, 27.03378 ], [ 76.41422, 27.03872 ], [ 76.41524, 27.03872 ], [ 76.41527, 27.04065 ], [ 76.40817, 27.04105 ], [ 76.40575, 27.04587 ], [ 76.40311, 27.04569 ], [ 76.40227, 27.0473 ], [ 76.38913, 27.04767 ], [ 76.38608, 27.06041 ], [ 76.37595, 27.06983 ], [ 76.36954, 27.07226 ], [ 76.37502, 27.07646 ], [ 76.37795, 27.07551 ], [ 76.38048, 27.07652 ], [ 76.38155, 27.07439 ], [ 76.38261, 27.07457 ], [ 76.38342, 27.07591 ], [ 76.38117, 27.07738 ], [ 76.38026, 27.08006 ], [ 76.38238, 27.08183 ], [ 76.38319, 27.08184 ], [ 76.38474, 27.07935 ], [ 76.38685, 27.07991 ], [ 76.38886, 27.07815 ], [ 76.3907, 27.07877 ], [ 76.38994, 27.08166 ], [ 76.38801, 27.08157 ], [ 76.3875, 27.08244 ], [ 76.38794, 27.08309 ], [ 76.39141, 27.08333 ], [ 76.39197, 27.08532 ], [ 76.39282, 27.08578 ], [ 76.38975, 27.08597 ], [ 76.38978, 27.09296 ], [ 76.39417, 27.10283 ], [ 76.39644, 27.10302 ], [ 76.39676, 27.10918 ], [ 76.39582, 27.11336 ], [ 76.39643, 27.1157 ], [ 76.39885, 27.11884 ], [ 76.39688, 27.12148 ], [ 76.39689, 27.12366 ], [ 76.39787, 27.12454 ], [ 76.40296, 27.12689 ], [ 76.40852, 27.12674 ], [ 76.4134, 27.12776 ], [ 76.41488, 27.12949 ], [ 76.41976, 27.12956 ], [ 76.42477, 27.12832 ], [ 76.42454, 27.11828 ], [ 76.42496, 27.11442 ], [ 76.42667, 27.11015 ], [ 76.42615, 27.10354 ], [ 76.42964, 27.09286 ], [ 76.43265, 27.08829 ], [ 76.43775, 27.08298 ], [ 76.43957, 27.08458 ], [ 76.447, 27.0777 ], [ 76.45463, 27.07567 ], [ 76.46295, 27.08299 ], [ 76.46331, 27.08744 ], [ 76.46508, 27.08887 ], [ 76.46783, 27.08905 ], [ 76.46963, 27.09578 ], [ 76.47376, 27.09741 ], [ 76.47577, 27.10324 ], [ 76.47874, 27.10659 ], [ 76.47955, 27.10916 ], [ 76.48499, 27.11159 ], [ 76.48731, 27.11345 ], [ 76.49237, 27.11497 ], [ 76.50173, 27.1163 ], [ 76.51294, 27.11381 ], [ 76.51827, 27.11898 ], [ 76.52182, 27.12442 ], [ 76.5264, 27.12454 ], [ 76.52762, 27.12775 ], [ 76.52992, 27.12661 ], [ 76.53565, 27.12795 ], [ 76.53683, 27.12746 ], [ 76.53826, 27.13079 ], [ 76.54651, 27.12518 ], [ 76.54824, 27.12962 ], [ 76.54719, 27.1327 ], [ 76.55221, 27.13895 ], [ 76.54833, 27.14278 ], [ 76.54882, 27.14483 ], [ 76.54811, 27.14625 ], [ 76.54707, 27.14686 ], [ 76.54658, 27.1453 ], [ 76.54434, 27.14714 ], [ 76.54406, 27.14857 ], [ 76.54626, 27.15273 ], [ 76.5457, 27.15349 ], [ 76.54637, 27.15508 ], [ 76.5473, 27.15526 ], [ 76.54787, 27.15709 ], [ 76.55, 27.15705 ], [ 76.55145, 27.15942 ], [ 76.55194, 27.16121 ], [ 76.55045, 27.16256 ], [ 76.55086, 27.16396 ], [ 76.55025, 27.16476 ], [ 76.55309, 27.17228 ], [ 76.55694, 27.17001 ], [ 76.56083, 27.16987 ], [ 76.56115, 27.16844 ], [ 76.56348, 27.16816 ], [ 76.56389, 27.16919 ], [ 76.56789, 27.16833 ], [ 76.56716, 27.17564 ], [ 76.57166, 27.17519 ], [ 76.57352, 27.17607 ], [ 76.57701, 27.17547 ], [ 76.57719, 27.17345 ], [ 76.57905, 27.17328 ], [ 76.58024, 27.17339 ], [ 76.58035, 27.17537 ], [ 76.58159, 27.17542 ], [ 76.58173, 27.17612 ], [ 76.5836, 27.17587 ], [ 76.58389, 27.17666 ] ] ] } },
{ "type": "Feature", "properties": { "OBJECTID": 3348, "state_lgd": "08", "state_name": "RAJASTHAN", "district_lgd": "109", "district_name": "DAUSA", "district_name_source": "district_table", "subdistrict_lgd": "00536N004", "subdistrict_name": "Bhandarej", "subdistrict_type": "", "name_corrupted": false, "remarks": "", "label_lon": 76.446411158174428, "label_lat": 26.879789913564125 }, "geometry": { "type": "Polygon", "coordinates": [ [ [ 76.43555, 26.96274 ], [ 76.4538, 26.96437 ], [ 76.45085, 26.95622 ], [ 76.45415, 26.95233 ], [ 76.45437, 26.94894 ], [ 76.46587, 26.9479 ], [ 76.47431, 26.9458 ], [ 76.48218, 26.94255 ], [ 76.4781, 26.93498 ], [ 76.47666, 26.93501 ], [ 76.47493, 26.93003 ], [ 76.48126, 26.92799 ], [ 76.48278, 26.92529 ], [ 76.48287, 26.92314 ], [ 76.48609, 26.92421 ], [ 76.48891, 26.9219 ], [ 76.48954, 26.91938 ], [ 76.49296, 26.91598 ], [ 76.50216, 26.91299 ], [ 76.50975, 26.90761 ], [ 76.51889, 26.90735 ], [ 76.51996, 26.90498 ], [ 76.5217, 26.90443 ], [ 76.52232, 26.90235 ], [ 76.51849, 26.88387 ], [ 76.51231, 26.87974 ], [ 76.51029, 26.87538 ], [ 76.50159, 26.86743 ], [ 76.50196, 26.86492 ], [ 76.50132, 26.86269 ], [ 76.49782, 26.86106 ], [ 76.49006, 26.84958 ], [ 76.49245, 26.84523 ], [ 76.49228, 26.84255 ], [ 76.48843, 26.84278 ], [ 76.48294, 26.84084 ], [ 76.47792, 26.83702 ], [ 76.4766, 26.83494 ], [ 76.47527, 26.82829 ], [ 76.47935, 26.82611 ], [ 76.4784, 26.82489 ], [ 76.48014, 26.82425 ], [ 76.48432, 26.81894 ], [ 76.48501, 26.81671 ], [ 76.48432, 26.81563 ], [ 76.48544, 26.81503 ], [ 76.47997, 26.80667 ], [ 76.47359, 26.80779 ], [ 76.47085, 26.81379 ], [ 76.46991, 26.8123 ], [ 76.46656, 26.81113 ], [ 76.46032, 26.80317 ], [ 76.45651, 26.80335 ], [ 76.45534, 26.80438 ], [ 76.45511, 26.80813 ], [ 76.45317, 26.81034 ], [ 76.45092, 26.81535 ], [ 76.44747, 26.81608 ], [ 76.44414, 26.8133 ], [ 76.44136, 26.81585 ], [ 76.44036, 26.81858 ], [ 76.4407, 26.82031 ], [ 76.4369, 26.82408 ], [ 76.43454, 26.83027 ], [ 76.4364, 26.83629 ], [ 76.43554, 26.84149 ], [ 76.43596, 26.84299 ], [ 76.44255, 26.84316 ], [ 76.44553, 26.85102 ], [ 76.44601, 26.86006 ], [ 76.43922, 26.86511 ], [ 76.43112, 26.86521 ], [ 76.42135, 26.86746 ], [ 76.42036, 26.86363 ], [ 76.41461, 26.85074 ], [ 76.41498, 26.84862 ], [ 76.41427, 26.84594 ], [ 76.41301, 26.84619 ], [ 76.41212, 26.84527 ], [ 76.40459, 26.84764 ], [ 76.40474, 26.84815 ], [ 76.4011, 26.84824 ], [ 76.40008, 26.84547 ], [ 76.40174, 26.84448 ], [ 76.40015, 26.83643 ], [ 76.39381, 26.83825 ], [ 76.39216, 26.83996 ], [ 76.38944, 26.84012 ], [ 76.38205, 26.83269 ], [ 76.3811, 26.83275 ], [ 76.3812, 26.83522 ], [ 76.37602, 26.83606 ], [ 76.37376, 26.83427 ], [ 76.37181, 26.83469 ], [ 76.36116, 26.83001 ], [ 76.35648, 26.83214 ], [ 76.35475, 26.83211 ], [ 76.35303, 26.84502 ], [ 76.35374, 26.85203 ], [ 76.35452, 26.85246 ], [ 76.35438, 26.85695 ], [ 76.3557, 26.85712 ], [ 76.35629, 26.86289 ], [ 76.36051, 26.86511 ], [ 76.36385, 26.85985 ], [ 76.36533, 26.85865 ], [ 76.36655, 26.85966 ], [ 76.36955, 26.85586 ], [ 76.37181, 26.8572 ], [ 76.37546, 26.85758 ], [ 76.37697, 26.85933 ], [ 76.37623, 26.86294 ], [ 76.36449, 26.86948 ], [ 76.36504, 26.87185 ], [ 76.36299, 26.87294 ], [ 76.36269, 26.87439 ], [ 76.366, 26.87521 ], [ 76.37136, 26.87504 ], [ 76.37815, 26.87234 ], [ 76.38586, 26.87206 ], [ 76.38908, 26.87284 ], [ 76.39007, 26.87484 ], [ 76.39597, 26.87649 ], [ 76.38684, 26.88017 ], [ 76.38441, 26.88588 ], [ 76.38775, 26.88808 ], [ 76.3896, 26.88807 ], [ 76.39085, 26.88977 ], [ 76.39279, 26.88889 ], [ 76.39832, 26.897 ], [ 76.39991, 26.89705 ], [ 76.40478, 26.90057 ], [ 76.40622, 26.9006 ], [ 76.40789, 26.90389 ], [ 76.41165, 26.90479 ], [ 76.41026, 26.90701 ], [ 76.41158, 26.90739 ], [ 76.41166, 26.90815 ], [ 76.41483, 26.90829 ], [ 76.41543, 26.90896 ], [ 76.41616, 26.90998 ], [ 76.41596, 26.91314 ], [ 76.41685, 26.91584 ], [ 76.44343, 26.92073 ], [ 76.44541, 26.92499 ], [ 76.44265, 26.92543 ], [ 76.44105, 26.92441 ], [ 76.43964, 26.92543 ], [ 76.43844, 26.92404 ], [ 76.43424, 26.92503 ], [ 76.43814, 26.93398 ], [ 76.43336, 26.93803 ], [ 76.43326, 26.94022 ], [ 76.43109, 26.94147 ], [ 76.43289, 26.94326 ], [ 76.43505, 26.94815 ], [ 76.43437, 26.95594 ], [ 76.43555, 26.96274 ] ] ] } },
{ "type": "Feature", "properties": { "OBJECTID": 3349, "state_lgd": "08", "state_name": "RAJASTHAN", "district_lgd": "109", "district_name": "DAUSA", "district_name_source": "district_table", "subdistrict_lgd": "00536", "subdistrict_name": "Dausa", "subdistrict_type": "", "name_corrupted": false, "remarks": "", "label_lon": 76.317269929708416, "label_lat": 26.926079680301839 }, "geometry": { "type": "Polygon", "coordinates": [ [ [ 76.23716, 27.0104 ], [ 76.2477, 27.00432 ], [ 76.24817, 27.00233 ], [ 76.25062, 27.00134 ], [ 76.25113, 27.0027 ], [ 76.25276, 27.00235 ], [ 76.25391, 27.00468 ], [ 76.26749, 27.0023 ], [ 76.26814, 27.00346 ], [ 76.27217, 27.00164 ], [ 76.27232, 26.99888 ], [ 76.27052, 26.99511 ], [ 76.27069, 26.99353 ], [ 76.27503, 26.99076 ], [ 76.27343, 26.98249 ], [ 76.26909, 26.97445 ], [ 76.27429, 26.97051 ], [ 76.2798, 26.96787 ], [ 76.28315, 26.96836 ], [ 76.28772, 26.97226 ], [ 76.29199, 26.97376 ], [ 76.29748, 26.97965 ], [ 76.30633, 26.98373 ], [ 76.33011, 26.98778 ], [ 76.33779, 26.98785 ], [ 76.34175, 26.98622 ], [ 76.34492, 26.98288 ], [ 76.34723, 26.97844 ], [ 76.35055, 26.97504 ], [ 76.35483, 26.97559 ], [ 76.35632, 26.97438 ], [ 76.35794, 26.97183 ], [ 76.35994, 26.96389 ], [ 76.36353, 26.96028 ], [ 76.36735, 26.95855 ], [ 76.37559, 26.95681 ], [ 76.37635, 26.95277 ], [ 76.38984, 26.95153 ], [ 76.39068, 26.95327 ], [ 76.39349, 26.95366 ], [ 76.39871, 26.95285 ], [ 76.41102, 26.95284 ], [ 76.41214, 26.95614 ], [ 76.41629, 26.96187 ], [ 76.41996, 26.96902 ], [ 76.41838, 26.97036 ], [ 76.42065, 26.97172 ], [ 76.42235, 26.97181 ], [ 76.42346, 26.96978 ], [ 76.42621, 26.96872 ], [ 76.42662, 26.95333 ], [ 76.43228, 26.95323 ], [ 76.43482, 26.95227 ], [ 76.43483, 26.94733 ], [ 76.43289, 26.94326 ], [ 76.43109, 26.94147 ], [ 76.43326, 26.94022 ], [ 76.43336, 26.93803 ], [ 76.43816, 26.9339 ], [ 76.43424, 26.92503 ], [ 76.43844, 26.92404 ], [ 76.43964, 26.92543 ], [ 76.44105, 26.92441 ], [ 76.44265, 26.92543 ], [ 76.4458, 26.92474 ], [ 76.44336, 26.92065 ], [ 76.41685, 26.91584 ], [ 76.41596, 26.91314 ], [ 76.41616, 26.90998 ], [ 76.41543, 26.90896 ], [ 76.41483, 26.90829 ], [ 76.41166, 26.90815 ], [ 76.41158, 26.90739 ], [ 76.41026, 26.90701 ], [ 76.41165, 26.90479 ], [ 76.40789, 26.90389 ], [ 76.40622, 26.9006 ], [ 76.40478, 26.90057 ], [ 76.39991, 26.89705 ], [ 76.39832, 26.897 ], [ 76.39279, 26.88889 ], [ 76.39085, 26.88977 ], [ 76.3896, 26.88807 ], [ 76.38775, 26.88808 ], [ 76.38441, 26.88588 ], [ 76.38684, 26.88017 ], [ 76.39597, 26.87649 ], [ 76.39007, 26.87484 ], [ 76.38908, 26.87284 ], [ 76.38586, 26.87206 ], [ 76.37815, 26.87234 ], [ 76.37136, 26.87504 ], [ 76.36298, 26.87466 ], [ 76.36299, 26.87294 ], [ 76.36504, 26.87185 ], [ 76.36449, 26.86948 ], [ 76.37623, 26.86294 ], [ 76.37693, 26.85926 ], [ 76.37546, 26.85758 ], [ 76.37181, 26.8572 ], [ 76.36947, 26.85588 ], [ 76.36655, 26.85966 ], [ 76.36533, 26.85865 ], [ 76.36385, 26.85985 ], [ 76.36051, 26.86511 ], [ 76.35624, 26.86281 ], [ 76.3557, 26.85712 ], [ 76.35438, 26.85695 ], [ 76.35452, 26.85246 ], [ 76.35374, 26.85203 ], [ 76.35343, 26.84866 ], [ 76.35083, 26.84921 ], [ 76.35065, 26.85143 ], [ 76.34446, 26.85101 ], [ 76.34376, 26.84638 ], [ 76.34177, 26.84595 ], [ 76.34155, 26.84312 ], [ 76.3398, 26.84314 ], [ 76.3398, 26.84481 ], [ 76.33652, 26.84527 ], [ 76.3364, 26.84618 ], [ 76.33491, 26.84641 ], [ 76.33507, 26.84784 ], [ 76.33408, 26.84804 ], [ 76.33364, 26.84992 ], [ 76.33388, 26.85171 ], [ 76.33625, 26.85222 ], [ 76.33539, 26.85393 ], [ 76.33693, 26.85447 ], [ 76.33788, 26.858 ], [ 76.33517, 26.85965 ], [ 76.33279, 26.85922 ], [ 76.33286, 26.86077 ], [ 76.3316, 26.86132 ], [ 76.32858, 26.86088 ], [ 76.32257, 26.85408 ], [ 76.3165, 26.85437 ], [ 76.31483, 26.84988 ], [ 76.3075, 26.85198 ], [ 76.31243, 26.85868 ], [ 76.30907, 26.86094 ], [ 76.29844, 26.86395 ], [ 76.29539, 26.8656 ], [ 76.29503, 26.86652 ], [ 76.29421, 26.86598 ], [ 76.29275, 26.86698 ], [ 76.29391, 26.86966 ], [ 76.29899, 26.87305 ], [ 76.30059, 26.87713 ], [ 76.30129, 26.88339 ], [ 76.29478, 26.8839 ], [ 76.28873, 26.8757 ], [ 76.28574, 26.87585 ], [ 76.28386, 26.87472 ], [ 76.27153, 26.87643 ], [ 76.26985, 26.87151 ], [ 76.25501, 26.87325 ], [ 76.25488, 26.8722 ], [ 76.25219, 26.87215 ], [ 76.24909, 26.87275 ], [ 76.24789, 26.87406 ], [ 76.24563, 26.8741 ], [ 76.24579, 26.87585 ], [ 76.23776, 26.87752 ], [ 76.23804, 26.87862 ], [ 76.23667, 26.87901 ], [ 76.23693, 26.88042 ], [ 76.23421, 26.8811 ], [ 76.23476, 26.89099 ], [ 76.23622, 26.89437 ], [ 76.22348, 26.89769 ], [ 76.22405, 26.9 ], [ 76.22224, 26.90023 ], [ 76.22364, 26.90279 ], [ 76.22401, 26.90584 ], [ 76.21688, 26.90873 ], [ 76.21895, 26.90906 ], [ 76.2197, 26.91232 ], [ 76.21897, 26.91253 ], [ 76.22049, 26.91593 ], [ 76.21896, 26.91615 ], [ 76.21959, 26.91896 ], [ 76.22743, 26.91566 ], [ 76.23016, 26.9194 ], [ 76.23082, 26.92176 ], [ 76.23674, 26.92547 ], [ 76.23695, 26.92953 ], [ 76.23833, 26.93275 ], [ 76.23453, 26.9336 ], [ 76.23489, 26.9349 ], [ 76.23408, 26.93505 ], [ 76.23325, 26.93312 ], [ 76.22859, 26.93428 ], [ 76.23301, 26.94502 ], [ 76.23398, 26.94492 ], [ 76.23359, 26.94395 ], [ 76.23479, 26.94356 ], [ 76.23451, 26.94294 ], [ 76.23546, 26.94281 ], [ 76.23591, 26.94388 ], [ 76.23676, 26.94353 ], [ 76.23712, 26.94213 ], [ 76.23864, 26.94195 ], [ 76.23883, 26.94257 ], [ 76.24505, 26.94132 ], [ 76.24604, 26.94177 ], [ 76.24772, 26.94676 ], [ 76.24625, 26.9472 ], [ 76.24644, 26.94892 ], [ 76.24267, 26.95013 ], [ 76.23275, 26.95049 ], [ 76.22598, 26.95232 ], [ 76.22634, 26.95406 ], [ 76.22201, 26.95428 ], [ 76.22165, 26.95509 ], [ 76.22416, 26.96495 ], [ 76.22455, 26.97476 ], [ 76.22373, 26.98114 ], [ 76.22614, 26.98708 ], [ 76.23087, 27.00768 ], [ 76.23573, 27.0075 ], [ 76.23716, 27.0104 ] ] ] } },
{ "type": "Feature", "properties": { "OBJECTID": 3350, "state_lgd": "08", "state_name": "RAJASTHAN", "district_lgd": "109", "district_name": "DAUSA", "district_name_source": "district_table", "subdistrict_lgd": "00536N005", "subdistrict_name": "Kundal", "subdistrict_type": "", "name_corrupted": false, "remarks": "", "label_lon": 76.402980770210448, "label_lat": 26.99855676180669 }, "geometry": { "type": "Polygon", "coordinates": [ [ [ 76.38913, 27.04767 ], [ 76.40227, 27.0473 ], [ 76.40311, 27.04569 ], [ 76.40575, 27.04587 ], [ 76.40817, 27.04105 ], [ 76.41527, 27.04065 ], [ 76.41524, 27.03872 ], [ 76.41422, 27.03872 ], [ 76.41384, 27.03378 ], [ 76.41526, 27.03365 ], [ 76.41489, 27.03221 ], [ 76.41957, 27.02981 ], [ 76.42536, 27.02892 ], [ 76.42633, 27.03301 ], [ 76.4279, 27.03282 ], [ 76.4279, 27.03388 ], [ 76.43156, 27.03248 ], [ 76.4301, 27.02736 ], [ 76.42848, 27.02496 ], [ 76.4326, 27.0232 ], [ 76.4327, 27.02391 ], [ 76.43572, 27.02321 ], [ 76.43555, 27.02254 ], [ 76.43743, 27.02151 ], [ 76.43925, 27.01433 ], [ 76.44116, 27.01351 ], [ 76.44035, 27.01206 ], [ 76.44126, 27.0113 ], [ 76.44059, 27.0107 ], [ 76.44155, 27.01005 ], [ 76.44138, 27.00845 ], [ 76.44245, 27.00638 ], [ 76.44443, 27.00543 ], [ 76.44425, 27.00333 ], [ 76.44904, 27.00234 ], [ 76.44842, 26.99986 ], [ 76.45185, 27.00036 ], [ 76.45274, 26.99941 ], [ 76.45182, 26.9971 ], [ 76.45385, 26.99644 ], [ 76.4544, 26.99235 ], [ 76.45586, 26.99203 ], [ 76.45312, 26.98697 ], [ 76.45327, 26.98491 ], [ 76.45227, 26.98219 ], [ 76.45697, 26.98121 ], [ 76.45509, 26.97383 ], [ 76.45068, 26.97442 ], [ 76.45135, 26.97625 ], [ 76.45041, 26.97747 ], [ 76.44434, 26.97744 ], [ 76.44409, 26.97556 ], [ 76.4484, 26.97461 ], [ 76.4478, 26.97017 ], [ 76.44716, 26.97001 ], [ 76.44635, 26.9666 ], [ 76.45166, 26.96459 ], [ 76.43555, 26.96274 ], [ 76.43442, 26.95678 ], [ 76.43482, 26.95227 ], [ 76.43228, 26.95323 ], [ 76.42662, 26.95333 ], [ 76.42621, 26.96872 ], [ 76.42346, 26.96978 ], [ 76.42322, 26.97114 ], [ 76.42213, 26.97184 ], [ 76.41838, 26.97036 ], [ 76.41996, 26.96902 ], [ 76.41629, 26.96187 ], [ 76.41214, 26.95614 ], [ 76.41102, 26.95284 ], [ 76.39871, 26.95285 ], [ 76.39349, 26.95366 ], [ 76.39068, 26.95327 ], [ 76.38984, 26.95153 ], [ 76.37635, 26.95277 ], [ 76.37559, 26.95681 ], [ 76.38456, 26.9639 ], [ 76.37694, 26.96401 ], [ 76.3825, 26.97473 ], [ 76.37883, 26.97647 ], [ 76.37943, 26.97762 ], [ 76.37755, 26.97822 ], [ 76.37867, 26.98944 ], [ 76.37785, 26.98931 ], [ 76.37815, 26.99254 ], [ 76.37489, 26.99398 ], [ 76.37401, 26.99144 ], [ 76.36832, 26.99473 ], [ 76.36623, 26.9915 ], [ 76.36454, 26.99228 ], [ 76.35459, 26.99951 ], [ 76.34811, 27.00114 ], [ 76.34764, 27.00667 ], [ 76.3448, 27.00624 ], [ 76.34103, 27.01072 ], [ 76.34578, 27.02366 ], [ 76.35556, 27.01868 ], [ 76.36057, 27.02248 ], [ 76.36103, 27.02594 ], [ 76.36376, 27.03029 ], [ 76.3856, 27.03697 ], [ 76.38841, 27.03652 ], [ 76.3869, 27.04177 ], [ 76.3884, 27.05041 ], [ 76.38913, 27.04767 ] ] ] } },
{ "type": "Feature", "properties": { "OBJECTID": 3351, "state_lgd": "08", "state_name": "RAJASTHAN", "district_lgd": "109", "district_name": "DAUSA", "district_name_source": "district_table", "subdistrict_lgd": "00537", "subdistrict_name": "Lalsot", "subdistrict_type": "", "name_corrupted": false, "remarks": "", "label_lon": 76.361535980078614, "label_lat": 26.525694749366433 }, "geometry": { "type": "Polygon", "coordinates": [ [ [ 76.45883, 26.71852 ], [ 76.46371, 26.71921 ], [ 76.47267, 26.71786 ], [ 76.47055, 26.71469 ], [ 76.46678, 26.70395 ], [ 76.45627, 26.68986 ], [ 76.45452, 26.68858 ], [ 76.45245, 26.68831 ], [ 76.45508, 26.68419 ], [ 76.45745, 26.68336 ], [ 76.46265, 26.67801 ], [ 76.46311, 26.67309 ], [ 76.46247, 26.66985 ], [ 76.46024, 26.66745 ], [ 76.4557, 26.66675 ], [ 76.45397, 26.665 ], [ 76.44912, 26.65139 ], [ 76.44457, 26.64833 ], [ 76.44312, 26.64643 ], [ 76.44159, 26.64285 ], [ 76.44181, 26.64025 ], [ 76.43998, 26.63803 ], [ 76.43862, 26.63393 ], [ 76.43355, 26.62547 ], [ 76.42248, 26.60945 ], [ 76.41949, 26.60879 ], [ 76.41804, 26.60757 ], [ 76.41697, 26.60238 ], [ 76.41755, 26.60025 ], [ 76.41522, 26.59623 ], [ 76.41512, 26.5934 ], [ 76.41309, 26.5897 ], [ 76.41333, 26.58687 ], [ 76.41183, 26.58376 ], [ 76.40855, 26.58007 ], [ 76.40679, 26.57463 ], [ 76.40389, 26.57157 ], [ 76.40282, 26.56626 ], [ 76.40604, 26.56251 ], [ 76.40627, 26.55971 ], [ 76.40527, 26.55601 ], [ 76.41475, 26.55158 ], [ 76.41439, 26.54963 ], [ 76.41251, 26.54805 ], [ 76.4111, 26.54789 ], [ 76.41012, 26.54521 ], [ 76.41845, 26.54461 ], [ 76.42227, 26.54328 ], [ 76.42465, 26.54441 ], [ 76.4257, 26.54596 ], [ 76.42925, 26.54717 ], [ 76.43248, 26.55043 ], [ 76.43613, 26.55021 ], [ 76.43772, 26.55677 ], [ 76.44284, 26.56022 ], [ 76.44731, 26.55676 ], [ 76.44803, 26.55286 ], [ 76.45804, 26.54477 ], [ 76.45853, 26.5418 ], [ 76.45742, 26.53472 ], [ 76.46097, 26.52203 ], [ 76.46492, 26.52145 ], [ 76.46686, 26.51843 ], [ 76.4697, 26.51689 ], [ 76.47121, 26.51672 ], [ 76.47327, 26.51816 ], [ 76.47503, 26.51827 ], [ 76.47517, 26.5132 ], [ 76.47808, 26.50429 ], [ 76.47791, 26.49963 ], [ 76.4755, 26.493 ], [ 76.47337, 26.49128 ], [ 76.47074, 26.49154 ], [ 76.46957, 26.49075 ], [ 76.46648, 26.48534 ], [ 76.46421, 26.47636 ], [ 76.45377, 26.47879 ], [ 76.44795, 26.47255 ], [ 76.44481, 26.45773 ], [ 76.44187, 26.44851 ], [ 76.44134, 26.44378 ], [ 76.43861, 26.4426 ], [ 76.43728, 26.4402 ], [ 76.43197, 26.43556 ], [ 76.42598, 26.43514 ], [ 76.42362, 26.42474 ], [ 76.42073, 26.42057 ], [ 76.41515, 26.41908 ], [ 76.4114, 26.41622 ], [ 76.41275, 26.41387 ], [ 76.41339, 26.41004 ], [ 76.41276, 26.40889 ], [ 76.41303, 26.40563 ], [ 76.41167, 26.40195 ], [ 76.41289, 26.39993 ], [ 76.4109, 26.39505 ], [ 76.40957, 26.39528 ], [ 76.40842, 26.39357 ], [ 76.40957, 26.39065 ], [ 76.40865, 26.38874 ], [ 76.40544, 26.38985 ], [ 76.40577, 26.38655 ], [ 76.4043, 26.38526 ], [ 76.40543, 26.38327 ], [ 76.40348, 26.37982 ], [ 76.40252, 26.37889 ], [ 76.39389, 26.38751 ], [ 76.38703, 26.38946 ], [ 76.38146, 26.39251 ], [ 76.3775, 26.39277 ], [ 76.37575, 26.39369 ], [ 76.36561, 26.40115 ], [ 76.35801, 26.40425 ], [ 76.35809, 26.40481 ], [ 76.35415, 26.40674 ], [ 76.35097, 26.40927 ], [ 76.35149, 26.41063 ], [ 76.34242, 26.41587 ], [ 76.33796, 26.41713 ], [ 76.34, 26.42576 ], [ 76.33806, 26.43685 ], [ 76.33127, 26.44862 ], [ 76.32523, 26.4547 ], [ 76.32023, 26.45754 ], [ 76.31571, 26.45893 ], [ 76.30544, 26.45858 ], [ 76.29774, 26.45435 ], [ 76.29052, 26.45629 ], [ 76.28744, 26.45519 ], [ 76.27778, 26.44855 ], [ 76.27103, 26.45041 ], [ 76.26779, 26.45036 ], [ 76.25768, 26.44539 ], [ 76.25092, 26.44342 ], [ 76.2479, 26.44308 ], [ 76.24229, 26.44586 ], [ 76.24027, 26.44874 ], [ 76.24161, 26.45516 ], [ 76.24411, 26.45882 ], [ 76.24355, 26.46 ], [ 76.23555, 26.46394 ], [ 76.23109, 26.46447 ], [ 76.22457, 26.46319 ], [ 76.21966, 26.4657 ], [ 76.21858, 26.46666 ], [ 76.22061, 26.46805 ], [ 76.21839, 26.47149 ], [ 76.2176, 26.47789 ], [ 76.21621, 26.48021 ], [ 76.21759, 26.48388 ], [ 76.21115, 26.47995 ], [ 76.2094, 26.4808 ], [ 76.20946, 26.48237 ], [ 76.21227, 26.48299 ], [ 76.21371, 26.48454 ], [ 76.20702, 26.48734 ], [ 76.20863, 26.48994 ], [ 76.21072, 26.4908 ], [ 76.21249, 26.49274 ], [ 76.21215, 26.49431 ], [ 76.21097, 26.49461 ], [ 76.21032, 26.49587 ], [ 76.21234, 26.4977 ], [ 76.21499, 26.50469 ], [ 76.2209, 26.51342 ], [ 76.2197, 26.51395 ], [ 76.22033, 26.51495 ], [ 76.2192, 26.51566 ], [ 76.22107, 26.51849 ], [ 76.22487, 26.51646 ], [ 76.22855, 26.52058 ], [ 76.23056, 26.52155 ], [ 76.2324, 26.52137 ], [ 76.2361, 26.52569 ], [ 76.23972, 26.52674 ], [ 76.24249, 26.53108 ], [ 76.24602, 26.52993 ], [ 76.24789, 26.5309 ], [ 76.25042, 26.53044 ], [ 76.25204, 26.52909 ], [ 76.25129, 26.52735 ], [ 76.25206, 26.52719 ], [ 76.2525, 26.5285 ], [ 76.25345, 26.52829 ], [ 76.25336, 26.52713 ], [ 76.25561, 26.52576 ], [ 76.25513, 26.52504 ], [ 76.25567, 26.52472 ], [ 76.25704, 26.52593 ], [ 76.26061, 26.52653 ], [ 76.26555, 26.53228 ], [ 76.26778, 26.53127 ], [ 76.26928, 26.53282 ], [ 76.27673, 26.52863 ], [ 76.2769, 26.53139 ], [ 76.26939, 26.53528 ], [ 76.26947, 26.53642 ], [ 76.27294, 26.54224 ], [ 76.27416, 26.54232 ], [ 76.27576, 26.54447 ], [ 76.27693, 26.54477 ], [ 76.2795, 26.54912 ], [ 76.28092, 26.54898 ], [ 76.28143, 26.55042 ], [ 76.28439, 26.55105 ], [ 76.28453, 26.5526 ], [ 76.28324, 26.55446 ], [ 76.28262, 26.55783 ], [ 76.28388, 26.56548 ], [ 76.28342, 26.5764 ], [ 76.29539, 26.57836 ], [ 76.29993, 26.57797 ], [ 76.30868, 26.5721 ], [ 76.31232, 26.57137 ], [ 76.31381, 26.57222 ], [ 76.30771, 26.57589 ], [ 76.30661, 26.57884 ], [ 76.30968, 26.57849 ], [ 76.31147, 26.5792 ], [ 76.31316, 26.58318 ], [ 76.31363, 26.58147 ], [ 76.31802, 26.5823 ], [ 76.31537, 26.59174 ], [ 76.30946, 26.59235 ], [ 76.30575, 26.59668 ], [ 76.30211, 26.59826 ], [ 76.30241, 26.59953 ], [ 76.30023, 26.6002 ], [ 76.29965, 26.59974 ], [ 76.29642, 26.60153 ], [ 76.29674, 26.60237 ], [ 76.29533, 26.60331 ], [ 76.29513, 26.60511 ], [ 76.28954, 26.60674 ], [ 76.29292, 26.61774 ], [ 76.29971, 26.62308 ], [ 76.30228, 26.62297 ], [ 76.30217, 26.62054 ], [ 76.30297, 26.61994 ], [ 76.30373, 26.62077 ], [ 76.30358, 26.62286 ], [ 76.30598, 26.62159 ], [ 76.30777, 26.62253 ], [ 76.31167, 26.62246 ], [ 76.31832, 26.61788 ], [ 76.3209, 26.61816 ], [ 76.3213, 26.61881 ], [ 76.32558, 26.61683 ], [ 76.32983, 26.61706 ], [ 76.33259, 26.61368 ], [ 76.33436, 26.60764 ], [ 76.33256, 26.6063 ], [ 76.33297, 26.60374 ], [ 76.33561, 26.60184 ], [ 76.33629, 26.6002 ], [ 76.34553, 26.59371 ], [ 76.34895, 26.59373 ], [ 76.34928, 26.59149 ], [ 76.35589, 26.58856 ], [ 76.35868, 26.59218 ], [ 76.36464, 26.5948 ], [ 76.36852, 26.59803 ], [ 76.36036, 26.60699 ], [ 76.35686, 26.60917 ], [ 76.35429, 26.61525 ], [ 76.35654, 26.61933 ], [ 76.35907, 26.62059 ], [ 76.3661, 26.62648 ], [ 76.36473, 26.62874 ], [ 76.36724, 26.63462 ], [ 76.3709, 26.63591 ], [ 76.37398, 26.64045 ], [ 76.37723, 26.63739 ], [ 76.3804, 26.63744 ], [ 76.38124, 26.6381 ], [ 76.38299, 26.64162 ], [ 76.39001, 26.64925 ], [ 76.39184, 26.64988 ], [ 76.39998, 26.65723 ], [ 76.40547, 26.66527 ], [ 76.40793, 26.6669 ], [ 76.41335, 26.6731 ], [ 76.41619, 26.67652 ], [ 76.41651, 26.67817 ], [ 76.41915, 26.67998 ], [ 76.41987, 26.68104 ], [ 76.41912, 26.68247 ], [ 76.42942, 26.69343 ], [ 76.43195, 26.69683 ], [ 76.433, 26.7007 ], [ 76.43581, 26.7019 ], [ 76.43908, 26.7051 ], [ 76.44474, 26.71402 ], [ 76.45122, 26.72053 ], [ 76.45883, 26.71852 ] ], [ [ 76.28959, 26.54886 ], [ 76.28761, 26.54951 ], [ 76.28691, 26.54836 ], [ 76.2841, 26.54853 ], [ 76.28757, 26.54512 ], [ 76.28989, 26.5443 ], [ 76.29044, 26.54478 ], [ 76.29135, 26.54365 ], [ 76.29277, 26.54658 ], [ 76.28911, 26.54777 ], [ 76.28959, 26.54886 ] ] ] } },
{ "type": "Feature", "properties": { "OBJECTID": 3352, "state_lgd": "08", "state_name": "RAJASTHAN", "district_lgd": "109", "district_name": "DAUSA", "district_name_source": "district_table", "subdistrict_lgd": "00536N001", "subdistrict_name": "Lawan", "subdistrict_type": "", "name_corrupted": false, "remarks": "", "label_lon": 76.260341439488698, "label_lat": 26.788511977695009 }, "geometry": { "type": "Polygon", "coordinates": [ [ [ 76.30025, 26.87573 ], [ 76.29893, 26.87295 ], [ 76.29391, 26.86966 ], [ 76.29275, 26.86698 ], [ 76.29421, 26.86598 ], [ 76.29503, 26.86652 ], [ 76.29539, 26.8656 ], [ 76.29844, 26.86395 ], [ 76.30907, 26.86094 ], [ 76.31243, 26.85868 ], [ 76.3075, 26.85198 ], [ 76.31483, 26.84988 ], [ 76.3165, 26.85437 ], [ 76.32257, 26.85408 ], [ 76.32858, 26.86088 ], [ 76.3311, 26.86136 ], [ 76.33286, 26.86077 ], [ 76.33286, 26.85918 ], [ 76.33517, 26.85965 ], [ 76.33788, 26.858 ], [ 76.33693, 26.85447 ], [ 76.33539, 26.85393 ], [ 76.33625, 26.85222 ], [ 76.33392, 26.85182 ], [ 76.33362, 26.85009 ], [ 76.33408, 26.84804 ], [ 76.33507, 26.84784 ], [ 76.33491, 26.84641 ], [ 76.3364, 26.84618 ], [ 76.33652, 26.84527 ], [ 76.3398, 26.84481 ], [ 76.3398, 26.84314 ], [ 76.34155, 26.84312 ], [ 76.34177, 26.84595 ], [ 76.34367, 26.84623 ], [ 76.3444, 26.85098 ], [ 76.35077, 26.85139 ], [ 76.35083, 26.84921 ], [ 76.35343, 26.84866 ], [ 76.35302, 26.84393 ], [ 76.35475, 26.83211 ], [ 76.35388, 26.82703 ], [ 76.34896, 26.8227 ], [ 76.34417, 26.82283 ], [ 76.34236, 26.8224 ], [ 76.34151, 26.82135 ], [ 76.32609, 26.82243 ], [ 76.32336, 26.81751 ], [ 76.32021, 26.81838 ], [ 76.31701, 26.80694 ], [ 76.31621, 26.80605 ], [ 76.3134, 26.80618 ], [ 76.31238, 26.80312 ], [ 76.31279, 26.80164 ], [ 76.31194, 26.79722 ], [ 76.31138, 26.79604 ], [ 76.30909, 26.79638 ], [ 76.30924, 26.79335 ], [ 76.305, 26.78026 ], [ 76.30432, 26.78027 ], [ 76.30278, 26.77766 ], [ 76.29914, 26.7758 ], [ 76.30009, 26.7744 ], [ 76.29713, 26.7699 ], [ 76.29863, 26.76408 ], [ 76.29689, 26.75389 ], [ 76.29331, 26.75379 ], [ 76.29278, 26.75256 ], [ 76.29034, 26.75276 ], [ 76.28585, 26.75782 ], [ 76.28349, 26.75937 ], [ 76.29117, 26.76674 ], [ 76.29162, 26.76869 ], [ 76.28891, 26.76965 ], [ 76.28833, 26.77101 ], [ 76.28574, 26.77142 ], [ 76.28433, 26.76789 ], [ 76.28264, 26.76752 ], [ 76.28236, 26.76846 ], [ 76.2812, 26.76583 ], [ 76.27908, 26.76569 ], [ 76.27864, 26.76401 ], [ 76.27955, 26.76271 ], [ 76.28239, 26.7621 ], [ 76.27627, 26.76004 ], [ 76.28273, 26.75679 ], [ 76.28286, 26.74795 ], [ 76.28401, 26.74566 ], [ 76.28279, 26.74583 ], [ 76.2828, 26.74312 ], [ 76.28142, 26.7435 ], [ 76.2807, 26.74513 ], [ 76.27571, 26.74643 ], [ 76.27229, 26.74893 ], [ 76.2731, 26.74452 ], [ 76.27175, 26.73806 ], [ 76.27095, 26.74172 ], [ 76.26919, 26.74136 ], [ 76.27116, 26.73449 ], [ 76.26693, 26.73193 ], [ 76.26522, 26.73183 ], [ 76.2655, 26.72977 ], [ 76.2627, 26.72457 ], [ 76.26082, 26.71199 ], [ 76.25845, 26.70588 ], [ 76.24812, 26.705 ], [ 76.24053, 26.70542 ], [ 76.23646, 26.7036 ], [ 76.23403, 26.70068 ], [ 76.23365, 26.69972 ], [ 76.23482, 26.69741 ], [ 76.22937, 26.69908 ], [ 76.22339, 26.69909 ], [ 76.22311, 26.70021 ], [ 76.21876, 26.69764 ], [ 76.21592, 26.69745 ], [ 76.21549, 26.69614 ], [ 76.21378, 26.69693 ], [ 76.21512, 26.70055 ], [ 76.20951, 26.70222 ], [ 76.20747, 26.70358 ], [ 76.20698, 26.70523 ], [ 76.20811, 26.70785 ], [ 76.20632, 26.70828 ], [ 76.20643, 26.70987 ], [ 76.20435, 26.7109 ], [ 76.2046, 26.71183 ], [ 76.1997, 26.71358 ], [ 76.19755, 26.70911 ], [ 76.19515, 26.70039 ], [ 76.18912, 26.70203 ], [ 76.18899, 26.70111 ], [ 76.18571, 26.70189 ], [ 76.18947, 26.71143 ], [ 76.19362, 26.71051 ], [ 76.19511, 26.71447 ], [ 76.19866, 26.71364 ], [ 76.19951, 26.71485 ], [ 76.20281, 26.71425 ], [ 76.20452, 26.71789 ], [ 76.20682, 26.72038 ], [ 76.20508, 26.72071 ], [ 76.20526, 26.72165 ], [ 76.20722, 26.72164 ], [ 76.2083, 26.72317 ], [ 76.20878, 26.72154 ], [ 76.20968, 26.72155 ], [ 76.21062, 26.72385 ], [ 76.20729, 26.72594 ], [ 76.20505, 26.72531 ], [ 76.20468, 26.72613 ], [ 76.19985, 26.72796 ], [ 76.19799, 26.72561 ], [ 76.19587, 26.72531 ], [ 76.19541, 26.72458 ], [ 76.19448, 26.72582 ], [ 76.19266, 26.72618 ], [ 76.19253, 26.72526 ], [ 76.19, 26.72532 ], [ 76.18902, 26.72733 ], [ 76.18448, 26.72596 ], [ 76.18223, 26.72612 ], [ 76.18241, 26.72821 ], [ 76.18056, 26.72855 ], [ 76.18124, 26.73051 ], [ 76.18253, 26.73024 ], [ 76.18268, 26.73088 ], [ 76.18141, 26.73103 ], [ 76.18139, 26.73257 ], [ 76.18537, 26.73618 ], [ 76.1887, 26.73559 ], [ 76.18931, 26.73658 ], [ 76.19015, 26.73631 ], [ 76.18977, 26.73561 ], [ 76.19531, 26.7334 ], [ 76.19744, 26.73772 ], [ 76.18695, 26.7421 ], [ 76.19243, 26.75293 ], [ 76.19093, 26.75337 ], [ 76.18925, 26.75125 ], [ 76.1877, 26.75192 ], [ 76.18744, 26.74904 ], [ 76.18512, 26.75055 ], [ 76.18429, 26.74968 ], [ 76.18226, 26.75034 ], [ 76.18191, 26.75101 ], [ 76.18342, 26.75421 ], [ 76.1815, 26.75311 ], [ 76.18199, 26.75252 ], [ 76.17934, 26.75202 ], [ 76.1796, 26.75617 ], [ 76.17848, 26.75768 ], [ 76.18107, 26.75764 ], [ 76.1813, 26.75946 ], [ 76.18424, 26.75858 ], [ 76.18475, 26.76411 ], [ 76.18184, 26.76373 ], [ 76.18195, 26.76435 ], [ 76.1795, 26.76551 ], [ 76.17976, 26.76605 ], [ 76.18145, 26.76554 ], [ 76.18274, 26.76625 ], [ 76.18303, 26.7676 ], [ 76.18561, 26.76747 ], [ 76.18625, 26.76928 ], [ 76.19266, 26.76793 ], [ 76.19378, 26.76916 ], [ 76.19423, 26.77383 ], [ 76.19616, 26.7788 ], [ 76.19353, 26.78191 ], [ 76.1939, 26.78359 ], [ 76.19183, 26.78447 ], [ 76.19225, 26.78552 ], [ 76.1956, 26.78325 ], [ 76.19775, 26.78477 ], [ 76.19617, 26.78565 ], [ 76.1971, 26.78661 ], [ 76.19666, 26.78713 ], [ 76.19844, 26.78838 ], [ 76.19761, 26.78969 ], [ 76.1993, 26.7911 ], [ 76.20426, 26.79127 ], [ 76.20397, 26.79428 ], [ 76.20563, 26.79396 ], [ 76.20557, 26.79519 ], [ 76.20685, 26.79569 ], [ 76.20379, 26.79582 ], [ 76.20346, 26.80126 ], [ 76.20723, 26.80102 ], [ 76.20735, 26.79977 ], [ 76.20884, 26.79978 ], [ 76.20892, 26.80085 ], [ 76.21258, 26.8017 ], [ 76.21504, 26.80177 ], [ 76.21751, 26.80029 ], [ 76.21903, 26.80037 ], [ 76.21939, 26.80146 ], [ 76.21842, 26.80185 ], [ 76.21824, 26.80364 ], [ 76.22043, 26.80221 ], [ 76.22074, 26.80304 ], [ 76.21968, 26.80347 ], [ 76.22011, 26.80449 ], [ 76.22148, 26.80401 ], [ 76.22262, 26.80626 ], [ 76.22391, 26.80589 ], [ 76.22455, 26.80696 ], [ 76.22504, 26.80665 ], [ 76.2258, 26.80958 ], [ 76.22849, 26.80961 ], [ 76.22781, 26.80516 ], [ 76.23063, 26.80238 ], [ 76.23899, 26.79863 ], [ 76.24169, 26.80035 ], [ 76.24647, 26.79878 ], [ 76.24619, 26.79784 ], [ 76.24808, 26.7972 ], [ 76.24952, 26.80054 ], [ 76.25073, 26.80038 ], [ 76.25432, 26.80378 ], [ 76.25044, 26.80779 ], [ 76.24927, 26.81037 ], [ 76.24789, 26.81087 ], [ 76.2478, 26.81268 ], [ 76.25139, 26.82021 ], [ 76.25713, 26.8238 ], [ 76.25918, 26.83018 ], [ 76.26021, 26.83032 ], [ 76.2604, 26.83307 ], [ 76.26014, 26.8342 ], [ 76.25613, 26.83497 ], [ 76.25527, 26.83464 ], [ 76.25526, 26.83378 ], [ 76.24741, 26.83503 ], [ 76.24781, 26.83792 ], [ 76.24624, 26.83867 ], [ 76.24663, 26.83955 ], [ 76.24197, 26.84185 ], [ 76.24246, 26.84377 ], [ 76.2398, 26.84467 ], [ 76.24076, 26.84682 ], [ 76.24171, 26.8468 ], [ 76.24197, 26.84864 ], [ 76.2433, 26.84849 ], [ 76.24409, 26.84953 ], [ 76.24589, 26.85726 ], [ 76.24778, 26.86095 ], [ 76.24726, 26.86233 ], [ 76.24808, 26.8639 ], [ 76.24652, 26.86443 ], [ 76.24745, 26.86595 ], [ 76.25251, 26.86385 ], [ 76.26217, 26.86658 ], [ 76.26052, 26.8727 ], [ 76.26985, 26.87151 ], [ 76.27153, 26.87643 ], [ 76.28386, 26.87472 ], [ 76.28574, 26.87585 ], [ 76.28873, 26.8757 ], [ 76.29478, 26.8839 ], [ 76.30129, 26.88339 ], [ 76.30025, 26.87573 ] ], [ [ 76.28024, 26.78037 ], [ 76.27769, 26.77826 ], [ 76.27746, 26.77493 ], [ 76.28081, 26.77357 ], [ 76.28204, 26.77552 ], [ 76.27972, 26.77714 ], [ 76.28194, 26.77982 ], [ 76.28024, 26.78037 ] ] ] } },
{ "type": "Feature", "properties": { "OBJECTID": 3353, "state_lgd": "08", "state_name": "RAJASTHAN", "district_lgd": "109", "district_name": "DAUSA", "district_name_source": "district_table", "subdistrict_lgd": "00534", "subdistrict_name": "Mahwa", "subdistrict_type": "", "name_corrupted": false, "remarks": "", "label_lon": 76.931165804465905, "label_lat": 26.999758683555431 }, "geometry": { "type": "Polygon", "coordinates": [ [ [ 76.9594, 27.14396 ], [ 76.96064, 27.13442 ], [ 76.95835, 27.12555 ], [ 76.97051, 27.12741 ], [ 76.9782, 27.11952 ], [ 76.98995, 27.11272 ], [ 76.9897, 27.11202 ], [ 76.99157, 27.11204 ], [ 76.99089, 27.11135 ], [ 76.99253, 27.11117 ], [ 76.99108, 27.10991 ], [ 76.99213, 27.10914 ], [ 76.99015, 27.10423 ], [ 76.98887, 27.10482 ], [ 76.98861, 27.10415 ], [ 76.9831, 27.10635 ], [ 76.98213, 27.10551 ], [ 76.98059, 27.10568 ], [ 76.97959, 27.10457 ], [ 76.98025, 27.10401 ], [ 76.9782, 27.10154 ], [ 76.98199, 27.09826 ], [ 76.981, 27.09656 ], [ 76.98245, 27.0956 ], [ 76.98132, 27.09391 ], [ 76.98497, 27.09291 ], [ 76.98607, 27.09043 ], [ 76.98731, 27.08953 ], [ 76.98284, 27.08463 ], [ 76.96987, 27.08179 ], [ 76.96813, 27.07664 ], [ 76.96877, 27.07105 ], [ 76.97285, 27.07005 ], [ 76.97415, 27.06761 ], [ 76.98207, 27.06572 ], [ 76.99187, 27.06159 ], [ 76.9955, 27.06093 ], [ 76.99376, 27.05924 ], [ 76.99311, 27.05482 ], [ 76.99446, 27.05373 ], [ 76.99274, 27.05251 ], [ 76.99226, 27.04972 ], [ 76.99771, 27.0483 ], [ 77.00205, 27.04583 ], [ 77.00703, 27.04497 ], [ 77.01122, 27.04291 ], [ 77.00895, 27.039 ], [ 77.0109, 27.03849 ], [ 77.01023, 27.03389 ], [ 77.00213, 27.03569 ], [ 77.00215, 27.0367 ], [ 76.99303, 27.03675 ], [ 76.98302, 27.03786 ], [ 76.97846, 27.03029 ], [ 76.98416, 27.0267 ], [ 76.98656, 27.02428 ], [ 76.98831, 27.02082 ], [ 76.99526, 27.01605 ], [ 76.99881, 27.01541 ], [ 77.00242, 27.00824 ], [ 77.00593, 27.00441 ], [ 77.00805, 26.98691 ], [ 77.00672, 26.98122 ], [ 77.00642, 26.97498 ], [ 77.01332, 26.97823 ], [ 77.01582, 26.97717 ], [ 77.01757, 26.9737 ], [ 77.01953, 26.96213 ], [ 77.02129, 26.94659 ], [ 77.02065, 26.94663 ], [ 77.02244, 26.94568 ], [ 77.02324, 26.94245 ], [ 77.02464, 26.94145 ], [ 77.01422, 26.93334 ], [ 77.01173, 26.93231 ], [ 77.01591, 26.92703 ], [ 77.02609, 26.92418 ], [ 77.02805, 26.92435 ], [ 77.02784, 26.92166 ], [ 77.03011, 26.92076 ], [ 77.03051, 26.91956 ], [ 77.03576, 26.9161 ], [ 77.0358, 26.91435 ], [ 77.03698, 26.91411 ], [ 77.03648, 26.91275 ], [ 77.03821, 26.91228 ], [ 77.03796, 26.91113 ], [ 77.03899, 26.9111 ], [ 77.03995, 26.90863 ], [ 77.04676, 26.91301 ], [ 77.05076, 26.91323 ], [ 77.05646, 26.915 ], [ 77.0595, 26.91438 ], [ 77.05936, 26.91113 ], [ 77.06066, 26.91056 ], [ 77.06037, 26.90624 ], [ 77.05958, 26.90538 ], [ 77.06254, 26.90142 ], [ 77.05861, 26.90051 ], [ 77.05957, 26.89828 ], [ 77.06112, 26.89775 ], [ 77.06067, 26.89494 ], [ 77.05823, 26.89054 ], [ 77.05947, 26.88993 ], [ 77.06059, 26.88741 ], [ 77.06028, 26.8863 ], [ 77.06142, 26.8861 ], [ 77.06222, 26.88272 ], [ 77.06348, 26.88245 ], [ 77.06193, 26.8807 ], [ 77.06441, 26.87948 ], [ 77.06454, 26.87703 ], [ 77.06714, 26.87515 ], [ 77.06719, 26.87258 ], [ 77.07081, 26.86978 ], [ 77.07422, 26.85854 ], [ 77.05887, 26.86599 ], [ 77.04335, 26.86857 ], [ 77.02751, 26.86614 ], [ 77.01881, 26.86634 ], [ 77.01079, 26.865 ], [ 76.99828, 26.87135 ], [ 76.98565, 26.86128 ], [ 76.98501, 26.85789 ], [ 76.98245, 26.85916 ], [ 76.97469, 26.86023 ], [ 76.96741, 26.86017 ], [ 76.96168, 26.86162 ], [ 76.95251, 26.8681 ], [ 76.95311, 26.87024 ], [ 76.95144, 26.87242 ], [ 76.95379, 26.88104 ], [ 76.95675, 26.8878 ], [ 76.95522, 26.89184 ], [ 76.95638, 26.89437 ], [ 76.95625, 26.89945 ], [ 76.95241, 26.90808 ], [ 76.95155, 26.91537 ], [ 76.94436, 26.92413 ], [ 76.94054, 26.93044 ], [ 76.93182, 26.93922 ], [ 76.93134, 26.93889 ], [ 76.92669, 26.94247 ], [ 76.92279, 26.94684 ], [ 76.91641, 26.95075 ], [ 76.91438, 26.95341 ], [ 76.91416, 26.95657 ], [ 76.91156, 26.96079 ], [ 76.90569, 26.96607 ], [ 76.90101, 26.96882 ], [ 76.90089, 26.97174 ], [ 76.88758, 26.97338 ], [ 76.88106, 26.97515 ], [ 76.88053, 26.97908 ], [ 76.87887, 26.97975 ], [ 76.87901, 26.98332 ], [ 76.85826, 26.99433 ], [ 76.85515, 26.9952 ], [ 76.84249, 26.99558 ], [ 76.83855, 26.99546 ], [ 76.83579, 26.99014 ], [ 76.83635, 26.98969 ], [ 76.83496, 26.98376 ], [ 76.8337, 26.98182 ], [ 76.82502, 26.98175 ], [ 76.82437, 26.97898 ], [ 76.82204, 26.97986 ], [ 76.8217, 26.97856 ], [ 76.8225, 26.97752 ], [ 76.82177, 26.97618 ], [ 76.82298, 26.97566 ], [ 76.82275, 26.97426 ], [ 76.82036, 26.97341 ], [ 76.82022, 26.9724 ], [ 76.81923, 26.9725 ], [ 76.81897, 26.97168 ], [ 76.81715, 26.97173 ], [ 76.81679, 26.96944 ], [ 76.79493, 26.97154 ], [ 76.79601, 26.98461 ], [ 76.79706, 26.98593 ], [ 76.79962, 26.98615 ], [ 76.80453, 26.99256 ], [ 76.7992, 26.99526 ], [ 76.79501, 26.99627 ], [ 76.77783, 26.99803 ], [ 76.77357, 26.99913 ], [ 76.7736, 27.00159 ], [ 76.77661, 27.00301 ], [ 76.78623, 27.00177 ], [ 76.78624, 27.003 ], [ 76.78059, 27.00381 ], [ 76.78144, 27.00671 ], [ 76.81184, 27.00142 ], [ 76.81141, 27.01282 ], [ 76.79258, 27.01414 ], [ 76.78822, 27.01337 ], [ 76.78561, 27.01449 ], [ 76.77959, 27.01211 ], [ 76.77568, 27.01208 ], [ 76.77305, 27.01103 ], [ 76.77295, 27.01346 ], [ 76.76888, 27.01727 ], [ 76.75753, 27.01847 ], [ 76.7485, 27.01646 ], [ 76.73589, 27.01761 ], [ 76.73327, 27.01921 ], [ 76.72874, 27.0201 ], [ 76.72958, 27.02307 ], [ 76.73422, 27.02273 ], [ 76.7367, 27.02379 ], [ 76.73614, 27.02582 ], [ 76.74264, 27.02556 ], [ 76.74946, 27.02378 ], [ 76.76323, 27.026 ], [ 76.76985, 27.03378 ], [ 76.77158, 27.03649 ], [ 76.77134, 27.03854 ], [ 76.77457, 27.04219 ], [ 76.78499, 27.04453 ], [ 76.80969, 27.03574 ], [ 76.81832, 27.03534 ], [ 76.81747, 27.04038 ], [ 76.82193, 27.05685 ], [ 76.8284, 27.07515 ], [ 76.83189, 27.07438 ], [ 76.83631, 27.075 ], [ 76.84576, 27.07953 ], [ 76.85073, 27.08097 ], [ 76.85968, 27.07774 ], [ 76.8674, 27.07594 ], [ 76.87706, 27.07702 ], [ 76.88171, 27.07404 ], [ 76.88297, 27.07823 ], [ 76.88382, 27.07813 ], [ 76.88474, 27.08058 ], [ 76.88472, 27.08146 ], [ 76.8835, 27.08178 ], [ 76.88434, 27.08398 ], [ 76.88614, 27.08358 ], [ 76.88719, 27.08518 ], [ 76.88941, 27.09251 ], [ 76.89063, 27.09235 ], [ 76.89075, 27.09449 ], [ 76.88968, 27.09486 ], [ 76.89364, 27.10037 ], [ 76.89599, 27.09844 ], [ 76.91637, 27.09621 ], [ 76.91633, 27.09498 ], [ 76.92251, 27.09322 ], [ 76.92975, 27.09367 ], [ 76.93002, 27.09527 ], [ 76.93313, 27.09569 ], [ 76.93406, 27.0989 ], [ 76.93556, 27.09949 ], [ 76.93619, 27.10326 ], [ 76.93939, 27.10709 ], [ 76.92503, 27.11071 ], [ 76.91801, 27.11372 ], [ 76.91741, 27.11529 ], [ 76.91778, 27.12201 ], [ 76.9167, 27.12683 ], [ 76.91853, 27.12648 ], [ 76.92534, 27.12787 ], [ 76.92893, 27.12752 ], [ 76.9311, 27.13182 ], [ 76.92828, 27.13239 ], [ 76.92876, 27.13427 ], [ 76.92618, 27.13653 ], [ 76.93001, 27.13706 ], [ 76.93023, 27.13857 ], [ 76.93269, 27.13901 ], [ 76.93336, 27.1405 ], [ 76.94253, 27.13896 ], [ 76.94415, 27.14674 ], [ 76.95093, 27.14625 ], [ 76.9594, 27.14396 ] ] ] } },
{ "type": "Feature", "properties": { "OBJECTID": 3354, "state_lgd": "08", "state_name": "RAJASTHAN", "district_lgd": "109", "district_name": "DAUSA", "district_name_source": "district_table", "subdistrict_lgd": "00534N001", "subdistrict_name": "Mandawar", "subdistrict_type": "", "name_corrupted": false, "remarks": "", "label_lon": 76.873780627832915, "label_lat": 27.144911474411686 }, "geometry": { "type": "Polygon", "coordinates": [ [ [ 76.89742, 27.22185 ], [ 76.90286, 27.21835 ], [ 76.89841, 27.21354 ], [ 76.90382, 27.21095 ], [ 76.9043, 27.20794 ], [ 76.90346, 27.203 ], [ 76.905, 27.20102 ], [ 76.90344, 27.19651 ], [ 76.90443, 27.19646 ], [ 76.90591, 27.19476 ], [ 76.90372, 27.19188 ], [ 76.90358, 27.18791 ], [ 76.90545, 27.18668 ], [ 76.90503, 27.18365 ], [ 76.90932, 27.18276 ], [ 76.90994, 27.18052 ], [ 76.90777, 27.17576 ], [ 76.89756, 27.17603 ], [ 76.89534, 27.1751 ], [ 76.89268, 27.17045 ], [ 76.89365, 27.17011 ], [ 76.89343, 27.16866 ], [ 76.89425, 27.16857 ], [ 76.89364, 27.16128 ], [ 76.89575, 27.16034 ], [ 76.89561, 27.15974 ], [ 76.90842, 27.15526 ], [ 76.91703, 27.15115 ], [ 76.91409, 27.14144 ], [ 76.92618, 27.13653 ], [ 76.92876, 27.13427 ], [ 76.92828, 27.13239 ], [ 76.9311, 27.13182 ], [ 76.92893, 27.12752 ], [ 76.92534, 27.12787 ], [ 76.91853, 27.12648 ], [ 76.9167, 27.12683 ], [ 76.91778, 27.12201 ], [ 76.91741, 27.11529 ], [ 76.91801, 27.11372 ], [ 76.92503, 27.11071 ], [ 76.93939, 27.10709 ], [ 76.93619, 27.10326 ], [ 76.93556, 27.09949 ], [ 76.93406, 27.0989 ], [ 76.93313, 27.09569 ], [ 76.93002, 27.09527 ], [ 76.92975, 27.09367 ], [ 76.92815, 27.0934 ], [ 76.92251, 27.09322 ], [ 76.91633, 27.09498 ], [ 76.91637, 27.09621 ], [ 76.91142, 27.0971 ], [ 76.89599, 27.09844 ], [ 76.89364, 27.10037 ], [ 76.88968, 27.09486 ], [ 76.89075, 27.09449 ], [ 76.89063, 27.09235 ], [ 76.88941, 27.09251 ], [ 76.88719, 27.08518 ], [ 76.88614, 27.08358 ], [ 76.88434, 27.08398 ], [ 76.8835, 27.08178 ], [ 76.88472, 27.08146 ], [ 76.88474, 27.08058 ], [ 76.88382, 27.07813 ], [ 76.88297, 27.07823 ], [ 76.88171, 27.07404 ], [ 76.87706, 27.07702 ], [ 76.8674, 27.07594 ], [ 76.85968, 27.07774 ], [ 76.85073, 27.08097 ], [ 76.84576, 27.07953 ], [ 76.8369, 27.07517 ], [ 76.83349, 27.07439 ], [ 76.829, 27.07486 ], [ 76.8284, 27.07515 ], [ 76.83188, 27.08468 ], [ 76.83514, 27.11004 ], [ 76.83868, 27.11924 ], [ 76.82798, 27.11806 ], [ 76.82269, 27.13388 ], [ 76.82488, 27.13578 ], [ 76.82664, 27.14128 ], [ 76.82761, 27.15029 ], [ 76.82613, 27.16311 ], [ 76.8398, 27.16276 ], [ 76.8418, 27.16691 ], [ 76.84199, 27.16926 ], [ 76.8443, 27.17063 ], [ 76.84413, 27.1725 ], [ 76.84571, 27.17375 ], [ 76.84675, 27.17717 ], [ 76.84767, 27.18618 ], [ 76.84958, 27.19091 ], [ 76.84245, 27.19348 ], [ 76.84318, 27.19795 ], [ 76.84265, 27.20103 ], [ 76.8398, 27.20298 ], [ 76.84141, 27.20753 ], [ 76.84464, 27.20671 ], [ 76.84519, 27.21067 ], [ 76.85341, 27.2093 ], [ 76.8553, 27.20789 ], [ 76.85725, 27.20944 ], [ 76.86238, 27.21845 ], [ 76.86431, 27.22564 ], [ 76.86683, 27.23025 ], [ 76.88663, 27.22079 ], [ 76.89318, 27.23226 ], [ 76.90058, 27.22882 ], [ 76.89742, 27.22185 ] ] ] } },
{ "type": "Feature", "properties": { "OBJECTID": 3355, "state_lgd": "08", "state_name": "RAJASTHAN", "district_lgd": "109", "district_name": "DAUSA", "district_name_source": "district_table", "subdistrict_lgd": "00536N002", "subdistrict_name": "Nangal Rajawatan", "subdistrict_type": "", "name_corrupted": false, "remarks": "", "label_lon": 76.356161838704281, "label_lat": 26.760757676808737 }, "geometry": { "type": "MultiPolygon", "coordinates": [ [ [ [ 76.34193, 26.73926 ], [ 76.34031, 26.73416 ], [ 76.33809, 26.73521 ], [ 76.34006, 26.74035 ], [ 76.34193, 26.73926 ] ] ], [ [ [ 76.35475, 26.83211 ], [ 76.36116, 26.83001 ], [ 76.36467, 26.82648 ], [ 76.37231, 26.82102 ], [ 76.37483, 26.81546 ], [ 76.37347, 26.8083 ], [ 76.37024, 26.80804 ], [ 76.36933, 26.80464 ], [ 76.36746, 26.80321 ], [ 76.36566, 26.79872 ], [ 76.36504, 26.7951 ], [ 76.36649, 26.79278 ], [ 76.36847, 26.79325 ], [ 76.36744, 26.79506 ], [ 76.36896, 26.79479 ], [ 76.37075, 26.79582 ], [ 76.37662, 26.79219 ], [ 76.37765, 26.78777 ], [ 76.38037, 26.78491 ], [ 76.38105, 26.7828 ], [ 76.38056, 26.77972 ], [ 76.3821, 26.77917 ], [ 76.38388, 26.78043 ], [ 76.38524, 26.78024 ], [ 76.386, 26.77659 ], [ 76.38758, 26.77474 ], [ 76.38959, 26.77415 ], [ 76.38933, 26.77263 ], [ 76.38867, 26.77368 ], [ 76.38693, 26.77399 ], [ 76.38773, 26.77147 ], [ 76.39003, 26.77164 ], [ 76.3945, 26.7701 ], [ 76.40061, 26.7746 ], [ 76.40312, 26.77283 ], [ 76.40525, 26.77377 ], [ 76.40728, 26.77289 ], [ 76.40856, 26.77393 ], [ 76.41004, 26.77305 ], [ 76.41282, 26.76779 ], [ 76.41908, 26.76301 ], [ 76.42308, 26.76131 ], [ 76.42386, 26.76049 ], [ 76.42336, 26.75923 ], [ 76.424, 26.75663 ], [ 76.42746, 26.75494 ], [ 76.42744, 26.75416 ], [ 76.42845, 26.75368 ], [ 76.42652, 26.74998 ], [ 76.42461, 26.75083 ], [ 76.42226, 26.74898 ], [ 76.42048, 26.74907 ], [ 76.42166, 26.74709 ], [ 76.41822, 26.74392 ], [ 76.42066, 26.74001 ], [ 76.42515, 26.73512 ], [ 76.43097, 26.73208 ], [ 76.43329, 26.73369 ], [ 76.44197, 26.73416 ], [ 76.45122, 26.72053 ], [ 76.44419, 26.71345 ], [ 76.43908, 26.7051 ], [ 76.43581, 26.7019 ], [ 76.433, 26.7007 ], [ 76.43195, 26.69683 ], [ 76.42992, 26.69482 ], [ 76.4228, 26.70664 ], [ 76.42382, 26.70759 ], [ 76.42346, 26.70859 ], [ 76.42151, 26.70849 ], [ 76.419, 26.71304 ], [ 76.41426, 26.71682 ], [ 76.40965, 26.71699 ], [ 76.40924, 26.72057 ], [ 76.4065, 26.72209 ], [ 76.40611, 26.72511 ], [ 76.40461, 26.72604 ], [ 76.40151, 26.72657 ], [ 76.39964, 26.72479 ], [ 76.39888, 26.72494 ], [ 76.3992, 26.72607 ], [ 76.39678, 26.72642 ], [ 76.39637, 26.72504 ], [ 76.39859, 26.72426 ], [ 76.39581, 26.71693 ], [ 76.39295, 26.71725 ], [ 76.38439, 26.7216 ], [ 76.38303, 26.72093 ], [ 76.37707, 26.72323 ], [ 76.37139, 26.72125 ], [ 76.36935, 26.72367 ], [ 76.36611, 26.72446 ], [ 76.36645, 26.72515 ], [ 76.36339, 26.72707 ], [ 76.36489, 26.72735 ], [ 76.36726, 26.73007 ], [ 76.36919, 26.73097 ], [ 76.36866, 26.73272 ], [ 76.36659, 26.73432 ], [ 76.36582, 26.73319 ], [ 76.36508, 26.73331 ], [ 76.36378, 26.72971 ], [ 76.36151, 26.73096 ], [ 76.36047, 26.73004 ], [ 76.35913, 26.73059 ], [ 76.35727, 26.72771 ], [ 76.35595, 26.72713 ], [ 76.3505, 26.7296 ], [ 76.34953, 26.72837 ], [ 76.34835, 26.72873 ], [ 76.34693, 26.72588 ], [ 76.34538, 26.72492 ], [ 76.33901, 26.72914 ], [ 76.33921, 26.73115 ], [ 76.33998, 26.73111 ], [ 76.34084, 26.73326 ], [ 76.34246, 26.73325 ], [ 76.34327, 26.73314 ], [ 76.34413, 26.73014 ], [ 76.34692, 26.73067 ], [ 76.34978, 26.73821 ], [ 76.34627, 26.73988 ], [ 76.3401, 26.74126 ], [ 76.34018, 26.74343 ], [ 76.33855, 26.74484 ], [ 76.33135, 26.74129 ], [ 76.32714, 26.74175 ], [ 76.32708, 26.7437 ], [ 76.32504, 26.74376 ], [ 76.32464, 26.74078 ], [ 76.32256, 26.73877 ], [ 76.32226, 26.73714 ], [ 76.31922, 26.73536 ], [ 76.31959, 26.73463 ], [ 76.31846, 26.73422 ], [ 76.31784, 26.73244 ], [ 76.31671, 26.73176 ], [ 76.31621, 26.73075 ], [ 76.31707, 26.73046 ], [ 76.31557, 26.72675 ], [ 76.3126, 26.7267 ], [ 76.3115, 26.72345 ], [ 76.31003, 26.72323 ], [ 76.30908, 26.71972 ], [ 76.3046, 26.71758 ], [ 76.29906, 26.71673 ], [ 76.29778, 26.7173 ], [ 76.29815, 26.7227 ], [ 76.29921, 26.72495 ], [ 76.29809, 26.72559 ], [ 76.28342, 26.72786 ], [ 76.27548, 26.72682 ], [ 76.27498, 26.72617 ], [ 76.27094, 26.72631 ], [ 76.26648, 26.72696 ], [ 76.26442, 26.72819 ], [ 76.2655, 26.72977 ], [ 76.26522, 26.73183 ], [ 76.26693, 26.73193 ], [ 76.27116, 26.73449 ], [ 76.26919, 26.74136 ], [ 76.27095, 26.74172 ], [ 76.27175, 26.73806 ], [ 76.2731, 26.74452 ], [ 76.27229, 26.74893 ], [ 76.27571, 26.74643 ], [ 76.2807, 26.74513 ], [ 76.28135, 26.74353 ], [ 76.2828, 26.74312 ], [ 76.28279, 26.74583 ], [ 76.28399, 26.74562 ], [ 76.28406, 26.7465 ], [ 76.28286, 26.74795 ], [ 76.28273, 26.75679 ], [ 76.27627, 26.76004 ], [ 76.28235, 26.76203 ], [ 76.27955, 26.76271 ], [ 76.27864, 26.76401 ], [ 76.27908, 26.76569 ], [ 76.2812, 26.76583 ], [ 76.28236, 26.76846 ], [ 76.28264, 26.76752 ], [ 76.28433, 26.76789 ], [ 76.28574, 26.77142 ], [ 76.28833, 26.77101 ], [ 76.28891, 26.76965 ], [ 76.2907, 26.76941 ], [ 76.29174, 26.76824 ], [ 76.29109, 26.76663 ], [ 76.28349, 26.75937 ], [ 76.28585, 26.75782 ], [ 76.29034, 26.75276 ], [ 76.29278, 26.75256 ], [ 76.29331, 26.75379 ], [ 76.29689, 26.75389 ], [ 76.29863, 26.76408 ], [ 76.29713, 26.7699 ], [ 76.30009, 26.7744 ], [ 76.29914, 26.7758 ], [ 76.30278, 26.77766 ], [ 76.30432, 26.78027 ], [ 76.305, 26.78026 ], [ 76.30924, 26.79335 ], [ 76.30909, 26.79638 ], [ 76.31138, 26.79604 ], [ 76.31194, 26.79722 ], [ 76.31279, 26.80164 ], [ 76.31238, 26.80312 ], [ 76.3134, 26.80618 ], [ 76.31621, 26.80605 ], [ 76.31701, 26.80694 ], [ 76.32021, 26.81838 ], [ 76.32336, 26.81751 ], [ 76.32609, 26.82243 ], [ 76.34151, 26.82135 ], [ 76.34236, 26.8224 ], [ 76.34417, 26.82283 ], [ 76.34896, 26.8227 ], [ 76.35388, 26.82703 ], [ 76.35475, 26.83211 ] ], [ [ 76.35653, 26.73781 ], [ 76.3557, 26.73724 ], [ 76.3534, 26.73777 ], [ 76.3519, 26.73467 ], [ 76.35302, 26.73368 ], [ 76.35236, 26.73268 ], [ 76.35116, 26.73306 ], [ 76.34979, 26.73218 ], [ 76.35156, 26.73074 ], [ 76.35353, 26.73076 ], [ 76.35343, 26.73197 ], [ 76.35531, 26.73387 ], [ 76.35724, 26.73279 ], [ 76.35748, 26.73353 ], [ 76.35575, 26.73478 ], [ 76.3571, 26.73662 ], [ 76.35653, 26.73781 ] ], [ [ 76.35849, 26.73781 ], [ 76.35765, 26.73712 ], [ 76.35749, 26.73694 ], [ 76.35877, 26.73682 ], [ 76.35849, 26.73781 ] ], [ [ 76.34946, 26.74148 ], [ 76.35692, 26.73798 ], [ 76.35768, 26.73888 ], [ 76.36125, 26.73752 ], [ 76.36209, 26.73928 ], [ 76.35991, 26.74111 ], [ 76.35516, 26.74116 ], [ 76.35467, 26.74352 ], [ 76.35284, 26.74422 ], [ 76.3507, 26.74356 ], [ 76.34946, 26.74148 ] ] ], [ [ [ 76.28194, 26.77982 ], [ 76.27972, 26.77714 ], [ 76.28204, 26.77552 ], [ 76.28093, 26.77363 ], [ 76.27749, 26.7748 ], [ 76.27807, 26.77684 ], [ 76.27747, 26.77736 ], [ 76.27837, 26.77925 ], [ 76.28024, 26.78037 ], [ 76.28194, 26.77982 ] ] ] ] } },
{ "type": "Feature", "properties": { "OBJECTID": 3356, "state_lgd": "08", "state_name": "RAJASTHAN", "district_lgd": "109", "district_name": "DAUSA", "district_name_source": "district_table", "subdistrict_lgd": "00537N003", "subdistrict_name": "Nirjharna", "subdistrict_type": "", "name_corrupted": false, "remarks": "", "label_lon": 76.208874380099473, "label_lat": 26.549321988131659 }, "geometry": { "type": "MultiPolygon", "coordinates": [ [ [ [ 76.18581, 26.61 ], [ 76.19176, 26.60825 ], [ 76.19572, 26.60587 ], [ 76.19573, 26.60479 ], [ 76.19865, 26.6036 ], [ 76.20486, 26.60233 ], [ 76.20666, 26.60227 ], [ 76.20734, 26.60584 ], [ 76.20886, 26.60597 ], [ 76.21024, 26.60835 ], [ 76.21215, 26.60796 ], [ 76.21321, 26.60984 ], [ 76.21381, 26.60865 ], [ 76.22225, 26.60669 ], [ 76.22481, 26.60729 ], [ 76.22943, 26.60695 ], [ 76.23133, 26.60074 ], [ 76.23615, 26.59866 ], [ 76.23545, 26.59617 ], [ 76.23624, 26.59209 ], [ 76.2357, 26.59102 ], [ 76.23422, 26.59175 ], [ 76.2333, 26.59037 ], [ 76.23193, 26.59106 ], [ 76.23108, 26.5894 ], [ 76.23961, 26.58661 ], [ 76.24732, 26.58232 ], [ 76.24768, 26.58322 ], [ 76.25464, 26.58129 ], [ 76.25628, 26.58397 ], [ 76.25833, 26.5837 ], [ 76.26082, 26.58735 ], [ 76.26646, 26.58994 ], [ 76.27764, 26.58974 ], [ 76.2832, 26.58792 ], [ 76.28388, 26.56548 ], [ 76.28262, 26.55783 ], [ 76.28324, 26.55446 ], [ 76.28453, 26.5526 ], [ 76.28439, 26.55105 ], [ 76.28143, 26.55042 ], [ 76.28092, 26.54898 ], [ 76.2795, 26.54912 ], [ 76.27693, 26.54477 ], [ 76.27576, 26.54447 ], [ 76.27416, 26.54232 ], [ 76.27294, 26.54224 ], [ 76.26947, 26.53642 ], [ 76.26939, 26.53528 ], [ 76.2769, 26.53139 ], [ 76.27673, 26.52863 ], [ 76.26928, 26.53282 ], [ 76.26778, 26.53127 ], [ 76.26555, 26.53228 ], [ 76.26061, 26.52653 ], [ 76.25704, 26.52593 ], [ 76.25567, 26.52472 ], [ 76.25513, 26.52504 ], [ 76.25561, 26.52576 ], [ 76.25336, 26.52713 ], [ 76.25345, 26.52829 ], [ 76.2525, 26.5285 ], [ 76.25206, 26.52719 ], [ 76.25129, 26.52735 ], [ 76.25204, 26.52909 ], [ 76.25042, 26.53044 ], [ 76.24789, 26.5309 ], [ 76.24602, 26.52993 ], [ 76.24249, 26.53108 ], [ 76.23972, 26.52674 ], [ 76.2361, 26.52569 ], [ 76.2324, 26.52137 ], [ 76.23056, 26.52155 ], [ 76.22855, 26.52058 ], [ 76.22487, 26.51646 ], [ 76.22144, 26.51859 ], [ 76.21924, 26.51599 ], [ 76.22033, 26.51495 ], [ 76.2197, 26.51395 ], [ 76.2209, 26.51342 ], [ 76.21499, 26.50469 ], [ 76.21234, 26.4977 ], [ 76.21032, 26.49587 ], [ 76.21097, 26.49461 ], [ 76.21215, 26.49431 ], [ 76.21249, 26.49274 ], [ 76.21072, 26.4908 ], [ 76.20863, 26.48994 ], [ 76.20696, 26.4871 ], [ 76.21371, 26.48454 ], [ 76.21227, 26.48299 ], [ 76.20946, 26.48237 ], [ 76.2094, 26.4808 ], [ 76.21115, 26.47995 ], [ 76.21759, 26.48388 ], [ 76.21621, 26.48021 ], [ 76.2176, 26.47789 ], [ 76.21839, 26.47149 ], [ 76.22061, 26.46805 ], [ 76.21858, 26.46666 ], [ 76.21279, 26.47146 ], [ 76.20509, 26.47556 ], [ 76.19143, 26.48064 ], [ 76.18293, 26.48166 ], [ 76.17781, 26.4834 ], [ 76.16769, 26.49598 ], [ 76.15815, 26.50018 ], [ 76.15266, 26.50371 ], [ 76.1501, 26.50739 ], [ 76.1491, 26.51039 ], [ 76.15066, 26.51898 ], [ 76.1539, 26.5216 ], [ 76.15455, 26.52326 ], [ 76.15413, 26.52688 ], [ 76.15296, 26.52931 ], [ 76.15365, 26.54282 ], [ 76.15276, 26.54777 ], [ 76.15628, 26.55851 ], [ 76.15629, 26.56319 ], [ 76.15987, 26.56464 ], [ 76.16131, 26.56739 ], [ 76.15526, 26.57151 ], [ 76.15568, 26.57425 ], [ 76.15662, 26.57595 ], [ 76.16136, 26.57816 ], [ 76.16233, 26.57985 ], [ 76.16505, 26.58723 ], [ 76.1659, 26.60053 ], [ 76.16713, 26.6031 ], [ 76.16938, 26.60546 ], [ 76.17082, 26.60575 ], [ 76.17437, 26.60227 ], [ 76.17535, 26.60235 ], [ 76.17662, 26.60347 ], [ 76.17905, 26.60861 ], [ 76.18251, 26.61192 ], [ 76.18581, 26.61 ] ] ], [ [ [ 76.28965, 26.5491 ], [ 76.28911, 26.54777 ], [ 76.29277, 26.54658 ], [ 76.29135, 26.54365 ], [ 76.29044, 26.54478 ], [ 76.28989, 26.5443 ], [ 76.28757, 26.54512 ], [ 76.2845, 26.54755 ], [ 76.2841, 26.54879 ], [ 76.28691, 26.54836 ], [ 76.28761, 26.54951 ], [ 76.28965, 26.5491 ] ] ] ] } },
{ "type": "Feature", "properties": { "OBJECTID": 3357, "state_lgd": "08", "state_name": "RAJASTHAN", "district_lgd": "109", "district_name": "DAUSA", "district_name_source": "district_table", "subdistrict_lgd": "00536N006", "subdistrict_name": "Paparda", "subdistrict_type": "", "name_corrupted": false, "remarks": "", "label_lon": 76.435136363605025, "label_lat": 26.78881095932903 }, "geometry": { "type": "Polygon", "coordinates": [ [ [ 76.43122, 26.86521 ], [ 76.43922, 26.86511 ], [ 76.44601, 26.86006 ], [ 76.44553, 26.85102 ], [ 76.44255, 26.84316 ], [ 76.43596, 26.84299 ], [ 76.43554, 26.84149 ], [ 76.4364, 26.83629 ], [ 76.43454, 26.83027 ], [ 76.4369, 26.82408 ], [ 76.4407, 26.82031 ], [ 76.44036, 26.81858 ], [ 76.44136, 26.81585 ], [ 76.44414, 26.8133 ], [ 76.44747, 26.81608 ], [ 76.45092, 26.81535 ], [ 76.45317, 26.81034 ], [ 76.45511, 26.80813 ], [ 76.4555, 26.80399 ], [ 76.45837, 26.80314 ], [ 76.46032, 26.80317 ], [ 76.46656, 26.81113 ], [ 76.46991, 26.8123 ], [ 76.47085, 26.81379 ], [ 76.47359, 26.80779 ], [ 76.47997, 26.80667 ], [ 76.48081, 26.80588 ], [ 76.48088, 26.80409 ], [ 76.47978, 26.80215 ], [ 76.48255, 26.79858 ], [ 76.48641, 26.79537 ], [ 76.49253, 26.78634 ], [ 76.49581, 26.78314 ], [ 76.49777, 26.78276 ], [ 76.5006, 26.77669 ], [ 76.50122, 26.77405 ], [ 76.49836, 26.76918 ], [ 76.49789, 26.7606 ], [ 76.49209, 26.75043 ], [ 76.49347, 26.74653 ], [ 76.49017, 26.74308 ], [ 76.4796, 26.72785 ], [ 76.48034, 26.72449 ], [ 76.47565, 26.71808 ], [ 76.46923, 26.71813 ], [ 76.46371, 26.71921 ], [ 76.45883, 26.71852 ], [ 76.45122, 26.72053 ], [ 76.44197, 26.73416 ], [ 76.43329, 26.73369 ], [ 76.43097, 26.73208 ], [ 76.42515, 26.73512 ], [ 76.42066, 26.74001 ], [ 76.41822, 26.74392 ], [ 76.42166, 26.74709 ], [ 76.42048, 26.74907 ], [ 76.42226, 26.74898 ], [ 76.42461, 26.75083 ], [ 76.42652, 26.74998 ], [ 76.42846, 26.75301 ], [ 76.42754, 26.75489 ], [ 76.424, 26.75663 ], [ 76.42336, 26.75923 ], [ 76.42381, 26.7606 ], [ 76.41908, 26.76301 ], [ 76.41282, 26.76779 ], [ 76.41037, 26.77274 ], [ 76.40856, 26.77393 ], [ 76.40728, 26.77289 ], [ 76.40525, 26.77377 ], [ 76.40319, 26.77282 ], [ 76.40061, 26.7746 ], [ 76.3945, 26.7701 ], [ 76.39003, 26.77164 ], [ 76.38749, 26.77159 ], [ 76.38696, 26.77404 ], [ 76.38867, 26.77368 ], [ 76.38933, 26.77263 ], [ 76.38959, 26.77415 ], [ 76.38758, 26.77474 ], [ 76.386, 26.77659 ], [ 76.38524, 26.78024 ], [ 76.38388, 26.78043 ], [ 76.3821, 26.77917 ], [ 76.38056, 26.77972 ], [ 76.38105, 26.7828 ], [ 76.38037, 26.78491 ], [ 76.37765, 26.78777 ], [ 76.37662, 26.79219 ], [ 76.37117, 26.79573 ], [ 76.36883, 26.79477 ], [ 76.36758, 26.79515 ], [ 76.36847, 26.79325 ], [ 76.36682, 26.79269 ], [ 76.36508, 26.79493 ], [ 76.36566, 26.79872 ], [ 76.36746, 26.80321 ], [ 76.36933, 26.80464 ], [ 76.37024, 26.80804 ], [ 76.37347, 26.8083 ], [ 76.37483, 26.81546 ], [ 76.3725, 26.82082 ], [ 76.36467, 26.82648 ], [ 76.36139, 26.83028 ], [ 76.37181, 26.83469 ], [ 76.37376, 26.83427 ], [ 76.37602, 26.83606 ], [ 76.3812, 26.83522 ], [ 76.3811, 26.83275 ], [ 76.38254, 26.83284 ], [ 76.38944, 26.84012 ], [ 76.39216, 26.83996 ], [ 76.39381, 26.83825 ], [ 76.40015, 26.83643 ], [ 76.40174, 26.84448 ], [ 76.40008, 26.84547 ], [ 76.4011, 26.84824 ], [ 76.40474, 26.84815 ], [ 76.40459, 26.84764 ], [ 76.41212, 26.84527 ], [ 76.41301, 26.84619 ], [ 76.41427, 26.84594 ], [ 76.41498, 26.84862 ], [ 76.41461, 26.85074 ], [ 76.42036, 26.86363 ], [ 76.42135, 26.86746 ], [ 76.43122, 26.86521 ] ] ] } },
{ "type": "Feature", "properties": { "OBJECTID": 3358, "state_lgd": "08", "state_name": "RAJASTHAN", "district_lgd": "109", "district_name": "DAUSA", "district_name_source": "district_table", "subdistrict_lgd": "00537N002", "subdistrict_name": "Rahuwas", "subdistrict_type": "", "name_corrupted": false, "remarks": "", "label_lon": 76.337634174737545, "label_lat": 26.679941688381739 }, "geometry": { "type": "MultiPolygon", "coordinates": [ [ [ [ 76.3401, 26.74126 ], [ 76.34627, 26.73988 ], [ 76.34978, 26.73821 ], [ 76.34692, 26.73067 ], [ 76.34413, 26.73014 ], [ 76.34327, 26.73314 ], [ 76.34246, 26.73325 ], [ 76.34084, 26.73326 ], [ 76.33998, 26.73111 ], [ 76.33921, 26.73115 ], [ 76.33901, 26.72914 ], [ 76.34538, 26.72492 ], [ 76.34693, 26.72588 ], [ 76.34835, 26.72873 ], [ 76.34953, 26.72837 ], [ 76.3505, 26.7296 ], [ 76.35595, 26.72713 ], [ 76.35727, 26.72771 ], [ 76.35913, 26.73059 ], [ 76.36047, 26.73004 ], [ 76.36151, 26.73096 ], [ 76.36378, 26.72971 ], [ 76.36508, 26.73331 ], [ 76.36582, 26.73319 ], [ 76.36659, 26.73432 ], [ 76.36866, 26.73272 ], [ 76.36919, 26.73097 ], [ 76.36726, 26.73007 ], [ 76.36489, 26.72735 ], [ 76.36339, 26.72707 ], [ 76.36645, 26.72515 ], [ 76.36611, 26.72446 ], [ 76.36935, 26.72367 ], [ 76.37139, 26.72125 ], [ 76.37707, 26.72323 ], [ 76.38303, 26.72093 ], [ 76.38439, 26.7216 ], [ 76.39295, 26.71725 ], [ 76.39581, 26.71693 ], [ 76.39859, 26.72426 ], [ 76.39637, 26.72504 ], [ 76.39678, 26.72642 ], [ 76.3992, 26.72607 ], [ 76.39888, 26.72494 ], [ 76.39964, 26.72479 ], [ 76.40151, 26.72657 ], [ 76.40461, 26.72604 ], [ 76.40611, 26.72511 ], [ 76.4065, 26.72209 ], [ 76.40924, 26.72057 ], [ 76.40965, 26.71699 ], [ 76.41426, 26.71682 ], [ 76.419, 26.71304 ], [ 76.42151, 26.70849 ], [ 76.42346, 26.70859 ], [ 76.42382, 26.70759 ], [ 76.4228, 26.70664 ], [ 76.42994, 26.6946 ], [ 76.4253, 26.6884 ], [ 76.41912, 26.68247 ], [ 76.41978, 26.6808 ], [ 76.41651, 26.67817 ], [ 76.41619, 26.67652 ], [ 76.40793, 26.6669 ], [ 76.40547, 26.66527 ], [ 76.39998, 26.65723 ], [ 76.39184, 26.64988 ], [ 76.39001, 26.64925 ], [ 76.38299, 26.64162 ], [ 76.3804, 26.63744 ], [ 76.37673, 26.63758 ], [ 76.37398, 26.64045 ], [ 76.3709, 26.63591 ], [ 76.36732, 26.63471 ], [ 76.36473, 26.62874 ], [ 76.36624, 26.62678 ], [ 76.36568, 26.62586 ], [ 76.35623, 26.619 ], [ 76.35429, 26.61525 ], [ 76.35678, 26.60928 ], [ 76.36036, 26.60699 ], [ 76.36852, 26.59803 ], [ 76.36464, 26.5948 ], [ 76.35868, 26.59218 ], [ 76.35589, 26.58856 ], [ 76.34928, 26.59149 ], [ 76.34895, 26.59373 ], [ 76.34553, 26.59371 ], [ 76.33629, 26.6002 ], [ 76.33561, 26.60184 ], [ 76.33297, 26.60374 ], [ 76.33256, 26.6063 ], [ 76.33436, 26.60764 ], [ 76.33259, 26.61368 ], [ 76.32983, 26.61706 ], [ 76.32558, 26.61683 ], [ 76.3213, 26.61881 ], [ 76.3209, 26.61816 ], [ 76.31832, 26.61788 ], [ 76.31211, 26.62235 ], [ 76.30881, 26.6222 ], [ 76.30888, 26.6239 ], [ 76.30824, 26.62418 ], [ 76.30509, 26.62364 ], [ 76.29848, 26.62568 ], [ 76.2985, 26.62806 ], [ 76.30213, 26.62871 ], [ 76.3037, 26.63048 ], [ 76.30426, 26.63578 ], [ 76.30556, 26.63545 ], [ 76.30701, 26.63665 ], [ 76.31041, 26.63572 ], [ 76.31283, 26.63727 ], [ 76.31642, 26.63534 ], [ 76.31503, 26.64429 ], [ 76.31843, 26.64721 ], [ 76.31961, 26.65084 ], [ 76.31544, 26.65288 ], [ 76.31454, 26.6513 ], [ 76.31158, 26.65213 ], [ 76.3101, 26.64952 ], [ 76.30845, 26.65049 ], [ 76.30855, 26.65372 ], [ 76.30772, 26.65567 ], [ 76.30259, 26.65702 ], [ 76.30074, 26.6524 ], [ 76.29708, 26.65069 ], [ 76.29616, 26.6491 ], [ 76.29154, 26.65187 ], [ 76.28341, 26.6552 ], [ 76.2831, 26.66427 ], [ 76.28682, 26.67269 ], [ 76.28723, 26.6755 ], [ 76.28398, 26.67615 ], [ 76.28027, 26.67571 ], [ 76.27307, 26.67261 ], [ 76.27249, 26.67554 ], [ 76.26587, 26.67523 ], [ 76.26183, 26.67656 ], [ 76.26049, 26.67472 ], [ 76.2492, 26.676 ], [ 76.24789, 26.67682 ], [ 76.24662, 26.67953 ], [ 76.24434, 26.67997 ], [ 76.24091, 26.6851 ], [ 76.23724, 26.68616 ], [ 76.23825, 26.69167 ], [ 76.23742, 26.69366 ], [ 76.23409, 26.69477 ], [ 76.23371, 26.69585 ], [ 76.2362, 26.69597 ], [ 76.23365, 26.69972 ], [ 76.23646, 26.7036 ], [ 76.23883, 26.70489 ], [ 76.24239, 26.70559 ], [ 76.24812, 26.705 ], [ 76.25728, 26.70547 ], [ 76.25884, 26.70626 ], [ 76.26082, 26.71199 ], [ 76.2627, 26.72457 ], [ 76.26442, 26.72819 ], [ 76.26648, 26.72696 ], [ 76.27094, 26.72631 ], [ 76.27498, 26.72617 ], [ 76.27548, 26.72682 ], [ 76.28342, 26.72786 ], [ 76.29809, 26.72559 ], [ 76.29921, 26.72495 ], [ 76.29815, 26.7227 ], [ 76.29778, 26.7173 ], [ 76.29906, 26.71673 ], [ 76.30319, 26.71733 ], [ 76.30908, 26.71972 ], [ 76.31003, 26.72323 ], [ 76.3115, 26.72345 ], [ 76.3126, 26.7267 ], [ 76.31557, 26.72675 ], [ 76.31707, 26.73046 ], [ 76.31621, 26.73075 ], [ 76.31671, 26.73176 ], [ 76.31784, 26.73244 ], [ 76.31846, 26.73422 ], [ 76.31959, 26.73463 ], [ 76.31922, 26.73536 ], [ 76.32226, 26.73714 ], [ 76.32256, 26.73877 ], [ 76.32464, 26.74078 ], [ 76.32504, 26.74376 ], [ 76.32708, 26.7437 ], [ 76.32714, 26.74175 ], [ 76.33135, 26.74129 ], [ 76.33855, 26.74484 ], [ 76.34018, 26.74343 ], [ 76.3401, 26.74126 ] ], [ [ 76.34006, 26.74035 ], [ 76.33809, 26.73521 ], [ 76.34031, 26.73416 ], [ 76.34201, 26.7391 ], [ 76.34006, 26.74035 ] ] ], [ [ [ 76.3534, 26.73777 ], [ 76.35653, 26.73781 ], [ 76.3571, 26.73662 ], [ 76.35574, 26.73485 ], [ 76.35748, 26.73353 ], [ 76.35724, 26.73279 ], [ 76.35531, 26.73387 ], [ 76.35343, 26.73197 ], [ 76.35353, 26.73076 ], [ 76.35156, 26.73074 ], [ 76.34979, 26.73218 ], [ 76.35116, 26.73306 ], [ 76.35236, 26.73268 ], [ 76.35321, 26.73406 ], [ 76.3519, 26.73467 ], [ 76.3534, 26.73777 ] ] ], [ [ [ 76.35883, 26.73697 ], [ 76.35819, 26.73653 ], [ 76.35749, 26.73694 ], [ 76.35849, 26.73781 ], [ 76.35883, 26.73697 ] ] ], [ [ [ 76.35284, 26.74422 ], [ 76.35467, 26.74352 ], [ 76.35516, 26.74116 ], [ 76.36058, 26.74083 ], [ 76.36209, 26.73928 ], [ 76.36148, 26.73775 ], [ 76.35768, 26.73888 ], [ 76.35688, 26.73798 ], [ 76.34946, 26.74148 ], [ 76.3507, 26.74356 ], [ 76.35284, 26.74422 ] ] ] ] } },
{ "type": "Feature", "properties": { "OBJECTID": 3359, "state_lgd": "08", "state_name": "RAJASTHAN", "district_lgd": "109", "district_name": "DAUSA", "district_name_source": "district_table", "subdistrict_lgd": "00537N001", "subdistrict_name": "Ramgarh Pachwara", "subdistrict_type": "", "name_corrupted": false, "remarks": "", "label_lon": 76.230590440099149, "label_lat": 26.644913642960002 }, "geometry": { "type": "Polygon", "coordinates": [ [ [ 76.16399, 26.7181 ], [ 76.16729, 26.71801 ], [ 76.16773, 26.71332 ], [ 76.16923, 26.71313 ], [ 76.16979, 26.71546 ], [ 76.17347, 26.71569 ], [ 76.17523, 26.71487 ], [ 76.17408, 26.71314 ], [ 76.17101, 26.71244 ], [ 76.17114, 26.71121 ], [ 76.16941, 26.71086 ], [ 76.16967, 26.70898 ], [ 76.1739, 26.70695 ], [ 76.17381, 26.70331 ], [ 76.17227, 26.70043 ], [ 76.17323, 26.70016 ], [ 76.17276, 26.69767 ], [ 76.17135, 26.69598 ], [ 76.17024, 26.69042 ], [ 76.17255, 26.68951 ], [ 76.1725, 26.68888 ], [ 76.17886, 26.68751 ], [ 76.18218, 26.69608 ], [ 76.18554, 26.69862 ], [ 76.18639, 26.70161 ], [ 76.18899, 26.70111 ], [ 76.18912, 26.70203 ], [ 76.19515, 26.70039 ], [ 76.19852, 26.7112 ], [ 76.1997, 26.71358 ], [ 76.20114, 26.71331 ], [ 76.20096, 26.71262 ], [ 76.2046, 26.71183 ], [ 76.20435, 26.7109 ], [ 76.20643, 26.70987 ], [ 76.20632, 26.70828 ], [ 76.20811, 26.70785 ], [ 76.20698, 26.70523 ], [ 76.20747, 26.70358 ], [ 76.20951, 26.70222 ], [ 76.21512, 26.70055 ], [ 76.21378, 26.69693 ], [ 76.21549, 26.69614 ], [ 76.21592, 26.69745 ], [ 76.21876, 26.69764 ], [ 76.22311, 26.70021 ], [ 76.22339, 26.69909 ], [ 76.22937, 26.69908 ], [ 76.23508, 26.69728 ], [ 76.2362, 26.69597 ], [ 76.23371, 26.69585 ], [ 76.23381, 26.69509 ], [ 76.23742, 26.69366 ], [ 76.23825, 26.69167 ], [ 76.23724, 26.68616 ], [ 76.24091, 26.6851 ], [ 76.24434, 26.67997 ], [ 76.24662, 26.67953 ], [ 76.24789, 26.67682 ], [ 76.2492, 26.676 ], [ 76.26049, 26.67472 ], [ 76.26183, 26.67656 ], [ 76.26587, 26.67523 ], [ 76.27249, 26.67554 ], [ 76.27307, 26.67261 ], [ 76.28027, 26.67571 ], [ 76.28398, 26.67615 ], [ 76.28723, 26.6755 ], [ 76.28682, 26.67269 ], [ 76.2831, 26.66427 ], [ 76.28341, 26.6552 ], [ 76.29154, 26.65187 ], [ 76.29616, 26.6491 ], [ 76.29708, 26.65069 ], [ 76.30074, 26.6524 ], [ 76.30259, 26.65702 ], [ 76.30772, 26.65567 ], [ 76.30855, 26.65372 ], [ 76.30845, 26.65049 ], [ 76.3101, 26.64952 ], [ 76.31158, 26.65213 ], [ 76.31454, 26.6513 ], [ 76.31544, 26.65288 ], [ 76.31961, 26.65084 ], [ 76.31843, 26.64721 ], [ 76.31503, 26.64429 ], [ 76.31642, 26.63534 ], [ 76.31283, 26.63727 ], [ 76.31041, 26.63572 ], [ 76.30701, 26.63665 ], [ 76.30556, 26.63545 ], [ 76.30426, 26.63578 ], [ 76.30323, 26.62974 ], [ 76.29814, 26.62749 ], [ 76.29851, 26.62563 ], [ 76.30509, 26.62364 ], [ 76.30881, 26.62395 ], [ 76.30881, 26.6222 ], [ 76.30777, 26.62253 ], [ 76.30598, 26.62159 ], [ 76.30358, 26.62286 ], [ 76.30373, 26.62077 ], [ 76.30297, 26.61994 ], [ 76.30217, 26.62054 ], [ 76.30228, 26.62297 ], [ 76.29895, 26.62287 ], [ 76.29292, 26.61774 ], [ 76.2894, 26.60707 ], [ 76.29513, 26.60511 ], [ 76.29533, 26.60331 ], [ 76.29674, 26.60237 ], [ 76.29642, 26.60153 ], [ 76.29965, 26.59974 ], [ 76.30023, 26.6002 ], [ 76.30241, 26.59953 ], [ 76.30211, 26.59826 ], [ 76.30575, 26.59668 ], [ 76.30946, 26.59235 ], [ 76.31537, 26.59174 ], [ 76.31802, 26.5823 ], [ 76.31363, 26.58147 ], [ 76.31316, 26.58318 ], [ 76.31147, 26.5792 ], [ 76.30968, 26.57849 ], [ 76.30661, 26.57884 ], [ 76.30771, 26.57589 ], [ 76.31381, 26.57222 ], [ 76.31232, 26.57137 ], [ 76.30868, 26.5721 ], [ 76.29993, 26.57797 ], [ 76.29539, 26.57836 ], [ 76.28342, 26.5764 ], [ 76.2832, 26.58792 ], [ 76.27962, 26.58944 ], [ 76.26646, 26.58994 ], [ 76.26082, 26.58735 ], [ 76.25833, 26.5837 ], [ 76.25628, 26.58397 ], [ 76.25464, 26.58129 ], [ 76.24768, 26.58322 ], [ 76.24732, 26.58232 ], [ 76.23961, 26.58661 ], [ 76.23108, 26.5894 ], [ 76.23193, 26.59106 ], [ 76.2333, 26.59037 ], [ 76.23422, 26.59175 ], [ 76.2357, 26.59102 ], [ 76.23624, 26.59209 ], [ 76.23545, 26.59617 ], [ 76.23615, 26.59866 ], [ 76.23133, 26.60074 ], [ 76.22943, 26.60695 ], [ 76.22481, 26.60729 ], [ 76.22225, 26.60669 ], [ 76.21381, 26.60865 ], [ 76.21321, 26.60984 ], [ 76.21215, 26.60796 ], [ 76.21024, 26.60835 ], [ 76.20886, 26.60597 ], [ 76.20734, 26.60584 ], [ 76.20666, 26.60227 ], [ 76.20472, 26.60234 ], [ 76.19573, 26.60479 ], [ 76.19572, 26.60587 ], [ 76.1934, 26.60731 ], [ 76.1873, 26.61008 ], [ 76.18553, 26.6101 ], [ 76.18251, 26.61192 ], [ 76.18252, 26.61324 ], [ 76.17639, 26.61643 ], [ 76.17498, 26.61957 ], [ 76.17858, 26.6224 ], [ 76.17998, 26.62579 ], [ 76.18007, 26.62806 ], [ 76.17873, 26.63185 ], [ 76.17574, 26.63529 ], [ 76.17341, 26.63586 ], [ 76.17287, 26.63846 ], [ 76.16581, 26.63837 ], [ 76.16306, 26.64055 ], [ 76.16232, 26.64338 ], [ 76.16344, 26.64487 ], [ 76.16318, 26.64646 ], [ 76.15808, 26.65242 ], [ 76.15313, 26.65993 ], [ 76.15776, 26.66252 ], [ 76.15732, 26.66437 ], [ 76.15207, 26.66795 ], [ 76.15474, 26.66974 ], [ 76.154, 26.67346 ], [ 76.15137, 26.67651 ], [ 76.15544, 26.68153 ], [ 76.15446, 26.68558 ], [ 76.15399, 26.68665 ], [ 76.15222, 26.68714 ], [ 76.14981, 26.6924 ], [ 76.14485, 26.6939 ], [ 76.14672, 26.69816 ], [ 76.14951, 26.69697 ], [ 76.15053, 26.7048 ], [ 76.14936, 26.70567 ], [ 76.15037, 26.70899 ], [ 76.15797, 26.71419 ], [ 76.16328, 26.71677 ], [ 76.16399, 26.7181 ] ] ] } },
{ "type": "Feature", "properties": { "OBJECTID": 3360, "state_lgd": "08", "state_name": "RAJASTHAN", "district_lgd": "109", "district_name": "DAUSA", "district_name_source": "district_table", "subdistrict_lgd": "00536N003", "subdistrict_name": "Sainthal", "subdistrict_type": "", "name_corrupted": false, "remarks": "", "label_lon": 76.319309963659748, "label_lat": 27.018956997415863 }, "geometry": { "type": "Polygon", "coordinates": [ [ [ 76.38576, 27.06078 ], [ 76.3884, 27.05041 ], [ 76.3869, 27.04177 ], [ 76.38841, 27.03652 ], [ 76.3856, 27.03697 ], [ 76.36376, 27.03029 ], [ 76.36103, 27.02594 ], [ 76.36057, 27.02248 ], [ 76.35556, 27.01868 ], [ 76.34578, 27.02366 ], [ 76.34103, 27.01072 ], [ 76.3448, 27.00624 ], [ 76.34764, 27.00667 ], [ 76.34811, 27.00114 ], [ 76.35459, 26.99951 ], [ 76.36454, 26.99228 ], [ 76.36623, 26.9915 ], [ 76.36832, 26.99473 ], [ 76.37401, 26.99144 ], [ 76.37489, 26.99398 ], [ 76.37815, 26.99254 ], [ 76.37785, 26.98931 ], [ 76.37867, 26.98944 ], [ 76.37755, 26.97822 ], [ 76.37943, 26.97762 ], [ 76.37883, 26.97647 ], [ 76.3825, 26.97473 ], [ 76.37694, 26.96401 ], [ 76.38456, 26.9639 ], [ 76.37559, 26.95681 ], [ 76.36735, 26.95855 ], [ 76.36184, 26.96149 ], [ 76.35994, 26.96389 ], [ 76.35739, 26.97321 ], [ 76.35483, 26.97559 ], [ 76.35055, 26.97504 ], [ 76.34723, 26.97844 ], [ 76.34492, 26.98288 ], [ 76.34175, 26.98622 ], [ 76.33779, 26.98785 ], [ 76.33011, 26.98778 ], [ 76.30633, 26.98373 ], [ 76.29748, 26.97965 ], [ 76.29199, 26.97376 ], [ 76.28772, 26.97226 ], [ 76.28315, 26.96836 ], [ 76.2798, 26.96787 ], [ 76.27429, 26.97051 ], [ 76.26909, 26.97445 ], [ 76.27343, 26.98249 ], [ 76.27503, 26.99076 ], [ 76.27069, 26.99353 ], [ 76.27052, 26.99511 ], [ 76.27232, 26.99888 ], [ 76.27217, 27.00164 ], [ 76.26814, 27.00346 ], [ 76.26749, 27.0023 ], [ 76.25391, 27.00468 ], [ 76.25276, 27.00235 ], [ 76.25113, 27.0027 ], [ 76.25062, 27.00134 ], [ 76.24817, 27.00233 ], [ 76.2477, 27.00432 ], [ 76.23716, 27.0104 ], [ 76.23781, 27.01173 ], [ 76.23652, 27.0122 ], [ 76.23793, 27.0151 ], [ 76.2411, 27.0182 ], [ 76.24047, 27.01862 ], [ 76.2412, 27.01967 ], [ 76.24412, 27.0191 ], [ 76.24547, 27.0213 ], [ 76.24735, 27.02047 ], [ 76.25396, 27.02036 ], [ 76.25501, 27.02057 ], [ 76.25573, 27.02272 ], [ 76.25783, 27.02217 ], [ 76.25896, 27.02311 ], [ 76.25836, 27.02483 ], [ 76.257, 27.02767 ], [ 76.2553, 27.02807 ], [ 76.25528, 27.02944 ], [ 76.25918, 27.03166 ], [ 76.26579, 27.03108 ], [ 76.26744, 27.03244 ], [ 76.26711, 27.03445 ], [ 76.27677, 27.04202 ], [ 76.27803, 27.04395 ], [ 76.27856, 27.04853 ], [ 76.27965, 27.04873 ], [ 76.28013, 27.05097 ], [ 76.27821, 27.05192 ], [ 76.27911, 27.05305 ], [ 76.27934, 27.06285 ], [ 76.2804, 27.06449 ], [ 76.29896, 27.06147 ], [ 76.31611, 27.06001 ], [ 76.32019, 27.0575 ], [ 76.32722, 27.05502 ], [ 76.32878, 27.05926 ], [ 76.34067, 27.05933 ], [ 76.34537, 27.05621 ], [ 76.3513, 27.05435 ], [ 76.35243, 27.05641 ], [ 76.35475, 27.05652 ], [ 76.35721, 27.05811 ], [ 76.3587, 27.06251 ], [ 76.36668, 27.06797 ], [ 76.36954, 27.07226 ], [ 76.37595, 27.06983 ], [ 76.38576, 27.06078 ] ] ] } },
{ "type": "Feature", "properties": { "OBJECTID": 3361, "state_lgd": "08", "state_name": "RAJASTHAN", "district_lgd": "109", "district_name": "DAUSA", "district_name_source": "district_table", "subdistrict_lgd": "00535", "subdistrict_name": "Sikrai", "subdistrict_type": "", "name_corrupted": false, "remarks": "", "label_lon": 76.661591588425452, "label_lat": 26.922979736352303 }, "geometry": { "type": "Polygon", "coordinates": [ [ [ 76.76304, 26.99681 ], [ 76.77261, 26.99812 ], [ 76.77357, 26.99913 ], [ 76.77783, 26.99803 ], [ 76.79501, 26.99627 ], [ 76.7992, 26.99526 ], [ 76.80453, 26.99256 ], [ 76.79962, 26.98615 ], [ 76.79706, 26.98593 ], [ 76.79601, 26.98461 ], [ 76.79493, 26.97154 ], [ 76.79606, 26.97135 ], [ 76.79807, 26.96415 ], [ 76.79789, 26.96296 ], [ 76.79682, 26.96357 ], [ 76.79743, 26.95934 ], [ 76.79629, 26.95032 ], [ 76.79501, 26.94682 ], [ 76.79612, 26.94642 ], [ 76.79607, 26.94576 ], [ 76.79393, 26.93943 ], [ 76.79323, 26.93334 ], [ 76.7904, 26.92984 ], [ 76.78794, 26.92836 ], [ 76.78717, 26.92448 ], [ 76.78229, 26.91592 ], [ 76.77697, 26.91505 ], [ 76.77156, 26.91254 ], [ 76.76555, 26.90806 ], [ 76.76746, 26.90361 ], [ 76.767, 26.90317 ], [ 76.76937, 26.90139 ], [ 76.77545, 26.89377 ], [ 76.77005, 26.88926 ], [ 76.75913, 26.88278 ], [ 76.75238, 26.87688 ], [ 76.74783, 26.87636 ], [ 76.73715, 26.87207 ], [ 76.72853, 26.86755 ], [ 76.71394, 26.86337 ], [ 76.71058, 26.85799 ], [ 76.70978, 26.85839 ], [ 76.69858, 26.85345 ], [ 76.69605, 26.85091 ], [ 76.68602, 26.84589 ], [ 76.68447, 26.84404 ], [ 76.68357, 26.84441 ], [ 76.6797, 26.8409 ], [ 76.66947, 26.83452 ], [ 76.66599, 26.8315 ], [ 76.66632, 26.83027 ], [ 76.65283, 26.81851 ], [ 76.65158, 26.81852 ], [ 76.65097, 26.81939 ], [ 76.6473, 26.82665 ], [ 76.63667, 26.83347 ], [ 76.63663, 26.83432 ], [ 76.63475, 26.83561 ], [ 76.63405, 26.83911 ], [ 76.62943, 26.83671 ], [ 76.62727, 26.83698 ], [ 76.62296, 26.83381 ], [ 76.6173, 26.83155 ], [ 76.61582, 26.83458 ], [ 76.61227, 26.83435 ], [ 76.61235, 26.836 ], [ 76.61464, 26.84039 ], [ 76.61924, 26.84613 ], [ 76.62061, 26.85144 ], [ 76.62632, 26.8608 ], [ 76.62204, 26.86194 ], [ 76.61937, 26.86403 ], [ 76.60674, 26.86301 ], [ 76.60368, 26.86465 ], [ 76.60122, 26.86499 ], [ 76.59912, 26.86724 ], [ 76.59603, 26.86838 ], [ 76.59453, 26.87076 ], [ 76.5922, 26.87109 ], [ 76.59128, 26.87234 ], [ 76.58882, 26.87228 ], [ 76.58686, 26.87579 ], [ 76.58221, 26.87973 ], [ 76.58459, 26.88486 ], [ 76.58674, 26.89591 ], [ 76.58487, 26.89653 ], [ 76.58487, 26.89792 ], [ 76.58321, 26.90056 ], [ 76.58011, 26.90378 ], [ 76.57965, 26.90292 ], [ 76.5703, 26.89793 ], [ 76.56417, 26.89732 ], [ 76.56168, 26.89071 ], [ 76.55282, 26.89517 ], [ 76.55017, 26.89289 ], [ 76.54903, 26.8936 ], [ 76.5487, 26.89503 ], [ 76.54714, 26.89095 ], [ 76.54377, 26.89058 ], [ 76.54364, 26.88969 ], [ 76.53214, 26.8983 ], [ 76.53309, 26.89894 ], [ 76.52754, 26.8994 ], [ 76.52158, 26.90453 ], [ 76.51996, 26.90498 ], [ 76.51889, 26.90735 ], [ 76.50975, 26.90761 ], [ 76.50216, 26.91299 ], [ 76.49296, 26.91598 ], [ 76.48954, 26.91938 ], [ 76.48891, 26.9219 ], [ 76.48609, 26.92421 ], [ 76.48964, 26.92707 ], [ 76.48403, 26.93192 ], [ 76.49009, 26.93757 ], [ 76.4912, 26.93977 ], [ 76.49627, 26.93959 ], [ 76.50199, 26.94431 ], [ 76.50291, 26.94174 ], [ 76.50635, 26.93997 ], [ 76.51478, 26.9451 ], [ 76.51827, 26.94592 ], [ 76.51865, 26.9519 ], [ 76.53544, 26.9522 ], [ 76.54651, 26.95364 ], [ 76.54917, 26.94928 ], [ 76.55339, 26.94737 ], [ 76.55359, 26.94572 ], [ 76.5566, 26.94433 ], [ 76.55537, 26.94781 ], [ 76.55712, 26.94851 ], [ 76.55651, 26.95292 ], [ 76.56384, 26.95211 ], [ 76.56652, 26.95266 ], [ 76.56549, 26.95545 ], [ 76.56677, 26.95869 ], [ 76.56702, 26.96242 ], [ 76.56752, 26.96295 ], [ 76.57073, 26.96228 ], [ 76.57001, 26.96694 ], [ 76.56744, 26.97217 ], [ 76.57503, 26.97482 ], [ 76.57937, 26.97752 ], [ 76.58751, 26.97795 ], [ 76.59508, 26.9812 ], [ 76.60222, 26.98093 ], [ 76.60975, 26.98263 ], [ 76.61306, 26.98384 ], [ 76.61969, 26.98811 ], [ 76.62778, 26.99141 ], [ 76.63614, 26.99036 ], [ 76.64816, 26.98506 ], [ 76.6514, 26.98432 ], [ 76.65765, 26.98346 ], [ 76.6669, 26.9835 ], [ 76.67391, 26.9814 ], [ 76.67893, 26.98108 ], [ 76.68367, 26.98248 ], [ 76.69059, 26.98093 ], [ 76.69672, 26.98095 ], [ 76.70413, 26.97896 ], [ 76.71115, 26.97959 ], [ 76.71692, 26.98109 ], [ 76.7225, 26.98358 ], [ 76.72886, 26.98792 ], [ 76.74278, 26.98975 ], [ 76.7477, 26.99293 ], [ 76.74887, 26.99205 ], [ 76.75036, 26.99343 ], [ 76.75047, 26.99468 ], [ 76.74951, 26.99942 ], [ 76.75501, 26.99963 ], [ 76.76304, 26.99681 ] ] ] } }
]
}
