{
"type": "FeatureCollection",
"name": "779_BEAWAR",
"crs": { "type": "name", "properties": { "name": "urn:ogc:def:crs:OGC:1.3:CRS84" } },
"xy_coordinate_resolution": 1e-05,
"features": [
{ "type": "Feature", "properties": { "OBJECTID": 3271, "state_lgd": "08", "state_name": "RAJASTHAN", "district_lgd": "779", "district_name": "BEAWAR", "district_name_source": "district_table", "subdistrict_lgd": "00627N001", "subdistrict_name": "Badnor", "subdistrict_type": "", "name_corrupted": false, "remarks": "", "label_lon": 74.300893525034923, "label_lat": 25.839877690753244 }, "geometry": { "type": "Polygon", "coordinates": [ [ [ 74.39745, 25.95589 ], [ 74.40575, 25.95212 ], [ 74.41138, 25.94589 ], [ 74.41351, 25.93764 ], [ 74.41657, 25.93589 ], [ 74.41992, 25.93625 ], [ 74.42348, 25.9352 ], [ 74.42249, 25.93201 ], [ 74.42481, 25.9304 ], [ 74.42914, 25.92973 ], [ 74.43711, 25.92667 ], [ 74.45065, 25.93229 ], [ 74.46448, 25.93203 ], [ 74.47394, 25.92694 ], [ 74.47655, 25.92641 ], [ 74.47321, 25.91637 ], [ 74.46808, 25.90696 ], [ 74.46654, 25.90717 ], [ 74.46845, 25.90251 ], [ 74.46828, 25.9004 ], [ 74.46024, 25.90379 ], [ 74.45661, 25.90163 ], [ 74.45319, 25.9031 ], [ 74.45182, 25.90228 ], [ 74.44995, 25.90275 ], [ 74.44685, 25.90511 ], [ 74.4374, 25.90782 ], [ 74.43514, 25.9035 ], [ 74.43159, 25.89953 ], [ 74.43081, 25.89365 ], [ 74.41339, 25.90026 ], [ 74.41246, 25.90632 ], [ 74.41062, 25.90819 ], [ 74.41071, 25.90902 ], [ 74.40825, 25.91141 ], [ 74.40836, 25.91242 ], [ 74.40349, 25.91529 ], [ 74.40175, 25.91762 ], [ 74.39299, 25.90915 ], [ 74.3918, 25.91097 ], [ 74.38571, 25.89914 ], [ 74.3873, 25.89779 ], [ 74.38639, 25.89568 ], [ 74.38741, 25.89397 ], [ 74.3857, 25.88843 ], [ 74.38484, 25.88622 ], [ 74.38059, 25.88114 ], [ 74.37778, 25.87858 ], [ 74.37023, 25.87963 ], [ 74.36773, 25.88069 ], [ 74.36442, 25.87704 ], [ 74.35922, 25.87708 ], [ 74.36363, 25.86915 ], [ 74.36944, 25.86183 ], [ 74.36748, 25.85928 ], [ 74.36861, 25.85769 ], [ 74.36521, 25.85026 ], [ 74.36281, 25.8479 ], [ 74.36942, 25.84178 ], [ 74.37114, 25.83788 ], [ 74.37171, 25.83371 ], [ 74.36929, 25.83293 ], [ 74.37482, 25.82666 ], [ 74.37602, 25.82297 ], [ 74.36444, 25.81501 ], [ 74.3585, 25.81354 ], [ 74.35868, 25.80996 ], [ 74.35371, 25.80361 ], [ 74.35236, 25.79597 ], [ 74.33973, 25.78809 ], [ 74.33878, 25.78658 ], [ 74.33983, 25.7847 ], [ 74.33936, 25.78342 ], [ 74.33598, 25.78531 ], [ 74.32935, 25.78716 ], [ 74.32027, 25.78837 ], [ 74.31735, 25.79061 ], [ 74.31091, 25.79225 ], [ 74.3052, 25.78794 ], [ 74.30483, 25.78326 ], [ 74.30515, 25.77699 ], [ 74.31085, 25.76926 ], [ 74.31144, 25.76556 ], [ 74.29993, 25.76338 ], [ 74.28023, 25.75632 ], [ 74.27575, 25.75781 ], [ 74.27401, 25.75553 ], [ 74.27214, 25.75469 ], [ 74.26748, 25.75422 ], [ 74.26416, 25.75742 ], [ 74.25731, 25.75323 ], [ 74.25409, 25.74944 ], [ 74.25028, 25.74288 ], [ 74.24921, 25.74425 ], [ 74.2359, 25.74042 ], [ 74.22275, 25.73443 ], [ 74.22215, 25.73309 ], [ 74.21915, 25.73329 ], [ 74.21109, 25.73142 ], [ 74.20351, 25.7234 ], [ 74.19931, 25.72025 ], [ 74.19848, 25.71623 ], [ 74.19623, 25.71199 ], [ 74.19258, 25.70954 ], [ 74.18984, 25.70971 ], [ 74.18741, 25.70831 ], [ 74.18729, 25.71223 ], [ 74.18214, 25.71594 ], [ 74.1788, 25.72018 ], [ 74.17562, 25.73308 ], [ 74.17325, 25.73625 ], [ 74.18253, 25.7374 ], [ 74.18211, 25.74013 ], [ 74.19539, 25.73961 ], [ 74.19175, 25.76181 ], [ 74.18919, 25.76218 ], [ 74.1874, 25.76472 ], [ 74.18918, 25.76845 ], [ 74.19632, 25.76761 ], [ 74.19903, 25.76907 ], [ 74.20005, 25.77101 ], [ 74.20345, 25.77328 ], [ 74.20826, 25.77501 ], [ 74.20279, 25.78446 ], [ 74.19841, 25.80081 ], [ 74.20297, 25.80205 ], [ 74.21253, 25.80777 ], [ 74.19479, 25.81442 ], [ 74.19338, 25.81976 ], [ 74.18966, 25.8191 ], [ 74.18844, 25.81805 ], [ 74.18012, 25.81668 ], [ 74.17087, 25.81138 ], [ 74.17309, 25.82553 ], [ 74.17606, 25.82712 ], [ 74.18083, 25.83324 ], [ 74.17997, 25.83876 ], [ 74.18262, 25.84364 ], [ 74.18439, 25.84539 ], [ 74.18476, 25.84677 ], [ 74.1838, 25.84811 ], [ 74.19321, 25.85351 ], [ 74.19556, 25.85373 ], [ 74.19969, 25.85191 ], [ 74.2025, 25.85447 ], [ 74.21087, 25.85321 ], [ 74.21146, 25.85546 ], [ 74.21226, 25.85549 ], [ 74.21317, 25.85099 ], [ 74.22657, 25.8433 ], [ 74.23054, 25.84471 ], [ 74.23137, 25.84642 ], [ 74.23433, 25.84802 ], [ 74.23403, 25.85183 ], [ 74.23602, 25.85443 ], [ 74.24921, 25.86542 ], [ 74.25504, 25.86922 ], [ 74.26407, 25.87132 ], [ 74.26575, 25.87373 ], [ 74.26913, 25.87212 ], [ 74.27915, 25.87765 ], [ 74.28289, 25.88049 ], [ 74.28845, 25.88722 ], [ 74.29234, 25.89026 ], [ 74.29558, 25.89091 ], [ 74.30052, 25.89028 ], [ 74.30622, 25.89532 ], [ 74.30665, 25.89655 ], [ 74.31178, 25.8949 ], [ 74.31681, 25.88678 ], [ 74.32261, 25.88969 ], [ 74.32619, 25.89241 ], [ 74.32843, 25.89281 ], [ 74.33193, 25.89689 ], [ 74.33165, 25.89771 ], [ 74.33691, 25.89854 ], [ 74.34327, 25.90087 ], [ 74.34658, 25.90273 ], [ 74.34753, 25.90451 ], [ 74.34697, 25.90607 ], [ 74.34749, 25.91352 ], [ 74.34644, 25.9165 ], [ 74.34626, 25.92035 ], [ 74.34448, 25.92136 ], [ 74.33378, 25.92179 ], [ 74.33126, 25.92298 ], [ 74.32839, 25.92288 ], [ 74.3289, 25.92394 ], [ 74.32742, 25.9304 ], [ 74.32948, 25.9338 ], [ 74.32846, 25.93686 ], [ 74.33612, 25.9415 ], [ 74.34032, 25.93969 ], [ 74.3437, 25.94029 ], [ 74.34479, 25.94164 ], [ 74.34752, 25.94236 ], [ 74.34865, 25.94372 ], [ 74.34962, 25.94751 ], [ 74.35319, 25.95082 ], [ 74.37071, 25.95242 ], [ 74.37504, 25.95487 ], [ 74.37554, 25.95447 ], [ 74.38565, 25.96202 ], [ 74.38801, 25.963 ], [ 74.39094, 25.96011 ], [ 74.39745, 25.95589 ] ] ] } },
{ "type": "Feature", "properties": { "OBJECTID": 3272, "state_lgd": "08", "state_name": "RAJASTHAN", "district_lgd": "779", "district_name": "BEAWAR", "district_name_source": "district_table", "subdistrict_lgd": "00609", "subdistrict_name": "Beawar", "subdistrict_type": "", "name_corrupted": false, "remarks": "", "label_lon": 74.272643158328719, "label_lat": 26.004310599769354 }, "geometry": { "type": "Polygon", "coordinates": [ [ [ 74.34611, 26.195 ], [ 74.35126, 26.19507 ], [ 74.35334, 26.19162 ], [ 74.36668, 26.19137 ], [ 74.37161, 26.18747 ], [ 74.37382, 26.17892 ], [ 74.37363, 26.17296 ], [ 74.37141, 26.16602 ], [ 74.36879, 26.1626 ], [ 74.37059, 26.15846 ], [ 74.37856, 26.15801 ], [ 74.39047, 26.14971 ], [ 74.39328, 26.1487 ], [ 74.39606, 26.15096 ], [ 74.39726, 26.14993 ], [ 74.4014, 26.15079 ], [ 74.40368, 26.14996 ], [ 74.40771, 26.14742 ], [ 74.40892, 26.14567 ], [ 74.41267, 26.14454 ], [ 74.41889, 26.13853 ], [ 74.41429, 26.13697 ], [ 74.41168, 26.13498 ], [ 74.41112, 26.1309 ], [ 74.41197, 26.12721 ], [ 74.41064, 26.12336 ], [ 74.40641, 26.11599 ], [ 74.40878, 26.11357 ], [ 74.4102, 26.10948 ], [ 74.40708, 26.10483 ], [ 74.41589, 26.10263 ], [ 74.4181, 26.09604 ], [ 74.41616, 26.08841 ], [ 74.41008, 26.07917 ], [ 74.40529, 26.08349 ], [ 74.39926, 26.08606 ], [ 74.39981, 26.08824 ], [ 74.39788, 26.09341 ], [ 74.39396, 26.09767 ], [ 74.39551, 26.09897 ], [ 74.39598, 26.10053 ], [ 74.39521, 26.10161 ], [ 74.39384, 26.10131 ], [ 74.39399, 26.10291 ], [ 74.39299, 26.10359 ], [ 74.39117, 26.10322 ], [ 74.3881, 26.10098 ], [ 74.3869, 26.10229 ], [ 74.38568, 26.10205 ], [ 74.37714, 26.09844 ], [ 74.37517, 26.09486 ], [ 74.37298, 26.08784 ], [ 74.37281, 26.08647 ], [ 74.37375, 26.08563 ], [ 74.37031, 26.08538 ], [ 74.3703, 26.08291 ], [ 74.36755, 26.07817 ], [ 74.36767, 26.07313 ], [ 74.36208, 26.06763 ], [ 74.35958, 26.06675 ], [ 74.35917, 26.06185 ], [ 74.36147, 26.05313 ], [ 74.35835, 26.0517 ], [ 74.35588, 26.05172 ], [ 74.35433, 26.04971 ], [ 74.35651, 26.04715 ], [ 74.35638, 26.04572 ], [ 74.35757, 26.04446 ], [ 74.35532, 26.0433 ], [ 74.35784, 26.04096 ], [ 74.35644, 26.0389 ], [ 74.35741, 26.03594 ], [ 74.35611, 26.03291 ], [ 74.35474, 26.02464 ], [ 74.35335, 26.02471 ], [ 74.35317, 26.0202 ], [ 74.35714, 26.016 ], [ 74.36157, 26.01884 ], [ 74.36854, 26.01623 ], [ 74.37207, 26.01262 ], [ 74.37494, 26.01203 ], [ 74.3756, 26.01024 ], [ 74.37778, 26.00949 ], [ 74.37838, 26.00777 ], [ 74.3794, 26.01047 ], [ 74.38366, 26.00611 ], [ 74.3855, 26.00584 ], [ 74.38702, 26.00135 ], [ 74.38408, 25.99261 ], [ 74.38932, 25.98931 ], [ 74.39064, 25.98582 ], [ 74.387, 25.97886 ], [ 74.3855, 25.97421 ], [ 74.38548, 25.97198 ], [ 74.38691, 25.96937 ], [ 74.38801, 25.963 ], [ 74.38565, 25.96202 ], [ 74.37554, 25.95447 ], [ 74.37504, 25.95487 ], [ 74.37071, 25.95242 ], [ 74.35319, 25.95082 ], [ 74.34962, 25.94751 ], [ 74.34865, 25.94372 ], [ 74.34752, 25.94236 ], [ 74.34479, 25.94164 ], [ 74.3437, 25.94029 ], [ 74.34032, 25.93969 ], [ 74.33612, 25.9415 ], [ 74.32846, 25.93686 ], [ 74.32948, 25.9338 ], [ 74.32742, 25.9304 ], [ 74.3289, 25.92394 ], [ 74.32839, 25.92288 ], [ 74.33126, 25.92298 ], [ 74.33378, 25.92179 ], [ 74.34448, 25.92136 ], [ 74.34653, 25.91992 ], [ 74.34644, 25.9165 ], [ 74.34749, 25.91352 ], [ 74.34697, 25.90607 ], [ 74.34753, 25.90451 ], [ 74.34683, 25.90307 ], [ 74.34047, 25.89973 ], [ 74.33165, 25.89771 ], [ 74.33193, 25.89689 ], [ 74.32843, 25.89281 ], [ 74.32619, 25.89241 ], [ 74.32319, 25.89 ], [ 74.31681, 25.88678 ], [ 74.31178, 25.8949 ], [ 74.30665, 25.89655 ], [ 74.30622, 25.89532 ], [ 74.30052, 25.89028 ], [ 74.29558, 25.89091 ], [ 74.29234, 25.89026 ], [ 74.28845, 25.88722 ], [ 74.28289, 25.88049 ], [ 74.27915, 25.87765 ], [ 74.26913, 25.87212 ], [ 74.26575, 25.87373 ], [ 74.26407, 25.87132 ], [ 74.25504, 25.86922 ], [ 74.24921, 25.86542 ], [ 74.23602, 25.85443 ], [ 74.23403, 25.85183 ], [ 74.23433, 25.84802 ], [ 74.23137, 25.84642 ], [ 74.23054, 25.84471 ], [ 74.22657, 25.8433 ], [ 74.21317, 25.85099 ], [ 74.21226, 25.85549 ], [ 74.21146, 25.85546 ], [ 74.21087, 25.85321 ], [ 74.2025, 25.85447 ], [ 74.19969, 25.85191 ], [ 74.19556, 25.85373 ], [ 74.19321, 25.85351 ], [ 74.1839, 25.84815 ], [ 74.17868, 25.84639 ], [ 74.15668, 25.85227 ], [ 74.15087, 25.85719 ], [ 74.13729, 25.85646 ], [ 74.12597, 25.86366 ], [ 74.12094, 25.86311 ], [ 74.11571, 25.86424 ], [ 74.11354, 25.86609 ], [ 74.11391, 25.87054 ], [ 74.1145, 25.87431 ], [ 74.11713, 25.88089 ], [ 74.12348, 25.88395 ], [ 74.13389, 25.88513 ], [ 74.1391, 25.88872 ], [ 74.14099, 25.89297 ], [ 74.14037, 25.89743 ], [ 74.15116, 25.9105 ], [ 74.15383, 25.91321 ], [ 74.15738, 25.91517 ], [ 74.1603, 25.91989 ], [ 74.16326, 25.92696 ], [ 74.15077, 25.93878 ], [ 74.14981, 25.94153 ], [ 74.14774, 25.94263 ], [ 74.1577, 25.95685 ], [ 74.15168, 25.9583 ], [ 74.14633, 25.95573 ], [ 74.14386, 25.95736 ], [ 74.13998, 25.95812 ], [ 74.13314, 25.95561 ], [ 74.12648, 25.96008 ], [ 74.1304, 25.962 ], [ 74.14146, 25.97477 ], [ 74.14917, 25.98534 ], [ 74.15543, 25.99181 ], [ 74.16337, 25.99821 ], [ 74.16543, 26.00101 ], [ 74.16696, 26.0062 ], [ 74.16973, 26.01008 ], [ 74.16779, 26.01612 ], [ 74.15428, 26.02571 ], [ 74.15411, 26.03189 ], [ 74.15215, 26.04166 ], [ 74.1525, 26.04637 ], [ 74.15568, 26.04871 ], [ 74.15878, 26.05247 ], [ 74.15965, 26.05627 ], [ 74.15928, 26.05914 ], [ 74.16192, 26.0658 ], [ 74.16197, 26.06831 ], [ 74.17043, 26.0678 ], [ 74.17296, 26.06506 ], [ 74.17638, 26.06322 ], [ 74.17498, 26.05053 ], [ 74.17536, 26.04258 ], [ 74.17669, 26.03701 ], [ 74.17911, 26.03306 ], [ 74.18054, 26.03271 ], [ 74.18522, 26.03226 ], [ 74.18965, 26.03519 ], [ 74.19308, 26.0364 ], [ 74.197, 26.03935 ], [ 74.20614, 26.04858 ], [ 74.20898, 26.0465 ], [ 74.21491, 26.04683 ], [ 74.21773, 26.04782 ], [ 74.22132, 26.0521 ], [ 74.21992, 26.05505 ], [ 74.2252, 26.0578 ], [ 74.22931, 26.05814 ], [ 74.23056, 26.05509 ], [ 74.2387, 26.05243 ], [ 74.24417, 26.05402 ], [ 74.23986, 26.05964 ], [ 74.23693, 26.06709 ], [ 74.24374, 26.07931 ], [ 74.24552, 26.08026 ], [ 74.2503, 26.08694 ], [ 74.25762, 26.0908 ], [ 74.25857, 26.09629 ], [ 74.26154, 26.09795 ], [ 74.2655, 26.10292 ], [ 74.2714, 26.10219 ], [ 74.2736, 26.1061 ], [ 74.27953, 26.11353 ], [ 74.28156, 26.11428 ], [ 74.2869, 26.12178 ], [ 74.29702, 26.12424 ], [ 74.29967, 26.12985 ], [ 74.30205, 26.13292 ], [ 74.29007, 26.14375 ], [ 74.2907, 26.14602 ], [ 74.28273, 26.15343 ], [ 74.27737, 26.15561 ], [ 74.27207, 26.15902 ], [ 74.2699, 26.16358 ], [ 74.27096, 26.17187 ], [ 74.27194, 26.17405 ], [ 74.28168, 26.17131 ], [ 74.28509, 26.16908 ], [ 74.28981, 26.17066 ], [ 74.29224, 26.17805 ], [ 74.30009, 26.18571 ], [ 74.30296, 26.18676 ], [ 74.3084, 26.18546 ], [ 74.31422, 26.18172 ], [ 74.31603, 26.18163 ], [ 74.31761, 26.18202 ], [ 74.31853, 26.18323 ], [ 74.31901, 26.18699 ], [ 74.3242, 26.18987 ], [ 74.32852, 26.19077 ], [ 74.33947, 26.19637 ], [ 74.34611, 26.195 ] ] ] } },
{ "type": "Feature", "properties": { "OBJECTID": 3273, "state_lgd": "08", "state_name": "RAJASTHAN", "district_lgd": "779", "district_name": "BEAWAR", "district_name_source": "district_table", "subdistrict_lgd": "00597", "subdistrict_name": "Jaitaran", "subdistrict_type": "", "name_corrupted": false, "remarks": "", "label_lon": 74.020316472551016, "label_lat": 26.290030989293172 }, "geometry": { "type": "Polygon", "coordinates": [ [ [ 74.1314, 26.44419 ], [ 74.13197, 26.44093 ], [ 74.13299, 26.44117 ], [ 74.13484, 26.43839 ], [ 74.13648, 26.43901 ], [ 74.13766, 26.43723 ], [ 74.13884, 26.43766 ], [ 74.1394, 26.43561 ], [ 74.13794, 26.43507 ], [ 74.14029, 26.43057 ], [ 74.14642, 26.43085 ], [ 74.14638, 26.42846 ], [ 74.15415, 26.42533 ], [ 74.15742, 26.42487 ], [ 74.15739, 26.41974 ], [ 74.15997, 26.41038 ], [ 74.1729, 26.41602 ], [ 74.17197, 26.41989 ], [ 74.17275, 26.4231 ], [ 74.18501, 26.42426 ], [ 74.1921, 26.4269 ], [ 74.18981, 26.4381 ], [ 74.19436, 26.43809 ], [ 74.19443, 26.4401 ], [ 74.19832, 26.44016 ], [ 74.19831, 26.44164 ], [ 74.20404, 26.44094 ], [ 74.20421, 26.4431 ], [ 74.20964, 26.44331 ], [ 74.20973, 26.44479 ], [ 74.21063, 26.4448 ], [ 74.21072, 26.44547 ], [ 74.21637, 26.44419 ], [ 74.21649, 26.44501 ], [ 74.21866, 26.44505 ], [ 74.22023, 26.44812 ], [ 74.2231, 26.44849 ], [ 74.22521, 26.45232 ], [ 74.22406, 26.45316 ], [ 74.22542, 26.45437 ], [ 74.22753, 26.4519 ], [ 74.22871, 26.45236 ], [ 74.23206, 26.45553 ], [ 74.2338, 26.45892 ], [ 74.23699, 26.46131 ], [ 74.26104, 26.45406 ], [ 74.27562, 26.45413 ], [ 74.28699, 26.45206 ], [ 74.28987, 26.45058 ], [ 74.29166, 26.44918 ], [ 74.29033, 26.44631 ], [ 74.2895, 26.43907 ], [ 74.28827, 26.43586 ], [ 74.28838, 26.42525 ], [ 74.28679, 26.42026 ], [ 74.2872, 26.41104 ], [ 74.28887, 26.40609 ], [ 74.29172, 26.40196 ], [ 74.29225, 26.39123 ], [ 74.30384, 26.3827 ], [ 74.30332, 26.37835 ], [ 74.30197, 26.37561 ], [ 74.30341, 26.37182 ], [ 74.30261, 26.35831 ], [ 74.30586, 26.34969 ], [ 74.30629, 26.34471 ], [ 74.30354, 26.32785 ], [ 74.29669, 26.32525 ], [ 74.29362, 26.32217 ], [ 74.28911, 26.32125 ], [ 74.27807, 26.31273 ], [ 74.26988, 26.30861 ], [ 74.26596, 26.30311 ], [ 74.25682, 26.2942 ], [ 74.25145, 26.28647 ], [ 74.24843, 26.28375 ], [ 74.24443, 26.27374 ], [ 74.2331, 26.274 ], [ 74.22039, 26.25446 ], [ 74.21441, 26.24961 ], [ 74.21197, 26.24563 ], [ 74.20802, 26.24366 ], [ 74.20832, 26.24003 ], [ 74.2058, 26.23861 ], [ 74.2031, 26.23546 ], [ 74.20262, 26.23312 ], [ 74.20144, 26.2325 ], [ 74.20008, 26.229 ], [ 74.19628, 26.22924 ], [ 74.18448, 26.22677 ], [ 74.18804, 26.22933 ], [ 74.19448, 26.23735 ], [ 74.19761, 26.23902 ], [ 74.19745, 26.24093 ], [ 74.193, 26.2412 ], [ 74.18018, 26.23708 ], [ 74.17596, 26.24084 ], [ 74.17367, 26.24347 ], [ 74.17282, 26.24677 ], [ 74.17271, 26.25047 ], [ 74.17433, 26.25317 ], [ 74.17451, 26.25505 ], [ 74.1741, 26.26342 ], [ 74.16241, 26.26265 ], [ 74.15498, 26.25782 ], [ 74.15163, 26.25702 ], [ 74.14486, 26.25186 ], [ 74.13952, 26.24637 ], [ 74.12868, 26.23893 ], [ 74.12793, 26.23788 ], [ 74.12784, 26.2321 ], [ 74.12686, 26.22864 ], [ 74.13167, 26.22326 ], [ 74.13226, 26.21769 ], [ 74.13046, 26.21497 ], [ 74.12041, 26.20623 ], [ 74.11676, 26.20439 ], [ 74.10447, 26.20224 ], [ 74.09496, 26.19827 ], [ 74.08444, 26.19706 ], [ 74.09215, 26.19355 ], [ 74.09025, 26.18619 ], [ 74.08833, 26.1822 ], [ 74.08059, 26.17266 ], [ 74.08312, 26.16526 ], [ 74.08428, 26.15679 ], [ 74.07393, 26.15091 ], [ 74.07023, 26.14213 ], [ 74.06712, 26.14232 ], [ 74.06801, 26.13908 ], [ 74.07461, 26.13556 ], [ 74.07309, 26.12839 ], [ 74.06788, 26.12929 ], [ 74.06709, 26.12701 ], [ 74.06484, 26.12756 ], [ 74.06332, 26.1248 ], [ 74.06066, 26.12293 ], [ 74.06326, 26.12074 ], [ 74.05978, 26.11399 ], [ 74.05884, 26.1147 ], [ 74.05818, 26.11402 ], [ 74.05344, 26.11438 ], [ 74.05079, 26.11907 ], [ 74.0452, 26.12074 ], [ 74.04221, 26.11755 ], [ 74.04011, 26.11444 ], [ 74.04343, 26.11183 ], [ 74.04185, 26.10878 ], [ 74.043, 26.10751 ], [ 74.04248, 26.10623 ], [ 74.04497, 26.10651 ], [ 74.04704, 26.10396 ], [ 74.04556, 26.09862 ], [ 74.03451, 26.09903 ], [ 74.02511, 26.10093 ], [ 74.01526, 26.10341 ], [ 74.01671, 26.10507 ], [ 74.01191, 26.10694 ], [ 74.00936, 26.10349 ], [ 74.00715, 26.10313 ], [ 74.00759, 26.10368 ], [ 74.00521, 26.10452 ], [ 74.00509, 26.10783 ], [ 74.00108, 26.11241 ], [ 73.99884, 26.11378 ], [ 74.00119, 26.11651 ], [ 74.00032, 26.11842 ], [ 73.9953, 26.11868 ], [ 73.99513, 26.11697 ], [ 73.99315, 26.11703 ], [ 73.99327, 26.11965 ], [ 73.98876, 26.1216 ], [ 73.98041, 26.13237 ], [ 73.97684, 26.13584 ], [ 73.96253, 26.13596 ], [ 73.95841, 26.13313 ], [ 73.95522, 26.12555 ], [ 73.95401, 26.11687 ], [ 73.948, 26.11762 ], [ 73.94763, 26.12054 ], [ 73.94531, 26.12033 ], [ 73.94489, 26.11929 ], [ 73.9396, 26.1189 ], [ 73.93587, 26.12435 ], [ 73.93592, 26.12673 ], [ 73.9348, 26.12767 ], [ 73.93357, 26.12432 ], [ 73.92751, 26.12159 ], [ 73.92377, 26.12519 ], [ 73.92323, 26.12485 ], [ 73.92418, 26.12317 ], [ 73.93027, 26.11561 ], [ 73.92943, 26.10871 ], [ 73.92523, 26.10963 ], [ 73.90661, 26.10405 ], [ 73.90448, 26.10259 ], [ 73.89967, 26.10121 ], [ 73.89612, 26.10156 ], [ 73.89459, 26.1029 ], [ 73.89283, 26.10295 ], [ 73.89149, 26.10681 ], [ 73.88667, 26.11026 ], [ 73.88435, 26.11028 ], [ 73.88369, 26.11261 ], [ 73.88433, 26.11278 ], [ 73.88411, 26.11446 ], [ 73.88165, 26.12311 ], [ 73.88101, 26.12462 ], [ 73.87904, 26.12565 ], [ 73.8748, 26.12559 ], [ 73.87151, 26.12316 ], [ 73.86827, 26.12211 ], [ 73.8649, 26.12263 ], [ 73.86106, 26.12556 ], [ 73.85543, 26.12771 ], [ 73.85343, 26.12016 ], [ 73.84972, 26.12078 ], [ 73.84565, 26.11395 ], [ 73.84098, 26.11399 ], [ 73.84093, 26.10903 ], [ 73.84003, 26.10611 ], [ 73.82691, 26.10753 ], [ 73.82691, 26.10871 ], [ 73.81817, 26.10832 ], [ 73.80965, 26.11 ], [ 73.81051, 26.11092 ], [ 73.80817, 26.11188 ], [ 73.8092, 26.11425 ], [ 73.80508, 26.11826 ], [ 73.80478, 26.12786 ], [ 73.80317, 26.12769 ], [ 73.80228, 26.13126 ], [ 73.80026, 26.13169 ], [ 73.79954, 26.13388 ], [ 73.79836, 26.13394 ], [ 73.7977, 26.13657 ], [ 73.79663, 26.13701 ], [ 73.79419, 26.14054 ], [ 73.79364, 26.1437 ], [ 73.79084, 26.14395 ], [ 73.79097, 26.14684 ], [ 73.78295, 26.14906 ], [ 73.78292, 26.15292 ], [ 73.78428, 26.15964 ], [ 73.78296, 26.16332 ], [ 73.78696, 26.16426 ], [ 73.78943, 26.17328 ], [ 73.79073, 26.18685 ], [ 73.79783, 26.20105 ], [ 73.80344, 26.20038 ], [ 73.80096, 26.20949 ], [ 73.79783, 26.21591 ], [ 73.79215, 26.22504 ], [ 73.79073, 26.22433 ], [ 73.78597, 26.23393 ], [ 73.78959, 26.23588 ], [ 73.78859, 26.23986 ], [ 73.78996, 26.24742 ], [ 73.79297, 26.25124 ], [ 73.79755, 26.2538 ], [ 73.8076, 26.26415 ], [ 73.80782, 26.26504 ], [ 73.80656, 26.26461 ], [ 73.80627, 26.26875 ], [ 73.80429, 26.27253 ], [ 73.80373, 26.27605 ], [ 73.80926, 26.28289 ], [ 73.81016, 26.28631 ], [ 73.80764, 26.29267 ], [ 73.8077, 26.29841 ], [ 73.80592, 26.29774 ], [ 73.79962, 26.29791 ], [ 73.80008, 26.30201 ], [ 73.80129, 26.30484 ], [ 73.8025, 26.30557 ], [ 73.80351, 26.30918 ], [ 73.80146, 26.31185 ], [ 73.79673, 26.31219 ], [ 73.79546, 26.31336 ], [ 73.79413, 26.31134 ], [ 73.79288, 26.31183 ], [ 73.79419, 26.31401 ], [ 73.79229, 26.31413 ], [ 73.78546, 26.31824 ], [ 73.78624, 26.31935 ], [ 73.80069, 26.31626 ], [ 73.80271, 26.31119 ], [ 73.80577, 26.31126 ], [ 73.80945, 26.31724 ], [ 73.80812, 26.31837 ], [ 73.80865, 26.31977 ], [ 73.80618, 26.32384 ], [ 73.80744, 26.32875 ], [ 73.80938, 26.33078 ], [ 73.8111, 26.3344 ], [ 73.80978, 26.33508 ], [ 73.80989, 26.33698 ], [ 73.8092, 26.33703 ], [ 73.809, 26.33861 ], [ 73.80594, 26.33828 ], [ 73.80663, 26.34097 ], [ 73.80733, 26.34095 ], [ 73.8104, 26.34617 ], [ 73.8107, 26.35199 ], [ 73.81194, 26.35448 ], [ 73.81072, 26.35602 ], [ 73.82216, 26.3633 ], [ 73.82278, 26.36292 ], [ 73.82398, 26.364 ], [ 73.82477, 26.36332 ], [ 73.83138, 26.36894 ], [ 73.83823, 26.36981 ], [ 73.84865, 26.37526 ], [ 73.84713, 26.37867 ], [ 73.84392, 26.37851 ], [ 73.84009, 26.38019 ], [ 73.84079, 26.38499 ], [ 73.84069, 26.39507 ], [ 73.84269, 26.39897 ], [ 73.84286, 26.40384 ], [ 73.84432, 26.40748 ], [ 73.84596, 26.40717 ], [ 73.84886, 26.40825 ], [ 73.85079, 26.40914 ], [ 73.85094, 26.41025 ], [ 73.85402, 26.41158 ], [ 73.85941, 26.41218 ], [ 73.85988, 26.41433 ], [ 73.86211, 26.41417 ], [ 73.86286, 26.41636 ], [ 73.86204, 26.41777 ], [ 73.86157, 26.41749 ], [ 73.86119, 26.41944 ], [ 73.86266, 26.42054 ], [ 73.86527, 26.42085 ], [ 73.86625, 26.42341 ], [ 73.86803, 26.42404 ], [ 73.86781, 26.42661 ], [ 73.86902, 26.42698 ], [ 73.87037, 26.42927 ], [ 73.87279, 26.42751 ], [ 73.88063, 26.42577 ], [ 73.88066, 26.42501 ], [ 73.88953, 26.42411 ], [ 73.89565, 26.42414 ], [ 73.91155, 26.42887 ], [ 73.91254, 26.42679 ], [ 73.91471, 26.42493 ], [ 73.91638, 26.42606 ], [ 73.91922, 26.42417 ], [ 73.91964, 26.42466 ], [ 73.93145, 26.42329 ], [ 73.93533, 26.42105 ], [ 73.93597, 26.42194 ], [ 73.93878, 26.4212 ], [ 73.93929, 26.42226 ], [ 73.94116, 26.4229 ], [ 73.94406, 26.423 ], [ 73.94534, 26.42251 ], [ 73.94539, 26.42174 ], [ 73.94957, 26.42234 ], [ 73.9496, 26.42144 ], [ 73.95137, 26.42156 ], [ 73.95155, 26.41932 ], [ 73.95421, 26.41966 ], [ 73.96181, 26.42276 ], [ 73.96782, 26.4292 ], [ 73.96962, 26.43495 ], [ 73.97204, 26.43392 ], [ 73.97756, 26.42957 ], [ 73.97864, 26.43046 ], [ 73.98403, 26.42331 ], [ 73.98792, 26.42523 ], [ 73.98958, 26.42529 ], [ 73.99854, 26.42414 ], [ 73.99869, 26.42271 ], [ 74.00559, 26.4239 ], [ 74.00586, 26.42268 ], [ 74.01485, 26.42436 ], [ 74.01916, 26.42405 ], [ 74.02779, 26.42665 ], [ 74.02855, 26.42539 ], [ 74.02966, 26.42584 ], [ 74.03035, 26.42508 ], [ 74.03277, 26.4193 ], [ 74.03342, 26.41977 ], [ 74.03539, 26.41716 ], [ 74.04463, 26.42239 ], [ 74.04526, 26.42148 ], [ 74.05164, 26.42234 ], [ 74.06256, 26.42548 ], [ 74.06369, 26.4241 ], [ 74.06852, 26.42388 ], [ 74.07403, 26.42253 ], [ 74.0777, 26.42284 ], [ 74.07767, 26.422 ], [ 74.08133, 26.42127 ], [ 74.08131, 26.42041 ], [ 74.08295, 26.42034 ], [ 74.08372, 26.41909 ], [ 74.08899, 26.41742 ], [ 74.08988, 26.41538 ], [ 74.09548, 26.41565 ], [ 74.09565, 26.41001 ], [ 74.09726, 26.41014 ], [ 74.09723, 26.41139 ], [ 74.10247, 26.41211 ], [ 74.1019, 26.41404 ], [ 74.1038, 26.42363 ], [ 74.10146, 26.43316 ], [ 74.10172, 26.44129 ], [ 74.104, 26.44677 ], [ 74.10611, 26.44902 ], [ 74.12084, 26.46111 ], [ 74.12402, 26.45664 ], [ 74.12484, 26.4528 ], [ 74.12799, 26.44626 ], [ 74.1314, 26.44419 ] ] ] } },
{ "type": "Feature", "properties": { "OBJECTID": 3274, "state_lgd": "08", "state_name": "RAJASTHAN", "district_lgd": "779", "district_name": "BEAWAR", "district_name_source": "district_table", "subdistrict_lgd": "00610", "subdistrict_name": "Masuda", "subdistrict_type": "", "name_corrupted": false, "remarks": "", "label_lon": 74.502333796698636, "label_lat": 26.115021325662077 }, "geometry": { "type": "Polygon", "coordinates": [ [ [ 74.45678, 26.22465 ], [ 74.46209, 26.22498 ], [ 74.46448, 26.22927 ], [ 74.47413, 26.22767 ], [ 74.47474, 26.22592 ], [ 74.47417, 26.22057 ], [ 74.46976, 26.21543 ], [ 74.46651, 26.21754 ], [ 74.46328, 26.21766 ], [ 74.4586, 26.20555 ], [ 74.45944, 26.20293 ], [ 74.45891, 26.20212 ], [ 74.46036, 26.2009 ], [ 74.46104, 26.19822 ], [ 74.46565, 26.19824 ], [ 74.46835, 26.19948 ], [ 74.47133, 26.197 ], [ 74.4761, 26.19802 ], [ 74.47964, 26.19617 ], [ 74.48404, 26.19555 ], [ 74.49906, 26.19793 ], [ 74.4994, 26.19629 ], [ 74.50213, 26.19395 ], [ 74.50448, 26.18585 ], [ 74.50656, 26.1854 ], [ 74.5104, 26.18617 ], [ 74.52097, 26.19218 ], [ 74.53047, 26.19555 ], [ 74.53774, 26.20234 ], [ 74.54956, 26.20847 ], [ 74.55134, 26.21213 ], [ 74.55742, 26.21508 ], [ 74.56147, 26.2187 ], [ 74.56384, 26.22372 ], [ 74.56788, 26.22837 ], [ 74.57756, 26.23185 ], [ 74.58975, 26.23845 ], [ 74.59544, 26.23404 ], [ 74.60079, 26.22747 ], [ 74.60435, 26.22757 ], [ 74.60886, 26.22416 ], [ 74.61061, 26.2237 ], [ 74.61856, 26.2153 ], [ 74.61519, 26.20021 ], [ 74.61602, 26.19826 ], [ 74.61856, 26.19658 ], [ 74.6253, 26.19519 ], [ 74.62654, 26.19379 ], [ 74.63116, 26.19375 ], [ 74.63048, 26.19514 ], [ 74.63597, 26.19614 ], [ 74.63973, 26.19393 ], [ 74.64017, 26.19244 ], [ 74.64387, 26.19437 ], [ 74.64641, 26.19346 ], [ 74.64751, 26.19421 ], [ 74.64977, 26.19255 ], [ 74.64724, 26.18774 ], [ 74.64437, 26.17131 ], [ 74.64715, 26.16552 ], [ 74.65063, 26.16128 ], [ 74.65202, 26.16071 ], [ 74.65198, 26.15983 ], [ 74.65341, 26.1591 ], [ 74.647, 26.14941 ], [ 74.64149, 26.14476 ], [ 74.64586, 26.13757 ], [ 74.64768, 26.13231 ], [ 74.65012, 26.1319 ], [ 74.64862, 26.13063 ], [ 74.64467, 26.11493 ], [ 74.63962, 26.1052 ], [ 74.62895, 26.10018 ], [ 74.62864, 26.10142 ], [ 74.6183, 26.1038 ], [ 74.61212, 26.10713 ], [ 74.60738, 26.10846 ], [ 74.60331, 26.10548 ], [ 74.60156, 26.10279 ], [ 74.59898, 26.09135 ], [ 74.59881, 26.08686 ], [ 74.59647, 26.08142 ], [ 74.60205, 26.07927 ], [ 74.60974, 26.07831 ], [ 74.61033, 26.0719 ], [ 74.60744, 26.07207 ], [ 74.6064, 26.06888 ], [ 74.60621, 26.06698 ], [ 74.60759, 26.06266 ], [ 74.60579, 26.05714 ], [ 74.60695, 26.05436 ], [ 74.60585, 26.04877 ], [ 74.60314, 26.0468 ], [ 74.60421, 26.04618 ], [ 74.60381, 26.04542 ], [ 74.60163, 26.04539 ], [ 74.60103, 26.04445 ], [ 74.60217, 26.04081 ], [ 74.60108, 26.03969 ], [ 74.59995, 26.04031 ], [ 74.60049, 26.04101 ], [ 74.59906, 26.04081 ], [ 74.59911, 26.03923 ], [ 74.60054, 26.03936 ], [ 74.59964, 26.03836 ], [ 74.60059, 26.03708 ], [ 74.59737, 26.03445 ], [ 74.59713, 26.03065 ], [ 74.59601, 26.02863 ], [ 74.59329, 26.02738 ], [ 74.586, 26.02869 ], [ 74.56743, 26.04021 ], [ 74.56646, 26.03871 ], [ 74.56031, 26.03723 ], [ 74.55526, 26.02973 ], [ 74.55474, 26.02305 ], [ 74.55137, 26.01572 ], [ 74.55179, 26.01306 ], [ 74.55542, 26.01044 ], [ 74.55632, 26.00622 ], [ 74.55294, 26.00422 ], [ 74.55297, 26.00119 ], [ 74.55148, 25.99906 ], [ 74.54588, 25.99664 ], [ 74.54334, 25.99748 ], [ 74.54222, 25.9969 ], [ 74.53927, 25.99805 ], [ 74.53707, 25.99024 ], [ 74.53488, 25.98875 ], [ 74.52976, 25.98777 ], [ 74.52717, 25.98593 ], [ 74.5226, 25.98593 ], [ 74.51936, 25.98809 ], [ 74.51079, 25.98792 ], [ 74.50942, 25.98856 ], [ 74.50247, 25.98309 ], [ 74.49836, 25.97801 ], [ 74.49262, 25.97296 ], [ 74.48901, 25.97501 ], [ 74.48805, 25.97834 ], [ 74.49067, 25.98535 ], [ 74.48412, 25.98782 ], [ 74.48122, 25.99524 ], [ 74.47979, 25.99694 ], [ 74.47838, 26.00319 ], [ 74.47379, 26.00516 ], [ 74.47431, 26.01277 ], [ 74.4798, 26.01076 ], [ 74.48364, 26.01179 ], [ 74.48363, 26.01405 ], [ 74.47936, 26.01669 ], [ 74.48152, 26.01853 ], [ 74.47753, 26.01979 ], [ 74.47487, 26.02218 ], [ 74.47127, 26.02285 ], [ 74.46436, 26.02323 ], [ 74.46284, 26.02182 ], [ 74.45904, 26.02053 ], [ 74.45244, 26.02045 ], [ 74.44989, 26.02213 ], [ 74.45308, 26.02475 ], [ 74.45326, 26.02598 ], [ 74.45041, 26.03047 ], [ 74.45027, 26.03411 ], [ 74.44554, 26.03084 ], [ 74.44021, 26.03141 ], [ 74.4392, 26.03302 ], [ 74.43684, 26.03311 ], [ 74.43364, 26.03689 ], [ 74.43413, 26.03781 ], [ 74.43286, 26.03937 ], [ 74.43108, 26.03885 ], [ 74.43311, 26.03983 ], [ 74.43301, 26.0406 ], [ 74.43148, 26.04046 ], [ 74.43228, 26.04375 ], [ 74.42968, 26.043 ], [ 74.42712, 26.04044 ], [ 74.42001, 26.03048 ], [ 74.41938, 26.02636 ], [ 74.41677, 26.02062 ], [ 74.41813, 26.01917 ], [ 74.41823, 26.01761 ], [ 74.42052, 26.01636 ], [ 74.41981, 26.01376 ], [ 74.41739, 26.00991 ], [ 74.41651, 26.00649 ], [ 74.41358, 26.00354 ], [ 74.41105, 26.00246 ], [ 74.40234, 26.00724 ], [ 74.40051, 26.00584 ], [ 74.40069, 26.00465 ], [ 74.398, 26.00074 ], [ 74.39541, 26.00275 ], [ 74.38916, 26.00536 ], [ 74.38941, 26.01041 ], [ 74.38637, 26.01367 ], [ 74.38326, 26.01518 ], [ 74.38111, 26.01735 ], [ 74.37841, 26.01396 ], [ 74.37729, 26.01516 ], [ 74.37932, 26.02199 ], [ 74.37539, 26.02638 ], [ 74.36918, 26.02204 ], [ 74.36662, 26.01806 ], [ 74.36667, 26.01692 ], [ 74.36157, 26.01884 ], [ 74.35714, 26.016 ], [ 74.35317, 26.0202 ], [ 74.35287, 26.02187 ], [ 74.35335, 26.02471 ], [ 74.35474, 26.02464 ], [ 74.35541, 26.02695 ], [ 74.35611, 26.03291 ], [ 74.35741, 26.03594 ], [ 74.35644, 26.0389 ], [ 74.35784, 26.04096 ], [ 74.35532, 26.0433 ], [ 74.35757, 26.04446 ], [ 74.35638, 26.04572 ], [ 74.35651, 26.04715 ], [ 74.35433, 26.04971 ], [ 74.35588, 26.05172 ], [ 74.35835, 26.0517 ], [ 74.36147, 26.05313 ], [ 74.35917, 26.06185 ], [ 74.35958, 26.06675 ], [ 74.36208, 26.06763 ], [ 74.36767, 26.07313 ], [ 74.36755, 26.07817 ], [ 74.3703, 26.08291 ], [ 74.37031, 26.08538 ], [ 74.37375, 26.08563 ], [ 74.37281, 26.08647 ], [ 74.37298, 26.08784 ], [ 74.37517, 26.09486 ], [ 74.37714, 26.09844 ], [ 74.38568, 26.10205 ], [ 74.3869, 26.10229 ], [ 74.3881, 26.10098 ], [ 74.39117, 26.10322 ], [ 74.39299, 26.10359 ], [ 74.39399, 26.10291 ], [ 74.39384, 26.10131 ], [ 74.39521, 26.10161 ], [ 74.39598, 26.10053 ], [ 74.39551, 26.09897 ], [ 74.39396, 26.09767 ], [ 74.39788, 26.09341 ], [ 74.39981, 26.08824 ], [ 74.39926, 26.08606 ], [ 74.40529, 26.08349 ], [ 74.41008, 26.07917 ], [ 74.41616, 26.08841 ], [ 74.41796, 26.09389 ], [ 74.41798, 26.09658 ], [ 74.41589, 26.10263 ], [ 74.40708, 26.10483 ], [ 74.4102, 26.10948 ], [ 74.40878, 26.11357 ], [ 74.40641, 26.11599 ], [ 74.41064, 26.12336 ], [ 74.41197, 26.12721 ], [ 74.41112, 26.1309 ], [ 74.41168, 26.13498 ], [ 74.41429, 26.13697 ], [ 74.41889, 26.13853 ], [ 74.41267, 26.14454 ], [ 74.40892, 26.14567 ], [ 74.40771, 26.14742 ], [ 74.40368, 26.14996 ], [ 74.4014, 26.15079 ], [ 74.39726, 26.14993 ], [ 74.39606, 26.15096 ], [ 74.39328, 26.1487 ], [ 74.39047, 26.14971 ], [ 74.37856, 26.15801 ], [ 74.37059, 26.15846 ], [ 74.36879, 26.1626 ], [ 74.37226, 26.16796 ], [ 74.37363, 26.17296 ], [ 74.37382, 26.17892 ], [ 74.37251, 26.18595 ], [ 74.36668, 26.19137 ], [ 74.37093, 26.19971 ], [ 74.37203, 26.204 ], [ 74.37424, 26.20034 ], [ 74.39254, 26.20269 ], [ 74.39786, 26.20909 ], [ 74.40188, 26.21689 ], [ 74.40731, 26.21601 ], [ 74.41363, 26.21935 ], [ 74.42683, 26.22361 ], [ 74.4271, 26.23089 ], [ 74.43286, 26.24638 ], [ 74.44399, 26.24172 ], [ 74.44738, 26.24125 ], [ 74.44829, 26.23898 ], [ 74.44717, 26.2347 ], [ 74.45153, 26.2328 ], [ 74.45295, 26.23065 ], [ 74.45083, 26.22728 ], [ 74.45678, 26.22465 ] ] ] } },
{ "type": "Feature", "properties": { "OBJECTID": 3275, "state_lgd": "08", "state_name": "RAJASTHAN", "district_lgd": "779", "district_name": "BEAWAR", "district_name_source": "district_table", "subdistrict_lgd": "00598", "subdistrict_name": "Raipur", "subdistrict_type": "", "name_corrupted": false, "remarks": "", "label_lon": 74.099997631831286, "label_lat": 26.08063835530962 }, "geometry": { "type": "Polygon", "coordinates": [ [ [ 74.38215, 26.25853 ], [ 74.37296, 26.25052 ], [ 74.3676, 26.23876 ], [ 74.36765, 26.23005 ], [ 74.36937, 26.22812 ], [ 74.37415, 26.2268 ], [ 74.37433, 26.21052 ], [ 74.37093, 26.19971 ], [ 74.36668, 26.19137 ], [ 74.35334, 26.19162 ], [ 74.35126, 26.19507 ], [ 74.34611, 26.195 ], [ 74.33947, 26.19637 ], [ 74.32852, 26.19077 ], [ 74.3242, 26.18987 ], [ 74.31901, 26.18699 ], [ 74.31853, 26.18323 ], [ 74.31761, 26.18202 ], [ 74.31422, 26.18172 ], [ 74.30973, 26.18507 ], [ 74.30296, 26.18676 ], [ 74.30009, 26.18571 ], [ 74.29224, 26.17805 ], [ 74.28981, 26.17066 ], [ 74.28684, 26.1696 ], [ 74.28509, 26.16908 ], [ 74.28168, 26.17131 ], [ 74.27194, 26.17405 ], [ 74.27096, 26.17187 ], [ 74.2699, 26.16358 ], [ 74.27207, 26.15902 ], [ 74.27737, 26.15561 ], [ 74.28273, 26.15343 ], [ 74.2907, 26.14602 ], [ 74.29007, 26.14375 ], [ 74.30205, 26.13292 ], [ 74.29967, 26.12985 ], [ 74.29702, 26.12424 ], [ 74.2869, 26.12178 ], [ 74.28156, 26.11428 ], [ 74.27953, 26.11353 ], [ 74.2736, 26.1061 ], [ 74.2714, 26.10219 ], [ 74.2655, 26.10292 ], [ 74.26154, 26.09795 ], [ 74.25857, 26.09629 ], [ 74.25762, 26.0908 ], [ 74.2503, 26.08694 ], [ 74.24552, 26.08026 ], [ 74.24374, 26.07931 ], [ 74.23693, 26.06709 ], [ 74.23986, 26.05964 ], [ 74.24417, 26.05402 ], [ 74.2387, 26.05243 ], [ 74.23056, 26.05509 ], [ 74.22931, 26.05814 ], [ 74.2252, 26.0578 ], [ 74.21992, 26.05505 ], [ 74.22132, 26.0521 ], [ 74.21773, 26.04782 ], [ 74.21491, 26.04683 ], [ 74.20898, 26.0465 ], [ 74.20614, 26.04858 ], [ 74.197, 26.03935 ], [ 74.19308, 26.0364 ], [ 74.18965, 26.03519 ], [ 74.18522, 26.03226 ], [ 74.18054, 26.03271 ], [ 74.17911, 26.03306 ], [ 74.17669, 26.03701 ], [ 74.17536, 26.04258 ], [ 74.17498, 26.05053 ], [ 74.17638, 26.06322 ], [ 74.17296, 26.06506 ], [ 74.17043, 26.0678 ], [ 74.16197, 26.06831 ], [ 74.16192, 26.0658 ], [ 74.15928, 26.05914 ], [ 74.15965, 26.05627 ], [ 74.15878, 26.05247 ], [ 74.15568, 26.04871 ], [ 74.1525, 26.04637 ], [ 74.15215, 26.04166 ], [ 74.15411, 26.03189 ], [ 74.15428, 26.02571 ], [ 74.16779, 26.01612 ], [ 74.16973, 26.01008 ], [ 74.16696, 26.0062 ], [ 74.16543, 26.00101 ], [ 74.16337, 25.99821 ], [ 74.15543, 25.99181 ], [ 74.14917, 25.98534 ], [ 74.14146, 25.97477 ], [ 74.1304, 25.962 ], [ 74.12648, 25.96008 ], [ 74.13314, 25.95561 ], [ 74.13998, 25.95812 ], [ 74.14386, 25.95736 ], [ 74.14633, 25.95573 ], [ 74.15168, 25.9583 ], [ 74.1577, 25.95685 ], [ 74.14774, 25.94263 ], [ 74.14981, 25.94153 ], [ 74.15077, 25.93878 ], [ 74.16326, 25.92696 ], [ 74.16283, 25.92527 ], [ 74.15738, 25.91517 ], [ 74.15383, 25.91321 ], [ 74.15116, 25.9105 ], [ 74.14037, 25.89743 ], [ 74.14099, 25.89297 ], [ 74.1391, 25.88872 ], [ 74.13389, 25.88513 ], [ 74.12348, 25.88395 ], [ 74.11713, 25.88089 ], [ 74.1145, 25.87431 ], [ 74.11391, 25.87054 ], [ 74.11354, 25.86609 ], [ 74.11571, 25.86424 ], [ 74.11087, 25.86201 ], [ 74.1094, 25.8578 ], [ 74.10681, 25.85459 ], [ 74.09613, 25.84768 ], [ 74.0917, 25.85123 ], [ 74.08878, 25.85223 ], [ 74.07884, 25.84845 ], [ 74.0756, 25.84556 ], [ 74.067, 25.84282 ], [ 74.06418, 25.84116 ], [ 74.06324, 25.84029 ], [ 74.06561, 25.83871 ], [ 74.05409, 25.83187 ], [ 74.05264, 25.82913 ], [ 74.03481, 25.842 ], [ 74.01642, 25.85383 ], [ 74.00508, 25.86372 ], [ 74.01743, 25.87266 ], [ 74.02835, 25.87694 ], [ 74.03602, 25.88473 ], [ 74.03967, 25.88433 ], [ 74.04375, 25.89262 ], [ 74.04609, 25.89317 ], [ 74.04768, 25.89572 ], [ 74.04832, 25.89786 ], [ 74.0436, 25.90467 ], [ 74.04302, 25.9092 ], [ 74.04362, 25.91721 ], [ 74.04009, 25.92304 ], [ 74.03537, 25.92804 ], [ 74.03113, 25.93031 ], [ 74.0253, 25.92669 ], [ 74.01945, 25.93134 ], [ 74.01656, 25.93603 ], [ 74.011, 25.93787 ], [ 74.00617, 25.94066 ], [ 73.99955, 25.94182 ], [ 73.99155, 25.94537 ], [ 73.99039, 25.94643 ], [ 73.98889, 25.95058 ], [ 73.99222, 25.9555 ], [ 73.99133, 25.9603 ], [ 73.99024, 25.961 ], [ 73.97943, 25.96171 ], [ 73.97029, 25.96358 ], [ 73.96936, 25.96443 ], [ 73.96756, 25.9665 ], [ 73.96648, 25.97723 ], [ 73.96276, 25.98247 ], [ 73.96183, 25.98827 ], [ 73.9453, 25.97867 ], [ 73.93867, 25.97262 ], [ 73.93519, 25.97637 ], [ 73.93257, 25.98229 ], [ 73.93, 25.98581 ], [ 73.92374, 25.99088 ], [ 73.92879, 25.9951 ], [ 73.93042, 25.99754 ], [ 73.93161, 26.00275 ], [ 73.91896, 26.00155 ], [ 73.90821, 26.00468 ], [ 73.90812, 26.00537 ], [ 73.89991, 26.00689 ], [ 73.88034, 26.0041 ], [ 73.88027, 26.01477 ], [ 73.87708, 26.01369 ], [ 73.87165, 26.03616 ], [ 73.86391, 26.03742 ], [ 73.86282, 26.03604 ], [ 73.84839, 26.04029 ], [ 73.8252, 26.03735 ], [ 73.82015, 26.0382 ], [ 73.81972, 26.03761 ], [ 73.80984, 26.03742 ], [ 73.79969, 26.04948 ], [ 73.79831, 26.06009 ], [ 73.79924, 26.06031 ], [ 73.79876, 26.06653 ], [ 73.79522, 26.07591 ], [ 73.79125, 26.07807 ], [ 73.80858, 26.10864 ], [ 73.80965, 26.11 ], [ 73.81817, 26.10832 ], [ 73.82691, 26.10871 ], [ 73.82691, 26.10753 ], [ 73.84003, 26.10611 ], [ 73.84093, 26.10903 ], [ 73.84098, 26.11399 ], [ 73.84565, 26.11395 ], [ 73.84972, 26.12078 ], [ 73.85343, 26.12016 ], [ 73.85543, 26.12771 ], [ 73.86106, 26.12556 ], [ 73.8649, 26.12263 ], [ 73.86827, 26.12211 ], [ 73.87151, 26.12316 ], [ 73.8748, 26.12559 ], [ 73.87904, 26.12565 ], [ 73.88101, 26.12462 ], [ 73.88411, 26.11446 ], [ 73.88433, 26.11278 ], [ 73.88369, 26.11261 ], [ 73.88435, 26.11028 ], [ 73.88667, 26.11026 ], [ 73.89149, 26.10681 ], [ 73.89283, 26.10295 ], [ 73.89459, 26.1029 ], [ 73.89612, 26.10156 ], [ 73.89967, 26.10121 ], [ 73.90448, 26.10259 ], [ 73.90661, 26.10405 ], [ 73.92523, 26.10963 ], [ 73.92943, 26.10871 ], [ 73.93027, 26.11561 ], [ 73.92418, 26.12317 ], [ 73.92323, 26.12485 ], [ 73.92377, 26.12519 ], [ 73.92751, 26.12159 ], [ 73.93357, 26.12432 ], [ 73.9348, 26.12767 ], [ 73.93592, 26.12673 ], [ 73.93587, 26.12435 ], [ 73.9396, 26.1189 ], [ 73.94489, 26.11929 ], [ 73.94531, 26.12033 ], [ 73.94763, 26.12054 ], [ 73.948, 26.11762 ], [ 73.95401, 26.11687 ], [ 73.95522, 26.12555 ], [ 73.95841, 26.13313 ], [ 73.96253, 26.13596 ], [ 73.97684, 26.13584 ], [ 73.98041, 26.13237 ], [ 73.98876, 26.1216 ], [ 73.99327, 26.11965 ], [ 73.99315, 26.11703 ], [ 73.99513, 26.11697 ], [ 73.9953, 26.11868 ], [ 74.00032, 26.11842 ], [ 74.00119, 26.11651 ], [ 73.99884, 26.11378 ], [ 74.00108, 26.11241 ], [ 74.00509, 26.10783 ], [ 74.00521, 26.10452 ], [ 74.00759, 26.10368 ], [ 74.00715, 26.10313 ], [ 74.00936, 26.10349 ], [ 74.01191, 26.10694 ], [ 74.01671, 26.10507 ], [ 74.01526, 26.10341 ], [ 74.02511, 26.10093 ], [ 74.03451, 26.09903 ], [ 74.04556, 26.09862 ], [ 74.04704, 26.10396 ], [ 74.04497, 26.10651 ], [ 74.04248, 26.10623 ], [ 74.043, 26.10751 ], [ 74.04185, 26.10878 ], [ 74.04343, 26.11183 ], [ 74.04011, 26.11444 ], [ 74.04221, 26.11755 ], [ 74.0452, 26.12074 ], [ 74.05079, 26.11907 ], [ 74.05344, 26.11438 ], [ 74.05818, 26.11402 ], [ 74.05884, 26.1147 ], [ 74.05978, 26.11399 ], [ 74.06326, 26.12074 ], [ 74.06066, 26.12293 ], [ 74.06332, 26.1248 ], [ 74.06484, 26.12756 ], [ 74.06709, 26.12701 ], [ 74.06788, 26.12929 ], [ 74.07309, 26.12839 ], [ 74.07461, 26.13556 ], [ 74.06801, 26.13908 ], [ 74.06712, 26.14232 ], [ 74.07023, 26.14213 ], [ 74.07393, 26.15091 ], [ 74.08428, 26.15679 ], [ 74.08312, 26.16526 ], [ 74.08059, 26.17266 ], [ 74.08833, 26.1822 ], [ 74.09025, 26.18619 ], [ 74.09215, 26.19355 ], [ 74.08444, 26.19706 ], [ 74.09496, 26.19827 ], [ 74.10298, 26.20179 ], [ 74.11676, 26.20439 ], [ 74.12041, 26.20623 ], [ 74.13046, 26.21497 ], [ 74.13226, 26.21769 ], [ 74.13128, 26.22432 ], [ 74.12686, 26.22864 ], [ 74.12784, 26.2321 ], [ 74.12793, 26.23788 ], [ 74.12868, 26.23893 ], [ 74.13952, 26.24637 ], [ 74.14486, 26.25186 ], [ 74.15163, 26.25702 ], [ 74.15498, 26.25782 ], [ 74.16241, 26.26265 ], [ 74.1741, 26.26342 ], [ 74.17475, 26.25845 ], [ 74.17433, 26.25317 ], [ 74.17266, 26.2502 ], [ 74.17313, 26.2446 ], [ 74.17432, 26.24245 ], [ 74.18018, 26.23708 ], [ 74.193, 26.2412 ], [ 74.19745, 26.24093 ], [ 74.19761, 26.23902 ], [ 74.19448, 26.23735 ], [ 74.18804, 26.22933 ], [ 74.18442, 26.22693 ], [ 74.18618, 26.22674 ], [ 74.19628, 26.22924 ], [ 74.20008, 26.229 ], [ 74.20144, 26.2325 ], [ 74.20262, 26.23312 ], [ 74.2031, 26.23546 ], [ 74.2058, 26.23861 ], [ 74.20832, 26.24003 ], [ 74.20802, 26.24366 ], [ 74.21197, 26.24563 ], [ 74.21441, 26.24961 ], [ 74.22039, 26.25446 ], [ 74.22404, 26.25934 ], [ 74.23125, 26.27194 ], [ 74.2331, 26.274 ], [ 74.24443, 26.27374 ], [ 74.24843, 26.28375 ], [ 74.25145, 26.28647 ], [ 74.25331, 26.28345 ], [ 74.25793, 26.2794 ], [ 74.25874, 26.27743 ], [ 74.26412, 26.27694 ], [ 74.26742, 26.27173 ], [ 74.26947, 26.26585 ], [ 74.27304, 26.2632 ], [ 74.27246, 26.26078 ], [ 74.27921, 26.25712 ], [ 74.28536, 26.25577 ], [ 74.29546, 26.25171 ], [ 74.30438, 26.25087 ], [ 74.30981, 26.2519 ], [ 74.32024, 26.26088 ], [ 74.3277, 26.26409 ], [ 74.33155, 26.26912 ], [ 74.33413, 26.26988 ], [ 74.33741, 26.27317 ], [ 74.34297, 26.27648 ], [ 74.3448, 26.27991 ], [ 74.35215, 26.28723 ], [ 74.35975, 26.29165 ], [ 74.37195, 26.28594 ], [ 74.37704, 26.2818 ], [ 74.38639, 26.27813 ], [ 74.38942, 26.27426 ], [ 74.39737, 26.26773 ], [ 74.39745, 26.26506 ], [ 74.38215, 26.25853 ] ] ] } },
{ "type": "Feature", "properties": { "OBJECTID": 3276, "state_lgd": "08", "state_name": "RAJASTHAN", "district_lgd": "779", "district_name": "BEAWAR", "district_name_source": "district_table", "subdistrict_lgd": "00609N001", "subdistrict_name": "Tatgarh", "subdistrict_type": "", "name_corrupted": false, "remarks": "", "label_lon": 73.985668321849431, "label_lat": 25.764855214212545 }, "geometry": { "type": "MultiPolygon", "coordinates": [ [ [ [ 74.03481, 25.842 ], [ 74.05404, 25.82818 ], [ 74.05532, 25.82637 ], [ 74.05782, 25.82564 ], [ 74.06304, 25.81581 ], [ 74.06326, 25.81392 ], [ 74.06201, 25.81216 ], [ 74.0652, 25.8061 ], [ 74.07564, 25.80037 ], [ 74.07704, 25.79673 ], [ 74.07879, 25.79507 ], [ 74.08082, 25.79549 ], [ 74.08909, 25.78985 ], [ 74.08981, 25.78629 ], [ 74.09209, 25.78279 ], [ 74.09372, 25.78194 ], [ 74.08947, 25.77542 ], [ 74.09197, 25.77158 ], [ 74.09234, 25.76904 ], [ 74.08912, 25.76637 ], [ 74.08229, 25.76745 ], [ 74.07765, 25.76471 ], [ 74.07002, 25.76186 ], [ 74.06833, 25.76024 ], [ 74.06458, 25.75908 ], [ 74.06256, 25.75693 ], [ 74.05857, 25.75578 ], [ 74.05592, 25.75603 ], [ 74.04778, 25.75352 ], [ 74.0461, 25.75628 ], [ 74.04267, 25.75944 ], [ 74.04126, 25.75866 ], [ 74.04126, 25.75781 ], [ 74.03814, 25.75843 ], [ 74.03471, 25.75775 ], [ 74.02325, 25.7506 ], [ 74.02237, 25.74788 ], [ 74.02052, 25.74791 ], [ 74.0079, 25.74227 ], [ 73.99849, 25.7281 ], [ 73.97685, 25.71189 ], [ 73.98237, 25.70867 ], [ 73.98307, 25.7092 ], [ 73.98637, 25.70687 ], [ 73.99092, 25.70839 ], [ 73.99427, 25.70829 ], [ 73.99805, 25.70708 ], [ 74.00377, 25.70789 ], [ 74.0119, 25.70617 ], [ 74.01319, 25.70324 ], [ 74.01039, 25.70139 ], [ 74.01092, 25.69751 ], [ 73.99597, 25.68842 ], [ 73.98956, 25.68348 ], [ 73.98476, 25.67554 ], [ 73.98808, 25.6689 ], [ 73.98621, 25.66764 ], [ 73.98628, 25.66662 ], [ 73.98378, 25.6683 ], [ 73.98257, 25.66755 ], [ 73.9777, 25.66867 ], [ 73.9687, 25.65917 ], [ 73.96006, 25.65646 ], [ 73.95672, 25.65231 ], [ 73.94994, 25.64801 ], [ 73.94694, 25.65036 ], [ 73.94388, 25.65002 ], [ 73.94584, 25.65569 ], [ 73.94438, 25.65646 ], [ 73.93976, 25.66191 ], [ 73.93887, 25.66352 ], [ 73.93861, 25.66709 ], [ 73.93426, 25.67022 ], [ 73.92839, 25.67229 ], [ 73.9287, 25.67363 ], [ 73.93244, 25.67807 ], [ 73.91661, 25.68158 ], [ 73.90832, 25.68503 ], [ 73.90994, 25.68956 ], [ 73.91498, 25.69744 ], [ 73.91045, 25.70648 ], [ 73.91014, 25.7312 ], [ 73.90657, 25.74098 ], [ 73.92412, 25.76179 ], [ 73.92487, 25.76646 ], [ 73.93089, 25.76772 ], [ 73.92963, 25.77544 ], [ 73.93045, 25.77792 ], [ 73.92919, 25.78422 ], [ 73.92377, 25.78748 ], [ 73.92409, 25.79191 ], [ 73.93758, 25.80096 ], [ 73.94428, 25.80437 ], [ 73.94489, 25.81209 ], [ 73.94355, 25.82042 ], [ 73.94097, 25.82562 ], [ 73.94191, 25.82634 ], [ 73.94131, 25.82747 ], [ 73.94225, 25.82934 ], [ 73.9494, 25.83796 ], [ 73.95307, 25.84057 ], [ 73.95805, 25.83804 ], [ 73.96628, 25.83615 ], [ 73.96572, 25.8353 ], [ 73.96803, 25.83364 ], [ 73.97198, 25.83645 ], [ 73.97299, 25.83814 ], [ 73.97355, 25.84048 ], [ 73.97214, 25.84146 ], [ 73.9728, 25.84201 ], [ 73.97351, 25.84686 ], [ 73.97622, 25.84955 ], [ 73.97736, 25.8519 ], [ 73.98269, 25.85458 ], [ 73.99104, 25.86186 ], [ 73.99271, 25.86473 ], [ 73.99555, 25.86577 ], [ 74.00508, 25.86372 ], [ 74.01642, 25.85383 ], [ 74.03481, 25.842 ] ] ], [ [ [ 74.0861, 25.84468 ], [ 74.08534, 25.84484 ], [ 74.08567, 25.84577 ], [ 74.08329, 25.84623 ], [ 74.07865, 25.84542 ], [ 74.07681, 25.84102 ], [ 74.07376, 25.83878 ], [ 74.05927, 25.83233 ], [ 74.05926, 25.83492 ], [ 74.06561, 25.83871 ], [ 74.06324, 25.84029 ], [ 74.06557, 25.84209 ], [ 74.0756, 25.84556 ], [ 74.07794, 25.848 ], [ 74.08878, 25.85223 ], [ 74.09166, 25.85118 ], [ 74.0861, 25.84468 ] ] ] ] } },
{ "type": "Feature", "properties": { "OBJECTID": 3277, "state_lgd": "08", "state_name": "RAJASTHAN", "district_lgd": "779", "district_name": "BEAWAR", "district_name_source": "district_table", "subdistrict_lgd": "00610N001", "subdistrict_name": "Vijainagar", "subdistrict_type": "", "name_corrupted": false, "remarks": "", "label_lon": 74.550366609618379, "label_lat": 25.96703511567182 }, "geometry": { "type": "Polygon", "coordinates": [ [ [ 74.43148, 26.04046 ], [ 74.43301, 26.0406 ], [ 74.43311, 26.03983 ], [ 74.43123, 26.03852 ], [ 74.43286, 26.03937 ], [ 74.43413, 26.03781 ], [ 74.43364, 26.03689 ], [ 74.43684, 26.03311 ], [ 74.4392, 26.03302 ], [ 74.44021, 26.03141 ], [ 74.44554, 26.03084 ], [ 74.45027, 26.03411 ], [ 74.45041, 26.03047 ], [ 74.45326, 26.02598 ], [ 74.45308, 26.02475 ], [ 74.44989, 26.02213 ], [ 74.45244, 26.02045 ], [ 74.45904, 26.02053 ], [ 74.46284, 26.02182 ], [ 74.46436, 26.02323 ], [ 74.47127, 26.02285 ], [ 74.47487, 26.02218 ], [ 74.47753, 26.01979 ], [ 74.48152, 26.01853 ], [ 74.47936, 26.01669 ], [ 74.48363, 26.01405 ], [ 74.48364, 26.01179 ], [ 74.4798, 26.01076 ], [ 74.47431, 26.01277 ], [ 74.47379, 26.00516 ], [ 74.47838, 26.00319 ], [ 74.47979, 25.99694 ], [ 74.48122, 25.99524 ], [ 74.48412, 25.98782 ], [ 74.49067, 25.98535 ], [ 74.48805, 25.97834 ], [ 74.48901, 25.97501 ], [ 74.49262, 25.97296 ], [ 74.49836, 25.97801 ], [ 74.50247, 25.98309 ], [ 74.50942, 25.98856 ], [ 74.51079, 25.98792 ], [ 74.51936, 25.98809 ], [ 74.5226, 25.98593 ], [ 74.52717, 25.98593 ], [ 74.52976, 25.98777 ], [ 74.53488, 25.98875 ], [ 74.53707, 25.99024 ], [ 74.53927, 25.99805 ], [ 74.54222, 25.9969 ], [ 74.54334, 25.99748 ], [ 74.54588, 25.99664 ], [ 74.55148, 25.99906 ], [ 74.55297, 26.00119 ], [ 74.55294, 26.00422 ], [ 74.55632, 26.00622 ], [ 74.55542, 26.01044 ], [ 74.55142, 26.01405 ], [ 74.55137, 26.01572 ], [ 74.55474, 26.02305 ], [ 74.55526, 26.02973 ], [ 74.56031, 26.03723 ], [ 74.56646, 26.03871 ], [ 74.56719, 26.04021 ], [ 74.58228, 26.03043 ], [ 74.58716, 26.02829 ], [ 74.59453, 26.0276 ], [ 74.59713, 26.03065 ], [ 74.59768, 26.02611 ], [ 74.5963, 26.02081 ], [ 74.60385, 26.02238 ], [ 74.61039, 26.02023 ], [ 74.61364, 26.02002 ], [ 74.61412, 26.01923 ], [ 74.61452, 26.01989 ], [ 74.62123, 26.01928 ], [ 74.62576, 26.02023 ], [ 74.63392, 26.02524 ], [ 74.64262, 26.02522 ], [ 74.64365, 26.02716 ], [ 74.64717, 26.02457 ], [ 74.64972, 26.02137 ], [ 74.65223, 26.02056 ], [ 74.65545, 26.00733 ], [ 74.65553, 26.00129 ], [ 74.65763, 25.99515 ], [ 74.66082, 25.99058 ], [ 74.66569, 25.98991 ], [ 74.66693, 25.98904 ], [ 74.66878, 25.98983 ], [ 74.67083, 25.98826 ], [ 74.67433, 25.98843 ], [ 74.67442, 25.9879 ], [ 74.68697, 25.9896 ], [ 74.68758, 25.9915 ], [ 74.69169, 25.99052 ], [ 74.69144, 25.98884 ], [ 74.69791, 25.98488 ], [ 74.69843, 25.98521 ], [ 74.70169, 25.98088 ], [ 74.701, 25.98056 ], [ 74.70493, 25.97397 ], [ 74.70846, 25.97253 ], [ 74.70822, 25.97201 ], [ 74.71245, 25.96795 ], [ 74.70742, 25.95524 ], [ 74.70146, 25.94631 ], [ 74.69417, 25.92973 ], [ 74.69637, 25.92926 ], [ 74.69542, 25.92708 ], [ 74.69699, 25.92711 ], [ 74.69674, 25.92618 ], [ 74.70287, 25.92305 ], [ 74.704, 25.92321 ], [ 74.70408, 25.91998 ], [ 74.6996, 25.91964 ], [ 74.69429, 25.91794 ], [ 74.68315, 25.91897 ], [ 74.66789, 25.91729 ], [ 74.66035, 25.91727 ], [ 74.65531, 25.91614 ], [ 74.62904, 25.90636 ], [ 74.61644, 25.905 ], [ 74.61329, 25.90558 ], [ 74.61488, 25.91354 ], [ 74.6038, 25.91554 ], [ 74.59285, 25.91653 ], [ 74.59251, 25.90935 ], [ 74.57736, 25.91352 ], [ 74.56848, 25.91438 ], [ 74.55914, 25.91399 ], [ 74.55825, 25.9119 ], [ 74.55157, 25.90951 ], [ 74.54039, 25.90314 ], [ 74.5326, 25.90361 ], [ 74.5275, 25.90308 ], [ 74.52667, 25.90336 ], [ 74.52411, 25.91148 ], [ 74.5072, 25.91932 ], [ 74.49253, 25.92311 ], [ 74.48329, 25.92859 ], [ 74.47474, 25.92669 ], [ 74.46448, 25.93203 ], [ 74.4515, 25.9324 ], [ 74.43711, 25.92667 ], [ 74.42914, 25.92973 ], [ 74.42481, 25.9304 ], [ 74.42249, 25.93201 ], [ 74.42348, 25.9352 ], [ 74.41992, 25.93625 ], [ 74.41657, 25.93589 ], [ 74.41351, 25.93764 ], [ 74.41138, 25.94589 ], [ 74.40575, 25.95212 ], [ 74.39745, 25.95589 ], [ 74.39094, 25.96011 ], [ 74.38765, 25.96341 ], [ 74.3855, 25.97421 ], [ 74.387, 25.97886 ], [ 74.39064, 25.98582 ], [ 74.38932, 25.98931 ], [ 74.38408, 25.99261 ], [ 74.38709, 26.00269 ], [ 74.3855, 26.00584 ], [ 74.38366, 26.00611 ], [ 74.38113, 26.0094 ], [ 74.3794, 26.01047 ], [ 74.37838, 26.00777 ], [ 74.37778, 26.00949 ], [ 74.3756, 26.01024 ], [ 74.37494, 26.01203 ], [ 74.37207, 26.01262 ], [ 74.36961, 26.0155 ], [ 74.36667, 26.01692 ], [ 74.36662, 26.01806 ], [ 74.36998, 26.02287 ], [ 74.37357, 26.02455 ], [ 74.37539, 26.02638 ], [ 74.37932, 26.02199 ], [ 74.37729, 26.01516 ], [ 74.37841, 26.01396 ], [ 74.38111, 26.01735 ], [ 74.38326, 26.01518 ], [ 74.38637, 26.01367 ], [ 74.38941, 26.01041 ], [ 74.38916, 26.00536 ], [ 74.39541, 26.00275 ], [ 74.398, 26.00074 ], [ 74.40069, 26.00465 ], [ 74.40051, 26.00584 ], [ 74.40234, 26.00724 ], [ 74.41105, 26.00246 ], [ 74.41358, 26.00354 ], [ 74.41651, 26.00649 ], [ 74.41739, 26.00991 ], [ 74.41981, 26.01376 ], [ 74.42052, 26.01636 ], [ 74.41823, 26.01761 ], [ 74.41813, 26.01917 ], [ 74.41677, 26.02062 ], [ 74.41938, 26.02636 ], [ 74.42001, 26.03048 ], [ 74.42712, 26.04044 ], [ 74.42968, 26.043 ], [ 74.43228, 26.04375 ], [ 74.43148, 26.04046 ] ] ] } }
]
}
