{
"type": "FeatureCollection",
"name": "787_DIDWANA_KUCHAMAN",
"crs": { "type": "name", "properties": { "name": "urn:ogc:def:crs:OGC:1.3:CRS84" } },
"xy_coordinate_resolution": 1e-05,
"features": [
{ "type": "Feature", "properties": { "OBJECTID": 3379, "state_lgd": "08", "state_name": "RAJASTHAN", "district_lgd": "787", "district_name": "DIDWANA-KUCHAMAN", "district_name_source": "district_table", "subdistrict_lgd": "00558N002", "subdistrict_name": "Chhoti Khatoo", "subdistrict_type": "", "name_corrupted": false, "remarks": "", "label_lon": 74.424601405277841, "label_lat": 27.221835480826833 }, "geometry": { "type": "Polygon", "coordinates": [ [ [ 74.39421, 27.37231 ], [ 74.39501, 27.37149 ], [ 74.39638, 27.36537 ], [ 74.40031, 27.36034 ], [ 74.40125, 27.36055 ], [ 74.40389, 27.35388 ], [ 74.40544, 27.34705 ], [ 74.41313, 27.34562 ], [ 74.42037, 27.34634 ], [ 74.42498, 27.33437 ], [ 74.42527, 27.33383 ], [ 74.42657, 27.33428 ], [ 74.42809, 27.33222 ], [ 74.42983, 27.3271 ], [ 74.42873, 27.32672 ], [ 74.43165, 27.31957 ], [ 74.43998, 27.32147 ], [ 74.44128, 27.31877 ], [ 74.44498, 27.31964 ], [ 74.44598, 27.31952 ], [ 74.44613, 27.31854 ], [ 74.45312, 27.32075 ], [ 74.45353, 27.31967 ], [ 74.45783, 27.32033 ], [ 74.45905, 27.31678 ], [ 74.46261, 27.31085 ], [ 74.46367, 27.31093 ], [ 74.46526, 27.30614 ], [ 74.46997, 27.30707 ], [ 74.46931, 27.30034 ], [ 74.47026, 27.29633 ], [ 74.46949, 27.29433 ], [ 74.46972, 27.28947 ], [ 74.47217, 27.28261 ], [ 74.4702, 27.28184 ], [ 74.47162, 27.27876 ], [ 74.47362, 27.26703 ], [ 74.47477, 27.26658 ], [ 74.47518, 27.26488 ], [ 74.47733, 27.2641 ], [ 74.47849, 27.26581 ], [ 74.48126, 27.26731 ], [ 74.48124, 27.268 ], [ 74.48936, 27.27024 ], [ 74.49072, 27.27079 ], [ 74.49072, 27.27151 ], [ 74.49675, 27.2728 ], [ 74.50146, 27.275 ], [ 74.5016, 27.27221 ], [ 74.50235, 27.27208 ], [ 74.50379, 27.26745 ], [ 74.50433, 27.26762 ], [ 74.50634, 27.26326 ], [ 74.50864, 27.26319 ], [ 74.50901, 27.26052 ], [ 74.5139, 27.24967 ], [ 74.51494, 27.2488 ], [ 74.51745, 27.2495 ], [ 74.51924, 27.24593 ], [ 74.5196, 27.23901 ], [ 74.51782, 27.23773 ], [ 74.51791, 27.23662 ], [ 74.51546, 27.2353 ], [ 74.51602, 27.23353 ], [ 74.51074, 27.23209 ], [ 74.51545, 27.2233 ], [ 74.52256, 27.22507 ], [ 74.52294, 27.22402 ], [ 74.53505, 27.2262 ], [ 74.53695, 27.22186 ], [ 74.5363, 27.22038 ], [ 74.53862, 27.22101 ], [ 74.53854, 27.2227 ], [ 74.54079, 27.22357 ], [ 74.54698, 27.22312 ], [ 74.54628, 27.22012 ], [ 74.54682, 27.21845 ], [ 74.54564, 27.2176 ], [ 74.54612, 27.21532 ], [ 74.55036, 27.21633 ], [ 74.55136, 27.21628 ], [ 74.55169, 27.21525 ], [ 74.5604, 27.21771 ], [ 74.56936, 27.2217 ], [ 74.57717, 27.22351 ], [ 74.57754, 27.22274 ], [ 74.58046, 27.22294 ], [ 74.58148, 27.22144 ], [ 74.58321, 27.22332 ], [ 74.5855, 27.22137 ], [ 74.58591, 27.21995 ], [ 74.59157, 27.22353 ], [ 74.59355, 27.22296 ], [ 74.59661, 27.22372 ], [ 74.59655, 27.22434 ], [ 74.59896, 27.22514 ], [ 74.59891, 27.22587 ], [ 74.60488, 27.22813 ], [ 74.60683, 27.22352 ], [ 74.60794, 27.22376 ], [ 74.60834, 27.2229 ], [ 74.60767, 27.22163 ], [ 74.60973, 27.21953 ], [ 74.61264, 27.21224 ], [ 74.61109, 27.21157 ], [ 74.61153, 27.21014 ], [ 74.6073, 27.20795 ], [ 74.60743, 27.20674 ], [ 74.60614, 27.20617 ], [ 74.59343, 27.20341 ], [ 74.58612, 27.20071 ], [ 74.58447, 27.19836 ], [ 74.58348, 27.19811 ], [ 74.58403, 27.19162 ], [ 74.58284, 27.19155 ], [ 74.58357, 27.18715 ], [ 74.5805, 27.18579 ], [ 74.57506, 27.18494 ], [ 74.56525, 27.18013 ], [ 74.56704, 27.17617 ], [ 74.56687, 27.17212 ], [ 74.56767, 27.17175 ], [ 74.56777, 27.16975 ], [ 74.56707, 27.16974 ], [ 74.56696, 27.16847 ], [ 74.55115, 27.16631 ], [ 74.54163, 27.16162 ], [ 74.53914, 27.16087 ], [ 74.53889, 27.16172 ], [ 74.5334, 27.16032 ], [ 74.53375, 27.15885 ], [ 74.5292, 27.15785 ], [ 74.53013, 27.15189 ], [ 74.52744, 27.15161 ], [ 74.52619, 27.15316 ], [ 74.52541, 27.15299 ], [ 74.50953, 27.14724 ], [ 74.50524, 27.1472 ], [ 74.50147, 27.14545 ], [ 74.49794, 27.14681 ], [ 74.49613, 27.14837 ], [ 74.49446, 27.14766 ], [ 74.49473, 27.14614 ], [ 74.49021, 27.14389 ], [ 74.49094, 27.14193 ], [ 74.48886, 27.14007 ], [ 74.48681, 27.13838 ], [ 74.48422, 27.13779 ], [ 74.48491, 27.13454 ], [ 74.48298, 27.13357 ], [ 74.4814, 27.13317 ], [ 74.4807, 27.13496 ], [ 74.47721, 27.1384 ], [ 74.47468, 27.13732 ], [ 74.47425, 27.13791 ], [ 74.47103, 27.13761 ], [ 74.46722, 27.14279 ], [ 74.46462, 27.14467 ], [ 74.4615, 27.14441 ], [ 74.46071, 27.14557 ], [ 74.45768, 27.14457 ], [ 74.45613, 27.14619 ], [ 74.44859, 27.14276 ], [ 74.4414, 27.13837 ], [ 74.4417, 27.13457 ], [ 74.42971, 27.12794 ], [ 74.42201, 27.139 ], [ 74.41965, 27.13818 ], [ 74.41718, 27.14296 ], [ 74.4161, 27.1428 ], [ 74.41488, 27.14482 ], [ 74.41267, 27.14434 ], [ 74.41243, 27.14521 ], [ 74.41016, 27.14436 ], [ 74.41023, 27.14309 ], [ 74.39213, 27.13168 ], [ 74.39279, 27.13013 ], [ 74.39105, 27.12907 ], [ 74.38991, 27.1264 ], [ 74.39092, 27.12412 ], [ 74.39483, 27.12181 ], [ 74.39929, 27.12144 ], [ 74.41296, 27.10746 ], [ 74.40286, 27.10311 ], [ 74.40164, 27.10355 ], [ 74.40081, 27.10534 ], [ 74.40009, 27.10513 ], [ 74.39659, 27.11179 ], [ 74.39444, 27.11089 ], [ 74.39336, 27.11337 ], [ 74.38536, 27.11206 ], [ 74.38856, 27.10333 ], [ 74.38972, 27.09737 ], [ 74.39064, 27.09718 ], [ 74.39244, 27.0932 ], [ 74.39279, 27.09214 ], [ 74.39203, 27.09184 ], [ 74.39284, 27.08954 ], [ 74.39364, 27.08975 ], [ 74.39263, 27.0821 ], [ 74.38697, 27.08048 ], [ 74.38465, 27.07886 ], [ 74.38451, 27.07779 ], [ 74.37482, 27.07384 ], [ 74.37407, 27.07571 ], [ 74.37316, 27.07546 ], [ 74.37204, 27.07729 ], [ 74.37105, 27.07711 ], [ 74.36976, 27.07973 ], [ 74.36311, 27.07592 ], [ 74.3566, 27.07378 ], [ 74.35698, 27.07177 ], [ 74.35434, 27.07074 ], [ 74.35247, 27.07386 ], [ 74.34855, 27.0735 ], [ 74.3485, 27.0807 ], [ 74.3427, 27.08748 ], [ 74.3398, 27.09564 ], [ 74.34355, 27.10009 ], [ 74.34426, 27.10268 ], [ 74.3484, 27.10868 ], [ 74.34594, 27.1106 ], [ 74.35263, 27.1136 ], [ 74.35801, 27.11734 ], [ 74.35463, 27.12708 ], [ 74.35019, 27.12664 ], [ 74.34975, 27.1284 ], [ 74.35638, 27.12948 ], [ 74.35596, 27.13123 ], [ 74.35556, 27.13243 ], [ 74.3529, 27.13111 ], [ 74.3509, 27.13522 ], [ 74.34897, 27.13478 ], [ 74.34854, 27.13556 ], [ 74.34225, 27.13367 ], [ 74.33761, 27.1436 ], [ 74.33469, 27.14214 ], [ 74.33313, 27.14432 ], [ 74.33153, 27.143 ], [ 74.33019, 27.14483 ], [ 74.32968, 27.14586 ], [ 74.33145, 27.14777 ], [ 74.33009, 27.14908 ], [ 74.32876, 27.15341 ], [ 74.32936, 27.15336 ], [ 74.33063, 27.15975 ], [ 74.33078, 27.17592 ], [ 74.32837, 27.18327 ], [ 74.3257, 27.18331 ], [ 74.3248, 27.18559 ], [ 74.32348, 27.18648 ], [ 74.3177, 27.19647 ], [ 74.31495, 27.20431 ], [ 74.31456, 27.20521 ], [ 74.31379, 27.20494 ], [ 74.31326, 27.20683 ], [ 74.31649, 27.20902 ], [ 74.32078, 27.21059 ], [ 74.32773, 27.21111 ], [ 74.33174, 27.21241 ], [ 74.32929, 27.22121 ], [ 74.33119, 27.22318 ], [ 74.33851, 27.22604 ], [ 74.33753, 27.23312 ], [ 74.3339, 27.23792 ], [ 74.33241, 27.23785 ], [ 74.33204, 27.23875 ], [ 74.33272, 27.23908 ], [ 74.32798, 27.24938 ], [ 74.32872, 27.25247 ], [ 74.32657, 27.26051 ], [ 74.32072, 27.27509 ], [ 74.32552, 27.27762 ], [ 74.32234, 27.29381 ], [ 74.33232, 27.29543 ], [ 74.33611, 27.29711 ], [ 74.33557, 27.29857 ], [ 74.35815, 27.30854 ], [ 74.36446, 27.31005 ], [ 74.36454, 27.31282 ], [ 74.36557, 27.31484 ], [ 74.36514, 27.3222 ], [ 74.36321, 27.32221 ], [ 74.36231, 27.32375 ], [ 74.35229, 27.32064 ], [ 74.34759, 27.32 ], [ 74.34636, 27.32511 ], [ 74.34592, 27.33397 ], [ 74.33852, 27.33207 ], [ 74.33069, 27.34433 ], [ 74.34281, 27.35123 ], [ 74.35595, 27.36066 ], [ 74.35558, 27.36157 ], [ 74.36654, 27.36397 ], [ 74.37245, 27.36818 ], [ 74.37807, 27.37049 ], [ 74.39421, 27.37231 ] ] ] } },
{ "type": "Feature", "properties": { "OBJECTID": 3380, "state_lgd": "08", "state_name": "RAJASTHAN", "district_lgd": "787", "district_name": "DIDWANA-KUCHAMAN", "district_name_source": "district_table", "subdistrict_lgd": "00558", "subdistrict_name": "Didwana", "subdistrict_type": "", "name_corrupted": false, "remarks": "", "label_lon": 74.567163690676836, "label_lat": 27.394063324661229 }, "geometry": { "type": "Polygon", "coordinates": [ [ [ 74.71309, 27.54096 ], [ 74.71834, 27.54014 ], [ 74.72018, 27.53071 ], [ 74.72166, 27.52917 ], [ 74.72281, 27.52936 ], [ 74.72345, 27.52749 ], [ 74.72337, 27.52485 ], [ 74.72054, 27.52331 ], [ 74.72166, 27.51893 ], [ 74.723, 27.51904 ], [ 74.72383, 27.51666 ], [ 74.72289, 27.51607 ], [ 74.7241, 27.51256 ], [ 74.72383, 27.51109 ], [ 74.72189, 27.50969 ], [ 74.72229, 27.50811 ], [ 74.7198, 27.5071 ], [ 74.72022, 27.50232 ], [ 74.72145, 27.50111 ], [ 74.7232, 27.50175 ], [ 74.72404, 27.49984 ], [ 74.7256, 27.50063 ], [ 74.72806, 27.49552 ], [ 74.72888, 27.49564 ], [ 74.73069, 27.49339 ], [ 74.74125, 27.49639 ], [ 74.74943, 27.50102 ], [ 74.75102, 27.49795 ], [ 74.75101, 27.49616 ], [ 74.75214, 27.49617 ], [ 74.75289, 27.49035 ], [ 74.75418, 27.48748 ], [ 74.75892, 27.49062 ], [ 74.76111, 27.49016 ], [ 74.77111, 27.49438 ], [ 74.77437, 27.48946 ], [ 74.77979, 27.49076 ], [ 74.78058, 27.48938 ], [ 74.7829, 27.48985 ], [ 74.78329, 27.48712 ], [ 74.78466, 27.48724 ], [ 74.78481, 27.48621 ], [ 74.78993, 27.48756 ], [ 74.79062, 27.48563 ], [ 74.79667, 27.48708 ], [ 74.80061, 27.47939 ], [ 74.80003, 27.47898 ], [ 74.80047, 27.47763 ], [ 74.8022, 27.47706 ], [ 74.80232, 27.47593 ], [ 74.80127, 27.47405 ], [ 74.80178, 27.47293 ], [ 74.80026, 27.472 ], [ 74.8005, 27.46947 ], [ 74.79837, 27.46843 ], [ 74.79915, 27.46354 ], [ 74.79768, 27.4631 ], [ 74.80025, 27.45543 ], [ 74.80021, 27.45005 ], [ 74.79863, 27.4496 ], [ 74.79867, 27.44709 ], [ 74.79591, 27.4471 ], [ 74.79542, 27.44352 ], [ 74.79462, 27.44342 ], [ 74.79493, 27.44173 ], [ 74.79425, 27.44154 ], [ 74.79446, 27.44042 ], [ 74.79347, 27.4401 ], [ 74.79297, 27.43682 ], [ 74.78145, 27.43415 ], [ 74.77539, 27.43023 ], [ 74.76946, 27.42761 ], [ 74.7632, 27.42751 ], [ 74.76128, 27.432 ], [ 74.75984, 27.4317 ], [ 74.75858, 27.43429 ], [ 74.75047, 27.43131 ], [ 74.7464, 27.43076 ], [ 74.746, 27.43154 ], [ 74.74439, 27.43143 ], [ 74.74015, 27.43039 ], [ 74.73731, 27.42863 ], [ 74.72214, 27.42391 ], [ 74.72097, 27.42614 ], [ 74.7188, 27.42562 ], [ 74.71847, 27.42659 ], [ 74.71575, 27.42583 ], [ 74.71539, 27.4265 ], [ 74.71091, 27.4258 ], [ 74.69803, 27.4209 ], [ 74.69104, 27.42005 ], [ 74.69067, 27.42128 ], [ 74.6835, 27.41962 ], [ 74.68294, 27.42099 ], [ 74.67791, 27.42132 ], [ 74.67716, 27.42382 ], [ 74.67127, 27.42645 ], [ 74.66906, 27.42619 ], [ 74.6662, 27.42857 ], [ 74.66276, 27.42733 ], [ 74.66337, 27.4259 ], [ 74.65903, 27.42403 ], [ 74.65565, 27.42353 ], [ 74.65633, 27.42127 ], [ 74.64724, 27.41959 ], [ 74.64823, 27.41682 ], [ 74.64735, 27.41661 ], [ 74.64643, 27.41641 ], [ 74.64558, 27.41893 ], [ 74.64229, 27.41812 ], [ 74.64103, 27.42252 ], [ 74.63935, 27.422 ], [ 74.63892, 27.42387 ], [ 74.63405, 27.42241 ], [ 74.63474, 27.42042 ], [ 74.6328, 27.41972 ], [ 74.63223, 27.42114 ], [ 74.63047, 27.42067 ], [ 74.6297, 27.42229 ], [ 74.62232, 27.41962 ], [ 74.62096, 27.41888 ], [ 74.62126, 27.4177 ], [ 74.62048, 27.41743 ], [ 74.61955, 27.41881 ], [ 74.61447, 27.41718 ], [ 74.61478, 27.4151 ], [ 74.61302, 27.41473 ], [ 74.61315, 27.41385 ], [ 74.61029, 27.41331 ], [ 74.61068, 27.41184 ], [ 74.60981, 27.41149 ], [ 74.61092, 27.40759 ], [ 74.61289, 27.40802 ], [ 74.61316, 27.40688 ], [ 74.61477, 27.40718 ], [ 74.61521, 27.40565 ], [ 74.61638, 27.40597 ], [ 74.61728, 27.40198 ], [ 74.61581, 27.39964 ], [ 74.61631, 27.39765 ], [ 74.6247, 27.39838 ], [ 74.62442, 27.40138 ], [ 74.62692, 27.4016 ], [ 74.62736, 27.39936 ], [ 74.63017, 27.39988 ], [ 74.63061, 27.39796 ], [ 74.63357, 27.39857 ], [ 74.63436, 27.39676 ], [ 74.63036, 27.3958 ], [ 74.6308, 27.39401 ], [ 74.63356, 27.39439 ], [ 74.63532, 27.38917 ], [ 74.63344, 27.38864 ], [ 74.63447, 27.3856 ], [ 74.64844, 27.39301 ], [ 74.65614, 27.39618 ], [ 74.6568, 27.39516 ], [ 74.65882, 27.39578 ], [ 74.65832, 27.39705 ], [ 74.66105, 27.39838 ], [ 74.66298, 27.39808 ], [ 74.66498, 27.39765 ], [ 74.66522, 27.39636 ], [ 74.66775, 27.39678 ], [ 74.67094, 27.39347 ], [ 74.67145, 27.39128 ], [ 74.66804, 27.39027 ], [ 74.66842, 27.38874 ], [ 74.66761, 27.38839 ], [ 74.66831, 27.38643 ], [ 74.66963, 27.38677 ], [ 74.66999, 27.38578 ], [ 74.6729, 27.38653 ], [ 74.6742, 27.38512 ], [ 74.67773, 27.38678 ], [ 74.67831, 27.38508 ], [ 74.67673, 27.38454 ], [ 74.67636, 27.38244 ], [ 74.67856, 27.38189 ], [ 74.6789, 27.37809 ], [ 74.67718, 27.37776 ], [ 74.67756, 27.37566 ], [ 74.67464, 27.37482 ], [ 74.67459, 27.37049 ], [ 74.66509, 27.36581 ], [ 74.66389, 27.36671 ], [ 74.65781, 27.36538 ], [ 74.65504, 27.36578 ], [ 74.65503, 27.36445 ], [ 74.64835, 27.36369 ], [ 74.64758, 27.36476 ], [ 74.64215, 27.36183 ], [ 74.63561, 27.36007 ], [ 74.6372, 27.3569 ], [ 74.63851, 27.35716 ], [ 74.63903, 27.35603 ], [ 74.64028, 27.35634 ], [ 74.64106, 27.35442 ], [ 74.64234, 27.35469 ], [ 74.64416, 27.35072 ], [ 74.65024, 27.35367 ], [ 74.65251, 27.35099 ], [ 74.65232, 27.34946 ], [ 74.65358, 27.34644 ], [ 74.64471, 27.34295 ], [ 74.64018, 27.34294 ], [ 74.64026, 27.34161 ], [ 74.63823, 27.34111 ], [ 74.63835, 27.33925 ], [ 74.63423, 27.34072 ], [ 74.63454, 27.33766 ], [ 74.63046, 27.3361 ], [ 74.63362, 27.32449 ], [ 74.63426, 27.32472 ], [ 74.6373, 27.31982 ], [ 74.63822, 27.32008 ], [ 74.64063, 27.31636 ], [ 74.64202, 27.31623 ], [ 74.64367, 27.31406 ], [ 74.63086, 27.30795 ], [ 74.62437, 27.30567 ], [ 74.62371, 27.30461 ], [ 74.62375, 27.30113 ], [ 74.62292, 27.30062 ], [ 74.6239, 27.29874 ], [ 74.62321, 27.29836 ], [ 74.62344, 27.29522 ], [ 74.62227, 27.29494 ], [ 74.62244, 27.29401 ], [ 74.61996, 27.29245 ], [ 74.62046, 27.291 ], [ 74.61762, 27.2901 ], [ 74.61746, 27.28788 ], [ 74.6153, 27.2866 ], [ 74.61544, 27.28596 ], [ 74.60725, 27.28122 ], [ 74.60469, 27.27809 ], [ 74.60225, 27.2766 ], [ 74.6018, 27.27569 ], [ 74.60317, 27.27232 ], [ 74.59279, 27.26698 ], [ 74.59583, 27.25624 ], [ 74.58699, 27.25293 ], [ 74.58721, 27.25156 ], [ 74.58431, 27.24964 ], [ 74.58557, 27.24856 ], [ 74.58398, 27.24681 ], [ 74.57883, 27.24408 ], [ 74.56493, 27.2394 ], [ 74.56722, 27.22472 ], [ 74.56814, 27.22496 ], [ 74.56936, 27.2217 ], [ 74.55698, 27.21659 ], [ 74.55169, 27.21525 ], [ 74.55136, 27.21628 ], [ 74.55036, 27.21633 ], [ 74.54612, 27.21532 ], [ 74.54564, 27.2176 ], [ 74.54682, 27.21845 ], [ 74.54628, 27.22012 ], [ 74.54698, 27.22312 ], [ 74.54079, 27.22357 ], [ 74.53854, 27.2227 ], [ 74.53862, 27.22101 ], [ 74.5363, 27.22038 ], [ 74.53695, 27.22186 ], [ 74.5361, 27.22464 ], [ 74.53505, 27.2262 ], [ 74.534, 27.22641 ], [ 74.52294, 27.22402 ], [ 74.52256, 27.22507 ], [ 74.51545, 27.2233 ], [ 74.51074, 27.23209 ], [ 74.51602, 27.23353 ], [ 74.51546, 27.2353 ], [ 74.51791, 27.23662 ], [ 74.51782, 27.23773 ], [ 74.5196, 27.23901 ], [ 74.51924, 27.24593 ], [ 74.51745, 27.2495 ], [ 74.51494, 27.2488 ], [ 74.5139, 27.24967 ], [ 74.50901, 27.26052 ], [ 74.50864, 27.26319 ], [ 74.50634, 27.26326 ], [ 74.50433, 27.26762 ], [ 74.50379, 27.26745 ], [ 74.50235, 27.27208 ], [ 74.5016, 27.27221 ], [ 74.50146, 27.275 ], [ 74.49675, 27.2728 ], [ 74.49072, 27.27151 ], [ 74.49072, 27.27079 ], [ 74.48936, 27.27024 ], [ 74.48124, 27.268 ], [ 74.48126, 27.26731 ], [ 74.47849, 27.26581 ], [ 74.47733, 27.2641 ], [ 74.47518, 27.26488 ], [ 74.47477, 27.26658 ], [ 74.47362, 27.26703 ], [ 74.47162, 27.27876 ], [ 74.4702, 27.28184 ], [ 74.47217, 27.28261 ], [ 74.46972, 27.28947 ], [ 74.46949, 27.29433 ], [ 74.47026, 27.29633 ], [ 74.46931, 27.30034 ], [ 74.46997, 27.30707 ], [ 74.46526, 27.30614 ], [ 74.46367, 27.31093 ], [ 74.46261, 27.31085 ], [ 74.45905, 27.31678 ], [ 74.45783, 27.32033 ], [ 74.45353, 27.31967 ], [ 74.45312, 27.32075 ], [ 74.44613, 27.31854 ], [ 74.44598, 27.31952 ], [ 74.44498, 27.31964 ], [ 74.44128, 27.31877 ], [ 74.43998, 27.32147 ], [ 74.43165, 27.31957 ], [ 74.42873, 27.32672 ], [ 74.42983, 27.3271 ], [ 74.42809, 27.33222 ], [ 74.42657, 27.33428 ], [ 74.42527, 27.33383 ], [ 74.42498, 27.33437 ], [ 74.42037, 27.34634 ], [ 74.41313, 27.34562 ], [ 74.40531, 27.34724 ], [ 74.40389, 27.35388 ], [ 74.40125, 27.36055 ], [ 74.40031, 27.36034 ], [ 74.39626, 27.36563 ], [ 74.39403, 27.37484 ], [ 74.39987, 27.37981 ], [ 74.40151, 27.38307 ], [ 74.40337, 27.38405 ], [ 74.40466, 27.38626 ], [ 74.41271, 27.39122 ], [ 74.41907, 27.39716 ], [ 74.41201, 27.41359 ], [ 74.4077, 27.41279 ], [ 74.4066, 27.41484 ], [ 74.40482, 27.41421 ], [ 74.40412, 27.4167 ], [ 74.40339, 27.41642 ], [ 74.40295, 27.41722 ], [ 74.40205, 27.42052 ], [ 74.39946, 27.41985 ], [ 74.39912, 27.42075 ], [ 74.39355, 27.42095 ], [ 74.38847, 27.42004 ], [ 74.38679, 27.42229 ], [ 74.38223, 27.42043 ], [ 74.3795, 27.42027 ], [ 74.37904, 27.42176 ], [ 74.3802, 27.42243 ], [ 74.37988, 27.4291 ], [ 74.38092, 27.43106 ], [ 74.37802, 27.43636 ], [ 74.37493, 27.44605 ], [ 74.38616, 27.45149 ], [ 74.39175, 27.45225 ], [ 74.39213, 27.45371 ], [ 74.40328, 27.45768 ], [ 74.4095, 27.45828 ], [ 74.41504, 27.45998 ], [ 74.41534, 27.45937 ], [ 74.41763, 27.46008 ], [ 74.41846, 27.45951 ], [ 74.42312, 27.46224 ], [ 74.42379, 27.46127 ], [ 74.43663, 27.46541 ], [ 74.44247, 27.46412 ], [ 74.44466, 27.46899 ], [ 74.44442, 27.47015 ], [ 74.4518, 27.47151 ], [ 74.45421, 27.47327 ], [ 74.46699, 27.47868 ], [ 74.47043, 27.4809 ], [ 74.47012, 27.48178 ], [ 74.47666, 27.48384 ], [ 74.47695, 27.48304 ], [ 74.47799, 27.48352 ], [ 74.48139, 27.48557 ], [ 74.48099, 27.487 ], [ 74.48707, 27.4906 ], [ 74.49425, 27.47677 ], [ 74.4958, 27.47711 ], [ 74.52291, 27.48863 ], [ 74.52133, 27.49243 ], [ 74.52299, 27.49306 ], [ 74.52179, 27.49689 ], [ 74.52808, 27.49914 ], [ 74.52872, 27.49646 ], [ 74.53273, 27.49706 ], [ 74.5361, 27.49639 ], [ 74.54845, 27.49872 ], [ 74.55266, 27.50021 ], [ 74.55608, 27.48689 ], [ 74.55622, 27.48435 ], [ 74.55313, 27.4828 ], [ 74.55286, 27.48146 ], [ 74.55447, 27.47816 ], [ 74.56631, 27.48027 ], [ 74.56639, 27.47862 ], [ 74.56872, 27.4794 ], [ 74.56952, 27.47734 ], [ 74.57525, 27.47834 ], [ 74.57556, 27.47775 ], [ 74.57883, 27.4795 ], [ 74.5814, 27.47973 ], [ 74.58454, 27.47358 ], [ 74.58739, 27.47432 ], [ 74.58758, 27.47612 ], [ 74.59002, 27.47741 ], [ 74.59136, 27.47617 ], [ 74.59675, 27.47873 ], [ 74.59849, 27.47405 ], [ 74.59771, 27.47 ], [ 74.60047, 27.47114 ], [ 74.60021, 27.47279 ], [ 74.6085, 27.47451 ], [ 74.61526, 27.47723 ], [ 74.61598, 27.4758 ], [ 74.61779, 27.47617 ], [ 74.63131, 27.482 ], [ 74.63, 27.48381 ], [ 74.63012, 27.48536 ], [ 74.63436, 27.48869 ], [ 74.63334, 27.4922 ], [ 74.6354, 27.4948 ], [ 74.63485, 27.50267 ], [ 74.63686, 27.5032 ], [ 74.63752, 27.50206 ], [ 74.64157, 27.50345 ], [ 74.64224, 27.50119 ], [ 74.64505, 27.50154 ], [ 74.64617, 27.50035 ], [ 74.64963, 27.50174 ], [ 74.65006, 27.50085 ], [ 74.65174, 27.50097 ], [ 74.65729, 27.50265 ], [ 74.65583, 27.50839 ], [ 74.6578, 27.50936 ], [ 74.65852, 27.51199 ], [ 74.66275, 27.514 ], [ 74.66819, 27.51516 ], [ 74.6704, 27.51557 ], [ 74.67081, 27.51448 ], [ 74.67552, 27.51555 ], [ 74.68457, 27.51983 ], [ 74.69275, 27.52015 ], [ 74.69234, 27.52411 ], [ 74.69574, 27.52535 ], [ 74.69656, 27.5304 ], [ 74.69748, 27.53177 ], [ 74.69687, 27.53194 ], [ 74.69676, 27.53403 ], [ 74.70489, 27.53657 ], [ 74.70481, 27.53798 ], [ 74.70918, 27.54004 ], [ 74.71309, 27.54096 ] ] ] } },
{ "type": "Feature", "properties": { "OBJECTID": 3381, "state_lgd": "08", "state_name": "RAJASTHAN", "district_lgd": "787", "district_name": "DIDWANA-KUCHAMAN", "district_name_source": "district_table", "subdistrict_lgd": "00566N001", "subdistrict_name": "Kuchaman City", "subdistrict_type": "", "name_corrupted": false, "remarks": "", "label_lon": 74.935321730487473, "label_lat": 27.217611901937666 }, "geometry": { "type": "Polygon", "coordinates": [ [ [ 75.0805, 27.38622 ], [ 75.08639, 27.38504 ], [ 75.08651, 27.38386 ], [ 75.09183, 27.38408 ], [ 75.09391, 27.38237 ], [ 75.09687, 27.38168 ], [ 75.1056, 27.38139 ], [ 75.10565, 27.38056 ], [ 75.10744, 27.38049 ], [ 75.1074, 27.37797 ], [ 75.11502, 27.37749 ], [ 75.11556, 27.37655 ], [ 75.1171, 27.37026 ], [ 75.11509, 27.36974 ], [ 75.11557, 27.36648 ], [ 75.11439, 27.35735 ], [ 75.11366, 27.35727 ], [ 75.11378, 27.35612 ], [ 75.11531, 27.35564 ], [ 75.11561, 27.35176 ], [ 75.11422, 27.35172 ], [ 75.11379, 27.34549 ], [ 75.11188, 27.34205 ], [ 75.10674, 27.34117 ], [ 75.10706, 27.33701 ], [ 75.10625, 27.33516 ], [ 75.11465, 27.33503 ], [ 75.12131, 27.336 ], [ 75.12584, 27.32958 ], [ 75.13425, 27.32646 ], [ 75.13513, 27.32409 ], [ 75.13805, 27.32382 ], [ 75.13908, 27.32046 ], [ 75.14782, 27.32013 ], [ 75.15472, 27.31786 ], [ 75.16052, 27.31755 ], [ 75.16054, 27.31676 ], [ 75.16151, 27.31677 ], [ 75.16369, 27.31196 ], [ 75.16472, 27.30336 ], [ 75.16011, 27.29462 ], [ 75.15593, 27.27798 ], [ 75.13162, 27.27953 ], [ 75.12577, 27.26934 ], [ 75.12202, 27.26711 ], [ 75.10433, 27.24832 ], [ 75.0983, 27.24297 ], [ 75.09261, 27.24335 ], [ 75.09167, 27.24406 ], [ 75.08635, 27.24347 ], [ 75.08189, 27.2371 ], [ 75.08134, 27.23738 ], [ 75.07381, 27.22143 ], [ 75.0738, 27.21893 ], [ 75.06132, 27.20959 ], [ 75.05491, 27.20025 ], [ 75.04634, 27.20106 ], [ 75.04215, 27.20259 ], [ 75.04014, 27.20225 ], [ 75.04019, 27.20086 ], [ 75.03972, 27.19963 ], [ 75.0347, 27.20276 ], [ 75.03232, 27.20582 ], [ 75.02936, 27.20607 ], [ 75.02927, 27.20712 ], [ 75.02127, 27.20953 ], [ 75.01841, 27.20946 ], [ 74.99595, 27.20131 ], [ 74.99571, 27.20191 ], [ 74.99366, 27.20194 ], [ 74.9842, 27.19875 ], [ 74.97159, 27.1986 ], [ 74.96652, 27.19778 ], [ 74.96679, 27.19728 ], [ 74.96412, 27.19439 ], [ 74.96397, 27.19 ], [ 74.9486, 27.18442 ], [ 74.94489, 27.18498 ], [ 74.94438, 27.18592 ], [ 74.93874, 27.18484 ], [ 74.93523, 27.18236 ], [ 74.92353, 27.17792 ], [ 74.92654, 27.16906 ], [ 74.92616, 27.16409 ], [ 74.9269, 27.15915 ], [ 74.92651, 27.15423 ], [ 74.92586, 27.15384 ], [ 74.92549, 27.15092 ], [ 74.92459, 27.1508 ], [ 74.92432, 27.14754 ], [ 74.92521, 27.14194 ], [ 74.92626, 27.14015 ], [ 74.92912, 27.12147 ], [ 74.92039, 27.11921 ], [ 74.91971, 27.10794 ], [ 74.92047, 27.10481 ], [ 74.92161, 27.10448 ], [ 74.92119, 27.10221 ], [ 74.92547, 27.10224 ], [ 74.92829, 27.10099 ], [ 74.92921, 27.09861 ], [ 74.93428, 27.09817 ], [ 74.93467, 27.09712 ], [ 74.93599, 27.09719 ], [ 74.93813, 27.09294 ], [ 74.93843, 27.08762 ], [ 74.93967, 27.08721 ], [ 74.93973, 27.08285 ], [ 74.94083, 27.08265 ], [ 74.94096, 27.0802 ], [ 74.94257, 27.07982 ], [ 74.94251, 27.07874 ], [ 74.93048, 27.07565 ], [ 74.92095, 27.07432 ], [ 74.91206, 27.07407 ], [ 74.91207, 27.07355 ], [ 74.9001, 27.07244 ], [ 74.886, 27.06963 ], [ 74.8859, 27.06632 ], [ 74.88734, 27.06634 ], [ 74.88796, 27.06074 ], [ 74.88441, 27.04318 ], [ 74.88509, 27.04201 ], [ 74.89081, 27.04083 ], [ 74.88022, 27.02553 ], [ 74.87273, 27.01033 ], [ 74.86291, 26.99311 ], [ 74.85111, 26.99704 ], [ 74.84349, 26.99635 ], [ 74.8405, 26.99929 ], [ 74.83051, 27.00175 ], [ 74.82666, 27.00134 ], [ 74.82459, 27.00528 ], [ 74.8215, 27.00844 ], [ 74.82059, 27.01707 ], [ 74.81847, 27.01649 ], [ 74.8062, 27.01847 ], [ 74.79822, 27.01861 ], [ 74.79393, 27.02433 ], [ 74.79224, 27.02443 ], [ 74.78968, 27.02838 ], [ 74.78893, 27.031 ], [ 74.79001, 27.03468 ], [ 74.79603, 27.04072 ], [ 74.7929, 27.04635 ], [ 74.78438, 27.05143 ], [ 74.78348, 27.05317 ], [ 74.78428, 27.05351 ], [ 74.78401, 27.05434 ], [ 74.78185, 27.05495 ], [ 74.78135, 27.05746 ], [ 74.78685, 27.06077 ], [ 74.78674, 27.06184 ], [ 74.78782, 27.06218 ], [ 74.78798, 27.06307 ], [ 74.79671, 27.06745 ], [ 74.79785, 27.06969 ], [ 74.80805, 27.06943 ], [ 74.81687, 27.09677 ], [ 74.81041, 27.09857 ], [ 74.79703, 27.10057 ], [ 74.79799, 27.10195 ], [ 74.79624, 27.10286 ], [ 74.79338, 27.10676 ], [ 74.79418, 27.10833 ], [ 74.79372, 27.11102 ], [ 74.79434, 27.11127 ], [ 74.79339, 27.11843 ], [ 74.79187, 27.12307 ], [ 74.79125, 27.12982 ], [ 74.79022, 27.12968 ], [ 74.78904, 27.13568 ], [ 74.79063, 27.13666 ], [ 74.79049, 27.13815 ], [ 74.79352, 27.13937 ], [ 74.79372, 27.14427 ], [ 74.79418, 27.14518 ], [ 74.79532, 27.14524 ], [ 74.79573, 27.14831 ], [ 74.79679, 27.1488 ], [ 74.79664, 27.15204 ], [ 74.7977, 27.15257 ], [ 74.7977, 27.15345 ], [ 74.79614, 27.16104 ], [ 74.78935, 27.16115 ], [ 74.78469, 27.16036 ], [ 74.78071, 27.16111 ], [ 74.77648, 27.16077 ], [ 74.77347, 27.16199 ], [ 74.76891, 27.15963 ], [ 74.75639, 27.15835 ], [ 74.75291, 27.1677 ], [ 74.75184, 27.17444 ], [ 74.75012, 27.17783 ], [ 74.74923, 27.18189 ], [ 74.74712, 27.18497 ], [ 74.74489, 27.19196 ], [ 74.75415, 27.19579 ], [ 74.75588, 27.1989 ], [ 74.75648, 27.20139 ], [ 74.75498, 27.20869 ], [ 74.75731, 27.21255 ], [ 74.75863, 27.2202 ], [ 74.76386, 27.22205 ], [ 74.77247, 27.22344 ], [ 74.7755, 27.22293 ], [ 74.7813, 27.22509 ], [ 74.79308, 27.22707 ], [ 74.80111, 27.23057 ], [ 74.80199, 27.2327 ], [ 74.80712, 27.23348 ], [ 74.80792, 27.23463 ], [ 74.81312, 27.23634 ], [ 74.81375, 27.23763 ], [ 74.81709, 27.23747 ], [ 74.82499, 27.23918 ], [ 74.82443, 27.24272 ], [ 74.82488, 27.24718 ], [ 74.82333, 27.25025 ], [ 74.83163, 27.25444 ], [ 74.83508, 27.25797 ], [ 74.8543, 27.26521 ], [ 74.85185, 27.28246 ], [ 74.85097, 27.28428 ], [ 74.85177, 27.28796 ], [ 74.8532, 27.28828 ], [ 74.85325, 27.2898 ], [ 74.85981, 27.29494 ], [ 74.8614, 27.29857 ], [ 74.86371, 27.30078 ], [ 74.86271, 27.3022 ], [ 74.87271, 27.30529 ], [ 74.8721, 27.30806 ], [ 74.87435, 27.30908 ], [ 74.88511, 27.31038 ], [ 74.89226, 27.31286 ], [ 74.89233, 27.31433 ], [ 74.8958, 27.31555 ], [ 74.89878, 27.31557 ], [ 74.89793, 27.3205 ], [ 74.89947, 27.32103 ], [ 74.89833, 27.33169 ], [ 74.90292, 27.3322 ], [ 74.90345, 27.33453 ], [ 74.90811, 27.33493 ], [ 74.91187, 27.33677 ], [ 74.92911, 27.33622 ], [ 74.93226, 27.3366 ], [ 74.93424, 27.33784 ], [ 74.93489, 27.337 ], [ 74.9358, 27.33731 ], [ 74.94309, 27.34154 ], [ 74.94256, 27.34288 ], [ 74.94369, 27.34352 ], [ 74.94365, 27.34519 ], [ 74.94274, 27.34763 ], [ 74.94572, 27.34829 ], [ 74.94643, 27.35011 ], [ 74.9507, 27.34956 ], [ 74.95226, 27.34852 ], [ 74.96227, 27.34949 ], [ 74.96946, 27.34826 ], [ 74.97534, 27.34921 ], [ 74.97588, 27.34796 ], [ 74.97708, 27.34808 ], [ 74.9781, 27.34713 ], [ 74.9832, 27.34839 ], [ 74.98762, 27.34824 ], [ 74.98793, 27.34746 ], [ 74.99674, 27.34831 ], [ 74.9977, 27.34722 ], [ 75.00721, 27.34697 ], [ 75.01148, 27.34796 ], [ 75.01135, 27.34865 ], [ 75.01821, 27.35178 ], [ 75.02272, 27.35277 ], [ 75.02591, 27.3522 ], [ 75.02719, 27.35383 ], [ 75.03521, 27.35462 ], [ 75.03529, 27.35599 ], [ 75.03797, 27.35644 ], [ 75.0383, 27.36152 ], [ 75.04026, 27.36059 ], [ 75.04361, 27.36253 ], [ 75.04455, 27.36875 ], [ 75.04628, 27.37224 ], [ 75.04538, 27.37738 ], [ 75.05186, 27.37849 ], [ 75.05239, 27.37938 ], [ 75.05573, 27.38039 ], [ 75.06632, 27.38218 ], [ 75.06615, 27.38301 ], [ 75.07253, 27.38515 ], [ 75.0805, 27.38622 ] ] ] } },
{ "type": "Feature", "properties": { "OBJECTID": 3382, "state_lgd": "08", "state_name": "RAJASTHAN", "district_lgd": "787", "district_name": "DIDWANA-KUCHAMAN", "district_name_source": "district_table", "subdistrict_lgd": "00557", "subdistrict_name": "Ladnu", "subdistrict_type": "", "name_corrupted": false, "remarks": "", "label_lon": 74.438684610187607, "label_lat": 27.53381119299792 }, "geometry": { "type": "Polygon", "coordinates": [ [ [ 74.68159, 27.6685 ], [ 74.68272, 27.66512 ], [ 74.68269, 27.66018 ], [ 74.68423, 27.65813 ], [ 74.68725, 27.65863 ], [ 74.68776, 27.6565 ], [ 74.68999, 27.6534 ], [ 74.69243, 27.65428 ], [ 74.69306, 27.65281 ], [ 74.69534, 27.65379 ], [ 74.69613, 27.65267 ], [ 74.70299, 27.65317 ], [ 74.70485, 27.64885 ], [ 74.70658, 27.64752 ], [ 74.70803, 27.64434 ], [ 74.70984, 27.64298 ], [ 74.71184, 27.63953 ], [ 74.7094, 27.63793 ], [ 74.71053, 27.63562 ], [ 74.70921, 27.63491 ], [ 74.70996, 27.63206 ], [ 74.71148, 27.62993 ], [ 74.70207, 27.62489 ], [ 74.70175, 27.62367 ], [ 74.69963, 27.62266 ], [ 74.69861, 27.6194 ], [ 74.69994, 27.61682 ], [ 74.69878, 27.61623 ], [ 74.70118, 27.61022 ], [ 74.70119, 27.6071 ], [ 74.7043, 27.60241 ], [ 74.70306, 27.60031 ], [ 74.70464, 27.59711 ], [ 74.70538, 27.59745 ], [ 74.70628, 27.5958 ], [ 74.71106, 27.60018 ], [ 74.73026, 27.60963 ], [ 74.73719, 27.59235 ], [ 74.74131, 27.58473 ], [ 74.75108, 27.59043 ], [ 74.75688, 27.59263 ], [ 74.76157, 27.57911 ], [ 74.75894, 27.57792 ], [ 74.76022, 27.57524 ], [ 74.76012, 27.57252 ], [ 74.7618, 27.56558 ], [ 74.7475, 27.557 ], [ 74.74296, 27.55313 ], [ 74.73276, 27.54844 ], [ 74.73051, 27.54659 ], [ 74.7224, 27.54438 ], [ 74.722, 27.54259 ], [ 74.71956, 27.54038 ], [ 74.71537, 27.54017 ], [ 74.71309, 27.54096 ], [ 74.70918, 27.54004 ], [ 74.70481, 27.53798 ], [ 74.70489, 27.53657 ], [ 74.69676, 27.53403 ], [ 74.69687, 27.53194 ], [ 74.69748, 27.53177 ], [ 74.69656, 27.5304 ], [ 74.69574, 27.52535 ], [ 74.69234, 27.52411 ], [ 74.69275, 27.52015 ], [ 74.68516, 27.51996 ], [ 74.67552, 27.51555 ], [ 74.67081, 27.51448 ], [ 74.6704, 27.51557 ], [ 74.66112, 27.5133 ], [ 74.65852, 27.51199 ], [ 74.6578, 27.50936 ], [ 74.65583, 27.50839 ], [ 74.65729, 27.50265 ], [ 74.65194, 27.50102 ], [ 74.65006, 27.50085 ], [ 74.64963, 27.50174 ], [ 74.64617, 27.50035 ], [ 74.64505, 27.50154 ], [ 74.64234, 27.50117 ], [ 74.64157, 27.50345 ], [ 74.63752, 27.50206 ], [ 74.63686, 27.5032 ], [ 74.63485, 27.50267 ], [ 74.6354, 27.4948 ], [ 74.63334, 27.4922 ], [ 74.63436, 27.48869 ], [ 74.63012, 27.48536 ], [ 74.63, 27.48381 ], [ 74.63131, 27.482 ], [ 74.61779, 27.47617 ], [ 74.61598, 27.4758 ], [ 74.61526, 27.47723 ], [ 74.6085, 27.47451 ], [ 74.60021, 27.47279 ], [ 74.60047, 27.47114 ], [ 74.59771, 27.47 ], [ 74.59849, 27.47405 ], [ 74.59675, 27.47873 ], [ 74.59136, 27.47617 ], [ 74.59002, 27.47741 ], [ 74.58758, 27.47612 ], [ 74.58739, 27.47432 ], [ 74.58454, 27.47358 ], [ 74.5814, 27.47973 ], [ 74.57883, 27.4795 ], [ 74.57556, 27.47775 ], [ 74.57525, 27.47834 ], [ 74.56952, 27.47734 ], [ 74.56872, 27.4794 ], [ 74.56639, 27.47862 ], [ 74.56631, 27.48027 ], [ 74.55447, 27.47816 ], [ 74.55286, 27.48146 ], [ 74.55313, 27.4828 ], [ 74.55622, 27.48435 ], [ 74.55608, 27.48689 ], [ 74.55266, 27.50021 ], [ 74.54845, 27.49872 ], [ 74.5361, 27.49639 ], [ 74.53273, 27.49706 ], [ 74.52872, 27.49646 ], [ 74.52808, 27.49914 ], [ 74.52179, 27.49689 ], [ 74.52299, 27.49306 ], [ 74.52133, 27.49243 ], [ 74.52291, 27.48863 ], [ 74.4958, 27.47711 ], [ 74.49425, 27.47677 ], [ 74.48707, 27.4906 ], [ 74.48099, 27.487 ], [ 74.48139, 27.48557 ], [ 74.47799, 27.48352 ], [ 74.47695, 27.48304 ], [ 74.47666, 27.48384 ], [ 74.47012, 27.48178 ], [ 74.47043, 27.4809 ], [ 74.46699, 27.47868 ], [ 74.45421, 27.47327 ], [ 74.4518, 27.47151 ], [ 74.44442, 27.47015 ], [ 74.44466, 27.46899 ], [ 74.44247, 27.46412 ], [ 74.43663, 27.46541 ], [ 74.42379, 27.46127 ], [ 74.42312, 27.46224 ], [ 74.41846, 27.45951 ], [ 74.41763, 27.46008 ], [ 74.41534, 27.45937 ], [ 74.41504, 27.45998 ], [ 74.4095, 27.45828 ], [ 74.40328, 27.45768 ], [ 74.39213, 27.45371 ], [ 74.39175, 27.45225 ], [ 74.38616, 27.45149 ], [ 74.37493, 27.44605 ], [ 74.37802, 27.43636 ], [ 74.38092, 27.43106 ], [ 74.37988, 27.4291 ], [ 74.3802, 27.42243 ], [ 74.37904, 27.42176 ], [ 74.3795, 27.42027 ], [ 74.38223, 27.42043 ], [ 74.38679, 27.42229 ], [ 74.38847, 27.42004 ], [ 74.39355, 27.42095 ], [ 74.39912, 27.42075 ], [ 74.39946, 27.41985 ], [ 74.40205, 27.42052 ], [ 74.40295, 27.41722 ], [ 74.40339, 27.41642 ], [ 74.40412, 27.4167 ], [ 74.40482, 27.41421 ], [ 74.4066, 27.41484 ], [ 74.4077, 27.41279 ], [ 74.41201, 27.41359 ], [ 74.41907, 27.39716 ], [ 74.41271, 27.39122 ], [ 74.40466, 27.38626 ], [ 74.40337, 27.38405 ], [ 74.40151, 27.38307 ], [ 74.39987, 27.37981 ], [ 74.39403, 27.37484 ], [ 74.39421, 27.37231 ], [ 74.37807, 27.37049 ], [ 74.37245, 27.36818 ], [ 74.36654, 27.36397 ], [ 74.35558, 27.36157 ], [ 74.35595, 27.36066 ], [ 74.34281, 27.35123 ], [ 74.33069, 27.34433 ], [ 74.33852, 27.33207 ], [ 74.34592, 27.33397 ], [ 74.34636, 27.32511 ], [ 74.34759, 27.32 ], [ 74.35229, 27.32064 ], [ 74.36231, 27.32375 ], [ 74.36321, 27.32221 ], [ 74.36514, 27.3222 ], [ 74.36557, 27.31484 ], [ 74.36454, 27.31282 ], [ 74.36446, 27.31005 ], [ 74.35815, 27.30854 ], [ 74.33557, 27.29857 ], [ 74.33611, 27.29711 ], [ 74.33232, 27.29543 ], [ 74.32234, 27.29381 ], [ 74.32552, 27.27762 ], [ 74.32107, 27.27541 ], [ 74.32043, 27.27681 ], [ 74.31678, 27.27642 ], [ 74.31631, 27.27778 ], [ 74.31496, 27.27728 ], [ 74.3123, 27.27805 ], [ 74.3111, 27.27881 ], [ 74.31031, 27.28198 ], [ 74.30618, 27.2838 ], [ 74.30323, 27.28208 ], [ 74.29855, 27.28086 ], [ 74.2975, 27.28358 ], [ 74.29591, 27.28319 ], [ 74.29275, 27.29138 ], [ 74.29197, 27.29645 ], [ 74.29271, 27.29679 ], [ 74.29066, 27.30566 ], [ 74.28502, 27.30566 ], [ 74.28499, 27.307 ], [ 74.27772, 27.30786 ], [ 74.26973, 27.30769 ], [ 74.26754, 27.31118 ], [ 74.26703, 27.31373 ], [ 74.26583, 27.31364 ], [ 74.26173, 27.32186 ], [ 74.26204, 27.32496 ], [ 74.23679, 27.32073 ], [ 74.23454, 27.31972 ], [ 74.23061, 27.32436 ], [ 74.22216, 27.32589 ], [ 74.21972, 27.32663 ], [ 74.2198, 27.32731 ], [ 74.21185, 27.32916 ], [ 74.2108, 27.3369 ], [ 74.21155, 27.33717 ], [ 74.21457, 27.34378 ], [ 74.21551, 27.34925 ], [ 74.21522, 27.3519 ], [ 74.21782, 27.35203 ], [ 74.22097, 27.35873 ], [ 74.22294, 27.3602 ], [ 74.22299, 27.36183 ], [ 74.22526, 27.36422 ], [ 74.21872, 27.38144 ], [ 74.21247, 27.39472 ], [ 74.21106, 27.40052 ], [ 74.20796, 27.40049 ], [ 74.20731, 27.40118 ], [ 74.20523, 27.40066 ], [ 74.20645, 27.40543 ], [ 74.21134, 27.40707 ], [ 74.21089, 27.40517 ], [ 74.21429, 27.40584 ], [ 74.22942, 27.41122 ], [ 74.23655, 27.4154 ], [ 74.23686, 27.4149 ], [ 74.24452, 27.41695 ], [ 74.2465, 27.41658 ], [ 74.24704, 27.41826 ], [ 74.25899, 27.42541 ], [ 74.26453, 27.42803 ], [ 74.26546, 27.42699 ], [ 74.27123, 27.42864 ], [ 74.26984, 27.43265 ], [ 74.26909, 27.43399 ], [ 74.26827, 27.43363 ], [ 74.2656, 27.43922 ], [ 74.26445, 27.43884 ], [ 74.26398, 27.4395 ], [ 74.25455, 27.45908 ], [ 74.25259, 27.46162 ], [ 74.24784, 27.47336 ], [ 74.24208, 27.47123 ], [ 74.24156, 27.47171 ], [ 74.23174, 27.46935 ], [ 74.23149, 27.47001 ], [ 74.22843, 27.46989 ], [ 74.21979, 27.46608 ], [ 74.21641, 27.46558 ], [ 74.21493, 27.46789 ], [ 74.21151, 27.46723 ], [ 74.21133, 27.46816 ], [ 74.20986, 27.46836 ], [ 74.20896, 27.47107 ], [ 74.2067, 27.47011 ], [ 74.20445, 27.47248 ], [ 74.20356, 27.4723 ], [ 74.20349, 27.47445 ], [ 74.20158, 27.47739 ], [ 74.19961, 27.47702 ], [ 74.19736, 27.47781 ], [ 74.19557, 27.47693 ], [ 74.19431, 27.47974 ], [ 74.19254, 27.47935 ], [ 74.1914, 27.48142 ], [ 74.19389, 27.48273 ], [ 74.19234, 27.48619 ], [ 74.19341, 27.48673 ], [ 74.19297, 27.48793 ], [ 74.19707, 27.49034 ], [ 74.1962, 27.49414 ], [ 74.19697, 27.49441 ], [ 74.19703, 27.49566 ], [ 74.19596, 27.4985 ], [ 74.2037, 27.5034 ], [ 74.20724, 27.50714 ], [ 74.2077, 27.5066 ], [ 74.20898, 27.50715 ], [ 74.21437, 27.51056 ], [ 74.21497, 27.51218 ], [ 74.21672, 27.51311 ], [ 74.21609, 27.5136 ], [ 74.21876, 27.51485 ], [ 74.21899, 27.516 ], [ 74.22545, 27.51793 ], [ 74.22538, 27.51991 ], [ 74.22696, 27.52029 ], [ 74.22679, 27.52222 ], [ 74.22948, 27.52244 ], [ 74.23001, 27.52368 ], [ 74.23321, 27.52468 ], [ 74.23491, 27.52398 ], [ 74.23706, 27.52431 ], [ 74.23846, 27.52564 ], [ 74.23735, 27.52951 ], [ 74.23644, 27.52923 ], [ 74.23601, 27.53088 ], [ 74.23919, 27.53335 ], [ 74.23768, 27.5378 ], [ 74.24056, 27.54082 ], [ 74.24091, 27.54575 ], [ 74.24495, 27.54712 ], [ 74.2429, 27.55345 ], [ 74.24355, 27.55406 ], [ 74.24335, 27.55584 ], [ 74.24807, 27.55727 ], [ 74.24781, 27.55792 ], [ 74.25352, 27.56104 ], [ 74.25303, 27.56213 ], [ 74.25668, 27.56313 ], [ 74.2556, 27.56831 ], [ 74.25644, 27.56986 ], [ 74.25464, 27.5744 ], [ 74.25804, 27.5763 ], [ 74.2562, 27.57987 ], [ 74.25507, 27.59375 ], [ 74.25561, 27.59424 ], [ 74.25456, 27.59811 ], [ 74.25535, 27.59838 ], [ 74.25465, 27.60101 ], [ 74.25783, 27.60168 ], [ 74.25738, 27.60268 ], [ 74.26272, 27.60475 ], [ 74.26883, 27.60891 ], [ 74.26803, 27.61033 ], [ 74.27519, 27.61364 ], [ 74.27468, 27.61664 ], [ 74.27598, 27.61996 ], [ 74.27573, 27.62182 ], [ 74.27895, 27.6232 ], [ 74.27866, 27.62528 ], [ 74.28835, 27.63006 ], [ 74.30044, 27.6327 ], [ 74.31239, 27.6369 ], [ 74.3092, 27.64523 ], [ 74.31095, 27.64643 ], [ 74.31024, 27.6491 ], [ 74.31919, 27.6518 ], [ 74.33442, 27.66118 ], [ 74.33432, 27.66878 ], [ 74.33313, 27.67353 ], [ 74.33667, 27.67501 ], [ 74.33745, 27.67449 ], [ 74.34312, 27.67794 ], [ 74.34197, 27.68112 ], [ 74.3539, 27.68569 ], [ 74.35405, 27.68516 ], [ 74.35615, 27.68541 ], [ 74.35673, 27.68411 ], [ 74.3648, 27.68464 ], [ 74.36607, 27.68339 ], [ 74.36694, 27.68365 ], [ 74.36735, 27.68243 ], [ 74.37127, 27.68373 ], [ 74.37239, 27.68296 ], [ 74.39001, 27.69268 ], [ 74.39001, 27.69428 ], [ 74.39526, 27.6968 ], [ 74.39489, 27.69767 ], [ 74.40386, 27.70013 ], [ 74.4081, 27.69166 ], [ 74.40876, 27.69184 ], [ 74.40954, 27.68914 ], [ 74.41487, 27.69041 ], [ 74.41501, 27.6897 ], [ 74.42143, 27.6897 ], [ 74.43377, 27.69219 ], [ 74.43961, 27.69166 ], [ 74.44259, 27.69296 ], [ 74.45068, 27.69417 ], [ 74.45091, 27.69336 ], [ 74.45367, 27.6935 ], [ 74.45641, 27.68673 ], [ 74.46157, 27.68615 ], [ 74.46273, 27.68158 ], [ 74.46598, 27.68216 ], [ 74.47535, 27.68608 ], [ 74.4914, 27.68787 ], [ 74.49425, 27.67905 ], [ 74.49366, 27.67081 ], [ 74.49451, 27.66671 ], [ 74.5133, 27.67218 ], [ 74.51359, 27.67166 ], [ 74.51577, 27.67225 ], [ 74.52641, 27.6759 ], [ 74.53873, 27.66355 ], [ 74.5438, 27.66518 ], [ 74.54509, 27.66377 ], [ 74.55094, 27.66539 ], [ 74.5513, 27.6647 ], [ 74.55513, 27.66521 ], [ 74.55853, 27.66671 ], [ 74.56034, 27.66808 ], [ 74.55966, 27.66944 ], [ 74.56202, 27.67037 ], [ 74.56234, 27.66989 ], [ 74.56785, 27.67339 ], [ 74.57864, 27.68456 ], [ 74.58412, 27.69151 ], [ 74.58474, 27.69103 ], [ 74.59044, 27.6942 ], [ 74.59059, 27.69546 ], [ 74.59798, 27.70243 ], [ 74.60783, 27.70683 ], [ 74.60876, 27.70486 ], [ 74.61049, 27.70571 ], [ 74.61149, 27.70294 ], [ 74.61235, 27.70336 ], [ 74.61511, 27.69892 ], [ 74.61661, 27.69921 ], [ 74.61715, 27.69757 ], [ 74.61867, 27.6973 ], [ 74.61894, 27.6961 ], [ 74.62374, 27.69827 ], [ 74.62636, 27.69517 ], [ 74.62651, 27.69432 ], [ 74.62568, 27.69432 ], [ 74.62606, 27.69328 ], [ 74.62179, 27.69013 ], [ 74.6225, 27.6883 ], [ 74.61394, 27.68392 ], [ 74.61412, 27.68329 ], [ 74.61088, 27.68218 ], [ 74.61118, 27.68162 ], [ 74.60979, 27.68049 ], [ 74.60524, 27.67807 ], [ 74.60704, 27.67476 ], [ 74.60786, 27.67508 ], [ 74.61053, 27.67164 ], [ 74.61131, 27.67201 ], [ 74.61234, 27.66919 ], [ 74.6118, 27.66901 ], [ 74.61241, 27.66574 ], [ 74.61405, 27.66303 ], [ 74.61612, 27.66139 ], [ 74.6172, 27.65854 ], [ 74.6203, 27.6598 ], [ 74.62364, 27.65391 ], [ 74.62459, 27.65413 ], [ 74.6253, 27.65302 ], [ 74.6273, 27.64851 ], [ 74.63325, 27.65147 ], [ 74.63712, 27.65239 ], [ 74.63788, 27.65333 ], [ 74.6412, 27.65385 ], [ 74.64149, 27.65275 ], [ 74.64375, 27.65337 ], [ 74.65939, 27.65974 ], [ 74.6646, 27.66077 ], [ 74.66446, 27.66246 ], [ 74.66763, 27.66304 ], [ 74.66807, 27.66413 ], [ 74.67196, 27.66528 ], [ 74.67236, 27.66795 ], [ 74.67422, 27.66872 ], [ 74.67532, 27.66636 ], [ 74.68159, 27.6685 ] ] ] } },
{ "type": "Feature", "properties": { "OBJECTID": 3383, "state_lgd": "08", "state_name": "RAJASTHAN", "district_lgd": "787", "district_name": "DIDWANA-KUCHAMAN", "district_name_source": "district_table", "subdistrict_lgd": "00565", "subdistrict_name": "Makrana", "subdistrict_type": "", "name_corrupted": false, "remarks": "", "label_lon": 74.572517453994791, "label_lat": 27.05180913657906 }, "geometry": { "type": "Polygon", "coordinates": [ [ [ 74.68735, 27.26336 ], [ 74.68913, 27.26256 ], [ 74.69332, 27.26338 ], [ 74.69395, 27.26076 ], [ 74.70369, 27.26283 ], [ 74.70448, 27.25871 ], [ 74.70659, 27.25911 ], [ 74.71116, 27.25085 ], [ 74.71244, 27.24501 ], [ 74.71063, 27.24441 ], [ 74.71041, 27.2423 ], [ 74.70908, 27.24213 ], [ 74.71071, 27.23666 ], [ 74.70546, 27.23401 ], [ 74.70162, 27.2299 ], [ 74.69938, 27.22865 ], [ 74.70283, 27.22271 ], [ 74.7045, 27.22303 ], [ 74.70789, 27.21712 ], [ 74.70961, 27.21693 ], [ 74.71256, 27.20976 ], [ 74.71258, 27.2063 ], [ 74.71363, 27.203 ], [ 74.71608, 27.19843 ], [ 74.71643, 27.19492 ], [ 74.71798, 27.19505 ], [ 74.72028, 27.1917 ], [ 74.72279, 27.18443 ], [ 74.74508, 27.19153 ], [ 74.74712, 27.18497 ], [ 74.74923, 27.18189 ], [ 74.75012, 27.17783 ], [ 74.75184, 27.17444 ], [ 74.75291, 27.1677 ], [ 74.75639, 27.15835 ], [ 74.76891, 27.15963 ], [ 74.77381, 27.16201 ], [ 74.77648, 27.16077 ], [ 74.78071, 27.16111 ], [ 74.78469, 27.16036 ], [ 74.78935, 27.16115 ], [ 74.79614, 27.16104 ], [ 74.79643, 27.16023 ], [ 74.79711, 27.1575 ], [ 74.79647, 27.15722 ], [ 74.7977, 27.15345 ], [ 74.7977, 27.15257 ], [ 74.79664, 27.15204 ], [ 74.79679, 27.1488 ], [ 74.79573, 27.14831 ], [ 74.79532, 27.14524 ], [ 74.79418, 27.14518 ], [ 74.79372, 27.14427 ], [ 74.79352, 27.13937 ], [ 74.79049, 27.13815 ], [ 74.79063, 27.13666 ], [ 74.78904, 27.13568 ], [ 74.79022, 27.12968 ], [ 74.79125, 27.12982 ], [ 74.79187, 27.12307 ], [ 74.79339, 27.11843 ], [ 74.79434, 27.11127 ], [ 74.79372, 27.11102 ], [ 74.79418, 27.10833 ], [ 74.79338, 27.10676 ], [ 74.79624, 27.10286 ], [ 74.79799, 27.10195 ], [ 74.79703, 27.10057 ], [ 74.81041, 27.09857 ], [ 74.81687, 27.09677 ], [ 74.80805, 27.06943 ], [ 74.79785, 27.06969 ], [ 74.79671, 27.06745 ], [ 74.78798, 27.06307 ], [ 74.78782, 27.06218 ], [ 74.78674, 27.06184 ], [ 74.78685, 27.06077 ], [ 74.78135, 27.05746 ], [ 74.78185, 27.05495 ], [ 74.7828, 27.05516 ], [ 74.7829, 27.05415 ], [ 74.78401, 27.05434 ], [ 74.78428, 27.05351 ], [ 74.77921, 27.05067 ], [ 74.77985, 27.04921 ], [ 74.7765, 27.04627 ], [ 74.77652, 27.03891 ], [ 74.77563, 27.03802 ], [ 74.77575, 27.03619 ], [ 74.77458, 27.03492 ], [ 74.77305, 27.0297 ], [ 74.77439, 27.02765 ], [ 74.77915, 27.02632 ], [ 74.77918, 27.01997 ], [ 74.77752, 27.01933 ], [ 74.7779, 27.00661 ], [ 74.77332, 27.00565 ], [ 74.77285, 27.00481 ], [ 74.76032, 27.00027 ], [ 74.75736, 27.00168 ], [ 74.75479, 27.00447 ], [ 74.75146, 27.00442 ], [ 74.74915, 27.00618 ], [ 74.7443, 27.01097 ], [ 74.74263, 27.01521 ], [ 74.73849, 27.0146 ], [ 74.73583, 27.01394 ], [ 74.73568, 27.00851 ], [ 74.73468, 27.00812 ], [ 74.73575, 27.00419 ], [ 74.73601, 26.9934 ], [ 74.73405, 26.99424 ], [ 74.7328, 26.99626 ], [ 74.72849, 26.99916 ], [ 74.72646, 26.99912 ], [ 74.72378, 27.00051 ], [ 74.72324, 27.00232 ], [ 74.70331, 27.00215 ], [ 74.69832, 27.00132 ], [ 74.69074, 26.98748 ], [ 74.68712, 26.98325 ], [ 74.67279, 26.98166 ], [ 74.67267, 26.98228 ], [ 74.66773, 26.98254 ], [ 74.66706, 26.98532 ], [ 74.66255, 26.9849 ], [ 74.66255, 26.97849 ], [ 74.66185, 26.97833 ], [ 74.66323, 26.97344 ], [ 74.66396, 26.97377 ], [ 74.67036, 26.9694 ], [ 74.67206, 26.9698 ], [ 74.67254, 26.96799 ], [ 74.67445, 26.96663 ], [ 74.67531, 26.96687 ], [ 74.67926, 26.96351 ], [ 74.68126, 26.96356 ], [ 74.6831, 26.96099 ], [ 74.68491, 26.96117 ], [ 74.68571, 26.95912 ], [ 74.6873, 26.96003 ], [ 74.68852, 26.95487 ], [ 74.69082, 26.95471 ], [ 74.69137, 26.95365 ], [ 74.6903, 26.94875 ], [ 74.69387, 26.94929 ], [ 74.69512, 26.94395 ], [ 74.6983, 26.94473 ], [ 74.69991, 26.94261 ], [ 74.6964, 26.94066 ], [ 74.69617, 26.94143 ], [ 74.69539, 26.94107 ], [ 74.69412, 26.9392 ], [ 74.69458, 26.93853 ], [ 74.69364, 26.93593 ], [ 74.69224, 26.93442 ], [ 74.6912, 26.93579 ], [ 74.68877, 26.9349 ], [ 74.67064, 26.92576 ], [ 74.6692, 26.92272 ], [ 74.67082, 26.92056 ], [ 74.66648, 26.9196 ], [ 74.66285, 26.91773 ], [ 74.66248, 26.91883 ], [ 74.65094, 26.91859 ], [ 74.65011, 26.9194 ], [ 74.64777, 26.91945 ], [ 74.64786, 26.91865 ], [ 74.64687, 26.91825 ], [ 74.64718, 26.91695 ], [ 74.64648, 26.91679 ], [ 74.64724, 26.91357 ], [ 74.64037, 26.91134 ], [ 74.63493, 26.91076 ], [ 74.63425, 26.91368 ], [ 74.62695, 26.91212 ], [ 74.62611, 26.91416 ], [ 74.62276, 26.91403 ], [ 74.62197, 26.91641 ], [ 74.61992, 26.91825 ], [ 74.61827, 26.92238 ], [ 74.61437, 26.92043 ], [ 74.61209, 26.93172 ], [ 74.61113, 26.93158 ], [ 74.611, 26.93294 ], [ 74.60549, 26.932 ], [ 74.60581, 26.93331 ], [ 74.60118, 26.93225 ], [ 74.60048, 26.93497 ], [ 74.5959, 26.93378 ], [ 74.59518, 26.9372 ], [ 74.5873, 26.93297 ], [ 74.58012, 26.93034 ], [ 74.57638, 26.92738 ], [ 74.5765, 26.9266 ], [ 74.57342, 26.9251 ], [ 74.56839, 26.92307 ], [ 74.56498, 26.92266 ], [ 74.56337, 26.9313 ], [ 74.56085, 26.93527 ], [ 74.55936, 26.93478 ], [ 74.55702, 26.94358 ], [ 74.55241, 26.94198 ], [ 74.5469, 26.9383 ], [ 74.54238, 26.93746 ], [ 74.54109, 26.93901 ], [ 74.53289, 26.93595 ], [ 74.52809, 26.93222 ], [ 74.50985, 26.9252 ], [ 74.51125, 26.92203 ], [ 74.50528, 26.91708 ], [ 74.50808, 26.91383 ], [ 74.5024, 26.91143 ], [ 74.50459, 26.90626 ], [ 74.50387, 26.90559 ], [ 74.50016, 26.90428 ], [ 74.50052, 26.90258 ], [ 74.49843, 26.90193 ], [ 74.48373, 26.89987 ], [ 74.48322, 26.89739 ], [ 74.47314, 26.89244 ], [ 74.47362, 26.89013 ], [ 74.47274, 26.88977 ], [ 74.47352, 26.88825 ], [ 74.47296, 26.88648 ], [ 74.46345, 26.883 ], [ 74.46416, 26.87772 ], [ 74.46183, 26.87676 ], [ 74.46184, 26.87428 ], [ 74.45898, 26.87311 ], [ 74.45983, 26.86992 ], [ 74.45863, 26.86931 ], [ 74.46035, 26.86507 ], [ 74.45783, 26.86426 ], [ 74.45818, 26.86305 ], [ 74.45508, 26.86201 ], [ 74.45514, 26.86084 ], [ 74.45266, 26.85917 ], [ 74.44932, 26.85788 ], [ 74.44951, 26.85713 ], [ 74.44856, 26.85673 ], [ 74.45067, 26.85006 ], [ 74.44885, 26.84856 ], [ 74.44557, 26.84815 ], [ 74.44535, 26.84943 ], [ 74.44343, 26.85031 ], [ 74.44262, 26.85223 ], [ 74.44014, 26.85142 ], [ 74.44053, 26.85271 ], [ 74.43782, 26.85253 ], [ 74.4376, 26.85059 ], [ 74.43589, 26.84954 ], [ 74.4295, 26.84793 ], [ 74.42566, 26.84759 ], [ 74.41859, 26.84978 ], [ 74.41185, 26.84973 ], [ 74.4039, 26.85325 ], [ 74.40082, 26.85933 ], [ 74.3994, 26.85839 ], [ 74.39988, 26.85757 ], [ 74.39691, 26.85637 ], [ 74.39532, 26.85716 ], [ 74.39191, 26.85619 ], [ 74.39047, 26.85923 ], [ 74.3916, 26.85977 ], [ 74.39114, 26.86089 ], [ 74.39526, 26.865 ], [ 74.39613, 26.86834 ], [ 74.40369, 26.87466 ], [ 74.4034, 26.87544 ], [ 74.40467, 26.87689 ], [ 74.40693, 26.87786 ], [ 74.40569, 26.8799 ], [ 74.40635, 26.8803 ], [ 74.40517, 26.88271 ], [ 74.40425, 26.88241 ], [ 74.4038, 26.88372 ], [ 74.40189, 26.88324 ], [ 74.40207, 26.88437 ], [ 74.39891, 26.88681 ], [ 74.39794, 26.88864 ], [ 74.39698, 26.88847 ], [ 74.39654, 26.88991 ], [ 74.39566, 26.88978 ], [ 74.38747, 26.896 ], [ 74.38817, 26.89662 ], [ 74.38687, 26.89856 ], [ 74.3832, 26.89763 ], [ 74.38245, 26.89961 ], [ 74.38067, 26.89899 ], [ 74.37873, 26.9017 ], [ 74.37788, 26.90335 ], [ 74.37855, 26.90359 ], [ 74.37834, 26.90561 ], [ 74.37756, 26.90555 ], [ 74.37494, 26.90916 ], [ 74.37572, 26.90948 ], [ 74.37444, 26.91158 ], [ 74.37499, 26.91165 ], [ 74.37475, 26.91319 ], [ 74.37588, 26.91289 ], [ 74.37675, 26.91382 ], [ 74.37686, 26.92087 ], [ 74.37842, 26.92404 ], [ 74.37592, 26.92629 ], [ 74.37495, 26.93057 ], [ 74.37591, 26.93091 ], [ 74.3725, 26.94068 ], [ 74.37195, 26.94521 ], [ 74.36559, 26.95802 ], [ 74.36276, 26.96217 ], [ 74.36359, 26.96416 ], [ 74.36173, 26.96622 ], [ 74.36082, 26.96945 ], [ 74.35892, 26.97146 ], [ 74.35705, 26.97186 ], [ 74.35264, 26.98347 ], [ 74.3565, 26.98661 ], [ 74.36109, 26.98904 ], [ 74.36102, 26.99 ], [ 74.3674, 26.99344 ], [ 74.36211, 27.0037 ], [ 74.36153, 27.01357 ], [ 74.35661, 27.02453 ], [ 74.35412, 27.03286 ], [ 74.35595, 27.03351 ], [ 74.35466, 27.03496 ], [ 74.3626, 27.03788 ], [ 74.36401, 27.03919 ], [ 74.36351, 27.04056 ], [ 74.36462, 27.04115 ], [ 74.36343, 27.04496 ], [ 74.3642, 27.04533 ], [ 74.36324, 27.05209 ], [ 74.36405, 27.05221 ], [ 74.36397, 27.05343 ], [ 74.36519, 27.05384 ], [ 74.36468, 27.05567 ], [ 74.36296, 27.05504 ], [ 74.36189, 27.0571 ], [ 74.36087, 27.05674 ], [ 74.3575, 27.06655 ], [ 74.3566, 27.06637 ], [ 74.35543, 27.06831 ], [ 74.35609, 27.06937 ], [ 74.35562, 27.0712 ], [ 74.35698, 27.07177 ], [ 74.3566, 27.07378 ], [ 74.36311, 27.07592 ], [ 74.36976, 27.07973 ], [ 74.37105, 27.07711 ], [ 74.37204, 27.07729 ], [ 74.37316, 27.07546 ], [ 74.37407, 27.07571 ], [ 74.37482, 27.07384 ], [ 74.38451, 27.07779 ], [ 74.38465, 27.07886 ], [ 74.38697, 27.08048 ], [ 74.39263, 27.0821 ], [ 74.39364, 27.08975 ], [ 74.39284, 27.08954 ], [ 74.39203, 27.09184 ], [ 74.39279, 27.09214 ], [ 74.39244, 27.0932 ], [ 74.39064, 27.09718 ], [ 74.38972, 27.09737 ], [ 74.38856, 27.10333 ], [ 74.38536, 27.11206 ], [ 74.39336, 27.11337 ], [ 74.39444, 27.11089 ], [ 74.39659, 27.11179 ], [ 74.40009, 27.10513 ], [ 74.40081, 27.10534 ], [ 74.40164, 27.10355 ], [ 74.40286, 27.10311 ], [ 74.41296, 27.10746 ], [ 74.39929, 27.12144 ], [ 74.39504, 27.12174 ], [ 74.39092, 27.12412 ], [ 74.38991, 27.1264 ], [ 74.39105, 27.12907 ], [ 74.39279, 27.13013 ], [ 74.39213, 27.13168 ], [ 74.41023, 27.14309 ], [ 74.41016, 27.14436 ], [ 74.41243, 27.14521 ], [ 74.41267, 27.14434 ], [ 74.41488, 27.14482 ], [ 74.4161, 27.1428 ], [ 74.41718, 27.14296 ], [ 74.41965, 27.13818 ], [ 74.42201, 27.139 ], [ 74.42971, 27.12794 ], [ 74.43065, 27.12813 ], [ 74.4417, 27.13457 ], [ 74.4414, 27.13837 ], [ 74.44859, 27.14276 ], [ 74.45613, 27.14619 ], [ 74.45768, 27.14457 ], [ 74.46071, 27.14557 ], [ 74.4615, 27.14441 ], [ 74.4632, 27.14488 ], [ 74.46349, 27.14418 ], [ 74.46462, 27.14467 ], [ 74.46534, 27.14368 ], [ 74.46622, 27.14385 ], [ 74.47103, 27.13761 ], [ 74.47425, 27.13791 ], [ 74.47468, 27.13732 ], [ 74.47721, 27.1384 ], [ 74.4807, 27.13496 ], [ 74.4814, 27.13317 ], [ 74.48491, 27.13454 ], [ 74.48422, 27.13779 ], [ 74.48681, 27.13838 ], [ 74.48886, 27.14007 ], [ 74.49094, 27.14193 ], [ 74.49021, 27.14389 ], [ 74.49473, 27.14614 ], [ 74.49446, 27.14766 ], [ 74.49613, 27.14837 ], [ 74.49794, 27.14681 ], [ 74.50147, 27.14545 ], [ 74.50524, 27.1472 ], [ 74.50953, 27.14724 ], [ 74.52541, 27.15299 ], [ 74.52619, 27.15316 ], [ 74.52744, 27.15161 ], [ 74.53013, 27.15189 ], [ 74.5292, 27.15785 ], [ 74.53375, 27.15885 ], [ 74.5334, 27.16032 ], [ 74.53889, 27.16172 ], [ 74.53914, 27.16087 ], [ 74.54163, 27.16162 ], [ 74.55115, 27.16631 ], [ 74.56696, 27.16847 ], [ 74.56707, 27.16974 ], [ 74.56777, 27.16975 ], [ 74.56767, 27.17175 ], [ 74.56687, 27.17212 ], [ 74.56704, 27.17617 ], [ 74.56525, 27.18013 ], [ 74.57506, 27.18494 ], [ 74.5805, 27.18579 ], [ 74.58357, 27.18715 ], [ 74.58284, 27.19155 ], [ 74.58403, 27.19162 ], [ 74.58348, 27.19811 ], [ 74.58668, 27.20106 ], [ 74.60743, 27.20674 ], [ 74.6073, 27.20795 ], [ 74.61153, 27.21014 ], [ 74.61109, 27.21157 ], [ 74.61264, 27.21224 ], [ 74.61227, 27.21444 ], [ 74.61336, 27.21516 ], [ 74.62002, 27.21717 ], [ 74.62057, 27.21619 ], [ 74.62423, 27.21695 ], [ 74.62536, 27.21516 ], [ 74.63585, 27.21895 ], [ 74.64066, 27.22008 ], [ 74.64111, 27.21906 ], [ 74.64567, 27.22013 ], [ 74.64785, 27.22108 ], [ 74.64727, 27.22396 ], [ 74.65462, 27.2274 ], [ 74.65963, 27.22808 ], [ 74.67104, 27.23385 ], [ 74.66857, 27.23666 ], [ 74.66696, 27.24149 ], [ 74.66382, 27.25625 ], [ 74.67312, 27.26009 ], [ 74.6815, 27.26256 ], [ 74.68735, 27.26336 ] ] ] } },
{ "type": "Feature", "properties": { "OBJECTID": 3384, "state_lgd": "08", "state_name": "RAJASTHAN", "district_lgd": "787", "district_name": "DIDWANA-KUCHAMAN", "district_name_source": "district_table", "subdistrict_lgd": "00558N001", "subdistrict_name": "Molasar", "subdistrict_type": "", "name_corrupted": false, "remarks": "", "label_lon": 74.743241784486813, "label_lat": 27.325719361123909 }, "geometry": { "type": "Polygon", "coordinates": [ [ [ 74.85148, 27.45316 ], [ 74.8538, 27.4532 ], [ 74.85515, 27.44962 ], [ 74.85913, 27.45044 ], [ 74.85955, 27.44676 ], [ 74.86446, 27.43059 ], [ 74.86908, 27.42155 ], [ 74.86961, 27.42167 ], [ 74.87126, 27.41551 ], [ 74.87253, 27.41539 ], [ 74.87313, 27.41137 ], [ 74.86896, 27.4098 ], [ 74.86936, 27.40792 ], [ 74.8655, 27.40646 ], [ 74.8657, 27.4056 ], [ 74.85902, 27.40174 ], [ 74.85957, 27.40013 ], [ 74.85732, 27.39922 ], [ 74.85755, 27.398 ], [ 74.85583, 27.39726 ], [ 74.85571, 27.39498 ], [ 74.85187, 27.393 ], [ 74.85198, 27.39212 ], [ 74.85107, 27.39178 ], [ 74.85126, 27.38981 ], [ 74.84768, 27.38808 ], [ 74.84719, 27.38544 ], [ 74.84592, 27.38518 ], [ 74.84606, 27.37914 ], [ 74.84668, 27.3769 ], [ 74.85043, 27.37783 ], [ 74.85129, 27.37592 ], [ 74.85463, 27.37638 ], [ 74.85667, 27.37266 ], [ 74.85976, 27.37254 ], [ 74.8603, 27.37044 ], [ 74.86568, 27.37013 ], [ 74.87202, 27.37321 ], [ 74.87417, 27.37227 ], [ 74.87464, 27.36941 ], [ 74.8735, 27.36906 ], [ 74.87443, 27.36705 ], [ 74.87556, 27.36704 ], [ 74.87665, 27.35512 ], [ 74.88001, 27.34546 ], [ 74.87617, 27.344 ], [ 74.87637, 27.34193 ], [ 74.86905, 27.33909 ], [ 74.86816, 27.33789 ], [ 74.86625, 27.33726 ], [ 74.86625, 27.33621 ], [ 74.86998, 27.32915 ], [ 74.87206, 27.32717 ], [ 74.87392, 27.32693 ], [ 74.87532, 27.32467 ], [ 74.87944, 27.31007 ], [ 74.8721, 27.30806 ], [ 74.87271, 27.30529 ], [ 74.86271, 27.3022 ], [ 74.86371, 27.30078 ], [ 74.8614, 27.29857 ], [ 74.85981, 27.29494 ], [ 74.85325, 27.2898 ], [ 74.8532, 27.28828 ], [ 74.85177, 27.28796 ], [ 74.85097, 27.28428 ], [ 74.85185, 27.28246 ], [ 74.8543, 27.26521 ], [ 74.83508, 27.25797 ], [ 74.83163, 27.25444 ], [ 74.82333, 27.25025 ], [ 74.82488, 27.24718 ], [ 74.82443, 27.24272 ], [ 74.82499, 27.23918 ], [ 74.81709, 27.23747 ], [ 74.81375, 27.23763 ], [ 74.81312, 27.23634 ], [ 74.80792, 27.23463 ], [ 74.80712, 27.23348 ], [ 74.80199, 27.2327 ], [ 74.80111, 27.23057 ], [ 74.79308, 27.22707 ], [ 74.7813, 27.22509 ], [ 74.7755, 27.22293 ], [ 74.77247, 27.22344 ], [ 74.76386, 27.22205 ], [ 74.75863, 27.2202 ], [ 74.75731, 27.21255 ], [ 74.75498, 27.20869 ], [ 74.75647, 27.20123 ], [ 74.75415, 27.19579 ], [ 74.74782, 27.19349 ], [ 74.7445, 27.1913 ], [ 74.72279, 27.18443 ], [ 74.72028, 27.1917 ], [ 74.71798, 27.19505 ], [ 74.71643, 27.19492 ], [ 74.71608, 27.19843 ], [ 74.71363, 27.203 ], [ 74.71258, 27.2063 ], [ 74.71256, 27.20976 ], [ 74.70961, 27.21693 ], [ 74.70789, 27.21712 ], [ 74.7045, 27.22303 ], [ 74.70283, 27.22271 ], [ 74.69938, 27.22865 ], [ 74.70162, 27.2299 ], [ 74.70546, 27.23401 ], [ 74.71071, 27.23666 ], [ 74.70908, 27.24213 ], [ 74.71041, 27.2423 ], [ 74.71063, 27.24441 ], [ 74.71244, 27.24501 ], [ 74.71116, 27.25085 ], [ 74.70659, 27.25911 ], [ 74.70448, 27.25871 ], [ 74.70369, 27.26283 ], [ 74.69395, 27.26076 ], [ 74.69332, 27.26338 ], [ 74.68913, 27.26256 ], [ 74.68721, 27.26337 ], [ 74.68228, 27.26271 ], [ 74.67192, 27.2597 ], [ 74.66382, 27.25625 ], [ 74.66696, 27.24149 ], [ 74.66857, 27.23666 ], [ 74.67104, 27.23385 ], [ 74.65963, 27.22808 ], [ 74.65462, 27.2274 ], [ 74.64727, 27.22396 ], [ 74.64785, 27.22108 ], [ 74.64567, 27.22013 ], [ 74.64111, 27.21906 ], [ 74.64066, 27.22008 ], [ 74.63585, 27.21895 ], [ 74.62536, 27.21516 ], [ 74.62423, 27.21695 ], [ 74.62057, 27.21619 ], [ 74.62002, 27.21717 ], [ 74.61172, 27.21436 ], [ 74.60973, 27.21953 ], [ 74.60767, 27.22163 ], [ 74.60834, 27.2229 ], [ 74.60794, 27.22376 ], [ 74.60683, 27.22352 ], [ 74.60488, 27.22813 ], [ 74.59891, 27.22587 ], [ 74.59896, 27.22514 ], [ 74.59655, 27.22434 ], [ 74.59661, 27.22372 ], [ 74.59355, 27.22296 ], [ 74.59157, 27.22353 ], [ 74.58591, 27.21995 ], [ 74.5855, 27.22137 ], [ 74.58321, 27.22332 ], [ 74.58148, 27.22144 ], [ 74.58046, 27.22294 ], [ 74.57754, 27.22274 ], [ 74.57717, 27.22351 ], [ 74.56936, 27.2217 ], [ 74.56814, 27.22496 ], [ 74.56722, 27.22472 ], [ 74.56493, 27.2394 ], [ 74.57883, 27.24408 ], [ 74.58398, 27.24681 ], [ 74.58557, 27.24856 ], [ 74.58431, 27.24964 ], [ 74.58721, 27.25156 ], [ 74.58699, 27.25293 ], [ 74.59583, 27.25624 ], [ 74.59279, 27.26698 ], [ 74.60317, 27.27232 ], [ 74.6018, 27.27569 ], [ 74.60225, 27.2766 ], [ 74.60469, 27.27809 ], [ 74.60725, 27.28122 ], [ 74.61544, 27.28596 ], [ 74.6153, 27.2866 ], [ 74.61746, 27.28788 ], [ 74.61762, 27.2901 ], [ 74.62046, 27.291 ], [ 74.61996, 27.29245 ], [ 74.62244, 27.29401 ], [ 74.62227, 27.29494 ], [ 74.62344, 27.29522 ], [ 74.62321, 27.29836 ], [ 74.6239, 27.29874 ], [ 74.62292, 27.30062 ], [ 74.62375, 27.30113 ], [ 74.62371, 27.30461 ], [ 74.62437, 27.30567 ], [ 74.63086, 27.30795 ], [ 74.64367, 27.31406 ], [ 74.64202, 27.31623 ], [ 74.64063, 27.31636 ], [ 74.63822, 27.32008 ], [ 74.6373, 27.31982 ], [ 74.63426, 27.32472 ], [ 74.63362, 27.32449 ], [ 74.63046, 27.3361 ], [ 74.63454, 27.33766 ], [ 74.63423, 27.34072 ], [ 74.63835, 27.33925 ], [ 74.63823, 27.34111 ], [ 74.64026, 27.34161 ], [ 74.64018, 27.34294 ], [ 74.64471, 27.34295 ], [ 74.65358, 27.34644 ], [ 74.65232, 27.34946 ], [ 74.65251, 27.35099 ], [ 74.65024, 27.35367 ], [ 74.64416, 27.35072 ], [ 74.64234, 27.35469 ], [ 74.64106, 27.35442 ], [ 74.64028, 27.35634 ], [ 74.63903, 27.35603 ], [ 74.63851, 27.35716 ], [ 74.6372, 27.3569 ], [ 74.63561, 27.36007 ], [ 74.64215, 27.36183 ], [ 74.64758, 27.36476 ], [ 74.64835, 27.36369 ], [ 74.65503, 27.36445 ], [ 74.65504, 27.36578 ], [ 74.65781, 27.36538 ], [ 74.66389, 27.36671 ], [ 74.66509, 27.36581 ], [ 74.67459, 27.37049 ], [ 74.67464, 27.37482 ], [ 74.67756, 27.37566 ], [ 74.67718, 27.37776 ], [ 74.6789, 27.37809 ], [ 74.67856, 27.38189 ], [ 74.67636, 27.38244 ], [ 74.67673, 27.38454 ], [ 74.67831, 27.38508 ], [ 74.67773, 27.38678 ], [ 74.6742, 27.38512 ], [ 74.6729, 27.38653 ], [ 74.66999, 27.38578 ], [ 74.66963, 27.38677 ], [ 74.66831, 27.38643 ], [ 74.66761, 27.38839 ], [ 74.66842, 27.38874 ], [ 74.66804, 27.39027 ], [ 74.67145, 27.39128 ], [ 74.67094, 27.39347 ], [ 74.66775, 27.39678 ], [ 74.66522, 27.39636 ], [ 74.66498, 27.39765 ], [ 74.66298, 27.39808 ], [ 74.66105, 27.39838 ], [ 74.65832, 27.39705 ], [ 74.65882, 27.39578 ], [ 74.6568, 27.39516 ], [ 74.65614, 27.39618 ], [ 74.64844, 27.39301 ], [ 74.63447, 27.3856 ], [ 74.63344, 27.38864 ], [ 74.63532, 27.38917 ], [ 74.63356, 27.39439 ], [ 74.6308, 27.39401 ], [ 74.63036, 27.3958 ], [ 74.63436, 27.39676 ], [ 74.63357, 27.39857 ], [ 74.63061, 27.39796 ], [ 74.63017, 27.39988 ], [ 74.62736, 27.39936 ], [ 74.62692, 27.4016 ], [ 74.62442, 27.40138 ], [ 74.6247, 27.39838 ], [ 74.61631, 27.39765 ], [ 74.61581, 27.39964 ], [ 74.61728, 27.40198 ], [ 74.61638, 27.40597 ], [ 74.61521, 27.40565 ], [ 74.61477, 27.40718 ], [ 74.61316, 27.40688 ], [ 74.61289, 27.40802 ], [ 74.61092, 27.40759 ], [ 74.60981, 27.41149 ], [ 74.61068, 27.41184 ], [ 74.61029, 27.41331 ], [ 74.61315, 27.41385 ], [ 74.61302, 27.41473 ], [ 74.61478, 27.4151 ], [ 74.61447, 27.41718 ], [ 74.61955, 27.41881 ], [ 74.62048, 27.41743 ], [ 74.62126, 27.4177 ], [ 74.62096, 27.41888 ], [ 74.62232, 27.41962 ], [ 74.6297, 27.42229 ], [ 74.63047, 27.42067 ], [ 74.63223, 27.42114 ], [ 74.6328, 27.41972 ], [ 74.63474, 27.42042 ], [ 74.63405, 27.42241 ], [ 74.63892, 27.42387 ], [ 74.63935, 27.422 ], [ 74.64103, 27.42252 ], [ 74.64229, 27.41812 ], [ 74.64558, 27.41893 ], [ 74.64643, 27.41641 ], [ 74.64735, 27.41661 ], [ 74.64823, 27.41682 ], [ 74.64724, 27.41959 ], [ 74.65633, 27.42127 ], [ 74.65565, 27.42353 ], [ 74.65903, 27.42403 ], [ 74.66337, 27.4259 ], [ 74.66276, 27.42733 ], [ 74.6662, 27.42857 ], [ 74.66906, 27.42619 ], [ 74.67127, 27.42645 ], [ 74.67716, 27.42382 ], [ 74.67791, 27.42132 ], [ 74.68294, 27.42099 ], [ 74.6835, 27.41962 ], [ 74.69067, 27.42128 ], [ 74.69104, 27.42005 ], [ 74.69803, 27.4209 ], [ 74.71091, 27.4258 ], [ 74.71539, 27.4265 ], [ 74.71575, 27.42583 ], [ 74.71847, 27.42659 ], [ 74.7188, 27.42562 ], [ 74.72097, 27.42614 ], [ 74.72214, 27.42391 ], [ 74.73731, 27.42863 ], [ 74.74015, 27.43039 ], [ 74.74439, 27.43143 ], [ 74.746, 27.43154 ], [ 74.7464, 27.43076 ], [ 74.75047, 27.43131 ], [ 74.75858, 27.43429 ], [ 74.75984, 27.4317 ], [ 74.76128, 27.432 ], [ 74.7632, 27.42751 ], [ 74.76954, 27.42762 ], [ 74.77539, 27.43023 ], [ 74.78145, 27.43415 ], [ 74.79297, 27.43682 ], [ 74.79347, 27.4401 ], [ 74.79446, 27.44042 ], [ 74.79425, 27.44154 ], [ 74.79493, 27.44173 ], [ 74.79462, 27.44342 ], [ 74.79542, 27.44352 ], [ 74.79591, 27.4471 ], [ 74.79867, 27.44709 ], [ 74.79863, 27.4496 ], [ 74.79926, 27.44984 ], [ 74.80962, 27.45156 ], [ 74.81761, 27.45138 ], [ 74.81876, 27.45075 ], [ 74.82931, 27.4532 ], [ 74.84034, 27.45264 ], [ 74.8426, 27.45189 ], [ 74.85134, 27.454 ], [ 74.85148, 27.45316 ] ] ] } },
{ "type": "Feature", "properties": { "OBJECTID": 3385, "state_lgd": "08", "state_name": "RAJASTHAN", "district_lgd": "787", "district_name": "DIDWANA-KUCHAMAN", "district_name_source": "district_table", "subdistrict_lgd": "00566", "subdistrict_name": "Nawa", "subdistrict_type": "", "name_corrupted": false, "remarks": "", "label_lon": 75.070399374099438, "label_lat": 27.067125257644339 }, "geometry": { "type": "Polygon", "coordinates": [ [ [ 75.06922, 27.21561 ], [ 75.07233, 27.21561 ], [ 75.07631, 27.21392 ], [ 75.07636, 27.21473 ], [ 75.07771, 27.215 ], [ 75.09241, 27.21437 ], [ 75.11114, 27.21685 ], [ 75.11177, 27.21451 ], [ 75.11288, 27.21462 ], [ 75.11318, 27.21328 ], [ 75.12228, 27.21018 ], [ 75.12204, 27.2086 ], [ 75.12282, 27.20856 ], [ 75.12271, 27.20792 ], [ 75.11881, 27.20265 ], [ 75.12238, 27.20135 ], [ 75.12179, 27.1989 ], [ 75.12274, 27.1955 ], [ 75.11624, 27.18366 ], [ 75.11555, 27.17862 ], [ 75.12188, 27.17895 ], [ 75.12179, 27.17725 ], [ 75.12288, 27.17724 ], [ 75.12353, 27.17353 ], [ 75.1246, 27.17334 ], [ 75.12507, 27.171 ], [ 75.12599, 27.17076 ], [ 75.12643, 27.1665 ], [ 75.13255, 27.16587 ], [ 75.13275, 27.16361 ], [ 75.14593, 27.16245 ], [ 75.15536, 27.16292 ], [ 75.15531, 27.16088 ], [ 75.15725, 27.1609 ], [ 75.15733, 27.15898 ], [ 75.15921, 27.15873 ], [ 75.15904, 27.15692 ], [ 75.16848, 27.15704 ], [ 75.17623, 27.15618 ], [ 75.17709, 27.15445 ], [ 75.18027, 27.15424 ], [ 75.1765, 27.14962 ], [ 75.17688, 27.14826 ], [ 75.17284, 27.14754 ], [ 75.17102, 27.14604 ], [ 75.16981, 27.14401 ], [ 75.16926, 27.14039 ], [ 75.17003, 27.14034 ], [ 75.17044, 27.13873 ], [ 75.17431, 27.13831 ], [ 75.17496, 27.13717 ], [ 75.19224, 27.13786 ], [ 75.19325, 27.1356 ], [ 75.19413, 27.1354 ], [ 75.19534, 27.12833 ], [ 75.19782, 27.12807 ], [ 75.19697, 27.12575 ], [ 75.20105, 27.126 ], [ 75.20401, 27.12717 ], [ 75.20408, 27.12923 ], [ 75.20636, 27.12865 ], [ 75.22791, 27.13093 ], [ 75.22824, 27.13005 ], [ 75.23281, 27.13051 ], [ 75.23402, 27.12296 ], [ 75.23736, 27.12355 ], [ 75.2374, 27.12413 ], [ 75.25058, 27.12552 ], [ 75.25062, 27.12785 ], [ 75.26111, 27.1284 ], [ 75.26154, 27.12923 ], [ 75.26749, 27.12908 ], [ 75.26756, 27.1299 ], [ 75.26936, 27.12981 ], [ 75.27017, 27.12973 ], [ 75.27002, 27.12791 ], [ 75.2726, 27.12795 ], [ 75.27337, 27.12489 ], [ 75.27796, 27.12202 ], [ 75.27848, 27.12084 ], [ 75.28734, 27.12298 ], [ 75.2974, 27.12741 ], [ 75.29767, 27.14012 ], [ 75.30787, 27.14053 ], [ 75.30789, 27.14125 ], [ 75.31501, 27.14223 ], [ 75.31531, 27.14394 ], [ 75.32878, 27.14299 ], [ 75.32905, 27.13623 ], [ 75.33751, 27.13581 ], [ 75.33953, 27.13119 ], [ 75.33967, 27.12694 ], [ 75.33813, 27.12136 ], [ 75.33746, 27.11352 ], [ 75.3432, 27.11342 ], [ 75.34413, 27.1075 ], [ 75.34629, 27.10729 ], [ 75.34644, 27.10561 ], [ 75.35222, 27.10568 ], [ 75.35651, 27.10693 ], [ 75.35695, 27.10829 ], [ 75.3613, 27.10827 ], [ 75.36175, 27.10531 ], [ 75.3634, 27.1053 ], [ 75.36453, 27.09941 ], [ 75.3644, 27.08496 ], [ 75.36383, 27.08325 ], [ 75.34901, 27.0828 ], [ 75.34504, 27.08348 ], [ 75.33925, 27.08553 ], [ 75.3394, 27.08701 ], [ 75.33768, 27.08747 ], [ 75.3377, 27.08835 ], [ 75.33604, 27.08835 ], [ 75.33579, 27.09004 ], [ 75.33075, 27.09169 ], [ 75.3305, 27.08928 ], [ 75.32538, 27.08858 ], [ 75.32534, 27.08795 ], [ 75.31734, 27.08589 ], [ 75.3173, 27.08531 ], [ 75.28794, 27.08626 ], [ 75.28454, 27.08847 ], [ 75.27541, 27.08778 ], [ 75.27529, 27.0868 ], [ 75.27017, 27.08567 ], [ 75.25367, 27.08624 ], [ 75.2362, 27.08422 ], [ 75.23294, 27.08305 ], [ 75.23286, 27.08228 ], [ 75.22763, 27.08238 ], [ 75.22752, 27.0814 ], [ 75.21897, 27.08002 ], [ 75.21882, 27.07609 ], [ 75.22024, 27.0759 ], [ 75.21879, 27.07091 ], [ 75.22009, 27.07081 ], [ 75.22019, 27.0694 ], [ 75.21964, 27.05226 ], [ 75.23934, 27.04774 ], [ 75.23974, 27.04424 ], [ 75.24062, 27.04428 ], [ 75.24059, 27.04277 ], [ 75.24155, 27.04274 ], [ 75.24136, 27.03685 ], [ 75.25593, 27.03544 ], [ 75.25463, 27.03066 ], [ 75.25041, 27.03034 ], [ 75.24812, 27.02327 ], [ 75.24639, 27.02341 ], [ 75.24578, 27.02062 ], [ 75.24298, 27.0208 ], [ 75.24237, 27.01784 ], [ 75.24071, 27.01776 ], [ 75.2402, 27.01263 ], [ 75.2229, 27.01379 ], [ 75.22281, 27.01311 ], [ 75.22043, 27.01298 ], [ 75.22022, 27.01016 ], [ 75.21425, 27.00972 ], [ 75.21424, 27.0081 ], [ 75.20207, 27.00769 ], [ 75.20186, 27.00469 ], [ 75.20012, 27.0047 ], [ 75.20027, 26.99135 ], [ 75.19962, 26.99122 ], [ 75.20103, 26.98386 ], [ 75.20131, 26.97509 ], [ 75.18405, 26.97553 ], [ 75.16422, 26.97209 ], [ 75.15956, 26.97211 ], [ 75.15911, 26.96901 ], [ 75.16011, 26.96896 ], [ 75.16054, 26.96585 ], [ 75.16262, 26.96537 ], [ 75.16319, 26.96216 ], [ 75.16451, 26.96052 ], [ 75.16296, 26.94934 ], [ 75.1535, 26.95073 ], [ 75.1438, 26.94914 ], [ 75.04626, 26.94692 ], [ 75.02472, 26.94784 ], [ 75.011, 26.94664 ], [ 75.01161, 26.93184 ], [ 75.01257, 26.92621 ], [ 75.01185, 26.91693 ], [ 75.01016, 26.91133 ], [ 75.01108, 26.90602 ], [ 75.01105, 26.89507 ], [ 75.00743, 26.89349 ], [ 74.99688, 26.89315 ], [ 74.99664, 26.89105 ], [ 74.98808, 26.88927 ], [ 74.9734, 26.89152 ], [ 74.97242, 26.89895 ], [ 74.9736, 26.89974 ], [ 74.97447, 26.90221 ], [ 74.97531, 26.90996 ], [ 74.97724, 26.91379 ], [ 74.97771, 26.92637 ], [ 74.97914, 26.92632 ], [ 74.98001, 26.92906 ], [ 74.97927, 26.92918 ], [ 74.97949, 26.93067 ], [ 74.98053, 26.9305 ], [ 74.98161, 26.94387 ], [ 74.97801, 26.94425 ], [ 74.97894, 26.94538 ], [ 74.97649, 26.94821 ], [ 74.96948, 26.94845 ], [ 74.96792, 26.94587 ], [ 74.96419, 26.94729 ], [ 74.9638, 26.95361 ], [ 74.9606, 26.95802 ], [ 74.96068, 26.96008 ], [ 74.95961, 26.96094 ], [ 74.95773, 26.96064 ], [ 74.95375, 26.96259 ], [ 74.94841, 26.96355 ], [ 74.9461, 26.96213 ], [ 74.92801, 26.96367 ], [ 74.92294, 26.96318 ], [ 74.91667, 26.96457 ], [ 74.91091, 26.96645 ], [ 74.91121, 26.97302 ], [ 74.9092, 26.97573 ], [ 74.90432, 26.97586 ], [ 74.90433, 26.97682 ], [ 74.89319, 26.97684 ], [ 74.89312, 26.97628 ], [ 74.86989, 26.97453 ], [ 74.85354, 26.97854 ], [ 74.87273, 27.01033 ], [ 74.88022, 27.02553 ], [ 74.89081, 27.04083 ], [ 74.88509, 27.04201 ], [ 74.88441, 27.04318 ], [ 74.88796, 27.06074 ], [ 74.88734, 27.06634 ], [ 74.8859, 27.06632 ], [ 74.886, 27.06963 ], [ 74.9001, 27.07244 ], [ 74.91207, 27.07355 ], [ 74.91206, 27.07407 ], [ 74.92095, 27.07432 ], [ 74.93048, 27.07565 ], [ 74.94251, 27.07874 ], [ 74.94257, 27.07982 ], [ 74.94096, 27.0802 ], [ 74.94083, 27.08265 ], [ 74.93973, 27.08285 ], [ 74.93967, 27.08721 ], [ 74.93843, 27.08762 ], [ 74.93813, 27.09294 ], [ 74.93599, 27.09719 ], [ 74.93467, 27.09712 ], [ 74.93428, 27.09817 ], [ 74.92921, 27.09861 ], [ 74.92829, 27.10099 ], [ 74.92547, 27.10224 ], [ 74.92119, 27.10221 ], [ 74.92161, 27.10448 ], [ 74.92047, 27.10481 ], [ 74.91971, 27.10794 ], [ 74.92039, 27.11921 ], [ 74.92912, 27.12147 ], [ 74.92626, 27.14015 ], [ 74.92521, 27.14194 ], [ 74.92432, 27.14754 ], [ 74.92459, 27.1508 ], [ 74.92549, 27.15092 ], [ 74.92586, 27.15384 ], [ 74.92651, 27.15423 ], [ 74.9269, 27.15915 ], [ 74.92616, 27.16409 ], [ 74.92654, 27.16906 ], [ 74.92353, 27.17792 ], [ 74.93523, 27.18236 ], [ 74.93874, 27.18484 ], [ 74.94438, 27.18592 ], [ 74.94489, 27.18498 ], [ 74.9486, 27.18442 ], [ 74.96397, 27.19 ], [ 74.96412, 27.19439 ], [ 74.96679, 27.19728 ], [ 74.96652, 27.19778 ], [ 74.97159, 27.1986 ], [ 74.9842, 27.19875 ], [ 74.99366, 27.20194 ], [ 74.99571, 27.20191 ], [ 74.99595, 27.20131 ], [ 75.01841, 27.20946 ], [ 75.02127, 27.20953 ], [ 75.02927, 27.20712 ], [ 75.02936, 27.20607 ], [ 75.03232, 27.20582 ], [ 75.0347, 27.20276 ], [ 75.03972, 27.19963 ], [ 75.04014, 27.20225 ], [ 75.04215, 27.20259 ], [ 75.04634, 27.20106 ], [ 75.05491, 27.20025 ], [ 75.06132, 27.20959 ], [ 75.06922, 27.21561 ] ] ] } },
{ "type": "Feature", "properties": { "OBJECTID": 3386, "state_lgd": "08", "state_name": "RAJASTHAN", "district_lgd": "787", "district_name": "DIDWANA-KUCHAMAN", "district_name_source": "district_table", "subdistrict_lgd": "00564", "subdistrict_name": "Parbatsar", "subdistrict_type": "", "name_corrupted": false, "remarks": "", "label_lon": 74.632441406111525, "label_lat": 26.80900260147941 }, "geometry": { "type": "Polygon", "coordinates": [ [ [ 74.86291, 26.99311 ], [ 74.85669, 26.98285 ], [ 74.84912, 26.97276 ], [ 74.84301, 26.96107 ], [ 74.84298, 26.95899 ], [ 74.83939, 26.9562 ], [ 74.83919, 26.95313 ], [ 74.83695, 26.94582 ], [ 74.82623, 26.92734 ], [ 74.82449, 26.9206 ], [ 74.8256, 26.91881 ], [ 74.82409, 26.91181 ], [ 74.82671, 26.91002 ], [ 74.82851, 26.90763 ], [ 74.82817, 26.90465 ], [ 74.82336, 26.89526 ], [ 74.8227, 26.8891 ], [ 74.81554, 26.88556 ], [ 74.81685, 26.88555 ], [ 74.81714, 26.88443 ], [ 74.81634, 26.87633 ], [ 74.81321, 26.86577 ], [ 74.80758, 26.86286 ], [ 74.80437, 26.85614 ], [ 74.79928, 26.85375 ], [ 74.7861, 26.85358 ], [ 74.77232, 26.85005 ], [ 74.76898, 26.85003 ], [ 74.77014, 26.84179 ], [ 74.77196, 26.83944 ], [ 74.76541, 26.82896 ], [ 74.76775, 26.8283 ], [ 74.76882, 26.8238 ], [ 74.77081, 26.82323 ], [ 74.77076, 26.82248 ], [ 74.77574, 26.81957 ], [ 74.77466, 26.81408 ], [ 74.77621, 26.81383 ], [ 74.77603, 26.81292 ], [ 74.77744, 26.81252 ], [ 74.77584, 26.8027 ], [ 74.77803, 26.80234 ], [ 74.77793, 26.80152 ], [ 74.77905, 26.80139 ], [ 74.77925, 26.79933 ], [ 74.77999, 26.79922 ], [ 74.77963, 26.7963 ], [ 74.7771, 26.79126 ], [ 74.77604, 26.79044 ], [ 74.76802, 26.7934 ], [ 74.76321, 26.7924 ], [ 74.76221, 26.79139 ], [ 74.7588, 26.79126 ], [ 74.75634, 26.78723 ], [ 74.75401, 26.78715 ], [ 74.75277, 26.78651 ], [ 74.75272, 26.78542 ], [ 74.75145, 26.7852 ], [ 74.75154, 26.77717 ], [ 74.75104, 26.77413 ], [ 74.7493, 26.77116 ], [ 74.74063, 26.76936 ], [ 74.73975, 26.77179 ], [ 74.73084, 26.77169 ], [ 74.72663, 26.7703 ], [ 74.72653, 26.77108 ], [ 74.72003, 26.7708 ], [ 74.71832, 26.77139 ], [ 74.71819, 26.7723 ], [ 74.71463, 26.7718 ], [ 74.71465, 26.77289 ], [ 74.71305, 26.77292 ], [ 74.71301, 26.77575 ], [ 74.71174, 26.77578 ], [ 74.69857, 26.77303 ], [ 74.69804, 26.772 ], [ 74.695, 26.77116 ], [ 74.69764, 26.76347 ], [ 74.69404, 26.76333 ], [ 74.69238, 26.7625 ], [ 74.69276, 26.76083 ], [ 74.69044, 26.75852 ], [ 74.68998, 26.757 ], [ 74.69041, 26.75527 ], [ 74.68741, 26.75492 ], [ 74.68632, 26.75008 ], [ 74.68184, 26.74799 ], [ 74.68027, 26.74153 ], [ 74.68297, 26.73585 ], [ 74.67197, 26.72306 ], [ 74.66985, 26.71959 ], [ 74.6677, 26.71721 ], [ 74.66565, 26.71647 ], [ 74.66304, 26.71274 ], [ 74.66379, 26.71155 ], [ 74.66867, 26.71023 ], [ 74.67779, 26.7097 ], [ 74.68806, 26.70641 ], [ 74.69857, 26.70635 ], [ 74.70625, 26.70525 ], [ 74.71171, 26.70559 ], [ 74.71257, 26.70533 ], [ 74.71173, 26.70386 ], [ 74.71255, 26.70379 ], [ 74.71236, 26.70292 ], [ 74.72203, 26.69993 ], [ 74.71987, 26.69847 ], [ 74.71739, 26.69197 ], [ 74.71704, 26.6869 ], [ 74.71629, 26.68661 ], [ 74.71722, 26.67708 ], [ 74.71464, 26.66686 ], [ 74.70314, 26.65367 ], [ 74.69594, 26.64941 ], [ 74.69733, 26.64927 ], [ 74.69361, 26.64678 ], [ 74.68606, 26.62184 ], [ 74.68157, 26.61721 ], [ 74.6789, 26.61119 ], [ 74.67747, 26.61103 ], [ 74.67655, 26.60941 ], [ 74.67363, 26.60854 ], [ 74.67396, 26.59935 ], [ 74.67134, 26.59604 ], [ 74.66716, 26.59313 ], [ 74.66246, 26.5922 ], [ 74.65815, 26.58947 ], [ 74.65461, 26.58569 ], [ 74.65022, 26.58989 ], [ 74.64672, 26.59018 ], [ 74.64676, 26.59231 ], [ 74.64347, 26.58972 ], [ 74.64085, 26.58884 ], [ 74.63809, 26.58597 ], [ 74.63949, 26.58589 ], [ 74.62608, 26.57227 ], [ 74.61572, 26.56735 ], [ 74.61302, 26.57139 ], [ 74.59942, 26.58334 ], [ 74.60958, 26.59535 ], [ 74.6095, 26.59928 ], [ 74.61369, 26.60363 ], [ 74.60237, 26.61106 ], [ 74.60088, 26.61267 ], [ 74.60277, 26.61445 ], [ 74.5997, 26.61667 ], [ 74.59999, 26.61721 ], [ 74.59355, 26.6246 ], [ 74.59299, 26.62641 ], [ 74.58844, 26.62823 ], [ 74.57402, 26.61086 ], [ 74.57137, 26.60645 ], [ 74.56252, 26.59826 ], [ 74.56261, 26.59691 ], [ 74.55609, 26.58036 ], [ 74.53459, 26.55673 ], [ 74.52917, 26.56298 ], [ 74.52421, 26.56548 ], [ 74.51846, 26.56635 ], [ 74.50494, 26.56173 ], [ 74.50341, 26.56396 ], [ 74.50249, 26.56367 ], [ 74.50097, 26.5672 ], [ 74.50158, 26.56878 ], [ 74.50034, 26.57266 ], [ 74.49796, 26.57291 ], [ 74.49798, 26.57484 ], [ 74.49508, 26.57775 ], [ 74.49731, 26.58257 ], [ 74.49758, 26.58592 ], [ 74.49698, 26.58636 ], [ 74.49835, 26.58689 ], [ 74.49769, 26.5879 ], [ 74.50037, 26.59432 ], [ 74.5052, 26.59455 ], [ 74.50077, 26.60202 ], [ 74.50051, 26.60414 ], [ 74.50223, 26.60769 ], [ 74.50866, 26.6134 ], [ 74.51046, 26.61692 ], [ 74.50895, 26.62216 ], [ 74.50983, 26.6276 ], [ 74.50921, 26.63191 ], [ 74.51955, 26.6358 ], [ 74.52839, 26.64055 ], [ 74.53356, 26.64184 ], [ 74.53392, 26.64426 ], [ 74.53375, 26.64567 ], [ 74.53287, 26.64534 ], [ 74.53263, 26.64629 ], [ 74.53177, 26.64624 ], [ 74.53168, 26.64778 ], [ 74.53066, 26.64764 ], [ 74.53093, 26.64914 ], [ 74.52978, 26.65124 ], [ 74.52797, 26.65114 ], [ 74.52793, 26.65271 ], [ 74.52557, 26.65307 ], [ 74.5255, 26.65392 ], [ 74.51941, 26.65626 ], [ 74.51678, 26.66768 ], [ 74.518, 26.66806 ], [ 74.51827, 26.66738 ], [ 74.52525, 26.66932 ], [ 74.52554, 26.67068 ], [ 74.53362, 26.67302 ], [ 74.53183, 26.68179 ], [ 74.53195, 26.68651 ], [ 74.52648, 26.69296 ], [ 74.5228, 26.69448 ], [ 74.52491, 26.70592 ], [ 74.52341, 26.70618 ], [ 74.52353, 26.70757 ], [ 74.52439, 26.70743 ], [ 74.52463, 26.70808 ], [ 74.52386, 26.70836 ], [ 74.52538, 26.71136 ], [ 74.52532, 26.71329 ], [ 74.52319, 26.7154 ], [ 74.52373, 26.72003 ], [ 74.52304, 26.72409 ], [ 74.52364, 26.72952 ], [ 74.52514, 26.73308 ], [ 74.52523, 26.73686 ], [ 74.52407, 26.73702 ], [ 74.52377, 26.74003 ], [ 74.51822, 26.74064 ], [ 74.5179, 26.75104 ], [ 74.51465, 26.75534 ], [ 74.51387, 26.75766 ], [ 74.51261, 26.75824 ], [ 74.51151, 26.76157 ], [ 74.50856, 26.76162 ], [ 74.50833, 26.76394 ], [ 74.50754, 26.76392 ], [ 74.50711, 26.76515 ], [ 74.50746, 26.7671 ], [ 74.50025, 26.76363 ], [ 74.49028, 26.75329 ], [ 74.48498, 26.74615 ], [ 74.47814, 26.74762 ], [ 74.47572, 26.74907 ], [ 74.47603, 26.75157 ], [ 74.47871, 26.75471 ], [ 74.48381, 26.7574 ], [ 74.48131, 26.76883 ], [ 74.47648, 26.76825 ], [ 74.47133, 26.76646 ], [ 74.46901, 26.75991 ], [ 74.46366, 26.75733 ], [ 74.45644, 26.75727 ], [ 74.45605, 26.76262 ], [ 74.45446, 26.76365 ], [ 74.45115, 26.76408 ], [ 74.45091, 26.76545 ], [ 74.44993, 26.76546 ], [ 74.44848, 26.76737 ], [ 74.44745, 26.76709 ], [ 74.44624, 26.76913 ], [ 74.44472, 26.77717 ], [ 74.44467, 26.77835 ], [ 74.44573, 26.77877 ], [ 74.44533, 26.77983 ], [ 74.44407, 26.77924 ], [ 74.44223, 26.78049 ], [ 74.43852, 26.78017 ], [ 74.43799, 26.78101 ], [ 74.4375, 26.78229 ], [ 74.43815, 26.78391 ], [ 74.4374, 26.784 ], [ 74.43672, 26.78609 ], [ 74.43658, 26.79012 ], [ 74.43435, 26.79022 ], [ 74.43399, 26.79184 ], [ 74.43296, 26.7919 ], [ 74.42743, 26.79143 ], [ 74.42247, 26.78966 ], [ 74.422, 26.79184 ], [ 74.41978, 26.79139 ], [ 74.41943, 26.79325 ], [ 74.41758, 26.79298 ], [ 74.41525, 26.7983 ], [ 74.41119, 26.80418 ], [ 74.41034, 26.80702 ], [ 74.40632, 26.81345 ], [ 74.40522, 26.81458 ], [ 74.40134, 26.8133 ], [ 74.39774, 26.82081 ], [ 74.40486, 26.82463 ], [ 74.41111, 26.82914 ], [ 74.41174, 26.82943 ], [ 74.41231, 26.82807 ], [ 74.41316, 26.82846 ], [ 74.41603, 26.8301 ], [ 74.41527, 26.83145 ], [ 74.41752, 26.83191 ], [ 74.41514, 26.83756 ], [ 74.41858, 26.84033 ], [ 74.41791, 26.84356 ], [ 74.41604, 26.84677 ], [ 74.4161, 26.84933 ], [ 74.41859, 26.84978 ], [ 74.42566, 26.84759 ], [ 74.4295, 26.84793 ], [ 74.43589, 26.84954 ], [ 74.4376, 26.85059 ], [ 74.43782, 26.85253 ], [ 74.44053, 26.85271 ], [ 74.44014, 26.85142 ], [ 74.44262, 26.85223 ], [ 74.44343, 26.85031 ], [ 74.44535, 26.84943 ], [ 74.44557, 26.84815 ], [ 74.44885, 26.84856 ], [ 74.45067, 26.85006 ], [ 74.44856, 26.85673 ], [ 74.44951, 26.85713 ], [ 74.44932, 26.85788 ], [ 74.45266, 26.85917 ], [ 74.45514, 26.86084 ], [ 74.45508, 26.86201 ], [ 74.45818, 26.86305 ], [ 74.45783, 26.86426 ], [ 74.46035, 26.86507 ], [ 74.45863, 26.86931 ], [ 74.45983, 26.86992 ], [ 74.45898, 26.87311 ], [ 74.46184, 26.87428 ], [ 74.46183, 26.87676 ], [ 74.46416, 26.87772 ], [ 74.46345, 26.883 ], [ 74.47296, 26.88648 ], [ 74.47352, 26.88825 ], [ 74.47274, 26.88977 ], [ 74.47362, 26.89013 ], [ 74.47314, 26.89244 ], [ 74.48322, 26.89739 ], [ 74.48373, 26.89987 ], [ 74.49843, 26.90193 ], [ 74.50052, 26.90258 ], [ 74.50016, 26.90428 ], [ 74.50387, 26.90559 ], [ 74.50459, 26.90626 ], [ 74.5024, 26.91143 ], [ 74.50808, 26.91383 ], [ 74.50528, 26.91708 ], [ 74.51125, 26.92203 ], [ 74.50985, 26.9252 ], [ 74.52809, 26.93222 ], [ 74.53289, 26.93595 ], [ 74.54109, 26.93901 ], [ 74.54238, 26.93746 ], [ 74.5469, 26.9383 ], [ 74.55241, 26.94198 ], [ 74.55702, 26.94358 ], [ 74.55936, 26.93478 ], [ 74.56085, 26.93527 ], [ 74.56337, 26.9313 ], [ 74.56498, 26.92266 ], [ 74.56839, 26.92307 ], [ 74.57342, 26.9251 ], [ 74.5765, 26.9266 ], [ 74.57638, 26.92738 ], [ 74.58012, 26.93034 ], [ 74.5873, 26.93297 ], [ 74.59518, 26.9372 ], [ 74.5959, 26.93378 ], [ 74.60048, 26.93497 ], [ 74.60118, 26.93225 ], [ 74.60581, 26.93331 ], [ 74.60549, 26.932 ], [ 74.611, 26.93294 ], [ 74.61113, 26.93158 ], [ 74.61209, 26.93172 ], [ 74.61437, 26.92043 ], [ 74.61827, 26.92238 ], [ 74.61992, 26.91825 ], [ 74.62197, 26.91641 ], [ 74.62276, 26.91403 ], [ 74.62611, 26.91416 ], [ 74.62695, 26.91212 ], [ 74.63425, 26.91368 ], [ 74.63493, 26.91076 ], [ 74.64037, 26.91134 ], [ 74.64724, 26.91357 ], [ 74.64648, 26.91679 ], [ 74.64718, 26.91695 ], [ 74.64687, 26.91825 ], [ 74.64786, 26.91865 ], [ 74.64777, 26.91945 ], [ 74.65011, 26.9194 ], [ 74.65094, 26.91859 ], [ 74.66248, 26.91883 ], [ 74.66285, 26.91773 ], [ 74.66648, 26.9196 ], [ 74.67082, 26.92056 ], [ 74.6692, 26.92272 ], [ 74.67064, 26.92576 ], [ 74.68877, 26.9349 ], [ 74.6912, 26.93579 ], [ 74.69224, 26.93442 ], [ 74.69364, 26.93593 ], [ 74.69458, 26.93853 ], [ 74.69412, 26.9392 ], [ 74.69539, 26.94107 ], [ 74.69617, 26.94143 ], [ 74.6964, 26.94066 ], [ 74.69991, 26.94261 ], [ 74.6983, 26.94473 ], [ 74.69512, 26.94395 ], [ 74.69387, 26.94929 ], [ 74.6903, 26.94875 ], [ 74.69137, 26.95365 ], [ 74.69082, 26.95471 ], [ 74.68852, 26.95487 ], [ 74.6873, 26.96003 ], [ 74.68571, 26.95912 ], [ 74.68491, 26.96117 ], [ 74.6831, 26.96099 ], [ 74.68126, 26.96356 ], [ 74.67926, 26.96351 ], [ 74.67531, 26.96687 ], [ 74.67445, 26.96663 ], [ 74.67254, 26.96799 ], [ 74.67206, 26.9698 ], [ 74.67036, 26.9694 ], [ 74.66396, 26.97377 ], [ 74.66323, 26.97344 ], [ 74.66185, 26.97833 ], [ 74.66255, 26.97849 ], [ 74.66255, 26.9849 ], [ 74.66706, 26.98532 ], [ 74.66773, 26.98254 ], [ 74.67267, 26.98228 ], [ 74.67279, 26.98166 ], [ 74.68712, 26.98325 ], [ 74.69074, 26.98748 ], [ 74.69832, 27.00132 ], [ 74.70331, 27.00215 ], [ 74.72324, 27.00232 ], [ 74.72378, 27.00051 ], [ 74.72646, 26.99912 ], [ 74.72849, 26.99916 ], [ 74.7328, 26.99626 ], [ 74.73405, 26.99424 ], [ 74.73601, 26.9934 ], [ 74.73575, 27.00419 ], [ 74.73468, 27.00812 ], [ 74.73568, 27.00851 ], [ 74.73583, 27.01394 ], [ 74.73849, 27.0146 ], [ 74.74263, 27.01521 ], [ 74.7443, 27.01097 ], [ 74.74915, 27.00618 ], [ 74.75146, 27.00442 ], [ 74.75479, 27.00447 ], [ 74.75736, 27.00168 ], [ 74.76032, 27.00027 ], [ 74.77285, 27.00481 ], [ 74.77332, 27.00565 ], [ 74.7779, 27.00661 ], [ 74.77752, 27.01933 ], [ 74.77918, 27.01997 ], [ 74.77915, 27.02632 ], [ 74.7736, 27.02809 ], [ 74.77312, 27.03046 ], [ 74.77652, 27.03891 ], [ 74.7765, 27.04627 ], [ 74.77985, 27.04921 ], [ 74.77921, 27.05067 ], [ 74.78353, 27.05307 ], [ 74.78702, 27.04934 ], [ 74.7929, 27.04635 ], [ 74.79603, 27.04072 ], [ 74.79001, 27.03468 ], [ 74.78893, 27.031 ], [ 74.78968, 27.02838 ], [ 74.79224, 27.02443 ], [ 74.79393, 27.02433 ], [ 74.79822, 27.01861 ], [ 74.8062, 27.01847 ], [ 74.81847, 27.01649 ], [ 74.82059, 27.01707 ], [ 74.8215, 27.00844 ], [ 74.82459, 27.00528 ], [ 74.82666, 27.00134 ], [ 74.83051, 27.00175 ], [ 74.8405, 26.99929 ], [ 74.84349, 26.99635 ], [ 74.85111, 26.99704 ], [ 74.86291, 26.99311 ] ] ] } }
]
}
