{
"type": "FeatureCollection",
"name": "563_UTTARA_KANNADA",
"crs": { "type": "name", "properties": { "name": "urn:ogc:def:crs:OGC:1.3:CRS84" } },
"xy_coordinate_resolution": 1e-05,
"features": [
{ "type": "Feature", "properties": { "OBJECTID": 2928, "state_lgd": "29", "state_name": "KARNATAKA", "district_lgd": "563", "district_name": "UTTARA KANNADA", "district_name_source": "district_table", "subdistrict_lgd": "05485", "subdistrict_name": "Kumta", "subdistrict_type": "Taluk", "name_corrupted": false, "remarks": "", "label_lon": 74.491314360758324, "label_lat": 14.480311579257657 }, "geometry": { "type": "MultiPolygon", "coordinates": [ [ [ [ 74.38716, 14.41835 ], [ 74.38773, 14.41698 ], [ 74.38656, 14.4173 ], [ 74.38716, 14.41835 ] ] ], [ [ [ 74.35989, 14.51092 ], [ 74.35473, 14.52217 ], [ 74.35021, 14.52169 ], [ 74.34858, 14.52056 ], [ 74.34471, 14.52135 ], [ 74.34371, 14.52051 ], [ 74.34391, 14.51899 ], [ 74.34233, 14.51628 ], [ 74.34098, 14.51633 ], [ 74.3413, 14.51558 ], [ 74.34028, 14.51466 ], [ 74.33708, 14.51932 ], [ 74.33602, 14.51932 ], [ 74.33499, 14.51806 ], [ 74.33333, 14.51875 ], [ 74.33093, 14.5183 ], [ 74.33007, 14.51664 ], [ 74.32669, 14.51602 ], [ 74.32598, 14.51761 ], [ 74.32646, 14.51902 ], [ 74.32565, 14.51985 ], [ 74.31653, 14.51951 ], [ 74.31358, 14.52171 ], [ 74.31022, 14.52136 ], [ 74.31151, 14.52467 ], [ 74.31453, 14.52506 ], [ 74.31599, 14.52657 ], [ 74.31629, 14.53087 ], [ 74.31165, 14.53191 ], [ 74.31138, 14.5329 ], [ 74.3122, 14.534 ], [ 74.3113, 14.53463 ], [ 74.3108, 14.5367 ], [ 74.3113, 14.53782 ], [ 74.31079, 14.53878 ], [ 74.31413, 14.54049 ], [ 74.31507, 14.54328 ], [ 74.31473, 14.54572 ], [ 74.31335, 14.54735 ], [ 74.30184, 14.57429 ], [ 74.2943, 14.58955 ], [ 74.29313, 14.59307 ], [ 74.29316, 14.59686 ], [ 74.29392, 14.59636 ], [ 74.29397, 14.59422 ], [ 74.29584, 14.59532 ], [ 74.29773, 14.59495 ], [ 74.2985, 14.59338 ], [ 74.29993, 14.59262 ], [ 74.3016, 14.59317 ], [ 74.30498, 14.59883 ], [ 74.30729, 14.60038 ], [ 74.31035, 14.60089 ], [ 74.31148, 14.59977 ], [ 74.31372, 14.59977 ], [ 74.31481, 14.59855 ], [ 74.31756, 14.59886 ], [ 74.31801, 14.59773 ], [ 74.31689, 14.59662 ], [ 74.31609, 14.59105 ], [ 74.31708, 14.58975 ], [ 74.31683, 14.58603 ], [ 74.31776, 14.58226 ], [ 74.3233, 14.58302 ], [ 74.32463, 14.57919 ], [ 74.32576, 14.57871 ], [ 74.33011, 14.58034 ], [ 74.33082, 14.57942 ], [ 74.3311, 14.5802 ], [ 74.33191, 14.57981 ], [ 74.33529, 14.58125 ], [ 74.33597, 14.58063 ], [ 74.33638, 14.58145 ], [ 74.3474, 14.58214 ], [ 74.34904, 14.58074 ], [ 74.34862, 14.57804 ], [ 74.34764, 14.57807 ], [ 74.34524, 14.57576 ], [ 74.34438, 14.57377 ], [ 74.34818, 14.57264 ], [ 74.35174, 14.57292 ], [ 74.35532, 14.57629 ], [ 74.3596, 14.57753 ], [ 74.36386, 14.57554 ], [ 74.3662, 14.57663 ], [ 74.36621, 14.58015 ], [ 74.36785, 14.58143 ], [ 74.36892, 14.58131 ], [ 74.36964, 14.58286 ], [ 74.37713, 14.58585 ], [ 74.37449, 14.57979 ], [ 74.37472, 14.57404 ], [ 74.37765, 14.57379 ], [ 74.37798, 14.57283 ], [ 74.38078, 14.57199 ], [ 74.38453, 14.57287 ], [ 74.38542, 14.57185 ], [ 74.38948, 14.57305 ], [ 74.38994, 14.57497 ], [ 74.39969, 14.57466 ], [ 74.40009, 14.57084 ], [ 74.39902, 14.5708 ], [ 74.39722, 14.5688 ], [ 74.39339, 14.56794 ], [ 74.39101, 14.56607 ], [ 74.39505, 14.56495 ], [ 74.39581, 14.56599 ], [ 74.41803, 14.56371 ], [ 74.43689, 14.56585 ], [ 74.43575, 14.57378 ], [ 74.4314, 14.58852 ], [ 74.4268, 14.59018 ], [ 74.42575, 14.59798 ], [ 74.43631, 14.6105 ], [ 74.43981, 14.60969 ], [ 74.4413, 14.61083 ], [ 74.44237, 14.60967 ], [ 74.44258, 14.60765 ], [ 74.44224, 14.60713 ], [ 74.44045, 14.60759 ], [ 74.44034, 14.60686 ], [ 74.44426, 14.60553 ], [ 74.45087, 14.60126 ], [ 74.45755, 14.59827 ], [ 74.46099, 14.60285 ], [ 74.47269, 14.59226 ], [ 74.45773, 14.5781 ], [ 74.45787, 14.57395 ], [ 74.45326, 14.57275 ], [ 74.45432, 14.56961 ], [ 74.45824, 14.56849 ], [ 74.45591, 14.56644 ], [ 74.45766, 14.56443 ], [ 74.45988, 14.56378 ], [ 74.46282, 14.56602 ], [ 74.46343, 14.56737 ], [ 74.46621, 14.56815 ], [ 74.46378, 14.5646 ], [ 74.46388, 14.56365 ], [ 74.47232, 14.55967 ], [ 74.47196, 14.55828 ], [ 74.47257, 14.55764 ], [ 74.47024, 14.55447 ], [ 74.46924, 14.54914 ], [ 74.46529, 14.54337 ], [ 74.47355, 14.53263 ], [ 74.46123, 14.52179 ], [ 74.48275, 14.52699 ], [ 74.48268, 14.51953 ], [ 74.48881, 14.5251 ], [ 74.49204, 14.53355 ], [ 74.5013, 14.54661 ], [ 74.50327, 14.54835 ], [ 74.50337, 14.55335 ], [ 74.50415, 14.55454 ], [ 74.51252, 14.56133 ], [ 74.51792, 14.56454 ], [ 74.51967, 14.56894 ], [ 74.53235, 14.56491 ], [ 74.5354, 14.57333 ], [ 74.53575, 14.57673 ], [ 74.54117, 14.57746 ], [ 74.54259, 14.57556 ], [ 74.549, 14.5848 ], [ 74.54787, 14.58793 ], [ 74.57412, 14.60782 ], [ 74.58288, 14.6021 ], [ 74.58069, 14.57981 ], [ 74.58241, 14.56906 ], [ 74.5828, 14.5589 ], [ 74.57993, 14.5578 ], [ 74.57424, 14.53631 ], [ 74.56873, 14.52681 ], [ 74.5716, 14.52149 ], [ 74.56945, 14.50793 ], [ 74.57299, 14.49127 ], [ 74.58105, 14.48313 ], [ 74.58066, 14.4827 ], [ 74.59075, 14.47721 ], [ 74.59911, 14.47635 ], [ 74.60892, 14.46775 ], [ 74.61393, 14.46605 ], [ 74.6321, 14.47125 ], [ 74.62954, 14.45904 ], [ 74.63422, 14.4637 ], [ 74.63868, 14.46438 ], [ 74.65273, 14.47954 ], [ 74.65221, 14.48076 ], [ 74.66835, 14.47521 ], [ 74.69155, 14.48312 ], [ 74.69624, 14.4733 ], [ 74.68931, 14.46292 ], [ 74.67041, 14.44899 ], [ 74.67684, 14.44675 ], [ 74.67875, 14.44432 ], [ 74.67565, 14.43148 ], [ 74.65929, 14.43506 ], [ 74.65368, 14.43202 ], [ 74.6729, 14.41334 ], [ 74.67272, 14.41079 ], [ 74.66876, 14.40187 ], [ 74.6698, 14.40171 ], [ 74.66669, 14.39109 ], [ 74.66531, 14.39057 ], [ 74.66436, 14.38864 ], [ 74.66294, 14.38941 ], [ 74.66321, 14.38815 ], [ 74.6388, 14.38229 ], [ 74.6278, 14.37415 ], [ 74.61457, 14.37179 ], [ 74.60496, 14.37253 ], [ 74.58518, 14.37624 ], [ 74.58591, 14.37363 ], [ 74.57809, 14.37102 ], [ 74.56575, 14.36329 ], [ 74.56301, 14.36236 ], [ 74.54838, 14.36398 ], [ 74.54733, 14.36677 ], [ 74.5618, 14.39133 ], [ 74.56342, 14.39471 ], [ 74.56326, 14.39724 ], [ 74.55658, 14.40108 ], [ 74.54507, 14.40418 ], [ 74.54065, 14.40828 ], [ 74.53484, 14.40888 ], [ 74.53022, 14.41696 ], [ 74.53049, 14.42025 ], [ 74.53272, 14.42648 ], [ 74.51984, 14.4282 ], [ 74.51743, 14.42728 ], [ 74.51506, 14.42822 ], [ 74.50457, 14.41603 ], [ 74.50109, 14.41601 ], [ 74.49547, 14.42637 ], [ 74.49555, 14.4292 ], [ 74.49457, 14.43141 ], [ 74.49107, 14.43214 ], [ 74.49117, 14.43282 ], [ 74.48953, 14.432 ], [ 74.48829, 14.43267 ], [ 74.48746, 14.43067 ], [ 74.48672, 14.43049 ], [ 74.48743, 14.42981 ], [ 74.48718, 14.42865 ], [ 74.48165, 14.43013 ], [ 74.47711, 14.42264 ], [ 74.47722, 14.41916 ], [ 74.47792, 14.41823 ], [ 74.47654, 14.41745 ], [ 74.47876, 14.41542 ], [ 74.47646, 14.41343 ], [ 74.47889, 14.41077 ], [ 74.4724, 14.39851 ], [ 74.46501, 14.39499 ], [ 74.46474, 14.39098 ], [ 74.4655, 14.38903 ], [ 74.46372, 14.3876 ], [ 74.46304, 14.38589 ], [ 74.46091, 14.38543 ], [ 74.46133, 14.3831 ], [ 74.45806, 14.38213 ], [ 74.45454, 14.38434 ], [ 74.45372, 14.3822 ], [ 74.45046, 14.38336 ], [ 74.45061, 14.38222 ], [ 74.44916, 14.38171 ], [ 74.4482, 14.38217 ], [ 74.44825, 14.38305 ], [ 74.44675, 14.38347 ], [ 74.44393, 14.38164 ], [ 74.44185, 14.38318 ], [ 74.43946, 14.38312 ], [ 74.43468, 14.37889 ], [ 74.43439, 14.377 ], [ 74.43511, 14.37638 ], [ 74.43695, 14.37721 ], [ 74.43754, 14.37637 ], [ 74.43705, 14.37503 ], [ 74.43498, 14.37354 ], [ 74.43044, 14.37293 ], [ 74.42916, 14.37209 ], [ 74.42847, 14.36923 ], [ 74.42677, 14.36712 ], [ 74.42635, 14.36261 ], [ 74.42481, 14.36169 ], [ 74.42442, 14.35936 ], [ 74.42151, 14.35441 ], [ 74.4186, 14.35326 ], [ 74.41678, 14.35443 ], [ 74.41525, 14.35381 ], [ 74.41274, 14.34794 ], [ 74.4136, 14.34539 ], [ 74.40856, 14.34482 ], [ 74.40493, 14.35768 ], [ 74.40556, 14.36043 ], [ 74.40496, 14.36554 ], [ 74.40242, 14.36883 ], [ 74.40238, 14.37036 ], [ 74.40463, 14.37219 ], [ 74.40476, 14.37531 ], [ 74.40174, 14.38787 ], [ 74.40138, 14.3955 ], [ 74.40009, 14.39784 ], [ 74.39767, 14.40818 ], [ 74.3938, 14.41859 ], [ 74.3889, 14.41978 ], [ 74.38603, 14.41832 ], [ 74.38569, 14.4194 ], [ 74.38409, 14.41963 ], [ 74.38232, 14.42148 ], [ 74.38234, 14.42333 ], [ 74.38111, 14.42439 ], [ 74.38373, 14.42482 ], [ 74.38483, 14.42772 ], [ 74.38415, 14.42955 ], [ 74.38067, 14.43071 ], [ 74.38028, 14.43181 ], [ 74.38265, 14.43201 ], [ 74.38427, 14.43465 ], [ 74.38263, 14.43467 ], [ 74.38239, 14.43733 ], [ 74.38357, 14.43951 ], [ 74.37625, 14.46193 ], [ 74.3605, 14.50107 ], [ 74.35905, 14.50189 ], [ 74.35593, 14.50143 ], [ 74.35461, 14.5025 ], [ 74.35542, 14.50842 ], [ 74.35898, 14.5096 ], [ 74.35989, 14.51092 ] ] ], [ [ [ 74.31909, 14.51722 ], [ 74.31881, 14.51707 ], [ 74.31894, 14.51738 ], [ 74.31909, 14.51722 ] ] ], [ [ [ 74.31955, 14.51897 ], [ 74.31943, 14.51924 ], [ 74.31964, 14.51913 ], [ 74.31955, 14.51897 ] ] ], [ [ [ 74.30864, 14.52578 ], [ 74.3092, 14.52632 ], [ 74.30969, 14.52599 ], [ 74.30914, 14.52561 ], [ 74.30864, 14.52578 ] ] ] ] } },
{ "type": "Feature", "properties": { "OBJECTID": 2929, "state_lgd": "29", "state_name": "KARNATAKA", "district_lgd": "563", "district_name": "UTTARA KANNADA", "district_name_source": "district_table", "subdistrict_lgd": "05482", "subdistrict_name": "Mundgod", "subdistrict_type": "Taluk", "name_corrupted": false, "remarks": "", "label_lon": 74.989303149916722, "label_lat": 14.905243164520774 }, "geometry": { "type": "Polygon", "coordinates": [ [ [ 75.05327, 15.08242 ], [ 75.05543, 15.07274 ], [ 75.05828, 15.07135 ], [ 75.06134, 15.07208 ], [ 75.07092, 15.07044 ], [ 75.08254, 15.0746 ], [ 75.0739, 15.0524 ], [ 75.07236, 15.04141 ], [ 75.07478, 15.03894 ], [ 75.07702, 15.03793 ], [ 75.07254, 15.02492 ], [ 75.0738, 15.02482 ], [ 75.07153, 15.01793 ], [ 75.06813, 15.01472 ], [ 75.07323, 14.9997 ], [ 75.07588, 14.97403 ], [ 75.08155, 14.96951 ], [ 75.08451, 14.95665 ], [ 75.09693, 14.95693 ], [ 75.09805, 14.95659 ], [ 75.09809, 14.95547 ], [ 75.10023, 14.95534 ], [ 75.09495, 14.95079 ], [ 75.09778, 14.94737 ], [ 75.09708, 14.94322 ], [ 75.10337, 14.93508 ], [ 75.10166, 14.93249 ], [ 75.10229, 14.92763 ], [ 75.08543, 14.92678 ], [ 75.08725, 14.92097 ], [ 75.08025, 14.92243 ], [ 75.06707, 14.9191 ], [ 75.06989, 14.89558 ], [ 75.06946, 14.88832 ], [ 75.07017, 14.88827 ], [ 75.07108, 14.87181 ], [ 75.07392, 14.86761 ], [ 75.07094, 14.86764 ], [ 75.06973, 14.86334 ], [ 75.0741, 14.85606 ], [ 75.07, 14.84673 ], [ 75.06904, 14.8411 ], [ 75.06813, 14.84117 ], [ 75.06769, 14.83677 ], [ 75.07176, 14.83395 ], [ 75.07384, 14.82616 ], [ 75.08222, 14.82382 ], [ 75.09053, 14.82022 ], [ 75.09168, 14.81106 ], [ 75.08566, 14.80984 ], [ 75.08361, 14.81013 ], [ 75.08166, 14.80899 ], [ 75.08042, 14.81018 ], [ 75.07389, 14.80823 ], [ 75.06426, 14.81078 ], [ 75.05531, 14.81462 ], [ 75.056, 14.80511 ], [ 75.06293, 14.80217 ], [ 75.06287, 14.80151 ], [ 75.06383, 14.80172 ], [ 75.06884, 14.79798 ], [ 75.06829, 14.79433 ], [ 75.06941, 14.79175 ], [ 75.06918, 14.787 ], [ 75.06712, 14.78612 ], [ 75.07076, 14.78242 ], [ 75.06629, 14.78302 ], [ 75.06386, 14.77945 ], [ 75.06358, 14.77658 ], [ 75.05947, 14.77658 ], [ 75.05908, 14.7758 ], [ 75.05236, 14.77681 ], [ 75.04982, 14.77548 ], [ 75.04993, 14.77349 ], [ 75.04613, 14.77298 ], [ 75.04059, 14.7741 ], [ 75.04077, 14.76988 ], [ 75.03969, 14.76774 ], [ 75.04156, 14.76476 ], [ 75.04165, 14.75933 ], [ 75.04365, 14.75372 ], [ 75.04553, 14.75314 ], [ 75.04557, 14.75152 ], [ 75.04691, 14.75187 ], [ 75.04638, 14.75067 ], [ 75.04747, 14.74853 ], [ 75.04767, 14.74414 ], [ 75.04498, 14.74363 ], [ 75.04477, 14.74289 ], [ 75.0438, 14.74328 ], [ 75.04471, 14.73898 ], [ 75.03706, 14.73847 ], [ 75.03775, 14.72884 ], [ 75.03842, 14.72774 ], [ 75.03738, 14.72712 ], [ 75.03676, 14.72813 ], [ 75.0335, 14.72739 ], [ 75.0307, 14.72986 ], [ 75.03003, 14.72951 ], [ 75.03004, 14.72698 ], [ 75.02746, 14.72638 ], [ 75.02768, 14.72544 ], [ 75.02593, 14.72687 ], [ 75.02366, 14.72548 ], [ 75.02221, 14.72583 ], [ 75.02163, 14.7243 ], [ 75.02083, 14.72543 ], [ 75.01917, 14.72366 ], [ 75.01813, 14.72383 ], [ 75.01774, 14.72187 ], [ 75.01464, 14.72062 ], [ 75.01429, 14.71934 ], [ 75.01547, 14.71858 ], [ 75.01454, 14.71719 ], [ 75.01363, 14.71699 ], [ 75.01261, 14.7179 ], [ 75.01133, 14.7173 ], [ 75.01166, 14.71809 ], [ 75.00922, 14.71959 ], [ 75.00651, 14.71918 ], [ 75.00536, 14.71615 ], [ 75.00187, 14.71187 ], [ 74.99952, 14.70489 ], [ 74.99731, 14.70436 ], [ 74.99416, 14.69505 ], [ 74.97765, 14.69802 ], [ 74.96743, 14.70326 ], [ 74.96843, 14.70551 ], [ 74.96979, 14.70646 ], [ 74.97037, 14.7095 ], [ 74.96961, 14.71034 ], [ 74.96987, 14.71178 ], [ 74.97195, 14.71195 ], [ 74.97119, 14.71287 ], [ 74.97361, 14.71556 ], [ 74.97315, 14.71739 ], [ 74.97463, 14.71875 ], [ 74.97605, 14.71892 ], [ 74.97555, 14.71965 ], [ 74.97694, 14.72059 ], [ 74.97652, 14.72266 ], [ 74.97898, 14.72532 ], [ 74.97794, 14.72717 ], [ 74.9739, 14.72674 ], [ 74.97009, 14.72892 ], [ 74.96749, 14.72898 ], [ 74.96582, 14.72776 ], [ 74.96397, 14.72886 ], [ 74.96191, 14.7287 ], [ 74.96068, 14.73101 ], [ 74.95905, 14.73085 ], [ 74.95878, 14.73157 ], [ 74.9551, 14.73222 ], [ 74.95398, 14.73306 ], [ 74.95439, 14.73411 ], [ 74.95366, 14.73463 ], [ 74.95415, 14.7378 ], [ 74.95153, 14.74049 ], [ 74.94666, 14.73782 ], [ 74.93941, 14.7381 ], [ 74.93547, 14.73743 ], [ 74.93018, 14.73969 ], [ 74.92869, 14.74189 ], [ 74.92461, 14.74311 ], [ 74.91983, 14.74868 ], [ 74.91771, 14.74555 ], [ 74.9158, 14.74473 ], [ 74.91314, 14.74728 ], [ 74.90964, 14.74599 ], [ 74.90235, 14.7475 ], [ 74.90059, 14.74717 ], [ 74.89527, 14.74919 ], [ 74.89227, 14.74642 ], [ 74.88775, 14.74786 ], [ 74.88621, 14.74931 ], [ 74.88357, 14.75983 ], [ 74.89393, 14.76835 ], [ 74.90689, 14.76986 ], [ 74.90997, 14.76826 ], [ 74.91794, 14.7664 ], [ 74.91178, 14.77921 ], [ 74.9141, 14.78161 ], [ 74.90943, 14.78959 ], [ 74.90724, 14.79496 ], [ 74.90789, 14.81008 ], [ 74.92665, 14.8028 ], [ 74.93962, 14.81929 ], [ 74.94421, 14.83425 ], [ 74.94221, 14.83985 ], [ 74.93958, 14.8384 ], [ 74.91485, 14.83232 ], [ 74.90436, 14.82469 ], [ 74.90533, 14.83581 ], [ 74.90632, 14.83621 ], [ 74.91345, 14.85619 ], [ 74.92335, 14.86299 ], [ 74.91797, 14.87207 ], [ 74.91467, 14.88412 ], [ 74.91368, 14.90165 ], [ 74.93111, 14.90328 ], [ 74.93498, 14.90963 ], [ 74.91852, 14.91424 ], [ 74.89231, 14.93561 ], [ 74.88356, 14.96034 ], [ 74.86557, 14.96581 ], [ 74.8656, 14.96655 ], [ 74.86627, 14.96777 ], [ 74.86886, 14.96918 ], [ 74.87044, 14.97194 ], [ 74.86967, 14.97703 ], [ 74.87195, 14.97913 ], [ 74.87064, 14.98272 ], [ 74.87083, 14.98499 ], [ 74.87593, 14.98754 ], [ 74.8788, 14.99413 ], [ 74.87926, 14.99769 ], [ 74.88592, 15.00049 ], [ 74.88617, 15.00497 ], [ 74.88737, 15.00615 ], [ 74.88787, 15.01023 ], [ 74.88711, 15.0134 ], [ 74.88904, 15.01873 ], [ 74.88971, 15.02483 ], [ 74.89301, 15.0263 ], [ 74.89458, 15.02417 ], [ 74.8974, 15.02378 ], [ 74.89956, 15.02707 ], [ 74.89974, 15.02942 ], [ 74.90646, 15.03336 ], [ 74.90909, 15.03411 ], [ 74.90914, 15.03553 ], [ 74.90649, 15.03614 ], [ 74.90677, 15.03721 ], [ 74.90926, 15.03835 ], [ 74.90925, 15.03999 ], [ 74.91033, 15.04065 ], [ 74.91415, 15.04018 ], [ 74.91523, 15.03899 ], [ 74.91733, 15.0389 ], [ 74.91884, 15.04415 ], [ 74.92273, 15.04478 ], [ 74.9227, 15.04625 ], [ 74.92417, 15.04839 ], [ 74.92835, 15.04988 ], [ 74.92859, 15.04885 ], [ 74.93038, 15.04926 ], [ 74.93158, 15.05024 ], [ 74.93144, 15.05193 ], [ 74.93399, 15.05236 ], [ 74.93485, 15.05135 ], [ 74.93735, 15.05132 ], [ 74.94012, 15.05188 ], [ 74.942, 15.05597 ], [ 74.94157, 15.05717 ], [ 74.93942, 15.05719 ], [ 74.93952, 15.06397 ], [ 74.94027, 15.06658 ], [ 74.94421, 15.06423 ], [ 74.95088, 15.06761 ], [ 74.9563, 15.0657 ], [ 74.95731, 15.0641 ], [ 74.95842, 15.06645 ], [ 74.96011, 15.06651 ], [ 74.96046, 15.06769 ], [ 74.96318, 15.06795 ], [ 74.9633, 15.06937 ], [ 74.96457, 15.06858 ], [ 74.96667, 15.07017 ], [ 74.9713, 15.06976 ], [ 74.97388, 15.07049 ], [ 74.97582, 15.06927 ], [ 74.97705, 15.07016 ], [ 74.9789, 15.06891 ], [ 74.98481, 15.0717 ], [ 74.98605, 15.07123 ], [ 74.98604, 15.07299 ], [ 74.98777, 15.07257 ], [ 74.98838, 15.07314 ], [ 74.98927, 15.07244 ], [ 74.99175, 15.07361 ], [ 74.9938, 15.07331 ], [ 74.99613, 15.07071 ], [ 74.99854, 15.06974 ], [ 75.00238, 15.07112 ], [ 75.00258, 15.06992 ], [ 75.00525, 15.06974 ], [ 75.00571, 15.07107 ], [ 75.00724, 15.07075 ], [ 75.00737, 15.07132 ], [ 75.00926, 15.06964 ], [ 75.01108, 15.06961 ], [ 75.01117, 15.06838 ], [ 75.01289, 15.06812 ], [ 75.01282, 15.06908 ], [ 75.01358, 15.06881 ], [ 75.01435, 15.07054 ], [ 75.0173, 15.07066 ], [ 75.01839, 15.07265 ], [ 75.01998, 15.07005 ], [ 75.02066, 15.0708 ], [ 75.02274, 15.07028 ], [ 75.02543, 15.07313 ], [ 75.02599, 15.0722 ], [ 75.02771, 15.07378 ], [ 75.02827, 15.07309 ], [ 75.02936, 15.07372 ], [ 75.03035, 15.07309 ], [ 75.03065, 15.07462 ], [ 75.03206, 15.07465 ], [ 75.03253, 15.07539 ], [ 75.03198, 15.07572 ], [ 75.03291, 15.07587 ], [ 75.03186, 15.07751 ], [ 75.03377, 15.07745 ], [ 75.03483, 15.07885 ], [ 75.04325, 15.07936 ], [ 75.04651, 15.08178 ], [ 75.05327, 15.08242 ] ] ] } },
{ "type": "Feature", "properties": { "OBJECTID": 2930, "state_lgd": "29", "state_name": "KARNATAKA", "district_lgd": "563", "district_name": "UTTARA KANNADA", "district_name_source": "district_table", "subdistrict_lgd": "05481", "subdistrict_name": "YELLAPUR", "subdistrict_type": "Taluk", "name_corrupted": false, "remarks": "", "label_lon": 74.730236257716314, "label_lat": 14.928187921316269 }, "geometry": { "type": "Polygon", "coordinates": [ [ [ 74.82095, 15.15084 ], [ 74.81984, 15.14954 ], [ 74.81979, 15.14665 ], [ 74.82072, 15.14533 ], [ 74.82231, 15.1455 ], [ 74.82344, 15.14413 ], [ 74.82241, 15.14244 ], [ 74.81948, 15.1414 ], [ 74.8196, 15.14016 ], [ 74.82239, 15.13851 ], [ 74.8248, 15.13458 ], [ 74.82904, 15.1364 ], [ 74.82944, 15.13939 ], [ 74.83083, 15.13821 ], [ 74.83128, 15.13302 ], [ 74.83966, 15.13034 ], [ 74.8412, 15.12805 ], [ 74.84215, 15.12818 ], [ 74.84375, 15.12676 ], [ 74.845, 15.12196 ], [ 74.84729, 15.12324 ], [ 74.84872, 15.12313 ], [ 74.85185, 15.12127 ], [ 74.85166, 15.11759 ], [ 74.85402, 15.11405 ], [ 74.85322, 15.11376 ], [ 74.85308, 15.11228 ], [ 74.85402, 15.10995 ], [ 74.85541, 15.1095 ], [ 74.85501, 15.10752 ], [ 74.85849, 15.10572 ], [ 74.85836, 15.10421 ], [ 74.86121, 15.10364 ], [ 74.86247, 15.10488 ], [ 74.86475, 15.10513 ], [ 74.86914, 15.10331 ], [ 74.87616, 15.10252 ], [ 74.88051, 15.10036 ], [ 74.88749, 15.10026 ], [ 74.89034, 15.09934 ], [ 74.89256, 15.09663 ], [ 74.88997, 15.09067 ], [ 74.88673, 15.08866 ], [ 74.88333, 15.0883 ], [ 74.88163, 15.08659 ], [ 74.87984, 15.08399 ], [ 74.87921, 15.08199 ], [ 74.87958, 15.07955 ], [ 74.87737, 15.07377 ], [ 74.88004, 15.07296 ], [ 74.88266, 15.0692 ], [ 74.88738, 15.06638 ], [ 74.88613, 15.06307 ], [ 74.88857, 15.05883 ], [ 74.89049, 15.05222 ], [ 74.88894, 15.04992 ], [ 74.89174, 15.0446 ], [ 74.89391, 15.04449 ], [ 74.8962, 15.04683 ], [ 74.90162, 15.04722 ], [ 74.90605, 15.04992 ], [ 74.90787, 15.04972 ], [ 74.91007, 15.04323 ], [ 74.91059, 15.04089 ], [ 74.90925, 15.03999 ], [ 74.90926, 15.03835 ], [ 74.90652, 15.03683 ], [ 74.9071, 15.03551 ], [ 74.90914, 15.03553 ], [ 74.90909, 15.03411 ], [ 74.90646, 15.03336 ], [ 74.89974, 15.02942 ], [ 74.89956, 15.02707 ], [ 74.8974, 15.02378 ], [ 74.89458, 15.02417 ], [ 74.89301, 15.0263 ], [ 74.88971, 15.02483 ], [ 74.88904, 15.01873 ], [ 74.88711, 15.0134 ], [ 74.88787, 15.01023 ], [ 74.88737, 15.00615 ], [ 74.88617, 15.00497 ], [ 74.88592, 15.00049 ], [ 74.87926, 14.99769 ], [ 74.8788, 14.99413 ], [ 74.87593, 14.98754 ], [ 74.87083, 14.98499 ], [ 74.87064, 14.98272 ], [ 74.87195, 14.97913 ], [ 74.86967, 14.97703 ], [ 74.87044, 14.97194 ], [ 74.86886, 14.96918 ], [ 74.86581, 14.96732 ], [ 74.86557, 14.96581 ], [ 74.88356, 14.96034 ], [ 74.89231, 14.93561 ], [ 74.91852, 14.91424 ], [ 74.93498, 14.90963 ], [ 74.93111, 14.90328 ], [ 74.91368, 14.90165 ], [ 74.91467, 14.88412 ], [ 74.91797, 14.87207 ], [ 74.92335, 14.86299 ], [ 74.91345, 14.85619 ], [ 74.90632, 14.83621 ], [ 74.90533, 14.83581 ], [ 74.90436, 14.82469 ], [ 74.91485, 14.83232 ], [ 74.93958, 14.8384 ], [ 74.94221, 14.83985 ], [ 74.94411, 14.83522 ], [ 74.93962, 14.81929 ], [ 74.92665, 14.8028 ], [ 74.90789, 14.81008 ], [ 74.90724, 14.79496 ], [ 74.90943, 14.78959 ], [ 74.9141, 14.78161 ], [ 74.91178, 14.77921 ], [ 74.91794, 14.7664 ], [ 74.90997, 14.76826 ], [ 74.90689, 14.76986 ], [ 74.89393, 14.76835 ], [ 74.88357, 14.75983 ], [ 74.88621, 14.74931 ], [ 74.88728, 14.74833 ], [ 74.88536, 14.74889 ], [ 74.88421, 14.75016 ], [ 74.87908, 14.73939 ], [ 74.86534, 14.73539 ], [ 74.86178, 14.73712 ], [ 74.85771, 14.73613 ], [ 74.85592, 14.73471 ], [ 74.85443, 14.73505 ], [ 74.8534, 14.73295 ], [ 74.84705, 14.73243 ], [ 74.84641, 14.7479 ], [ 74.83701, 14.74349 ], [ 74.83357, 14.74266 ], [ 74.8325, 14.7403 ], [ 74.83071, 14.73942 ], [ 74.82818, 14.74006 ], [ 74.82651, 14.74155 ], [ 74.82694, 14.7436 ], [ 74.82429, 14.74696 ], [ 74.8224, 14.74685 ], [ 74.8201, 14.74505 ], [ 74.81747, 14.7457 ], [ 74.81813, 14.74225 ], [ 74.81489, 14.74004 ], [ 74.81393, 14.73772 ], [ 74.80977, 14.74003 ], [ 74.80942, 14.74104 ], [ 74.81073, 14.74265 ], [ 74.81033, 14.74641 ], [ 74.80829, 14.74745 ], [ 74.80634, 14.75054 ], [ 74.80245, 14.74994 ], [ 74.80113, 14.75253 ], [ 74.79815, 14.74991 ], [ 74.79588, 14.74961 ], [ 74.79441, 14.75076 ], [ 74.7942, 14.75308 ], [ 74.79185, 14.75627 ], [ 74.79154, 14.75412 ], [ 74.79057, 14.75332 ], [ 74.78458, 14.75213 ], [ 74.7819, 14.7567 ], [ 74.77851, 14.7587 ], [ 74.77886, 14.75951 ], [ 74.77661, 14.76393 ], [ 74.77727, 14.7701 ], [ 74.77319, 14.77112 ], [ 74.77168, 14.77571 ], [ 74.76848, 14.77427 ], [ 74.76792, 14.77715 ], [ 74.76677, 14.7775 ], [ 74.76445, 14.77624 ], [ 74.75964, 14.77555 ], [ 74.75913, 14.78313 ], [ 74.76138, 14.78905 ], [ 74.76058, 14.79617 ], [ 74.75818, 14.79707 ], [ 74.75598, 14.79686 ], [ 74.75361, 14.79843 ], [ 74.75421, 14.80254 ], [ 74.75263, 14.81008 ], [ 74.75353, 14.81254 ], [ 74.75228, 14.81264 ], [ 74.75116, 14.81501 ], [ 74.75112, 14.81968 ], [ 74.75193, 14.82156 ], [ 74.75033, 14.82784 ], [ 74.74509, 14.83298 ], [ 74.7404, 14.83332 ], [ 74.73836, 14.83685 ], [ 74.73877, 14.83772 ], [ 74.73388, 14.83829 ], [ 74.728, 14.83669 ], [ 74.72314, 14.83662 ], [ 74.71267, 14.83344 ], [ 74.69931, 14.8341 ], [ 74.69347, 14.8333 ], [ 74.69286, 14.83414 ], [ 74.6904, 14.83309 ], [ 74.68673, 14.83393 ], [ 74.68322, 14.83367 ], [ 74.67488, 14.82988 ], [ 74.66999, 14.82949 ], [ 74.66297, 14.83063 ], [ 74.66128, 14.83169 ], [ 74.65861, 14.83528 ], [ 74.65018, 14.83492 ], [ 74.63927, 14.83596 ], [ 74.63553, 14.83187 ], [ 74.63203, 14.82612 ], [ 74.62674, 14.82173 ], [ 74.62718, 14.82145 ], [ 74.62448, 14.82098 ], [ 74.61833, 14.81777 ], [ 74.61874, 14.81698 ], [ 74.61667, 14.81657 ], [ 74.61586, 14.81564 ], [ 74.61453, 14.81249 ], [ 74.6157, 14.80978 ], [ 74.61522, 14.80806 ], [ 74.61148, 14.80544 ], [ 74.6095, 14.7995 ], [ 74.60844, 14.79966 ], [ 74.6074, 14.79995 ], [ 74.60697, 14.80106 ], [ 74.60806, 14.80249 ], [ 74.60758, 14.80503 ], [ 74.60565, 14.80687 ], [ 74.60689, 14.80869 ], [ 74.60448, 14.80948 ], [ 74.60392, 14.81659 ], [ 74.60493, 14.8183 ], [ 74.60452, 14.82082 ], [ 74.602, 14.82411 ], [ 74.60112, 14.82667 ], [ 74.59907, 14.8281 ], [ 74.59978, 14.83057 ], [ 74.59901, 14.83124 ], [ 74.5973, 14.83102 ], [ 74.59673, 14.8339 ], [ 74.59522, 14.83345 ], [ 74.59318, 14.83453 ], [ 74.58956, 14.84084 ], [ 74.58754, 14.84234 ], [ 74.58798, 14.8435 ], [ 74.58639, 14.84401 ], [ 74.58366, 14.84847 ], [ 74.58361, 14.85203 ], [ 74.5807, 14.85497 ], [ 74.58, 14.85772 ], [ 74.57766, 14.85921 ], [ 74.57691, 14.86267 ], [ 74.57498, 14.86461 ], [ 74.57545, 14.8657 ], [ 74.57409, 14.86778 ], [ 74.57428, 14.86995 ], [ 74.5732, 14.86887 ], [ 74.57254, 14.87053 ], [ 74.57029, 14.86758 ], [ 74.5701, 14.87073 ], [ 74.56773, 14.86873 ], [ 74.56488, 14.87223 ], [ 74.55508, 14.86095 ], [ 74.56398, 14.84387 ], [ 74.56463, 14.8351 ], [ 74.57188, 14.82913 ], [ 74.57613, 14.82445 ], [ 74.57665, 14.80589 ], [ 74.57473, 14.80153 ], [ 74.56892, 14.79415 ], [ 74.56344, 14.79264 ], [ 74.55755, 14.79426 ], [ 74.55232, 14.79851 ], [ 74.54941, 14.79335 ], [ 74.54165, 14.79295 ], [ 74.54107, 14.77846 ], [ 74.53549, 14.77598 ], [ 74.52961, 14.77849 ], [ 74.52224, 14.76912 ], [ 74.51448, 14.76843 ], [ 74.51288, 14.76851 ], [ 74.50372, 14.78473 ], [ 74.49866, 14.78701 ], [ 74.49671, 14.79024 ], [ 74.48818, 14.78155 ], [ 74.47817, 14.77366 ], [ 74.4701, 14.75388 ], [ 74.46793, 14.75353 ], [ 74.46424, 14.75676 ], [ 74.44632, 14.75979 ], [ 74.42968, 14.75667 ], [ 74.42231, 14.76048 ], [ 74.42397, 14.76948 ], [ 74.41982, 14.77655 ], [ 74.43712, 14.77984 ], [ 74.44529, 14.78587 ], [ 74.45728, 14.79174 ], [ 74.45808, 14.79249 ], [ 74.45871, 14.79735 ], [ 74.45263, 14.80041 ], [ 74.4717, 14.81791 ], [ 74.47562, 14.82626 ], [ 74.48281, 14.82944 ], [ 74.47937, 14.83189 ], [ 74.49487, 14.84644 ], [ 74.49174, 14.84931 ], [ 74.5048, 14.8555 ], [ 74.5116, 14.8607 ], [ 74.51274, 14.8662 ], [ 74.50454, 14.88094 ], [ 74.51375, 14.88267 ], [ 74.52489, 14.89635 ], [ 74.52182, 14.90215 ], [ 74.52694, 14.92113 ], [ 74.52746, 14.92168 ], [ 74.53204, 14.91904 ], [ 74.53786, 14.92251 ], [ 74.54084, 14.93184 ], [ 74.54093, 14.93542 ], [ 74.54587, 14.94234 ], [ 74.5469, 14.94276 ], [ 74.54904, 14.94177 ], [ 74.55142, 14.94226 ], [ 74.55915, 14.94559 ], [ 74.56341, 14.94659 ], [ 74.56505, 14.94895 ], [ 74.56585, 14.96027 ], [ 74.56722, 14.96522 ], [ 74.56687, 14.97785 ], [ 74.56785, 14.97987 ], [ 74.57064, 14.98224 ], [ 74.5752, 14.99016 ], [ 74.58192, 14.99739 ], [ 74.58294, 15.00121 ], [ 74.57987, 15.01246 ], [ 74.58084, 15.01495 ], [ 74.58652, 15.01997 ], [ 74.59831, 15.02541 ], [ 74.602, 15.02919 ], [ 74.60305, 15.03551 ], [ 74.60109, 15.04084 ], [ 74.60211, 15.04502 ], [ 74.60064, 15.05265 ], [ 74.60403, 15.06318 ], [ 74.60624, 15.06508 ], [ 74.61684, 15.06529 ], [ 74.61624, 15.06608 ], [ 74.62003, 15.0661 ], [ 74.62834, 15.07318 ], [ 74.63399, 15.07662 ], [ 74.63654, 15.08273 ], [ 74.63769, 15.08367 ], [ 74.64128, 15.08244 ], [ 74.64744, 15.07797 ], [ 74.65031, 15.07954 ], [ 74.66212, 15.09009 ], [ 74.67457, 15.09809 ], [ 74.67666, 15.09773 ], [ 74.67792, 15.09556 ], [ 74.68302, 15.0929 ], [ 74.68818, 15.09822 ], [ 74.69133, 15.09721 ], [ 74.69479, 15.09782 ], [ 74.70068, 15.10454 ], [ 74.71071, 15.0874 ], [ 74.71756, 15.08078 ], [ 74.72158, 15.08185 ], [ 74.72457, 15.08407 ], [ 74.73134, 15.08316 ], [ 74.73153, 15.08718 ], [ 74.73307, 15.08971 ], [ 74.735, 15.08873 ], [ 74.73809, 15.08864 ], [ 74.74107, 15.08511 ], [ 74.7432, 15.08464 ], [ 74.74938, 15.09004 ], [ 74.74992, 15.09172 ], [ 74.75197, 15.09227 ], [ 74.7534, 15.09596 ], [ 74.7527, 15.09984 ], [ 74.75399, 15.10292 ], [ 74.75855, 15.102 ], [ 74.75951, 15.1001 ], [ 74.76245, 15.10024 ], [ 74.76614, 15.10179 ], [ 74.77028, 15.10133 ], [ 74.77304, 15.09985 ], [ 74.77443, 15.10024 ], [ 74.77512, 15.10291 ], [ 74.78241, 15.11143 ], [ 74.78272, 15.11523 ], [ 74.78457, 15.11688 ], [ 74.78482, 15.12164 ], [ 74.78193, 15.12863 ], [ 74.78174, 15.13197 ], [ 74.78939, 15.12994 ], [ 74.79259, 15.13082 ], [ 74.7933, 15.13195 ], [ 74.79285, 15.13659 ], [ 74.79482, 15.13947 ], [ 74.79465, 15.14173 ], [ 74.79284, 15.14499 ], [ 74.79301, 15.14634 ], [ 74.7974, 15.14846 ], [ 74.80254, 15.14921 ], [ 74.80481, 15.15081 ], [ 74.80746, 15.15034 ], [ 74.81109, 15.15125 ], [ 74.81341, 15.15425 ], [ 74.81927, 15.15346 ], [ 74.82095, 15.15218 ], [ 74.82095, 15.15084 ] ] ] } },
{ "type": "Feature", "properties": { "OBJECTID": 2931, "state_lgd": "29", "state_name": "KARNATAKA", "district_lgd": "563", "district_name": "UTTARA KANNADA", "district_name_source": "district_table", "subdistrict_lgd": "05484", "subdistrict_name": "Ankola", "subdistrict_type": "Taluk", "name_corrupted": false, "remarks": "", "label_lon": 74.443171676737563, "label_lat": 14.701402402101593 }, "geometry": { "type": "MultiPolygon", "coordinates": [ [ [ [ 74.27318, 14.62463 ], [ 74.27281, 14.62477 ], [ 74.27296, 14.62499 ], [ 74.27318, 14.62463 ] ] ], [ [ [ 74.27352, 14.63674 ], [ 74.27332, 14.63693 ], [ 74.27362, 14.637 ], [ 74.27352, 14.63674 ] ] ], [ [ [ 74.27733, 14.66054 ], [ 74.27619, 14.6603 ], [ 74.27581, 14.66077 ], [ 74.27707, 14.66134 ], [ 74.27733, 14.66054 ] ] ], [ [ [ 74.5701, 14.87073 ], [ 74.57029, 14.86758 ], [ 74.57254, 14.87053 ], [ 74.5732, 14.86887 ], [ 74.57428, 14.86995 ], [ 74.57409, 14.86778 ], [ 74.57545, 14.8657 ], [ 74.57498, 14.86461 ], [ 74.57691, 14.86267 ], [ 74.57766, 14.85921 ], [ 74.58, 14.85772 ], [ 74.5807, 14.85497 ], [ 74.58361, 14.85203 ], [ 74.58366, 14.84847 ], [ 74.58639, 14.84401 ], [ 74.58798, 14.8435 ], [ 74.58754, 14.84234 ], [ 74.58956, 14.84084 ], [ 74.59318, 14.83453 ], [ 74.59522, 14.83345 ], [ 74.59673, 14.8339 ], [ 74.5973, 14.83102 ], [ 74.59901, 14.83124 ], [ 74.59978, 14.83057 ], [ 74.59907, 14.8281 ], [ 74.60112, 14.82667 ], [ 74.602, 14.82411 ], [ 74.60452, 14.82082 ], [ 74.60493, 14.8183 ], [ 74.60392, 14.81659 ], [ 74.60448, 14.80948 ], [ 74.60689, 14.80869 ], [ 74.60565, 14.80687 ], [ 74.60813, 14.80349 ], [ 74.60697, 14.80106 ], [ 74.6074, 14.79995 ], [ 74.6095, 14.7995 ], [ 74.61148, 14.80544 ], [ 74.61522, 14.80806 ], [ 74.6157, 14.80978 ], [ 74.61453, 14.81249 ], [ 74.61667, 14.81657 ], [ 74.61874, 14.81698 ], [ 74.61833, 14.81777 ], [ 74.62448, 14.82098 ], [ 74.62718, 14.82145 ], [ 74.62674, 14.82173 ], [ 74.63347, 14.82785 ], [ 74.63601, 14.83249 ], [ 74.63927, 14.83596 ], [ 74.64047, 14.83629 ], [ 74.65018, 14.83492 ], [ 74.65861, 14.83528 ], [ 74.66128, 14.83169 ], [ 74.66695, 14.82955 ], [ 74.67488, 14.82988 ], [ 74.68322, 14.83367 ], [ 74.68673, 14.83393 ], [ 74.6904, 14.83309 ], [ 74.69286, 14.83414 ], [ 74.70807, 14.81699 ], [ 74.68069, 14.80954 ], [ 74.65867, 14.80951 ], [ 74.63314, 14.80806 ], [ 74.64458, 14.79826 ], [ 74.65201, 14.78632 ], [ 74.65388, 14.78041 ], [ 74.6321, 14.776 ], [ 74.62991, 14.76529 ], [ 74.62493, 14.75874 ], [ 74.61975, 14.75411 ], [ 74.61219, 14.74309 ], [ 74.61071, 14.7429 ], [ 74.61574, 14.72837 ], [ 74.61731, 14.7262 ], [ 74.61264, 14.709 ], [ 74.61153, 14.69271 ], [ 74.60828, 14.69336 ], [ 74.60724, 14.68934 ], [ 74.6022, 14.69385 ], [ 74.57908, 14.6883 ], [ 74.57324, 14.68555 ], [ 74.57501, 14.68242 ], [ 74.57468, 14.67426 ], [ 74.57856, 14.65326 ], [ 74.57077, 14.64314 ], [ 74.57389, 14.63461 ], [ 74.57534, 14.63525 ], [ 74.56807, 14.61975 ], [ 74.5742, 14.60798 ], [ 74.54787, 14.58793 ], [ 74.549, 14.5848 ], [ 74.54259, 14.57556 ], [ 74.54117, 14.57746 ], [ 74.53575, 14.57673 ], [ 74.5354, 14.57333 ], [ 74.53235, 14.56491 ], [ 74.51967, 14.56894 ], [ 74.51792, 14.56454 ], [ 74.51252, 14.56133 ], [ 74.50344, 14.55376 ], [ 74.50327, 14.54835 ], [ 74.5013, 14.54661 ], [ 74.49204, 14.53355 ], [ 74.48881, 14.5251 ], [ 74.48268, 14.51953 ], [ 74.48275, 14.52699 ], [ 74.46123, 14.52179 ], [ 74.47355, 14.53263 ], [ 74.46529, 14.54337 ], [ 74.46924, 14.54914 ], [ 74.47024, 14.55447 ], [ 74.47257, 14.55764 ], [ 74.47196, 14.55828 ], [ 74.47232, 14.55967 ], [ 74.46388, 14.56365 ], [ 74.46378, 14.5646 ], [ 74.46621, 14.56815 ], [ 74.46343, 14.56737 ], [ 74.46282, 14.56602 ], [ 74.45988, 14.56378 ], [ 74.45766, 14.56443 ], [ 74.45591, 14.56644 ], [ 74.45824, 14.56849 ], [ 74.45432, 14.56961 ], [ 74.45326, 14.57275 ], [ 74.45787, 14.57395 ], [ 74.45773, 14.5781 ], [ 74.47269, 14.59226 ], [ 74.46099, 14.60285 ], [ 74.45755, 14.59827 ], [ 74.45087, 14.60126 ], [ 74.44426, 14.60553 ], [ 74.44034, 14.60686 ], [ 74.44045, 14.60759 ], [ 74.44224, 14.60713 ], [ 74.44258, 14.60765 ], [ 74.44237, 14.60967 ], [ 74.4413, 14.61083 ], [ 74.43981, 14.60969 ], [ 74.43631, 14.6105 ], [ 74.42575, 14.59798 ], [ 74.4268, 14.59018 ], [ 74.4314, 14.58852 ], [ 74.43575, 14.57378 ], [ 74.43689, 14.56585 ], [ 74.41803, 14.56371 ], [ 74.39581, 14.56599 ], [ 74.39505, 14.56495 ], [ 74.39101, 14.56607 ], [ 74.39339, 14.56794 ], [ 74.39722, 14.5688 ], [ 74.39902, 14.5708 ], [ 74.40009, 14.57084 ], [ 74.39969, 14.57466 ], [ 74.38994, 14.57497 ], [ 74.38948, 14.57305 ], [ 74.38542, 14.57185 ], [ 74.38453, 14.57287 ], [ 74.38078, 14.57199 ], [ 74.37798, 14.57283 ], [ 74.37765, 14.57379 ], [ 74.37472, 14.57404 ], [ 74.37449, 14.57979 ], [ 74.37713, 14.58585 ], [ 74.36964, 14.58286 ], [ 74.36892, 14.58131 ], [ 74.36785, 14.58143 ], [ 74.36621, 14.58015 ], [ 74.3662, 14.57663 ], [ 74.36386, 14.57554 ], [ 74.3596, 14.57753 ], [ 74.35532, 14.57629 ], [ 74.35174, 14.57292 ], [ 74.34818, 14.57264 ], [ 74.34438, 14.57377 ], [ 74.34524, 14.57576 ], [ 74.34764, 14.57807 ], [ 74.34862, 14.57804 ], [ 74.34904, 14.58074 ], [ 74.3474, 14.58214 ], [ 74.33638, 14.58145 ], [ 74.33597, 14.58063 ], [ 74.33529, 14.58125 ], [ 74.33191, 14.57981 ], [ 74.3311, 14.5802 ], [ 74.33082, 14.57942 ], [ 74.33011, 14.58034 ], [ 74.32576, 14.57871 ], [ 74.32463, 14.57919 ], [ 74.3233, 14.58302 ], [ 74.31776, 14.58226 ], [ 74.31683, 14.58603 ], [ 74.31708, 14.58975 ], [ 74.31609, 14.59105 ], [ 74.31689, 14.59662 ], [ 74.31801, 14.59773 ], [ 74.31756, 14.59886 ], [ 74.31481, 14.59855 ], [ 74.31372, 14.59977 ], [ 74.30848, 14.60075 ], [ 74.30498, 14.59883 ], [ 74.30152, 14.59309 ], [ 74.29952, 14.59268 ], [ 74.29773, 14.59495 ], [ 74.29605, 14.59532 ], [ 74.29397, 14.59422 ], [ 74.29376, 14.59672 ], [ 74.29295, 14.59654 ], [ 74.29184, 14.59781 ], [ 74.28717, 14.60506 ], [ 74.28132, 14.61014 ], [ 74.27899, 14.61409 ], [ 74.27864, 14.61836 ], [ 74.27561, 14.62347 ], [ 74.27435, 14.62433 ], [ 74.27358, 14.62748 ], [ 74.27267, 14.62776 ], [ 74.27099, 14.62676 ], [ 74.27039, 14.62723 ], [ 74.27174, 14.62853 ], [ 74.27174, 14.63005 ], [ 74.27339, 14.628 ], [ 74.27902, 14.62571 ], [ 74.2816, 14.62648 ], [ 74.28342, 14.62971 ], [ 74.28457, 14.63027 ], [ 74.28497, 14.63335 ], [ 74.28644, 14.63421 ], [ 74.2856, 14.63517 ], [ 74.28589, 14.63848 ], [ 74.28452, 14.64338 ], [ 74.28516, 14.6471 ], [ 74.28299, 14.64708 ], [ 74.28271, 14.64917 ], [ 74.2805, 14.64924 ], [ 74.28227, 14.65165 ], [ 74.28227, 14.65335 ], [ 74.28053, 14.65639 ], [ 74.27868, 14.6565 ], [ 74.27968, 14.66012 ], [ 74.2843, 14.66357 ], [ 74.28178, 14.66401 ], [ 74.27938, 14.66212 ], [ 74.27796, 14.66588 ], [ 74.27557, 14.66659 ], [ 74.27771, 14.66953 ], [ 74.27552, 14.67018 ], [ 74.27712, 14.672 ], [ 74.27945, 14.67088 ], [ 74.28107, 14.67171 ], [ 74.28281, 14.67431 ], [ 74.28253, 14.67655 ], [ 74.27992, 14.68303 ], [ 74.27548, 14.68994 ], [ 74.27105, 14.69905 ], [ 74.27126, 14.69979 ], [ 74.27234, 14.69973 ], [ 74.27216, 14.70031 ], [ 74.2704, 14.70099 ], [ 74.26663, 14.70542 ], [ 74.26435, 14.70574 ], [ 74.26351, 14.7049 ], [ 74.26088, 14.7071 ], [ 74.25715, 14.70672 ], [ 74.25692, 14.70831 ], [ 74.25844, 14.70762 ], [ 74.26186, 14.70942 ], [ 74.26493, 14.71288 ], [ 74.26415, 14.71622 ], [ 74.2628, 14.71981 ], [ 74.25828, 14.72642 ], [ 74.25044, 14.7362 ], [ 74.25021, 14.73724 ], [ 74.25086, 14.73772 ], [ 74.24932, 14.74118 ], [ 74.24795, 14.74155 ], [ 74.2516, 14.74461 ], [ 74.25751, 14.75218 ], [ 74.26271, 14.76126 ], [ 74.26087, 14.76698 ], [ 74.2612, 14.76925 ], [ 74.26407, 14.77195 ], [ 74.26273, 14.77777 ], [ 74.26784, 14.77762 ], [ 74.2773, 14.77882 ], [ 74.27904, 14.7804 ], [ 74.28547, 14.78115 ], [ 74.29241, 14.78462 ], [ 74.29344, 14.78626 ], [ 74.29336, 14.79363 ], [ 74.30299, 14.79623 ], [ 74.3081, 14.80504 ], [ 74.33279, 14.80819 ], [ 74.32951, 14.81401 ], [ 74.32728, 14.82022 ], [ 74.33757, 14.83776 ], [ 74.33777, 14.84296 ], [ 74.34593, 14.84865 ], [ 74.36117, 14.8399 ], [ 74.36898, 14.83952 ], [ 74.38057, 14.8369 ], [ 74.39323, 14.83529 ], [ 74.40152, 14.83076 ], [ 74.41543, 14.82039 ], [ 74.43436, 14.80822 ], [ 74.45142, 14.80124 ], [ 74.45871, 14.79735 ], [ 74.45808, 14.79249 ], [ 74.45728, 14.79174 ], [ 74.44529, 14.78587 ], [ 74.43712, 14.77984 ], [ 74.41982, 14.77655 ], [ 74.42397, 14.76948 ], [ 74.42231, 14.76048 ], [ 74.42968, 14.75667 ], [ 74.44632, 14.75979 ], [ 74.46424, 14.75676 ], [ 74.46793, 14.75353 ], [ 74.4701, 14.75388 ], [ 74.47817, 14.77366 ], [ 74.48818, 14.78155 ], [ 74.49671, 14.79024 ], [ 74.49866, 14.78701 ], [ 74.50372, 14.78473 ], [ 74.51288, 14.76851 ], [ 74.52224, 14.76912 ], [ 74.52961, 14.77849 ], [ 74.53549, 14.77598 ], [ 74.54107, 14.77846 ], [ 74.54165, 14.79295 ], [ 74.54941, 14.79335 ], [ 74.55232, 14.79851 ], [ 74.55755, 14.79426 ], [ 74.56344, 14.79264 ], [ 74.56892, 14.79415 ], [ 74.57473, 14.80153 ], [ 74.57665, 14.80589 ], [ 74.57613, 14.82445 ], [ 74.57188, 14.82913 ], [ 74.56463, 14.8351 ], [ 74.56398, 14.84387 ], [ 74.55508, 14.86095 ], [ 74.56488, 14.87223 ], [ 74.56773, 14.86873 ], [ 74.5701, 14.87073 ] ], [ [ 74.2543, 14.74576 ], [ 74.25409, 14.74461 ], [ 74.25485, 14.74497 ], [ 74.25616, 14.74419 ], [ 74.25621, 14.74542 ], [ 74.2543, 14.74576 ] ] ], [ [ [ 74.25427, 14.70415 ], [ 74.25409, 14.70435 ], [ 74.25431, 14.7043 ], [ 74.25427, 14.70415 ] ] ], [ [ [ 74.25326, 14.70435 ], [ 74.25214, 14.70456 ], [ 74.25214, 14.70485 ], [ 74.25326, 14.70435 ] ] ], [ [ [ 74.24179, 14.71116 ], [ 74.24013, 14.70873 ], [ 74.23759, 14.70964 ], [ 74.23848, 14.71126 ], [ 74.24085, 14.71198 ], [ 74.24179, 14.71116 ] ] ], [ [ [ 74.25416, 14.72168 ], [ 74.25469, 14.7247 ], [ 74.25655, 14.72415 ], [ 74.25686, 14.722 ], [ 74.25555, 14.72067 ], [ 74.25416, 14.72168 ] ] ] ] } },
{ "type": "Feature", "properties": { "OBJECTID": 2932, "state_lgd": "29", "state_name": "KARNATAKA", "district_lgd": "563", "district_name": "UTTARA KANNADA", "district_name_source": "district_table", "subdistrict_lgd": "05488", "subdistrict_name": "Bhatkal", "subdistrict_type": "Taluk", "name_corrupted": false, "remarks": "", "label_lon": 74.584930464987949, "label_lat": 14.044679146191582 }, "geometry": { "type": "MultiPolygon", "coordinates": [ [ [ [ 74.48324, 14.00979 ], [ 74.48243, 14.0072 ], [ 74.47912, 14.00832 ], [ 74.4803, 14.01043 ], [ 74.4824, 14.01069 ], [ 74.48324, 14.00979 ] ] ], [ [ [ 74.32326, 14.01018 ], [ 74.32282, 14.01081 ], [ 74.32356, 14.01079 ], [ 74.32326, 14.01018 ] ] ], [ [ [ 74.49209, 14.01749 ], [ 74.49178, 14.01792 ], [ 74.49215, 14.01788 ], [ 74.49209, 14.01749 ] ] ], [ [ [ 74.48857, 14.01928 ], [ 74.48808, 14.01984 ], [ 74.4889, 14.01968 ], [ 74.48857, 14.01928 ] ] ], [ [ [ 74.48704, 14.02459 ], [ 74.48565, 14.0223 ], [ 74.48431, 14.02269 ], [ 74.48704, 14.02459 ] ] ], [ [ [ 74.32584, 14.0204 ], [ 74.33023, 14.01788 ], [ 74.32959, 14.01578 ], [ 74.32721, 14.01438 ], [ 74.32487, 14.01432 ], [ 74.32521, 14.0155 ], [ 74.32436, 14.016 ], [ 74.32423, 14.01766 ], [ 74.32482, 14.02028 ], [ 74.32584, 14.0204 ] ] ], [ [ [ 74.48549, 14.02522 ], [ 74.48552, 14.02547 ], [ 74.48565, 14.02546 ], [ 74.48549, 14.02522 ] ] ], [ [ [ 74.47897, 14.08247 ], [ 74.47866, 14.08203 ], [ 74.47843, 14.08231 ], [ 74.47897, 14.08247 ] ] ], [ [ [ 74.46995, 14.08306 ], [ 74.47024, 14.08452 ], [ 74.47165, 14.08424 ], [ 74.47153, 14.084 ], [ 74.46995, 14.08306 ] ] ], [ [ [ 74.47964, 14.08768 ], [ 74.48095, 14.08687 ], [ 74.47998, 14.08718 ], [ 74.47964, 14.08768 ] ] ], [ [ [ 74.52626, 13.97332 ], [ 74.52576, 13.97366 ], [ 74.52614, 13.97373 ], [ 74.52626, 13.97332 ] ] ], [ [ [ 74.52419, 13.97488 ], [ 74.52381, 13.97525 ], [ 74.52412, 13.97523 ], [ 74.52419, 13.97488 ] ] ], [ [ [ 74.50914, 13.98155 ], [ 74.50908, 13.98184 ], [ 74.50926, 13.98161 ], [ 74.50914, 13.98155 ] ] ], [ [ [ 74.50969, 13.98178 ], [ 74.5097, 13.98207 ], [ 74.50987, 13.98201 ], [ 74.50969, 13.98178 ] ] ], [ [ [ 74.50935, 13.98197 ], [ 74.50922, 13.98219 ], [ 74.50937, 13.98217 ], [ 74.50935, 13.98197 ] ] ], [ [ [ 74.50578, 13.99738 ], [ 74.50539, 13.99751 ], [ 74.50537, 13.99779 ], [ 74.50578, 13.99738 ] ] ], [ [ [ 74.50581, 13.99887 ], [ 74.50585, 13.99913 ], [ 74.506, 13.999 ], [ 74.50581, 13.99887 ] ] ], [ [ [ 74.50688, 13.99936 ], [ 74.50642, 13.99973 ], [ 74.50677, 14.00012 ], [ 74.50688, 13.99936 ] ] ], [ [ [ 74.50591, 14.00075 ], [ 74.5054, 14.00092 ], [ 74.50536, 14.001 ], [ 74.50591, 14.00075 ] ] ], [ [ [ 74.6292, 14.1441 ], [ 74.64408, 14.14041 ], [ 74.64258, 14.13388 ], [ 74.64598, 14.11466 ], [ 74.65555, 14.11543 ], [ 74.6459, 14.10237 ], [ 74.65256, 14.09703 ], [ 74.66208, 14.08573 ], [ 74.66965, 14.07543 ], [ 74.67638, 14.06179 ], [ 74.67386, 14.05788 ], [ 74.67226, 14.04816 ], [ 74.67462, 14.0467 ], [ 74.67814, 14.04229 ], [ 74.67621, 14.0234 ], [ 74.66136, 13.99362 ], [ 74.66138, 13.98925 ], [ 74.66475, 13.98098 ], [ 74.65563, 13.97392 ], [ 74.64779, 13.96341 ], [ 74.64658, 13.96307 ], [ 74.64751, 13.95353 ], [ 74.6488, 13.94985 ], [ 74.65018, 13.94974 ], [ 74.65066, 13.94714 ], [ 74.65273, 13.94598 ], [ 74.65171, 13.94441 ], [ 74.65077, 13.94537 ], [ 74.64814, 13.94404 ], [ 74.64782, 13.9407 ], [ 74.64438, 13.94122 ], [ 74.64242, 13.93908 ], [ 74.64044, 13.94 ], [ 74.63828, 13.93917 ], [ 74.63707, 13.94121 ], [ 74.63582, 13.94134 ], [ 74.63509, 13.93972 ], [ 74.63476, 13.94041 ], [ 74.63362, 13.9399 ], [ 74.63307, 13.94094 ], [ 74.63513, 13.94269 ], [ 74.6352, 13.94412 ], [ 74.63113, 13.94395 ], [ 74.63168, 13.9462 ], [ 74.62061, 13.93582 ], [ 74.61986, 13.94084 ], [ 74.61865, 13.94182 ], [ 74.60644, 13.94084 ], [ 74.60015, 13.93629 ], [ 74.59892, 13.93227 ], [ 74.59683, 13.93197 ], [ 74.59598, 13.94137 ], [ 74.59534, 13.94183 ], [ 74.59305, 13.9399 ], [ 74.59216, 13.93446 ], [ 74.59145, 13.9341 ], [ 74.59178, 13.93272 ], [ 74.58982, 13.93165 ], [ 74.59006, 13.93049 ], [ 74.58825, 13.93095 ], [ 74.58822, 13.93012 ], [ 74.58689, 13.93005 ], [ 74.58493, 13.92742 ], [ 74.58286, 13.92695 ], [ 74.58172, 13.92528 ], [ 74.58007, 13.9254 ], [ 74.57823, 13.92675 ], [ 74.57368, 13.93836 ], [ 74.56921, 13.94678 ], [ 74.56718, 13.9488 ], [ 74.56457, 13.94736 ], [ 74.56352, 13.94577 ], [ 74.56132, 13.94541 ], [ 74.56015, 13.94635 ], [ 74.56031, 13.94822 ], [ 74.55717, 13.95134 ], [ 74.55349, 13.9496 ], [ 74.54929, 13.94915 ], [ 74.54731, 13.9535 ], [ 74.54728, 13.95529 ], [ 74.54202, 13.95729 ], [ 74.54145, 13.96004 ], [ 74.53901, 13.96439 ], [ 74.53474, 13.96781 ], [ 74.53436, 13.96463 ], [ 74.5336, 13.96414 ], [ 74.53245, 13.96482 ], [ 74.53177, 13.96798 ], [ 74.52841, 13.97251 ], [ 74.52537, 13.97458 ], [ 74.51741, 13.98452 ], [ 74.51664, 13.98431 ], [ 74.51398, 13.98686 ], [ 74.51286, 13.99649 ], [ 74.509, 14.00111 ], [ 74.50993, 14.0017 ], [ 74.50916, 14.00765 ], [ 74.50601, 14.01556 ], [ 74.50136, 14.02335 ], [ 74.50299, 14.02688 ], [ 74.50261, 14.02798 ], [ 74.50073, 14.02915 ], [ 74.50065, 14.04463 ], [ 74.49553, 14.06315 ], [ 74.49257, 14.0782 ], [ 74.48855, 14.08661 ], [ 74.48826, 14.09158 ], [ 74.48567, 14.09447 ], [ 74.48695, 14.10099 ], [ 74.48669, 14.10516 ], [ 74.48507, 14.11088 ], [ 74.48334, 14.12344 ], [ 74.47955, 14.13743 ], [ 74.48174, 14.13908 ], [ 74.48454, 14.13906 ], [ 74.48511, 14.13984 ], [ 74.48709, 14.1395 ], [ 74.48701, 14.14086 ], [ 74.48581, 14.14116 ], [ 74.48698, 14.14164 ], [ 74.48678, 14.14321 ], [ 74.48755, 14.14425 ], [ 74.48773, 14.1419 ], [ 74.48835, 14.14273 ], [ 74.49031, 14.14269 ], [ 74.49203, 14.14027 ], [ 74.49581, 14.14113 ], [ 74.49485, 14.14206 ], [ 74.49651, 14.14181 ], [ 74.49608, 14.14263 ], [ 74.49686, 14.14331 ], [ 74.4973, 14.14181 ], [ 74.50126, 14.14429 ], [ 74.50221, 14.14158 ], [ 74.50304, 14.14151 ], [ 74.50222, 14.14468 ], [ 74.50287, 14.14521 ], [ 74.50405, 14.14326 ], [ 74.50594, 14.14369 ], [ 74.50567, 14.14199 ], [ 74.50642, 14.14085 ], [ 74.50454, 14.14078 ], [ 74.50364, 14.14177 ], [ 74.50391, 14.1411 ], [ 74.49738, 14.13727 ], [ 74.4973, 14.13114 ], [ 74.50036, 14.12451 ], [ 74.50585, 14.12332 ], [ 74.50657, 14.12406 ], [ 74.51654, 14.12506 ], [ 74.51841, 14.12262 ], [ 74.51622, 14.11319 ], [ 74.51921, 14.11325 ], [ 74.52746, 14.10882 ], [ 74.5343, 14.10957 ], [ 74.5355, 14.1059 ], [ 74.53661, 14.1083 ], [ 74.53649, 14.10994 ], [ 74.53764, 14.11071 ], [ 74.54087, 14.10835 ], [ 74.55389, 14.10746 ], [ 74.55502, 14.11284 ], [ 74.55483, 14.11725 ], [ 74.55401, 14.11918 ], [ 74.55238, 14.12003 ], [ 74.55246, 14.12093 ], [ 74.55333, 14.12107 ], [ 74.55178, 14.12233 ], [ 74.55227, 14.12347 ], [ 74.54986, 14.1287 ], [ 74.55214, 14.13398 ], [ 74.55316, 14.13331 ], [ 74.55673, 14.135 ], [ 74.5675, 14.14372 ], [ 74.58331, 14.14889 ], [ 74.58721, 14.14858 ], [ 74.59567, 14.14986 ], [ 74.62187, 14.14928 ], [ 74.62703, 14.15814 ], [ 74.6292, 14.1441 ] ] ] ] } },
{ "type": "Feature", "properties": { "OBJECTID": 2933, "state_lgd": "29", "state_name": "KARNATAKA", "district_lgd": "563", "district_name": "UTTARA KANNADA", "district_name_source": "district_table", "subdistrict_lgd": "05480", "subdistrict_name": "HALIYAL", "subdistrict_type": "Taluk", "name_corrupted": false, "remarks": "", "label_lon": 74.775355364174246, "label_lat": 15.260857762966223 }, "geometry": { "type": "Polygon", "coordinates": [ [ [ 74.76288, 15.4164 ], [ 74.76823, 15.41719 ], [ 74.76781, 15.41625 ], [ 74.76879, 15.41511 ], [ 74.76768, 15.41082 ], [ 74.77059, 15.40856 ], [ 74.77034, 15.40702 ], [ 74.76454, 15.40158 ], [ 74.76555, 15.39833 ], [ 74.76709, 15.39976 ], [ 74.76627, 15.40052 ], [ 74.76855, 15.40043 ], [ 74.76928, 15.40145 ], [ 74.77071, 15.39963 ], [ 74.78159, 15.39425 ], [ 74.78224, 15.39119 ], [ 74.78541, 15.38513 ], [ 74.79227, 15.37877 ], [ 74.79531, 15.37768 ], [ 74.79875, 15.37758 ], [ 74.80971, 15.37934 ], [ 74.81143, 15.38115 ], [ 74.82017, 15.38523 ], [ 74.82554, 15.37821 ], [ 74.83058, 15.37346 ], [ 74.82373, 15.37319 ], [ 74.81902, 15.3708 ], [ 74.82457, 15.35481 ], [ 74.82574, 15.3496 ], [ 74.82477, 15.34913 ], [ 74.82533, 15.34524 ], [ 74.83213, 15.33646 ], [ 74.83565, 15.33471 ], [ 74.83903, 15.33596 ], [ 74.84485, 15.33597 ], [ 74.84727, 15.33791 ], [ 74.84777, 15.34015 ], [ 74.85041, 15.33977 ], [ 74.85482, 15.3405 ], [ 74.86106, 15.32759 ], [ 74.87746, 15.31704 ], [ 74.8756, 15.31602 ], [ 74.87761, 15.31404 ], [ 74.87719, 15.31254 ], [ 74.87801, 15.30874 ], [ 74.875, 15.30016 ], [ 74.88142, 15.29808 ], [ 74.88536, 15.29995 ], [ 74.88931, 15.30463 ], [ 74.8922, 15.3028 ], [ 74.89447, 15.2991 ], [ 74.89711, 15.30131 ], [ 74.90619, 15.27991 ], [ 74.90623, 15.2773 ], [ 74.90862, 15.26849 ], [ 74.90854, 15.26078 ], [ 74.91021, 15.25183 ], [ 74.90161, 15.24507 ], [ 74.89878, 15.2411 ], [ 74.88514, 15.23283 ], [ 74.88472, 15.2277 ], [ 74.882, 15.22407 ], [ 74.87433, 15.21652 ], [ 74.87238, 15.21616 ], [ 74.87541, 15.2053 ], [ 74.87384, 15.20422 ], [ 74.87753, 15.19304 ], [ 74.87116, 15.19073 ], [ 74.8712, 15.1913 ], [ 74.86947, 15.18866 ], [ 74.86481, 15.18655 ], [ 74.86564, 15.18498 ], [ 74.86433, 15.18411 ], [ 74.86516, 15.18228 ], [ 74.86242, 15.18216 ], [ 74.86256, 15.17878 ], [ 74.85409, 15.17432 ], [ 74.85014, 15.17106 ], [ 74.84816, 15.16637 ], [ 74.84811, 15.16274 ], [ 74.84445, 15.1607 ], [ 74.84361, 15.15843 ], [ 74.84147, 15.15684 ], [ 74.84262, 15.15532 ], [ 74.83622, 15.15057 ], [ 74.83502, 15.14874 ], [ 74.8377, 15.14574 ], [ 74.83793, 15.14405 ], [ 74.83604, 15.14237 ], [ 74.83346, 15.14251 ], [ 74.82895, 15.13968 ], [ 74.82904, 15.1364 ], [ 74.8248, 15.13458 ], [ 74.82239, 15.13851 ], [ 74.81928, 15.14069 ], [ 74.81948, 15.1414 ], [ 74.82241, 15.14244 ], [ 74.82344, 15.14413 ], [ 74.82231, 15.1455 ], [ 74.82012, 15.14587 ], [ 74.81984, 15.14954 ], [ 74.82105, 15.15158 ], [ 74.81927, 15.15346 ], [ 74.81264, 15.15406 ], [ 74.81109, 15.15125 ], [ 74.80746, 15.15034 ], [ 74.80481, 15.15081 ], [ 74.80254, 15.14921 ], [ 74.7974, 15.14846 ], [ 74.79301, 15.14634 ], [ 74.79284, 15.14499 ], [ 74.79465, 15.14173 ], [ 74.79482, 15.13947 ], [ 74.79285, 15.13659 ], [ 74.7933, 15.13195 ], [ 74.79259, 15.13082 ], [ 74.78939, 15.12994 ], [ 74.78174, 15.13197 ], [ 74.78193, 15.12863 ], [ 74.78482, 15.12164 ], [ 74.78457, 15.11688 ], [ 74.78272, 15.11523 ], [ 74.78241, 15.11143 ], [ 74.77512, 15.10291 ], [ 74.77398, 15.0998 ], [ 74.77028, 15.10133 ], [ 74.76614, 15.10179 ], [ 74.76245, 15.10024 ], [ 74.75951, 15.1001 ], [ 74.75855, 15.102 ], [ 74.75399, 15.10292 ], [ 74.7527, 15.09984 ], [ 74.7534, 15.09596 ], [ 74.75197, 15.09227 ], [ 74.74992, 15.09172 ], [ 74.74938, 15.09004 ], [ 74.74457, 15.08529 ], [ 74.7432, 15.08464 ], [ 74.74121, 15.08503 ], [ 74.73809, 15.08864 ], [ 74.735, 15.08873 ], [ 74.73307, 15.08971 ], [ 74.73153, 15.08718 ], [ 74.73134, 15.08316 ], [ 74.72457, 15.08407 ], [ 74.72158, 15.08185 ], [ 74.71756, 15.08078 ], [ 74.71071, 15.0874 ], [ 74.69914, 15.10678 ], [ 74.6891, 15.13855 ], [ 74.70102, 15.1424 ], [ 74.70055, 15.14129 ], [ 74.71658, 15.14086 ], [ 74.71727, 15.14115 ], [ 74.71582, 15.14544 ], [ 74.71755, 15.14952 ], [ 74.71858, 15.1488 ], [ 74.75651, 15.15812 ], [ 74.75707, 15.16173 ], [ 74.75968, 15.16475 ], [ 74.75933, 15.17311 ], [ 74.73884, 15.17705 ], [ 74.73005, 15.17435 ], [ 74.72407, 15.17738 ], [ 74.7226, 15.17929 ], [ 74.70758, 15.18487 ], [ 74.69795, 15.19437 ], [ 74.70079, 15.20279 ], [ 74.68903, 15.20442 ], [ 74.67985, 15.21567 ], [ 74.68797, 15.22245 ], [ 74.68373, 15.24318 ], [ 74.68542, 15.24493 ], [ 74.68712, 15.24498 ], [ 74.68777, 15.24715 ], [ 74.68924, 15.24706 ], [ 74.69697, 15.25507 ], [ 74.69633, 15.26194 ], [ 74.6974, 15.26966 ], [ 74.6886, 15.27015 ], [ 74.69187, 15.27642 ], [ 74.69638, 15.27627 ], [ 74.69677, 15.27823 ], [ 74.69889, 15.27975 ], [ 74.69825, 15.29147 ], [ 74.69695, 15.29883 ], [ 74.70052, 15.2988 ], [ 74.70555, 15.30612 ], [ 74.71314, 15.31109 ], [ 74.70875, 15.31325 ], [ 74.70707, 15.31744 ], [ 74.70711, 15.31877 ], [ 74.71002, 15.32002 ], [ 74.70629, 15.31962 ], [ 74.70355, 15.31838 ], [ 74.70002, 15.31842 ], [ 74.69663, 15.31646 ], [ 74.69146, 15.31578 ], [ 74.66852, 15.31592 ], [ 74.65782, 15.32557 ], [ 74.65402, 15.34074 ], [ 74.65648, 15.3402 ], [ 74.66692, 15.3439 ], [ 74.66851, 15.34336 ], [ 74.67486, 15.34535 ], [ 74.67129, 15.36473 ], [ 74.66923, 15.36492 ], [ 74.66639, 15.36752 ], [ 74.67873, 15.38435 ], [ 74.67741, 15.38707 ], [ 74.68234, 15.39022 ], [ 74.6846, 15.39427 ], [ 74.68914, 15.39869 ], [ 74.69198, 15.40336 ], [ 74.69856, 15.4098 ], [ 74.70626, 15.40727 ], [ 74.71754, 15.41111 ], [ 74.7267, 15.41033 ], [ 74.72844, 15.40892 ], [ 74.73189, 15.40798 ], [ 74.73649, 15.40891 ], [ 74.73893, 15.41098 ], [ 74.7457, 15.41263 ], [ 74.74837, 15.41057 ], [ 74.7574, 15.41105 ], [ 74.76036, 15.41399 ], [ 74.7616, 15.41408 ], [ 74.76288, 15.4164 ] ] ] } },
{ "type": "Feature", "properties": { "OBJECTID": 2934, "state_lgd": "29", "state_name": "KARNATAKA", "district_lgd": "563", "district_name": "UTTARA KANNADA", "district_name_source": "district_table", "subdistrict_lgd": "06823", "subdistrict_name": "DANDELLI", "subdistrict_type": "Taluk", "name_corrupted": false, "remarks": "", "label_lon": 74.656163308718448, "label_lat": 15.236200558900277 }, "geometry": { "type": "Polygon", "coordinates": [ [ [ 74.6846, 15.39427 ], [ 74.68234, 15.39022 ], [ 74.67741, 15.38707 ], [ 74.67873, 15.38435 ], [ 74.66639, 15.36752 ], [ 74.66923, 15.36492 ], [ 74.67129, 15.36473 ], [ 74.67486, 15.34535 ], [ 74.66851, 15.34336 ], [ 74.66692, 15.3439 ], [ 74.65648, 15.3402 ], [ 74.65402, 15.34074 ], [ 74.65782, 15.32557 ], [ 74.669, 15.31585 ], [ 74.69146, 15.31578 ], [ 74.69663, 15.31646 ], [ 74.70002, 15.31842 ], [ 74.70355, 15.31838 ], [ 74.70629, 15.31962 ], [ 74.71002, 15.32002 ], [ 74.70711, 15.31877 ], [ 74.70707, 15.31744 ], [ 74.70875, 15.31325 ], [ 74.71314, 15.31109 ], [ 74.70555, 15.30612 ], [ 74.70052, 15.2988 ], [ 74.69695, 15.29883 ], [ 74.69825, 15.29147 ], [ 74.69889, 15.27975 ], [ 74.69677, 15.27823 ], [ 74.69638, 15.27627 ], [ 74.69187, 15.27642 ], [ 74.6886, 15.27015 ], [ 74.6974, 15.26966 ], [ 74.69633, 15.26194 ], [ 74.69697, 15.25507 ], [ 74.68924, 15.24706 ], [ 74.68777, 15.24715 ], [ 74.68712, 15.24498 ], [ 74.68542, 15.24493 ], [ 74.68373, 15.24318 ], [ 74.68797, 15.22245 ], [ 74.67985, 15.21567 ], [ 74.68903, 15.20442 ], [ 74.70079, 15.20279 ], [ 74.69795, 15.19437 ], [ 74.70758, 15.18487 ], [ 74.7226, 15.17929 ], [ 74.72407, 15.17738 ], [ 74.73005, 15.17435 ], [ 74.73884, 15.17705 ], [ 74.75933, 15.17311 ], [ 74.75973, 15.16511 ], [ 74.75631, 15.1601 ], [ 74.75651, 15.15812 ], [ 74.71858, 15.1488 ], [ 74.71755, 15.14952 ], [ 74.71582, 15.14544 ], [ 74.71727, 15.14115 ], [ 74.71658, 15.14086 ], [ 74.70055, 15.14129 ], [ 74.70102, 15.1424 ], [ 74.6891, 15.13855 ], [ 74.69914, 15.10678 ], [ 74.70068, 15.10454 ], [ 74.69479, 15.09782 ], [ 74.69133, 15.09721 ], [ 74.68818, 15.09822 ], [ 74.68302, 15.0929 ], [ 74.67792, 15.09556 ], [ 74.67666, 15.09773 ], [ 74.67457, 15.09809 ], [ 74.66212, 15.09009 ], [ 74.65031, 15.07954 ], [ 74.64744, 15.07797 ], [ 74.64027, 15.08273 ], [ 74.64025, 15.09402 ], [ 74.6385, 15.11335 ], [ 74.62862, 15.14121 ], [ 74.62744, 15.15722 ], [ 74.6236, 15.16482 ], [ 74.62553, 15.18674 ], [ 74.62583, 15.20186 ], [ 74.62407, 15.20937 ], [ 74.61741, 15.22529 ], [ 74.61638, 15.23216 ], [ 74.6151, 15.23258 ], [ 74.6141, 15.23182 ], [ 74.61202, 15.23341 ], [ 74.61153, 15.23725 ], [ 74.60967, 15.23879 ], [ 74.61024, 15.23949 ], [ 74.60895, 15.24017 ], [ 74.60608, 15.24535 ], [ 74.60608, 15.24826 ], [ 74.60369, 15.2523 ], [ 74.60046, 15.25556 ], [ 74.601, 15.25615 ], [ 74.60017, 15.25689 ], [ 74.59967, 15.25631 ], [ 74.59875, 15.25714 ], [ 74.59578, 15.25668 ], [ 74.59566, 15.25724 ], [ 74.5979, 15.2616 ], [ 74.5979, 15.26551 ], [ 74.60208, 15.27064 ], [ 74.60283, 15.27567 ], [ 74.60546, 15.2774 ], [ 74.6051, 15.28151 ], [ 74.60698, 15.28377 ], [ 74.60445, 15.28827 ], [ 74.60581, 15.29098 ], [ 74.60541, 15.2925 ], [ 74.60479, 15.29365 ], [ 74.58139, 15.29357 ], [ 74.58122, 15.29415 ], [ 74.57806, 15.29307 ], [ 74.5733, 15.29468 ], [ 74.57198, 15.29523 ], [ 74.56449, 15.30773 ], [ 74.56543, 15.30809 ], [ 74.57211, 15.31747 ], [ 74.59354, 15.32259 ], [ 74.59614, 15.32192 ], [ 74.60091, 15.32509 ], [ 74.6008, 15.32739 ], [ 74.59864, 15.32897 ], [ 74.60056, 15.33056 ], [ 74.59988, 15.33223 ], [ 74.60076, 15.33309 ], [ 74.60087, 15.33511 ], [ 74.60374, 15.33759 ], [ 74.60437, 15.33953 ], [ 74.60575, 15.33962 ], [ 74.60818, 15.34303 ], [ 74.60924, 15.34681 ], [ 74.61182, 15.34821 ], [ 74.61332, 15.35082 ], [ 74.61431, 15.3554 ], [ 74.6138, 15.35929 ], [ 74.63507, 15.3682 ], [ 74.63849, 15.37317 ], [ 74.63871, 15.37536 ], [ 74.64186, 15.38267 ], [ 74.64905, 15.39058 ], [ 74.66638, 15.39314 ], [ 74.68914, 15.39869 ], [ 74.6846, 15.39427 ] ] ] } },
{ "type": "Feature", "properties": { "OBJECTID": 2935, "state_lgd": "29", "state_name": "KARNATAKA", "district_lgd": "563", "district_name": "UTTARA KANNADA", "district_name_source": "district_table", "subdistrict_lgd": "05487", "subdistrict_name": "HONNAVAR", "subdistrict_type": "Taluk", "name_corrupted": false, "remarks": "", "label_lon": 74.561342161423639, "label_lat": 14.266358283508296 }, "geometry": { "type": "MultiPolygon", "coordinates": [ [ [ [ 74.49046, 14.43293 ], [ 74.49464, 14.4313 ], [ 74.49555, 14.4292 ], [ 74.49547, 14.42637 ], [ 74.50109, 14.41601 ], [ 74.50457, 14.41603 ], [ 74.51506, 14.42822 ], [ 74.51743, 14.42728 ], [ 74.51984, 14.4282 ], [ 74.53272, 14.42648 ], [ 74.53049, 14.42025 ], [ 74.53022, 14.41696 ], [ 74.53484, 14.40888 ], [ 74.54065, 14.40828 ], [ 74.54507, 14.40418 ], [ 74.55658, 14.40108 ], [ 74.56326, 14.39724 ], [ 74.56342, 14.39471 ], [ 74.5618, 14.39133 ], [ 74.54733, 14.36677 ], [ 74.54838, 14.36398 ], [ 74.56301, 14.36236 ], [ 74.56575, 14.36329 ], [ 74.57809, 14.37102 ], [ 74.58591, 14.37363 ], [ 74.58518, 14.37624 ], [ 74.60496, 14.37253 ], [ 74.61457, 14.37179 ], [ 74.6278, 14.37415 ], [ 74.6388, 14.38229 ], [ 74.66387, 14.38809 ], [ 74.66043, 14.38631 ], [ 74.64603, 14.37244 ], [ 74.64861, 14.36661 ], [ 74.62209, 14.34137 ], [ 74.61988, 14.34012 ], [ 74.61961, 14.33867 ], [ 74.63277, 14.32974 ], [ 74.63398, 14.33125 ], [ 74.64696, 14.31989 ], [ 74.65888, 14.32622 ], [ 74.66175, 14.32324 ], [ 74.66011, 14.32245 ], [ 74.67217, 14.30846 ], [ 74.6808, 14.30752 ], [ 74.68173, 14.30828 ], [ 74.70333, 14.30283 ], [ 74.70402, 14.30356 ], [ 74.72127, 14.28818 ], [ 74.72583, 14.27768 ], [ 74.72582, 14.27627 ], [ 74.71784, 14.26873 ], [ 74.72734, 14.26735 ], [ 74.73153, 14.26475 ], [ 74.71238, 14.23477 ], [ 74.71261, 14.23295 ], [ 74.72613, 14.1738 ], [ 74.74757, 14.15687 ], [ 74.74907, 14.1421 ], [ 74.74698, 14.14137 ], [ 74.74467, 14.14643 ], [ 74.74557, 14.14661 ], [ 74.74462, 14.14749 ], [ 74.74533, 14.14814 ], [ 74.74474, 14.14923 ], [ 74.72083, 14.15442 ], [ 74.70904, 14.16728 ], [ 74.70068, 14.16978 ], [ 74.69936, 14.1679 ], [ 74.69384, 14.17021 ], [ 74.6958, 14.17282 ], [ 74.66477, 14.183 ], [ 74.65273, 14.16733 ], [ 74.65047, 14.16973 ], [ 74.62975, 14.16393 ], [ 74.62187, 14.14928 ], [ 74.59567, 14.14986 ], [ 74.58721, 14.14858 ], [ 74.58331, 14.14889 ], [ 74.5675, 14.14372 ], [ 74.55673, 14.135 ], [ 74.55316, 14.13331 ], [ 74.55214, 14.13398 ], [ 74.54986, 14.1287 ], [ 74.55227, 14.12347 ], [ 74.55178, 14.12233 ], [ 74.55333, 14.12107 ], [ 74.55246, 14.12093 ], [ 74.55238, 14.12003 ], [ 74.55401, 14.11918 ], [ 74.55483, 14.11725 ], [ 74.55502, 14.11284 ], [ 74.55389, 14.10746 ], [ 74.54087, 14.10835 ], [ 74.53764, 14.11071 ], [ 74.53649, 14.10994 ], [ 74.53661, 14.1083 ], [ 74.5355, 14.1059 ], [ 74.5343, 14.10957 ], [ 74.52746, 14.10882 ], [ 74.51921, 14.11325 ], [ 74.51622, 14.11319 ], [ 74.51841, 14.12262 ], [ 74.51654, 14.12506 ], [ 74.50657, 14.12406 ], [ 74.50585, 14.12332 ], [ 74.50036, 14.12451 ], [ 74.4973, 14.13114 ], [ 74.49738, 14.13727 ], [ 74.50391, 14.1411 ], [ 74.50364, 14.14177 ], [ 74.50454, 14.14078 ], [ 74.50642, 14.14085 ], [ 74.50567, 14.14199 ], [ 74.50594, 14.14369 ], [ 74.50405, 14.14326 ], [ 74.50318, 14.14511 ], [ 74.50222, 14.14468 ], [ 74.50315, 14.14224 ], [ 74.50272, 14.1414 ], [ 74.50126, 14.14429 ], [ 74.4973, 14.14181 ], [ 74.49686, 14.14331 ], [ 74.49608, 14.14263 ], [ 74.49651, 14.14181 ], [ 74.49485, 14.14206 ], [ 74.49581, 14.14113 ], [ 74.49203, 14.14027 ], [ 74.49031, 14.14269 ], [ 74.48835, 14.14273 ], [ 74.48773, 14.1419 ], [ 74.48755, 14.14425 ], [ 74.48678, 14.14321 ], [ 74.48698, 14.14164 ], [ 74.48581, 14.14116 ], [ 74.48701, 14.14086 ], [ 74.48709, 14.1395 ], [ 74.48511, 14.13984 ], [ 74.48454, 14.13906 ], [ 74.48174, 14.13908 ], [ 74.47955, 14.13743 ], [ 74.47852, 14.13981 ], [ 74.47715, 14.14007 ], [ 74.47896, 14.1438 ], [ 74.47047, 14.18262 ], [ 74.46641, 14.19671 ], [ 74.46503, 14.19951 ], [ 74.46236, 14.20119 ], [ 74.46045, 14.20103 ], [ 74.4577, 14.19908 ], [ 74.45585, 14.20023 ], [ 74.45359, 14.20013 ], [ 74.45327, 14.20121 ], [ 74.45425, 14.20311 ], [ 74.45296, 14.20368 ], [ 74.45291, 14.20717 ], [ 74.4504, 14.20856 ], [ 74.45061, 14.21179 ], [ 74.44891, 14.21257 ], [ 74.45005, 14.21454 ], [ 74.44959, 14.21616 ], [ 74.44807, 14.21709 ], [ 74.44839, 14.21816 ], [ 74.44716, 14.21937 ], [ 74.44417, 14.22061 ], [ 74.44377, 14.22281 ], [ 74.44165, 14.22457 ], [ 74.44289, 14.22704 ], [ 74.44304, 14.22988 ], [ 74.42282, 14.28897 ], [ 74.41858, 14.30459 ], [ 74.41295, 14.31727 ], [ 74.41265, 14.32845 ], [ 74.40856, 14.34482 ], [ 74.4136, 14.34539 ], [ 74.41274, 14.34794 ], [ 74.41525, 14.35381 ], [ 74.41678, 14.35443 ], [ 74.4186, 14.35326 ], [ 74.42151, 14.35441 ], [ 74.42442, 14.35936 ], [ 74.42481, 14.36169 ], [ 74.42635, 14.36261 ], [ 74.42677, 14.36712 ], [ 74.42847, 14.36923 ], [ 74.42916, 14.37209 ], [ 74.43044, 14.37293 ], [ 74.43498, 14.37354 ], [ 74.43705, 14.37503 ], [ 74.43754, 14.37637 ], [ 74.43695, 14.37721 ], [ 74.43511, 14.37638 ], [ 74.43439, 14.377 ], [ 74.43468, 14.37889 ], [ 74.43946, 14.38312 ], [ 74.44185, 14.38318 ], [ 74.44393, 14.38164 ], [ 74.44675, 14.38347 ], [ 74.44825, 14.38305 ], [ 74.4482, 14.38217 ], [ 74.44916, 14.38171 ], [ 74.45061, 14.38222 ], [ 74.45046, 14.38336 ], [ 74.45372, 14.3822 ], [ 74.45454, 14.38434 ], [ 74.45806, 14.38213 ], [ 74.46133, 14.3831 ], [ 74.46091, 14.38543 ], [ 74.46304, 14.38589 ], [ 74.46372, 14.3876 ], [ 74.4655, 14.38903 ], [ 74.46474, 14.39098 ], [ 74.46501, 14.39499 ], [ 74.4724, 14.39851 ], [ 74.47889, 14.41077 ], [ 74.47646, 14.41343 ], [ 74.47876, 14.4155 ], [ 74.47654, 14.41745 ], [ 74.47792, 14.41823 ], [ 74.47722, 14.41916 ], [ 74.47711, 14.42264 ], [ 74.47929, 14.42653 ], [ 74.48165, 14.43013 ], [ 74.48718, 14.42865 ], [ 74.48743, 14.42981 ], [ 74.48672, 14.43049 ], [ 74.48746, 14.43067 ], [ 74.48809, 14.43261 ], [ 74.48953, 14.432 ], [ 74.49046, 14.43293 ] ] ], [ [ [ 74.40529, 14.31382 ], [ 74.40076, 14.31206 ], [ 74.39776, 14.31291 ], [ 74.40228, 14.31568 ], [ 74.40388, 14.31536 ], [ 74.40529, 14.31382 ] ] ] ] } },
{ "type": "Feature", "properties": { "OBJECTID": 2936, "state_lgd": "29", "state_name": "KARNATAKA", "district_lgd": "563", "district_name": "UTTARA KANNADA", "district_name_source": "district_table", "subdistrict_lgd": "05478", "subdistrict_name": "KARWAR", "subdistrict_type": "Taluk", "name_corrupted": false, "remarks": "", "label_lon": 74.28308685829559, "label_lat": 14.872644909877886 }, "geometry": { "type": "MultiPolygon", "coordinates": [ [ [ [ 74.12764, 14.75811 ], [ 74.12975, 14.7584 ], [ 74.12929, 14.75749 ], [ 74.12764, 14.75811 ] ] ], [ [ [ 74.08722, 14.79267 ], [ 74.0868, 14.79296 ], [ 74.08709, 14.79309 ], [ 74.08722, 14.79267 ] ] ], [ [ [ 74.07217, 14.81897 ], [ 74.07055, 14.81953 ], [ 74.07029, 14.82 ], [ 74.07217, 14.81897 ] ] ], [ [ [ 74.06655, 14.81996 ], [ 74.06642, 14.82037 ], [ 74.06663, 14.82036 ], [ 74.06655, 14.81996 ] ] ], [ [ [ 74.11165, 14.84523 ], [ 74.11305, 14.84234 ], [ 74.10947, 14.84288 ], [ 74.10824, 14.84238 ], [ 74.10728, 14.84347 ], [ 74.11009, 14.84577 ], [ 74.11034, 14.8451 ], [ 74.11165, 14.84523 ] ] ], [ [ [ 74.10775, 14.86555 ], [ 74.10661, 14.86484 ], [ 74.10628, 14.86541 ], [ 74.10775, 14.86555 ] ] ], [ [ [ 74.10192, 14.87825 ], [ 74.10173, 14.8763 ], [ 74.10002, 14.87675 ], [ 74.10192, 14.87825 ] ] ], [ [ [ 74.09544, 14.87984 ], [ 74.09415, 14.87983 ], [ 74.0945, 14.88035 ], [ 74.09544, 14.87984 ] ] ], [ [ [ 74.14919, 14.72478 ], [ 74.14851, 14.72504 ], [ 74.14857, 14.72521 ], [ 74.14919, 14.72478 ] ] ], [ [ [ 74.14699, 14.72648 ], [ 74.14851, 14.72524 ], [ 74.14585, 14.72541 ], [ 74.14699, 14.72648 ] ] ], [ [ [ 74.16474, 14.73402 ], [ 74.16409, 14.73413 ], [ 74.16465, 14.73531 ], [ 74.16517, 14.73508 ], [ 74.16474, 14.73402 ] ] ], [ [ [ 74.22925, 14.74071 ], [ 74.2292, 14.74085 ], [ 74.22929, 14.7408 ], [ 74.22925, 14.74071 ] ] ], [ [ [ 74.15677, 14.73679 ], [ 74.15548, 14.73847 ], [ 74.15239, 14.74002 ], [ 74.15339, 14.74221 ], [ 74.15808, 14.73873 ], [ 74.15677, 14.73679 ] ] ], [ [ [ 74.25583, 14.74438 ], [ 74.25409, 14.74461 ], [ 74.2543, 14.74576 ], [ 74.25621, 14.74542 ], [ 74.25583, 14.74438 ] ] ], [ [ [ 74.14561, 14.76309 ], [ 74.1463, 14.76018 ], [ 74.14325, 14.75831 ], [ 74.13844, 14.76086 ], [ 74.13908, 14.76312 ], [ 74.14561, 14.76309 ] ] ], [ [ [ 74.30849, 15.02065 ], [ 74.30869, 15.01628 ], [ 74.31313, 14.99331 ], [ 74.31621, 14.99045 ], [ 74.32732, 14.991 ], [ 74.33345, 14.97159 ], [ 74.3382, 14.96716 ], [ 74.33477, 14.95982 ], [ 74.34516, 14.94865 ], [ 74.3604, 14.94702 ], [ 74.36502, 14.94539 ], [ 74.3655, 14.9404 ], [ 74.36932, 14.92536 ], [ 74.38746, 14.92537 ], [ 74.39925, 14.90508 ], [ 74.40606, 14.91956 ], [ 74.42264, 14.90827 ], [ 74.42112, 14.92213 ], [ 74.42791, 14.93761 ], [ 74.42973, 14.93779 ], [ 74.44084, 14.95951 ], [ 74.45482, 14.93494 ], [ 74.45594, 14.93646 ], [ 74.45372, 14.93259 ], [ 74.4621, 14.91716 ], [ 74.46181, 14.90495 ], [ 74.46764, 14.89262 ], [ 74.47045, 14.8926 ], [ 74.47662, 14.89423 ], [ 74.48156, 14.89665 ], [ 74.4866, 14.90199 ], [ 74.49231, 14.91394 ], [ 74.49764, 14.91822 ], [ 74.50286, 14.92068 ], [ 74.50912, 14.92108 ], [ 74.51723, 14.92463 ], [ 74.52113, 14.92427 ], [ 74.52746, 14.92168 ], [ 74.52182, 14.90215 ], [ 74.52489, 14.89635 ], [ 74.51375, 14.88267 ], [ 74.50454, 14.88094 ], [ 74.51274, 14.8662 ], [ 74.5116, 14.8607 ], [ 74.5048, 14.8555 ], [ 74.49174, 14.84931 ], [ 74.49487, 14.84644 ], [ 74.47937, 14.83189 ], [ 74.48281, 14.82944 ], [ 74.47562, 14.82626 ], [ 74.4717, 14.81791 ], [ 74.45269, 14.80038 ], [ 74.43436, 14.80822 ], [ 74.41543, 14.82039 ], [ 74.40152, 14.83076 ], [ 74.39323, 14.83529 ], [ 74.38057, 14.8369 ], [ 74.36898, 14.83952 ], [ 74.36117, 14.8399 ], [ 74.34593, 14.84865 ], [ 74.33777, 14.84296 ], [ 74.33757, 14.83776 ], [ 74.32728, 14.82022 ], [ 74.32951, 14.81401 ], [ 74.33279, 14.80819 ], [ 74.3081, 14.80504 ], [ 74.30299, 14.79623 ], [ 74.29336, 14.79363 ], [ 74.29344, 14.78626 ], [ 74.29241, 14.78462 ], [ 74.28547, 14.78115 ], [ 74.27904, 14.7804 ], [ 74.2773, 14.77882 ], [ 74.26784, 14.77762 ], [ 74.26273, 14.77777 ], [ 74.26407, 14.77195 ], [ 74.2612, 14.76925 ], [ 74.26087, 14.76698 ], [ 74.26271, 14.76126 ], [ 74.25751, 14.75218 ], [ 74.2516, 14.74461 ], [ 74.24827, 14.74234 ], [ 74.2483, 14.74103 ], [ 74.23699, 14.74779 ], [ 74.23424, 14.74843 ], [ 74.22676, 14.74798 ], [ 74.22623, 14.74706 ], [ 74.22814, 14.74065 ], [ 74.22712, 14.73853 ], [ 74.22758, 14.73804 ], [ 74.2229, 14.7376 ], [ 74.22181, 14.73611 ], [ 74.22101, 14.73727 ], [ 74.21865, 14.73752 ], [ 74.21038, 14.73358 ], [ 74.20868, 14.7378 ], [ 74.20381, 14.73639 ], [ 74.20276, 14.73466 ], [ 74.20276, 14.73207 ], [ 74.20473, 14.72917 ], [ 74.20843, 14.71764 ], [ 74.20179, 14.72063 ], [ 74.19965, 14.72352 ], [ 74.19708, 14.72503 ], [ 74.19268, 14.72662 ], [ 74.19489, 14.73054 ], [ 74.19307, 14.7346 ], [ 74.185, 14.7444 ], [ 74.17716, 14.75056 ], [ 74.17572, 14.74971 ], [ 74.17557, 14.75105 ], [ 74.17399, 14.75186 ], [ 74.16321, 14.75264 ], [ 74.1598, 14.75153 ], [ 74.15986, 14.75059 ], [ 74.15825, 14.74975 ], [ 74.15866, 14.74713 ], [ 74.15755, 14.74493 ], [ 74.15536, 14.746 ], [ 74.15413, 14.74553 ], [ 74.15211, 14.74706 ], [ 74.15055, 14.75105 ], [ 74.15236, 14.75183 ], [ 74.15339, 14.75589 ], [ 74.15774, 14.75793 ], [ 74.15775, 14.75993 ], [ 74.1535, 14.7663 ], [ 74.14711, 14.77229 ], [ 74.14238, 14.77854 ], [ 74.13715, 14.78018 ], [ 74.13453, 14.77814 ], [ 74.13205, 14.78052 ], [ 74.12812, 14.78055 ], [ 74.12509, 14.77767 ], [ 74.12491, 14.77517 ], [ 74.12275, 14.77524 ], [ 74.12197, 14.77451 ], [ 74.12058, 14.77554 ], [ 74.12029, 14.77427 ], [ 74.11944, 14.77399 ], [ 74.11882, 14.77452 ], [ 74.11881, 14.77738 ], [ 74.12156, 14.78022 ], [ 74.11783, 14.78655 ], [ 74.11521, 14.78839 ], [ 74.11126, 14.78498 ], [ 74.11019, 14.78502 ], [ 74.1102, 14.78831 ], [ 74.11128, 14.78983 ], [ 74.10853, 14.79355 ], [ 74.10471, 14.79263 ], [ 74.10257, 14.79327 ], [ 74.10242, 14.79476 ], [ 74.10028, 14.79788 ], [ 74.09523, 14.79942 ], [ 74.09277, 14.804 ], [ 74.09357, 14.80574 ], [ 74.0945, 14.80607 ], [ 74.10218, 14.80702 ], [ 74.10272, 14.8056 ], [ 74.10433, 14.80449 ], [ 74.10616, 14.80608 ], [ 74.10864, 14.80615 ], [ 74.1105, 14.80473 ], [ 74.11316, 14.80487 ], [ 74.11412, 14.80426 ], [ 74.11422, 14.8023 ], [ 74.11125, 14.79858 ], [ 74.11185, 14.79681 ], [ 74.11334, 14.79679 ], [ 74.11343, 14.79833 ], [ 74.11624, 14.80204 ], [ 74.12055, 14.80132 ], [ 74.12205, 14.80426 ], [ 74.12426, 14.805 ], [ 74.12546, 14.80926 ], [ 74.12618, 14.81693 ], [ 74.12402, 14.83197 ], [ 74.12511, 14.83789 ], [ 74.12479, 14.83955 ], [ 74.12322, 14.8412 ], [ 74.11812, 14.84362 ], [ 74.11603, 14.84379 ], [ 74.11329, 14.84572 ], [ 74.11586, 14.84272 ], [ 74.11493, 14.84168 ], [ 74.11191, 14.84679 ], [ 74.11039, 14.86295 ], [ 74.10843, 14.86626 ], [ 74.10805, 14.86924 ], [ 74.10588, 14.87424 ], [ 74.09967, 14.88075 ], [ 74.09994, 14.88829 ], [ 74.09882, 14.89294 ], [ 74.09647, 14.89745 ], [ 74.09116, 14.89987 ], [ 74.08833, 14.89869 ], [ 74.08503, 14.89984 ], [ 74.08819, 14.90343 ], [ 74.09028, 14.90341 ], [ 74.09453, 14.91099 ], [ 74.10163, 14.91579 ], [ 74.1048, 14.9129 ], [ 74.10732, 14.91418 ], [ 74.10851, 14.91394 ], [ 74.10962, 14.91697 ], [ 74.11276, 14.91773 ], [ 74.11359, 14.91729 ], [ 74.11462, 14.91836 ], [ 74.11998, 14.9169 ], [ 74.1216, 14.91797 ], [ 74.12043, 14.91985 ], [ 74.12422, 14.92532 ], [ 74.12983, 14.92547 ], [ 74.13505, 14.92209 ], [ 74.14015, 14.92323 ], [ 74.14372, 14.92145 ], [ 74.14572, 14.91895 ], [ 74.15342, 14.91714 ], [ 74.15342, 14.91629 ], [ 74.16212, 14.91214 ], [ 74.1662, 14.91655 ], [ 74.16591, 14.91859 ], [ 74.16258, 14.92689 ], [ 74.1595, 14.92842 ], [ 74.15855, 14.93023 ], [ 74.15769, 14.93403 ], [ 74.15678, 14.93457 ], [ 74.15624, 14.93886 ], [ 74.15426, 14.93984 ], [ 74.15547, 14.9422 ], [ 74.15416, 14.94343 ], [ 74.15502, 14.94409 ], [ 74.15533, 14.94648 ], [ 74.15833, 14.94931 ], [ 74.15781, 14.95128 ], [ 74.15872, 14.95212 ], [ 74.1581, 14.95307 ], [ 74.15946, 14.95483 ], [ 74.15915, 14.95585 ], [ 74.16077, 14.95555 ], [ 74.16361, 14.95848 ], [ 74.17035, 14.95796 ], [ 74.17137, 14.95719 ], [ 74.17476, 14.95853 ], [ 74.17946, 14.95705 ], [ 74.17836, 14.95368 ], [ 74.17972, 14.9508 ], [ 74.18146, 14.95052 ], [ 74.18218, 14.94911 ], [ 74.18528, 14.9473 ], [ 74.19126, 14.94501 ], [ 74.19476, 14.93994 ], [ 74.19466, 14.93709 ], [ 74.19166, 14.93304 ], [ 74.20154, 14.92572 ], [ 74.20422, 14.92834 ], [ 74.20913, 14.93806 ], [ 74.21263, 14.94027 ], [ 74.21164, 14.94354 ], [ 74.21367, 14.94769 ], [ 74.21755, 14.94595 ], [ 74.22, 14.94802 ], [ 74.22397, 14.94888 ], [ 74.22596, 14.95045 ], [ 74.2273, 14.9498 ], [ 74.2298, 14.9505 ], [ 74.23175, 14.95337 ], [ 74.23145, 14.9581 ], [ 74.23286, 14.96412 ], [ 74.23496, 14.9646 ], [ 74.2367, 14.96684 ], [ 74.23914, 14.96673 ], [ 74.2414, 14.96432 ], [ 74.24428, 14.96334 ], [ 74.24559, 14.96188 ], [ 74.24755, 14.96192 ], [ 74.24923, 14.95904 ], [ 74.25021, 14.95986 ], [ 74.2526, 14.95909 ], [ 74.25374, 14.96112 ], [ 74.25346, 14.96366 ], [ 74.25527, 14.97042 ], [ 74.2591, 14.97006 ], [ 74.26099, 14.97647 ], [ 74.26432, 14.97852 ], [ 74.2577, 14.98823 ], [ 74.25499, 14.98939 ], [ 74.25212, 14.99268 ], [ 74.25193, 14.99394 ], [ 74.2536, 14.99815 ], [ 74.2595, 15.00051 ], [ 74.26191, 15.00024 ], [ 74.26807, 15.00201 ], [ 74.26664, 15.00412 ], [ 74.26647, 15.00689 ], [ 74.2691, 15.00912 ], [ 74.27245, 15.01425 ], [ 74.28341, 15.02353 ], [ 74.28326, 15.03157 ], [ 74.28824, 15.03674 ], [ 74.29649, 15.04121 ], [ 74.29533, 15.04544 ], [ 74.30281, 15.05035 ], [ 74.30476, 15.05026 ], [ 74.32152, 15.04067 ], [ 74.31791, 15.0337 ], [ 74.32055, 15.02945 ], [ 74.3186, 15.0248 ], [ 74.315, 15.02002 ], [ 74.30849, 15.02065 ] ] ] ] } },
{ "type": "Feature", "properties": { "OBJECTID": 2937, "state_lgd": "29", "state_name": "KARNATAKA", "district_lgd": "563", "district_name": "UTTARA KANNADA", "district_name_source": "district_table", "subdistrict_lgd": "05483", "subdistrict_name": "Sirsi", "subdistrict_type": "Taluk", "name_corrupted": false, "remarks": "", "label_lon": 74.789342389932315, "label_lat": 14.63730217519238 }, "geometry": { "type": "Polygon", "coordinates": [ [ [ 74.73836, 14.83685 ], [ 74.7404, 14.83332 ], [ 74.74509, 14.83298 ], [ 74.75033, 14.82784 ], [ 74.75193, 14.82156 ], [ 74.75112, 14.81968 ], [ 74.75116, 14.81501 ], [ 74.75228, 14.81264 ], [ 74.75353, 14.81254 ], [ 74.75263, 14.81008 ], [ 74.75421, 14.80254 ], [ 74.75361, 14.79843 ], [ 74.75598, 14.79686 ], [ 74.75818, 14.79707 ], [ 74.76058, 14.79617 ], [ 74.76138, 14.78905 ], [ 74.75913, 14.78313 ], [ 74.75964, 14.77555 ], [ 74.76445, 14.77624 ], [ 74.76677, 14.7775 ], [ 74.76792, 14.77715 ], [ 74.76848, 14.77427 ], [ 74.77168, 14.77571 ], [ 74.77319, 14.77112 ], [ 74.77727, 14.7701 ], [ 74.77661, 14.76393 ], [ 74.77886, 14.75951 ], [ 74.77851, 14.7587 ], [ 74.7819, 14.7567 ], [ 74.78458, 14.75213 ], [ 74.79057, 14.75332 ], [ 74.79154, 14.75412 ], [ 74.79185, 14.75627 ], [ 74.7942, 14.75308 ], [ 74.79441, 14.75076 ], [ 74.79588, 14.74961 ], [ 74.79815, 14.74991 ], [ 74.80113, 14.75253 ], [ 74.80245, 14.74994 ], [ 74.80634, 14.75054 ], [ 74.80829, 14.74745 ], [ 74.81033, 14.74641 ], [ 74.81073, 14.74265 ], [ 74.80942, 14.74104 ], [ 74.80977, 14.74003 ], [ 74.81393, 14.73772 ], [ 74.81489, 14.74004 ], [ 74.81813, 14.74225 ], [ 74.81747, 14.7457 ], [ 74.8201, 14.74505 ], [ 74.8224, 14.74685 ], [ 74.82429, 14.74696 ], [ 74.82694, 14.7436 ], [ 74.82651, 14.74155 ], [ 74.82818, 14.74006 ], [ 74.83071, 14.73942 ], [ 74.8325, 14.7403 ], [ 74.83357, 14.74266 ], [ 74.83701, 14.74349 ], [ 74.84641, 14.7479 ], [ 74.84705, 14.73243 ], [ 74.8534, 14.73295 ], [ 74.85443, 14.73505 ], [ 74.85592, 14.73471 ], [ 74.85906, 14.73654 ], [ 74.86178, 14.73712 ], [ 74.86534, 14.73539 ], [ 74.87908, 14.73939 ], [ 74.88434, 14.75022 ], [ 74.88536, 14.74889 ], [ 74.89227, 14.74642 ], [ 74.89527, 14.74919 ], [ 74.90059, 14.74717 ], [ 74.90235, 14.7475 ], [ 74.90964, 14.74599 ], [ 74.91314, 14.74728 ], [ 74.9158, 14.74473 ], [ 74.91771, 14.74555 ], [ 74.91983, 14.74868 ], [ 74.92461, 14.74311 ], [ 74.92869, 14.74189 ], [ 74.93018, 14.73969 ], [ 74.93547, 14.73743 ], [ 74.93941, 14.7381 ], [ 74.94666, 14.73782 ], [ 74.95153, 14.74049 ], [ 74.95415, 14.7378 ], [ 74.95398, 14.73306 ], [ 74.95878, 14.73157 ], [ 74.95905, 14.73085 ], [ 74.96068, 14.73101 ], [ 74.96191, 14.7287 ], [ 74.96397, 14.72886 ], [ 74.96582, 14.72776 ], [ 74.96749, 14.72898 ], [ 74.97009, 14.72892 ], [ 74.9739, 14.72674 ], [ 74.97794, 14.72717 ], [ 74.97883, 14.72453 ], [ 74.97652, 14.72266 ], [ 74.97694, 14.72059 ], [ 74.97555, 14.71965 ], [ 74.97605, 14.71892 ], [ 74.97463, 14.71875 ], [ 74.97315, 14.71739 ], [ 74.97361, 14.71556 ], [ 74.97119, 14.71287 ], [ 74.97195, 14.71195 ], [ 74.96987, 14.71178 ], [ 74.96961, 14.71034 ], [ 74.97037, 14.7095 ], [ 74.96979, 14.70646 ], [ 74.96843, 14.70551 ], [ 74.96743, 14.70326 ], [ 74.97739, 14.6981 ], [ 74.99416, 14.69505 ], [ 74.99731, 14.70436 ], [ 74.99952, 14.70489 ], [ 75.00187, 14.71187 ], [ 75.00536, 14.71615 ], [ 75.00651, 14.71918 ], [ 75.00922, 14.71959 ], [ 75.01166, 14.71809 ], [ 75.01133, 14.7173 ], [ 75.01276, 14.71789 ], [ 75.01363, 14.71699 ], [ 75.01614, 14.718 ], [ 75.01697, 14.71073 ], [ 75.02146, 14.71148 ], [ 75.02463, 14.70833 ], [ 75.03292, 14.71001 ], [ 75.03221, 14.69491 ], [ 75.03361, 14.69027 ], [ 75.03422, 14.68066 ], [ 75.0359, 14.67646 ], [ 75.03063, 14.67251 ], [ 75.03133, 14.66505 ], [ 75.03533, 14.65797 ], [ 75.03908, 14.65854 ], [ 75.03892, 14.6593 ], [ 75.04092, 14.66077 ], [ 75.0428, 14.65914 ], [ 75.04511, 14.65405 ], [ 75.05248, 14.64865 ], [ 75.05044, 14.64665 ], [ 75.05017, 14.64185 ], [ 75.04623, 14.64104 ], [ 75.04226, 14.63894 ], [ 75.04114, 14.63923 ], [ 75.03949, 14.637 ], [ 75.03895, 14.63485 ], [ 75.03696, 14.63325 ], [ 75.03714, 14.63189 ], [ 75.03472, 14.62738 ], [ 75.02745, 14.61597 ], [ 75.02639, 14.60875 ], [ 75.02556, 14.60753 ], [ 75.02405, 14.60777 ], [ 75.0242, 14.60599 ], [ 75.02522, 14.60612 ], [ 75.02569, 14.60504 ], [ 75.02356, 14.6037 ], [ 75.02295, 14.60195 ], [ 75.02318, 14.60124 ], [ 75.02462, 14.60106 ], [ 75.02428, 14.59874 ], [ 75.02553, 14.59647 ], [ 75.02546, 14.59081 ], [ 75.02645, 14.58589 ], [ 75.02787, 14.58468 ], [ 75.02701, 14.5827 ], [ 75.02591, 14.58237 ], [ 75.02605, 14.58133 ], [ 75.02491, 14.58144 ], [ 75.02282, 14.57931 ], [ 75.02557, 14.57692 ], [ 75.02427, 14.57647 ], [ 75.02457, 14.5753 ], [ 75.0237, 14.57478 ], [ 75.02319, 14.57465 ], [ 75.02301, 14.57526 ], [ 75.02288, 14.57539 ], [ 75.02267, 14.57548 ], [ 75.02076, 14.57467 ], [ 75.0207, 14.57132 ], [ 75.02182, 14.56953 ], [ 75.02136, 14.56898 ], [ 75.02223, 14.56577 ], [ 75.02328, 14.56503 ], [ 75.02231, 14.56418 ], [ 75.02385, 14.56353 ], [ 75.02273, 14.56261 ], [ 75.02438, 14.56142 ], [ 75.02391, 14.56072 ], [ 75.02928, 14.56095 ], [ 75.03462, 14.55908 ], [ 75.03746, 14.55369 ], [ 75.0389, 14.55257 ], [ 75.04001, 14.54874 ], [ 75.04437, 14.54576 ], [ 75.05111, 14.54672 ], [ 75.05484, 14.54867 ], [ 75.05704, 14.54602 ], [ 75.06074, 14.54455 ], [ 75.06001, 14.54395 ], [ 75.0602, 14.5428 ], [ 75.05846, 14.54227 ], [ 75.05865, 14.54094 ], [ 75.05548, 14.54038 ], [ 75.05333, 14.53872 ], [ 75.05223, 14.53392 ], [ 75.03771, 14.52872 ], [ 75.0411, 14.52274 ], [ 75.04118, 14.5167 ], [ 75.04212, 14.51531 ], [ 75.0418, 14.50823 ], [ 75.04023, 14.50669 ], [ 75.04078, 14.50012 ], [ 75.03093, 14.50026 ], [ 75.02934, 14.49928 ], [ 75.02624, 14.4992 ], [ 75.02368, 14.49752 ], [ 75.01947, 14.49712 ], [ 75.00644, 14.48805 ], [ 75.00867, 14.48445 ], [ 75.00401, 14.48001 ], [ 74.99546, 14.4773 ], [ 74.9929, 14.47439 ], [ 74.99189, 14.47449 ], [ 74.99108, 14.47289 ], [ 74.98956, 14.47228 ], [ 74.98766, 14.47799 ], [ 74.98793, 14.48066 ], [ 74.98584, 14.48287 ], [ 74.98461, 14.48831 ], [ 74.98761, 14.49083 ], [ 74.99179, 14.49265 ], [ 74.99277, 14.49517 ], [ 74.99118, 14.49498 ], [ 74.99062, 14.49584 ], [ 74.99052, 14.49987 ], [ 74.98817, 14.5057 ], [ 74.98386, 14.50959 ], [ 74.9825, 14.51286 ], [ 74.97938, 14.51334 ], [ 74.97949, 14.51684 ], [ 74.97634, 14.51653 ], [ 74.97365, 14.5174 ], [ 74.97239, 14.51966 ], [ 74.97355, 14.52367 ], [ 74.97455, 14.5245 ], [ 74.97831, 14.52461 ], [ 74.98038, 14.52563 ], [ 74.97788, 14.53355 ], [ 74.97837, 14.54926 ], [ 74.96892, 14.55115 ], [ 74.96225, 14.551 ], [ 74.95566, 14.55467 ], [ 74.95458, 14.55383 ], [ 74.95607, 14.55379 ], [ 74.95574, 14.55117 ], [ 74.95645, 14.55076 ], [ 74.95051, 14.53668 ], [ 74.94511, 14.53296 ], [ 74.94392, 14.53463 ], [ 74.94278, 14.53429 ], [ 74.94386, 14.5319 ], [ 74.94171, 14.52988 ], [ 74.9417, 14.52745 ], [ 74.93902, 14.52634 ], [ 74.94032, 14.52428 ], [ 74.9392, 14.52315 ], [ 74.93765, 14.5187 ], [ 74.93201, 14.52282 ], [ 74.92841, 14.52855 ], [ 74.91228, 14.52862 ], [ 74.90388, 14.53164 ], [ 74.90139, 14.52937 ], [ 74.89122, 14.53527 ], [ 74.88983, 14.53641 ], [ 74.89169, 14.54414 ], [ 74.88504, 14.55463 ], [ 74.87957, 14.55565 ], [ 74.87754, 14.55758 ], [ 74.87387, 14.55883 ], [ 74.87085, 14.55847 ], [ 74.85438, 14.55289 ], [ 74.85008, 14.54958 ], [ 74.84771, 14.54588 ], [ 74.8506, 14.54379 ], [ 74.85152, 14.54122 ], [ 74.85262, 14.54128 ], [ 74.85384, 14.53732 ], [ 74.85564, 14.53874 ], [ 74.86155, 14.53467 ], [ 74.84292, 14.5279 ], [ 74.8433, 14.52669 ], [ 74.84232, 14.52442 ], [ 74.83355, 14.52598 ], [ 74.83124, 14.52788 ], [ 74.82783, 14.52759 ], [ 74.8255, 14.52574 ], [ 74.82413, 14.52344 ], [ 74.82096, 14.52221 ], [ 74.81936, 14.52314 ], [ 74.82054, 14.52874 ], [ 74.82017, 14.52993 ], [ 74.81215, 14.53097 ], [ 74.81307, 14.52751 ], [ 74.81149, 14.52271 ], [ 74.80516, 14.52237 ], [ 74.80375, 14.5197 ], [ 74.80115, 14.52026 ], [ 74.80114, 14.52162 ], [ 74.80265, 14.52284 ], [ 74.79686, 14.52316 ], [ 74.79519, 14.52216 ], [ 74.79411, 14.52268 ], [ 74.79242, 14.52136 ], [ 74.79065, 14.52175 ], [ 74.78896, 14.51841 ], [ 74.78367, 14.51825 ], [ 74.78161, 14.52122 ], [ 74.7818, 14.52256 ], [ 74.78408, 14.52362 ], [ 74.78386, 14.52514 ], [ 74.78138, 14.52425 ], [ 74.77823, 14.52576 ], [ 74.77663, 14.52326 ], [ 74.7731, 14.52329 ], [ 74.77305, 14.52235 ], [ 74.77544, 14.51954 ], [ 74.77309, 14.51801 ], [ 74.76555, 14.51799 ], [ 74.76323, 14.51892 ], [ 74.76226, 14.52263 ], [ 74.75828, 14.52262 ], [ 74.74975, 14.51928 ], [ 74.75054, 14.51701 ], [ 74.74664, 14.5173 ], [ 74.74746, 14.51465 ], [ 74.74353, 14.50449 ], [ 74.74066, 14.50564 ], [ 74.73971, 14.50716 ], [ 74.73361, 14.50981 ], [ 74.73272, 14.50782 ], [ 74.7302, 14.51178 ], [ 74.73167, 14.51558 ], [ 74.73109, 14.51637 ], [ 74.72743, 14.51475 ], [ 74.72526, 14.51273 ], [ 74.7236, 14.51507 ], [ 74.72293, 14.51491 ], [ 74.71984, 14.51194 ], [ 74.71865, 14.51214 ], [ 74.71618, 14.50807 ], [ 74.71086, 14.50552 ], [ 74.70357, 14.50724 ], [ 74.70235, 14.50815 ], [ 74.70284, 14.50859 ], [ 74.70113, 14.51113 ], [ 74.69812, 14.51118 ], [ 74.69716, 14.51307 ], [ 74.69596, 14.51334 ], [ 74.6941, 14.51554 ], [ 74.69263, 14.51262 ], [ 74.69137, 14.51292 ], [ 74.68984, 14.51085 ], [ 74.68756, 14.51032 ], [ 74.68722, 14.50956 ], [ 74.67761, 14.50746 ], [ 74.67613, 14.50798 ], [ 74.6758, 14.5067 ], [ 74.67117, 14.50392 ], [ 74.66059, 14.50499 ], [ 74.66039, 14.50707 ], [ 74.63509, 14.50327 ], [ 74.63593, 14.50207 ], [ 74.63664, 14.47262 ], [ 74.61393, 14.46605 ], [ 74.60892, 14.46775 ], [ 74.59911, 14.47635 ], [ 74.59075, 14.47721 ], [ 74.58066, 14.4827 ], [ 74.58105, 14.48313 ], [ 74.57299, 14.49127 ], [ 74.5715, 14.49653 ], [ 74.56945, 14.50793 ], [ 74.5716, 14.52149 ], [ 74.56873, 14.52681 ], [ 74.57424, 14.53631 ], [ 74.57993, 14.5578 ], [ 74.5828, 14.5589 ], [ 74.58241, 14.56906 ], [ 74.58069, 14.57981 ], [ 74.58288, 14.6021 ], [ 74.57412, 14.60782 ], [ 74.56807, 14.61975 ], [ 74.57534, 14.63525 ], [ 74.57389, 14.63461 ], [ 74.57077, 14.64314 ], [ 74.57856, 14.65326 ], [ 74.57468, 14.67426 ], [ 74.57501, 14.68242 ], [ 74.57324, 14.68555 ], [ 74.57908, 14.6883 ], [ 74.6022, 14.69385 ], [ 74.60724, 14.68934 ], [ 74.60828, 14.69336 ], [ 74.61153, 14.69271 ], [ 74.61264, 14.709 ], [ 74.61731, 14.7262 ], [ 74.61574, 14.72837 ], [ 74.61071, 14.7429 ], [ 74.61219, 14.74309 ], [ 74.61975, 14.75411 ], [ 74.62493, 14.75874 ], [ 74.62991, 14.76529 ], [ 74.6321, 14.776 ], [ 74.65388, 14.78041 ], [ 74.65201, 14.78632 ], [ 74.64458, 14.79826 ], [ 74.63314, 14.80806 ], [ 74.65867, 14.80951 ], [ 74.68069, 14.80954 ], [ 74.70807, 14.81699 ], [ 74.69347, 14.8333 ], [ 74.69931, 14.8341 ], [ 74.71267, 14.83344 ], [ 74.72314, 14.83662 ], [ 74.728, 14.83669 ], [ 74.73388, 14.83829 ], [ 74.73877, 14.83772 ], [ 74.73836, 14.83685 ] ] ] } },
{ "type": "Feature", "properties": { "OBJECTID": 2938, "state_lgd": "29", "state_name": "KARNATAKA", "district_lgd": "563", "district_name": "UTTARA KANNADA", "district_name_source": "district_table", "subdistrict_lgd": "05486", "subdistrict_name": "SIDDAPUR", "subdistrict_type": "Taluk", "name_corrupted": false, "remarks": "", "label_lon": 74.801900317411977, "label_lat": 14.380014992037554 }, "geometry": { "type": "Polygon", "coordinates": [ [ [ 74.89169, 14.54414 ], [ 74.88983, 14.53641 ], [ 74.90139, 14.52937 ], [ 74.90238, 14.51552 ], [ 74.89885, 14.50924 ], [ 74.89545, 14.5083 ], [ 74.89409, 14.49997 ], [ 74.88994, 14.4898 ], [ 74.89058, 14.48537 ], [ 74.88893, 14.48002 ], [ 74.8915, 14.4755 ], [ 74.89368, 14.47368 ], [ 74.8983, 14.47431 ], [ 74.89825, 14.47344 ], [ 74.90769, 14.47117 ], [ 74.91644, 14.46667 ], [ 74.91774, 14.46697 ], [ 74.91871, 14.4611 ], [ 74.92037, 14.45894 ], [ 74.91454, 14.45927 ], [ 74.90888, 14.45787 ], [ 74.89892, 14.46456 ], [ 74.88845, 14.46025 ], [ 74.87779, 14.44966 ], [ 74.87395, 14.44726 ], [ 74.87809, 14.44031 ], [ 74.87807, 14.43589 ], [ 74.88124, 14.43331 ], [ 74.88024, 14.42937 ], [ 74.90948, 14.43164 ], [ 74.91773, 14.43071 ], [ 74.92441, 14.41746 ], [ 74.93365, 14.40369 ], [ 74.94127, 14.40066 ], [ 74.9448, 14.40215 ], [ 74.9492, 14.39883 ], [ 74.94823, 14.39488 ], [ 74.95003, 14.38997 ], [ 74.94942, 14.38702 ], [ 74.95064, 14.38183 ], [ 74.94946, 14.37965 ], [ 74.94931, 14.3761 ], [ 74.94553, 14.37455 ], [ 74.94159, 14.3698 ], [ 74.941, 14.36788 ], [ 74.94015, 14.36793 ], [ 74.93894, 14.35845 ], [ 74.94455, 14.35461 ], [ 74.94439, 14.35404 ], [ 74.94894, 14.35303 ], [ 74.95019, 14.35049 ], [ 74.95242, 14.35142 ], [ 74.95265, 14.3506 ], [ 74.95517, 14.34976 ], [ 74.95898, 14.34221 ], [ 74.96078, 14.34102 ], [ 74.96156, 14.34163 ], [ 74.9744, 14.33815 ], [ 74.97435, 14.33409 ], [ 74.97576, 14.33325 ], [ 74.97413, 14.33169 ], [ 74.97312, 14.32699 ], [ 74.97001, 14.32627 ], [ 74.96959, 14.3255 ], [ 74.97214, 14.32065 ], [ 74.97314, 14.321 ], [ 74.97334, 14.32276 ], [ 74.97713, 14.32148 ], [ 74.97741, 14.32071 ], [ 74.97606, 14.31896 ], [ 74.97317, 14.31813 ], [ 74.97157, 14.31562 ], [ 74.9697, 14.31603 ], [ 74.96836, 14.31484 ], [ 74.96757, 14.31504 ], [ 74.96661, 14.31752 ], [ 74.96479, 14.3175 ], [ 74.9649, 14.31836 ], [ 74.96294, 14.3182 ], [ 74.96132, 14.32202 ], [ 74.95827, 14.32388 ], [ 74.95608, 14.32273 ], [ 74.95665, 14.32039 ], [ 74.95487, 14.31993 ], [ 74.95413, 14.31865 ], [ 74.95232, 14.31849 ], [ 74.95224, 14.31726 ], [ 74.94908, 14.31999 ], [ 74.94589, 14.31822 ], [ 74.94214, 14.31827 ], [ 74.94029, 14.3197 ], [ 74.93881, 14.31974 ], [ 74.93852, 14.3214 ], [ 74.93663, 14.32255 ], [ 74.93391, 14.32054 ], [ 74.93256, 14.32119 ], [ 74.93091, 14.31904 ], [ 74.9306, 14.32044 ], [ 74.92972, 14.32059 ], [ 74.92924, 14.31973 ], [ 74.92458, 14.3191 ], [ 74.92291, 14.31694 ], [ 74.92038, 14.31566 ], [ 74.91585, 14.30797 ], [ 74.91371, 14.30368 ], [ 74.91383, 14.29963 ], [ 74.91146, 14.2972 ], [ 74.90582, 14.29381 ], [ 74.9085, 14.28865 ], [ 74.90854, 14.28638 ], [ 74.90751, 14.2851 ], [ 74.90938, 14.28126 ], [ 74.90994, 14.2777 ], [ 74.91222, 14.276 ], [ 74.9157, 14.27571 ], [ 74.91659, 14.27299 ], [ 74.92371, 14.27821 ], [ 74.92622, 14.27731 ], [ 74.92914, 14.26545 ], [ 74.9284, 14.2646 ], [ 74.93447, 14.26331 ], [ 74.93553, 14.261 ], [ 74.93541, 14.25788 ], [ 74.93664, 14.25566 ], [ 74.9383, 14.25602 ], [ 74.93932, 14.25537 ], [ 74.93633, 14.25165 ], [ 74.9362, 14.24811 ], [ 74.93494, 14.24548 ], [ 74.9358, 14.24389 ], [ 74.93553, 14.24275 ], [ 74.93249, 14.24227 ], [ 74.93077, 14.24097 ], [ 74.93059, 14.23837 ], [ 74.92883, 14.23804 ], [ 74.92811, 14.23655 ], [ 74.92921, 14.23481 ], [ 74.92734, 14.23478 ], [ 74.92728, 14.23393 ], [ 74.92384, 14.23206 ], [ 74.92364, 14.23039 ], [ 74.9223, 14.23035 ], [ 74.92133, 14.22755 ], [ 74.91853, 14.22701 ], [ 74.9134, 14.22897 ], [ 74.91086, 14.22714 ], [ 74.909, 14.22737 ], [ 74.90754, 14.22922 ], [ 74.90539, 14.23008 ], [ 74.90273, 14.22811 ], [ 74.89855, 14.22813 ], [ 74.89616, 14.22615 ], [ 74.89821, 14.22469 ], [ 74.89637, 14.22194 ], [ 74.89713, 14.21926 ], [ 74.89468, 14.21699 ], [ 74.88791, 14.21469 ], [ 74.87851, 14.2141 ], [ 74.87754, 14.21723 ], [ 74.87987, 14.21979 ], [ 74.87895, 14.22156 ], [ 74.87566, 14.21934 ], [ 74.87588, 14.22603 ], [ 74.87971, 14.22988 ], [ 74.88087, 14.23293 ], [ 74.87341, 14.24031 ], [ 74.87081, 14.23917 ], [ 74.86936, 14.23631 ], [ 74.86811, 14.22794 ], [ 74.86938, 14.22742 ], [ 74.86918, 14.22566 ], [ 74.86795, 14.22592 ], [ 74.86727, 14.21834 ], [ 74.86021, 14.21755 ], [ 74.86026, 14.2158 ], [ 74.85808, 14.21317 ], [ 74.85714, 14.21018 ], [ 74.85374, 14.20925 ], [ 74.85074, 14.2129 ], [ 74.84869, 14.21699 ], [ 74.84662, 14.21737 ], [ 74.8459, 14.21932 ], [ 74.84228, 14.22218 ], [ 74.83957, 14.22282 ], [ 74.83767, 14.22592 ], [ 74.8389, 14.22748 ], [ 74.83595, 14.22741 ], [ 74.83255, 14.22921 ], [ 74.82266, 14.22551 ], [ 74.81882, 14.23056 ], [ 74.8151, 14.23078 ], [ 74.81276, 14.22906 ], [ 74.80991, 14.22826 ], [ 74.80533, 14.23034 ], [ 74.79889, 14.23121 ], [ 74.79273, 14.22802 ], [ 74.79029, 14.22924 ], [ 74.77601, 14.24081 ], [ 74.76515, 14.24475 ], [ 74.7647, 14.24663 ], [ 74.75268, 14.25163 ], [ 74.73303, 14.26741 ], [ 74.73153, 14.26475 ], [ 74.72734, 14.26735 ], [ 74.71784, 14.26873 ], [ 74.7258, 14.27616 ], [ 74.72583, 14.27768 ], [ 74.72127, 14.28818 ], [ 74.70402, 14.30356 ], [ 74.70333, 14.30283 ], [ 74.68173, 14.30828 ], [ 74.6808, 14.30752 ], [ 74.67217, 14.30846 ], [ 74.66011, 14.32245 ], [ 74.66175, 14.32324 ], [ 74.65888, 14.32622 ], [ 74.64696, 14.31989 ], [ 74.63398, 14.33125 ], [ 74.63277, 14.32974 ], [ 74.61961, 14.33867 ], [ 74.61988, 14.34012 ], [ 74.62209, 14.34137 ], [ 74.64861, 14.36661 ], [ 74.64603, 14.37244 ], [ 74.66043, 14.38631 ], [ 74.66369, 14.38784 ], [ 74.66294, 14.38941 ], [ 74.66436, 14.38864 ], [ 74.66531, 14.39057 ], [ 74.66669, 14.39109 ], [ 74.6698, 14.40171 ], [ 74.66876, 14.40187 ], [ 74.67272, 14.41079 ], [ 74.6729, 14.41334 ], [ 74.65368, 14.43202 ], [ 74.65929, 14.43506 ], [ 74.67565, 14.43148 ], [ 74.67875, 14.44432 ], [ 74.67684, 14.44675 ], [ 74.67041, 14.44899 ], [ 74.68931, 14.46292 ], [ 74.69624, 14.4733 ], [ 74.69155, 14.48312 ], [ 74.66835, 14.47521 ], [ 74.65221, 14.48076 ], [ 74.65273, 14.47954 ], [ 74.63868, 14.46438 ], [ 74.63422, 14.4637 ], [ 74.62954, 14.45904 ], [ 74.6321, 14.47125 ], [ 74.63664, 14.47262 ], [ 74.63593, 14.50207 ], [ 74.63509, 14.50327 ], [ 74.66039, 14.50707 ], [ 74.66059, 14.50499 ], [ 74.67117, 14.50392 ], [ 74.6758, 14.5067 ], [ 74.67613, 14.50798 ], [ 74.67761, 14.50746 ], [ 74.68722, 14.50956 ], [ 74.68756, 14.51032 ], [ 74.68984, 14.51085 ], [ 74.69137, 14.51292 ], [ 74.69263, 14.51262 ], [ 74.6941, 14.51554 ], [ 74.69596, 14.51334 ], [ 74.69716, 14.51307 ], [ 74.69812, 14.51118 ], [ 74.70113, 14.51113 ], [ 74.70284, 14.50859 ], [ 74.70235, 14.50815 ], [ 74.70357, 14.50724 ], [ 74.71086, 14.50552 ], [ 74.71618, 14.50807 ], [ 74.71865, 14.51214 ], [ 74.71984, 14.51194 ], [ 74.72293, 14.51491 ], [ 74.7236, 14.51507 ], [ 74.72526, 14.51273 ], [ 74.72743, 14.51475 ], [ 74.73109, 14.51637 ], [ 74.73167, 14.51558 ], [ 74.7302, 14.51178 ], [ 74.73272, 14.50782 ], [ 74.73361, 14.50981 ], [ 74.73971, 14.50716 ], [ 74.74066, 14.50564 ], [ 74.74353, 14.50449 ], [ 74.74746, 14.51465 ], [ 74.74664, 14.5173 ], [ 74.75054, 14.51701 ], [ 74.74975, 14.51928 ], [ 74.75828, 14.52262 ], [ 74.76226, 14.52263 ], [ 74.76323, 14.51892 ], [ 74.76555, 14.51799 ], [ 74.77309, 14.51801 ], [ 74.77544, 14.51954 ], [ 74.77305, 14.52235 ], [ 74.7731, 14.52329 ], [ 74.77663, 14.52326 ], [ 74.77823, 14.52576 ], [ 74.78138, 14.52425 ], [ 74.78386, 14.52514 ], [ 74.78408, 14.52362 ], [ 74.7818, 14.52256 ], [ 74.78161, 14.52122 ], [ 74.78367, 14.51825 ], [ 74.78896, 14.51841 ], [ 74.79065, 14.52175 ], [ 74.79242, 14.52136 ], [ 74.79411, 14.52268 ], [ 74.79519, 14.52216 ], [ 74.79686, 14.52316 ], [ 74.80265, 14.52284 ], [ 74.80114, 14.52162 ], [ 74.80115, 14.52026 ], [ 74.80375, 14.5197 ], [ 74.80516, 14.52237 ], [ 74.81149, 14.52271 ], [ 74.81307, 14.52751 ], [ 74.81215, 14.53097 ], [ 74.82017, 14.52993 ], [ 74.82054, 14.52874 ], [ 74.81936, 14.52314 ], [ 74.82096, 14.52221 ], [ 74.82413, 14.52344 ], [ 74.8255, 14.52574 ], [ 74.82783, 14.52759 ], [ 74.83124, 14.52788 ], [ 74.83355, 14.52598 ], [ 74.84232, 14.52442 ], [ 74.8433, 14.52669 ], [ 74.84292, 14.5279 ], [ 74.86155, 14.53467 ], [ 74.85564, 14.53874 ], [ 74.85384, 14.53732 ], [ 74.85262, 14.54128 ], [ 74.85152, 14.54122 ], [ 74.8506, 14.54379 ], [ 74.84771, 14.54588 ], [ 74.85008, 14.54958 ], [ 74.85438, 14.55289 ], [ 74.87085, 14.55847 ], [ 74.87387, 14.55883 ], [ 74.87754, 14.55758 ], [ 74.87957, 14.55565 ], [ 74.88504, 14.55463 ], [ 74.89169, 14.54414 ] ] ] } },
{ "type": "Feature", "properties": { "OBJECTID": 2939, "state_lgd": "29", "state_name": "KARNATAKA", "district_lgd": "563", "district_name": "UTTARA KANNADA", "district_name_source": "district_table", "subdistrict_lgd": "05479", "subdistrict_name": "SUPA", "subdistrict_type": "Taluk", "name_corrupted": false, "remarks": "", "label_lon": 74.442818763348768, "label_lat": 15.199342172894864 }, "geometry": { "type": "Polygon", "coordinates": [ [ [ 74.29206, 15.52206 ], [ 74.29746, 15.52062 ], [ 74.29711, 15.52008 ], [ 74.32693, 15.51628 ], [ 74.34174, 15.51824 ], [ 74.34325, 15.51741 ], [ 74.34886, 15.51028 ], [ 74.35311, 15.50669 ], [ 74.36259, 15.49285 ], [ 74.3684, 15.48679 ], [ 74.37361, 15.47956 ], [ 74.37435, 15.48067 ], [ 74.38023, 15.48135 ], [ 74.38639, 15.48362 ], [ 74.38688, 15.48214 ], [ 74.3906, 15.48006 ], [ 74.39204, 15.48128 ], [ 74.39425, 15.48078 ], [ 74.3978, 15.4774 ], [ 74.39937, 15.47731 ], [ 74.40166, 15.47474 ], [ 74.40429, 15.47337 ], [ 74.40604, 15.4734 ], [ 74.40939, 15.47501 ], [ 74.41213, 15.47418 ], [ 74.41539, 15.4701 ], [ 74.41793, 15.46937 ], [ 74.41922, 15.46471 ], [ 74.42212, 15.46321 ], [ 74.42264, 15.45204 ], [ 74.422, 15.44714 ], [ 74.4235, 15.43153 ], [ 74.42276, 15.42194 ], [ 74.42886, 15.39868 ], [ 74.43266, 15.39724 ], [ 74.43442, 15.40195 ], [ 74.43756, 15.40264 ], [ 74.43795, 15.40408 ], [ 74.44043, 15.40631 ], [ 74.44151, 15.40575 ], [ 74.44752, 15.40708 ], [ 74.44969, 15.40571 ], [ 74.45268, 15.40554 ], [ 74.45391, 15.4027 ], [ 74.45731, 15.40353 ], [ 74.45958, 15.40695 ], [ 74.46131, 15.41475 ], [ 74.46476, 15.41559 ], [ 74.46816, 15.4179 ], [ 74.46855, 15.41991 ], [ 74.47276, 15.41906 ], [ 74.47306, 15.42348 ], [ 74.4745, 15.42647 ], [ 74.4784, 15.42971 ], [ 74.48169, 15.43035 ], [ 74.48405, 15.43358 ], [ 74.48439, 15.43731 ], [ 74.48581, 15.43854 ], [ 74.48794, 15.43821 ], [ 74.48979, 15.44271 ], [ 74.49182, 15.44375 ], [ 74.49187, 15.44026 ], [ 74.49026, 15.43872 ], [ 74.49004, 15.43702 ], [ 74.49127, 15.43543 ], [ 74.49199, 15.43511 ], [ 74.49363, 15.43634 ], [ 74.49462, 15.43841 ], [ 74.50607, 15.43363 ], [ 74.50962, 15.42757 ], [ 74.50613, 15.41249 ], [ 74.50783, 15.40648 ], [ 74.50994, 15.40294 ], [ 74.51648, 15.40201 ], [ 74.53374, 15.41869 ], [ 74.5385, 15.41588 ], [ 74.539, 15.41693 ], [ 74.54711, 15.41479 ], [ 74.5506, 15.41116 ], [ 74.55419, 15.40898 ], [ 74.56758, 15.40345 ], [ 74.571, 15.3965 ], [ 74.57407, 15.39223 ], [ 74.58768, 15.38049 ], [ 74.58953, 15.38081 ], [ 74.59566, 15.37776 ], [ 74.60118, 15.36941 ], [ 74.61383, 15.35926 ], [ 74.61345, 15.35828 ], [ 74.61431, 15.3554 ], [ 74.61332, 15.35082 ], [ 74.61182, 15.34821 ], [ 74.60924, 15.34681 ], [ 74.60818, 15.34303 ], [ 74.60575, 15.33962 ], [ 74.60437, 15.33953 ], [ 74.60374, 15.33759 ], [ 74.60087, 15.33511 ], [ 74.60076, 15.33309 ], [ 74.59988, 15.33223 ], [ 74.60056, 15.33056 ], [ 74.59864, 15.32897 ], [ 74.6008, 15.32739 ], [ 74.60091, 15.32509 ], [ 74.59614, 15.32192 ], [ 74.59354, 15.32259 ], [ 74.57211, 15.31747 ], [ 74.56543, 15.30809 ], [ 74.56449, 15.30773 ], [ 74.57198, 15.29523 ], [ 74.5733, 15.29468 ], [ 74.57806, 15.29307 ], [ 74.58122, 15.29415 ], [ 74.58139, 15.29357 ], [ 74.60479, 15.29365 ], [ 74.60541, 15.2925 ], [ 74.60581, 15.29098 ], [ 74.60445, 15.28827 ], [ 74.60698, 15.28377 ], [ 74.6051, 15.28151 ], [ 74.60546, 15.2774 ], [ 74.60283, 15.27567 ], [ 74.60208, 15.27064 ], [ 74.5979, 15.26551 ], [ 74.5979, 15.2616 ], [ 74.59566, 15.25724 ], [ 74.59578, 15.25668 ], [ 74.59875, 15.25714 ], [ 74.59967, 15.25631 ], [ 74.60017, 15.25689 ], [ 74.601, 15.25615 ], [ 74.60046, 15.25556 ], [ 74.60369, 15.2523 ], [ 74.60608, 15.24826 ], [ 74.60608, 15.24535 ], [ 74.60895, 15.24017 ], [ 74.61024, 15.23949 ], [ 74.60967, 15.23879 ], [ 74.61153, 15.23725 ], [ 74.61202, 15.23341 ], [ 74.6141, 15.23182 ], [ 74.6151, 15.23258 ], [ 74.61638, 15.23216 ], [ 74.61741, 15.22529 ], [ 74.62407, 15.20937 ], [ 74.62583, 15.20186 ], [ 74.62553, 15.18674 ], [ 74.6236, 15.16482 ], [ 74.62744, 15.15722 ], [ 74.62862, 15.14121 ], [ 74.6385, 15.11335 ], [ 74.64025, 15.09402 ], [ 74.64027, 15.08273 ], [ 74.63769, 15.08367 ], [ 74.63654, 15.08273 ], [ 74.63399, 15.07662 ], [ 74.62834, 15.07318 ], [ 74.62003, 15.0661 ], [ 74.61624, 15.06608 ], [ 74.61684, 15.06529 ], [ 74.60624, 15.06508 ], [ 74.60403, 15.06318 ], [ 74.60064, 15.05265 ], [ 74.60211, 15.04502 ], [ 74.60109, 15.04084 ], [ 74.60305, 15.03551 ], [ 74.602, 15.02919 ], [ 74.59831, 15.02541 ], [ 74.58652, 15.01997 ], [ 74.58084, 15.01495 ], [ 74.57987, 15.01246 ], [ 74.58294, 15.00121 ], [ 74.58192, 14.99739 ], [ 74.5752, 14.99016 ], [ 74.57064, 14.98224 ], [ 74.56785, 14.97987 ], [ 74.56687, 14.97785 ], [ 74.56722, 14.96522 ], [ 74.56585, 14.96027 ], [ 74.56505, 14.94895 ], [ 74.56341, 14.94659 ], [ 74.55915, 14.94559 ], [ 74.55142, 14.94226 ], [ 74.54904, 14.94177 ], [ 74.5469, 14.94276 ], [ 74.54542, 14.942 ], [ 74.54528, 14.94088 ], [ 74.54093, 14.93542 ], [ 74.54084, 14.93184 ], [ 74.53786, 14.92251 ], [ 74.5334, 14.91951 ], [ 74.53204, 14.91904 ], [ 74.5254, 14.92269 ], [ 74.52113, 14.92427 ], [ 74.51723, 14.92463 ], [ 74.50912, 14.92108 ], [ 74.50286, 14.92068 ], [ 74.49764, 14.91822 ], [ 74.49231, 14.91394 ], [ 74.49056, 14.91137 ], [ 74.4866, 14.90199 ], [ 74.48156, 14.89665 ], [ 74.47662, 14.89423 ], [ 74.47045, 14.8926 ], [ 74.46764, 14.89262 ], [ 74.46181, 14.90495 ], [ 74.4621, 14.91716 ], [ 74.45372, 14.93259 ], [ 74.45594, 14.93646 ], [ 74.45482, 14.93494 ], [ 74.44084, 14.95951 ], [ 74.42973, 14.93779 ], [ 74.42791, 14.93761 ], [ 74.42112, 14.92213 ], [ 74.42264, 14.90827 ], [ 74.40606, 14.91956 ], [ 74.39925, 14.90508 ], [ 74.38746, 14.92537 ], [ 74.36932, 14.92536 ], [ 74.3655, 14.9404 ], [ 74.36502, 14.94539 ], [ 74.3604, 14.94702 ], [ 74.34516, 14.94865 ], [ 74.33477, 14.95982 ], [ 74.3382, 14.96716 ], [ 74.33345, 14.97159 ], [ 74.32732, 14.991 ], [ 74.31621, 14.99045 ], [ 74.31313, 14.99331 ], [ 74.30869, 15.01628 ], [ 74.30849, 15.02065 ], [ 74.315, 15.02002 ], [ 74.3186, 15.0248 ], [ 74.32055, 15.02945 ], [ 74.31791, 15.0337 ], [ 74.32152, 15.04067 ], [ 74.30476, 15.05026 ], [ 74.30281, 15.05035 ], [ 74.29533, 15.04544 ], [ 74.29461, 15.04917 ], [ 74.29291, 15.05008 ], [ 74.29025, 15.05361 ], [ 74.28951, 15.06482 ], [ 74.28373, 15.06613 ], [ 74.28073, 15.06882 ], [ 74.28038, 15.0752 ], [ 74.28106, 15.07695 ], [ 74.2801, 15.0791 ], [ 74.27962, 15.08803 ], [ 74.27832, 15.09015 ], [ 74.27882, 15.0954 ], [ 74.27848, 15.09607 ], [ 74.27632, 15.09562 ], [ 74.27264, 15.0975 ], [ 74.27454, 15.10328 ], [ 74.27653, 15.10536 ], [ 74.27965, 15.10489 ], [ 74.28242, 15.10656 ], [ 74.28272, 15.11318 ], [ 74.2839, 15.11571 ], [ 74.28413, 15.11928 ], [ 74.28656, 15.12115 ], [ 74.28659, 15.12246 ], [ 74.28445, 15.12606 ], [ 74.28495, 15.12828 ], [ 74.2829, 15.13074 ], [ 74.28498, 15.13455 ], [ 74.28518, 15.13672 ], [ 74.28362, 15.1453 ], [ 74.28461, 15.14542 ], [ 74.28514, 15.14903 ], [ 74.28828, 15.14945 ], [ 74.29071, 15.14748 ], [ 74.29567, 15.15124 ], [ 74.30464, 15.16361 ], [ 74.31417, 15.18054 ], [ 74.31738, 15.18375 ], [ 74.31608, 15.18784 ], [ 74.31242, 15.19109 ], [ 74.30934, 15.19784 ], [ 74.30862, 15.2018 ], [ 74.31005, 15.20629 ], [ 74.30575, 15.2094 ], [ 74.30549, 15.21261 ], [ 74.30427, 15.21403 ], [ 74.30452, 15.21672 ], [ 74.30221, 15.21801 ], [ 74.30144, 15.21705 ], [ 74.29986, 15.21993 ], [ 74.30161, 15.22434 ], [ 74.2915, 15.23381 ], [ 74.2867, 15.23281 ], [ 74.28114, 15.23626 ], [ 74.25955, 15.24102 ], [ 74.25588, 15.24507 ], [ 74.2553, 15.24751 ], [ 74.25209, 15.25103 ], [ 74.25117, 15.25877 ], [ 74.26093, 15.26051 ], [ 74.26261, 15.26261 ], [ 74.26518, 15.26892 ], [ 74.27057, 15.27687 ], [ 74.27142, 15.28123 ], [ 74.27637, 15.28337 ], [ 74.28208, 15.28025 ], [ 74.28721, 15.28362 ], [ 74.29331, 15.28453 ], [ 74.29428, 15.28914 ], [ 74.30822, 15.2835 ], [ 74.31287, 15.28417 ], [ 74.31968, 15.28351 ], [ 74.31986, 15.28477 ], [ 74.32624, 15.28395 ], [ 74.33587, 15.29546 ], [ 74.32395, 15.30992 ], [ 74.32074, 15.31497 ], [ 74.31667, 15.33068 ], [ 74.3177, 15.33391 ], [ 74.31722, 15.33517 ], [ 74.32184, 15.3436 ], [ 74.31604, 15.35997 ], [ 74.31626, 15.363 ], [ 74.3232, 15.36768 ], [ 74.3086, 15.37445 ], [ 74.29871, 15.38194 ], [ 74.28299, 15.38294 ], [ 74.27587, 15.39159 ], [ 74.2783, 15.40569 ], [ 74.27624, 15.40839 ], [ 74.27432, 15.41358 ], [ 74.27041, 15.41596 ], [ 74.26878, 15.4191 ], [ 74.26991, 15.42604 ], [ 74.27689, 15.43521 ], [ 74.27506, 15.43646 ], [ 74.27686, 15.43795 ], [ 74.27737, 15.4405 ], [ 74.2763, 15.44292 ], [ 74.27545, 15.44919 ], [ 74.26398, 15.47236 ], [ 74.25829, 15.48206 ], [ 74.25091, 15.49159 ], [ 74.25229, 15.49934 ], [ 74.25382, 15.50172 ], [ 74.2603, 15.50646 ], [ 74.27035, 15.51028 ], [ 74.2749, 15.51305 ], [ 74.27847, 15.51748 ], [ 74.2782, 15.52165 ], [ 74.28123, 15.52178 ], [ 74.2818, 15.5231 ], [ 74.29077, 15.52351 ], [ 74.29206, 15.52206 ] ] ] } }
]
}
