{
"type": "FeatureCollection",
"name": "576_KODAGU",
"crs": { "type": "name", "properties": { "name": "urn:ogc:def:crs:OGC:1.3:CRS84" } },
"xy_coordinate_resolution": 1e-05,
"features": [
{ "type": "Feature", "properties": { "OBJECTID": 2867, "state_lgd": "29", "state_name": "KARNATAKA", "district_lgd": "576", "district_name": "KODAGU", "district_name_source": "district_table", "subdistrict_lgd": "07024", "subdistrict_name": "Ponnampet", "subdistrict_type": "Taluk", "name_corrupted": false, "remarks": "", "label_lon": 75.998508980029854, "label_lat": 12.087257301329531 }, "geometry": { "type": "Polygon", "coordinates": [ [ [ 76.01421, 12.28686 ], [ 76.01329, 12.28453 ], [ 76.01563, 12.27773 ], [ 76.01632, 12.27245 ], [ 76.0135, 12.27036 ], [ 76.01353, 12.26885 ], [ 76.01438, 12.26841 ], [ 76.01452, 12.26568 ], [ 76.01801, 12.26044 ], [ 76.02093, 12.25297 ], [ 76.0245, 12.2485 ], [ 76.02541, 12.249 ], [ 76.02612, 12.25143 ], [ 76.03127, 12.25212 ], [ 76.0349, 12.25078 ], [ 76.04036, 12.25259 ], [ 76.0443, 12.25007 ], [ 76.05088, 12.24784 ], [ 76.05181, 12.24573 ], [ 76.0573, 12.24787 ], [ 76.05716, 12.25313 ], [ 76.0596, 12.25374 ], [ 76.06002, 12.24801 ], [ 76.06416, 12.24677 ], [ 76.06824, 12.24215 ], [ 76.07326, 12.23957 ], [ 76.0731, 12.23459 ], [ 76.08009, 12.22557 ], [ 76.08218, 12.22132 ], [ 76.09384, 12.21348 ], [ 76.0952, 12.20733 ], [ 76.09834, 12.20298 ], [ 76.09951, 12.19933 ], [ 76.10225, 12.19665 ], [ 76.11583, 12.19394 ], [ 76.11884, 12.19259 ], [ 76.12552, 12.19399 ], [ 76.12923, 12.19553 ], [ 76.13154, 12.19784 ], [ 76.13409, 12.19215 ], [ 76.13765, 12.1887 ], [ 76.13505, 12.18799 ], [ 76.1356, 12.18383 ], [ 76.13503, 12.18195 ], [ 76.13622, 12.1764 ], [ 76.1386, 12.17076 ], [ 76.14124, 12.16837 ], [ 76.14312, 12.15689 ], [ 76.14855, 12.14886 ], [ 76.1507, 12.14315 ], [ 76.1566, 12.13697 ], [ 76.16107, 12.13436 ], [ 76.16655, 12.12295 ], [ 76.17089, 12.11804 ], [ 76.17178, 12.10825 ], [ 76.17646, 12.0996 ], [ 76.1751, 12.08173 ], [ 76.1783, 12.06983 ], [ 76.18482, 12.05957 ], [ 76.18896, 12.05039 ], [ 76.18378, 12.03586 ], [ 76.17728, 12.02942 ], [ 76.15805, 12.02212 ], [ 76.14811, 12.01523 ], [ 76.14504, 12.00682 ], [ 76.13697, 11.9987 ], [ 76.13484, 11.99302 ], [ 76.12224, 11.97937 ], [ 76.11519, 11.97917 ], [ 76.11246, 11.97709 ], [ 76.11249, 11.97851 ], [ 76.11159, 11.9784 ], [ 76.10477, 11.97569 ], [ 76.09465, 11.96888 ], [ 76.0898, 11.96743 ], [ 76.07729, 11.96874 ], [ 76.0701, 11.96708 ], [ 76.06742, 11.96333 ], [ 76.05796, 11.95778 ], [ 76.05204, 11.95161 ], [ 76.04784, 11.95184 ], [ 76.04482, 11.95054 ], [ 76.04233, 11.94602 ], [ 76.03907, 11.94509 ], [ 76.03747, 11.94293 ], [ 76.03372, 11.9403 ], [ 76.02997, 11.94015 ], [ 76.02823, 11.94089 ], [ 76.02675, 11.94308 ], [ 76.02238, 11.94397 ], [ 76.01649, 11.9411 ], [ 76.01312, 11.94172 ], [ 76.00738, 11.93902 ], [ 76.0032, 11.93139 ], [ 75.99391, 11.93227 ], [ 75.99042, 11.93471 ], [ 75.98347, 11.93272 ], [ 75.97927, 11.93476 ], [ 75.9764, 11.9337 ], [ 75.95637, 11.9419 ], [ 75.95374, 11.94193 ], [ 75.95174, 11.94064 ], [ 75.94741, 11.94178 ], [ 75.9396, 11.941 ], [ 75.93741, 11.9421 ], [ 75.93721, 11.94062 ], [ 75.93571, 11.94006 ], [ 75.93079, 11.9397 ], [ 75.92932, 11.94214 ], [ 75.92719, 11.94337 ], [ 75.92257, 11.94476 ], [ 75.91747, 11.94488 ], [ 75.91399, 11.94692 ], [ 75.91147, 11.94653 ], [ 75.90909, 11.94726 ], [ 75.90556, 11.94613 ], [ 75.90027, 11.94604 ], [ 75.89873, 11.94666 ], [ 75.89703, 11.94547 ], [ 75.89307, 11.94889 ], [ 75.88602, 11.95203 ], [ 75.8849, 11.95092 ], [ 75.8822, 11.9509 ], [ 75.88068, 11.94971 ], [ 75.87254, 11.9533 ], [ 75.87045, 11.95258 ], [ 75.86643, 11.95738 ], [ 75.85886, 11.95942 ], [ 75.85648, 11.96314 ], [ 75.85461, 11.96411 ], [ 75.85367, 11.9659 ], [ 75.853, 11.97159 ], [ 75.85168, 11.97224 ], [ 75.85011, 11.97474 ], [ 75.848, 11.97495 ], [ 75.84955, 11.97804 ], [ 75.84777, 11.9797 ], [ 75.84691, 11.98201 ], [ 75.84393, 11.98172 ], [ 75.84292, 11.98073 ], [ 75.84261, 11.98141 ], [ 75.84071, 11.98117 ], [ 75.83971, 11.98267 ], [ 75.83705, 11.98093 ], [ 75.83003, 11.984 ], [ 75.82726, 11.98768 ], [ 75.82563, 11.99187 ], [ 75.82523, 12.00273 ], [ 75.82038, 12.00252 ], [ 75.82325, 12.0098 ], [ 75.82286, 12.01337 ], [ 75.81547, 12.02051 ], [ 75.80993, 12.02271 ], [ 75.81102, 12.02858 ], [ 75.80107, 12.03701 ], [ 75.8011, 12.04272 ], [ 75.79966, 12.04738 ], [ 75.79787, 12.05129 ], [ 75.79396, 12.05503 ], [ 75.79437, 12.05604 ], [ 75.79866, 12.05604 ], [ 75.79868, 12.06327 ], [ 75.80261, 12.07382 ], [ 75.80383, 12.07516 ], [ 75.80255, 12.07856 ], [ 75.79992, 12.07951 ], [ 75.80112, 12.08018 ], [ 75.80501, 12.07953 ], [ 75.80472, 12.08095 ], [ 75.80734, 12.07943 ], [ 75.81821, 12.07651 ], [ 75.81983, 12.07526 ], [ 75.82762, 12.07618 ], [ 75.83123, 12.07366 ], [ 75.83415, 12.07475 ], [ 75.8368, 12.07294 ], [ 75.83818, 12.07047 ], [ 75.83946, 12.07008 ], [ 75.84354, 12.07298 ], [ 75.84659, 12.0703 ], [ 75.84955, 12.07149 ], [ 75.8575, 12.07135 ], [ 75.85988, 12.07572 ], [ 75.8608, 12.09001 ], [ 75.86232, 12.09964 ], [ 75.86133, 12.10173 ], [ 75.8611, 12.10511 ], [ 75.86167, 12.11007 ], [ 75.86131, 12.11092 ], [ 75.85889, 12.11139 ], [ 75.86085, 12.11451 ], [ 75.86021, 12.11868 ], [ 75.86329, 12.11994 ], [ 75.86441, 12.12338 ], [ 75.86625, 12.12439 ], [ 75.86602, 12.12623 ], [ 75.86429, 12.12728 ], [ 75.86527, 12.1311 ], [ 75.86452, 12.13239 ], [ 75.86646, 12.13442 ], [ 75.87027, 12.13476 ], [ 75.8725, 12.13718 ], [ 75.87394, 12.13669 ], [ 75.87575, 12.13738 ], [ 75.87824, 12.13605 ], [ 75.88071, 12.13768 ], [ 75.8831, 12.1366 ], [ 75.88456, 12.13889 ], [ 75.88257, 12.14146 ], [ 75.8827, 12.14265 ], [ 75.88058, 12.14333 ], [ 75.87958, 12.14288 ], [ 75.87887, 12.14474 ], [ 75.87443, 12.1467 ], [ 75.87451, 12.14795 ], [ 75.87084, 12.14839 ], [ 75.86813, 12.15062 ], [ 75.86971, 12.15236 ], [ 75.86908, 12.15289 ], [ 75.86919, 12.15492 ], [ 75.86804, 12.15627 ], [ 75.87001, 12.15814 ], [ 75.87064, 12.16014 ], [ 75.86961, 12.16252 ], [ 75.86757, 12.1638 ], [ 75.86741, 12.16578 ], [ 75.87016, 12.16481 ], [ 75.87014, 12.16658 ], [ 75.86912, 12.1705 ], [ 75.86822, 12.17216 ], [ 75.86705, 12.17264 ], [ 75.86816, 12.17324 ], [ 75.86652, 12.17466 ], [ 75.86596, 12.17454 ], [ 75.86619, 12.17295 ], [ 75.86476, 12.17335 ], [ 75.86543, 12.17383 ], [ 75.86503, 12.17604 ], [ 75.86646, 12.17535 ], [ 75.86696, 12.1763 ], [ 75.86663, 12.17692 ], [ 75.86433, 12.17624 ], [ 75.86376, 12.17701 ], [ 75.8643, 12.17853 ], [ 75.86633, 12.17854 ], [ 75.86846, 12.18037 ], [ 75.87045, 12.17816 ], [ 75.87217, 12.17799 ], [ 75.87352, 12.17946 ], [ 75.87412, 12.17893 ], [ 75.87546, 12.17967 ], [ 75.87575, 12.17855 ], [ 75.87831, 12.17915 ], [ 75.87939, 12.18063 ], [ 75.87941, 12.18176 ], [ 75.87867, 12.18198 ], [ 75.87919, 12.18724 ], [ 75.88304, 12.1908 ], [ 75.88233, 12.18788 ], [ 75.88376, 12.18331 ], [ 75.89306, 12.18587 ], [ 75.89429, 12.18845 ], [ 75.89534, 12.19619 ], [ 75.89799, 12.19433 ], [ 75.90004, 12.19494 ], [ 75.90531, 12.19376 ], [ 75.90559, 12.19487 ], [ 75.90433, 12.19478 ], [ 75.90508, 12.19779 ], [ 75.90812, 12.19766 ], [ 75.9096, 12.20148 ], [ 75.91045, 12.20243 ], [ 75.91246, 12.20279 ], [ 75.91283, 12.20398 ], [ 75.90718, 12.20729 ], [ 75.90404, 12.21057 ], [ 75.90205, 12.21148 ], [ 75.9024, 12.21239 ], [ 75.90762, 12.20914 ], [ 75.91011, 12.20854 ], [ 75.9129, 12.20907 ], [ 75.91242, 12.21068 ], [ 75.914, 12.2096 ], [ 75.91546, 12.21079 ], [ 75.91625, 12.21043 ], [ 75.91817, 12.21507 ], [ 75.91952, 12.21461 ], [ 75.91961, 12.21365 ], [ 75.92284, 12.21501 ], [ 75.92448, 12.21603 ], [ 75.92436, 12.21728 ], [ 75.92571, 12.21895 ], [ 75.92564, 12.2165 ], [ 75.92704, 12.21661 ], [ 75.92833, 12.2199 ], [ 75.93224, 12.22503 ], [ 75.9357, 12.22598 ], [ 75.93748, 12.22986 ], [ 75.94016, 12.23176 ], [ 75.93976, 12.2324 ], [ 75.94218, 12.2319 ], [ 75.94652, 12.2333 ], [ 75.94999, 12.23744 ], [ 75.95697, 12.24362 ], [ 75.95855, 12.24363 ], [ 75.95812, 12.24514 ], [ 75.96267, 12.24941 ], [ 75.96937, 12.25962 ], [ 75.97416, 12.26288 ], [ 75.98565, 12.27694 ], [ 75.99195, 12.28164 ], [ 75.99514, 12.28707 ], [ 75.99916, 12.28917 ], [ 76.004, 12.28888 ], [ 76.00662, 12.28721 ], [ 76.01168, 12.28579 ], [ 76.01421, 12.28686 ] ] ] } },
{ "type": "Feature", "properties": { "OBJECTID": 2868, "state_lgd": "29", "state_name": "KARNATAKA", "district_lgd": "576", "district_name": "KODAGU", "district_name_source": "district_table", "subdistrict_lgd": "05566", "subdistrict_name": "Madikeri", "subdistrict_type": "Taluk", "name_corrupted": false, "remarks": "", "label_lon": 75.616869235375546, "label_lat": 12.369135918307867 }, "geometry": { "type": "Polygon", "coordinates": [ [ [ 75.7788, 12.45044 ], [ 75.77939, 12.44603 ], [ 75.78258, 12.44444 ], [ 75.78273, 12.4423 ], [ 75.78171, 12.44111 ], [ 75.7847, 12.43998 ], [ 75.78513, 12.44196 ], [ 75.78577, 12.44195 ], [ 75.7877, 12.44068 ], [ 75.78743, 12.43927 ], [ 75.78876, 12.43793 ], [ 75.78723, 12.43623 ], [ 75.78771, 12.43347 ], [ 75.78674, 12.43166 ], [ 75.78753, 12.42971 ], [ 75.79343, 12.42665 ], [ 75.7941, 12.42545 ], [ 75.79302, 12.42345 ], [ 75.78971, 12.42066 ], [ 75.78804, 12.41617 ], [ 75.78696, 12.41536 ], [ 75.78651, 12.41285 ], [ 75.78906, 12.40966 ], [ 75.78902, 12.40642 ], [ 75.79081, 12.40326 ], [ 75.79291, 12.4024 ], [ 75.7959, 12.39866 ], [ 75.7993, 12.39961 ], [ 75.80018, 12.39901 ], [ 75.80016, 12.39342 ], [ 75.79877, 12.39091 ], [ 75.79898, 12.38816 ], [ 75.80303, 12.38511 ], [ 75.80378, 12.38328 ], [ 75.81016, 12.38123 ], [ 75.81333, 12.37735 ], [ 75.81549, 12.37585 ], [ 75.81868, 12.37535 ], [ 75.82026, 12.37399 ], [ 75.81943, 12.36139 ], [ 75.82073, 12.36121 ], [ 75.82189, 12.35972 ], [ 75.82398, 12.35218 ], [ 75.82823, 12.34972 ], [ 75.82894, 12.34641 ], [ 75.83139, 12.34583 ], [ 75.83256, 12.34492 ], [ 75.83308, 12.34301 ], [ 75.83573, 12.34135 ], [ 75.83395, 12.33906 ], [ 75.83432, 12.33841 ], [ 75.83301, 12.33696 ], [ 75.83184, 12.33299 ], [ 75.83606, 12.33127 ], [ 75.83772, 12.3288 ], [ 75.84323, 12.33102 ], [ 75.84394, 12.33071 ], [ 75.84511, 12.32887 ], [ 75.84305, 12.32649 ], [ 75.84266, 12.32255 ], [ 75.84898, 12.3124 ], [ 75.84706, 12.31038 ], [ 75.84728, 12.30952 ], [ 75.84562, 12.31 ], [ 75.84206, 12.30837 ], [ 75.83961, 12.30452 ], [ 75.8367, 12.30385 ], [ 75.83388, 12.30122 ], [ 75.83253, 12.30142 ], [ 75.83145, 12.29907 ], [ 75.82805, 12.29871 ], [ 75.82657, 12.30011 ], [ 75.82633, 12.30215 ], [ 75.83045, 12.30547 ], [ 75.83068, 12.30774 ], [ 75.8286, 12.31103 ], [ 75.82413, 12.31492 ], [ 75.82184, 12.31554 ], [ 75.81612, 12.30944 ], [ 75.81421, 12.30208 ], [ 75.80721, 12.29944 ], [ 75.80965, 12.29594 ], [ 75.81007, 12.29251 ], [ 75.80451, 12.29127 ], [ 75.80295, 12.2957 ], [ 75.79799, 12.29794 ], [ 75.79647, 12.3006 ], [ 75.79458, 12.30209 ], [ 75.79129, 12.3024 ], [ 75.78739, 12.29803 ], [ 75.78266, 12.29681 ], [ 75.78072, 12.29464 ], [ 75.77653, 12.28575 ], [ 75.77356, 12.28442 ], [ 75.77086, 12.2774 ], [ 75.76942, 12.27604 ], [ 75.76622, 12.27596 ], [ 75.76177, 12.27772 ], [ 75.76023, 12.27972 ], [ 75.75986, 12.28261 ], [ 75.75912, 12.28282 ], [ 75.75856, 12.28186 ], [ 75.75176, 12.27855 ], [ 75.75141, 12.27683 ], [ 75.75253, 12.2742 ], [ 75.75149, 12.27363 ], [ 75.75027, 12.27438 ], [ 75.74981, 12.27586 ], [ 75.75018, 12.27819 ], [ 75.74945, 12.28017 ], [ 75.74527, 12.28444 ], [ 75.74367, 12.28158 ], [ 75.73932, 12.27937 ], [ 75.73579, 12.27554 ], [ 75.73201, 12.27644 ], [ 75.72736, 12.27282 ], [ 75.72683, 12.27173 ], [ 75.7281, 12.26899 ], [ 75.72427, 12.26678 ], [ 75.72423, 12.26396 ], [ 75.72116, 12.26366 ], [ 75.72171, 12.26119 ], [ 75.72092, 12.26042 ], [ 75.72151, 12.25936 ], [ 75.72103, 12.25873 ], [ 75.72021, 12.25913 ], [ 75.71977, 12.25595 ], [ 75.71832, 12.256 ], [ 75.7174, 12.25499 ], [ 75.71857, 12.2519 ], [ 75.7157, 12.24823 ], [ 75.71622, 12.24667 ], [ 75.71712, 12.24607 ], [ 75.71805, 12.24647 ], [ 75.7176, 12.24961 ], [ 75.71881, 12.25082 ], [ 75.72035, 12.24889 ], [ 75.72141, 12.24517 ], [ 75.72247, 12.2447 ], [ 75.72168, 12.24355 ], [ 75.72246, 12.24274 ], [ 75.72489, 12.24452 ], [ 75.72476, 12.24367 ], [ 75.72655, 12.242 ], [ 75.73052, 12.24262 ], [ 75.73068, 12.24072 ], [ 75.73165, 12.24028 ], [ 75.7323, 12.23809 ], [ 75.73542, 12.23619 ], [ 75.73703, 12.23841 ], [ 75.73861, 12.238 ], [ 75.73827, 12.23644 ], [ 75.7401, 12.23516 ], [ 75.74087, 12.23247 ], [ 75.74178, 12.23188 ], [ 75.74079, 12.22998 ], [ 75.74169, 12.22796 ], [ 75.74083, 12.22558 ], [ 75.73809, 12.22273 ], [ 75.74121, 12.21909 ], [ 75.74235, 12.21521 ], [ 75.74161, 12.21404 ], [ 75.73867, 12.21447 ], [ 75.73881, 12.21547 ], [ 75.73669, 12.21528 ], [ 75.73627, 12.21741 ], [ 75.73442, 12.2174 ], [ 75.73498, 12.21545 ], [ 75.73285, 12.21465 ], [ 75.73351, 12.21407 ], [ 75.73262, 12.21345 ], [ 75.73382, 12.21075 ], [ 75.7326, 12.20937 ], [ 75.72903, 12.20851 ], [ 75.72843, 12.21073 ], [ 75.72633, 12.21228 ], [ 75.72724, 12.21398 ], [ 75.72625, 12.2141 ], [ 75.72474, 12.21632 ], [ 75.72324, 12.21612 ], [ 75.72292, 12.21678 ], [ 75.72012, 12.21586 ], [ 75.71919, 12.2166 ], [ 75.71552, 12.21394 ], [ 75.71414, 12.21381 ], [ 75.71416, 12.21292 ], [ 75.71744, 12.21326 ], [ 75.7193, 12.21254 ], [ 75.71937, 12.20887 ], [ 75.71645, 12.20823 ], [ 75.71823, 12.20675 ], [ 75.71805, 12.20605 ], [ 75.7152, 12.20391 ], [ 75.71296, 12.20616 ], [ 75.71237, 12.20602 ], [ 75.71268, 12.20422 ], [ 75.71062, 12.20436 ], [ 75.71172, 12.20382 ], [ 75.7093, 12.20249 ], [ 75.70912, 12.20029 ], [ 75.70776, 12.20033 ], [ 75.70728, 12.19718 ], [ 75.70651, 12.19698 ], [ 75.70576, 12.19491 ], [ 75.70552, 12.19211 ], [ 75.7022, 12.18878 ], [ 75.70238, 12.18658 ], [ 75.69815, 12.18348 ], [ 75.6983, 12.18013 ], [ 75.69727, 12.17824 ], [ 75.69472, 12.17769 ], [ 75.69093, 12.17957 ], [ 75.68769, 12.17884 ], [ 75.68739, 12.17815 ], [ 75.68873, 12.1767 ], [ 75.68876, 12.17155 ], [ 75.68773, 12.16887 ], [ 75.68477, 12.16574 ], [ 75.67597, 12.16267 ], [ 75.67434, 12.16314 ], [ 75.67067, 12.16215 ], [ 75.6682, 12.15395 ], [ 75.66618, 12.15209 ], [ 75.66639, 12.14792 ], [ 75.6649, 12.14611 ], [ 75.66195, 12.14487 ], [ 75.66181, 12.14302 ], [ 75.66318, 12.14262 ], [ 75.66501, 12.13994 ], [ 75.66895, 12.12893 ], [ 75.67106, 12.12603 ], [ 75.67243, 12.11799 ], [ 75.6717, 12.1169 ], [ 75.67257, 12.11483 ], [ 75.67568, 12.1115 ], [ 75.67622, 12.10886 ], [ 75.67589, 12.10755 ], [ 75.67438, 12.10642 ], [ 75.67514, 12.10425 ], [ 75.67421, 12.09916 ], [ 75.67318, 12.09801 ], [ 75.66742, 12.09731 ], [ 75.66061, 12.10012 ], [ 75.65851, 12.10365 ], [ 75.653, 12.10791 ], [ 75.65245, 12.11029 ], [ 75.64908, 12.10933 ], [ 75.64875, 12.11293 ], [ 75.64658, 12.1158 ], [ 75.64778, 12.11761 ], [ 75.64753, 12.12192 ], [ 75.64561, 12.1248 ], [ 75.64408, 12.12552 ], [ 75.6438, 12.13024 ], [ 75.6445, 12.13375 ], [ 75.64324, 12.13614 ], [ 75.64319, 12.13865 ], [ 75.64205, 12.1398 ], [ 75.63826, 12.13895 ], [ 75.63791, 12.14004 ], [ 75.6392, 12.14336 ], [ 75.63818, 12.14652 ], [ 75.63605, 12.14917 ], [ 75.63133, 12.14878 ], [ 75.62645, 12.15295 ], [ 75.62452, 12.15329 ], [ 75.62085, 12.15615 ], [ 75.61903, 12.15652 ], [ 75.61496, 12.1556 ], [ 75.61125, 12.15262 ], [ 75.60691, 12.15549 ], [ 75.60197, 12.15364 ], [ 75.59591, 12.15432 ], [ 75.59438, 12.15227 ], [ 75.59353, 12.14804 ], [ 75.59256, 12.14785 ], [ 75.59046, 12.15249 ], [ 75.58732, 12.15536 ], [ 75.58375, 12.15699 ], [ 75.58331, 12.15912 ], [ 75.5772, 12.15775 ], [ 75.57538, 12.16281 ], [ 75.56978, 12.17285 ], [ 75.56345, 12.17433 ], [ 75.56027, 12.17612 ], [ 75.55851, 12.18207 ], [ 75.55497, 12.18318 ], [ 75.55262, 12.19285 ], [ 75.55171, 12.19339 ], [ 75.54859, 12.19263 ], [ 75.54625, 12.19794 ], [ 75.54117, 12.19755 ], [ 75.54071, 12.20203 ], [ 75.5398, 12.20273 ], [ 75.53649, 12.20128 ], [ 75.53416, 12.20293 ], [ 75.53321, 12.20117 ], [ 75.53261, 12.20145 ], [ 75.53194, 12.20567 ], [ 75.53512, 12.20624 ], [ 75.53703, 12.20807 ], [ 75.53927, 12.21343 ], [ 75.53969, 12.21681 ], [ 75.53714, 12.21918 ], [ 75.53172, 12.22164 ], [ 75.52691, 12.22569 ], [ 75.52833, 12.23159 ], [ 75.5241, 12.23539 ], [ 75.52111, 12.23613 ], [ 75.52067, 12.24023 ], [ 75.51861, 12.24351 ], [ 75.5198, 12.24621 ], [ 75.51159, 12.25306 ], [ 75.51178, 12.25958 ], [ 75.50583, 12.26458 ], [ 75.50654, 12.26749 ], [ 75.5054, 12.27074 ], [ 75.49387, 12.27279 ], [ 75.49135, 12.27816 ], [ 75.48692, 12.28428 ], [ 75.48663, 12.2886 ], [ 75.48101, 12.29217 ], [ 75.4794, 12.29541 ], [ 75.47547, 12.29596 ], [ 75.47176, 12.29843 ], [ 75.47015, 12.30071 ], [ 75.46374, 12.2983 ], [ 75.4599, 12.29404 ], [ 75.44573, 12.29763 ], [ 75.4412, 12.2966 ], [ 75.43635, 12.29845 ], [ 75.43302, 12.29734 ], [ 75.43009, 12.29901 ], [ 75.42738, 12.29781 ], [ 75.4266, 12.29561 ], [ 75.42284, 12.29509 ], [ 75.4211, 12.29171 ], [ 75.41392, 12.29067 ], [ 75.41373, 12.29236 ], [ 75.41927, 12.29513 ], [ 75.42201, 12.29867 ], [ 75.42515, 12.30057 ], [ 75.42412, 12.30292 ], [ 75.42776, 12.30405 ], [ 75.42829, 12.30699 ], [ 75.43215, 12.30899 ], [ 75.43109, 12.31059 ], [ 75.42716, 12.31072 ], [ 75.42595, 12.31288 ], [ 75.4231, 12.31454 ], [ 75.42181, 12.31776 ], [ 75.42028, 12.31898 ], [ 75.41864, 12.32917 ], [ 75.41619, 12.32993 ], [ 75.41539, 12.34006 ], [ 75.4104, 12.34719 ], [ 75.41168, 12.34914 ], [ 75.41544, 12.34961 ], [ 75.41964, 12.35694 ], [ 75.42076, 12.36493 ], [ 75.42187, 12.36772 ], [ 75.42193, 12.37266 ], [ 75.41791, 12.37689 ], [ 75.41312, 12.38029 ], [ 75.40553, 12.37906 ], [ 75.40154, 12.38252 ], [ 75.4004, 12.38074 ], [ 75.39857, 12.38143 ], [ 75.39596, 12.38449 ], [ 75.39465, 12.38765 ], [ 75.39229, 12.38999 ], [ 75.38649, 12.39237 ], [ 75.38393, 12.39091 ], [ 75.37924, 12.39236 ], [ 75.37974, 12.39404 ], [ 75.37773, 12.39842 ], [ 75.37261, 12.40025 ], [ 75.37258, 12.40321 ], [ 75.37086, 12.40876 ], [ 75.36617, 12.41183 ], [ 75.36713, 12.4133 ], [ 75.36698, 12.41707 ], [ 75.36999, 12.42566 ], [ 75.36908, 12.42946 ], [ 75.37149, 12.43772 ], [ 75.36885, 12.44217 ], [ 75.37042, 12.44562 ], [ 75.37029, 12.44887 ], [ 75.36826, 12.4531 ], [ 75.36717, 12.45333 ], [ 75.36579, 12.45774 ], [ 75.36833, 12.45807 ], [ 75.37126, 12.45655 ], [ 75.37422, 12.45973 ], [ 75.38187, 12.45663 ], [ 75.38345, 12.45798 ], [ 75.38629, 12.45829 ], [ 75.38989, 12.45536 ], [ 75.39221, 12.45512 ], [ 75.3934, 12.45137 ], [ 75.397, 12.45278 ], [ 75.39962, 12.45493 ], [ 75.40398, 12.45494 ], [ 75.41332, 12.45857 ], [ 75.41565, 12.46216 ], [ 75.41572, 12.46598 ], [ 75.42326, 12.46678 ], [ 75.42487, 12.46892 ], [ 75.42482, 12.47426 ], [ 75.4203, 12.47976 ], [ 75.42058, 12.48852 ], [ 75.41857, 12.49055 ], [ 75.41733, 12.49337 ], [ 75.41866, 12.49554 ], [ 75.41613, 12.5 ], [ 75.41594, 12.50547 ], [ 75.41693, 12.50812 ], [ 75.41952, 12.50961 ], [ 75.41911, 12.5102 ], [ 75.41753, 12.50995 ], [ 75.41727, 12.51408 ], [ 75.4189, 12.51516 ], [ 75.42101, 12.51405 ], [ 75.42511, 12.51607 ], [ 75.42973, 12.51378 ], [ 75.4303, 12.51542 ], [ 75.43318, 12.51673 ], [ 75.43031, 12.51999 ], [ 75.43305, 12.52257 ], [ 75.43519, 12.5289 ], [ 75.44063, 12.52729 ], [ 75.44217, 12.52226 ], [ 75.44485, 12.52109 ], [ 75.44643, 12.52131 ], [ 75.44577, 12.51858 ], [ 75.44938, 12.51926 ], [ 75.45208, 12.51505 ], [ 75.45461, 12.51315 ], [ 75.45588, 12.51342 ], [ 75.45689, 12.51617 ], [ 75.45817, 12.51613 ], [ 75.45903, 12.51533 ], [ 75.45878, 12.51083 ], [ 75.45972, 12.50944 ], [ 75.46178, 12.50856 ], [ 75.4614, 12.50524 ], [ 75.46367, 12.5036 ], [ 75.46762, 12.5028 ], [ 75.46916, 12.50187 ], [ 75.46952, 12.50038 ], [ 75.47232, 12.50001 ], [ 75.47008, 12.49703 ], [ 75.46896, 12.49309 ], [ 75.46655, 12.49156 ], [ 75.46393, 12.49153 ], [ 75.46179, 12.48921 ], [ 75.46307, 12.48855 ], [ 75.46363, 12.48654 ], [ 75.46163, 12.48521 ], [ 75.46194, 12.48278 ], [ 75.46089, 12.48023 ], [ 75.46173, 12.4797 ], [ 75.46061, 12.47842 ], [ 75.45906, 12.47839 ], [ 75.45902, 12.4751 ], [ 75.46266, 12.47052 ], [ 75.47266, 12.46539 ], [ 75.47461, 12.46101 ], [ 75.47599, 12.46251 ], [ 75.47545, 12.46321 ], [ 75.47702, 12.46481 ], [ 75.4774, 12.46641 ], [ 75.47925, 12.46677 ], [ 75.48008, 12.4683 ], [ 75.48137, 12.46802 ], [ 75.48044, 12.46546 ], [ 75.48193, 12.46542 ], [ 75.48493, 12.46157 ], [ 75.48695, 12.46158 ], [ 75.4895, 12.45988 ], [ 75.49248, 12.46079 ], [ 75.4929, 12.46256 ], [ 75.49151, 12.46316 ], [ 75.49158, 12.46467 ], [ 75.48924, 12.46529 ], [ 75.49083, 12.46537 ], [ 75.49279, 12.47146 ], [ 75.49599, 12.47402 ], [ 75.49731, 12.47861 ], [ 75.49725, 12.48008 ], [ 75.49593, 12.48077 ], [ 75.49453, 12.48398 ], [ 75.50062, 12.48622 ], [ 75.50278, 12.48795 ], [ 75.50641, 12.48689 ], [ 75.50856, 12.48874 ], [ 75.5132, 12.48967 ], [ 75.51808, 12.48996 ], [ 75.51927, 12.48823 ], [ 75.52256, 12.48969 ], [ 75.52509, 12.48976 ], [ 75.52773, 12.49713 ], [ 75.5303, 12.49882 ], [ 75.53245, 12.49822 ], [ 75.53479, 12.49443 ], [ 75.53996, 12.49319 ], [ 75.54202, 12.49354 ], [ 75.5492, 12.49091 ], [ 75.55242, 12.49169 ], [ 75.55424, 12.49087 ], [ 75.5558, 12.48866 ], [ 75.56109, 12.48728 ], [ 75.56205, 12.48533 ], [ 75.56596, 12.48397 ], [ 75.56641, 12.48706 ], [ 75.56563, 12.49214 ], [ 75.55657, 12.4968 ], [ 75.55309, 12.49757 ], [ 75.5562, 12.50274 ], [ 75.55994, 12.50547 ], [ 75.5634, 12.51046 ], [ 75.56559, 12.51176 ], [ 75.56752, 12.51098 ], [ 75.57015, 12.51138 ], [ 75.57599, 12.51578 ], [ 75.57772, 12.51879 ], [ 75.5807, 12.51929 ], [ 75.58104, 12.52063 ], [ 75.5802, 12.52263 ], [ 75.58173, 12.52382 ], [ 75.58283, 12.52745 ], [ 75.58498, 12.52857 ], [ 75.59191, 12.53632 ], [ 75.59503, 12.53386 ], [ 75.59467, 12.53209 ], [ 75.59608, 12.53028 ], [ 75.59588, 12.52889 ], [ 75.59742, 12.52478 ], [ 75.60573, 12.51925 ], [ 75.60523, 12.51752 ], [ 75.6064, 12.51533 ], [ 75.60537, 12.51186 ], [ 75.60582, 12.51059 ], [ 75.60778, 12.50956 ], [ 75.61102, 12.51007 ], [ 75.61307, 12.50912 ], [ 75.61551, 12.50935 ], [ 75.6234, 12.51511 ], [ 75.62766, 12.52166 ], [ 75.6283, 12.51898 ], [ 75.63016, 12.51893 ], [ 75.63246, 12.52096 ], [ 75.63339, 12.52316 ], [ 75.63232, 12.52507 ], [ 75.63356, 12.52766 ], [ 75.63627, 12.52898 ], [ 75.63911, 12.53469 ], [ 75.64145, 12.5375 ], [ 75.64424, 12.539 ], [ 75.65184, 12.54059 ], [ 75.65347, 12.53972 ], [ 75.65546, 12.54083 ], [ 75.65635, 12.54251 ], [ 75.66023, 12.54345 ], [ 75.66226, 12.54576 ], [ 75.66646, 12.54656 ], [ 75.66677, 12.54762 ], [ 75.67057, 12.55026 ], [ 75.67026, 12.55797 ], [ 75.66859, 12.56091 ], [ 75.66848, 12.56546 ], [ 75.66553, 12.5687 ], [ 75.66312, 12.56986 ], [ 75.6637, 12.57102 ], [ 75.66764, 12.57218 ], [ 75.66752, 12.57413 ], [ 75.66543, 12.57605 ], [ 75.66323, 12.57546 ], [ 75.66175, 12.5798 ], [ 75.66066, 12.58023 ], [ 75.66345, 12.58375 ], [ 75.66365, 12.58515 ], [ 75.66263, 12.58772 ], [ 75.66272, 12.59055 ], [ 75.66049, 12.59373 ], [ 75.66017, 12.59587 ], [ 75.66528, 12.59962 ], [ 75.66599, 12.6022 ], [ 75.66833, 12.60551 ], [ 75.67532, 12.60869 ], [ 75.67751, 12.60647 ], [ 75.68184, 12.60468 ], [ 75.68808, 12.60752 ], [ 75.69091, 12.60262 ], [ 75.69335, 12.6023 ], [ 75.69511, 12.60112 ], [ 75.70543, 12.60197 ], [ 75.707, 12.59964 ], [ 75.70841, 12.59494 ], [ 75.71115, 12.5948 ], [ 75.71424, 12.59647 ], [ 75.71814, 12.5966 ], [ 75.71928, 12.59619 ], [ 75.72108, 12.59275 ], [ 75.73152, 12.59188 ], [ 75.73212, 12.58631 ], [ 75.73359, 12.5831 ], [ 75.73174, 12.57465 ], [ 75.73438, 12.56425 ], [ 75.737, 12.56124 ], [ 75.73586, 12.55841 ], [ 75.73415, 12.55782 ], [ 75.73229, 12.55574 ], [ 75.73257, 12.55502 ], [ 75.72978, 12.55022 ], [ 75.73025, 12.54764 ], [ 75.73089, 12.54771 ], [ 75.73265, 12.54434 ], [ 75.7329, 12.54336 ], [ 75.73202, 12.54252 ], [ 75.73263, 12.53956 ], [ 75.73479, 12.53801 ], [ 75.73913, 12.54037 ], [ 75.73969, 12.54177 ], [ 75.74257, 12.54262 ], [ 75.74814, 12.53999 ], [ 75.75682, 12.54085 ], [ 75.75937, 12.53754 ], [ 75.76164, 12.53182 ], [ 75.76773, 12.52459 ], [ 75.769, 12.52199 ], [ 75.76822, 12.52 ], [ 75.77863, 12.50276 ], [ 75.77956, 12.50048 ], [ 75.77919, 12.49756 ], [ 75.78061, 12.49383 ], [ 75.78458, 12.49006 ], [ 75.7848, 12.48667 ], [ 75.78598, 12.48461 ], [ 75.78338, 12.48361 ], [ 75.78202, 12.47946 ], [ 75.77753, 12.47813 ], [ 75.77789, 12.47721 ], [ 75.77576, 12.47424 ], [ 75.7741, 12.47343 ], [ 75.77339, 12.47144 ], [ 75.77061, 12.46922 ], [ 75.77153, 12.4681 ], [ 75.77292, 12.468 ], [ 75.77333, 12.46281 ], [ 75.77516, 12.46313 ], [ 75.77719, 12.45809 ], [ 75.78147, 12.45462 ], [ 75.7788, 12.45044 ] ] ] } },
{ "type": "Feature", "properties": { "OBJECTID": 2869, "state_lgd": "29", "state_name": "KARNATAKA", "district_lgd": "576", "district_name": "KODAGU", "district_name_source": "district_table", "subdistrict_lgd": "05568", "subdistrict_name": "VIRAJPET", "subdistrict_type": "Taluk", "name_corrupted": false, "remarks": "", "label_lon": 75.830257424802639, "label_lat": 12.2144937471249 }, "geometry": { "type": "Polygon", "coordinates": [ [ [ 75.92051, 12.38751 ], [ 75.9232, 12.38533 ], [ 75.92517, 12.38537 ], [ 75.92699, 12.38392 ], [ 75.9319, 12.38231 ], [ 75.93521, 12.37949 ], [ 75.93759, 12.37372 ], [ 75.9402, 12.37178 ], [ 75.94303, 12.36614 ], [ 75.9533, 12.35343 ], [ 75.95795, 12.34953 ], [ 75.95897, 12.34691 ], [ 75.96151, 12.34427 ], [ 75.96242, 12.34365 ], [ 75.96608, 12.34518 ], [ 75.96871, 12.34296 ], [ 75.97002, 12.34399 ], [ 75.97295, 12.34135 ], [ 75.9769, 12.34035 ], [ 75.98328, 12.34268 ], [ 75.98413, 12.34217 ], [ 75.98525, 12.33902 ], [ 75.98883, 12.33633 ], [ 75.99331, 12.33618 ], [ 75.9984, 12.33263 ], [ 75.99888, 12.33319 ], [ 76.00075, 12.33224 ], [ 76.00251, 12.32974 ], [ 75.99774, 12.32633 ], [ 75.99386, 12.32111 ], [ 75.99438, 12.31784 ], [ 75.99712, 12.31517 ], [ 75.99656, 12.31039 ], [ 75.99855, 12.30745 ], [ 76.00461, 12.30544 ], [ 76.0056, 12.30365 ], [ 76.00799, 12.30202 ], [ 76.00926, 12.29778 ], [ 76.01175, 12.29598 ], [ 76.01406, 12.29265 ], [ 76.01365, 12.29016 ], [ 76.01451, 12.28778 ], [ 76.01319, 12.28613 ], [ 76.01168, 12.28579 ], [ 76.00662, 12.28721 ], [ 76.004, 12.28888 ], [ 75.99916, 12.28917 ], [ 75.99514, 12.28707 ], [ 75.99195, 12.28164 ], [ 75.98565, 12.27694 ], [ 75.97416, 12.26288 ], [ 75.96937, 12.25962 ], [ 75.96267, 12.24941 ], [ 75.95812, 12.24514 ], [ 75.95855, 12.24363 ], [ 75.95697, 12.24362 ], [ 75.94999, 12.23744 ], [ 75.94652, 12.2333 ], [ 75.94218, 12.2319 ], [ 75.93976, 12.2324 ], [ 75.94016, 12.23176 ], [ 75.93748, 12.22986 ], [ 75.9357, 12.22598 ], [ 75.93224, 12.22503 ], [ 75.92833, 12.2199 ], [ 75.92704, 12.21661 ], [ 75.92564, 12.2165 ], [ 75.92571, 12.21895 ], [ 75.92436, 12.21728 ], [ 75.92448, 12.21603 ], [ 75.92284, 12.21501 ], [ 75.91961, 12.21365 ], [ 75.91952, 12.21461 ], [ 75.91817, 12.21507 ], [ 75.91625, 12.21043 ], [ 75.91546, 12.21079 ], [ 75.914, 12.2096 ], [ 75.91242, 12.21068 ], [ 75.9129, 12.20907 ], [ 75.91011, 12.20854 ], [ 75.90762, 12.20914 ], [ 75.9024, 12.21239 ], [ 75.90205, 12.21148 ], [ 75.90404, 12.21057 ], [ 75.90718, 12.20729 ], [ 75.91283, 12.20398 ], [ 75.91246, 12.20279 ], [ 75.91045, 12.20243 ], [ 75.9096, 12.20148 ], [ 75.90812, 12.19766 ], [ 75.90508, 12.19779 ], [ 75.90433, 12.19478 ], [ 75.90559, 12.19487 ], [ 75.90531, 12.19376 ], [ 75.90004, 12.19494 ], [ 75.89799, 12.19433 ], [ 75.89534, 12.19619 ], [ 75.89429, 12.18845 ], [ 75.89306, 12.18587 ], [ 75.88376, 12.18331 ], [ 75.88233, 12.18788 ], [ 75.88304, 12.1908 ], [ 75.87919, 12.18724 ], [ 75.87867, 12.18198 ], [ 75.87941, 12.18176 ], [ 75.87939, 12.18063 ], [ 75.87831, 12.17915 ], [ 75.87575, 12.17855 ], [ 75.87546, 12.17967 ], [ 75.87412, 12.17893 ], [ 75.87352, 12.17946 ], [ 75.87217, 12.17799 ], [ 75.87045, 12.17816 ], [ 75.86846, 12.18037 ], [ 75.86633, 12.17854 ], [ 75.8643, 12.17853 ], [ 75.86376, 12.17701 ], [ 75.86433, 12.17624 ], [ 75.86663, 12.17692 ], [ 75.86696, 12.1763 ], [ 75.86646, 12.17535 ], [ 75.86503, 12.17604 ], [ 75.86543, 12.17383 ], [ 75.86476, 12.17335 ], [ 75.86619, 12.17295 ], [ 75.86596, 12.17454 ], [ 75.86652, 12.17466 ], [ 75.86816, 12.17324 ], [ 75.86705, 12.17264 ], [ 75.86822, 12.17216 ], [ 75.86912, 12.1705 ], [ 75.87014, 12.16658 ], [ 75.87016, 12.16481 ], [ 75.86741, 12.16578 ], [ 75.86757, 12.1638 ], [ 75.86961, 12.16252 ], [ 75.87064, 12.16014 ], [ 75.87001, 12.15814 ], [ 75.86804, 12.15627 ], [ 75.86919, 12.15492 ], [ 75.86908, 12.15289 ], [ 75.86971, 12.15236 ], [ 75.86813, 12.15062 ], [ 75.87084, 12.14839 ], [ 75.87451, 12.14795 ], [ 75.87443, 12.1467 ], [ 75.87887, 12.14474 ], [ 75.87958, 12.14288 ], [ 75.88058, 12.14333 ], [ 75.8827, 12.14265 ], [ 75.88257, 12.14146 ], [ 75.88456, 12.13889 ], [ 75.8831, 12.1366 ], [ 75.88071, 12.13768 ], [ 75.87824, 12.13605 ], [ 75.87575, 12.13738 ], [ 75.87394, 12.13669 ], [ 75.8725, 12.13718 ], [ 75.87027, 12.13476 ], [ 75.86646, 12.13442 ], [ 75.86452, 12.13239 ], [ 75.86527, 12.1311 ], [ 75.86429, 12.12728 ], [ 75.86602, 12.12623 ], [ 75.86625, 12.12439 ], [ 75.86441, 12.12338 ], [ 75.86329, 12.11994 ], [ 75.86021, 12.11868 ], [ 75.86085, 12.11451 ], [ 75.85889, 12.11139 ], [ 75.86131, 12.11092 ], [ 75.86167, 12.11007 ], [ 75.8611, 12.10511 ], [ 75.86133, 12.10173 ], [ 75.86232, 12.09964 ], [ 75.85992, 12.08117 ], [ 75.86026, 12.07841 ], [ 75.85876, 12.07278 ], [ 75.85619, 12.07097 ], [ 75.84955, 12.07149 ], [ 75.84659, 12.0703 ], [ 75.84354, 12.07298 ], [ 75.83946, 12.07008 ], [ 75.83818, 12.07047 ], [ 75.8368, 12.07294 ], [ 75.83415, 12.07475 ], [ 75.83123, 12.07366 ], [ 75.82762, 12.07618 ], [ 75.81983, 12.07526 ], [ 75.81821, 12.07651 ], [ 75.80734, 12.07943 ], [ 75.80472, 12.08095 ], [ 75.80501, 12.07953 ], [ 75.80112, 12.08018 ], [ 75.79992, 12.07951 ], [ 75.80023, 12.07902 ], [ 75.79721, 12.07991 ], [ 75.79539, 12.08195 ], [ 75.79019, 12.08199 ], [ 75.78542, 12.08426 ], [ 75.78036, 12.08251 ], [ 75.77331, 12.0827 ], [ 75.76763, 12.08448 ], [ 75.76282, 12.08325 ], [ 75.75207, 12.08387 ], [ 75.74913, 12.08191 ], [ 75.74712, 12.07819 ], [ 75.7459, 12.07827 ], [ 75.74358, 12.08017 ], [ 75.74033, 12.07899 ], [ 75.73611, 12.07895 ], [ 75.72774, 12.07255 ], [ 75.72485, 12.07318 ], [ 75.72219, 12.07247 ], [ 75.72002, 12.07085 ], [ 75.71473, 12.07044 ], [ 75.71496, 12.07619 ], [ 75.71629, 12.07937 ], [ 75.71545, 12.08166 ], [ 75.71769, 12.08229 ], [ 75.71793, 12.08558 ], [ 75.71503, 12.08758 ], [ 75.71433, 12.08954 ], [ 75.71307, 12.09048 ], [ 75.71083, 12.09042 ], [ 75.70667, 12.09229 ], [ 75.70331, 12.09161 ], [ 75.70213, 12.09229 ], [ 75.70293, 12.09593 ], [ 75.70326, 12.10817 ], [ 75.69694, 12.10919 ], [ 75.69554, 12.11049 ], [ 75.68718, 12.11025 ], [ 75.68364, 12.10449 ], [ 75.67988, 12.10273 ], [ 75.67687, 12.0982 ], [ 75.67318, 12.09801 ], [ 75.675, 12.10189 ], [ 75.67453, 12.10704 ], [ 75.67615, 12.10806 ], [ 75.67568, 12.1115 ], [ 75.6719, 12.11624 ], [ 75.6717, 12.11737 ], [ 75.67243, 12.11799 ], [ 75.67106, 12.12603 ], [ 75.66895, 12.12893 ], [ 75.66627, 12.13712 ], [ 75.66318, 12.14262 ], [ 75.66181, 12.14302 ], [ 75.66195, 12.14487 ], [ 75.6649, 12.14611 ], [ 75.66639, 12.14792 ], [ 75.66618, 12.15209 ], [ 75.6682, 12.15395 ], [ 75.67067, 12.16215 ], [ 75.67434, 12.16314 ], [ 75.67597, 12.16267 ], [ 75.68477, 12.16574 ], [ 75.68773, 12.16887 ], [ 75.68876, 12.17155 ], [ 75.68873, 12.1767 ], [ 75.68739, 12.17815 ], [ 75.68769, 12.17884 ], [ 75.69093, 12.17957 ], [ 75.69472, 12.17769 ], [ 75.69727, 12.17824 ], [ 75.6983, 12.18013 ], [ 75.69815, 12.18348 ], [ 75.70238, 12.18658 ], [ 75.7022, 12.18878 ], [ 75.70552, 12.19211 ], [ 75.70576, 12.19491 ], [ 75.70651, 12.19698 ], [ 75.70728, 12.19718 ], [ 75.70776, 12.20033 ], [ 75.70912, 12.20029 ], [ 75.7093, 12.20249 ], [ 75.71172, 12.20382 ], [ 75.71062, 12.20436 ], [ 75.71268, 12.20422 ], [ 75.71237, 12.20602 ], [ 75.71296, 12.20616 ], [ 75.7152, 12.20391 ], [ 75.71805, 12.20605 ], [ 75.71823, 12.20675 ], [ 75.71645, 12.20823 ], [ 75.71937, 12.20887 ], [ 75.7193, 12.21254 ], [ 75.71744, 12.21326 ], [ 75.71416, 12.21292 ], [ 75.71414, 12.21381 ], [ 75.71552, 12.21394 ], [ 75.71919, 12.2166 ], [ 75.72012, 12.21586 ], [ 75.72292, 12.21678 ], [ 75.72324, 12.21612 ], [ 75.72474, 12.21632 ], [ 75.72625, 12.2141 ], [ 75.72724, 12.21398 ], [ 75.72633, 12.21228 ], [ 75.72843, 12.21073 ], [ 75.72903, 12.20851 ], [ 75.7326, 12.20937 ], [ 75.73382, 12.21075 ], [ 75.73262, 12.21345 ], [ 75.73351, 12.21407 ], [ 75.73285, 12.21465 ], [ 75.73498, 12.21545 ], [ 75.73442, 12.2174 ], [ 75.73627, 12.21741 ], [ 75.73669, 12.21528 ], [ 75.73881, 12.21547 ], [ 75.73867, 12.21447 ], [ 75.74161, 12.21404 ], [ 75.74235, 12.21521 ], [ 75.74121, 12.21909 ], [ 75.73809, 12.22273 ], [ 75.74083, 12.22558 ], [ 75.74169, 12.22796 ], [ 75.74079, 12.22998 ], [ 75.74178, 12.23188 ], [ 75.74087, 12.23247 ], [ 75.7401, 12.23516 ], [ 75.73827, 12.23644 ], [ 75.73861, 12.238 ], [ 75.73703, 12.23841 ], [ 75.73542, 12.23619 ], [ 75.7323, 12.23809 ], [ 75.73165, 12.24028 ], [ 75.73068, 12.24072 ], [ 75.73052, 12.24262 ], [ 75.72655, 12.242 ], [ 75.72476, 12.24367 ], [ 75.72489, 12.24452 ], [ 75.72246, 12.24274 ], [ 75.72168, 12.24355 ], [ 75.72247, 12.2447 ], [ 75.72141, 12.24517 ], [ 75.72035, 12.24889 ], [ 75.71881, 12.25082 ], [ 75.7176, 12.24961 ], [ 75.71805, 12.24647 ], [ 75.71712, 12.24607 ], [ 75.71622, 12.24667 ], [ 75.7157, 12.24823 ], [ 75.71857, 12.2519 ], [ 75.7174, 12.25499 ], [ 75.71832, 12.256 ], [ 75.71977, 12.25595 ], [ 75.72021, 12.25913 ], [ 75.72103, 12.25873 ], [ 75.72151, 12.25936 ], [ 75.72092, 12.26042 ], [ 75.72171, 12.26119 ], [ 75.72116, 12.26366 ], [ 75.72423, 12.26396 ], [ 75.72427, 12.26678 ], [ 75.7281, 12.26899 ], [ 75.72683, 12.27173 ], [ 75.72736, 12.27282 ], [ 75.73201, 12.27644 ], [ 75.73579, 12.27554 ], [ 75.73932, 12.27937 ], [ 75.74367, 12.28158 ], [ 75.74527, 12.28444 ], [ 75.74945, 12.28017 ], [ 75.75018, 12.27819 ], [ 75.74981, 12.27586 ], [ 75.75027, 12.27438 ], [ 75.75149, 12.27363 ], [ 75.75253, 12.2742 ], [ 75.75141, 12.27683 ], [ 75.75176, 12.27855 ], [ 75.75856, 12.28186 ], [ 75.75912, 12.28282 ], [ 75.75986, 12.28261 ], [ 75.76023, 12.27972 ], [ 75.76177, 12.27772 ], [ 75.76622, 12.27596 ], [ 75.76942, 12.27604 ], [ 75.77086, 12.2774 ], [ 75.77356, 12.28442 ], [ 75.77653, 12.28575 ], [ 75.78072, 12.29464 ], [ 75.78266, 12.29681 ], [ 75.78739, 12.29803 ], [ 75.79129, 12.3024 ], [ 75.79458, 12.30209 ], [ 75.79647, 12.3006 ], [ 75.79799, 12.29794 ], [ 75.80295, 12.2957 ], [ 75.80451, 12.29127 ], [ 75.81007, 12.29251 ], [ 75.80965, 12.29594 ], [ 75.80721, 12.29944 ], [ 75.81421, 12.30208 ], [ 75.81612, 12.30944 ], [ 75.82184, 12.31554 ], [ 75.82413, 12.31492 ], [ 75.8286, 12.31103 ], [ 75.83068, 12.30774 ], [ 75.83045, 12.30547 ], [ 75.82633, 12.30215 ], [ 75.82657, 12.30011 ], [ 75.82805, 12.29871 ], [ 75.83145, 12.29907 ], [ 75.83253, 12.30142 ], [ 75.83388, 12.30122 ], [ 75.8367, 12.30385 ], [ 75.83961, 12.30452 ], [ 75.84206, 12.30837 ], [ 75.84562, 12.31 ], [ 75.84786, 12.30955 ], [ 75.84812, 12.30779 ], [ 75.84735, 12.3061 ], [ 75.85026, 12.30293 ], [ 75.85113, 12.29907 ], [ 75.8533, 12.29578 ], [ 75.85448, 12.29681 ], [ 75.85439, 12.30152 ], [ 75.8573, 12.30524 ], [ 75.86335, 12.30446 ], [ 75.86454, 12.30393 ], [ 75.86373, 12.30304 ], [ 75.86457, 12.30282 ], [ 75.86918, 12.30571 ], [ 75.8749, 12.30701 ], [ 75.88107, 12.31105 ], [ 75.88368, 12.31643 ], [ 75.88721, 12.31926 ], [ 75.88757, 12.32062 ], [ 75.8781, 12.33158 ], [ 75.87848, 12.33297 ], [ 75.8785, 12.33226 ], [ 75.88337, 12.33764 ], [ 75.88322, 12.34009 ], [ 75.88523, 12.3421 ], [ 75.88757, 12.34139 ], [ 75.89211, 12.34196 ], [ 75.8932, 12.34488 ], [ 75.89645, 12.34777 ], [ 75.9015, 12.34611 ], [ 75.90327, 12.34629 ], [ 75.9042, 12.3482 ], [ 75.90403, 12.3507 ], [ 75.90564, 12.35453 ], [ 75.90495, 12.35597 ], [ 75.90128, 12.35768 ], [ 75.89739, 12.36761 ], [ 75.90327, 12.36961 ], [ 75.90524, 12.37392 ], [ 75.91312, 12.37975 ], [ 75.91616, 12.38653 ], [ 75.91886, 12.3865 ], [ 75.92051, 12.38751 ] ] ] } },
{ "type": "Feature", "properties": { "OBJECTID": 2870, "state_lgd": "29", "state_name": "KARNATAKA", "district_lgd": "576", "district_name": "KODAGU", "district_name_source": "district_table", "subdistrict_lgd": "05567", "subdistrict_name": "SOMVARPET", "subdistrict_type": "Taluk", "name_corrupted": false, "remarks": "", "label_lon": 75.828822501274814, "label_lat": 12.629909624438437 }, "geometry": { "type": "Polygon", "coordinates": [ [ [ 75.88078, 12.83395 ], [ 75.89395, 12.82876 ], [ 75.89652, 12.82914 ], [ 75.89941, 12.82843 ], [ 75.90088, 12.82599 ], [ 75.90217, 12.81876 ], [ 75.9092, 12.81635 ], [ 75.91245, 12.81649 ], [ 75.91761, 12.8194 ], [ 75.91832, 12.82095 ], [ 75.91669, 12.82398 ], [ 75.91682, 12.82644 ], [ 75.91831, 12.82818 ], [ 75.91994, 12.82812 ], [ 75.92206, 12.82486 ], [ 75.9272, 12.82277 ], [ 75.92817, 12.82139 ], [ 75.92529, 12.81359 ], [ 75.92538, 12.81137 ], [ 75.92859, 12.80948 ], [ 75.92964, 12.80785 ], [ 75.93134, 12.80735 ], [ 75.9358, 12.80808 ], [ 75.94272, 12.80733 ], [ 75.9471, 12.80798 ], [ 75.94877, 12.8058 ], [ 75.94927, 12.80017 ], [ 75.95224, 12.80069 ], [ 75.95548, 12.80242 ], [ 75.96016, 12.80228 ], [ 75.96751, 12.80372 ], [ 75.9668, 12.79344 ], [ 75.97068, 12.7866 ], [ 75.97148, 12.7845 ], [ 75.97101, 12.78266 ], [ 75.96831, 12.78281 ], [ 75.96635, 12.7803 ], [ 75.96502, 12.78171 ], [ 75.96239, 12.78234 ], [ 75.95824, 12.78219 ], [ 75.95615, 12.77894 ], [ 75.95499, 12.77575 ], [ 75.95464, 12.77079 ], [ 75.95291, 12.76802 ], [ 75.95026, 12.76777 ], [ 75.94635, 12.76583 ], [ 75.94051, 12.76767 ], [ 75.93484, 12.76764 ], [ 75.93284, 12.76368 ], [ 75.93282, 12.76259 ], [ 75.9338, 12.76246 ], [ 75.93349, 12.76154 ], [ 75.93508, 12.75925 ], [ 75.93378, 12.75767 ], [ 75.93587, 12.75596 ], [ 75.93795, 12.75023 ], [ 75.93467, 12.73677 ], [ 75.93533, 12.73181 ], [ 75.93891, 12.72721 ], [ 75.94322, 12.71866 ], [ 75.94527, 12.71731 ], [ 75.95122, 12.71646 ], [ 75.96386, 12.70988 ], [ 75.96608, 12.70997 ], [ 75.96424, 12.70635 ], [ 75.96254, 12.70531 ], [ 75.96479, 12.70349 ], [ 75.96474, 12.70003 ], [ 75.96188, 12.69521 ], [ 75.96132, 12.69231 ], [ 75.95847, 12.68998 ], [ 75.95914, 12.68333 ], [ 75.95605, 12.67983 ], [ 75.95683, 12.67929 ], [ 75.95475, 12.67637 ], [ 75.95172, 12.67681 ], [ 75.94811, 12.67587 ], [ 75.94118, 12.67577 ], [ 75.93998, 12.6744 ], [ 75.94145, 12.67091 ], [ 75.94301, 12.67004 ], [ 75.94272, 12.66902 ], [ 75.94394, 12.66895 ], [ 75.9442, 12.6678 ], [ 75.94495, 12.66845 ], [ 75.94687, 12.66634 ], [ 75.94658, 12.66582 ], [ 75.9474, 12.66591 ], [ 75.9476, 12.66399 ], [ 75.94362, 12.66124 ], [ 75.94098, 12.65768 ], [ 75.93875, 12.64961 ], [ 75.93802, 12.64357 ], [ 75.94063, 12.64178 ], [ 75.94281, 12.63657 ], [ 75.94047, 12.63221 ], [ 75.93624, 12.62984 ], [ 75.93859, 12.62799 ], [ 75.94006, 12.62788 ], [ 75.94431, 12.62925 ], [ 75.94646, 12.62705 ], [ 75.9493, 12.62101 ], [ 75.94713, 12.61359 ], [ 75.93924, 12.60905 ], [ 75.94054, 12.60413 ], [ 75.94268, 12.60287 ], [ 75.94554, 12.5995 ], [ 75.9418, 12.59865 ], [ 75.93835, 12.59936 ], [ 75.93246, 12.59838 ], [ 75.93067, 12.59425 ], [ 75.92777, 12.59252 ], [ 75.92877, 12.57975 ], [ 75.93515, 12.55546 ], [ 75.93528, 12.54933 ], [ 75.92783, 12.55072 ], [ 75.92445, 12.55013 ], [ 75.92149, 12.54731 ], [ 75.92278, 12.54471 ], [ 75.9219, 12.54234 ], [ 75.92218, 12.54027 ], [ 75.91753, 12.53895 ], [ 75.91792, 12.5373 ], [ 75.91712, 12.53382 ], [ 75.91309, 12.53398 ], [ 75.91318, 12.52561 ], [ 75.91563, 12.52192 ], [ 75.91693, 12.51816 ], [ 75.91214, 12.51838 ], [ 75.91162, 12.51779 ], [ 75.91297, 12.51518 ], [ 75.9104, 12.51467 ], [ 75.90962, 12.51331 ], [ 75.90718, 12.51308 ], [ 75.90744, 12.51208 ], [ 75.90462, 12.50615 ], [ 75.90431, 12.5037 ], [ 75.90647, 12.49731 ], [ 75.90721, 12.48588 ], [ 75.9014, 12.48472 ], [ 75.89921, 12.48756 ], [ 75.89738, 12.48734 ], [ 75.8933, 12.49104 ], [ 75.89025, 12.49242 ], [ 75.88917, 12.49006 ], [ 75.89105, 12.48626 ], [ 75.88865, 12.48269 ], [ 75.88556, 12.47984 ], [ 75.8821, 12.48089 ], [ 75.88091, 12.48214 ], [ 75.88188, 12.48218 ], [ 75.88264, 12.48524 ], [ 75.8816, 12.48773 ], [ 75.87905, 12.48913 ], [ 75.88035, 12.49211 ], [ 75.87833, 12.49549 ], [ 75.88006, 12.49773 ], [ 75.88002, 12.49986 ], [ 75.87918, 12.50159 ], [ 75.87462, 12.50267 ], [ 75.87193, 12.50084 ], [ 75.86902, 12.50062 ], [ 75.86817, 12.49976 ], [ 75.86643, 12.49615 ], [ 75.86731, 12.49518 ], [ 75.86679, 12.49367 ], [ 75.86776, 12.49201 ], [ 75.86621, 12.49017 ], [ 75.86496, 12.49004 ], [ 75.85894, 12.49733 ], [ 75.85311, 12.49794 ], [ 75.85251, 12.49685 ], [ 75.85049, 12.49743 ], [ 75.84861, 12.4982 ], [ 75.84667, 12.50106 ], [ 75.8452, 12.50139 ], [ 75.84451, 12.49746 ], [ 75.84312, 12.49662 ], [ 75.84118, 12.49684 ], [ 75.83781, 12.49449 ], [ 75.83857, 12.49112 ], [ 75.84009, 12.4902 ], [ 75.84111, 12.48807 ], [ 75.83978, 12.4855 ], [ 75.8427, 12.48135 ], [ 75.84413, 12.47679 ], [ 75.84061, 12.47548 ], [ 75.83711, 12.47595 ], [ 75.83411, 12.47441 ], [ 75.83134, 12.47568 ], [ 75.82874, 12.48248 ], [ 75.82556, 12.48252 ], [ 75.8242, 12.48386 ], [ 75.82018, 12.48469 ], [ 75.81735, 12.48262 ], [ 75.81451, 12.47806 ], [ 75.81777, 12.47081 ], [ 75.81264, 12.46659 ], [ 75.81209, 12.46529 ], [ 75.8217, 12.4579 ], [ 75.81897, 12.4504 ], [ 75.82107, 12.4487 ], [ 75.82326, 12.44203 ], [ 75.82468, 12.44217 ], [ 75.82674, 12.43968 ], [ 75.82195, 12.42848 ], [ 75.82187, 12.4251 ], [ 75.82012, 12.42653 ], [ 75.8181, 12.43196 ], [ 75.81548, 12.43581 ], [ 75.80549, 12.4394 ], [ 75.80671, 12.44689 ], [ 75.80524, 12.45108 ], [ 75.79761, 12.45668 ], [ 75.79182, 12.46281 ], [ 75.79007, 12.46314 ], [ 75.78908, 12.46226 ], [ 75.78893, 12.45919 ], [ 75.79053, 12.455 ], [ 75.79302, 12.45188 ], [ 75.79742, 12.44922 ], [ 75.79719, 12.44787 ], [ 75.78913, 12.44493 ], [ 75.78707, 12.44522 ], [ 75.78064, 12.44992 ], [ 75.7788, 12.45044 ], [ 75.78147, 12.45462 ], [ 75.77719, 12.45809 ], [ 75.77516, 12.46313 ], [ 75.77333, 12.46281 ], [ 75.77292, 12.468 ], [ 75.77153, 12.4681 ], [ 75.77061, 12.46922 ], [ 75.77339, 12.47144 ], [ 75.7741, 12.47343 ], [ 75.77576, 12.47424 ], [ 75.77789, 12.47721 ], [ 75.77753, 12.47813 ], [ 75.78202, 12.47946 ], [ 75.78338, 12.48361 ], [ 75.78598, 12.48461 ], [ 75.7848, 12.48667 ], [ 75.78458, 12.49006 ], [ 75.78061, 12.49383 ], [ 75.77919, 12.49756 ], [ 75.77956, 12.50048 ], [ 75.77863, 12.50276 ], [ 75.76822, 12.52 ], [ 75.769, 12.52199 ], [ 75.76773, 12.52459 ], [ 75.76164, 12.53182 ], [ 75.75937, 12.53754 ], [ 75.75682, 12.54085 ], [ 75.74814, 12.53999 ], [ 75.74257, 12.54262 ], [ 75.73969, 12.54177 ], [ 75.73913, 12.54037 ], [ 75.73479, 12.53801 ], [ 75.73263, 12.53956 ], [ 75.73202, 12.54252 ], [ 75.7329, 12.54336 ], [ 75.73265, 12.54434 ], [ 75.73089, 12.54771 ], [ 75.73025, 12.54764 ], [ 75.72978, 12.55022 ], [ 75.73257, 12.55502 ], [ 75.73229, 12.55574 ], [ 75.73415, 12.55782 ], [ 75.73586, 12.55841 ], [ 75.737, 12.56124 ], [ 75.73438, 12.56425 ], [ 75.73174, 12.57465 ], [ 75.73359, 12.5831 ], [ 75.73212, 12.58631 ], [ 75.73152, 12.59188 ], [ 75.72108, 12.59275 ], [ 75.71928, 12.59619 ], [ 75.71814, 12.5966 ], [ 75.71424, 12.59647 ], [ 75.71115, 12.5948 ], [ 75.70841, 12.59494 ], [ 75.707, 12.59964 ], [ 75.70543, 12.60197 ], [ 75.69511, 12.60112 ], [ 75.69335, 12.6023 ], [ 75.69091, 12.60262 ], [ 75.68808, 12.60752 ], [ 75.68184, 12.60468 ], [ 75.67751, 12.60647 ], [ 75.67532, 12.60869 ], [ 75.66833, 12.60551 ], [ 75.66599, 12.6022 ], [ 75.66528, 12.59962 ], [ 75.66017, 12.59587 ], [ 75.66095, 12.59925 ], [ 75.65867, 12.60196 ], [ 75.65622, 12.60331 ], [ 75.65415, 12.61032 ], [ 75.65245, 12.61162 ], [ 75.65435, 12.61483 ], [ 75.65249, 12.622 ], [ 75.649, 12.62466 ], [ 75.6423, 12.6274 ], [ 75.64154, 12.63306 ], [ 75.64406, 12.63688 ], [ 75.64517, 12.64209 ], [ 75.6436, 12.64646 ], [ 75.64531, 12.65306 ], [ 75.64534, 12.65827 ], [ 75.64787, 12.66293 ], [ 75.64843, 12.66721 ], [ 75.65269, 12.67217 ], [ 75.65397, 12.67792 ], [ 75.66684, 12.69821 ], [ 75.6687, 12.69771 ], [ 75.67492, 12.70081 ], [ 75.67966, 12.70074 ], [ 75.68294, 12.70158 ], [ 75.6877, 12.70112 ], [ 75.70077, 12.70438 ], [ 75.70484, 12.70631 ], [ 75.70784, 12.706 ], [ 75.71074, 12.70467 ], [ 75.7116, 12.70554 ], [ 75.71232, 12.70526 ], [ 75.71329, 12.70746 ], [ 75.71523, 12.70666 ], [ 75.71709, 12.70428 ], [ 75.71909, 12.70569 ], [ 75.71992, 12.70532 ], [ 75.72002, 12.70313 ], [ 75.72268, 12.70094 ], [ 75.72232, 12.6967 ], [ 75.72935, 12.69777 ], [ 75.73127, 12.6974 ], [ 75.73427, 12.69352 ], [ 75.73613, 12.69289 ], [ 75.73858, 12.69019 ], [ 75.74062, 12.68414 ], [ 75.74384, 12.68062 ], [ 75.75202, 12.6766 ], [ 75.75354, 12.67719 ], [ 75.75573, 12.67547 ], [ 75.76047, 12.67361 ], [ 75.76716, 12.68077 ], [ 75.7712, 12.68102 ], [ 75.77345, 12.68001 ], [ 75.7747, 12.68141 ], [ 75.77418, 12.6836 ], [ 75.7755, 12.68676 ], [ 75.77805, 12.6885 ], [ 75.78153, 12.68629 ], [ 75.7842, 12.68647 ], [ 75.78457, 12.68728 ], [ 75.78863, 12.68632 ], [ 75.79137, 12.68707 ], [ 75.79261, 12.68894 ], [ 75.79443, 12.68914 ], [ 75.7975, 12.6939 ], [ 75.8016, 12.69514 ], [ 75.80244, 12.69694 ], [ 75.80751, 12.70128 ], [ 75.81691, 12.69294 ], [ 75.81879, 12.68827 ], [ 75.81856, 12.68636 ], [ 75.81983, 12.68453 ], [ 75.82331, 12.68268 ], [ 75.82547, 12.68242 ], [ 75.82958, 12.6753 ], [ 75.83492, 12.67087 ], [ 75.83777, 12.67094 ], [ 75.84334, 12.66858 ], [ 75.84393, 12.6687 ], [ 75.84365, 12.6699 ], [ 75.84544, 12.67074 ], [ 75.8463, 12.6722 ], [ 75.84932, 12.67143 ], [ 75.85114, 12.66958 ], [ 75.85304, 12.66945 ], [ 75.86173, 12.67181 ], [ 75.86353, 12.67365 ], [ 75.86472, 12.67248 ], [ 75.86743, 12.6745 ], [ 75.87247, 12.67392 ], [ 75.87345, 12.67226 ], [ 75.87677, 12.67159 ], [ 75.87887, 12.67189 ], [ 75.88221, 12.67444 ], [ 75.88605, 12.67451 ], [ 75.88817, 12.67757 ], [ 75.88761, 12.68058 ], [ 75.88905, 12.68447 ], [ 75.8875, 12.6868 ], [ 75.88774, 12.68983 ], [ 75.88978, 12.69178 ], [ 75.8899, 12.69347 ], [ 75.88653, 12.69691 ], [ 75.88547, 12.69972 ], [ 75.88508, 12.70092 ], [ 75.88653, 12.70342 ], [ 75.88492, 12.70795 ], [ 75.87921, 12.70905 ], [ 75.87826, 12.70804 ], [ 75.87704, 12.70812 ], [ 75.8733, 12.70942 ], [ 75.87056, 12.71199 ], [ 75.87018, 12.7151 ], [ 75.86169, 12.71745 ], [ 75.85301, 12.72472 ], [ 75.85154, 12.7304 ], [ 75.8547, 12.73669 ], [ 75.85245, 12.7456 ], [ 75.84973, 12.74812 ], [ 75.84901, 12.74992 ], [ 75.85322, 12.7543 ], [ 75.85968, 12.7573 ], [ 75.85756, 12.76204 ], [ 75.85788, 12.77021 ], [ 75.8611, 12.77041 ], [ 75.86324, 12.76864 ], [ 75.86544, 12.7682 ], [ 75.86808, 12.76861 ], [ 75.87174, 12.77083 ], [ 75.87318, 12.76968 ], [ 75.87577, 12.77274 ], [ 75.87284, 12.77338 ], [ 75.87262, 12.77432 ], [ 75.87767, 12.7763 ], [ 75.87732, 12.77755 ], [ 75.87445, 12.77683 ], [ 75.87154, 12.78056 ], [ 75.87149, 12.78246 ], [ 75.86896, 12.78312 ], [ 75.86824, 12.7873 ], [ 75.86647, 12.79131 ], [ 75.8633, 12.79543 ], [ 75.86307, 12.79764 ], [ 75.86494, 12.79842 ], [ 75.86441, 12.8005 ], [ 75.86643, 12.80227 ], [ 75.86493, 12.80377 ], [ 75.86684, 12.80477 ], [ 75.86693, 12.80557 ], [ 75.86615, 12.80643 ], [ 75.86467, 12.80646 ], [ 75.86351, 12.80795 ], [ 75.8651, 12.80902 ], [ 75.8654, 12.81132 ], [ 75.86423, 12.81157 ], [ 75.86516, 12.81518 ], [ 75.86403, 12.81588 ], [ 75.86361, 12.81899 ], [ 75.86663, 12.82112 ], [ 75.87587, 12.8236 ], [ 75.87767, 12.82647 ], [ 75.877, 12.82809 ], [ 75.87481, 12.82972 ], [ 75.87839, 12.83344 ], [ 75.88078, 12.83395 ] ] ] } },
{ "type": "Feature", "properties": { "OBJECTID": 2871, "state_lgd": "29", "state_name": "KARNATAKA", "district_lgd": "576", "district_name": "KODAGU", "district_name_source": "district_table", "subdistrict_lgd": "07040", "subdistrict_name": "KUSHALANAGARA", "subdistrict_type": "Taluk", "name_corrupted": false, "remarks": "", "label_lon": 75.889939291953866, "label_lat": 12.447238230887296 }, "geometry": { "type": "Polygon", "coordinates": [ [ [ 75.94156, 12.59875 ], [ 75.94554, 12.5995 ], [ 75.9475, 12.59733 ], [ 75.95298, 12.58393 ], [ 75.95606, 12.5724 ], [ 75.96105, 12.5641 ], [ 75.96369, 12.56106 ], [ 75.96554, 12.5601 ], [ 75.96714, 12.55966 ], [ 75.97178, 12.5606 ], [ 75.97492, 12.56244 ], [ 75.97317, 12.56703 ], [ 75.97274, 12.57115 ], [ 75.96912, 12.57693 ], [ 75.97257, 12.57737 ], [ 75.98137, 12.57371 ], [ 75.98896, 12.57413 ], [ 75.98772, 12.57745 ], [ 75.98768, 12.5811 ], [ 75.99123, 12.58499 ], [ 75.99091, 12.58686 ], [ 75.99362, 12.58823 ], [ 75.9953, 12.58636 ], [ 75.9953, 12.58477 ], [ 75.99727, 12.58382 ], [ 75.99761, 12.57987 ], [ 76.00106, 12.57783 ], [ 76.00257, 12.57466 ], [ 76.00597, 12.57432 ], [ 76.00993, 12.57089 ], [ 76.01194, 12.57271 ], [ 76.01409, 12.56908 ], [ 76.01765, 12.57155 ], [ 76.01876, 12.57076 ], [ 76.01823, 12.56668 ], [ 76.01176, 12.56038 ], [ 76.01137, 12.55905 ], [ 76.01281, 12.55458 ], [ 76.01185, 12.55399 ], [ 76.00687, 12.55504 ], [ 76.00198, 12.55852 ], [ 75.99966, 12.55914 ], [ 75.99635, 12.56207 ], [ 75.994, 12.56219 ], [ 75.99156, 12.56101 ], [ 75.99052, 12.55944 ], [ 75.99041, 12.55622 ], [ 75.99219, 12.55395 ], [ 75.99773, 12.55098 ], [ 75.99914, 12.54778 ], [ 75.9984, 12.54604 ], [ 75.99515, 12.54088 ], [ 75.98806, 12.54438 ], [ 75.98568, 12.54458 ], [ 75.98401, 12.54362 ], [ 75.98245, 12.54091 ], [ 75.98669, 12.53708 ], [ 75.99259, 12.5292 ], [ 75.99365, 12.52542 ], [ 75.99382, 12.52258 ], [ 75.99314, 12.52131 ], [ 75.9865, 12.51945 ], [ 75.98003, 12.52047 ], [ 75.97575, 12.52021 ], [ 75.97404, 12.51936 ], [ 75.9733, 12.51334 ], [ 75.97209, 12.5117 ], [ 75.96994, 12.51042 ], [ 75.96333, 12.50986 ], [ 75.96202, 12.50739 ], [ 75.9607, 12.50712 ], [ 75.96028, 12.50612 ], [ 75.9603, 12.50117 ], [ 75.96107, 12.50153 ], [ 75.96262, 12.49759 ], [ 75.95965, 12.49203 ], [ 75.95906, 12.48888 ], [ 75.96079, 12.48447 ], [ 75.9659, 12.48413 ], [ 75.96677, 12.48303 ], [ 75.9671, 12.47836 ], [ 75.96464, 12.47535 ], [ 75.96507, 12.47337 ], [ 75.96823, 12.4709 ], [ 75.97204, 12.47069 ], [ 75.97161, 12.46895 ], [ 75.96729, 12.46464 ], [ 75.96814, 12.45596 ], [ 75.97032, 12.45271 ], [ 75.97218, 12.4516 ], [ 75.97199, 12.45009 ], [ 75.96806, 12.44727 ], [ 75.96524, 12.44802 ], [ 75.96346, 12.45029 ], [ 75.95996, 12.4518 ], [ 75.94631, 12.44957 ], [ 75.94124, 12.44637 ], [ 75.93836, 12.44307 ], [ 75.93652, 12.43827 ], [ 75.93224, 12.43967 ], [ 75.93073, 12.43783 ], [ 75.92779, 12.43821 ], [ 75.92588, 12.4369 ], [ 75.92494, 12.43344 ], [ 75.92251, 12.43094 ], [ 75.92302, 12.42596 ], [ 75.92245, 12.42269 ], [ 75.91676, 12.41399 ], [ 75.91518, 12.40977 ], [ 75.91373, 12.40853 ], [ 75.91172, 12.40835 ], [ 75.91057, 12.40559 ], [ 75.90973, 12.40042 ], [ 75.9109, 12.39412 ], [ 75.91024, 12.39384 ], [ 75.91335, 12.38797 ], [ 75.9148, 12.38329 ], [ 75.91418, 12.38116 ], [ 75.91152, 12.37814 ], [ 75.90524, 12.37392 ], [ 75.90327, 12.36961 ], [ 75.89739, 12.36761 ], [ 75.90128, 12.35768 ], [ 75.90495, 12.35597 ], [ 75.90564, 12.35453 ], [ 75.90327, 12.34629 ], [ 75.89978, 12.34625 ], [ 75.89799, 12.34764 ], [ 75.89645, 12.34777 ], [ 75.8932, 12.34488 ], [ 75.89211, 12.34196 ], [ 75.88757, 12.34139 ], [ 75.88523, 12.3421 ], [ 75.8842, 12.3413 ], [ 75.88322, 12.34009 ], [ 75.88337, 12.33764 ], [ 75.8785, 12.33226 ], [ 75.87848, 12.33297 ], [ 75.8781, 12.33158 ], [ 75.87918, 12.32963 ], [ 75.88707, 12.32194 ], [ 75.88721, 12.31926 ], [ 75.88396, 12.31682 ], [ 75.88006, 12.31007 ], [ 75.8738, 12.30648 ], [ 75.86918, 12.30571 ], [ 75.86457, 12.30282 ], [ 75.86373, 12.30304 ], [ 75.86454, 12.30393 ], [ 75.86169, 12.30497 ], [ 75.85704, 12.30507 ], [ 75.85439, 12.30152 ], [ 75.85448, 12.29681 ], [ 75.8533, 12.29578 ], [ 75.85113, 12.29907 ], [ 75.85026, 12.30293 ], [ 75.84728, 12.30636 ], [ 75.84821, 12.30837 ], [ 75.84706, 12.31038 ], [ 75.84898, 12.3124 ], [ 75.84848, 12.31396 ], [ 75.84266, 12.32255 ], [ 75.84305, 12.32649 ], [ 75.84504, 12.3291 ], [ 75.84323, 12.33102 ], [ 75.83772, 12.3288 ], [ 75.83606, 12.33127 ], [ 75.83184, 12.33299 ], [ 75.83301, 12.33696 ], [ 75.83432, 12.33841 ], [ 75.83395, 12.33906 ], [ 75.83573, 12.34135 ], [ 75.83308, 12.34301 ], [ 75.83256, 12.34492 ], [ 75.83139, 12.34583 ], [ 75.82894, 12.34641 ], [ 75.82823, 12.34972 ], [ 75.82398, 12.35218 ], [ 75.82189, 12.35972 ], [ 75.82073, 12.36121 ], [ 75.81943, 12.36139 ], [ 75.82026, 12.37399 ], [ 75.81868, 12.37535 ], [ 75.81549, 12.37585 ], [ 75.81333, 12.37735 ], [ 75.81016, 12.38123 ], [ 75.80378, 12.38328 ], [ 75.80303, 12.38511 ], [ 75.79898, 12.38816 ], [ 75.79877, 12.39091 ], [ 75.80016, 12.39342 ], [ 75.80018, 12.39901 ], [ 75.7993, 12.39961 ], [ 75.7959, 12.39866 ], [ 75.79291, 12.4024 ], [ 75.79081, 12.40326 ], [ 75.78902, 12.40642 ], [ 75.78906, 12.40966 ], [ 75.78651, 12.41285 ], [ 75.78696, 12.41536 ], [ 75.78804, 12.41617 ], [ 75.78971, 12.42066 ], [ 75.79302, 12.42345 ], [ 75.7941, 12.42545 ], [ 75.79343, 12.42665 ], [ 75.78753, 12.42971 ], [ 75.78674, 12.43166 ], [ 75.78771, 12.43347 ], [ 75.78723, 12.43623 ], [ 75.78876, 12.43793 ], [ 75.78743, 12.43927 ], [ 75.7877, 12.44068 ], [ 75.78577, 12.44195 ], [ 75.78513, 12.44196 ], [ 75.7847, 12.43998 ], [ 75.78173, 12.44109 ], [ 75.78273, 12.4423 ], [ 75.78258, 12.44444 ], [ 75.77939, 12.44603 ], [ 75.77875, 12.4503 ], [ 75.78064, 12.44992 ], [ 75.78707, 12.44522 ], [ 75.78913, 12.44493 ], [ 75.79719, 12.44787 ], [ 75.79742, 12.44922 ], [ 75.79302, 12.45188 ], [ 75.79053, 12.455 ], [ 75.78893, 12.45919 ], [ 75.78908, 12.46226 ], [ 75.79007, 12.46314 ], [ 75.79182, 12.46281 ], [ 75.79761, 12.45668 ], [ 75.80524, 12.45108 ], [ 75.80671, 12.44689 ], [ 75.80549, 12.4394 ], [ 75.81548, 12.43581 ], [ 75.8181, 12.43196 ], [ 75.82012, 12.42653 ], [ 75.82187, 12.4251 ], [ 75.82195, 12.42848 ], [ 75.82674, 12.43968 ], [ 75.82468, 12.44217 ], [ 75.82326, 12.44203 ], [ 75.82107, 12.4487 ], [ 75.81897, 12.4504 ], [ 75.8217, 12.4579 ], [ 75.81209, 12.46529 ], [ 75.81264, 12.46659 ], [ 75.81777, 12.47081 ], [ 75.81451, 12.47806 ], [ 75.81735, 12.48262 ], [ 75.82018, 12.48469 ], [ 75.8242, 12.48386 ], [ 75.82556, 12.48252 ], [ 75.82874, 12.48248 ], [ 75.83134, 12.47568 ], [ 75.83411, 12.47441 ], [ 75.83711, 12.47595 ], [ 75.84061, 12.47548 ], [ 75.84413, 12.47679 ], [ 75.8427, 12.48135 ], [ 75.83978, 12.4855 ], [ 75.84111, 12.48807 ], [ 75.84009, 12.4902 ], [ 75.83857, 12.49112 ], [ 75.83781, 12.49449 ], [ 75.84118, 12.49684 ], [ 75.84312, 12.49662 ], [ 75.84451, 12.49746 ], [ 75.8452, 12.50139 ], [ 75.84667, 12.50106 ], [ 75.84861, 12.4982 ], [ 75.85049, 12.49743 ], [ 75.85251, 12.49685 ], [ 75.85311, 12.49794 ], [ 75.85894, 12.49733 ], [ 75.86496, 12.49004 ], [ 75.86621, 12.49017 ], [ 75.86776, 12.49201 ], [ 75.86679, 12.49367 ], [ 75.86731, 12.49518 ], [ 75.86643, 12.49615 ], [ 75.86817, 12.49976 ], [ 75.86902, 12.50062 ], [ 75.87193, 12.50084 ], [ 75.87462, 12.50267 ], [ 75.87918, 12.50159 ], [ 75.88002, 12.49986 ], [ 75.88006, 12.49773 ], [ 75.87833, 12.49549 ], [ 75.88035, 12.49211 ], [ 75.87905, 12.48913 ], [ 75.8816, 12.48773 ], [ 75.88264, 12.48524 ], [ 75.88188, 12.48218 ], [ 75.88091, 12.48214 ], [ 75.8821, 12.48089 ], [ 75.88556, 12.47984 ], [ 75.88865, 12.48269 ], [ 75.89105, 12.48626 ], [ 75.88917, 12.49006 ], [ 75.89025, 12.49242 ], [ 75.8933, 12.49104 ], [ 75.89738, 12.48734 ], [ 75.89921, 12.48756 ], [ 75.9014, 12.48472 ], [ 75.90721, 12.48588 ], [ 75.90647, 12.49731 ], [ 75.90431, 12.5037 ], [ 75.90462, 12.50615 ], [ 75.90744, 12.51208 ], [ 75.90718, 12.51308 ], [ 75.90962, 12.51331 ], [ 75.9104, 12.51467 ], [ 75.91297, 12.51518 ], [ 75.91162, 12.51779 ], [ 75.91214, 12.51838 ], [ 75.91693, 12.51816 ], [ 75.91563, 12.52192 ], [ 75.91318, 12.52561 ], [ 75.91309, 12.53398 ], [ 75.91712, 12.53382 ], [ 75.91792, 12.5373 ], [ 75.91753, 12.53895 ], [ 75.92218, 12.54027 ], [ 75.9219, 12.54234 ], [ 75.92278, 12.54471 ], [ 75.92149, 12.54731 ], [ 75.92445, 12.55013 ], [ 75.92783, 12.55072 ], [ 75.93528, 12.54933 ], [ 75.93515, 12.55546 ], [ 75.92877, 12.57975 ], [ 75.92777, 12.59252 ], [ 75.93067, 12.59425 ], [ 75.93246, 12.59838 ], [ 75.93835, 12.59936 ], [ 75.94156, 12.59875 ] ] ] } }
]
}
