{
"type": "FeatureCollection",
"name": "143_ALIGARH",
"crs": { "type": "name", "properties": { "name": "urn:ogc:def:crs:OGC:1.3:CRS84" } },
"xy_coordinate_resolution": 1e-05,
"features": [
{ "type": "Feature", "properties": { "OBJECTID": 2416, "state_lgd": "09", "state_name": "UTTAR PRADESH", "district_lgd": "143", "district_name": "ALIGARH", "district_name_source": "district_table", "subdistrict_lgd": "754", "subdistrict_name": "ATRAULI", "subdistrict_type": "Tehsil", "name_corrupted": false, "remarks": "", "label_lon": 78.398340923731382, "label_lat": 27.984079408856104 }, "geometry": { "type": "Polygon", "coordinates": [ [ [ 78.33947, 28.14658 ], [ 78.34458, 28.14211 ], [ 78.3479, 28.14562 ], [ 78.3485, 28.14541 ], [ 78.35429, 28.14028 ], [ 78.35657, 28.1368 ], [ 78.36025, 28.13702 ], [ 78.36279, 28.13485 ], [ 78.36298, 28.13317 ], [ 78.36501, 28.13335 ], [ 78.36591, 28.13433 ], [ 78.3673, 28.13147 ], [ 78.36877, 28.13048 ], [ 78.36774, 28.12943 ], [ 78.37064, 28.12676 ], [ 78.36893, 28.12438 ], [ 78.36959, 28.12319 ], [ 78.36866, 28.12332 ], [ 78.36755, 28.1221 ], [ 78.36791, 28.12042 ], [ 78.36868, 28.11837 ], [ 78.37392, 28.11226 ], [ 78.36936, 28.10785 ], [ 78.36917, 28.10448 ], [ 78.36674, 28.10341 ], [ 78.3656, 28.10061 ], [ 78.3658, 28.09796 ], [ 78.371, 28.0936 ], [ 78.37626, 28.09782 ], [ 78.37738, 28.09751 ], [ 78.37708, 28.09903 ], [ 78.37997, 28.10175 ], [ 78.38156, 28.10225 ], [ 78.38358, 28.10529 ], [ 78.38758, 28.10486 ], [ 78.39266, 28.09979 ], [ 78.39503, 28.09917 ], [ 78.39555, 28.09789 ], [ 78.3935, 28.09723 ], [ 78.39351, 28.09581 ], [ 78.39446, 28.09455 ], [ 78.3967, 28.09521 ], [ 78.39915, 28.09317 ], [ 78.39772, 28.09158 ], [ 78.40105, 28.08729 ], [ 78.40672, 28.08947 ], [ 78.40798, 28.08731 ], [ 78.41001, 28.08623 ], [ 78.41018, 28.08503 ], [ 78.41236, 28.08324 ], [ 78.42434, 28.09347 ], [ 78.4296, 28.08767 ], [ 78.43079, 28.0882 ], [ 78.44467, 28.08168 ], [ 78.44715, 28.08551 ], [ 78.45197, 28.09015 ], [ 78.47748, 28.11306 ], [ 78.47944, 28.11358 ], [ 78.48431, 28.10786 ], [ 78.48572, 28.10782 ], [ 78.4888, 28.10957 ], [ 78.49026, 28.10895 ], [ 78.49076, 28.1054 ], [ 78.49717, 28.10104 ], [ 78.49436, 28.09634 ], [ 78.50325, 28.09446 ], [ 78.50764, 28.0881 ], [ 78.51055, 28.08563 ], [ 78.50768, 28.08401 ], [ 78.50714, 28.07879 ], [ 78.51268, 28.0735 ], [ 78.5224, 28.06743 ], [ 78.51974, 28.06354 ], [ 78.51968, 28.05941 ], [ 78.52104, 28.05636 ], [ 78.52488, 28.05571 ], [ 78.53132, 28.05022 ], [ 78.53094, 28.04388 ], [ 78.5346, 28.0457 ], [ 78.53799, 28.04578 ], [ 78.54005, 28.04916 ], [ 78.54268, 28.04932 ], [ 78.54613, 28.05088 ], [ 78.55136, 28.05832 ], [ 78.55718, 28.06443 ], [ 78.55841, 28.06472 ], [ 78.56515, 28.06174 ], [ 78.56635, 28.0625 ], [ 78.56801, 28.06174 ], [ 78.57117, 28.06193 ], [ 78.57363, 28.06377 ], [ 78.57925, 28.06365 ], [ 78.5828, 28.06089 ], [ 78.57927, 28.05663 ], [ 78.57637, 28.05469 ], [ 78.57657, 28.05378 ], [ 78.57309, 28.0498 ], [ 78.57972, 28.04827 ], [ 78.58198, 28.0487 ], [ 78.58702, 28.04566 ], [ 78.59091, 28.0414 ], [ 78.59603, 28.0409 ], [ 78.60492, 28.0382 ], [ 78.6043, 28.03718 ], [ 78.59873, 28.03618 ], [ 78.59594, 28.03448 ], [ 78.58902, 28.03373 ], [ 78.59541, 28.03316 ], [ 78.59976, 28.02672 ], [ 78.60772, 28.01799 ], [ 78.6026, 28.01485 ], [ 78.59759, 28.01511 ], [ 78.59389, 28.01178 ], [ 78.59528, 28.00759 ], [ 78.59402, 28.00468 ], [ 78.59422, 28.00003 ], [ 78.59658, 27.99797 ], [ 78.59204, 27.99585 ], [ 78.59142, 27.99429 ], [ 78.5934, 27.99172 ], [ 78.59496, 27.98765 ], [ 78.59504, 27.98487 ], [ 78.59817, 27.98423 ], [ 78.59966, 27.98129 ], [ 78.5937, 27.97657 ], [ 78.59199, 27.97335 ], [ 78.58744, 27.97176 ], [ 78.58061, 27.96322 ], [ 78.58579, 27.95908 ], [ 78.58585, 27.95725 ], [ 78.5731, 27.9466 ], [ 78.56677, 27.9425 ], [ 78.56688, 27.94162 ], [ 78.57349, 27.93645 ], [ 78.56314, 27.92441 ], [ 78.55393, 27.91586 ], [ 78.55222, 27.91148 ], [ 78.54946, 27.90944 ], [ 78.5383, 27.90803 ], [ 78.53333, 27.91089 ], [ 78.531, 27.90939 ], [ 78.52837, 27.90601 ], [ 78.53463, 27.89895 ], [ 78.52885, 27.89671 ], [ 78.51923, 27.89453 ], [ 78.51302, 27.88572 ], [ 78.51441, 27.88372 ], [ 78.51109, 27.88096 ], [ 78.51185, 27.87904 ], [ 78.507, 27.87479 ], [ 78.50767, 27.87266 ], [ 78.50612, 27.87199 ], [ 78.50831, 27.86895 ], [ 78.50645, 27.86769 ], [ 78.50696, 27.86686 ], [ 78.50524, 27.86602 ], [ 78.49974, 27.85941 ], [ 78.49609, 27.85868 ], [ 78.49469, 27.85959 ], [ 78.49336, 27.85846 ], [ 78.49268, 27.85872 ], [ 78.49178, 27.85741 ], [ 78.49353, 27.85448 ], [ 78.49312, 27.85373 ], [ 78.49882, 27.85252 ], [ 78.51426, 27.84139 ], [ 78.50999, 27.83729 ], [ 78.50691, 27.83213 ], [ 78.50861, 27.83136 ], [ 78.50826, 27.83046 ], [ 78.50941, 27.82961 ], [ 78.51102, 27.83031 ], [ 78.51443, 27.82904 ], [ 78.51359, 27.82672 ], [ 78.51605, 27.82512 ], [ 78.51518, 27.82441 ], [ 78.51314, 27.82493 ], [ 78.51284, 27.82418 ], [ 78.51404, 27.82247 ], [ 78.51365, 27.82072 ], [ 78.51594, 27.81915 ], [ 78.5151, 27.8153 ], [ 78.51611, 27.81462 ], [ 78.51753, 27.81571 ], [ 78.51879, 27.81386 ], [ 78.51364, 27.80803 ], [ 78.51036, 27.80209 ], [ 78.50161, 27.79929 ], [ 78.49668, 27.80109 ], [ 78.49042, 27.80221 ], [ 78.4888, 27.80293 ], [ 78.48568, 27.80634 ], [ 78.47867, 27.80807 ], [ 78.47169, 27.81106 ], [ 78.46656, 27.8099 ], [ 78.46344, 27.81077 ], [ 78.46174, 27.81266 ], [ 78.45945, 27.81307 ], [ 78.46123, 27.81375 ], [ 78.45963, 27.81626 ], [ 78.45613, 27.81772 ], [ 78.45764, 27.81967 ], [ 78.45441, 27.82075 ], [ 78.45456, 27.82132 ], [ 78.45726, 27.82138 ], [ 78.45798, 27.82198 ], [ 78.45745, 27.82293 ], [ 78.45061, 27.82713 ], [ 78.44965, 27.82914 ], [ 78.44518, 27.83095 ], [ 78.44425, 27.83394 ], [ 78.44563, 27.83704 ], [ 78.44535, 27.83888 ], [ 78.44401, 27.83932 ], [ 78.43824, 27.83787 ], [ 78.43012, 27.83951 ], [ 78.42738, 27.84292 ], [ 78.42375, 27.8437 ], [ 78.42137, 27.84653 ], [ 78.41938, 27.8468 ], [ 78.41705, 27.84594 ], [ 78.4159, 27.84715 ], [ 78.41489, 27.8456 ], [ 78.41388, 27.84582 ], [ 78.40848, 27.84794 ], [ 78.40283, 27.85182 ], [ 78.40093, 27.85523 ], [ 78.40185, 27.85954 ], [ 78.40019, 27.86444 ], [ 78.3993, 27.87267 ], [ 78.39487, 27.87649 ], [ 78.39701, 27.87787 ], [ 78.39489, 27.87925 ], [ 78.39673, 27.88058 ], [ 78.38927, 27.88639 ], [ 78.38551, 27.88387 ], [ 78.379, 27.8822 ], [ 78.37498, 27.8823 ], [ 78.37406, 27.88119 ], [ 78.3753, 27.8805 ], [ 78.37148, 27.87741 ], [ 78.36996, 27.87479 ], [ 78.37177, 27.87287 ], [ 78.3716, 27.87212 ], [ 78.36924, 27.8711 ], [ 78.36956, 27.87219 ], [ 78.36849, 27.87367 ], [ 78.3663, 27.87198 ], [ 78.36532, 27.86956 ], [ 78.36238, 27.86603 ], [ 78.36416, 27.86533 ], [ 78.36334, 27.86309 ], [ 78.36209, 27.8646 ], [ 78.36046, 27.86444 ], [ 78.36024, 27.86559 ], [ 78.35892, 27.86635 ], [ 78.35659, 27.86617 ], [ 78.3557, 27.86691 ], [ 78.35474, 27.86542 ], [ 78.35033, 27.86803 ], [ 78.34926, 27.86736 ], [ 78.3513, 27.86624 ], [ 78.35103, 27.86571 ], [ 78.34764, 27.86623 ], [ 78.34575, 27.86347 ], [ 78.34277, 27.86376 ], [ 78.34154, 27.86463 ], [ 78.33845, 27.86444 ], [ 78.33664, 27.86323 ], [ 78.3352, 27.86063 ], [ 78.33422, 27.86135 ], [ 78.33551, 27.86389 ], [ 78.33254, 27.86403 ], [ 78.33133, 27.8614 ], [ 78.32642, 27.86182 ], [ 78.32383, 27.8602 ], [ 78.32273, 27.86099 ], [ 78.32442, 27.86248 ], [ 78.32092, 27.86303 ], [ 78.31745, 27.86145 ], [ 78.31688, 27.86374 ], [ 78.31035, 27.86504 ], [ 78.30723, 27.86681 ], [ 78.30674, 27.86798 ], [ 78.30428, 27.86767 ], [ 78.30379, 27.86959 ], [ 78.29843, 27.87014 ], [ 78.2978, 27.86993 ], [ 78.29862, 27.86841 ], [ 78.29651, 27.8651 ], [ 78.29436, 27.86477 ], [ 78.2939, 27.86339 ], [ 78.2921, 27.86374 ], [ 78.29129, 27.86518 ], [ 78.28925, 27.86267 ], [ 78.28475, 27.8636 ], [ 78.28033, 27.86351 ], [ 78.27714, 27.86921 ], [ 78.27369, 27.87123 ], [ 78.27245, 27.87292 ], [ 78.27619, 27.87399 ], [ 78.27493, 27.87487 ], [ 78.27237, 27.87496 ], [ 78.27423, 27.87704 ], [ 78.27258, 27.87892 ], [ 78.27398, 27.88138 ], [ 78.27227, 27.88211 ], [ 78.2739, 27.88493 ], [ 78.27592, 27.8856 ], [ 78.27626, 27.88759 ], [ 78.27532, 27.88809 ], [ 78.27236, 27.88734 ], [ 78.27094, 27.88847 ], [ 78.27301, 27.88881 ], [ 78.27357, 27.88965 ], [ 78.27452, 27.89276 ], [ 78.27426, 27.89597 ], [ 78.27661, 27.8982 ], [ 78.27421, 27.89815 ], [ 78.27409, 27.89889 ], [ 78.2734, 27.89814 ], [ 78.27237, 27.89847 ], [ 78.27148, 27.90263 ], [ 78.2692, 27.90496 ], [ 78.26802, 27.90456 ], [ 78.26752, 27.90559 ], [ 78.26588, 27.91053 ], [ 78.26765, 27.9119 ], [ 78.26524, 27.91384 ], [ 78.26584, 27.91559 ], [ 78.26723, 27.91482 ], [ 78.26717, 27.91688 ], [ 78.26481, 27.91786 ], [ 78.26814, 27.92086 ], [ 78.26489, 27.91956 ], [ 78.26059, 27.92436 ], [ 78.25695, 27.92576 ], [ 78.25722, 27.92725 ], [ 78.25564, 27.92678 ], [ 78.25363, 27.92937 ], [ 78.25362, 27.93026 ], [ 78.25486, 27.93023 ], [ 78.25474, 27.9326 ], [ 78.2523, 27.93379 ], [ 78.2532, 27.93505 ], [ 78.25088, 27.9368 ], [ 78.25189, 27.93818 ], [ 78.2515, 27.9388 ], [ 78.2498, 27.93832 ], [ 78.24916, 27.93606 ], [ 78.24766, 27.93583 ], [ 78.24649, 27.93663 ], [ 78.24501, 27.9348 ], [ 78.24431, 27.9355 ], [ 78.24231, 27.93545 ], [ 78.24171, 27.93639 ], [ 78.24211, 27.93939 ], [ 78.23995, 27.94168 ], [ 78.23901, 27.94114 ], [ 78.23503, 27.94455 ], [ 78.23431, 27.94403 ], [ 78.23106, 27.94568 ], [ 78.2295, 27.94285 ], [ 78.22809, 27.94437 ], [ 78.22858, 27.94537 ], [ 78.22763, 27.94565 ], [ 78.22698, 27.9449 ], [ 78.22577, 27.94548 ], [ 78.22613, 27.94628 ], [ 78.22349, 27.9477 ], [ 78.22542, 27.94903 ], [ 78.22371, 27.95005 ], [ 78.22564, 27.95098 ], [ 78.22389, 27.9516 ], [ 78.22374, 27.95388 ], [ 78.22271, 27.95455 ], [ 78.22342, 27.95472 ], [ 78.22392, 27.95714 ], [ 78.22, 27.9586 ], [ 78.22469, 27.96087 ], [ 78.22365, 27.96222 ], [ 78.2211, 27.96125 ], [ 78.22127, 27.96323 ], [ 78.22283, 27.96394 ], [ 78.22283, 27.96635 ], [ 78.22117, 27.96751 ], [ 78.2217, 27.96599 ], [ 78.22025, 27.96569 ], [ 78.22023, 27.96809 ], [ 78.21694, 27.96734 ], [ 78.21866, 27.96867 ], [ 78.21766, 27.97031 ], [ 78.21449, 27.96994 ], [ 78.21302, 27.97079 ], [ 78.20686, 27.97511 ], [ 78.20741, 27.97635 ], [ 78.20481, 27.97873 ], [ 78.20328, 27.97709 ], [ 78.20203, 27.97687 ], [ 78.19895, 27.97964 ], [ 78.19709, 27.98496 ], [ 78.19653, 27.98302 ], [ 78.19399, 27.98268 ], [ 78.19434, 27.985 ], [ 78.19286, 27.98652 ], [ 78.19378, 27.98771 ], [ 78.19345, 27.98872 ], [ 78.19488, 27.99023 ], [ 78.19699, 27.98945 ], [ 78.19565, 27.99101 ], [ 78.19891, 27.99432 ], [ 78.19806, 27.99581 ], [ 78.19818, 27.99947 ], [ 78.19449, 28.00035 ], [ 78.1928, 28.00163 ], [ 78.19355, 28.00307 ], [ 78.19501, 28.0031 ], [ 78.19552, 28.0039 ], [ 78.19441, 28.00548 ], [ 78.19572, 28.00606 ], [ 78.19787, 28.00493 ], [ 78.19856, 28.0071 ], [ 78.20145, 28.00908 ], [ 78.20084, 28.01097 ], [ 78.20334, 28.01264 ], [ 78.20572, 28.01298 ], [ 78.20602, 28.01523 ], [ 78.20906, 28.01404 ], [ 78.20865, 28.013 ], [ 78.21191, 28.01219 ], [ 78.21714, 28.01542 ], [ 78.21726, 28.01387 ], [ 78.22033, 28.01413 ], [ 78.22278, 28.0119 ], [ 78.2259, 28.01321 ], [ 78.22669, 28.01113 ], [ 78.23015, 28.00961 ], [ 78.23054, 28.01084 ], [ 78.22972, 28.01145 ], [ 78.23146, 28.01232 ], [ 78.23229, 28.01548 ], [ 78.23665, 28.01927 ], [ 78.23532, 28.02169 ], [ 78.23785, 28.02584 ], [ 78.24078, 28.02619 ], [ 78.24119, 28.02957 ], [ 78.2438, 28.029 ], [ 78.24435, 28.03189 ], [ 78.2424, 28.03179 ], [ 78.24271, 28.03393 ], [ 78.24149, 28.03565 ], [ 78.24436, 28.03771 ], [ 78.24266, 28.03881 ], [ 78.24261, 28.03966 ], [ 78.24832, 28.04015 ], [ 78.25119, 28.04522 ], [ 78.25107, 28.04684 ], [ 78.2481, 28.04725 ], [ 78.24943, 28.04938 ], [ 78.24732, 28.05144 ], [ 78.24796, 28.04946 ], [ 78.24659, 28.04986 ], [ 78.24567, 28.04889 ], [ 78.241, 28.04988 ], [ 78.23749, 28.04945 ], [ 78.23616, 28.04813 ], [ 78.23492, 28.0504 ], [ 78.23216, 28.0491 ], [ 78.23343, 28.05216 ], [ 78.22988, 28.05127 ], [ 78.23227, 28.05297 ], [ 78.23135, 28.05498 ], [ 78.2272, 28.05458 ], [ 78.22774, 28.05585 ], [ 78.22604, 28.05648 ], [ 78.22675, 28.05799 ], [ 78.22532, 28.05855 ], [ 78.22323, 28.06109 ], [ 78.22306, 28.06247 ], [ 78.2223, 28.06291 ], [ 78.22141, 28.06221 ], [ 78.21926, 28.06783 ], [ 78.22022, 28.06977 ], [ 78.21899, 28.07178 ], [ 78.22072, 28.07334 ], [ 78.22061, 28.07414 ], [ 78.22029, 28.07473 ], [ 78.2157, 28.07513 ], [ 78.2152, 28.0757 ], [ 78.21694, 28.07638 ], [ 78.21712, 28.07793 ], [ 78.21483, 28.07822 ], [ 78.21499, 28.08108 ], [ 78.21275, 28.0809 ], [ 78.21638, 28.08414 ], [ 78.21285, 28.08637 ], [ 78.21151, 28.08951 ], [ 78.20922, 28.09048 ], [ 78.21119, 28.09264 ], [ 78.2132, 28.09193 ], [ 78.21396, 28.09702 ], [ 78.21829, 28.1 ], [ 78.22186, 28.10133 ], [ 78.22493, 28.10083 ], [ 78.22826, 28.10327 ], [ 78.22643, 28.10659 ], [ 78.22749, 28.10751 ], [ 78.22629, 28.10812 ], [ 78.22694, 28.10974 ], [ 78.23336, 28.11248 ], [ 78.24536, 28.11121 ], [ 78.24971, 28.10823 ], [ 78.25135, 28.10968 ], [ 78.25287, 28.10901 ], [ 78.25777, 28.1113 ], [ 78.25805, 28.11544 ], [ 78.26357, 28.11545 ], [ 78.26895, 28.1179 ], [ 78.27389, 28.11637 ], [ 78.27416, 28.1136 ], [ 78.2758, 28.11136 ], [ 78.28417, 28.11328 ], [ 78.29049, 28.11815 ], [ 78.29482, 28.1136 ], [ 78.29779, 28.11726 ], [ 78.29917, 28.11643 ], [ 78.30802, 28.12319 ], [ 78.31145, 28.12123 ], [ 78.31317, 28.1217 ], [ 78.31618, 28.12401 ], [ 78.31777, 28.12684 ], [ 78.31754, 28.12829 ], [ 78.3193, 28.12982 ], [ 78.32252, 28.13049 ], [ 78.32538, 28.1288 ], [ 78.32653, 28.13132 ], [ 78.33117, 28.137 ], [ 78.33187, 28.14181 ], [ 78.3344, 28.14341 ], [ 78.3352, 28.14516 ], [ 78.33745, 28.14619 ], [ 78.33844, 28.14568 ], [ 78.33947, 28.14658 ] ] ] } },
{ "type": "Feature", "properties": { "OBJECTID": 2504, "state_lgd": "09", "state_name": "UTTAR PRADESH", "district_lgd": "143", "district_name": "ALIGARH", "district_name_source": "district_table", "subdistrict_lgd": "753", "subdistrict_name": "GABHANA", "subdistrict_type": "Tehsil", "name_corrupted": false, "remarks": "", "label_lon": 77.932382496329566, "label_lat": 28.056308938929664 }, "geometry": { "type": "Polygon", "coordinates": [ [ [ 77.83989, 28.17972 ], [ 77.84749, 28.17205 ], [ 77.84315, 28.16651 ], [ 77.84267, 28.16412 ], [ 77.84489, 28.1622 ], [ 77.84865, 28.16061 ], [ 77.84979, 28.15518 ], [ 77.84201, 28.14879 ], [ 77.84145, 28.14688 ], [ 77.83978, 28.14525 ], [ 77.83871, 28.14228 ], [ 77.84077, 28.14066 ], [ 77.84256, 28.13752 ], [ 77.84452, 28.13617 ], [ 77.8478, 28.1359 ], [ 77.85292, 28.13949 ], [ 77.85376, 28.14149 ], [ 77.86204, 28.14015 ], [ 77.86404, 28.14057 ], [ 77.86888, 28.13545 ], [ 77.86806, 28.13495 ], [ 77.8728, 28.12843 ], [ 77.88164, 28.12507 ], [ 77.89138, 28.11504 ], [ 77.89251, 28.1146 ], [ 77.89463, 28.11585 ], [ 77.89545, 28.11459 ], [ 77.89933, 28.11711 ], [ 77.90125, 28.11493 ], [ 77.90429, 28.11431 ], [ 77.90318, 28.11345 ], [ 77.91505, 28.09908 ], [ 77.92357, 28.10441 ], [ 77.93526, 28.09573 ], [ 77.93477, 28.08986 ], [ 77.93136, 28.08697 ], [ 77.93207, 28.08583 ], [ 77.93324, 28.08672 ], [ 77.93438, 28.08521 ], [ 77.93673, 28.08672 ], [ 77.93867, 28.08516 ], [ 77.94179, 28.08627 ], [ 77.9441, 28.08821 ], [ 77.94659, 28.08713 ], [ 77.94817, 28.08824 ], [ 77.95134, 28.08711 ], [ 77.95221, 28.08763 ], [ 77.95396, 28.08553 ], [ 77.9604, 28.09061 ], [ 77.96672, 28.08502 ], [ 77.97331, 28.08482 ], [ 77.97709, 28.08719 ], [ 77.9792, 28.08728 ], [ 77.98189, 28.08514 ], [ 77.98722, 28.08291 ], [ 77.99014, 28.07862 ], [ 77.99375, 28.07783 ], [ 78.0049, 28.0842 ], [ 78.00183, 28.09401 ], [ 78.00918, 28.09889 ], [ 78.01642, 28.10582 ], [ 78.01691, 28.10735 ], [ 78.02147, 28.11068 ], [ 78.0207, 28.11248 ], [ 78.01787, 28.11374 ], [ 78.01849, 28.11628 ], [ 78.01703, 28.11853 ], [ 78.02072, 28.12213 ], [ 78.02029, 28.12348 ], [ 78.02702, 28.12773 ], [ 78.02992, 28.12773 ], [ 78.03184, 28.12895 ], [ 78.03652, 28.12785 ], [ 78.04194, 28.12527 ], [ 78.04343, 28.1234 ], [ 78.0457, 28.12327 ], [ 78.04672, 28.12208 ], [ 78.05132, 28.12507 ], [ 78.05461, 28.1212 ], [ 78.05949, 28.11808 ], [ 78.06122, 28.11307 ], [ 78.06331, 28.11358 ], [ 78.07155, 28.11244 ], [ 78.07695, 28.11877 ], [ 78.08049, 28.11966 ], [ 78.08375, 28.1169 ], [ 78.0811, 28.11328 ], [ 78.08207, 28.1126 ], [ 78.08132, 28.11107 ], [ 78.07812, 28.10877 ], [ 78.07715, 28.10164 ], [ 78.08096, 28.10092 ], [ 78.08311, 28.10283 ], [ 78.08604, 28.10169 ], [ 78.08725, 28.10279 ], [ 78.09028, 28.10273 ], [ 78.09103, 28.10422 ], [ 78.0991, 28.11003 ], [ 78.10491, 28.10312 ], [ 78.10523, 28.09905 ], [ 78.1078, 28.09735 ], [ 78.11021, 28.09752 ], [ 78.11247, 28.09632 ], [ 78.1184, 28.09001 ], [ 78.1215, 28.08369 ], [ 78.12003, 28.08235 ], [ 78.12104, 28.07887 ], [ 78.11365, 28.07111 ], [ 78.11413, 28.07059 ], [ 78.11283, 28.06872 ], [ 78.11366, 28.06791 ], [ 78.11328, 28.06705 ], [ 78.11945, 28.06183 ], [ 78.12453, 28.05926 ], [ 78.13534, 28.05985 ], [ 78.13758, 28.06332 ], [ 78.1411, 28.06427 ], [ 78.15424, 28.0521 ], [ 78.15176, 28.04404 ], [ 78.15151, 28.03572 ], [ 78.14818, 28.03028 ], [ 78.13881, 28.02501 ], [ 78.13253, 28.03131 ], [ 78.13026, 28.03653 ], [ 78.12537, 28.04397 ], [ 78.11354, 28.05047 ], [ 78.10719, 28.04937 ], [ 78.10557, 28.04513 ], [ 78.10638, 28.02914 ], [ 78.10279, 28.02077 ], [ 78.10084, 28.01917 ], [ 78.09711, 28.02024 ], [ 78.09184, 28.02431 ], [ 78.0887, 28.02806 ], [ 78.08581, 28.03515 ], [ 78.0767, 28.04167 ], [ 78.07353, 28.03889 ], [ 78.06758, 28.03625 ], [ 78.06078, 28.03531 ], [ 78.06301, 28.03214 ], [ 78.06122, 28.0276 ], [ 78.066, 28.02635 ], [ 78.07109, 28.02362 ], [ 78.06417, 28.02127 ], [ 78.06181, 28.01759 ], [ 78.05322, 28.00964 ], [ 78.05282, 28.00097 ], [ 78.06158, 28.00012 ], [ 78.06441, 27.99842 ], [ 78.0662, 27.99703 ], [ 78.06615, 27.99357 ], [ 78.06782, 27.9897 ], [ 78.06178, 27.98674 ], [ 78.05953, 27.98414 ], [ 78.05537, 27.98221 ], [ 78.05643, 27.97877 ], [ 78.05767, 27.97755 ], [ 78.05716, 27.97497 ], [ 78.05849, 27.97398 ], [ 78.05675, 27.97258 ], [ 78.05466, 27.96811 ], [ 78.05201, 27.96599 ], [ 78.05052, 27.96716 ], [ 78.04807, 27.96542 ], [ 78.04616, 27.96541 ], [ 78.04127, 27.96209 ], [ 78.03955, 27.96332 ], [ 78.03629, 27.96292 ], [ 78.03474, 27.96197 ], [ 78.03017, 27.96621 ], [ 78.0282, 27.96964 ], [ 78.02669, 27.96851 ], [ 78.02384, 27.97035 ], [ 78.02038, 27.9686 ], [ 78.01837, 27.97013 ], [ 78.01561, 27.96952 ], [ 78.01431, 27.97065 ], [ 78.013, 27.97001 ], [ 78.00858, 27.97379 ], [ 78.00611, 27.97824 ], [ 78.00332, 27.9779 ], [ 77.99456, 27.97104 ], [ 77.99118, 27.97048 ], [ 77.98945, 27.97171 ], [ 77.98569, 27.96915 ], [ 77.985, 27.96163 ], [ 77.98611, 27.95867 ], [ 77.9896, 27.95461 ], [ 77.98862, 27.95386 ], [ 77.98336, 27.95709 ], [ 77.98122, 27.95301 ], [ 77.97862, 27.95618 ], [ 77.97635, 27.95702 ], [ 77.97452, 27.95647 ], [ 77.97157, 27.95796 ], [ 77.96941, 27.95647 ], [ 77.97557, 27.94938 ], [ 77.97275, 27.94721 ], [ 77.97289, 27.9458 ], [ 77.97476, 27.94413 ], [ 77.97054, 27.94131 ], [ 77.96864, 27.93898 ], [ 77.96848, 27.92803 ], [ 77.95955, 27.93006 ], [ 77.95437, 27.92966 ], [ 77.94981, 27.93115 ], [ 77.9458, 27.93491 ], [ 77.94272, 27.93488 ], [ 77.93892, 27.93894 ], [ 77.94132, 27.94206 ], [ 77.94086, 27.94708 ], [ 77.94183, 27.95503 ], [ 77.93765, 27.95868 ], [ 77.93472, 27.96464 ], [ 77.93066, 27.96277 ], [ 77.93014, 27.96574 ], [ 77.93512, 27.97508 ], [ 77.93197, 27.97282 ], [ 77.92729, 27.97523 ], [ 77.93516, 27.97904 ], [ 77.93682, 27.98174 ], [ 77.92671, 27.98652 ], [ 77.92164, 27.9856 ], [ 77.91907, 27.98711 ], [ 77.91685, 27.98942 ], [ 77.91873, 27.99201 ], [ 77.91723, 27.99348 ], [ 77.91803, 27.99572 ], [ 77.91612, 27.99837 ], [ 77.91412, 27.99881 ], [ 77.91238, 27.99507 ], [ 77.90945, 27.99692 ], [ 77.90577, 27.99523 ], [ 77.90321, 27.98719 ], [ 77.89551, 27.98665 ], [ 77.8914, 27.98466 ], [ 77.88186, 27.98894 ], [ 77.87679, 27.9923 ], [ 77.87125, 27.99048 ], [ 77.86943, 27.99192 ], [ 77.8727, 27.99639 ], [ 77.8722, 28.00178 ], [ 77.8696, 28.00389 ], [ 77.86758, 28.00318 ], [ 77.86149, 28.00326 ], [ 77.85715, 28.00586 ], [ 77.85509, 28.00553 ], [ 77.8523, 28.00784 ], [ 77.85, 28.00865 ], [ 77.84549, 28.01546 ], [ 77.84112, 28.01574 ], [ 77.84091, 28.01242 ], [ 77.83788, 28.00866 ], [ 77.8366, 28.00804 ], [ 77.83555, 28.00874 ], [ 77.83328, 28.0069 ], [ 77.83106, 28.00781 ], [ 77.81937, 28.0023 ], [ 77.81668, 28.00371 ], [ 77.80724, 28.01166 ], [ 77.80376, 28.01558 ], [ 77.79837, 28.01326 ], [ 77.79091, 28.01538 ], [ 77.78125, 28.01491 ], [ 77.77924, 28.01362 ], [ 77.77766, 28.01443 ], [ 77.77678, 28.01847 ], [ 77.77885, 28.02053 ], [ 77.78105, 28.02499 ], [ 77.78044, 28.02946 ], [ 77.78101, 28.03072 ], [ 77.77975, 28.03418 ], [ 77.77909, 28.03377 ], [ 77.77747, 28.03548 ], [ 77.77665, 28.03484 ], [ 77.77746, 28.034 ], [ 77.77701, 28.03351 ], [ 77.77641, 28.03293 ], [ 77.77494, 28.03358 ], [ 77.7737, 28.0328 ], [ 77.77065, 28.02853 ], [ 77.76679, 28.029 ], [ 77.7641, 28.02635 ], [ 77.76301, 28.02401 ], [ 77.7596, 28.02438 ], [ 77.75884, 28.02222 ], [ 77.74639, 28.03162 ], [ 77.7474, 28.03289 ], [ 77.7471, 28.03437 ], [ 77.74494, 28.03658 ], [ 77.74604, 28.0381 ], [ 77.74227, 28.04287 ], [ 77.7443, 28.04521 ], [ 77.74519, 28.04893 ], [ 77.75152, 28.04401 ], [ 77.75698, 28.04407 ], [ 77.75994, 28.03929 ], [ 77.7614, 28.03841 ], [ 77.76263, 28.03918 ], [ 77.76374, 28.03869 ], [ 77.76892, 28.03524 ], [ 77.78057, 28.0374 ], [ 77.78255, 28.03657 ], [ 77.78712, 28.0395 ], [ 77.78965, 28.04294 ], [ 77.79089, 28.04862 ], [ 77.79666, 28.05387 ], [ 77.80304, 28.05592 ], [ 77.80266, 28.06148 ], [ 77.8041, 28.06233 ], [ 77.80285, 28.06979 ], [ 77.80499, 28.07582 ], [ 77.80486, 28.07756 ], [ 77.80317, 28.0805 ], [ 77.80515, 28.08123 ], [ 77.80589, 28.08352 ], [ 77.81002, 28.08656 ], [ 77.81472, 28.08802 ], [ 77.81472, 28.08857 ], [ 77.814, 28.09202 ], [ 77.8107, 28.09677 ], [ 77.80627, 28.09916 ], [ 77.80259, 28.09993 ], [ 77.80025, 28.09982 ], [ 77.79842, 28.09816 ], [ 77.79484, 28.09622 ], [ 77.79324, 28.09651 ], [ 77.79273, 28.09568 ], [ 77.78588, 28.09777 ], [ 77.78204, 28.09409 ], [ 77.7806, 28.09389 ], [ 77.77783, 28.09668 ], [ 77.77574, 28.09744 ], [ 77.77111, 28.09579 ], [ 77.76984, 28.09658 ], [ 77.76781, 28.09573 ], [ 77.76534, 28.09717 ], [ 77.76198, 28.09653 ], [ 77.76035, 28.0934 ], [ 77.76111, 28.09299 ], [ 77.76041, 28.09133 ], [ 77.76073, 28.08939 ], [ 77.75893, 28.08694 ], [ 77.75774, 28.08757 ], [ 77.75673, 28.08687 ], [ 77.75465, 28.08841 ], [ 77.75283, 28.08751 ], [ 77.74997, 28.08843 ], [ 77.74496, 28.08863 ], [ 77.74231, 28.09007 ], [ 77.74364, 28.09208 ], [ 77.74325, 28.09459 ], [ 77.74037, 28.09605 ], [ 77.73811, 28.09622 ], [ 77.73597, 28.09871 ], [ 77.72886, 28.09893 ], [ 77.72902, 28.10276 ], [ 77.72791, 28.10352 ], [ 77.72872, 28.10479 ], [ 77.72869, 28.10814 ], [ 77.7277, 28.11063 ], [ 77.72822, 28.11148 ], [ 77.72629, 28.11295 ], [ 77.72423, 28.11311 ], [ 77.72623, 28.11549 ], [ 77.73161, 28.11829 ], [ 77.73118, 28.11923 ], [ 77.73288, 28.12192 ], [ 77.73424, 28.12702 ], [ 77.73114, 28.13037 ], [ 77.73332, 28.13242 ], [ 77.74195, 28.1368 ], [ 77.74178, 28.13797 ], [ 77.74409, 28.14131 ], [ 77.74383, 28.14371 ], [ 77.74503, 28.14635 ], [ 77.74407, 28.14725 ], [ 77.74506, 28.14827 ], [ 77.74325, 28.15198 ], [ 77.74627, 28.15513 ], [ 77.75426, 28.16085 ], [ 77.76063, 28.15945 ], [ 77.75944, 28.15782 ], [ 77.76208, 28.15332 ], [ 77.76103, 28.15186 ], [ 77.76209, 28.15019 ], [ 77.76216, 28.14827 ], [ 77.76571, 28.14599 ], [ 77.76683, 28.14275 ], [ 77.76634, 28.14134 ], [ 77.77098, 28.13716 ], [ 77.77264, 28.13656 ], [ 77.77861, 28.14337 ], [ 77.77888, 28.14535 ], [ 77.7823, 28.14801 ], [ 77.78529, 28.14876 ], [ 77.79306, 28.14529 ], [ 77.80451, 28.14806 ], [ 77.80858, 28.14793 ], [ 77.80777, 28.15089 ], [ 77.80985, 28.15192 ], [ 77.80966, 28.15286 ], [ 77.80697, 28.1567 ], [ 77.8054, 28.16272 ], [ 77.80892, 28.16413 ], [ 77.81139, 28.16359 ], [ 77.81437, 28.16461 ], [ 77.81876, 28.16731 ], [ 77.81975, 28.1666 ], [ 77.82064, 28.16765 ], [ 77.82213, 28.16648 ], [ 77.82314, 28.16707 ], [ 77.82234, 28.17005 ], [ 77.82313, 28.17015 ], [ 77.82298, 28.17114 ], [ 77.82439, 28.17235 ], [ 77.82775, 28.17151 ], [ 77.8278, 28.17072 ], [ 77.82981, 28.17063 ], [ 77.83158, 28.17245 ], [ 77.83281, 28.17232 ], [ 77.8366, 28.17493 ], [ 77.83989, 28.17972 ] ] ] } },
{ "type": "Feature", "properties": { "OBJECTID": 2534, "state_lgd": "09", "state_name": "UTTAR PRADESH", "district_lgd": "143", "district_name": "ALIGARH", "district_name_source": "district_table", "subdistrict_lgd": "756", "subdistrict_name": "IGLAS", "subdistrict_type": "Tehsil", "name_corrupted": false, "remarks": "", "label_lon": 77.906948391210875, "label_lat": 27.737078089586781 }, "geometry": { "type": "Polygon", "coordinates": [ [ [ 77.88023, 27.90864 ], [ 77.88554, 27.90842 ], [ 77.88954, 27.90428 ], [ 77.89446, 27.90076 ], [ 77.89446, 27.89952 ], [ 77.89996, 27.89672 ], [ 77.90197, 27.89724 ], [ 77.9036, 27.89922 ], [ 77.90561, 27.89748 ], [ 77.90753, 27.89822 ], [ 77.90868, 27.89671 ], [ 77.90985, 27.89815 ], [ 77.91118, 27.89654 ], [ 77.91368, 27.8959 ], [ 77.91933, 27.90219 ], [ 77.92488, 27.89609 ], [ 77.91755, 27.88785 ], [ 77.91763, 27.8871 ], [ 77.92288, 27.88319 ], [ 77.92415, 27.87971 ], [ 77.92651, 27.8783 ], [ 77.92696, 27.8771 ], [ 77.92334, 27.87316 ], [ 77.92584, 27.87013 ], [ 77.92267, 27.86736 ], [ 77.92987, 27.862 ], [ 77.93851, 27.85916 ], [ 77.94205, 27.8566 ], [ 77.94242, 27.85589 ], [ 77.94095, 27.85473 ], [ 77.94176, 27.85334 ], [ 77.94004, 27.85244 ], [ 77.93653, 27.84836 ], [ 77.94004, 27.84423 ], [ 77.94217, 27.84436 ], [ 77.94807, 27.84019 ], [ 77.9439, 27.83745 ], [ 77.94095, 27.83252 ], [ 77.94002, 27.82929 ], [ 77.93596, 27.8253 ], [ 77.93705, 27.82394 ], [ 77.93538, 27.82165 ], [ 77.94042, 27.81502 ], [ 77.94055, 27.81427 ], [ 77.93792, 27.81202 ], [ 77.94055, 27.808 ], [ 77.94333, 27.80939 ], [ 77.94886, 27.80624 ], [ 77.94986, 27.804 ], [ 77.95711, 27.80071 ], [ 77.96128, 27.79589 ], [ 77.9625, 27.79522 ], [ 77.96582, 27.7956 ], [ 77.97139, 27.79776 ], [ 77.97279, 27.79715 ], [ 77.9779, 27.80157 ], [ 77.98386, 27.80359 ], [ 77.98745, 27.80588 ], [ 77.99015, 27.8024 ], [ 77.99248, 27.8017 ], [ 78.00974, 27.8143 ], [ 78.01078, 27.81307 ], [ 78.01339, 27.81469 ], [ 78.0174, 27.82045 ], [ 78.01951, 27.82208 ], [ 78.02393, 27.81815 ], [ 78.02065, 27.81123 ], [ 78.02617, 27.80816 ], [ 78.02385, 27.80244 ], [ 78.0255, 27.80122 ], [ 78.02391, 27.7976 ], [ 78.02635, 27.79455 ], [ 78.02754, 27.7954 ], [ 78.03362, 27.78793 ], [ 78.03329, 27.78731 ], [ 78.04044, 27.78438 ], [ 78.04123, 27.78269 ], [ 78.04057, 27.77545 ], [ 78.04253, 27.77426 ], [ 78.0417, 27.77187 ], [ 78.0387, 27.77182 ], [ 78.03757, 27.7711 ], [ 78.03685, 27.7716 ], [ 78.03583, 27.76999 ], [ 78.02996, 27.76696 ], [ 78.0252, 27.76887 ], [ 78.02289, 27.76565 ], [ 78.02346, 27.76505 ], [ 78.02157, 27.76269 ], [ 78.01934, 27.76207 ], [ 78.01753, 27.7584 ], [ 78.02041, 27.75247 ], [ 78.02321, 27.75026 ], [ 78.02641, 27.75301 ], [ 78.02917, 27.75086 ], [ 78.03001, 27.75142 ], [ 78.03884, 27.748 ], [ 78.04181, 27.74948 ], [ 78.04395, 27.74572 ], [ 78.03443, 27.73625 ], [ 78.0325, 27.73589 ], [ 78.0307, 27.7328 ], [ 78.02004, 27.7383 ], [ 78.01818, 27.7373 ], [ 78.01336, 27.74102 ], [ 78.01233, 27.74022 ], [ 78.00819, 27.73161 ], [ 78.00445, 27.72834 ], [ 78.00804, 27.72413 ], [ 78.01115, 27.72554 ], [ 78.01524, 27.72135 ], [ 78.0159, 27.72052 ], [ 78.01388, 27.71824 ], [ 78.01529, 27.71638 ], [ 78.0096, 27.70931 ], [ 78.00849, 27.7097 ], [ 78.001, 27.70414 ], [ 78.00297, 27.70123 ], [ 77.99843, 27.6956 ], [ 77.99759, 27.69611 ], [ 77.99674, 27.69494 ], [ 77.99129, 27.692 ], [ 77.99198, 27.69015 ], [ 77.99354, 27.69096 ], [ 77.99524, 27.68819 ], [ 77.99845, 27.68589 ], [ 78.00705, 27.6827 ], [ 78.00664, 27.68198 ], [ 78.0083, 27.68116 ], [ 78.01021, 27.67827 ], [ 78.01187, 27.67698 ], [ 78.01274, 27.67725 ], [ 78.01662, 27.67321 ], [ 78.01731, 27.67363 ], [ 78.02052, 27.67186 ], [ 78.0228, 27.66773 ], [ 78.01948, 27.6608 ], [ 78.01476, 27.65866 ], [ 78.01864, 27.65259 ], [ 78.02186, 27.65089 ], [ 78.02237, 27.64821 ], [ 78.02113, 27.64626 ], [ 78.01927, 27.64682 ], [ 78.01717, 27.64544 ], [ 78.01323, 27.64791 ], [ 78.00523, 27.64926 ], [ 77.9988, 27.64303 ], [ 77.98567, 27.63514 ], [ 77.98366, 27.63068 ], [ 77.98144, 27.62153 ], [ 77.9822, 27.62193 ], [ 77.98863, 27.61413 ], [ 77.99617, 27.60852 ], [ 78.0015, 27.60576 ], [ 78.00187, 27.60526 ], [ 78.00002, 27.60328 ], [ 77.99835, 27.60343 ], [ 77.99629, 27.60168 ], [ 77.99479, 27.60157 ], [ 77.98952, 27.60239 ], [ 77.98713, 27.60381 ], [ 77.98603, 27.6033 ], [ 77.9837, 27.60393 ], [ 77.98232, 27.60284 ], [ 77.97864, 27.60286 ], [ 77.97708, 27.60133 ], [ 77.9755, 27.6012 ], [ 77.97428, 27.59995 ], [ 77.97418, 27.59856 ], [ 77.97147, 27.59583 ], [ 77.96355, 27.60491 ], [ 77.96273, 27.60791 ], [ 77.96331, 27.61251 ], [ 77.96038, 27.6153 ], [ 77.95685, 27.61475 ], [ 77.95353, 27.61205 ], [ 77.95492, 27.61028 ], [ 77.94762, 27.60424 ], [ 77.94523, 27.60533 ], [ 77.94089, 27.61004 ], [ 77.93396, 27.60714 ], [ 77.92977, 27.6065 ], [ 77.91925, 27.6013 ], [ 77.91684, 27.59933 ], [ 77.91766, 27.59803 ], [ 77.91609, 27.59648 ], [ 77.91692, 27.59421 ], [ 77.91837, 27.59415 ], [ 77.91642, 27.59307 ], [ 77.91869, 27.59036 ], [ 77.91721, 27.5898 ], [ 77.91617, 27.59109 ], [ 77.91498, 27.59034 ], [ 77.91302, 27.59159 ], [ 77.91125, 27.59061 ], [ 77.90975, 27.59137 ], [ 77.90825, 27.59024 ], [ 77.90779, 27.58795 ], [ 77.90587, 27.58932 ], [ 77.90474, 27.58818 ], [ 77.90424, 27.58865 ], [ 77.90206, 27.58594 ], [ 77.90269, 27.5842 ], [ 77.90005, 27.58149 ], [ 77.89922, 27.57981 ], [ 77.89977, 27.57953 ], [ 77.89809, 27.57857 ], [ 77.8956, 27.57905 ], [ 77.89752, 27.58118 ], [ 77.89783, 27.58266 ], [ 77.89434, 27.58597 ], [ 77.89317, 27.58565 ], [ 77.88936, 27.58937 ], [ 77.88513, 27.58781 ], [ 77.88243, 27.58627 ], [ 77.88093, 27.58169 ], [ 77.87528, 27.57615 ], [ 77.87482, 27.57471 ], [ 77.87557, 27.57358 ], [ 77.87371, 27.57122 ], [ 77.86874, 27.57204 ], [ 77.86619, 27.57514 ], [ 77.86482, 27.57921 ], [ 77.86406, 27.58598 ], [ 77.86264, 27.58777 ], [ 77.86315, 27.59018 ], [ 77.8528, 27.59991 ], [ 77.84916, 27.60638 ], [ 77.85231, 27.61237 ], [ 77.85761, 27.61641 ], [ 77.86206, 27.62151 ], [ 77.85743, 27.63147 ], [ 77.85222, 27.63685 ], [ 77.85176, 27.63879 ], [ 77.85271, 27.64032 ], [ 77.84873, 27.64453 ], [ 77.84916, 27.64662 ], [ 77.84783, 27.64734 ], [ 77.84991, 27.65234 ], [ 77.84776, 27.65322 ], [ 77.84833, 27.65475 ], [ 77.84101, 27.65488 ], [ 77.84097, 27.6574 ], [ 77.839, 27.65757 ], [ 77.8386, 27.65925 ], [ 77.8376, 27.65925 ], [ 77.83713, 27.65715 ], [ 77.83322, 27.65772 ], [ 77.83392, 27.65897 ], [ 77.8288, 27.66262 ], [ 77.82976, 27.66536 ], [ 77.82678, 27.6664 ], [ 77.82759, 27.66817 ], [ 77.82934, 27.6689 ], [ 77.83103, 27.66817 ], [ 77.83187, 27.66944 ], [ 77.83093, 27.67044 ], [ 77.83052, 27.66983 ], [ 77.82658, 27.67025 ], [ 77.81887, 27.67383 ], [ 77.81689, 27.6722 ], [ 77.81863, 27.6711 ], [ 77.81553, 27.66744 ], [ 77.78852, 27.68445 ], [ 77.79035, 27.68638 ], [ 77.78811, 27.68922 ], [ 77.79629, 27.69567 ], [ 77.79982, 27.70073 ], [ 77.799, 27.70225 ], [ 77.79989, 27.70424 ], [ 77.79943, 27.70528 ], [ 77.79698, 27.70972 ], [ 77.79434, 27.71223 ], [ 77.79653, 27.71555 ], [ 77.79777, 27.72034 ], [ 77.80026, 27.72407 ], [ 77.7988, 27.72522 ], [ 77.7983, 27.72455 ], [ 77.79534, 27.72607 ], [ 77.79588, 27.72732 ], [ 77.79402, 27.72843 ], [ 77.79514, 27.73211 ], [ 77.79641, 27.73359 ], [ 77.79422, 27.7352 ], [ 77.80165, 27.74957 ], [ 77.80279, 27.74917 ], [ 77.80549, 27.7531 ], [ 77.81027, 27.7536 ], [ 77.81115, 27.75281 ], [ 77.8122, 27.7537 ], [ 77.81494, 27.75249 ], [ 77.81611, 27.75351 ], [ 77.81708, 27.75287 ], [ 77.81812, 27.75398 ], [ 77.82035, 27.75225 ], [ 77.82179, 27.75249 ], [ 77.82785, 27.75019 ], [ 77.83238, 27.75288 ], [ 77.83139, 27.75342 ], [ 77.83444, 27.75707 ], [ 77.82452, 27.76682 ], [ 77.82099, 27.7752 ], [ 77.82044, 27.77461 ], [ 77.81751, 27.77754 ], [ 77.81552, 27.77674 ], [ 77.81454, 27.77759 ], [ 77.8154, 27.77821 ], [ 77.81489, 27.77882 ], [ 77.81607, 27.77941 ], [ 77.81311, 27.78455 ], [ 77.81267, 27.78687 ], [ 77.81328, 27.79025 ], [ 77.81528, 27.79179 ], [ 77.81303, 27.79691 ], [ 77.80952, 27.79993 ], [ 77.81124, 27.80315 ], [ 77.8111, 27.8068 ], [ 77.81505, 27.81131 ], [ 77.81402, 27.81197 ], [ 77.81417, 27.8129 ], [ 77.81318, 27.81386 ], [ 77.81368, 27.81435 ], [ 77.81197, 27.81573 ], [ 77.81209, 27.81647 ], [ 77.80637, 27.81977 ], [ 77.80864, 27.82207 ], [ 77.80267, 27.82797 ], [ 77.79994, 27.82549 ], [ 77.79654, 27.82521 ], [ 77.79217, 27.82847 ], [ 77.78975, 27.82968 ], [ 77.78874, 27.82933 ], [ 77.78588, 27.83646 ], [ 77.78314, 27.83788 ], [ 77.78066, 27.84077 ], [ 77.78202, 27.84326 ], [ 77.78024, 27.84557 ], [ 77.78428, 27.84774 ], [ 77.78652, 27.85013 ], [ 77.78887, 27.84925 ], [ 77.79739, 27.8535 ], [ 77.80081, 27.85441 ], [ 77.80556, 27.85782 ], [ 77.80896, 27.85918 ], [ 77.81253, 27.85465 ], [ 77.81172, 27.85311 ], [ 77.81495, 27.85108 ], [ 77.81692, 27.85113 ], [ 77.81928, 27.84914 ], [ 77.82289, 27.85182 ], [ 77.82919, 27.85407 ], [ 77.83008, 27.85327 ], [ 77.83997, 27.8622 ], [ 77.84031, 27.86497 ], [ 77.84917, 27.8716 ], [ 77.8496, 27.87544 ], [ 77.85305, 27.87919 ], [ 77.85451, 27.88056 ], [ 77.85651, 27.88076 ], [ 77.86256, 27.88633 ], [ 77.86348, 27.886 ], [ 77.86918, 27.88996 ], [ 77.87018, 27.89109 ], [ 77.86863, 27.8928 ], [ 77.86861, 27.89386 ], [ 77.87055, 27.89641 ], [ 77.87626, 27.89179 ], [ 77.87714, 27.8925 ], [ 77.88035, 27.88976 ], [ 77.8829, 27.89505 ], [ 77.87993, 27.89982 ], [ 77.87858, 27.90057 ], [ 77.88155, 27.90338 ], [ 77.8789, 27.90673 ], [ 77.88023, 27.90864 ] ] ] } },
{ "type": "Feature", "properties": { "OBJECTID": 2570, "state_lgd": "09", "state_name": "UTTAR PRADESH", "district_lgd": "143", "district_name": "ALIGARH", "district_name_source": "district_table", "subdistrict_lgd": "752", "subdistrict_name": "KHAIR", "subdistrict_type": "Tehsil", "name_corrupted": false, "remarks": "", "label_lon": 77.710182179909793, "label_lat": 27.994937854987491 }, "geometry": { "type": "Polygon", "coordinates": [ [ [ 77.65724, 28.1191 ], [ 77.65911, 28.11933 ], [ 77.66054, 28.11857 ], [ 77.66182, 28.1197 ], [ 77.66457, 28.11713 ], [ 77.66619, 28.11794 ], [ 77.66817, 28.11517 ], [ 77.66744, 28.11423 ], [ 77.66863, 28.1126 ], [ 77.67357, 28.10927 ], [ 77.67393, 28.10603 ], [ 77.67271, 28.10292 ], [ 77.6758, 28.10285 ], [ 77.67992, 28.10133 ], [ 77.68033, 28.10086 ], [ 77.67962, 28.10007 ], [ 77.68663, 28.09188 ], [ 77.69534, 28.08685 ], [ 77.69569, 28.08815 ], [ 77.69846, 28.08862 ], [ 77.70027, 28.09056 ], [ 77.70237, 28.0892 ], [ 77.70337, 28.08991 ], [ 77.70719, 28.0878 ], [ 77.70902, 28.08859 ], [ 77.71193, 28.08707 ], [ 77.72057, 28.09094 ], [ 77.72128, 28.08996 ], [ 77.72812, 28.09809 ], [ 77.72783, 28.09888 ], [ 77.73597, 28.09871 ], [ 77.73811, 28.09622 ], [ 77.74037, 28.09605 ], [ 77.74325, 28.09459 ], [ 77.74364, 28.09208 ], [ 77.74231, 28.09007 ], [ 77.74496, 28.08863 ], [ 77.74997, 28.08843 ], [ 77.75283, 28.08751 ], [ 77.75465, 28.08841 ], [ 77.75673, 28.08687 ], [ 77.75774, 28.08757 ], [ 77.75893, 28.08694 ], [ 77.76073, 28.08939 ], [ 77.76041, 28.09133 ], [ 77.76111, 28.09299 ], [ 77.76035, 28.0934 ], [ 77.76198, 28.09653 ], [ 77.76534, 28.09717 ], [ 77.76781, 28.09573 ], [ 77.76984, 28.09658 ], [ 77.77111, 28.09579 ], [ 77.77574, 28.09744 ], [ 77.77783, 28.09668 ], [ 77.7806, 28.09389 ], [ 77.78204, 28.09409 ], [ 77.78588, 28.09777 ], [ 77.79273, 28.09568 ], [ 77.79324, 28.09651 ], [ 77.79484, 28.09622 ], [ 77.79842, 28.09816 ], [ 77.80025, 28.09982 ], [ 77.80627, 28.09916 ], [ 77.81027, 28.0971 ], [ 77.814, 28.09202 ], [ 77.81472, 28.08802 ], [ 77.81002, 28.08656 ], [ 77.80589, 28.08352 ], [ 77.80515, 28.08123 ], [ 77.80317, 28.0805 ], [ 77.80486, 28.07756 ], [ 77.80499, 28.07582 ], [ 77.80285, 28.06979 ], [ 77.8041, 28.06233 ], [ 77.80266, 28.06148 ], [ 77.80304, 28.05592 ], [ 77.79666, 28.05387 ], [ 77.79089, 28.04862 ], [ 77.78965, 28.04294 ], [ 77.78712, 28.0395 ], [ 77.78255, 28.03657 ], [ 77.78057, 28.0374 ], [ 77.76892, 28.03524 ], [ 77.76374, 28.03869 ], [ 77.76263, 28.03918 ], [ 77.7614, 28.03841 ], [ 77.75994, 28.03929 ], [ 77.75698, 28.04407 ], [ 77.75152, 28.04401 ], [ 77.74519, 28.04893 ], [ 77.7443, 28.04521 ], [ 77.74227, 28.04287 ], [ 77.74604, 28.0381 ], [ 77.74494, 28.03658 ], [ 77.7471, 28.03437 ], [ 77.7474, 28.03289 ], [ 77.74639, 28.03162 ], [ 77.75884, 28.02222 ], [ 77.7596, 28.02438 ], [ 77.76301, 28.02401 ], [ 77.7641, 28.02635 ], [ 77.76679, 28.029 ], [ 77.77065, 28.02853 ], [ 77.7737, 28.0328 ], [ 77.77494, 28.03358 ], [ 77.77641, 28.03293 ], [ 77.77701, 28.03351 ], [ 77.77746, 28.034 ], [ 77.77665, 28.03484 ], [ 77.77747, 28.03548 ], [ 77.77909, 28.03377 ], [ 77.77975, 28.03418 ], [ 77.78101, 28.03072 ], [ 77.78044, 28.02946 ], [ 77.78105, 28.02499 ], [ 77.77885, 28.02053 ], [ 77.77678, 28.01847 ], [ 77.77766, 28.01443 ], [ 77.77924, 28.01362 ], [ 77.78125, 28.01491 ], [ 77.79091, 28.01538 ], [ 77.79837, 28.01326 ], [ 77.80376, 28.01558 ], [ 77.80724, 28.01166 ], [ 77.81668, 28.00371 ], [ 77.81937, 28.0023 ], [ 77.83106, 28.00781 ], [ 77.83328, 28.0069 ], [ 77.83555, 28.00874 ], [ 77.8366, 28.00804 ], [ 77.83788, 28.00866 ], [ 77.84091, 28.01242 ], [ 77.84112, 28.01574 ], [ 77.84549, 28.01546 ], [ 77.85, 28.00865 ], [ 77.8523, 28.00784 ], [ 77.85509, 28.00553 ], [ 77.85715, 28.00586 ], [ 77.86149, 28.00326 ], [ 77.86758, 28.00318 ], [ 77.8696, 28.00389 ], [ 77.8722, 28.00178 ], [ 77.8727, 27.99639 ], [ 77.86943, 27.99192 ], [ 77.87125, 27.99048 ], [ 77.87679, 27.9923 ], [ 77.88186, 27.98894 ], [ 77.8914, 27.98466 ], [ 77.89551, 27.98665 ], [ 77.90321, 27.98719 ], [ 77.90577, 27.99523 ], [ 77.90945, 27.99692 ], [ 77.91238, 27.99507 ], [ 77.91412, 27.99881 ], [ 77.91612, 27.99837 ], [ 77.91803, 27.99572 ], [ 77.91723, 27.99348 ], [ 77.91873, 27.99201 ], [ 77.91685, 27.98942 ], [ 77.91907, 27.98711 ], [ 77.92164, 27.9856 ], [ 77.92671, 27.98652 ], [ 77.93682, 27.98174 ], [ 77.93516, 27.97904 ], [ 77.92729, 27.97523 ], [ 77.93197, 27.97282 ], [ 77.93512, 27.97508 ], [ 77.93014, 27.96574 ], [ 77.93041, 27.9638 ], [ 77.93066, 27.96277 ], [ 77.93472, 27.96464 ], [ 77.93765, 27.95868 ], [ 77.94183, 27.95503 ], [ 77.94086, 27.94708 ], [ 77.94132, 27.94206 ], [ 77.93892, 27.93894 ], [ 77.94272, 27.93488 ], [ 77.9458, 27.93491 ], [ 77.94273, 27.93205 ], [ 77.94475, 27.93004 ], [ 77.94428, 27.92856 ], [ 77.94626, 27.92742 ], [ 77.94608, 27.92637 ], [ 77.94723, 27.9251 ], [ 77.93957, 27.91997 ], [ 77.93726, 27.91439 ], [ 77.93418, 27.91131 ], [ 77.92888, 27.90823 ], [ 77.92291, 27.90695 ], [ 77.92019, 27.90505 ], [ 77.92104, 27.90329 ], [ 77.91756, 27.90087 ], [ 77.91368, 27.8959 ], [ 77.91118, 27.89654 ], [ 77.90985, 27.89815 ], [ 77.90868, 27.89671 ], [ 77.90753, 27.89822 ], [ 77.90561, 27.89748 ], [ 77.9036, 27.89922 ], [ 77.90098, 27.89683 ], [ 77.89854, 27.89721 ], [ 77.89446, 27.89952 ], [ 77.89446, 27.90076 ], [ 77.88954, 27.90428 ], [ 77.88554, 27.90842 ], [ 77.88023, 27.90864 ], [ 77.8789, 27.90673 ], [ 77.88155, 27.90338 ], [ 77.87858, 27.90057 ], [ 77.87993, 27.89982 ], [ 77.8829, 27.89505 ], [ 77.88035, 27.88976 ], [ 77.87714, 27.8925 ], [ 77.87626, 27.89179 ], [ 77.87055, 27.89641 ], [ 77.86861, 27.89386 ], [ 77.86863, 27.8928 ], [ 77.87018, 27.89109 ], [ 77.86918, 27.88996 ], [ 77.86348, 27.886 ], [ 77.86256, 27.88633 ], [ 77.85651, 27.88076 ], [ 77.85451, 27.88056 ], [ 77.85305, 27.87919 ], [ 77.8496, 27.87544 ], [ 77.84917, 27.8716 ], [ 77.84031, 27.86497 ], [ 77.83997, 27.8622 ], [ 77.83728, 27.85916 ], [ 77.83593, 27.85881 ], [ 77.83008, 27.85327 ], [ 77.82919, 27.85407 ], [ 77.82289, 27.85182 ], [ 77.81972, 27.84913 ], [ 77.81692, 27.85113 ], [ 77.81495, 27.85108 ], [ 77.81172, 27.85311 ], [ 77.81253, 27.85465 ], [ 77.80757, 27.8608 ], [ 77.80408, 27.86349 ], [ 77.80226, 27.86386 ], [ 77.80005, 27.86251 ], [ 77.79383, 27.86407 ], [ 77.79223, 27.86333 ], [ 77.79055, 27.8647 ], [ 77.7858, 27.86444 ], [ 77.78398, 27.86544 ], [ 77.78298, 27.86471 ], [ 77.78198, 27.86542 ], [ 77.77741, 27.86423 ], [ 77.76891, 27.87037 ], [ 77.76739, 27.87258 ], [ 77.76524, 27.8736 ], [ 77.76358, 27.87663 ], [ 77.76446, 27.87718 ], [ 77.76309, 27.87964 ], [ 77.76273, 27.88506 ], [ 77.76025, 27.88874 ], [ 77.7615, 27.88975 ], [ 77.7638, 27.89647 ], [ 77.76205, 27.89933 ], [ 77.76488, 27.90229 ], [ 77.76468, 27.90321 ], [ 77.76254, 27.90631 ], [ 77.76066, 27.90568 ], [ 77.7574, 27.90793 ], [ 77.7435, 27.91392 ], [ 77.7443, 27.91577 ], [ 77.7427, 27.91719 ], [ 77.74374, 27.92046 ], [ 77.74214, 27.92209 ], [ 77.74298, 27.92315 ], [ 77.73074, 27.9336 ], [ 77.72732, 27.93396 ], [ 77.72312, 27.93306 ], [ 77.71378, 27.94108 ], [ 77.71212, 27.94122 ], [ 77.70395, 27.9474 ], [ 77.69566, 27.94294 ], [ 77.69307, 27.94404 ], [ 77.69151, 27.94292 ], [ 77.68979, 27.94365 ], [ 77.68685, 27.94235 ], [ 77.68434, 27.94376 ], [ 77.67816, 27.94355 ], [ 77.67636, 27.94463 ], [ 77.67295, 27.94503 ], [ 77.66981, 27.9476 ], [ 77.66778, 27.95072 ], [ 77.66071, 27.9564 ], [ 77.66071, 27.95934 ], [ 77.65918, 27.96355 ], [ 77.65665, 27.96578 ], [ 77.6429, 27.96761 ], [ 77.64209, 27.96601 ], [ 77.63737, 27.96185 ], [ 77.6297, 27.95097 ], [ 77.62801, 27.94752 ], [ 77.62868, 27.94565 ], [ 77.62584, 27.94247 ], [ 77.62643, 27.94169 ], [ 77.62464, 27.93555 ], [ 77.62125, 27.93314 ], [ 77.61796, 27.93219 ], [ 77.61467, 27.93264 ], [ 77.60585, 27.9376 ], [ 77.60186, 27.93476 ], [ 77.59247, 27.93805 ], [ 77.59047, 27.93547 ], [ 77.58591, 27.93483 ], [ 77.58393, 27.93305 ], [ 77.58231, 27.92966 ], [ 77.58263, 27.92805 ], [ 77.57771, 27.92984 ], [ 77.57283, 27.92944 ], [ 77.5701, 27.9271 ], [ 77.56826, 27.92659 ], [ 77.56718, 27.92535 ], [ 77.5688, 27.92349 ], [ 77.56753, 27.91909 ], [ 77.56323, 27.91438 ], [ 77.55769, 27.91145 ], [ 77.55347, 27.91318 ], [ 77.55151, 27.91275 ], [ 77.54442, 27.91644 ], [ 77.5428, 27.91888 ], [ 77.5367, 27.91824 ], [ 77.53225, 27.92109 ], [ 77.52791, 27.92096 ], [ 77.52657, 27.92237 ], [ 77.5262, 27.92537 ], [ 77.5293, 27.92526 ], [ 77.5335, 27.92921 ], [ 77.53661, 27.93398 ], [ 77.53695, 27.93797 ], [ 77.54006, 27.94275 ], [ 77.54499, 27.9533 ], [ 77.54608, 27.95793 ], [ 77.54423, 27.96221 ], [ 77.53781, 27.96296 ], [ 77.53277, 27.96149 ], [ 77.51872, 27.96213 ], [ 77.51856, 27.96567 ], [ 77.51697, 27.97115 ], [ 77.52119, 27.97651 ], [ 77.52946, 27.97607 ], [ 77.53777, 27.97902 ], [ 77.5412, 27.98182 ], [ 77.54257, 27.98495 ], [ 77.54243, 27.98909 ], [ 77.52425, 28.0 ], [ 77.52403, 28.00674 ], [ 77.52276, 28.01178 ], [ 77.52133, 28.01414 ], [ 77.50839, 28.02277 ], [ 77.50821, 28.02523 ], [ 77.51193, 28.02775 ], [ 77.51276, 28.03189 ], [ 77.51013, 28.03334 ], [ 77.48841, 28.0367 ], [ 77.48617, 28.03777 ], [ 77.48364, 28.04045 ], [ 77.48354, 28.04183 ], [ 77.48534, 28.04464 ], [ 77.49061, 28.04691 ], [ 77.49306, 28.04683 ], [ 77.49588, 28.0507 ], [ 77.4986, 28.05225 ], [ 77.50132, 28.05666 ], [ 77.50124, 28.05852 ], [ 77.49979, 28.06331 ], [ 77.48967, 28.07259 ], [ 77.48659, 28.07353 ], [ 77.47825, 28.08039 ], [ 77.47561, 28.08512 ], [ 77.48414, 28.08814 ], [ 77.48963, 28.08617 ], [ 77.49753, 28.08538 ], [ 77.50105, 28.0862 ], [ 77.50745, 28.08999 ], [ 77.51086, 28.0898 ], [ 77.51251, 28.08862 ], [ 77.518, 28.08784 ], [ 77.51874, 28.08699 ], [ 77.52161, 28.08722 ], [ 77.52526, 28.08962 ], [ 77.53498, 28.09117 ], [ 77.54137, 28.08899 ], [ 77.54393, 28.08947 ], [ 77.54546, 28.09123 ], [ 77.55165, 28.08863 ], [ 77.55631, 28.08821 ], [ 77.56061, 28.08909 ], [ 77.56735, 28.08797 ], [ 77.57092, 28.09235 ], [ 77.57179, 28.09202 ], [ 77.57504, 28.09648 ], [ 77.57649, 28.09694 ], [ 77.57666, 28.09809 ], [ 77.57596, 28.09826 ], [ 77.57697, 28.10048 ], [ 77.58031, 28.10412 ], [ 77.5822, 28.10569 ], [ 77.58517, 28.10658 ], [ 77.58722, 28.10586 ], [ 77.58828, 28.10824 ], [ 77.58989, 28.10679 ], [ 77.59153, 28.10774 ], [ 77.59712, 28.11237 ], [ 77.59929, 28.11652 ], [ 77.60198, 28.11899 ], [ 77.60795, 28.11153 ], [ 77.61386, 28.1072 ], [ 77.6146, 28.10884 ], [ 77.61716, 28.10802 ], [ 77.61773, 28.10894 ], [ 77.62039, 28.10784 ], [ 77.62063, 28.10847 ], [ 77.6226, 28.1087 ], [ 77.62457, 28.10747 ], [ 77.62612, 28.10946 ], [ 77.62707, 28.10891 ], [ 77.62664, 28.10789 ], [ 77.62916, 28.1058 ], [ 77.63075, 28.10513 ], [ 77.63166, 28.10627 ], [ 77.63547, 28.10337 ], [ 77.63763, 28.103 ], [ 77.64481, 28.10928 ], [ 77.64279, 28.1115 ], [ 77.64391, 28.11366 ], [ 77.64742, 28.113 ], [ 77.65073, 28.11589 ], [ 77.65464, 28.12195 ], [ 77.65724, 28.1191 ] ] ] } },
{ "type": "Feature", "properties": { "OBJECTID": 2579, "state_lgd": "09", "state_name": "UTTAR PRADESH", "district_lgd": "143", "district_name": "ALIGARH", "district_name_source": "district_table", "subdistrict_lgd": "755", "subdistrict_name": "KOIL", "subdistrict_type": "Tehsil", "name_corrupted": false, "remarks": "", "label_lon": 78.16011198253986, "label_lat": 27.869493741552418 }, "geometry": { "type": "Polygon", "coordinates": [ [ [ 78.20563, 28.10015 ], [ 78.20578, 28.09589 ], [ 78.2086, 28.09463 ], [ 78.20929, 28.09616 ], [ 78.20978, 28.09406 ], [ 78.21313, 28.0935 ], [ 78.21279, 28.09162 ], [ 78.21119, 28.09264 ], [ 78.20922, 28.09048 ], [ 78.21151, 28.08951 ], [ 78.21285, 28.08637 ], [ 78.21638, 28.08414 ], [ 78.21275, 28.0809 ], [ 78.21499, 28.08108 ], [ 78.21483, 28.07822 ], [ 78.21712, 28.07793 ], [ 78.21694, 28.07638 ], [ 78.2152, 28.0757 ], [ 78.2157, 28.07513 ], [ 78.22029, 28.07473 ], [ 78.22072, 28.07334 ], [ 78.21899, 28.07178 ], [ 78.22022, 28.06977 ], [ 78.21926, 28.06783 ], [ 78.22104, 28.06307 ], [ 78.22141, 28.06221 ], [ 78.2223, 28.06291 ], [ 78.22306, 28.06247 ], [ 78.22323, 28.06109 ], [ 78.22532, 28.05855 ], [ 78.22675, 28.05799 ], [ 78.22604, 28.05648 ], [ 78.22774, 28.05585 ], [ 78.2272, 28.05458 ], [ 78.23135, 28.05498 ], [ 78.23227, 28.05297 ], [ 78.22993, 28.05104 ], [ 78.23343, 28.05216 ], [ 78.23216, 28.0491 ], [ 78.23492, 28.0504 ], [ 78.23616, 28.04813 ], [ 78.23812, 28.04957 ], [ 78.241, 28.04988 ], [ 78.24567, 28.04889 ], [ 78.24659, 28.04986 ], [ 78.24796, 28.04946 ], [ 78.24732, 28.05144 ], [ 78.24943, 28.04938 ], [ 78.2481, 28.04725 ], [ 78.25107, 28.04684 ], [ 78.25119, 28.04522 ], [ 78.24832, 28.04015 ], [ 78.24261, 28.03966 ], [ 78.24266, 28.03881 ], [ 78.24436, 28.03771 ], [ 78.24149, 28.03565 ], [ 78.24271, 28.03393 ], [ 78.2424, 28.03179 ], [ 78.24435, 28.03189 ], [ 78.2438, 28.029 ], [ 78.24119, 28.02957 ], [ 78.24078, 28.02619 ], [ 78.23785, 28.02584 ], [ 78.23532, 28.02169 ], [ 78.23665, 28.01927 ], [ 78.23229, 28.01548 ], [ 78.23146, 28.01232 ], [ 78.22972, 28.01145 ], [ 78.23054, 28.01084 ], [ 78.23015, 28.00961 ], [ 78.22669, 28.01113 ], [ 78.2259, 28.01321 ], [ 78.22278, 28.0119 ], [ 78.22033, 28.01413 ], [ 78.21726, 28.01387 ], [ 78.21714, 28.01542 ], [ 78.21191, 28.01219 ], [ 78.20865, 28.013 ], [ 78.20906, 28.01404 ], [ 78.20602, 28.01523 ], [ 78.20572, 28.01298 ], [ 78.20334, 28.01264 ], [ 78.20084, 28.01097 ], [ 78.20145, 28.00908 ], [ 78.19856, 28.0071 ], [ 78.19787, 28.00493 ], [ 78.19572, 28.00606 ], [ 78.19441, 28.00548 ], [ 78.19552, 28.0039 ], [ 78.19501, 28.0031 ], [ 78.19355, 28.00307 ], [ 78.1928, 28.00163 ], [ 78.19449, 28.00035 ], [ 78.19818, 27.99947 ], [ 78.19806, 27.99581 ], [ 78.19891, 27.99432 ], [ 78.19565, 27.99101 ], [ 78.19699, 27.98945 ], [ 78.19488, 27.99023 ], [ 78.19345, 27.98872 ], [ 78.19378, 27.98771 ], [ 78.19286, 27.98652 ], [ 78.19434, 27.985 ], [ 78.19394, 27.98283 ], [ 78.19653, 27.98302 ], [ 78.19709, 27.98496 ], [ 78.19895, 27.97964 ], [ 78.20203, 27.97687 ], [ 78.20328, 27.97709 ], [ 78.20481, 27.97873 ], [ 78.20741, 27.97635 ], [ 78.20686, 27.97511 ], [ 78.21302, 27.97079 ], [ 78.21449, 27.96994 ], [ 78.21766, 27.97031 ], [ 78.21866, 27.96867 ], [ 78.21694, 27.96734 ], [ 78.22023, 27.96809 ], [ 78.22025, 27.96569 ], [ 78.2217, 27.96599 ], [ 78.22117, 27.96751 ], [ 78.22283, 27.96635 ], [ 78.22283, 27.96394 ], [ 78.22127, 27.96323 ], [ 78.2211, 27.96125 ], [ 78.22365, 27.96222 ], [ 78.22469, 27.96087 ], [ 78.22, 27.9586 ], [ 78.22392, 27.95714 ], [ 78.22342, 27.95472 ], [ 78.22271, 27.95455 ], [ 78.22374, 27.95388 ], [ 78.22389, 27.9516 ], [ 78.22564, 27.95098 ], [ 78.22371, 27.95005 ], [ 78.22542, 27.94903 ], [ 78.22349, 27.9477 ], [ 78.22613, 27.94628 ], [ 78.22577, 27.94548 ], [ 78.22698, 27.9449 ], [ 78.22763, 27.94565 ], [ 78.22858, 27.94537 ], [ 78.22809, 27.94437 ], [ 78.2295, 27.94285 ], [ 78.23106, 27.94568 ], [ 78.23431, 27.94403 ], [ 78.23503, 27.94455 ], [ 78.23901, 27.94114 ], [ 78.23995, 27.94168 ], [ 78.24211, 27.93939 ], [ 78.24171, 27.93639 ], [ 78.24231, 27.93545 ], [ 78.24431, 27.9355 ], [ 78.24501, 27.9348 ], [ 78.24649, 27.93663 ], [ 78.24766, 27.93583 ], [ 78.24916, 27.93606 ], [ 78.2498, 27.93832 ], [ 78.2515, 27.9388 ], [ 78.25189, 27.93818 ], [ 78.25088, 27.9368 ], [ 78.2532, 27.93505 ], [ 78.2523, 27.93379 ], [ 78.25474, 27.9326 ], [ 78.25486, 27.93023 ], [ 78.25362, 27.93026 ], [ 78.25363, 27.92937 ], [ 78.25564, 27.92678 ], [ 78.25722, 27.92725 ], [ 78.25695, 27.92576 ], [ 78.26059, 27.92436 ], [ 78.26489, 27.91956 ], [ 78.26814, 27.92086 ], [ 78.26481, 27.91786 ], [ 78.26717, 27.91688 ], [ 78.26723, 27.91482 ], [ 78.26584, 27.91559 ], [ 78.26524, 27.91384 ], [ 78.26765, 27.9119 ], [ 78.26588, 27.91053 ], [ 78.26752, 27.90559 ], [ 78.26802, 27.90456 ], [ 78.2692, 27.90496 ], [ 78.27148, 27.90263 ], [ 78.27237, 27.89847 ], [ 78.2734, 27.89814 ], [ 78.27409, 27.89889 ], [ 78.27421, 27.89815 ], [ 78.27661, 27.8982 ], [ 78.27426, 27.89597 ], [ 78.27452, 27.89276 ], [ 78.27357, 27.88965 ], [ 78.27301, 27.88881 ], [ 78.27094, 27.88847 ], [ 78.27236, 27.88734 ], [ 78.27532, 27.88809 ], [ 78.27626, 27.88759 ], [ 78.27592, 27.8856 ], [ 78.2739, 27.88493 ], [ 78.27234, 27.88268 ], [ 78.27398, 27.88138 ], [ 78.27258, 27.87892 ], [ 78.27423, 27.87704 ], [ 78.27237, 27.87496 ], [ 78.27493, 27.87487 ], [ 78.27619, 27.87399 ], [ 78.27245, 27.87292 ], [ 78.27303, 27.87199 ], [ 78.27714, 27.86921 ], [ 78.28033, 27.86351 ], [ 78.28475, 27.8636 ], [ 78.28821, 27.86262 ], [ 78.29003, 27.86311 ], [ 78.29129, 27.86518 ], [ 78.2921, 27.86374 ], [ 78.29322, 27.86339 ], [ 78.29483, 27.86508 ], [ 78.29651, 27.8651 ], [ 78.29862, 27.86841 ], [ 78.2978, 27.86993 ], [ 78.29843, 27.87014 ], [ 78.30379, 27.86959 ], [ 78.30428, 27.86767 ], [ 78.30674, 27.86798 ], [ 78.30723, 27.86681 ], [ 78.31035, 27.86504 ], [ 78.31688, 27.86374 ], [ 78.31745, 27.86145 ], [ 78.32092, 27.86303 ], [ 78.32442, 27.86248 ], [ 78.32273, 27.86099 ], [ 78.32383, 27.8602 ], [ 78.32642, 27.86182 ], [ 78.33133, 27.8614 ], [ 78.33254, 27.86403 ], [ 78.33551, 27.86389 ], [ 78.33422, 27.86135 ], [ 78.3352, 27.86063 ], [ 78.33664, 27.86323 ], [ 78.33845, 27.86444 ], [ 78.34154, 27.86463 ], [ 78.34277, 27.86376 ], [ 78.34575, 27.86347 ], [ 78.34764, 27.86623 ], [ 78.35103, 27.86571 ], [ 78.3513, 27.86624 ], [ 78.34926, 27.86736 ], [ 78.35033, 27.86803 ], [ 78.35474, 27.86542 ], [ 78.3557, 27.86691 ], [ 78.35659, 27.86617 ], [ 78.35892, 27.86635 ], [ 78.36024, 27.86559 ], [ 78.36046, 27.86444 ], [ 78.36209, 27.8646 ], [ 78.36334, 27.86309 ], [ 78.36416, 27.86533 ], [ 78.36238, 27.86603 ], [ 78.36532, 27.86956 ], [ 78.3663, 27.87198 ], [ 78.36849, 27.87367 ], [ 78.36956, 27.87219 ], [ 78.36924, 27.8711 ], [ 78.3716, 27.87212 ], [ 78.37177, 27.87287 ], [ 78.36996, 27.87479 ], [ 78.37148, 27.87741 ], [ 78.3753, 27.8805 ], [ 78.37406, 27.88119 ], [ 78.37498, 27.8823 ], [ 78.379, 27.8822 ], [ 78.38551, 27.88387 ], [ 78.38927, 27.88639 ], [ 78.39673, 27.88058 ], [ 78.39489, 27.87925 ], [ 78.39701, 27.87787 ], [ 78.39487, 27.87649 ], [ 78.3993, 27.87267 ], [ 78.40019, 27.86444 ], [ 78.40185, 27.85954 ], [ 78.40093, 27.85523 ], [ 78.40283, 27.85182 ], [ 78.40848, 27.84794 ], [ 78.40552, 27.84186 ], [ 78.40669, 27.83415 ], [ 78.40555, 27.8315 ], [ 78.40188, 27.83061 ], [ 78.39755, 27.82828 ], [ 78.39097, 27.82005 ], [ 78.38881, 27.81901 ], [ 78.38429, 27.81485 ], [ 78.38123, 27.80928 ], [ 78.37925, 27.80235 ], [ 78.37638, 27.80087 ], [ 78.37558, 27.79886 ], [ 78.37196, 27.79708 ], [ 78.36777, 27.79262 ], [ 78.36344, 27.78618 ], [ 78.36332, 27.78486 ], [ 78.36517, 27.78253 ], [ 78.36669, 27.77854 ], [ 78.36485, 27.76909 ], [ 78.36676, 27.76453 ], [ 78.36913, 27.75493 ], [ 78.37162, 27.75016 ], [ 78.37059, 27.74826 ], [ 78.36647, 27.74695 ], [ 78.35599, 27.74569 ], [ 78.35258, 27.74439 ], [ 78.34388, 27.73775 ], [ 78.33727, 27.73012 ], [ 78.32695, 27.72245 ], [ 78.3251, 27.72186 ], [ 78.31239, 27.72173 ], [ 78.30581, 27.72267 ], [ 78.30361, 27.72214 ], [ 78.29127, 27.71604 ], [ 78.29151, 27.71401 ], [ 78.28755, 27.71117 ], [ 78.27131, 27.70632 ], [ 78.26402, 27.699 ], [ 78.25682, 27.6832 ], [ 78.24036, 27.66506 ], [ 78.23807, 27.66797 ], [ 78.22752, 27.67367 ], [ 78.2235, 27.67872 ], [ 78.22327, 27.681 ], [ 78.22034, 27.68371 ], [ 78.21982, 27.68628 ], [ 78.21856, 27.68593 ], [ 78.21617, 27.68873 ], [ 78.21571, 27.69464 ], [ 78.21424, 27.69478 ], [ 78.21171, 27.69286 ], [ 78.2067, 27.69382 ], [ 78.2038, 27.69298 ], [ 78.20141, 27.69645 ], [ 78.19837, 27.69766 ], [ 78.19792, 27.70014 ], [ 78.19209, 27.70621 ], [ 78.18059, 27.7118 ], [ 78.18026, 27.71117 ], [ 78.17326, 27.71559 ], [ 78.17397, 27.71721 ], [ 78.17844, 27.72082 ], [ 78.18175, 27.72086 ], [ 78.18242, 27.72177 ], [ 78.17702, 27.72842 ], [ 78.17492, 27.73423 ], [ 78.17181, 27.73561 ], [ 78.1746, 27.73942 ], [ 78.17997, 27.7433 ], [ 78.18193, 27.74648 ], [ 78.17837, 27.75084 ], [ 78.18047, 27.75328 ], [ 78.17355, 27.75791 ], [ 78.16976, 27.76179 ], [ 78.16848, 27.76164 ], [ 78.16484, 27.76344 ], [ 78.16285, 27.76143 ], [ 78.16127, 27.76227 ], [ 78.15775, 27.76199 ], [ 78.15142, 27.75822 ], [ 78.14606, 27.76496 ], [ 78.13562, 27.77228 ], [ 78.13219, 27.76796 ], [ 78.12592, 27.77203 ], [ 78.12454, 27.77054 ], [ 78.1237, 27.77154 ], [ 78.11778, 27.76522 ], [ 78.11178, 27.76871 ], [ 78.10852, 27.76772 ], [ 78.10725, 27.76845 ], [ 78.1047, 27.76815 ], [ 78.09716, 27.76508 ], [ 78.09265, 27.76777 ], [ 78.08693, 27.76523 ], [ 78.08472, 27.76871 ], [ 78.08034, 27.77216 ], [ 78.07783, 27.7707 ], [ 78.07624, 27.76865 ], [ 78.0664, 27.77023 ], [ 78.06679, 27.77472 ], [ 78.07179, 27.77924 ], [ 78.06143, 27.79317 ], [ 78.05273, 27.78918 ], [ 78.05038, 27.78571 ], [ 78.04395, 27.78281 ], [ 78.03606, 27.78667 ], [ 78.03496, 27.78615 ], [ 78.03329, 27.78731 ], [ 78.03362, 27.78793 ], [ 78.02754, 27.7954 ], [ 78.02635, 27.79455 ], [ 78.02391, 27.7976 ], [ 78.0255, 27.80122 ], [ 78.02385, 27.80244 ], [ 78.02617, 27.80816 ], [ 78.02065, 27.81123 ], [ 78.02393, 27.81815 ], [ 78.01951, 27.82208 ], [ 78.0174, 27.82045 ], [ 78.01339, 27.81469 ], [ 78.01078, 27.81307 ], [ 78.00974, 27.8143 ], [ 77.99248, 27.8017 ], [ 77.99015, 27.8024 ], [ 77.98745, 27.80588 ], [ 77.98386, 27.80359 ], [ 77.9779, 27.80157 ], [ 77.97279, 27.79715 ], [ 77.97139, 27.79776 ], [ 77.96582, 27.7956 ], [ 77.9625, 27.79522 ], [ 77.96128, 27.79589 ], [ 77.95711, 27.80071 ], [ 77.94986, 27.804 ], [ 77.94886, 27.80624 ], [ 77.94333, 27.80939 ], [ 77.94055, 27.808 ], [ 77.93792, 27.81202 ], [ 77.94055, 27.81427 ], [ 77.94042, 27.81502 ], [ 77.93538, 27.82165 ], [ 77.93705, 27.82394 ], [ 77.93596, 27.8253 ], [ 77.94002, 27.82929 ], [ 77.94095, 27.83252 ], [ 77.9439, 27.83745 ], [ 77.94807, 27.84019 ], [ 77.94217, 27.84436 ], [ 77.94004, 27.84423 ], [ 77.93653, 27.84836 ], [ 77.94004, 27.85244 ], [ 77.94176, 27.85334 ], [ 77.94095, 27.85473 ], [ 77.94242, 27.85589 ], [ 77.94205, 27.8566 ], [ 77.93851, 27.85916 ], [ 77.92987, 27.862 ], [ 77.92267, 27.86736 ], [ 77.92584, 27.87013 ], [ 77.92334, 27.87316 ], [ 77.92696, 27.8771 ], [ 77.92651, 27.8783 ], [ 77.92415, 27.87971 ], [ 77.92288, 27.88319 ], [ 77.91763, 27.8871 ], [ 77.91755, 27.88785 ], [ 77.91943, 27.89056 ], [ 77.92487, 27.89547 ], [ 77.91933, 27.90219 ], [ 77.92104, 27.90329 ], [ 77.92019, 27.90505 ], [ 77.92291, 27.90695 ], [ 77.92888, 27.90823 ], [ 77.93418, 27.91131 ], [ 77.93726, 27.91439 ], [ 77.93957, 27.91997 ], [ 77.94723, 27.9251 ], [ 77.94608, 27.92637 ], [ 77.94626, 27.92742 ], [ 77.94428, 27.92856 ], [ 77.94475, 27.93004 ], [ 77.94273, 27.93205 ], [ 77.9458, 27.93491 ], [ 77.94981, 27.93115 ], [ 77.95437, 27.92966 ], [ 77.95955, 27.93006 ], [ 77.96848, 27.92803 ], [ 77.96864, 27.93898 ], [ 77.97054, 27.94131 ], [ 77.97476, 27.94413 ], [ 77.97289, 27.9458 ], [ 77.97275, 27.94721 ], [ 77.97557, 27.94938 ], [ 77.96941, 27.95647 ], [ 77.97157, 27.95796 ], [ 77.97452, 27.95647 ], [ 77.97635, 27.95702 ], [ 77.97862, 27.95618 ], [ 77.98122, 27.95301 ], [ 77.98336, 27.95709 ], [ 77.98851, 27.9538 ], [ 77.9896, 27.95461 ], [ 77.98611, 27.95867 ], [ 77.98488, 27.96241 ], [ 77.98569, 27.96915 ], [ 77.98848, 27.97131 ], [ 77.98994, 27.97162 ], [ 77.99118, 27.97048 ], [ 77.99456, 27.97104 ], [ 77.99751, 27.97275 ], [ 78.00151, 27.9771 ], [ 78.00611, 27.97824 ], [ 78.00858, 27.97379 ], [ 78.013, 27.97001 ], [ 78.01431, 27.97065 ], [ 78.01561, 27.96952 ], [ 78.01837, 27.97013 ], [ 78.02038, 27.9686 ], [ 78.02384, 27.97035 ], [ 78.02669, 27.96851 ], [ 78.0282, 27.96964 ], [ 78.03017, 27.96621 ], [ 78.03474, 27.96197 ], [ 78.03629, 27.96292 ], [ 78.03955, 27.96332 ], [ 78.04127, 27.96209 ], [ 78.04616, 27.96541 ], [ 78.04807, 27.96542 ], [ 78.05052, 27.96716 ], [ 78.05201, 27.96599 ], [ 78.05466, 27.96811 ], [ 78.05675, 27.97258 ], [ 78.05849, 27.97398 ], [ 78.05716, 27.97497 ], [ 78.05767, 27.97755 ], [ 78.05643, 27.97877 ], [ 78.05537, 27.98221 ], [ 78.05953, 27.98414 ], [ 78.06178, 27.98674 ], [ 78.06782, 27.9897 ], [ 78.06615, 27.99357 ], [ 78.0662, 27.99703 ], [ 78.06441, 27.99842 ], [ 78.06158, 28.00012 ], [ 78.05282, 28.00097 ], [ 78.05322, 28.00964 ], [ 78.06181, 28.01759 ], [ 78.06417, 28.02127 ], [ 78.07109, 28.02362 ], [ 78.066, 28.02635 ], [ 78.06122, 28.0276 ], [ 78.06301, 28.03214 ], [ 78.06078, 28.03531 ], [ 78.06758, 28.03625 ], [ 78.07353, 28.03889 ], [ 78.0767, 28.04167 ], [ 78.08581, 28.03515 ], [ 78.0887, 28.02806 ], [ 78.09184, 28.02431 ], [ 78.09711, 28.02024 ], [ 78.10168, 28.01925 ], [ 78.10638, 28.02914 ], [ 78.10637, 28.03864 ], [ 78.10554, 28.04166 ], [ 78.10611, 28.047 ], [ 78.10719, 28.04937 ], [ 78.11354, 28.05047 ], [ 78.12537, 28.04397 ], [ 78.13026, 28.03653 ], [ 78.13253, 28.03131 ], [ 78.13743, 28.02607 ], [ 78.13975, 28.025 ], [ 78.14818, 28.03028 ], [ 78.15181, 28.03682 ], [ 78.15176, 28.04404 ], [ 78.15424, 28.0521 ], [ 78.1411, 28.06427 ], [ 78.14819, 28.06938 ], [ 78.14953, 28.07486 ], [ 78.15131, 28.07319 ], [ 78.15353, 28.07451 ], [ 78.15875, 28.0803 ], [ 78.15936, 28.07842 ], [ 78.16196, 28.07569 ], [ 78.16455, 28.07476 ], [ 78.16913, 28.07488 ], [ 78.17016, 28.07423 ], [ 78.17289, 28.07569 ], [ 78.17477, 28.07485 ], [ 78.17763, 28.07696 ], [ 78.17997, 28.07702 ], [ 78.19559, 28.09431 ], [ 78.20384, 28.10095 ], [ 78.20563, 28.10015 ] ] ] } }
]
}
