{
"type": "FeatureCollection",
"name": "147_FIROZABAD",
"crs": { "type": "name", "properties": { "name": "urn:ogc:def:crs:OGC:1.3:CRS84" } },
"xy_coordinate_resolution": 1e-05,
"features": [
{ "type": "Feature", "properties": { "OBJECTID": 2503, "state_lgd": "09", "state_name": "UTTAR PRADESH", "district_lgd": "147", "district_name": "FIROZABAD", "district_name_source": "district_table", "subdistrict_lgd": "772", "subdistrict_name": "FIROZABAD", "subdistrict_type": "Tehsil", "name_corrupted": false, "remarks": "", "label_lon": 78.412914297788703, "label_lat": 27.175947781853065 }, "geometry": { "type": "Polygon", "coordinates": [ [ [ 78.45607, 27.3746 ], [ 78.45979, 27.36738 ], [ 78.46385, 27.36415 ], [ 78.46639, 27.35963 ], [ 78.46981, 27.35656 ], [ 78.47187, 27.35106 ], [ 78.4717, 27.34852 ], [ 78.47768, 27.34294 ], [ 78.47581, 27.33869 ], [ 78.47381, 27.33749 ], [ 78.46759, 27.33594 ], [ 78.46115, 27.33065 ], [ 78.46327, 27.32397 ], [ 78.45998, 27.31885 ], [ 78.46209, 27.31599 ], [ 78.47739, 27.30419 ], [ 78.47163, 27.29446 ], [ 78.47145, 27.2937 ], [ 78.47404, 27.29395 ], [ 78.47292, 27.29036 ], [ 78.47915, 27.28445 ], [ 78.4862, 27.28511 ], [ 78.48427, 27.28204 ], [ 78.48396, 27.27675 ], [ 78.48289, 27.27409 ], [ 78.48151, 27.27292 ], [ 78.47565, 27.27264 ], [ 78.47341, 27.26718 ], [ 78.47439, 27.26492 ], [ 78.48067, 27.25792 ], [ 78.47524, 27.25208 ], [ 78.47206, 27.25329 ], [ 78.46894, 27.25254 ], [ 78.46676, 27.25074 ], [ 78.46381, 27.24622 ], [ 78.46227, 27.24585 ], [ 78.46095, 27.24424 ], [ 78.4591, 27.24522 ], [ 78.45782, 27.24443 ], [ 78.45669, 27.24539 ], [ 78.45558, 27.24462 ], [ 78.45482, 27.24201 ], [ 78.45602, 27.23975 ], [ 78.45462, 27.23355 ], [ 78.45351, 27.23193 ], [ 78.45152, 27.23195 ], [ 78.44985, 27.23392 ], [ 78.44876, 27.23276 ], [ 78.44644, 27.23649 ], [ 78.44089, 27.24029 ], [ 78.43426, 27.23841 ], [ 78.43389, 27.23773 ], [ 78.43283, 27.23291 ], [ 78.43564, 27.22687 ], [ 78.43484, 27.22181 ], [ 78.44051, 27.21669 ], [ 78.44534, 27.21438 ], [ 78.4452, 27.21253 ], [ 78.44668, 27.20977 ], [ 78.45018, 27.20931 ], [ 78.45086, 27.20722 ], [ 78.45316, 27.20724 ], [ 78.45413, 27.20611 ], [ 78.4534, 27.20004 ], [ 78.45119, 27.19925 ], [ 78.44948, 27.19673 ], [ 78.44658, 27.19538 ], [ 78.44647, 27.19433 ], [ 78.4439, 27.19464 ], [ 78.44154, 27.19639 ], [ 78.43604, 27.19201 ], [ 78.43816, 27.17912 ], [ 78.44055, 27.1765 ], [ 78.4422, 27.17716 ], [ 78.44362, 27.17643 ], [ 78.44603, 27.17173 ], [ 78.4513, 27.16722 ], [ 78.44843, 27.16234 ], [ 78.45089, 27.15954 ], [ 78.45033, 27.15561 ], [ 78.45312, 27.15275 ], [ 78.45939, 27.14978 ], [ 78.45849, 27.14811 ], [ 78.4593, 27.14624 ], [ 78.45858, 27.14456 ], [ 78.45971, 27.14365 ], [ 78.45395, 27.13905 ], [ 78.45481, 27.13563 ], [ 78.45842, 27.13547 ], [ 78.46441, 27.13174 ], [ 78.4654, 27.13262 ], [ 78.47564, 27.12706 ], [ 78.47452, 27.12615 ], [ 78.47233, 27.12058 ], [ 78.47226, 27.11952 ], [ 78.47317, 27.11908 ], [ 78.47251, 27.11723 ], [ 78.47373, 27.11537 ], [ 78.48161, 27.11023 ], [ 78.48132, 27.10606 ], [ 78.48295, 27.10385 ], [ 78.48778, 27.10065 ], [ 78.4947, 27.09817 ], [ 78.49695, 27.09579 ], [ 78.49562, 27.09164 ], [ 78.49234, 27.08819 ], [ 78.49329, 27.087 ], [ 78.49201, 27.08441 ], [ 78.4923, 27.08342 ], [ 78.48816, 27.07947 ], [ 78.48615, 27.07873 ], [ 78.48627, 27.07533 ], [ 78.48765, 27.07373 ], [ 78.48947, 27.07473 ], [ 78.49571, 27.07249 ], [ 78.5035, 27.06718 ], [ 78.50387, 27.06585 ], [ 78.50805, 27.06376 ], [ 78.50719, 27.06263 ], [ 78.50871, 27.06167 ], [ 78.50773, 27.06051 ], [ 78.50865, 27.05954 ], [ 78.50814, 27.05762 ], [ 78.50922, 27.05661 ], [ 78.50831, 27.05523 ], [ 78.5093, 27.05399 ], [ 78.50866, 27.05277 ], [ 78.51031, 27.05203 ], [ 78.50618, 27.04804 ], [ 78.5128, 27.04314 ], [ 78.51838, 27.04115 ], [ 78.51894, 27.04169 ], [ 78.5223, 27.03958 ], [ 78.5191, 27.03258 ], [ 78.52065, 27.03146 ], [ 78.52064, 27.02939 ], [ 78.52177, 27.02879 ], [ 78.52126, 27.02821 ], [ 78.52271, 27.02767 ], [ 78.52272, 27.02681 ], [ 78.52654, 27.02377 ], [ 78.52373, 27.01506 ], [ 78.51814, 27.01096 ], [ 78.5135, 27.00577 ], [ 78.50776, 27.00782 ], [ 78.50536, 27.01005 ], [ 78.49985, 27.00893 ], [ 78.49469, 27.00967 ], [ 78.4895, 27.00901 ], [ 78.48856, 27.00748 ], [ 78.48977, 27.00671 ], [ 78.48892, 27.005 ], [ 78.48497, 27.00191 ], [ 78.48286, 26.9982 ], [ 78.48377, 26.99745 ], [ 78.48341, 26.99656 ], [ 78.48031, 26.99173 ], [ 78.47644, 26.99174 ], [ 78.46379, 26.98408 ], [ 78.45686, 26.98469 ], [ 78.45184, 26.98351 ], [ 78.45052, 26.98423 ], [ 78.44874, 26.98797 ], [ 78.4532, 27.00383 ], [ 78.45351, 27.00787 ], [ 78.45245, 27.0105 ], [ 78.45023, 27.01396 ], [ 78.44719, 27.01671 ], [ 78.44403, 27.01821 ], [ 78.44039, 27.02285 ], [ 78.43588, 27.02958 ], [ 78.43485, 27.0383 ], [ 78.43337, 27.04384 ], [ 78.42973, 27.04849 ], [ 78.42347, 27.05334 ], [ 78.41566, 27.05628 ], [ 78.40642, 27.0567 ], [ 78.39825, 27.05598 ], [ 78.39264, 27.05728 ], [ 78.38214, 27.06473 ], [ 78.36404, 27.08134 ], [ 78.36039, 27.08261 ], [ 78.35542, 27.07997 ], [ 78.35199, 27.0739 ], [ 78.34973, 27.07248 ], [ 78.34319, 27.07328 ], [ 78.3343, 27.07587 ], [ 78.32993, 27.07446 ], [ 78.32577, 27.07026 ], [ 78.32326, 27.06159 ], [ 78.31942, 27.05457 ], [ 78.31624, 27.05222 ], [ 78.31133, 27.05355 ], [ 78.31046, 27.0555 ], [ 78.31018, 27.06012 ], [ 78.3127, 27.07231 ], [ 78.30897, 27.08443 ], [ 78.31123, 27.09804 ], [ 78.31309, 27.09939 ], [ 78.31895, 27.10077 ], [ 78.33008, 27.09888 ], [ 78.33436, 27.09952 ], [ 78.33637, 27.10075 ], [ 78.33995, 27.10981 ], [ 78.34324, 27.11436 ], [ 78.34584, 27.11484 ], [ 78.35464, 27.11076 ], [ 78.36094, 27.11003 ], [ 78.36762, 27.11312 ], [ 78.37115, 27.11795 ], [ 78.37208, 27.12099 ], [ 78.37054, 27.12272 ], [ 78.36473, 27.1251 ], [ 78.35679, 27.12553 ], [ 78.34457, 27.12905 ], [ 78.34101, 27.12918 ], [ 78.33751, 27.12761 ], [ 78.33591, 27.12557 ], [ 78.33319, 27.12114 ], [ 78.33259, 27.1175 ], [ 78.32843, 27.11177 ], [ 78.32487, 27.1099 ], [ 78.32067, 27.11073 ], [ 78.31657, 27.11555 ], [ 78.31593, 27.11782 ], [ 78.31645, 27.11958 ], [ 78.31407, 27.12551 ], [ 78.3127, 27.12646 ], [ 78.30382, 27.12631 ], [ 78.30111, 27.13049 ], [ 78.30043, 27.13455 ], [ 78.29829, 27.13819 ], [ 78.29852, 27.13935 ], [ 78.29669, 27.14167 ], [ 78.29967, 27.14527 ], [ 78.30394, 27.14835 ], [ 78.30418, 27.14979 ], [ 78.30326, 27.15119 ], [ 78.30509, 27.15496 ], [ 78.30338, 27.15604 ], [ 78.30179, 27.15981 ], [ 78.2983, 27.16096 ], [ 78.29684, 27.1603 ], [ 78.29674, 27.16148 ], [ 78.29871, 27.16341 ], [ 78.30234, 27.16497 ], [ 78.30672, 27.16401 ], [ 78.31085, 27.16719 ], [ 78.31305, 27.16606 ], [ 78.31663, 27.16965 ], [ 78.31843, 27.17194 ], [ 78.31616, 27.17378 ], [ 78.31257, 27.17454 ], [ 78.31144, 27.17422 ], [ 78.30972, 27.17176 ], [ 78.30856, 27.17273 ], [ 78.30786, 27.17186 ], [ 78.30459, 27.17515 ], [ 78.31174, 27.17733 ], [ 78.31772, 27.18265 ], [ 78.32282, 27.18025 ], [ 78.32604, 27.18135 ], [ 78.32735, 27.17973 ], [ 78.32869, 27.18078 ], [ 78.32892, 27.1798 ], [ 78.33125, 27.17892 ], [ 78.33183, 27.17944 ], [ 78.33549, 27.17766 ], [ 78.33532, 27.17594 ], [ 78.33048, 27.17253 ], [ 78.32693, 27.17525 ], [ 78.32486, 27.17311 ], [ 78.32414, 27.17379 ], [ 78.32236, 27.17225 ], [ 78.32435, 27.16957 ], [ 78.32357, 27.16786 ], [ 78.32457, 27.16551 ], [ 78.31971, 27.16125 ], [ 78.32003, 27.16024 ], [ 78.32571, 27.16447 ], [ 78.32825, 27.16456 ], [ 78.33229, 27.16935 ], [ 78.33225, 27.17036 ], [ 78.33583, 27.17243 ], [ 78.33774, 27.17168 ], [ 78.34045, 27.17201 ], [ 78.34239, 27.17465 ], [ 78.34152, 27.17537 ], [ 78.34246, 27.17699 ], [ 78.3405, 27.17936 ], [ 78.34105, 27.18104 ], [ 78.33911, 27.18227 ], [ 78.3392, 27.18366 ], [ 78.33765, 27.18569 ], [ 78.33489, 27.18717 ], [ 78.33611, 27.18857 ], [ 78.33574, 27.18979 ], [ 78.33685, 27.18948 ], [ 78.34004, 27.19248 ], [ 78.3407, 27.19234 ], [ 78.33899, 27.19031 ], [ 78.34199, 27.18818 ], [ 78.34269, 27.18903 ], [ 78.34211, 27.18999 ], [ 78.34287, 27.18968 ], [ 78.34391, 27.19096 ], [ 78.34339, 27.19146 ], [ 78.34608, 27.19353 ], [ 78.34759, 27.19255 ], [ 78.34664, 27.1914 ], [ 78.34771, 27.19077 ], [ 78.3472, 27.18958 ], [ 78.3494, 27.18939 ], [ 78.3504, 27.19089 ], [ 78.35378, 27.18911 ], [ 78.35862, 27.18875 ], [ 78.35913, 27.18762 ], [ 78.36231, 27.18676 ], [ 78.36823, 27.19171 ], [ 78.36559, 27.19552 ], [ 78.36496, 27.19699 ], [ 78.36543, 27.19753 ], [ 78.36425, 27.19842 ], [ 78.36605, 27.20109 ], [ 78.36746, 27.2057 ], [ 78.36141, 27.21037 ], [ 78.36032, 27.21014 ], [ 78.35549, 27.21264 ], [ 78.35348, 27.20892 ], [ 78.35155, 27.21026 ], [ 78.35071, 27.20924 ], [ 78.3491, 27.20919 ], [ 78.34858, 27.20786 ], [ 78.3468, 27.20764 ], [ 78.34457, 27.20954 ], [ 78.34039, 27.21053 ], [ 78.33518, 27.20285 ], [ 78.33267, 27.20375 ], [ 78.33305, 27.20946 ], [ 78.33098, 27.21119 ], [ 78.3315, 27.21187 ], [ 78.32842, 27.21308 ], [ 78.32969, 27.21387 ], [ 78.32896, 27.21487 ], [ 78.32985, 27.21554 ], [ 78.33026, 27.21493 ], [ 78.33382, 27.21848 ], [ 78.33464, 27.2184 ], [ 78.33622, 27.22238 ], [ 78.33582, 27.2235 ], [ 78.33701, 27.22512 ], [ 78.33609, 27.22611 ], [ 78.33894, 27.23076 ], [ 78.34029, 27.22977 ], [ 78.34193, 27.23096 ], [ 78.34466, 27.23063 ], [ 78.34922, 27.233 ], [ 78.35157, 27.23063 ], [ 78.35664, 27.22788 ], [ 78.35885, 27.22825 ], [ 78.35923, 27.23138 ], [ 78.35678, 27.2324 ], [ 78.35169, 27.2328 ], [ 78.35523, 27.23659 ], [ 78.35885, 27.23723 ], [ 78.35976, 27.23808 ], [ 78.36179, 27.23661 ], [ 78.36506, 27.23687 ], [ 78.36593, 27.23775 ], [ 78.36436, 27.23938 ], [ 78.36569, 27.23958 ], [ 78.36657, 27.24071 ], [ 78.36478, 27.24223 ], [ 78.36675, 27.24458 ], [ 78.36404, 27.24612 ], [ 78.3653, 27.24777 ], [ 78.36187, 27.24954 ], [ 78.36167, 27.25018 ], [ 78.36341, 27.25135 ], [ 78.3621, 27.2521 ], [ 78.36244, 27.25317 ], [ 78.36066, 27.25301 ], [ 78.35706, 27.25468 ], [ 78.35649, 27.25356 ], [ 78.35415, 27.25665 ], [ 78.35671, 27.25965 ], [ 78.35939, 27.26093 ], [ 78.35868, 27.26194 ], [ 78.35988, 27.26265 ], [ 78.35838, 27.26507 ], [ 78.35918, 27.26533 ], [ 78.35978, 27.26447 ], [ 78.36175, 27.26546 ], [ 78.35925, 27.26848 ], [ 78.35671, 27.26753 ], [ 78.35275, 27.27168 ], [ 78.35046, 27.27298 ], [ 78.35248, 27.2755 ], [ 78.35591, 27.27771 ], [ 78.36027, 27.27779 ], [ 78.36091, 27.27997 ], [ 78.355, 27.28351 ], [ 78.35446, 27.28474 ], [ 78.35539, 27.28618 ], [ 78.35475, 27.28661 ], [ 78.35058, 27.28495 ], [ 78.34642, 27.27924 ], [ 78.34483, 27.28079 ], [ 78.34512, 27.28161 ], [ 78.34381, 27.28349 ], [ 78.34422, 27.28419 ], [ 78.34319, 27.28458 ], [ 78.3437, 27.28586 ], [ 78.34085, 27.28874 ], [ 78.34264, 27.28965 ], [ 78.34189, 27.29172 ], [ 78.34443, 27.29315 ], [ 78.34321, 27.297 ], [ 78.34484, 27.29811 ], [ 78.34552, 27.2972 ], [ 78.34791, 27.29849 ], [ 78.34901, 27.30017 ], [ 78.35183, 27.30099 ], [ 78.35276, 27.30222 ], [ 78.35164, 27.30695 ], [ 78.3534, 27.30766 ], [ 78.35656, 27.30153 ], [ 78.35613, 27.29628 ], [ 78.35713, 27.29543 ], [ 78.35766, 27.29631 ], [ 78.35892, 27.29539 ], [ 78.35834, 27.2948 ], [ 78.35988, 27.29432 ], [ 78.35831, 27.29399 ], [ 78.35855, 27.29283 ], [ 78.35748, 27.29139 ], [ 78.35917, 27.29039 ], [ 78.36236, 27.29018 ], [ 78.36667, 27.28563 ], [ 78.3735, 27.28965 ], [ 78.37401, 27.29101 ], [ 78.3762, 27.29106 ], [ 78.37399, 27.29382 ], [ 78.3736, 27.29745 ], [ 78.37574, 27.29909 ], [ 78.37345, 27.30481 ], [ 78.37358, 27.30619 ], [ 78.37699, 27.30861 ], [ 78.38324, 27.31568 ], [ 78.38352, 27.3224 ], [ 78.38571, 27.32467 ], [ 78.38614, 27.33163 ], [ 78.38788, 27.33525 ], [ 78.38549, 27.33799 ], [ 78.38173, 27.34032 ], [ 78.38176, 27.34353 ], [ 78.38572, 27.34774 ], [ 78.38531, 27.34873 ], [ 78.38634, 27.35206 ], [ 78.38524, 27.35379 ], [ 78.386, 27.35562 ], [ 78.38524, 27.35713 ], [ 78.38735, 27.36079 ], [ 78.38769, 27.36421 ], [ 78.39, 27.3656 ], [ 78.39148, 27.36844 ], [ 78.39529, 27.36819 ], [ 78.3994, 27.37208 ], [ 78.4056, 27.3693 ], [ 78.41103, 27.37014 ], [ 78.41425, 27.36869 ], [ 78.41694, 27.3692 ], [ 78.42751, 27.36309 ], [ 78.43405, 27.3609 ], [ 78.437, 27.36241 ], [ 78.43971, 27.36526 ], [ 78.44104, 27.36546 ], [ 78.44346, 27.37086 ], [ 78.44522, 27.37238 ], [ 78.44761, 27.37199 ], [ 78.44958, 27.37317 ], [ 78.45607, 27.3746 ] ] ] } },
{ "type": "Feature", "properties": { "OBJECTID": 2545, "state_lgd": "09", "state_name": "UTTAR PRADESH", "district_lgd": "147", "district_name": "FIROZABAD", "district_name_source": "district_table", "subdistrict_lgd": "773", "subdistrict_name": "JASRANA", "subdistrict_type": "Tehsil", "name_corrupted": false, "remarks": "", "label_lon": 78.605770083601186, "label_lat": 27.321027995243259 }, "geometry": { "type": "Polygon", "coordinates": [ [ [ 78.6064, 27.51072 ], [ 78.61247, 27.50904 ], [ 78.61729, 27.50561 ], [ 78.61934, 27.50316 ], [ 78.62333, 27.50311 ], [ 78.62337, 27.50085 ], [ 78.62793, 27.4901 ], [ 78.63003, 27.48827 ], [ 78.63126, 27.48947 ], [ 78.63269, 27.48954 ], [ 78.6328, 27.49125 ], [ 78.63851, 27.49073 ], [ 78.63961, 27.48924 ], [ 78.641, 27.49005 ], [ 78.64394, 27.48919 ], [ 78.64854, 27.49094 ], [ 78.64878, 27.49182 ], [ 78.65135, 27.49318 ], [ 78.65303, 27.49075 ], [ 78.65891, 27.4914 ], [ 78.66183, 27.48986 ], [ 78.66472, 27.47874 ], [ 78.66407, 27.47303 ], [ 78.66306, 27.47208 ], [ 78.65976, 27.4739 ], [ 78.6493, 27.46064 ], [ 78.64921, 27.45677 ], [ 78.64606, 27.44479 ], [ 78.64399, 27.44185 ], [ 78.64377, 27.43841 ], [ 78.64096, 27.43637 ], [ 78.64155, 27.43487 ], [ 78.64092, 27.43449 ], [ 78.64082, 27.43182 ], [ 78.63941, 27.43215 ], [ 78.64084, 27.42941 ], [ 78.64306, 27.42801 ], [ 78.64101, 27.42623 ], [ 78.64285, 27.42293 ], [ 78.64326, 27.42054 ], [ 78.65038, 27.41922 ], [ 78.65955, 27.41946 ], [ 78.66399, 27.41482 ], [ 78.66854, 27.41776 ], [ 78.67299, 27.41291 ], [ 78.67069, 27.41101 ], [ 78.67257, 27.40744 ], [ 78.67302, 27.40317 ], [ 78.67503, 27.40017 ], [ 78.67449, 27.39931 ], [ 78.67521, 27.39835 ], [ 78.67346, 27.39526 ], [ 78.67504, 27.39318 ], [ 78.68251, 27.38787 ], [ 78.68243, 27.38639 ], [ 78.68415, 27.38562 ], [ 78.68529, 27.38346 ], [ 78.68822, 27.38326 ], [ 78.6904, 27.38144 ], [ 78.70671, 27.37689 ], [ 78.71213, 27.37985 ], [ 78.71369, 27.37709 ], [ 78.71333, 27.37271 ], [ 78.71655, 27.37078 ], [ 78.71813, 27.36875 ], [ 78.71917, 27.36336 ], [ 78.71584, 27.35416 ], [ 78.71806, 27.34433 ], [ 78.71501, 27.34209 ], [ 78.71186, 27.34274 ], [ 78.70954, 27.34014 ], [ 78.7138, 27.33672 ], [ 78.7141, 27.33572 ], [ 78.71538, 27.32026 ], [ 78.71246, 27.31736 ], [ 78.71478, 27.31623 ], [ 78.71166, 27.3115 ], [ 78.71175, 27.30752 ], [ 78.713, 27.30317 ], [ 78.71261, 27.29937 ], [ 78.71559, 27.29923 ], [ 78.71912, 27.29733 ], [ 78.71868, 27.29556 ], [ 78.72042, 27.294 ], [ 78.71861, 27.29192 ], [ 78.71699, 27.28648 ], [ 78.7184, 27.28395 ], [ 78.71546, 27.28035 ], [ 78.70873, 27.28115 ], [ 78.70249, 27.28288 ], [ 78.70017, 27.28029 ], [ 78.69616, 27.27811 ], [ 78.68838, 27.2697 ], [ 78.68889, 27.26874 ], [ 78.68984, 27.26782 ], [ 78.69577, 27.26898 ], [ 78.69785, 27.26764 ], [ 78.69835, 27.26847 ], [ 78.70336, 27.26549 ], [ 78.70906, 27.26457 ], [ 78.71641, 27.26465 ], [ 78.71948, 27.26366 ], [ 78.7262, 27.25713 ], [ 78.72785, 27.25458 ], [ 78.72772, 27.24837 ], [ 78.737, 27.24551 ], [ 78.74023, 27.24211 ], [ 78.74324, 27.24127 ], [ 78.75319, 27.23232 ], [ 78.75905, 27.22958 ], [ 78.76083, 27.22566 ], [ 78.75853, 27.21796 ], [ 78.75115, 27.20752 ], [ 78.74584, 27.20924 ], [ 78.73689, 27.20977 ], [ 78.73232, 27.20643 ], [ 78.72663, 27.2048 ], [ 78.72667, 27.20215 ], [ 78.72453, 27.19663 ], [ 78.72546, 27.19448 ], [ 78.72214, 27.19516 ], [ 78.7188, 27.19159 ], [ 78.71975, 27.19062 ], [ 78.71974, 27.1869 ], [ 78.71645, 27.18148 ], [ 78.71753, 27.18015 ], [ 78.71431, 27.17843 ], [ 78.71179, 27.17496 ], [ 78.70842, 27.17234 ], [ 78.70722, 27.17259 ], [ 78.70344, 27.16534 ], [ 78.69942, 27.16118 ], [ 78.69732, 27.16079 ], [ 78.69606, 27.16171 ], [ 78.69585, 27.16356 ], [ 78.69385, 27.16262 ], [ 78.69217, 27.16382 ], [ 78.68823, 27.15807 ], [ 78.69176, 27.15443 ], [ 78.69073, 27.15305 ], [ 78.69365, 27.14992 ], [ 78.6924, 27.14706 ], [ 78.6909, 27.14841 ], [ 78.68809, 27.1456 ], [ 78.69039, 27.1432 ], [ 78.68979, 27.14165 ], [ 78.6833, 27.1438 ], [ 78.67843, 27.14051 ], [ 78.67192, 27.14375 ], [ 78.6726, 27.14485 ], [ 78.66669, 27.14578 ], [ 78.66074, 27.14829 ], [ 78.65935, 27.15004 ], [ 78.65818, 27.15478 ], [ 78.6592, 27.15612 ], [ 78.65735, 27.15784 ], [ 78.6589, 27.16117 ], [ 78.65838, 27.16202 ], [ 78.65887, 27.1628 ], [ 78.6488, 27.16628 ], [ 78.64558, 27.1628 ], [ 78.63401, 27.16826 ], [ 78.63184, 27.16528 ], [ 78.63031, 27.16622 ], [ 78.62857, 27.16454 ], [ 78.62483, 27.15433 ], [ 78.62224, 27.15416 ], [ 78.61876, 27.15569 ], [ 78.61872, 27.15761 ], [ 78.61703, 27.15783 ], [ 78.61366, 27.16038 ], [ 78.61559, 27.16309 ], [ 78.6162, 27.16571 ], [ 78.61298, 27.16863 ], [ 78.60711, 27.17026 ], [ 78.61263, 27.18159 ], [ 78.61287, 27.18427 ], [ 78.61167, 27.18514 ], [ 78.61165, 27.18666 ], [ 78.60998, 27.18764 ], [ 78.61041, 27.18845 ], [ 78.60889, 27.19451 ], [ 78.61056, 27.19721 ], [ 78.60508, 27.20115 ], [ 78.60291, 27.20562 ], [ 78.60685, 27.20959 ], [ 78.60359, 27.21009 ], [ 78.60019, 27.21233 ], [ 78.5976, 27.21257 ], [ 78.59358, 27.21445 ], [ 78.58475, 27.22058 ], [ 78.57847, 27.21495 ], [ 78.57947, 27.21268 ], [ 78.57744, 27.21101 ], [ 78.57762, 27.21028 ], [ 78.57592, 27.20828 ], [ 78.57519, 27.20281 ], [ 78.57119, 27.20007 ], [ 78.57098, 27.19703 ], [ 78.56111, 27.19902 ], [ 78.55602, 27.20139 ], [ 78.55539, 27.20022 ], [ 78.55361, 27.20162 ], [ 78.55147, 27.20043 ], [ 78.55174, 27.19947 ], [ 78.55018, 27.19789 ], [ 78.54344, 27.20273 ], [ 78.52223, 27.21417 ], [ 78.52036, 27.21639 ], [ 78.52217, 27.21804 ], [ 78.5207, 27.21926 ], [ 78.52159, 27.22053 ], [ 78.51979, 27.22314 ], [ 78.52189, 27.22956 ], [ 78.52038, 27.23065 ], [ 78.52264, 27.23406 ], [ 78.52204, 27.23479 ], [ 78.52557, 27.23689 ], [ 78.52773, 27.23599 ], [ 78.53227, 27.23666 ], [ 78.53539, 27.23798 ], [ 78.53692, 27.24037 ], [ 78.53876, 27.23781 ], [ 78.54386, 27.24538 ], [ 78.54394, 27.24901 ], [ 78.5427, 27.25161 ], [ 78.54021, 27.25366 ], [ 78.5402, 27.25618 ], [ 78.53896, 27.25629 ], [ 78.53497, 27.25931 ], [ 78.53118, 27.25896 ], [ 78.52702, 27.26055 ], [ 78.52206, 27.25549 ], [ 78.52117, 27.25298 ], [ 78.51769, 27.25525 ], [ 78.51146, 27.26306 ], [ 78.50948, 27.26191 ], [ 78.50412, 27.26397 ], [ 78.50331, 27.26305 ], [ 78.49984, 27.26647 ], [ 78.49854, 27.26981 ], [ 78.49636, 27.2676 ], [ 78.49739, 27.26612 ], [ 78.49657, 27.26306 ], [ 78.49251, 27.26514 ], [ 78.49104, 27.26436 ], [ 78.49005, 27.26748 ], [ 78.48925, 27.26771 ], [ 78.48815, 27.26621 ], [ 78.48938, 27.26945 ], [ 78.48864, 27.26973 ], [ 78.48747, 27.26774 ], [ 78.48696, 27.26819 ], [ 78.48923, 27.27481 ], [ 78.49057, 27.27607 ], [ 78.48404, 27.27834 ], [ 78.48427, 27.28204 ], [ 78.48612, 27.2855 ], [ 78.47915, 27.28445 ], [ 78.47292, 27.29036 ], [ 78.47404, 27.29395 ], [ 78.47145, 27.2937 ], [ 78.47739, 27.30419 ], [ 78.46209, 27.31599 ], [ 78.45998, 27.31885 ], [ 78.46327, 27.32397 ], [ 78.46115, 27.33065 ], [ 78.46759, 27.33594 ], [ 78.47381, 27.33749 ], [ 78.47581, 27.33869 ], [ 78.47768, 27.34294 ], [ 78.48541, 27.34869 ], [ 78.49005, 27.35351 ], [ 78.48332, 27.35779 ], [ 78.48473, 27.36049 ], [ 78.4876, 27.36211 ], [ 78.48871, 27.36398 ], [ 78.48817, 27.36678 ], [ 78.4844, 27.37481 ], [ 78.48431, 27.38018 ], [ 78.48607, 27.38283 ], [ 78.48458, 27.38376 ], [ 78.48603, 27.3836 ], [ 78.4883, 27.38599 ], [ 78.48914, 27.38537 ], [ 78.49145, 27.38754 ], [ 78.4903, 27.39315 ], [ 78.48894, 27.39428 ], [ 78.48688, 27.39258 ], [ 78.48575, 27.39323 ], [ 78.48467, 27.39276 ], [ 78.47505, 27.40201 ], [ 78.47119, 27.41002 ], [ 78.46421, 27.41772 ], [ 78.46367, 27.42486 ], [ 78.4677, 27.42815 ], [ 78.47171, 27.42912 ], [ 78.47559, 27.42874 ], [ 78.47966, 27.42524 ], [ 78.48928, 27.42445 ], [ 78.49123, 27.42327 ], [ 78.49453, 27.42855 ], [ 78.49411, 27.42904 ], [ 78.50428, 27.43659 ], [ 78.50292, 27.43856 ], [ 78.5032, 27.43958 ], [ 78.50663, 27.43995 ], [ 78.50487, 27.45633 ], [ 78.51093, 27.46408 ], [ 78.51626, 27.46365 ], [ 78.5177, 27.46264 ], [ 78.52184, 27.45666 ], [ 78.52175, 27.4518 ], [ 78.52282, 27.44971 ], [ 78.52879, 27.44985 ], [ 78.53063, 27.45177 ], [ 78.53459, 27.4494 ], [ 78.53617, 27.4458 ], [ 78.53948, 27.44433 ], [ 78.54039, 27.44188 ], [ 78.54376, 27.44213 ], [ 78.54866, 27.45159 ], [ 78.55348, 27.45661 ], [ 78.55214, 27.4607 ], [ 78.56395, 27.47243 ], [ 78.56977, 27.47483 ], [ 78.57819, 27.47403 ], [ 78.57864, 27.47324 ], [ 78.58271, 27.4738 ], [ 78.58669, 27.4765 ], [ 78.58656, 27.48145 ], [ 78.58797, 27.48692 ], [ 78.58726, 27.49087 ], [ 78.59011, 27.49409 ], [ 78.59404, 27.49198 ], [ 78.59872, 27.49832 ], [ 78.59837, 27.50229 ], [ 78.59629, 27.50681 ], [ 78.59746, 27.50937 ], [ 78.6064, 27.51072 ] ] ] } },
{ "type": "Feature", "properties": { "OBJECTID": 2717, "state_lgd": "09", "state_name": "UTTAR PRADESH", "district_lgd": "147", "district_name": "FIROZABAD", "district_name_source": "district_table", "subdistrict_lgd": "774", "subdistrict_name": "SHIKOHABAD", "subdistrict_type": "Tehsil", "name_corrupted": false, "remarks": "", "label_lon": 78.545742357568443, "label_lat": 27.114802660740171 }, "geometry": { "type": "Polygon", "coordinates": [ [ [ 78.48404, 27.27834 ], [ 78.49057, 27.27607 ], [ 78.48923, 27.27481 ], [ 78.48696, 27.26819 ], [ 78.48747, 27.26774 ], [ 78.48864, 27.26973 ], [ 78.48938, 27.26945 ], [ 78.48781, 27.26654 ], [ 78.48839, 27.26634 ], [ 78.48925, 27.26771 ], [ 78.49005, 27.26748 ], [ 78.49121, 27.26426 ], [ 78.49251, 27.26514 ], [ 78.49657, 27.26306 ], [ 78.49739, 27.26612 ], [ 78.49636, 27.2676 ], [ 78.49854, 27.26981 ], [ 78.49984, 27.26647 ], [ 78.50331, 27.26305 ], [ 78.50412, 27.26397 ], [ 78.50948, 27.26191 ], [ 78.51146, 27.26306 ], [ 78.51769, 27.25525 ], [ 78.52117, 27.25298 ], [ 78.52206, 27.25549 ], [ 78.52702, 27.26055 ], [ 78.53118, 27.25896 ], [ 78.53497, 27.25931 ], [ 78.53896, 27.25629 ], [ 78.5402, 27.25618 ], [ 78.54021, 27.25366 ], [ 78.5427, 27.25161 ], [ 78.54394, 27.24901 ], [ 78.54386, 27.24538 ], [ 78.53876, 27.23781 ], [ 78.53692, 27.24037 ], [ 78.53539, 27.23798 ], [ 78.53227, 27.23666 ], [ 78.52773, 27.23599 ], [ 78.52471, 27.23658 ], [ 78.52218, 27.23507 ], [ 78.52264, 27.23406 ], [ 78.52038, 27.23065 ], [ 78.52189, 27.22956 ], [ 78.51979, 27.22314 ], [ 78.52159, 27.22053 ], [ 78.5207, 27.21926 ], [ 78.52217, 27.21804 ], [ 78.52036, 27.21639 ], [ 78.52471, 27.21249 ], [ 78.54344, 27.20273 ], [ 78.55018, 27.19789 ], [ 78.55174, 27.19947 ], [ 78.55147, 27.20043 ], [ 78.55361, 27.20162 ], [ 78.55539, 27.20022 ], [ 78.55602, 27.20139 ], [ 78.56111, 27.19902 ], [ 78.57098, 27.19703 ], [ 78.57119, 27.20007 ], [ 78.57519, 27.20281 ], [ 78.57592, 27.20828 ], [ 78.57762, 27.21028 ], [ 78.57744, 27.21101 ], [ 78.57947, 27.21268 ], [ 78.57847, 27.21495 ], [ 78.58475, 27.22058 ], [ 78.59358, 27.21445 ], [ 78.5976, 27.21257 ], [ 78.60019, 27.21233 ], [ 78.60359, 27.21009 ], [ 78.60685, 27.20959 ], [ 78.60291, 27.20562 ], [ 78.60508, 27.20115 ], [ 78.61056, 27.19721 ], [ 78.60889, 27.19451 ], [ 78.61041, 27.18845 ], [ 78.60998, 27.18764 ], [ 78.61165, 27.18666 ], [ 78.61167, 27.18514 ], [ 78.61287, 27.18427 ], [ 78.61263, 27.18159 ], [ 78.60711, 27.17026 ], [ 78.61298, 27.16863 ], [ 78.6162, 27.16571 ], [ 78.61559, 27.16309 ], [ 78.61366, 27.16038 ], [ 78.61703, 27.15783 ], [ 78.61872, 27.15761 ], [ 78.61876, 27.15569 ], [ 78.62224, 27.15416 ], [ 78.62483, 27.15433 ], [ 78.62857, 27.16454 ], [ 78.63031, 27.16622 ], [ 78.63184, 27.16528 ], [ 78.63401, 27.16826 ], [ 78.64558, 27.1628 ], [ 78.6488, 27.16628 ], [ 78.65887, 27.1628 ], [ 78.65838, 27.16202 ], [ 78.6589, 27.16117 ], [ 78.65735, 27.15784 ], [ 78.6592, 27.15612 ], [ 78.65818, 27.15478 ], [ 78.65935, 27.15004 ], [ 78.66074, 27.14829 ], [ 78.66669, 27.14578 ], [ 78.6726, 27.14485 ], [ 78.67192, 27.14375 ], [ 78.67843, 27.14051 ], [ 78.6833, 27.1438 ], [ 78.69298, 27.14049 ], [ 78.69426, 27.14105 ], [ 78.68876, 27.13349 ], [ 78.68203, 27.12779 ], [ 78.67882, 27.12724 ], [ 78.67444, 27.128 ], [ 78.67238, 27.12516 ], [ 78.6788, 27.11954 ], [ 78.67778, 27.11793 ], [ 78.67317, 27.11445 ], [ 78.66789, 27.11465 ], [ 78.66613, 27.11574 ], [ 78.66497, 27.11511 ], [ 78.66272, 27.11675 ], [ 78.66314, 27.11867 ], [ 78.66145, 27.12045 ], [ 78.65968, 27.11922 ], [ 78.65839, 27.12061 ], [ 78.65594, 27.11916 ], [ 78.65312, 27.11479 ], [ 78.65096, 27.11452 ], [ 78.65022, 27.10752 ], [ 78.65122, 27.10584 ], [ 78.64999, 27.1026 ], [ 78.65366, 27.09744 ], [ 78.65831, 27.09598 ], [ 78.65669, 27.09461 ], [ 78.65513, 27.09519 ], [ 78.6548, 27.09437 ], [ 78.65203, 27.09346 ], [ 78.6504, 27.09464 ], [ 78.64667, 27.08935 ], [ 78.6412, 27.09233 ], [ 78.63932, 27.09448 ], [ 78.63513, 27.09222 ], [ 78.6363, 27.09158 ], [ 78.63233, 27.09033 ], [ 78.62453, 27.08282 ], [ 78.6269, 27.08089 ], [ 78.62313, 27.07922 ], [ 78.62219, 27.07795 ], [ 78.6239, 27.07695 ], [ 78.62063, 27.07393 ], [ 78.62236, 27.07265 ], [ 78.62041, 27.07134 ], [ 78.61451, 27.07084 ], [ 78.612, 27.06737 ], [ 78.60966, 27.06792 ], [ 78.60706, 27.06616 ], [ 78.60411, 27.06593 ], [ 78.60354, 27.06521 ], [ 78.60253, 27.06565 ], [ 78.60051, 27.06334 ], [ 78.59243, 27.06802 ], [ 78.59284, 27.06925 ], [ 78.59154, 27.07067 ], [ 78.59168, 27.07166 ], [ 78.58937, 27.07339 ], [ 78.58808, 27.07199 ], [ 78.58102, 27.0689 ], [ 78.57983, 27.0667 ], [ 78.58222, 27.06567 ], [ 78.58179, 27.06453 ], [ 78.58293, 27.06312 ], [ 78.5788, 27.05133 ], [ 78.58021, 27.05054 ], [ 78.58001, 27.04721 ], [ 78.57689, 27.04275 ], [ 78.57317, 27.04345 ], [ 78.57128, 27.04219 ], [ 78.57291, 27.03813 ], [ 78.57587, 27.03659 ], [ 78.57585, 27.03167 ], [ 78.57277, 27.0292 ], [ 78.5677, 27.02723 ], [ 78.56602, 27.02453 ], [ 78.56849, 27.02221 ], [ 78.56998, 27.02286 ], [ 78.5772, 27.02087 ], [ 78.58014, 27.02293 ], [ 78.5842, 27.02229 ], [ 78.5888, 27.02868 ], [ 78.59159, 27.02351 ], [ 78.59537, 27.02043 ], [ 78.59801, 27.01998 ], [ 78.60267, 27.02249 ], [ 78.60522, 27.02028 ], [ 78.6049, 27.01957 ], [ 78.60645, 27.01793 ], [ 78.60521, 27.01565 ], [ 78.6061, 27.01459 ], [ 78.60632, 27.01187 ], [ 78.60765, 27.01132 ], [ 78.60774, 27.0099 ], [ 78.60551, 27.00633 ], [ 78.60017, 27.00457 ], [ 78.59945, 27.00364 ], [ 78.59888, 27.00023 ], [ 78.6017, 26.99831 ], [ 78.59637, 26.99092 ], [ 78.59681, 26.98972 ], [ 78.59929, 26.98857 ], [ 78.5984, 26.98715 ], [ 78.60027, 26.98613 ], [ 78.60614, 26.9883 ], [ 78.60707, 26.98578 ], [ 78.60313, 26.97781 ], [ 78.60432, 26.97026 ], [ 78.60268, 26.96813 ], [ 78.6035, 26.95882 ], [ 78.60302, 26.95102 ], [ 78.59757, 26.95069 ], [ 78.59546, 26.94791 ], [ 78.59739, 26.94205 ], [ 78.60227, 26.93946 ], [ 78.60526, 26.93681 ], [ 78.60837, 26.93152 ], [ 78.60911, 26.92378 ], [ 78.60605, 26.92012 ], [ 78.6034, 26.91857 ], [ 78.59806, 26.91877 ], [ 78.59582, 26.91991 ], [ 78.59277, 26.92363 ], [ 78.58573, 26.93532 ], [ 78.57127, 26.94439 ], [ 78.57131, 26.94858 ], [ 78.57284, 26.95192 ], [ 78.57731, 26.95784 ], [ 78.57726, 26.96013 ], [ 78.57445, 26.96278 ], [ 78.57063, 26.96341 ], [ 78.55956, 26.96321 ], [ 78.55084, 26.96019 ], [ 78.54473, 26.96068 ], [ 78.53744, 26.96444 ], [ 78.53132, 26.96957 ], [ 78.52896, 26.97305 ], [ 78.52535, 26.97546 ], [ 78.52112, 26.9762 ], [ 78.51868, 26.97572 ], [ 78.51358, 26.97216 ], [ 78.51212, 26.96985 ], [ 78.51201, 26.96766 ], [ 78.51459, 26.9646 ], [ 78.52308, 26.96173 ], [ 78.5262, 26.95817 ], [ 78.52461, 26.94245 ], [ 78.52493, 26.93996 ], [ 78.52623, 26.93858 ], [ 78.52364, 26.93802 ], [ 78.5199, 26.93971 ], [ 78.51443, 26.94002 ], [ 78.51578, 26.95101 ], [ 78.51541, 26.95608 ], [ 78.51414, 26.95884 ], [ 78.51157, 26.96162 ], [ 78.50583, 26.96281 ], [ 78.4955, 26.96065 ], [ 78.49057, 26.96128 ], [ 78.48331, 26.96496 ], [ 78.48212, 26.96769 ], [ 78.48231, 26.97176 ], [ 78.48524, 26.97998 ], [ 78.48523, 26.98269 ], [ 78.48442, 26.98704 ], [ 78.48246, 26.99014 ], [ 78.48031, 26.99173 ], [ 78.48341, 26.99656 ], [ 78.48377, 26.99745 ], [ 78.48286, 26.9982 ], [ 78.48497, 27.00191 ], [ 78.48892, 27.005 ], [ 78.48977, 27.00671 ], [ 78.48856, 27.00748 ], [ 78.4895, 27.00901 ], [ 78.49469, 27.00967 ], [ 78.49985, 27.00893 ], [ 78.50536, 27.01005 ], [ 78.50776, 27.00782 ], [ 78.5135, 27.00577 ], [ 78.51814, 27.01096 ], [ 78.52373, 27.01506 ], [ 78.52654, 27.02377 ], [ 78.52272, 27.02681 ], [ 78.52271, 27.02767 ], [ 78.52126, 27.02821 ], [ 78.52177, 27.02879 ], [ 78.52064, 27.02939 ], [ 78.52065, 27.03146 ], [ 78.5191, 27.03258 ], [ 78.5223, 27.03958 ], [ 78.51894, 27.04169 ], [ 78.51838, 27.04115 ], [ 78.5128, 27.04314 ], [ 78.50618, 27.04804 ], [ 78.51031, 27.05203 ], [ 78.50866, 27.05277 ], [ 78.5093, 27.05399 ], [ 78.50831, 27.05523 ], [ 78.50922, 27.05661 ], [ 78.50814, 27.05762 ], [ 78.50865, 27.05954 ], [ 78.50773, 27.06051 ], [ 78.50871, 27.06167 ], [ 78.50719, 27.06263 ], [ 78.50805, 27.06376 ], [ 78.50387, 27.06585 ], [ 78.5035, 27.06718 ], [ 78.49571, 27.07249 ], [ 78.48947, 27.07473 ], [ 78.48765, 27.07373 ], [ 78.48627, 27.07533 ], [ 78.48615, 27.07873 ], [ 78.48816, 27.07947 ], [ 78.4923, 27.08342 ], [ 78.49201, 27.08441 ], [ 78.49329, 27.087 ], [ 78.49234, 27.08819 ], [ 78.49632, 27.09314 ], [ 78.49699, 27.09569 ], [ 78.49612, 27.09724 ], [ 78.48712, 27.10098 ], [ 78.48295, 27.10385 ], [ 78.48132, 27.10606 ], [ 78.48161, 27.11023 ], [ 78.47373, 27.11537 ], [ 78.47251, 27.11723 ], [ 78.47317, 27.11908 ], [ 78.47226, 27.11952 ], [ 78.47233, 27.12058 ], [ 78.47452, 27.12615 ], [ 78.47564, 27.12706 ], [ 78.4654, 27.13262 ], [ 78.46441, 27.13174 ], [ 78.45842, 27.13547 ], [ 78.45466, 27.13586 ], [ 78.45395, 27.13905 ], [ 78.45971, 27.14365 ], [ 78.45858, 27.14456 ], [ 78.4593, 27.14624 ], [ 78.45849, 27.14811 ], [ 78.45939, 27.14978 ], [ 78.45312, 27.15275 ], [ 78.45033, 27.15561 ], [ 78.45089, 27.15954 ], [ 78.44843, 27.16234 ], [ 78.4513, 27.16722 ], [ 78.44603, 27.17173 ], [ 78.44362, 27.17643 ], [ 78.4422, 27.17716 ], [ 78.44055, 27.1765 ], [ 78.43816, 27.17912 ], [ 78.43589, 27.19158 ], [ 78.44154, 27.19639 ], [ 78.4439, 27.19464 ], [ 78.44624, 27.1942 ], [ 78.44658, 27.19538 ], [ 78.44948, 27.19673 ], [ 78.45119, 27.19925 ], [ 78.45324, 27.19984 ], [ 78.45402, 27.20126 ], [ 78.454, 27.20669 ], [ 78.45086, 27.20722 ], [ 78.45018, 27.20931 ], [ 78.44668, 27.20977 ], [ 78.4452, 27.21253 ], [ 78.44534, 27.21438 ], [ 78.44051, 27.21669 ], [ 78.43484, 27.22181 ], [ 78.43564, 27.22687 ], [ 78.43283, 27.23291 ], [ 78.43426, 27.23841 ], [ 78.44089, 27.24029 ], [ 78.44644, 27.23649 ], [ 78.44876, 27.23276 ], [ 78.44985, 27.23392 ], [ 78.45152, 27.23195 ], [ 78.45351, 27.23193 ], [ 78.45462, 27.23355 ], [ 78.45602, 27.23975 ], [ 78.45482, 27.24201 ], [ 78.45558, 27.24462 ], [ 78.45669, 27.24539 ], [ 78.45782, 27.24443 ], [ 78.4591, 27.24522 ], [ 78.46095, 27.24424 ], [ 78.46227, 27.24585 ], [ 78.46381, 27.24622 ], [ 78.46676, 27.25074 ], [ 78.46894, 27.25254 ], [ 78.47206, 27.25329 ], [ 78.47524, 27.25208 ], [ 78.48067, 27.25792 ], [ 78.47439, 27.26492 ], [ 78.47341, 27.26718 ], [ 78.47565, 27.27264 ], [ 78.48218, 27.27318 ], [ 78.48357, 27.27533 ], [ 78.48404, 27.27834 ] ], [ [ 78.58124, 26.98833 ], [ 78.57996, 26.98811 ], [ 78.57773, 26.985 ], [ 78.57191, 26.98911 ], [ 78.56908, 26.98705 ], [ 78.57428, 26.98277 ], [ 78.57984, 26.9765 ], [ 78.57663, 26.97201 ], [ 78.57829, 26.97162 ], [ 78.58401, 26.97236 ], [ 78.58705, 26.97551 ], [ 78.58719, 26.97697 ], [ 78.58524, 26.98201 ], [ 78.5858, 26.98366 ], [ 78.58124, 26.98833 ] ], [ [ 78.58684, 27.009 ], [ 78.57813, 27.00793 ], [ 78.57714, 27.00861 ], [ 78.57594, 27.00784 ], [ 78.57404, 27.00566 ], [ 78.57516, 27.00442 ], [ 78.5737, 27.00308 ], [ 78.57374, 27.00206 ], [ 78.56951, 26.99886 ], [ 78.56958, 26.99798 ], [ 78.57047, 26.99658 ], [ 78.57967, 27.00023 ], [ 78.58084, 26.99869 ], [ 78.58044, 26.998 ], [ 78.58136, 26.99606 ], [ 78.58547, 26.994 ], [ 78.58495, 26.99141 ], [ 78.58748, 26.98971 ], [ 78.5871, 26.985 ], [ 78.58863, 26.98303 ], [ 78.59051, 26.98585 ], [ 78.59077, 26.99366 ], [ 78.59163, 26.99542 ], [ 78.58819, 26.99976 ], [ 78.58564, 27.0002 ], [ 78.5902, 27.00469 ], [ 78.58922, 27.00626 ], [ 78.58727, 27.0072 ], [ 78.58684, 27.009 ] ] ] } },
{ "type": "Feature", "properties": { "OBJECTID": 2727, "state_lgd": "09", "state_name": "UTTAR PRADESH", "district_lgd": "147", "district_name": "FIROZABAD", "district_name_source": "district_table", "subdistrict_lgd": "6374", "subdistrict_name": "SIRSAGANJ", "subdistrict_type": "Tehsil", "name_corrupted": false, "remarks": "", "label_lon": 78.700827097398758, "label_lat": 27.030217270578792 }, "geometry": { "type": "MultiPolygon", "coordinates": [ [ [ [ 78.57773, 26.985 ], [ 78.5808, 26.98859 ], [ 78.58416, 26.98603 ], [ 78.5858, 26.98366 ], [ 78.58524, 26.98201 ], [ 78.58719, 26.97697 ], [ 78.58705, 26.97551 ], [ 78.58401, 26.97236 ], [ 78.58004, 26.97148 ], [ 78.57663, 26.97201 ], [ 78.57984, 26.9765 ], [ 78.57428, 26.98277 ], [ 78.56908, 26.98705 ], [ 78.57191, 26.98911 ], [ 78.57773, 26.985 ] ] ], [ [ [ 78.58651, 27.00895 ], [ 78.58727, 27.0072 ], [ 78.58922, 27.00626 ], [ 78.5902, 27.00469 ], [ 78.58564, 27.0002 ], [ 78.58819, 26.99976 ], [ 78.59163, 26.99542 ], [ 78.59077, 26.99366 ], [ 78.59051, 26.98585 ], [ 78.58824, 26.98298 ], [ 78.5871, 26.985 ], [ 78.58768, 26.98925 ], [ 78.58495, 26.99141 ], [ 78.58547, 26.994 ], [ 78.58136, 26.99606 ], [ 78.58044, 26.998 ], [ 78.58084, 26.99869 ], [ 78.57967, 27.00023 ], [ 78.57047, 26.99658 ], [ 78.56951, 26.99886 ], [ 78.57374, 27.00206 ], [ 78.5737, 27.00308 ], [ 78.57516, 27.00442 ], [ 78.57404, 27.00566 ], [ 78.57714, 27.00861 ], [ 78.57813, 27.00793 ], [ 78.58238, 27.00824 ], [ 78.58395, 27.00925 ], [ 78.58651, 27.00895 ] ] ], [ [ [ 78.74035, 27.18407 ], [ 78.74116, 27.18474 ], [ 78.74209, 27.18436 ], [ 78.74104, 27.18196 ], [ 78.7419, 27.18078 ], [ 78.74513, 27.17997 ], [ 78.74546, 27.17886 ], [ 78.74666, 27.17864 ], [ 78.74757, 27.18005 ], [ 78.74994, 27.17923 ], [ 78.75416, 27.18004 ], [ 78.75877, 27.17862 ], [ 78.76708, 27.17391 ], [ 78.77763, 27.16409 ], [ 78.77744, 27.16283 ], [ 78.78079, 27.16225 ], [ 78.78511, 27.16556 ], [ 78.79609, 27.16091 ], [ 78.80336, 27.15379 ], [ 78.80533, 27.15409 ], [ 78.80719, 27.15592 ], [ 78.81123, 27.15343 ], [ 78.80843, 27.15149 ], [ 78.80842, 27.15041 ], [ 78.81529, 27.1489 ], [ 78.81758, 27.14633 ], [ 78.82039, 27.14493 ], [ 78.81952, 27.14284 ], [ 78.82024, 27.14279 ], [ 78.82023, 27.14063 ], [ 78.82142, 27.13971 ], [ 78.81953, 27.13685 ], [ 78.81397, 27.13976 ], [ 78.81227, 27.14283 ], [ 78.80986, 27.14506 ], [ 78.80663, 27.14156 ], [ 78.80545, 27.14401 ], [ 78.8057, 27.14598 ], [ 78.79981, 27.14561 ], [ 78.7967, 27.14305 ], [ 78.79545, 27.14308 ], [ 78.79128, 27.13868 ], [ 78.78945, 27.1346 ], [ 78.7903, 27.13378 ], [ 78.79381, 27.13438 ], [ 78.79543, 27.12887 ], [ 78.79302, 27.12396 ], [ 78.79613, 27.12202 ], [ 78.79735, 27.1221 ], [ 78.79749, 27.12119 ], [ 78.79947, 27.12015 ], [ 78.80199, 27.12231 ], [ 78.80596, 27.12117 ], [ 78.80687, 27.12002 ], [ 78.8049, 27.11639 ], [ 78.80214, 27.11393 ], [ 78.80329, 27.11253 ], [ 78.79925, 27.10557 ], [ 78.8002, 27.1035 ], [ 78.79884, 27.10221 ], [ 78.79916, 27.10026 ], [ 78.79384, 27.09844 ], [ 78.79091, 27.10006 ], [ 78.78794, 27.10316 ], [ 78.78743, 27.10535 ], [ 78.78295, 27.10728 ], [ 78.78162, 27.10684 ], [ 78.77899, 27.11017 ], [ 78.77632, 27.1115 ], [ 78.77504, 27.1113 ], [ 78.77296, 27.11406 ], [ 78.76779, 27.10955 ], [ 78.7649, 27.10589 ], [ 78.76788, 27.10431 ], [ 78.76831, 27.10315 ], [ 78.76958, 27.10356 ], [ 78.77298, 27.10101 ], [ 78.7766, 27.09458 ], [ 78.77627, 27.09028 ], [ 78.77434, 27.08829 ], [ 78.77379, 27.08489 ], [ 78.77181, 27.08364 ], [ 78.76931, 27.08421 ], [ 78.76761, 27.08304 ], [ 78.7702, 27.08136 ], [ 78.77146, 27.08196 ], [ 78.77266, 27.08072 ], [ 78.76981, 27.07254 ], [ 78.76635, 27.06581 ], [ 78.76824, 27.065 ], [ 78.76949, 27.06301 ], [ 78.77079, 27.06353 ], [ 78.77632, 27.06073 ], [ 78.77023, 27.05501 ], [ 78.7643, 27.05319 ], [ 78.76428, 27.0518 ], [ 78.77123, 27.04751 ], [ 78.77257, 27.04484 ], [ 78.77768, 27.04623 ], [ 78.77971, 27.04547 ], [ 78.78095, 27.0459 ], [ 78.78635, 27.04386 ], [ 78.78837, 27.04224 ], [ 78.78716, 27.04056 ], [ 78.78769, 27.03885 ], [ 78.78669, 27.03818 ], [ 78.7828, 27.03971 ], [ 78.77441, 27.03252 ], [ 78.77328, 27.03087 ], [ 78.77326, 27.02906 ], [ 78.77638, 27.02202 ], [ 78.778, 27.0237 ], [ 78.78193, 27.02484 ], [ 78.78751, 27.01944 ], [ 78.79169, 27.01884 ], [ 78.79345, 27.01631 ], [ 78.79388, 27.01417 ], [ 78.78175, 27.00817 ], [ 78.78379, 27.00594 ], [ 78.78169, 27.00276 ], [ 78.78817, 26.99647 ], [ 78.79099, 26.99548 ], [ 78.79648, 26.99036 ], [ 78.79409, 26.98707 ], [ 78.79621, 26.98499 ], [ 78.80397, 26.98072 ], [ 78.80587, 26.98335 ], [ 78.80528, 26.98396 ], [ 78.806, 26.98517 ], [ 78.80553, 26.98586 ], [ 78.80663, 26.98789 ], [ 78.81233, 26.99243 ], [ 78.81771, 26.98845 ], [ 78.81736, 26.98744 ], [ 78.81828, 26.98689 ], [ 78.81724, 26.98524 ], [ 78.81858, 26.98439 ], [ 78.81627, 26.98105 ], [ 78.80263, 26.96779 ], [ 78.80686, 26.96443 ], [ 78.80911, 26.96136 ], [ 78.80827, 26.9605 ], [ 78.81003, 26.95795 ], [ 78.80695, 26.9584 ], [ 78.80537, 26.95762 ], [ 78.80086, 26.95414 ], [ 78.80056, 26.95311 ], [ 78.79907, 26.9531 ], [ 78.79496, 26.95012 ], [ 78.79328, 26.95125 ], [ 78.79182, 26.95001 ], [ 78.79054, 26.95084 ], [ 78.78961, 26.94972 ], [ 78.79076, 26.94908 ], [ 78.78788, 26.94494 ], [ 78.78629, 26.94582 ], [ 78.78489, 26.94552 ], [ 78.78267, 26.94715 ], [ 78.78116, 26.9456 ], [ 78.77756, 26.94926 ], [ 78.77683, 26.94879 ], [ 78.7665, 26.93716 ], [ 78.76186, 26.93361 ], [ 78.76091, 26.93361 ], [ 78.75199, 26.91893 ], [ 78.74997, 26.91688 ], [ 78.74578, 26.91537 ], [ 78.73841, 26.92257 ], [ 78.73513, 26.92317 ], [ 78.73254, 26.92194 ], [ 78.73063, 26.92003 ], [ 78.73112, 26.91527 ], [ 78.73011, 26.90463 ], [ 78.72398, 26.90039 ], [ 78.71437, 26.90118 ], [ 78.71051, 26.90324 ], [ 78.71003, 26.91369 ], [ 78.70903, 26.91714 ], [ 78.70773, 26.91846 ], [ 78.703, 26.9187 ], [ 78.69906, 26.91579 ], [ 78.69712, 26.91191 ], [ 78.69325, 26.91051 ], [ 78.68316, 26.9188 ], [ 78.67976, 26.92012 ], [ 78.67614, 26.92035 ], [ 78.67286, 26.9167 ], [ 78.67135, 26.91362 ], [ 78.6708, 26.90986 ], [ 78.67173, 26.89833 ], [ 78.67564, 26.89178 ], [ 78.67639, 26.888 ], [ 78.67559, 26.88078 ], [ 78.67391, 26.87878 ], [ 78.67179, 26.87803 ], [ 78.66858, 26.87827 ], [ 78.66137, 26.88544 ], [ 78.65716, 26.88473 ], [ 78.64948, 26.88121 ], [ 78.64457, 26.88076 ], [ 78.63717, 26.88263 ], [ 78.63458, 26.88565 ], [ 78.63439, 26.89527 ], [ 78.63507, 26.89846 ], [ 78.63334, 26.90752 ], [ 78.63147, 26.90968 ], [ 78.62438, 26.91207 ], [ 78.61957, 26.91507 ], [ 78.6171, 26.92169 ], [ 78.61845, 26.93109 ], [ 78.62345, 26.93946 ], [ 78.62409, 26.94243 ], [ 78.6199, 26.94596 ], [ 78.60302, 26.95102 ], [ 78.6035, 26.95882 ], [ 78.60268, 26.96813 ], [ 78.60432, 26.97026 ], [ 78.60313, 26.97781 ], [ 78.60707, 26.98578 ], [ 78.60614, 26.9883 ], [ 78.60027, 26.98613 ], [ 78.5984, 26.98715 ], [ 78.59929, 26.98857 ], [ 78.59681, 26.98972 ], [ 78.59637, 26.99092 ], [ 78.6017, 26.99831 ], [ 78.59888, 27.00023 ], [ 78.59945, 27.00364 ], [ 78.60017, 27.00457 ], [ 78.60551, 27.00633 ], [ 78.60774, 27.0099 ], [ 78.60765, 27.01132 ], [ 78.60632, 27.01187 ], [ 78.6061, 27.01459 ], [ 78.60521, 27.01565 ], [ 78.60645, 27.01793 ], [ 78.6049, 27.01957 ], [ 78.60522, 27.02028 ], [ 78.60267, 27.02249 ], [ 78.59801, 27.01998 ], [ 78.59537, 27.02043 ], [ 78.59159, 27.02351 ], [ 78.5888, 27.02868 ], [ 78.5842, 27.02229 ], [ 78.58014, 27.02293 ], [ 78.57681, 27.02087 ], [ 78.56998, 27.02286 ], [ 78.56849, 27.02221 ], [ 78.56602, 27.02453 ], [ 78.56639, 27.02592 ], [ 78.5677, 27.02723 ], [ 78.57314, 27.02941 ], [ 78.57585, 27.03167 ], [ 78.57604, 27.03269 ], [ 78.57587, 27.03659 ], [ 78.57291, 27.03813 ], [ 78.57128, 27.04219 ], [ 78.57317, 27.04345 ], [ 78.57689, 27.04275 ], [ 78.58001, 27.04721 ], [ 78.58021, 27.05054 ], [ 78.5788, 27.05133 ], [ 78.58293, 27.06312 ], [ 78.58179, 27.06453 ], [ 78.58222, 27.06567 ], [ 78.57983, 27.0667 ], [ 78.58102, 27.0689 ], [ 78.58808, 27.07199 ], [ 78.58937, 27.07339 ], [ 78.59168, 27.07166 ], [ 78.59154, 27.07067 ], [ 78.59284, 27.06925 ], [ 78.59243, 27.06802 ], [ 78.60051, 27.06334 ], [ 78.60253, 27.06565 ], [ 78.60354, 27.06521 ], [ 78.60411, 27.06593 ], [ 78.60706, 27.06616 ], [ 78.60966, 27.06792 ], [ 78.612, 27.06737 ], [ 78.61451, 27.07084 ], [ 78.62041, 27.07134 ], [ 78.62213, 27.07241 ], [ 78.62063, 27.07393 ], [ 78.6239, 27.07695 ], [ 78.62219, 27.07795 ], [ 78.62313, 27.07922 ], [ 78.6269, 27.08089 ], [ 78.62453, 27.08282 ], [ 78.63233, 27.09033 ], [ 78.6363, 27.09158 ], [ 78.63513, 27.09222 ], [ 78.63932, 27.09448 ], [ 78.6412, 27.09233 ], [ 78.64667, 27.08935 ], [ 78.6504, 27.09464 ], [ 78.65203, 27.09346 ], [ 78.6548, 27.09437 ], [ 78.65513, 27.09519 ], [ 78.65646, 27.09448 ], [ 78.65831, 27.09598 ], [ 78.65366, 27.09744 ], [ 78.64999, 27.1026 ], [ 78.65122, 27.10584 ], [ 78.65022, 27.10752 ], [ 78.65096, 27.11452 ], [ 78.65312, 27.11479 ], [ 78.65594, 27.11916 ], [ 78.65839, 27.12061 ], [ 78.65968, 27.11922 ], [ 78.66145, 27.12045 ], [ 78.66314, 27.11867 ], [ 78.66272, 27.11675 ], [ 78.66525, 27.11499 ], [ 78.66613, 27.11574 ], [ 78.66789, 27.11465 ], [ 78.66917, 27.11508 ], [ 78.6728, 27.11433 ], [ 78.67778, 27.11793 ], [ 78.6788, 27.11954 ], [ 78.67238, 27.12516 ], [ 78.67444, 27.128 ], [ 78.67882, 27.12724 ], [ 78.68203, 27.12779 ], [ 78.68876, 27.13349 ], [ 78.69426, 27.14105 ], [ 78.69298, 27.14049 ], [ 78.68979, 27.14165 ], [ 78.69039, 27.1432 ], [ 78.68816, 27.14529 ], [ 78.69071, 27.14835 ], [ 78.6924, 27.14706 ], [ 78.69365, 27.14992 ], [ 78.69073, 27.15305 ], [ 78.69176, 27.15443 ], [ 78.68823, 27.15807 ], [ 78.69217, 27.16382 ], [ 78.69385, 27.16262 ], [ 78.69585, 27.16356 ], [ 78.69606, 27.16171 ], [ 78.69732, 27.16079 ], [ 78.69942, 27.16118 ], [ 78.70344, 27.16534 ], [ 78.70722, 27.17259 ], [ 78.70842, 27.17234 ], [ 78.71179, 27.17496 ], [ 78.71431, 27.17843 ], [ 78.71753, 27.18015 ], [ 78.71645, 27.18148 ], [ 78.71974, 27.1869 ], [ 78.71975, 27.19062 ], [ 78.71863, 27.19112 ], [ 78.72214, 27.19516 ], [ 78.73595, 27.19046 ], [ 78.73913, 27.18709 ], [ 78.74035, 27.18407 ] ] ] ] } },
{ "type": "Feature", "properties": { "OBJECTID": 2745, "state_lgd": "09", "state_name": "UTTAR PRADESH", "district_lgd": "147", "district_name": "FIROZABAD", "district_name_source": "district_table", "subdistrict_lgd": "771", "subdistrict_name": "TUNDLA", "subdistrict_type": "Tehsil", "name_corrupted": false, "remarks": "", "label_lon": 78.287079180130192, "label_lat": 27.24147415948411 }, "geometry": { "type": "Polygon", "coordinates": [ [ [ 78.35227, 27.3969 ], [ 78.35726, 27.39523 ], [ 78.36293, 27.38984 ], [ 78.36381, 27.38284 ], [ 78.36562, 27.37852 ], [ 78.37582, 27.37016 ], [ 78.38038, 27.36925 ], [ 78.38214, 27.36462 ], [ 78.38289, 27.36403 ], [ 78.38499, 27.36434 ], [ 78.38746, 27.3616 ], [ 78.38524, 27.35713 ], [ 78.386, 27.35562 ], [ 78.38524, 27.35379 ], [ 78.38634, 27.35206 ], [ 78.38531, 27.34873 ], [ 78.38572, 27.34774 ], [ 78.38193, 27.34418 ], [ 78.38173, 27.34032 ], [ 78.38549, 27.33799 ], [ 78.38788, 27.33525 ], [ 78.38614, 27.33163 ], [ 78.38571, 27.32467 ], [ 78.38352, 27.3224 ], [ 78.38324, 27.31568 ], [ 78.37699, 27.30861 ], [ 78.37358, 27.30619 ], [ 78.37345, 27.30481 ], [ 78.37574, 27.29909 ], [ 78.3736, 27.29745 ], [ 78.37399, 27.29382 ], [ 78.3762, 27.29106 ], [ 78.37401, 27.29101 ], [ 78.3735, 27.28965 ], [ 78.36667, 27.28563 ], [ 78.36236, 27.29018 ], [ 78.35917, 27.29039 ], [ 78.35748, 27.29139 ], [ 78.35855, 27.29283 ], [ 78.35831, 27.29399 ], [ 78.35988, 27.29432 ], [ 78.35834, 27.2948 ], [ 78.35892, 27.29539 ], [ 78.35766, 27.29631 ], [ 78.35713, 27.29543 ], [ 78.35613, 27.29628 ], [ 78.35656, 27.30153 ], [ 78.3534, 27.30766 ], [ 78.35164, 27.30695 ], [ 78.35276, 27.30222 ], [ 78.35183, 27.30099 ], [ 78.34901, 27.30017 ], [ 78.34791, 27.29849 ], [ 78.34552, 27.2972 ], [ 78.34484, 27.29811 ], [ 78.34321, 27.297 ], [ 78.34443, 27.29315 ], [ 78.34189, 27.29172 ], [ 78.34264, 27.28965 ], [ 78.34085, 27.28874 ], [ 78.3437, 27.28586 ], [ 78.34319, 27.28458 ], [ 78.34422, 27.28419 ], [ 78.34381, 27.28349 ], [ 78.34588, 27.27958 ], [ 78.34642, 27.27924 ], [ 78.35058, 27.28495 ], [ 78.35475, 27.28661 ], [ 78.35539, 27.28618 ], [ 78.35446, 27.28474 ], [ 78.355, 27.28351 ], [ 78.36091, 27.27997 ], [ 78.36027, 27.27779 ], [ 78.35591, 27.27771 ], [ 78.35248, 27.2755 ], [ 78.35046, 27.27298 ], [ 78.35275, 27.27168 ], [ 78.35671, 27.26753 ], [ 78.35925, 27.26848 ], [ 78.36175, 27.26546 ], [ 78.35978, 27.26447 ], [ 78.35918, 27.26533 ], [ 78.35838, 27.26507 ], [ 78.35988, 27.26265 ], [ 78.35868, 27.26194 ], [ 78.35939, 27.26093 ], [ 78.35671, 27.25965 ], [ 78.35415, 27.25665 ], [ 78.35649, 27.25356 ], [ 78.35706, 27.25468 ], [ 78.36066, 27.25301 ], [ 78.36244, 27.25317 ], [ 78.3621, 27.2521 ], [ 78.36341, 27.25135 ], [ 78.36167, 27.25018 ], [ 78.36187, 27.24954 ], [ 78.3653, 27.24777 ], [ 78.36404, 27.24612 ], [ 78.36675, 27.24458 ], [ 78.36478, 27.24223 ], [ 78.36657, 27.24071 ], [ 78.36569, 27.23958 ], [ 78.36436, 27.23938 ], [ 78.36593, 27.23775 ], [ 78.36506, 27.23687 ], [ 78.36179, 27.23661 ], [ 78.35976, 27.23808 ], [ 78.35885, 27.23723 ], [ 78.35523, 27.23659 ], [ 78.35169, 27.2328 ], [ 78.35678, 27.2324 ], [ 78.35923, 27.23138 ], [ 78.35885, 27.22825 ], [ 78.35664, 27.22788 ], [ 78.35157, 27.23063 ], [ 78.34922, 27.233 ], [ 78.34466, 27.23063 ], [ 78.34193, 27.23096 ], [ 78.34029, 27.22977 ], [ 78.33894, 27.23076 ], [ 78.33609, 27.22611 ], [ 78.33701, 27.22512 ], [ 78.33582, 27.2235 ], [ 78.33622, 27.22238 ], [ 78.33464, 27.2184 ], [ 78.33382, 27.21848 ], [ 78.33026, 27.21493 ], [ 78.32985, 27.21554 ], [ 78.32896, 27.21487 ], [ 78.32969, 27.21387 ], [ 78.32842, 27.21308 ], [ 78.3315, 27.21187 ], [ 78.33098, 27.21119 ], [ 78.33305, 27.20946 ], [ 78.33267, 27.20375 ], [ 78.33518, 27.20285 ], [ 78.34039, 27.21053 ], [ 78.34457, 27.20954 ], [ 78.3468, 27.20764 ], [ 78.34858, 27.20786 ], [ 78.3491, 27.20919 ], [ 78.35071, 27.20924 ], [ 78.35155, 27.21026 ], [ 78.35348, 27.20892 ], [ 78.35549, 27.21264 ], [ 78.36032, 27.21014 ], [ 78.36141, 27.21037 ], [ 78.36746, 27.2057 ], [ 78.36605, 27.20109 ], [ 78.36425, 27.19842 ], [ 78.36543, 27.19753 ], [ 78.36496, 27.19699 ], [ 78.36559, 27.19552 ], [ 78.36823, 27.19171 ], [ 78.36231, 27.18676 ], [ 78.35913, 27.18762 ], [ 78.35862, 27.18875 ], [ 78.35378, 27.18911 ], [ 78.3504, 27.19089 ], [ 78.3494, 27.18939 ], [ 78.3472, 27.18958 ], [ 78.34771, 27.19077 ], [ 78.34664, 27.1914 ], [ 78.34759, 27.19255 ], [ 78.34608, 27.19353 ], [ 78.34339, 27.19146 ], [ 78.34391, 27.19096 ], [ 78.34287, 27.18968 ], [ 78.34211, 27.18999 ], [ 78.34269, 27.18903 ], [ 78.34199, 27.18818 ], [ 78.33899, 27.19031 ], [ 78.3407, 27.19234 ], [ 78.33962, 27.19219 ], [ 78.33685, 27.18948 ], [ 78.33574, 27.18979 ], [ 78.33611, 27.18857 ], [ 78.33489, 27.18717 ], [ 78.33765, 27.18569 ], [ 78.3392, 27.18366 ], [ 78.33911, 27.18227 ], [ 78.34105, 27.18104 ], [ 78.3405, 27.17936 ], [ 78.34246, 27.17699 ], [ 78.34152, 27.17537 ], [ 78.34239, 27.17465 ], [ 78.34045, 27.17201 ], [ 78.33774, 27.17168 ], [ 78.33583, 27.17243 ], [ 78.33225, 27.17036 ], [ 78.33229, 27.16935 ], [ 78.32825, 27.16456 ], [ 78.32571, 27.16447 ], [ 78.32003, 27.16024 ], [ 78.31971, 27.16125 ], [ 78.32457, 27.16551 ], [ 78.32357, 27.16786 ], [ 78.32435, 27.16957 ], [ 78.32236, 27.17225 ], [ 78.32414, 27.17379 ], [ 78.32486, 27.17311 ], [ 78.32693, 27.17525 ], [ 78.33048, 27.17253 ], [ 78.33532, 27.17594 ], [ 78.33549, 27.17766 ], [ 78.33183, 27.17944 ], [ 78.33125, 27.17892 ], [ 78.32892, 27.1798 ], [ 78.32869, 27.18078 ], [ 78.32735, 27.17973 ], [ 78.32604, 27.18135 ], [ 78.32282, 27.18025 ], [ 78.31772, 27.18265 ], [ 78.31174, 27.17733 ], [ 78.30459, 27.17515 ], [ 78.30786, 27.17186 ], [ 78.30856, 27.17273 ], [ 78.30972, 27.17176 ], [ 78.31144, 27.17422 ], [ 78.31321, 27.17459 ], [ 78.31616, 27.17378 ], [ 78.31843, 27.17194 ], [ 78.31305, 27.16606 ], [ 78.31085, 27.16719 ], [ 78.30672, 27.16401 ], [ 78.30234, 27.16497 ], [ 78.29871, 27.16341 ], [ 78.29674, 27.16148 ], [ 78.29684, 27.1603 ], [ 78.2983, 27.16096 ], [ 78.30179, 27.15981 ], [ 78.30338, 27.15604 ], [ 78.30509, 27.15496 ], [ 78.30326, 27.15119 ], [ 78.30418, 27.14979 ], [ 78.30394, 27.14835 ], [ 78.29967, 27.14527 ], [ 78.29669, 27.14167 ], [ 78.29852, 27.13935 ], [ 78.29829, 27.13819 ], [ 78.30043, 27.13455 ], [ 78.30111, 27.13049 ], [ 78.30382, 27.12631 ], [ 78.30119, 27.12505 ], [ 78.30062, 27.12308 ], [ 78.29528, 27.11919 ], [ 78.29216, 27.11417 ], [ 78.29116, 27.10534 ], [ 78.29512, 27.08948 ], [ 78.29305, 27.08509 ], [ 78.28994, 27.08297 ], [ 78.28352, 27.08072 ], [ 78.27706, 27.08101 ], [ 78.27377, 27.08214 ], [ 78.27164, 27.08343 ], [ 78.27022, 27.08638 ], [ 78.26988, 27.09093 ], [ 78.26818, 27.09498 ], [ 78.26149, 27.10642 ], [ 78.25605, 27.11015 ], [ 78.24259, 27.11345 ], [ 78.24092, 27.11301 ], [ 78.2387, 27.11076 ], [ 78.23852, 27.10443 ], [ 78.23958, 27.10301 ], [ 78.24874, 27.09917 ], [ 78.25443, 27.09578 ], [ 78.25817, 27.0906 ], [ 78.25866, 27.08498 ], [ 78.25512, 27.07963 ], [ 78.24514, 27.07479 ], [ 78.23797, 27.07387 ], [ 78.23021, 27.07452 ], [ 78.22509, 27.07589 ], [ 78.22311, 27.07771 ], [ 78.22287, 27.08077 ], [ 78.22835, 27.0882 ], [ 78.2288, 27.09502 ], [ 78.2263, 27.09848 ], [ 78.22311, 27.10077 ], [ 78.2166, 27.10349 ], [ 78.20947, 27.10475 ], [ 78.20483, 27.10893 ], [ 78.20047, 27.11856 ], [ 78.19991, 27.12141 ], [ 78.2013, 27.12415 ], [ 78.20039, 27.12715 ], [ 78.2016, 27.13079 ], [ 78.20825, 27.13631 ], [ 78.20857, 27.14066 ], [ 78.21254, 27.14395 ], [ 78.21599, 27.14816 ], [ 78.22068, 27.15652 ], [ 78.22049, 27.15935 ], [ 78.21858, 27.1658 ], [ 78.21683, 27.16764 ], [ 78.21503, 27.17146 ], [ 78.21023, 27.17385 ], [ 78.20863, 27.17867 ], [ 78.20598, 27.18145 ], [ 78.19686, 27.18489 ], [ 78.19726, 27.18802 ], [ 78.19623, 27.19033 ], [ 78.19422, 27.19168 ], [ 78.19531, 27.19294 ], [ 78.19445, 27.19345 ], [ 78.19637, 27.19609 ], [ 78.19816, 27.20162 ], [ 78.2002, 27.20422 ], [ 78.19978, 27.20471 ], [ 78.20409, 27.20844 ], [ 78.20422, 27.21167 ], [ 78.20563, 27.2118 ], [ 78.2074, 27.21444 ], [ 78.2058, 27.21639 ], [ 78.21045, 27.22013 ], [ 78.21121, 27.22156 ], [ 78.20989, 27.22249 ], [ 78.21089, 27.22371 ], [ 78.21334, 27.22483 ], [ 78.21484, 27.22462 ], [ 78.21807, 27.23054 ], [ 78.22154, 27.23416 ], [ 78.21583, 27.24123 ], [ 78.21896, 27.24757 ], [ 78.21406, 27.25069 ], [ 78.21137, 27.25134 ], [ 78.21013, 27.25007 ], [ 78.20527, 27.25335 ], [ 78.2046, 27.25543 ], [ 78.20519, 27.25808 ], [ 78.21161, 27.26505 ], [ 78.20735, 27.26911 ], [ 78.20755, 27.27051 ], [ 78.21583, 27.28191 ], [ 78.21634, 27.28277 ], [ 78.21574, 27.2834 ], [ 78.21997, 27.28781 ], [ 78.21901, 27.28869 ], [ 78.21516, 27.2889 ], [ 78.20839, 27.29179 ], [ 78.19855, 27.29838 ], [ 78.19782, 27.2992 ], [ 78.19708, 27.30499 ], [ 78.19398, 27.30781 ], [ 78.20008, 27.31193 ], [ 78.19988, 27.31086 ], [ 78.20114, 27.30989 ], [ 78.2059, 27.31157 ], [ 78.2055, 27.3101 ], [ 78.20693, 27.30878 ], [ 78.20641, 27.3077 ], [ 78.20754, 27.30678 ], [ 78.20521, 27.30224 ], [ 78.20635, 27.30118 ], [ 78.20821, 27.30252 ], [ 78.20958, 27.30119 ], [ 78.21111, 27.30265 ], [ 78.21025, 27.30339 ], [ 78.21092, 27.30648 ], [ 78.21224, 27.3062 ], [ 78.21248, 27.30729 ], [ 78.21537, 27.30859 ], [ 78.21607, 27.308 ], [ 78.21796, 27.30928 ], [ 78.21868, 27.31196 ], [ 78.22005, 27.31176 ], [ 78.22084, 27.31071 ], [ 78.2216, 27.31113 ], [ 78.22418, 27.30862 ], [ 78.22348, 27.30796 ], [ 78.22518, 27.30641 ], [ 78.22861, 27.30938 ], [ 78.22937, 27.3088 ], [ 78.23042, 27.30996 ], [ 78.23294, 27.30777 ], [ 78.23544, 27.31395 ], [ 78.24279, 27.31141 ], [ 78.2428, 27.31015 ], [ 78.24689, 27.30538 ], [ 78.24885, 27.30488 ], [ 78.24927, 27.30403 ], [ 78.24827, 27.30326 ], [ 78.25029, 27.30181 ], [ 78.25743, 27.30229 ], [ 78.25923, 27.30143 ], [ 78.25994, 27.30258 ], [ 78.26384, 27.30189 ], [ 78.26635, 27.30366 ], [ 78.26747, 27.30318 ], [ 78.26746, 27.30448 ], [ 78.26578, 27.3051 ], [ 78.26546, 27.30611 ], [ 78.26584, 27.31148 ], [ 78.26724, 27.31258 ], [ 78.26671, 27.31362 ], [ 78.2687, 27.31485 ], [ 78.26788, 27.31586 ], [ 78.27055, 27.31955 ], [ 78.27319, 27.32086 ], [ 78.27392, 27.32221 ], [ 78.27734, 27.3227 ], [ 78.27839, 27.32436 ], [ 78.27763, 27.33343 ], [ 78.27466, 27.33766 ], [ 78.27905, 27.34147 ], [ 78.27854, 27.3437 ], [ 78.27988, 27.34271 ], [ 78.28313, 27.34485 ], [ 78.28423, 27.34818 ], [ 78.2831, 27.35015 ], [ 78.28359, 27.35153 ], [ 78.28301, 27.35344 ], [ 78.28826, 27.35669 ], [ 78.28715, 27.35703 ], [ 78.28413, 27.36196 ], [ 78.28454, 27.36413 ], [ 78.28718, 27.36666 ], [ 78.2872, 27.37005 ], [ 78.28577, 27.37277 ], [ 78.28593, 27.37413 ], [ 78.29164, 27.3753 ], [ 78.29061, 27.37797 ], [ 78.29536, 27.38305 ], [ 78.29412, 27.38446 ], [ 78.29439, 27.38527 ], [ 78.29073, 27.38732 ], [ 78.29319, 27.38869 ], [ 78.29476, 27.38869 ], [ 78.29658, 27.39206 ], [ 78.29866, 27.39351 ], [ 78.29958, 27.393 ], [ 78.30051, 27.39354 ], [ 78.3115, 27.38193 ], [ 78.31617, 27.37927 ], [ 78.31815, 27.3758 ], [ 78.32299, 27.37523 ], [ 78.32178, 27.37806 ], [ 78.32325, 27.38301 ], [ 78.32918, 27.38935 ], [ 78.33213, 27.39089 ], [ 78.33371, 27.39029 ], [ 78.33428, 27.3908 ], [ 78.33802, 27.38829 ], [ 78.34349, 27.39107 ], [ 78.34329, 27.39231 ], [ 78.34818, 27.39413 ], [ 78.35227, 27.3969 ] ] ] } }
]
}
