{
"type": "FeatureCollection",
"name": "148_MAINPURI",
"crs": { "type": "name", "properties": { "name": "urn:ogc:def:crs:OGC:1.3:CRS84" } },
"xy_coordinate_resolution": 1e-05,
"features": [
{ "type": "Feature", "properties": { "OBJECTID": 2449, "state_lgd": "09", "state_name": "UTTAR PRADESH", "district_lgd": "148", "district_name": "MAINPURI", "district_name_source": "district_table", "subdistrict_lgd": "777", "subdistrict_name": "BHOGAON", "subdistrict_type": "Tehsil", "name_corrupted": false, "remarks": "", "label_lon": 79.193644163061208, "label_lat": 27.2241546912473 }, "geometry": { "type": "Polygon", "coordinates": [ [ [ 79.13095, 27.39418 ], [ 79.14009, 27.39116 ], [ 79.13892, 27.38825 ], [ 79.13916, 27.3866 ], [ 79.14044, 27.3865 ], [ 79.14108, 27.3878 ], [ 79.14301, 27.38634 ], [ 79.14256, 27.38122 ], [ 79.13988, 27.38282 ], [ 79.13885, 27.38136 ], [ 79.13931, 27.38043 ], [ 79.14204, 27.37991 ], [ 79.14084, 27.37802 ], [ 79.14535, 27.37918 ], [ 79.14654, 27.37847 ], [ 79.15113, 27.37831 ], [ 79.14945, 27.37534 ], [ 79.15118, 27.37423 ], [ 79.15213, 27.37791 ], [ 79.15487, 27.37757 ], [ 79.15558, 27.3759 ], [ 79.15685, 27.37562 ], [ 79.15651, 27.37796 ], [ 79.15535, 27.37864 ], [ 79.15681, 27.37948 ], [ 79.15835, 27.37627 ], [ 79.15947, 27.37577 ], [ 79.15985, 27.37696 ], [ 79.15895, 27.37992 ], [ 79.16111, 27.38068 ], [ 79.16176, 27.38039 ], [ 79.16181, 27.37832 ], [ 79.16568, 27.3779 ], [ 79.16765, 27.37455 ], [ 79.17039, 27.37468 ], [ 79.17363, 27.37672 ], [ 79.17548, 27.37397 ], [ 79.17558, 27.37253 ], [ 79.17222, 27.37144 ], [ 79.17626, 27.37037 ], [ 79.1768, 27.37072 ], [ 79.17607, 27.37217 ], [ 79.1779, 27.3733 ], [ 79.17926, 27.37029 ], [ 79.17716, 27.36823 ], [ 79.18091, 27.36676 ], [ 79.17995, 27.36548 ], [ 79.18193, 27.3658 ], [ 79.1818, 27.36455 ], [ 79.18454, 27.36274 ], [ 79.18549, 27.36281 ], [ 79.18631, 27.36394 ], [ 79.18596, 27.36507 ], [ 79.18809, 27.36638 ], [ 79.19013, 27.36299 ], [ 79.18994, 27.36052 ], [ 79.19156, 27.36217 ], [ 79.19305, 27.36084 ], [ 79.19322, 27.35953 ], [ 79.19593, 27.36133 ], [ 79.1954, 27.35868 ], [ 79.1962, 27.35828 ], [ 79.19496, 27.35719 ], [ 79.19754, 27.35678 ], [ 79.19668, 27.35544 ], [ 79.19671, 27.35313 ], [ 79.19505, 27.35171 ], [ 79.19499, 27.35026 ], [ 79.19802, 27.34827 ], [ 79.19998, 27.34547 ], [ 79.20303, 27.34741 ], [ 79.2037, 27.34568 ], [ 79.20487, 27.34609 ], [ 79.20569, 27.34532 ], [ 79.20655, 27.34428 ], [ 79.20417, 27.34385 ], [ 79.20387, 27.34299 ], [ 79.20512, 27.34225 ], [ 79.20774, 27.34311 ], [ 79.20645, 27.34191 ], [ 79.20528, 27.34203 ], [ 79.20515, 27.34115 ], [ 79.20771, 27.34115 ], [ 79.20607, 27.33969 ], [ 79.2084, 27.33895 ], [ 79.20746, 27.3372 ], [ 79.2096, 27.33657 ], [ 79.20892, 27.33519 ], [ 79.21236, 27.33277 ], [ 79.215, 27.33215 ], [ 79.21626, 27.334 ], [ 79.21709, 27.33235 ], [ 79.2186, 27.33238 ], [ 79.21946, 27.333 ], [ 79.22043, 27.33638 ], [ 79.22413, 27.33351 ], [ 79.22372, 27.33163 ], [ 79.22468, 27.33086 ], [ 79.22686, 27.32989 ], [ 79.22887, 27.33178 ], [ 79.22904, 27.32895 ], [ 79.23162, 27.3286 ], [ 79.23207, 27.32719 ], [ 79.23327, 27.32677 ], [ 79.23536, 27.32739 ], [ 79.23636, 27.32644 ], [ 79.23741, 27.32717 ], [ 79.23489, 27.32841 ], [ 79.23439, 27.32931 ], [ 79.23499, 27.32962 ], [ 79.23822, 27.32863 ], [ 79.23917, 27.32621 ], [ 79.24044, 27.32854 ], [ 79.24239, 27.32885 ], [ 79.24348, 27.32751 ], [ 79.24356, 27.32472 ], [ 79.24486, 27.32368 ], [ 79.24647, 27.32511 ], [ 79.248, 27.32833 ], [ 79.25064, 27.32751 ], [ 79.24993, 27.32553 ], [ 79.25137, 27.32484 ], [ 79.25239, 27.32666 ], [ 79.25401, 27.327 ], [ 79.25611, 27.33136 ], [ 79.25673, 27.3315 ], [ 79.25746, 27.32983 ], [ 79.2587, 27.33065 ], [ 79.25815, 27.32829 ], [ 79.26022, 27.32604 ], [ 79.25988, 27.32525 ], [ 79.25854, 27.32513 ], [ 79.25964, 27.32411 ], [ 79.26076, 27.32467 ], [ 79.26121, 27.32295 ], [ 79.26459, 27.32015 ], [ 79.26199, 27.31557 ], [ 79.26346, 27.31516 ], [ 79.26718, 27.31928 ], [ 79.26868, 27.31886 ], [ 79.2672, 27.31622 ], [ 79.26511, 27.31557 ], [ 79.26759, 27.31287 ], [ 79.26666, 27.31215 ], [ 79.26513, 27.31281 ], [ 79.26538, 27.31103 ], [ 79.26749, 27.30803 ], [ 79.26665, 27.3073 ], [ 79.267, 27.30666 ], [ 79.26603, 27.30646 ], [ 79.26613, 27.30549 ], [ 79.27026, 27.30341 ], [ 79.28257, 27.30422 ], [ 79.28369, 27.30222 ], [ 79.28712, 27.30271 ], [ 79.28883, 27.30497 ], [ 79.29042, 27.30406 ], [ 79.29, 27.30208 ], [ 79.2911, 27.3005 ], [ 79.28804, 27.30062 ], [ 79.28978, 27.29628 ], [ 79.28917, 27.29351 ], [ 79.29002, 27.29291 ], [ 79.29079, 27.29344 ], [ 79.29131, 27.29609 ], [ 79.2934, 27.29551 ], [ 79.28935, 27.29008 ], [ 79.28679, 27.28444 ], [ 79.28693, 27.28083 ], [ 79.28798, 27.27869 ], [ 79.29101, 27.28012 ], [ 79.28851, 27.28137 ], [ 79.29134, 27.28347 ], [ 79.29625, 27.28112 ], [ 79.29829, 27.27876 ], [ 79.29648, 27.27811 ], [ 79.29705, 27.2773 ], [ 79.30008, 27.27659 ], [ 79.30032, 27.27804 ], [ 79.3033, 27.27763 ], [ 79.30404, 27.27897 ], [ 79.30634, 27.28032 ], [ 79.31011, 27.28109 ], [ 79.30713, 27.28454 ], [ 79.30828, 27.28557 ], [ 79.31104, 27.28338 ], [ 79.3142, 27.28482 ], [ 79.31655, 27.2831 ], [ 79.32045, 27.27719 ], [ 79.32545, 27.27507 ], [ 79.32579, 27.27429 ], [ 79.32449, 27.27289 ], [ 79.32299, 27.27355 ], [ 79.32119, 27.27173 ], [ 79.32425, 27.27237 ], [ 79.32311, 27.26985 ], [ 79.32441, 27.26562 ], [ 79.3231, 27.26039 ], [ 79.32031, 27.25767 ], [ 79.32138, 27.25523 ], [ 79.31883, 27.2546 ], [ 79.3176, 27.25094 ], [ 79.31644, 27.25119 ], [ 79.31601, 27.2503 ], [ 79.31552, 27.24839 ], [ 79.31811, 27.24675 ], [ 79.31739, 27.24482 ], [ 79.31544, 27.2464 ], [ 79.31489, 27.24348 ], [ 79.31519, 27.24245 ], [ 79.31696, 27.24244 ], [ 79.31972, 27.24009 ], [ 79.32269, 27.24069 ], [ 79.32332, 27.2396 ], [ 79.32244, 27.23681 ], [ 79.32702, 27.2386 ], [ 79.32954, 27.23583 ], [ 79.32772, 27.23417 ], [ 79.32822, 27.23363 ], [ 79.33172, 27.23503 ], [ 79.33697, 27.23257 ], [ 79.33844, 27.22573 ], [ 79.33576, 27.21793 ], [ 79.33623, 27.21496 ], [ 79.33812, 27.21421 ], [ 79.3408, 27.21588 ], [ 79.34493, 27.21123 ], [ 79.35173, 27.21191 ], [ 79.35249, 27.21285 ], [ 79.3527, 27.21911 ], [ 79.35365, 27.22089 ], [ 79.35653, 27.22052 ], [ 79.35542, 27.21921 ], [ 79.35635, 27.21866 ], [ 79.35843, 27.22145 ], [ 79.35946, 27.22172 ], [ 79.35959, 27.21822 ], [ 79.36055, 27.21737 ], [ 79.36382, 27.22177 ], [ 79.36521, 27.22209 ], [ 79.36663, 27.22092 ], [ 79.36733, 27.21761 ], [ 79.37126, 27.2137 ], [ 79.36972, 27.21154 ], [ 79.37256, 27.21049 ], [ 79.37257, 27.20879 ], [ 79.37131, 27.20644 ], [ 79.37605, 27.20378 ], [ 79.38048, 27.20426 ], [ 79.38165, 27.20373 ], [ 79.38447, 27.19893 ], [ 79.38263, 27.19702 ], [ 79.38555, 27.19602 ], [ 79.38635, 27.19827 ], [ 79.39099, 27.19683 ], [ 79.39017, 27.20092 ], [ 79.39072, 27.20138 ], [ 79.39229, 27.20147 ], [ 79.39508, 27.19977 ], [ 79.39525, 27.1988 ], [ 79.39356, 27.19814 ], [ 79.39329, 27.19719 ], [ 79.39575, 27.197 ], [ 79.3983, 27.19102 ], [ 79.39145, 27.18483 ], [ 79.39021, 27.18282 ], [ 79.39379, 27.1783 ], [ 79.39447, 27.17282 ], [ 79.39608, 27.16972 ], [ 79.39459, 27.16882 ], [ 79.39294, 27.16596 ], [ 79.39496, 27.16366 ], [ 79.39245, 27.15882 ], [ 79.3906, 27.15908 ], [ 79.3897, 27.16052 ], [ 79.38883, 27.16015 ], [ 79.38962, 27.15644 ], [ 79.39277, 27.15324 ], [ 79.40052, 27.14748 ], [ 79.41291, 27.14051 ], [ 79.41321, 27.13843 ], [ 79.41214, 27.13577 ], [ 79.40759, 27.13201 ], [ 79.40501, 27.12669 ], [ 79.40239, 27.12607 ], [ 79.39695, 27.12267 ], [ 79.3941, 27.12217 ], [ 79.38884, 27.12388 ], [ 79.38755, 27.11956 ], [ 79.38766, 27.11715 ], [ 79.38383, 27.1174 ], [ 79.38216, 27.11471 ], [ 79.38702, 27.11266 ], [ 79.3828, 27.10729 ], [ 79.38086, 27.11107 ], [ 79.37506, 27.11316 ], [ 79.37017, 27.1107 ], [ 79.36793, 27.1137 ], [ 79.36607, 27.11435 ], [ 79.36445, 27.11751 ], [ 79.36462, 27.12 ], [ 79.35777, 27.12462 ], [ 79.35105, 27.12029 ], [ 79.35074, 27.1192 ], [ 79.34696, 27.11758 ], [ 79.34549, 27.11813 ], [ 79.34201, 27.11751 ], [ 79.34048, 27.11975 ], [ 79.33565, 27.12186 ], [ 79.33352, 27.12369 ], [ 79.33649, 27.1283 ], [ 79.33903, 27.13056 ], [ 79.34284, 27.12965 ], [ 79.3447, 27.13243 ], [ 79.33742, 27.13747 ], [ 79.33722, 27.13905 ], [ 79.34058, 27.14194 ], [ 79.33963, 27.14262 ], [ 79.33773, 27.14178 ], [ 79.33906, 27.1438 ], [ 79.33616, 27.1452 ], [ 79.32896, 27.1516 ], [ 79.32539, 27.1527 ], [ 79.31728, 27.15009 ], [ 79.31119, 27.14997 ], [ 79.30981, 27.14928 ], [ 79.30106, 27.15626 ], [ 79.30155, 27.15675 ], [ 79.29947, 27.15874 ], [ 79.29903, 27.1581 ], [ 79.29706, 27.15995 ], [ 79.29397, 27.15901 ], [ 79.28638, 27.16231 ], [ 79.28714, 27.16305 ], [ 79.28414, 27.16545 ], [ 79.28524, 27.16769 ], [ 79.28475, 27.17149 ], [ 79.28059, 27.17332 ], [ 79.27953, 27.17229 ], [ 79.27822, 27.17328 ], [ 79.27936, 27.17472 ], [ 79.27492, 27.17441 ], [ 79.27257, 27.17555 ], [ 79.27027, 27.17976 ], [ 79.26798, 27.17659 ], [ 79.26155, 27.18238 ], [ 79.25214, 27.17791 ], [ 79.25024, 27.1739 ], [ 79.24723, 27.17004 ], [ 79.2429, 27.16752 ], [ 79.24155, 27.16808 ], [ 79.24026, 27.166 ], [ 79.23835, 27.16574 ], [ 79.23611, 27.16416 ], [ 79.23514, 27.16278 ], [ 79.2357, 27.15959 ], [ 79.23261, 27.15551 ], [ 79.22834, 27.15257 ], [ 79.22516, 27.15139 ], [ 79.22156, 27.14726 ], [ 79.21946, 27.14599 ], [ 79.21746, 27.14535 ], [ 79.21564, 27.14636 ], [ 79.21477, 27.14597 ], [ 79.21353, 27.14114 ], [ 79.21162, 27.14095 ], [ 79.21457, 27.13545 ], [ 79.21624, 27.12862 ], [ 79.21195, 27.12601 ], [ 79.2122, 27.12229 ], [ 79.21105, 27.11943 ], [ 79.21091, 27.11446 ], [ 79.20842, 27.11083 ], [ 79.20305, 27.1084 ], [ 79.19466, 27.10865 ], [ 79.19137, 27.10075 ], [ 79.1926, 27.09772 ], [ 79.19189, 27.09326 ], [ 79.18412, 27.0964 ], [ 79.17916, 27.08827 ], [ 79.17607, 27.08861 ], [ 79.17182, 27.08616 ], [ 79.16575, 27.08534 ], [ 79.16348, 27.08341 ], [ 79.15435, 27.08282 ], [ 79.15279, 27.08128 ], [ 79.15148, 27.07723 ], [ 79.14467, 27.07181 ], [ 79.13456, 27.07149 ], [ 79.13327, 27.0773 ], [ 79.12552, 27.08146 ], [ 79.12052, 27.08663 ], [ 79.11454, 27.08504 ], [ 79.11366, 27.08726 ], [ 79.10984, 27.08833 ], [ 79.10613, 27.09044 ], [ 79.103, 27.09413 ], [ 79.09931, 27.09316 ], [ 79.09661, 27.0957 ], [ 79.09517, 27.09598 ], [ 79.09315, 27.09516 ], [ 79.09266, 27.09272 ], [ 79.08849, 27.09212 ], [ 79.08767, 27.09467 ], [ 79.08433, 27.09674 ], [ 79.08164, 27.10054 ], [ 79.07685, 27.10235 ], [ 79.0779, 27.10345 ], [ 79.07811, 27.10611 ], [ 79.07538, 27.11003 ], [ 79.07256, 27.11099 ], [ 79.0707, 27.11052 ], [ 79.06844, 27.10827 ], [ 79.06411, 27.10758 ], [ 79.06135, 27.11188 ], [ 79.05756, 27.12226 ], [ 79.0617, 27.12604 ], [ 79.0648, 27.12764 ], [ 79.06697, 27.12765 ], [ 79.0701, 27.12115 ], [ 79.07167, 27.12216 ], [ 79.07188, 27.12432 ], [ 79.07307, 27.12389 ], [ 79.07911, 27.1307 ], [ 79.08317, 27.13664 ], [ 79.07554, 27.14064 ], [ 79.0733, 27.14045 ], [ 79.06727, 27.14426 ], [ 79.06534, 27.14215 ], [ 79.06418, 27.14223 ], [ 79.05486, 27.14963 ], [ 79.05583, 27.15265 ], [ 79.05875, 27.1572 ], [ 79.05523, 27.15913 ], [ 79.05701, 27.16126 ], [ 79.05545, 27.1649 ], [ 79.05864, 27.17214 ], [ 79.05793, 27.17311 ], [ 79.05114, 27.17468 ], [ 79.03717, 27.18513 ], [ 79.04307, 27.19244 ], [ 79.04739, 27.19448 ], [ 79.04816, 27.19912 ], [ 79.05242, 27.19998 ], [ 79.056, 27.20187 ], [ 79.06274, 27.21326 ], [ 79.06618, 27.21714 ], [ 79.06706, 27.22009 ], [ 79.06676, 27.22178 ], [ 79.06454, 27.22638 ], [ 79.06203, 27.22752 ], [ 79.06427, 27.22923 ], [ 79.06253, 27.23372 ], [ 79.06297, 27.23478 ], [ 79.06155, 27.23662 ], [ 79.06397, 27.23516 ], [ 79.06652, 27.2369 ], [ 79.06641, 27.23512 ], [ 79.06799, 27.23415 ], [ 79.07016, 27.23609 ], [ 79.08038, 27.23979 ], [ 79.08153, 27.24088 ], [ 79.08074, 27.2422 ], [ 79.0824, 27.24342 ], [ 79.08143, 27.24456 ], [ 79.08462, 27.24855 ], [ 79.08171, 27.25111 ], [ 79.08307, 27.2538 ], [ 79.08374, 27.25912 ], [ 79.08089, 27.26098 ], [ 79.07802, 27.26103 ], [ 79.07691, 27.26499 ], [ 79.07955, 27.26768 ], [ 79.0786, 27.27057 ], [ 79.07429, 27.2758 ], [ 79.07909, 27.28188 ], [ 79.08031, 27.28591 ], [ 79.07822, 27.28865 ], [ 79.07208, 27.28946 ], [ 79.06785, 27.29181 ], [ 79.05899, 27.29491 ], [ 79.053, 27.30544 ], [ 79.05486, 27.3072 ], [ 79.05616, 27.31081 ], [ 79.06037, 27.31462 ], [ 79.0631, 27.32376 ], [ 79.06601, 27.32513 ], [ 79.0774, 27.32234 ], [ 79.07717, 27.32469 ], [ 79.076, 27.3267 ], [ 79.07647, 27.32731 ], [ 79.07444, 27.32896 ], [ 79.07385, 27.33074 ], [ 79.07383, 27.33468 ], [ 79.07091, 27.33749 ], [ 79.07205, 27.34237 ], [ 79.07433, 27.3452 ], [ 79.07955, 27.3481 ], [ 79.08453, 27.34849 ], [ 79.08489, 27.35039 ], [ 79.0889, 27.3532 ], [ 79.09039, 27.3567 ], [ 79.09297, 27.3561 ], [ 79.09703, 27.35782 ], [ 79.09989, 27.36003 ], [ 79.10206, 27.36264 ], [ 79.09878, 27.36496 ], [ 79.09807, 27.36459 ], [ 79.0959, 27.36757 ], [ 79.10652, 27.37918 ], [ 79.10944, 27.3813 ], [ 79.11136, 27.38005 ], [ 79.12028, 27.38559 ], [ 79.11798, 27.38892 ], [ 79.12611, 27.39332 ], [ 79.13095, 27.39418 ] ] ] } },
{ "type": "Feature", "properties": { "OBJECTID": 2513, "state_lgd": "09", "state_name": "UTTAR PRADESH", "district_lgd": "148", "district_name": "MAINPURI", "district_name_source": "district_table", "subdistrict_lgd": "6288", "subdistrict_name": "GHIROR", "subdistrict_type": "Tehsil", "name_corrupted": false, "remarks": "", "label_lon": 78.812627402968147, "label_lat": 27.232147200861803 }, "geometry": { "type": "Polygon", "coordinates": [ [ [ 78.81202, 27.35508 ], [ 78.8148, 27.35455 ], [ 78.81518, 27.35357 ], [ 78.81699, 27.35277 ], [ 78.81998, 27.35569 ], [ 78.82354, 27.35667 ], [ 78.82516, 27.35668 ], [ 78.82758, 27.35514 ], [ 78.82933, 27.35521 ], [ 78.83119, 27.35344 ], [ 78.83859, 27.34982 ], [ 78.84153, 27.34406 ], [ 78.84692, 27.34097 ], [ 78.85001, 27.33767 ], [ 78.85027, 27.33619 ], [ 78.85256, 27.33611 ], [ 78.8555, 27.33444 ], [ 78.85958, 27.33006 ], [ 78.86297, 27.32819 ], [ 78.86527, 27.32774 ], [ 78.87146, 27.32963 ], [ 78.87368, 27.33159 ], [ 78.87734, 27.33025 ], [ 78.87843, 27.32912 ], [ 78.87741, 27.32848 ], [ 78.87711, 27.32679 ], [ 78.8758, 27.32661 ], [ 78.87733, 27.32617 ], [ 78.88177, 27.32131 ], [ 78.8784, 27.31874 ], [ 78.87822, 27.31367 ], [ 78.87779, 27.31268 ], [ 78.87656, 27.31272 ], [ 78.87729, 27.31233 ], [ 78.87856, 27.3079 ], [ 78.87971, 27.30686 ], [ 78.8793, 27.30594 ], [ 78.88025, 27.3057 ], [ 78.8794, 27.30351 ], [ 78.87841, 27.30298 ], [ 78.88428, 27.29914 ], [ 78.88306, 27.29632 ], [ 78.88115, 27.29477 ], [ 78.88207, 27.2921 ], [ 78.89707, 27.28026 ], [ 78.90116, 27.27867 ], [ 78.89495, 27.2772 ], [ 78.88402, 27.28509 ], [ 78.88007, 27.28544 ], [ 78.87977, 27.28436 ], [ 78.88182, 27.28298 ], [ 78.88083, 27.28233 ], [ 78.88162, 27.28165 ], [ 78.88057, 27.28056 ], [ 78.88261, 27.27552 ], [ 78.8823, 27.27369 ], [ 78.87961, 27.27092 ], [ 78.87432, 27.26223 ], [ 78.87483, 27.25979 ], [ 78.87431, 27.25856 ], [ 78.8726, 27.25677 ], [ 78.86894, 27.25531 ], [ 78.86614, 27.25191 ], [ 78.86695, 27.24842 ], [ 78.86162, 27.24429 ], [ 78.85856, 27.23277 ], [ 78.86615, 27.23047 ], [ 78.8687, 27.22761 ], [ 78.86798, 27.22629 ], [ 78.86961, 27.22547 ], [ 78.89691, 27.21403 ], [ 78.89845, 27.21459 ], [ 78.90429, 27.21223 ], [ 78.90528, 27.21047 ], [ 78.91097, 27.20659 ], [ 78.90726, 27.19596 ], [ 78.90552, 27.19446 ], [ 78.90573, 27.19033 ], [ 78.90414, 27.19004 ], [ 78.89611, 27.19228 ], [ 78.89402, 27.19064 ], [ 78.89034, 27.18961 ], [ 78.88832, 27.18641 ], [ 78.88577, 27.18541 ], [ 78.88335, 27.18541 ], [ 78.87393, 27.18845 ], [ 78.87201, 27.18814 ], [ 78.87289, 27.18659 ], [ 78.86889, 27.18511 ], [ 78.87401, 27.182 ], [ 78.87582, 27.17657 ], [ 78.87549, 27.1751 ], [ 78.87345, 27.17297 ], [ 78.87371, 27.16828 ], [ 78.86912, 27.16403 ], [ 78.87161, 27.15769 ], [ 78.87305, 27.15539 ], [ 78.87481, 27.15448 ], [ 78.87532, 27.15252 ], [ 78.87813, 27.15223 ], [ 78.88009, 27.15066 ], [ 78.88021, 27.14716 ], [ 78.88162, 27.14586 ], [ 78.87944, 27.14277 ], [ 78.88354, 27.13898 ], [ 78.88269, 27.13652 ], [ 78.88572, 27.13273 ], [ 78.88816, 27.13253 ], [ 78.88963, 27.13292 ], [ 78.89329, 27.13738 ], [ 78.90158, 27.13612 ], [ 78.90167, 27.13385 ], [ 78.90053, 27.13139 ], [ 78.9044, 27.12748 ], [ 78.90369, 27.12688 ], [ 78.90247, 27.12801 ], [ 78.90067, 27.12668 ], [ 78.89944, 27.12301 ], [ 78.90302, 27.12128 ], [ 78.90669, 27.11719 ], [ 78.90773, 27.11488 ], [ 78.90955, 27.11324 ], [ 78.91087, 27.10945 ], [ 78.90737, 27.10726 ], [ 78.90642, 27.1057 ], [ 78.89909, 27.10352 ], [ 78.89754, 27.09969 ], [ 78.89315, 27.09862 ], [ 78.88913, 27.09651 ], [ 78.88681, 27.09737 ], [ 78.88568, 27.09619 ], [ 78.87857, 27.09634 ], [ 78.8736, 27.09513 ], [ 78.87221, 27.09364 ], [ 78.87289, 27.09184 ], [ 78.87501, 27.09218 ], [ 78.87489, 27.09035 ], [ 78.8769, 27.09025 ], [ 78.87599, 27.08759 ], [ 78.87835, 27.0871 ], [ 78.8785, 27.08526 ], [ 78.87571, 27.08329 ], [ 78.86814, 27.08649 ], [ 78.86626, 27.08564 ], [ 78.86472, 27.08306 ], [ 78.86384, 27.08286 ], [ 78.85694, 27.08656 ], [ 78.85037, 27.0882 ], [ 78.84844, 27.08951 ], [ 78.84585, 27.08777 ], [ 78.84102, 27.09242 ], [ 78.83802, 27.09335 ], [ 78.838, 27.09424 ], [ 78.83733, 27.09291 ], [ 78.83518, 27.09158 ], [ 78.831, 27.09165 ], [ 78.82328, 27.09569 ], [ 78.82183, 27.10001 ], [ 78.81993, 27.09594 ], [ 78.81719, 27.09362 ], [ 78.81524, 27.09563 ], [ 78.81345, 27.09401 ], [ 78.80843, 27.0975 ], [ 78.80759, 27.09703 ], [ 78.80064, 27.10084 ], [ 78.79916, 27.10026 ], [ 78.79884, 27.10221 ], [ 78.8002, 27.1035 ], [ 78.79925, 27.10557 ], [ 78.80329, 27.11253 ], [ 78.80214, 27.11393 ], [ 78.8049, 27.11639 ], [ 78.80687, 27.12002 ], [ 78.80596, 27.12117 ], [ 78.80199, 27.12231 ], [ 78.79947, 27.12015 ], [ 78.79749, 27.12119 ], [ 78.79735, 27.1221 ], [ 78.79613, 27.12202 ], [ 78.79302, 27.12396 ], [ 78.79543, 27.12887 ], [ 78.79381, 27.13438 ], [ 78.7903, 27.13378 ], [ 78.78945, 27.1346 ], [ 78.79128, 27.13868 ], [ 78.79545, 27.14308 ], [ 78.7967, 27.14305 ], [ 78.79981, 27.14561 ], [ 78.8057, 27.14598 ], [ 78.80545, 27.14401 ], [ 78.80663, 27.14156 ], [ 78.80986, 27.14506 ], [ 78.81227, 27.14283 ], [ 78.81397, 27.13976 ], [ 78.81953, 27.13685 ], [ 78.82142, 27.13971 ], [ 78.82023, 27.14063 ], [ 78.82024, 27.14279 ], [ 78.81952, 27.14284 ], [ 78.82039, 27.14493 ], [ 78.81758, 27.14633 ], [ 78.81529, 27.1489 ], [ 78.80842, 27.15041 ], [ 78.80843, 27.15149 ], [ 78.81123, 27.15343 ], [ 78.80834, 27.15536 ], [ 78.80719, 27.15592 ], [ 78.80533, 27.15409 ], [ 78.80336, 27.15379 ], [ 78.79691, 27.16028 ], [ 78.79131, 27.16252 ], [ 78.79101, 27.1636 ], [ 78.78511, 27.16556 ], [ 78.78079, 27.16225 ], [ 78.77744, 27.16283 ], [ 78.77763, 27.16409 ], [ 78.76779, 27.1734 ], [ 78.75877, 27.17862 ], [ 78.75235, 27.1802 ], [ 78.74994, 27.17923 ], [ 78.74757, 27.18005 ], [ 78.74666, 27.17864 ], [ 78.74546, 27.17886 ], [ 78.74513, 27.17997 ], [ 78.74156, 27.18116 ], [ 78.74104, 27.18196 ], [ 78.74209, 27.18436 ], [ 78.73982, 27.18416 ], [ 78.73913, 27.18709 ], [ 78.73595, 27.19046 ], [ 78.73353, 27.19077 ], [ 78.72546, 27.19448 ], [ 78.72453, 27.19663 ], [ 78.72667, 27.20215 ], [ 78.72663, 27.2048 ], [ 78.73232, 27.20643 ], [ 78.73689, 27.20977 ], [ 78.74584, 27.20924 ], [ 78.75115, 27.20752 ], [ 78.75853, 27.21796 ], [ 78.76086, 27.22503 ], [ 78.76003, 27.22834 ], [ 78.75905, 27.22958 ], [ 78.75319, 27.23232 ], [ 78.74324, 27.24127 ], [ 78.74023, 27.24211 ], [ 78.737, 27.24551 ], [ 78.73078, 27.24785 ], [ 78.72825, 27.24789 ], [ 78.72746, 27.25047 ], [ 78.72785, 27.25458 ], [ 78.7262, 27.25713 ], [ 78.71948, 27.26366 ], [ 78.71641, 27.26465 ], [ 78.70906, 27.26457 ], [ 78.70336, 27.26549 ], [ 78.69835, 27.26847 ], [ 78.69785, 27.26764 ], [ 78.69577, 27.26898 ], [ 78.68984, 27.26782 ], [ 78.68838, 27.2697 ], [ 78.69616, 27.27811 ], [ 78.70017, 27.28029 ], [ 78.70249, 27.28288 ], [ 78.70873, 27.28115 ], [ 78.71546, 27.28035 ], [ 78.7184, 27.28395 ], [ 78.71699, 27.28648 ], [ 78.71861, 27.29192 ], [ 78.72042, 27.294 ], [ 78.71868, 27.29556 ], [ 78.71912, 27.29733 ], [ 78.71559, 27.29923 ], [ 78.71309, 27.29911 ], [ 78.71247, 27.29984 ], [ 78.713, 27.30317 ], [ 78.71175, 27.30752 ], [ 78.71166, 27.3115 ], [ 78.71478, 27.31623 ], [ 78.71246, 27.31736 ], [ 78.71538, 27.32026 ], [ 78.7141, 27.33572 ], [ 78.7138, 27.33672 ], [ 78.70954, 27.34014 ], [ 78.71186, 27.34274 ], [ 78.71501, 27.34209 ], [ 78.71806, 27.34433 ], [ 78.72439, 27.34111 ], [ 78.72716, 27.34081 ], [ 78.73056, 27.33581 ], [ 78.73461, 27.33195 ], [ 78.73603, 27.33287 ], [ 78.73741, 27.33233 ], [ 78.73968, 27.33313 ], [ 78.74354, 27.33526 ], [ 78.74524, 27.3379 ], [ 78.74856, 27.33901 ], [ 78.75144, 27.34353 ], [ 78.75445, 27.34524 ], [ 78.76583, 27.33629 ], [ 78.77159, 27.33602 ], [ 78.77506, 27.33449 ], [ 78.77605, 27.33606 ], [ 78.77941, 27.33632 ], [ 78.78203, 27.34182 ], [ 78.78206, 27.34732 ], [ 78.78747, 27.34857 ], [ 78.79279, 27.34846 ], [ 78.80388, 27.35234 ], [ 78.80652, 27.35523 ], [ 78.80992, 27.35695 ], [ 78.81202, 27.35508 ] ] ] } },
{ "type": "Feature", "properties": { "OBJECTID": 2562, "state_lgd": "09", "state_name": "UTTAR PRADESH", "district_lgd": "148", "district_name": "MAINPURI", "district_name_source": "district_table", "subdistrict_lgd": "776", "subdistrict_name": "KARHAL", "subdistrict_type": "Tehsil", "name_corrupted": false, "remarks": "", "label_lon": 78.948032739538732, "label_lat": 27.037312932184197 }, "geometry": { "type": "Polygon", "coordinates": [ [ [ 78.94655, 27.122 ], [ 78.95712, 27.11888 ], [ 78.9617, 27.11889 ], [ 78.96266, 27.11652 ], [ 78.96726, 27.11292 ], [ 78.97053, 27.10932 ], [ 78.97042, 27.10768 ], [ 78.97245, 27.10634 ], [ 78.97605, 27.10589 ], [ 78.98945, 27.09988 ], [ 78.99097, 27.09998 ], [ 78.99653, 27.10325 ], [ 79.00269, 27.1008 ], [ 79.00167, 27.09911 ], [ 79.00348, 27.09855 ], [ 79.00541, 27.0921 ], [ 79.01059, 27.09534 ], [ 79.01087, 27.09757 ], [ 79.01792, 27.10461 ], [ 79.0246, 27.10492 ], [ 79.02959, 27.10719 ], [ 79.03067, 27.11087 ], [ 79.02952, 27.11302 ], [ 79.0313, 27.11657 ], [ 79.03363, 27.11911 ], [ 79.03567, 27.12023 ], [ 79.04107, 27.11985 ], [ 79.04246, 27.11856 ], [ 79.04392, 27.11175 ], [ 79.04498, 27.1114 ], [ 79.04838, 27.11374 ], [ 79.04827, 27.11527 ], [ 79.0523, 27.1155 ], [ 79.0565, 27.1139 ], [ 79.05926, 27.11191 ], [ 79.06135, 27.11188 ], [ 79.06411, 27.10758 ], [ 79.06844, 27.10827 ], [ 79.0707, 27.11052 ], [ 79.07256, 27.11099 ], [ 79.07538, 27.11003 ], [ 79.07811, 27.10611 ], [ 79.0779, 27.10345 ], [ 79.07685, 27.10235 ], [ 79.08164, 27.10054 ], [ 79.08433, 27.09674 ], [ 79.08767, 27.09467 ], [ 79.08849, 27.09212 ], [ 79.09266, 27.09272 ], [ 79.09315, 27.09516 ], [ 79.09517, 27.09598 ], [ 79.09661, 27.0957 ], [ 79.09931, 27.09316 ], [ 79.103, 27.09413 ], [ 79.10613, 27.09044 ], [ 79.10984, 27.08833 ], [ 79.11366, 27.08726 ], [ 79.11454, 27.08504 ], [ 79.12052, 27.08663 ], [ 79.12552, 27.08146 ], [ 79.13327, 27.0773 ], [ 79.13456, 27.07149 ], [ 79.13856, 27.07152 ], [ 79.1386, 27.0705 ], [ 79.13696, 27.06565 ], [ 79.13297, 27.06083 ], [ 79.13209, 27.05667 ], [ 79.12902, 27.05547 ], [ 79.12432, 27.05821 ], [ 79.11393, 27.04957 ], [ 79.1105, 27.03483 ], [ 79.11948, 27.02564 ], [ 79.12244, 27.02455 ], [ 79.12258, 27.01919 ], [ 79.12154, 27.01485 ], [ 79.11535, 27.00792 ], [ 79.12123, 27.00495 ], [ 79.12168, 27.00321 ], [ 79.12262, 27.0037 ], [ 79.12498, 27.00197 ], [ 79.12672, 27.00225 ], [ 79.12736, 27.00111 ], [ 79.13022, 27.00037 ], [ 79.13132, 26.99779 ], [ 79.12495, 26.99411 ], [ 79.12063, 26.99533 ], [ 79.12069, 26.99638 ], [ 79.11708, 27.00038 ], [ 79.1125, 26.99345 ], [ 79.11153, 26.99342 ], [ 79.1088, 26.99425 ], [ 79.1055, 26.99677 ], [ 79.1023, 26.99623 ], [ 79.09447, 26.99999 ], [ 79.09299, 26.99946 ], [ 79.09404, 26.99398 ], [ 79.09777, 26.98907 ], [ 79.09888, 26.98366 ], [ 79.09658, 26.98175 ], [ 79.09089, 26.98043 ], [ 79.08671, 26.97675 ], [ 79.08429, 26.97843 ], [ 79.08431, 26.98198 ], [ 79.0833, 26.98428 ], [ 79.07944, 26.98901 ], [ 79.07659, 26.99118 ], [ 79.07375, 26.98907 ], [ 79.06665, 26.98788 ], [ 79.06399, 26.98843 ], [ 79.06058, 26.9855 ], [ 79.05999, 26.98586 ], [ 79.05582, 26.98307 ], [ 79.05175, 26.98162 ], [ 79.05078, 26.977 ], [ 79.04923, 26.97526 ], [ 79.04936, 26.97396 ], [ 79.05033, 26.97346 ], [ 79.04953, 26.97317 ], [ 79.04966, 26.97192 ], [ 79.04794, 26.9708 ], [ 79.04511, 26.97215 ], [ 79.04239, 26.96796 ], [ 79.04116, 26.96825 ], [ 79.03941, 26.96639 ], [ 79.03806, 26.96731 ], [ 79.03464, 26.96726 ], [ 79.02776, 26.95582 ], [ 79.02508, 26.95267 ], [ 79.0172, 26.94771 ], [ 79.01515, 26.94764 ], [ 79.01152, 26.94514 ], [ 79.00948, 26.94892 ], [ 79.008, 26.94896 ], [ 79.00831, 26.95134 ], [ 79.00664, 26.95347 ], [ 79.00297, 26.95614 ], [ 78.99947, 26.95745 ], [ 78.99989, 26.96138 ], [ 79.00335, 26.96869 ], [ 79.00096, 26.97229 ], [ 78.99612, 26.97484 ], [ 78.99519, 26.97671 ], [ 78.99225, 26.97791 ], [ 78.99123, 26.9802 ], [ 78.98835, 26.97615 ], [ 78.97793, 26.97798 ], [ 78.97629, 26.97684 ], [ 78.96437, 26.98297 ], [ 78.96145, 26.97957 ], [ 78.96755, 26.97467 ], [ 78.97046, 26.96955 ], [ 78.96328, 26.9702 ], [ 78.95992, 26.96865 ], [ 78.9591, 26.96734 ], [ 78.95429, 26.96862 ], [ 78.9517, 26.97099 ], [ 78.95128, 26.97244 ], [ 78.94684, 26.97373 ], [ 78.94514, 26.97233 ], [ 78.94563, 26.97159 ], [ 78.94435, 26.96925 ], [ 78.94209, 26.96985 ], [ 78.93871, 26.97221 ], [ 78.93638, 26.97217 ], [ 78.93529, 26.98047 ], [ 78.9312, 26.98285 ], [ 78.9278, 26.98313 ], [ 78.92727, 26.98233 ], [ 78.92695, 26.98361 ], [ 78.92443, 26.98483 ], [ 78.92352, 26.98335 ], [ 78.92603, 26.98216 ], [ 78.91904, 26.97401 ], [ 78.92107, 26.97109 ], [ 78.92181, 26.97121 ], [ 78.92544, 26.96824 ], [ 78.92181, 26.9625 ], [ 78.91992, 26.96434 ], [ 78.91824, 26.96264 ], [ 78.91684, 26.96297 ], [ 78.91466, 26.96175 ], [ 78.90963, 26.96552 ], [ 78.9073, 26.96394 ], [ 78.90543, 26.96524 ], [ 78.89899, 26.96623 ], [ 78.89657, 26.96769 ], [ 78.89504, 26.96622 ], [ 78.89239, 26.96657 ], [ 78.8864, 26.96244 ], [ 78.88402, 26.96348 ], [ 78.88193, 26.9623 ], [ 78.88106, 26.96299 ], [ 78.8787, 26.9625 ], [ 78.87579, 26.96084 ], [ 78.87204, 26.96132 ], [ 78.86914, 26.95894 ], [ 78.86708, 26.95841 ], [ 78.86417, 26.95989 ], [ 78.8621, 26.96321 ], [ 78.85789, 26.96537 ], [ 78.85536, 26.97008 ], [ 78.85565, 26.97075 ], [ 78.85309, 26.97231 ], [ 78.85236, 26.97122 ], [ 78.85278, 26.97031 ], [ 78.85117, 26.96838 ], [ 78.84814, 26.96757 ], [ 78.84723, 26.96695 ], [ 78.84791, 26.96635 ], [ 78.84667, 26.96547 ], [ 78.84479, 26.9665 ], [ 78.84503, 26.96477 ], [ 78.84158, 26.96346 ], [ 78.84139, 26.96396 ], [ 78.83952, 26.96201 ], [ 78.83939, 26.96046 ], [ 78.83654, 26.9594 ], [ 78.83749, 26.95851 ], [ 78.83805, 26.9591 ], [ 78.83907, 26.9585 ], [ 78.83848, 26.95632 ], [ 78.8406, 26.95479 ], [ 78.84111, 26.95327 ], [ 78.83839, 26.95342 ], [ 78.8352, 26.95026 ], [ 78.83177, 26.94904 ], [ 78.8282, 26.94902 ], [ 78.82434, 26.95209 ], [ 78.82192, 26.95259 ], [ 78.82073, 26.95416 ], [ 78.8201, 26.95349 ], [ 78.81793, 26.95434 ], [ 78.8147, 26.95401 ], [ 78.80974, 26.95755 ], [ 78.81006, 26.95818 ], [ 78.80827, 26.9605 ], [ 78.80911, 26.96136 ], [ 78.80581, 26.96552 ], [ 78.80263, 26.96779 ], [ 78.81627, 26.98105 ], [ 78.81858, 26.98439 ], [ 78.81724, 26.98524 ], [ 78.81828, 26.98689 ], [ 78.81736, 26.98744 ], [ 78.81771, 26.98845 ], [ 78.81233, 26.99243 ], [ 78.80663, 26.98789 ], [ 78.80553, 26.98586 ], [ 78.806, 26.98517 ], [ 78.80528, 26.98396 ], [ 78.80587, 26.98335 ], [ 78.80397, 26.98072 ], [ 78.79621, 26.98499 ], [ 78.79409, 26.98707 ], [ 78.79648, 26.99036 ], [ 78.79099, 26.99548 ], [ 78.78817, 26.99647 ], [ 78.78169, 27.00276 ], [ 78.78379, 27.00594 ], [ 78.78175, 27.00817 ], [ 78.79388, 27.01417 ], [ 78.79345, 27.01631 ], [ 78.79169, 27.01884 ], [ 78.78751, 27.01944 ], [ 78.78193, 27.02484 ], [ 78.778, 27.0237 ], [ 78.77638, 27.02202 ], [ 78.77326, 27.02906 ], [ 78.77328, 27.03087 ], [ 78.77441, 27.03252 ], [ 78.7828, 27.03971 ], [ 78.78669, 27.03818 ], [ 78.78769, 27.03885 ], [ 78.78716, 27.04056 ], [ 78.78837, 27.04224 ], [ 78.78635, 27.04386 ], [ 78.78095, 27.0459 ], [ 78.77971, 27.04547 ], [ 78.77768, 27.04623 ], [ 78.77257, 27.04484 ], [ 78.77123, 27.04751 ], [ 78.76428, 27.0518 ], [ 78.7643, 27.05319 ], [ 78.77023, 27.05501 ], [ 78.77632, 27.06073 ], [ 78.77079, 27.06353 ], [ 78.76949, 27.06301 ], [ 78.76824, 27.065 ], [ 78.76635, 27.06581 ], [ 78.76981, 27.07254 ], [ 78.77266, 27.08072 ], [ 78.77146, 27.08196 ], [ 78.7702, 27.08136 ], [ 78.76761, 27.08304 ], [ 78.76931, 27.08421 ], [ 78.77181, 27.08364 ], [ 78.77379, 27.08489 ], [ 78.77434, 27.08829 ], [ 78.77627, 27.09028 ], [ 78.7766, 27.09458 ], [ 78.77298, 27.10101 ], [ 78.76958, 27.10356 ], [ 78.76831, 27.10315 ], [ 78.76788, 27.10431 ], [ 78.7649, 27.10589 ], [ 78.76779, 27.10955 ], [ 78.77296, 27.11406 ], [ 78.77504, 27.1113 ], [ 78.77632, 27.1115 ], [ 78.77899, 27.11017 ], [ 78.78162, 27.10684 ], [ 78.78295, 27.10728 ], [ 78.78743, 27.10535 ], [ 78.78794, 27.10316 ], [ 78.79036, 27.10057 ], [ 78.79406, 27.09833 ], [ 78.80064, 27.10084 ], [ 78.80759, 27.09703 ], [ 78.80843, 27.0975 ], [ 78.81345, 27.09401 ], [ 78.81524, 27.09563 ], [ 78.81719, 27.09362 ], [ 78.81993, 27.09594 ], [ 78.82183, 27.10001 ], [ 78.82328, 27.09569 ], [ 78.831, 27.09165 ], [ 78.83518, 27.09158 ], [ 78.83733, 27.09291 ], [ 78.838, 27.09424 ], [ 78.83802, 27.09335 ], [ 78.84102, 27.09242 ], [ 78.84585, 27.08777 ], [ 78.84844, 27.08951 ], [ 78.85037, 27.0882 ], [ 78.85694, 27.08656 ], [ 78.86384, 27.08286 ], [ 78.86472, 27.08306 ], [ 78.86626, 27.08564 ], [ 78.86814, 27.08649 ], [ 78.87571, 27.08329 ], [ 78.8785, 27.08526 ], [ 78.87835, 27.0871 ], [ 78.87599, 27.08759 ], [ 78.8769, 27.09025 ], [ 78.87489, 27.09035 ], [ 78.87501, 27.09218 ], [ 78.87289, 27.09184 ], [ 78.87221, 27.09364 ], [ 78.8736, 27.09513 ], [ 78.87857, 27.09634 ], [ 78.88568, 27.09619 ], [ 78.88769, 27.09733 ], [ 78.89337, 27.0935 ], [ 78.89717, 27.09545 ], [ 78.90663, 27.09641 ], [ 78.91181, 27.09875 ], [ 78.91618, 27.1051 ], [ 78.9165, 27.10687 ], [ 78.92497, 27.1127 ], [ 78.92796, 27.11232 ], [ 78.93225, 27.11364 ], [ 78.93975, 27.10934 ], [ 78.94271, 27.10906 ], [ 78.94425, 27.10955 ], [ 78.94655, 27.122 ] ] ] } },
{ "type": "Feature", "properties": { "OBJECTID": 2578, "state_lgd": "09", "state_name": "UTTAR PRADESH", "district_lgd": "148", "district_name": "MAINPURI", "district_name_source": "district_table", "subdistrict_lgd": "6286", "subdistrict_name": "KISHNI", "subdistrict_type": "Tehsil", "name_corrupted": false, "remarks": "", "label_lon": 79.275714172713066, "label_lat": 27.059600755620238 }, "geometry": { "type": "Polygon", "coordinates": [ [ [ 79.26155, 27.18238 ], [ 79.26798, 27.17659 ], [ 79.27027, 27.17976 ], [ 79.27257, 27.17555 ], [ 79.27492, 27.17441 ], [ 79.27936, 27.17472 ], [ 79.27822, 27.17328 ], [ 79.27953, 27.17229 ], [ 79.28059, 27.17332 ], [ 79.28475, 27.17149 ], [ 79.28524, 27.16769 ], [ 79.28414, 27.16545 ], [ 79.28714, 27.16305 ], [ 79.28638, 27.16231 ], [ 79.29397, 27.15901 ], [ 79.29706, 27.15995 ], [ 79.29903, 27.1581 ], [ 79.29947, 27.15874 ], [ 79.30155, 27.15675 ], [ 79.30106, 27.15626 ], [ 79.30981, 27.14928 ], [ 79.31119, 27.14997 ], [ 79.31728, 27.15009 ], [ 79.32539, 27.1527 ], [ 79.32896, 27.1516 ], [ 79.33616, 27.1452 ], [ 79.33906, 27.1438 ], [ 79.33773, 27.14178 ], [ 79.33963, 27.14262 ], [ 79.34058, 27.14194 ], [ 79.33722, 27.13905 ], [ 79.33742, 27.13747 ], [ 79.3447, 27.13243 ], [ 79.34284, 27.12965 ], [ 79.33903, 27.13056 ], [ 79.33649, 27.1283 ], [ 79.33352, 27.12369 ], [ 79.33565, 27.12186 ], [ 79.34048, 27.11975 ], [ 79.34201, 27.11751 ], [ 79.34549, 27.11813 ], [ 79.34696, 27.11758 ], [ 79.35074, 27.1192 ], [ 79.35105, 27.12029 ], [ 79.35777, 27.12462 ], [ 79.36462, 27.12 ], [ 79.36445, 27.11751 ], [ 79.36607, 27.11435 ], [ 79.36793, 27.1137 ], [ 79.37017, 27.1107 ], [ 79.37506, 27.11316 ], [ 79.38086, 27.11107 ], [ 79.3828, 27.10729 ], [ 79.38702, 27.11266 ], [ 79.3857, 27.1137 ], [ 79.38874, 27.11476 ], [ 79.39197, 27.11733 ], [ 79.39409, 27.11663 ], [ 79.39211, 27.11078 ], [ 79.39049, 27.10896 ], [ 79.39185, 27.10765 ], [ 79.39113, 27.10508 ], [ 79.39214, 27.1047 ], [ 79.39128, 27.10255 ], [ 79.39169, 27.10151 ], [ 79.38996, 27.10044 ], [ 79.3952, 27.09686 ], [ 79.39643, 27.09503 ], [ 79.40549, 27.09751 ], [ 79.4094, 27.09759 ], [ 79.42019, 27.0941 ], [ 79.42223, 27.09532 ], [ 79.42205, 27.09693 ], [ 79.42672, 27.09867 ], [ 79.43686, 27.09435 ], [ 79.43564, 27.09072 ], [ 79.43166, 27.08723 ], [ 79.43147, 27.08609 ], [ 79.43265, 27.08514 ], [ 79.42842, 27.08244 ], [ 79.42772, 27.08124 ], [ 79.429, 27.08068 ], [ 79.42628, 27.07713 ], [ 79.42962, 27.07414 ], [ 79.43315, 27.06875 ], [ 79.43253, 27.0678 ], [ 79.43107, 27.06863 ], [ 79.43042, 27.06819 ], [ 79.43106, 27.06526 ], [ 79.42616, 27.06456 ], [ 79.42379, 27.06081 ], [ 79.42116, 27.0589 ], [ 79.41893, 27.05904 ], [ 79.41711, 27.06087 ], [ 79.41442, 27.05933 ], [ 79.41242, 27.06078 ], [ 79.40921, 27.05864 ], [ 79.40965, 27.05706 ], [ 79.40868, 27.0555 ], [ 79.40702, 27.05583 ], [ 79.4056, 27.05736 ], [ 79.40283, 27.05686 ], [ 79.40104, 27.05543 ], [ 79.40225, 27.05476 ], [ 79.401, 27.05413 ], [ 79.40183, 27.05335 ], [ 79.40045, 27.05185 ], [ 79.39848, 27.04569 ], [ 79.39741, 27.04466 ], [ 79.39607, 27.04507 ], [ 79.39605, 27.04387 ], [ 79.39736, 27.04358 ], [ 79.39778, 27.04052 ], [ 79.40206, 27.03826 ], [ 79.39906, 27.03157 ], [ 79.39371, 27.02663 ], [ 79.38861, 27.01959 ], [ 79.38556, 27.00997 ], [ 79.38351, 27.00659 ], [ 79.38062, 27.00401 ], [ 79.38101, 26.99988 ], [ 79.3829, 26.99713 ], [ 79.38191, 26.99314 ], [ 79.38251, 26.9906 ], [ 79.38142, 26.98791 ], [ 79.37515, 26.9819 ], [ 79.37094, 26.98062 ], [ 79.3715, 26.97816 ], [ 79.36918, 26.97534 ], [ 79.35797, 26.96746 ], [ 79.35795, 26.96646 ], [ 79.35506, 26.9654 ], [ 79.35573, 26.96186 ], [ 79.35509, 26.95833 ], [ 79.3435, 26.96235 ], [ 79.33559, 26.95913 ], [ 79.32497, 26.96037 ], [ 79.31887, 26.96517 ], [ 79.31988, 26.96811 ], [ 79.31953, 26.97095 ], [ 79.32244, 26.97277 ], [ 79.31678, 26.97528 ], [ 79.3173, 26.97754 ], [ 79.30746, 26.98143 ], [ 79.30293, 26.98484 ], [ 79.30179, 26.98304 ], [ 79.29994, 26.98402 ], [ 79.29795, 26.98306 ], [ 79.29403, 26.97832 ], [ 79.29306, 26.97935 ], [ 79.28947, 26.97967 ], [ 79.28955, 26.98078 ], [ 79.28755, 26.98178 ], [ 79.28753, 26.98405 ], [ 79.28513, 26.98578 ], [ 79.28397, 26.9857 ], [ 79.28318, 26.98361 ], [ 79.27763, 26.985 ], [ 79.27585, 26.98396 ], [ 79.27444, 26.9842 ], [ 79.27388, 26.98656 ], [ 79.27246, 26.9875 ], [ 79.27347, 26.98979 ], [ 79.27131, 26.99003 ], [ 79.26938, 26.98963 ], [ 79.26656, 26.98446 ], [ 79.25677, 26.98167 ], [ 79.25549, 26.97963 ], [ 79.24824, 26.98413 ], [ 79.24225, 26.9809 ], [ 79.24017, 26.98164 ], [ 79.2333, 26.9755 ], [ 79.23117, 26.97643 ], [ 79.22569, 26.97532 ], [ 79.2172, 26.97108 ], [ 79.21358, 26.97245 ], [ 79.21103, 26.9701 ], [ 79.20901, 26.97007 ], [ 79.20601, 26.97238 ], [ 79.20351, 26.9722 ], [ 79.19469, 26.97826 ], [ 79.19461, 26.98207 ], [ 79.19327, 26.98582 ], [ 79.19468, 26.98729 ], [ 79.19467, 26.99719 ], [ 79.19135, 27.00145 ], [ 79.18892, 27.00193 ], [ 79.18324, 27.00528 ], [ 79.17801, 27.00645 ], [ 79.16957, 27.00542 ], [ 79.1672, 27.0062 ], [ 79.1664, 27.00418 ], [ 79.16391, 27.00153 ], [ 79.16327, 26.99986 ], [ 79.16424, 26.99834 ], [ 79.16375, 26.99749 ], [ 79.16172, 26.9984 ], [ 79.16065, 26.99747 ], [ 79.15882, 26.9992 ], [ 79.15767, 26.99923 ], [ 79.15305, 26.99802 ], [ 79.15012, 26.99904 ], [ 79.14644, 26.99751 ], [ 79.13456, 27.00118 ], [ 79.13132, 26.99779 ], [ 79.13022, 27.00037 ], [ 79.12736, 27.00111 ], [ 79.12672, 27.00225 ], [ 79.12498, 27.00197 ], [ 79.12262, 27.0037 ], [ 79.12168, 27.00321 ], [ 79.12123, 27.00495 ], [ 79.11535, 27.00792 ], [ 79.12154, 27.01485 ], [ 79.12257, 27.02105 ], [ 79.12244, 27.02455 ], [ 79.11948, 27.02564 ], [ 79.1105, 27.03483 ], [ 79.11393, 27.04957 ], [ 79.12432, 27.05821 ], [ 79.12902, 27.05547 ], [ 79.13209, 27.05667 ], [ 79.13297, 27.06083 ], [ 79.13755, 27.06688 ], [ 79.13856, 27.07152 ], [ 79.1455, 27.07218 ], [ 79.14753, 27.07456 ], [ 79.14921, 27.07496 ], [ 79.15148, 27.07723 ], [ 79.15279, 27.08128 ], [ 79.15435, 27.08282 ], [ 79.16348, 27.08341 ], [ 79.16575, 27.08534 ], [ 79.17182, 27.08616 ], [ 79.17607, 27.08861 ], [ 79.17916, 27.08827 ], [ 79.18412, 27.0964 ], [ 79.19189, 27.09326 ], [ 79.1926, 27.09772 ], [ 79.19137, 27.10075 ], [ 79.19466, 27.10865 ], [ 79.20305, 27.1084 ], [ 79.20842, 27.11083 ], [ 79.21091, 27.11446 ], [ 79.21105, 27.11943 ], [ 79.2122, 27.12229 ], [ 79.21195, 27.12601 ], [ 79.21624, 27.12862 ], [ 79.21457, 27.13545 ], [ 79.21162, 27.14095 ], [ 79.21353, 27.14114 ], [ 79.21477, 27.14597 ], [ 79.21564, 27.14636 ], [ 79.21746, 27.14535 ], [ 79.21946, 27.14599 ], [ 79.22156, 27.14726 ], [ 79.22516, 27.15139 ], [ 79.22834, 27.15257 ], [ 79.23261, 27.15551 ], [ 79.2357, 27.15959 ], [ 79.23514, 27.16278 ], [ 79.23611, 27.16416 ], [ 79.23835, 27.16574 ], [ 79.24026, 27.166 ], [ 79.24155, 27.16808 ], [ 79.2429, 27.16752 ], [ 79.24723, 27.17004 ], [ 79.25024, 27.1739 ], [ 79.25214, 27.17791 ], [ 79.26155, 27.18238 ] ] ] } },
{ "type": "Feature", "properties": { "OBJECTID": 2584, "state_lgd": "09", "state_name": "UTTAR PRADESH", "district_lgd": "148", "district_name": "MAINPURI", "district_name_source": "district_table", "subdistrict_lgd": "6287", "subdistrict_name": "KURAWALI", "subdistrict_type": "Tehsil", "name_corrupted": false, "remarks": "", "label_lon": 78.970262775715213, "label_lat": 27.388245631737558 }, "geometry": { "type": "Polygon", "coordinates": [ [ [ 78.89039, 27.47084 ], [ 78.89361, 27.47106 ], [ 78.89464, 27.46983 ], [ 78.8962, 27.47051 ], [ 78.9012, 27.46746 ], [ 78.90366, 27.46691 ], [ 78.90367, 27.46623 ], [ 78.90272, 27.4662 ], [ 78.90708, 27.46067 ], [ 78.90787, 27.46024 ], [ 78.90919, 27.46098 ], [ 78.91048, 27.45969 ], [ 78.90821, 27.45855 ], [ 78.90929, 27.45645 ], [ 78.91184, 27.45783 ], [ 78.91337, 27.4577 ], [ 78.91838, 27.45341 ], [ 78.92195, 27.45322 ], [ 78.92601, 27.44602 ], [ 78.92703, 27.44615 ], [ 78.92999, 27.4496 ], [ 78.93471, 27.45278 ], [ 78.93948, 27.45106 ], [ 78.94062, 27.44961 ], [ 78.94026, 27.44878 ], [ 78.93578, 27.44758 ], [ 78.93715, 27.4465 ], [ 78.93662, 27.44412 ], [ 78.93771, 27.44233 ], [ 78.93572, 27.43746 ], [ 78.93676, 27.43682 ], [ 78.94005, 27.43743 ], [ 78.94084, 27.43626 ], [ 78.93899, 27.43365 ], [ 78.93868, 27.43169 ], [ 78.94063, 27.4304 ], [ 78.94281, 27.43036 ], [ 78.94322, 27.42844 ], [ 78.9455, 27.42831 ], [ 78.94855, 27.42655 ], [ 78.9514, 27.42818 ], [ 78.95211, 27.42635 ], [ 78.95497, 27.4296 ], [ 78.95823, 27.42989 ], [ 78.95905, 27.4289 ], [ 78.95851, 27.42492 ], [ 78.95768, 27.42359 ], [ 78.95655, 27.42361 ], [ 78.95602, 27.42218 ], [ 78.95716, 27.42006 ], [ 78.95958, 27.41864 ], [ 78.96207, 27.4184 ], [ 78.96296, 27.42048 ], [ 78.9662, 27.4213 ], [ 78.96813, 27.42329 ], [ 78.97091, 27.42077 ], [ 78.97254, 27.4175 ], [ 78.97543, 27.4179 ], [ 78.9747, 27.42038 ], [ 78.97676, 27.42231 ], [ 78.97552, 27.42436 ], [ 78.97684, 27.42765 ], [ 78.9819, 27.4281 ], [ 78.98449, 27.42947 ], [ 78.99398, 27.42446 ], [ 78.99456, 27.42245 ], [ 78.98967, 27.42171 ], [ 78.99351, 27.4209 ], [ 78.99567, 27.4223 ], [ 78.99893, 27.4263 ], [ 78.99718, 27.43054 ], [ 78.99855, 27.43247 ], [ 79.00096, 27.4322 ], [ 79.00401, 27.42985 ], [ 79.00945, 27.42817 ], [ 79.01214, 27.43011 ], [ 79.01632, 27.42798 ], [ 79.02002, 27.42748 ], [ 79.02656, 27.42824 ], [ 79.02966, 27.42992 ], [ 79.0319, 27.42808 ], [ 79.03558, 27.42993 ], [ 79.0451, 27.42475 ], [ 79.04856, 27.42499 ], [ 79.05658, 27.42042 ], [ 79.05784, 27.4216 ], [ 79.05775, 27.42286 ], [ 79.06159, 27.42266 ], [ 79.06133, 27.41973 ], [ 79.06305, 27.41799 ], [ 79.06575, 27.41957 ], [ 79.06928, 27.41768 ], [ 79.07152, 27.41899 ], [ 79.07198, 27.42094 ], [ 79.07819, 27.42277 ], [ 79.09349, 27.42932 ], [ 79.09947, 27.4304 ], [ 79.10102, 27.43199 ], [ 79.10676, 27.43479 ], [ 79.10774, 27.43337 ], [ 79.10558, 27.43191 ], [ 79.10584, 27.43067 ], [ 79.10877, 27.4272 ], [ 79.11174, 27.42629 ], [ 79.10967, 27.42244 ], [ 79.10967, 27.41873 ], [ 79.11186, 27.41706 ], [ 79.11747, 27.41769 ], [ 79.11864, 27.41288 ], [ 79.11714, 27.41106 ], [ 79.11524, 27.41324 ], [ 79.11416, 27.41234 ], [ 79.114, 27.40869 ], [ 79.1152, 27.40615 ], [ 79.11821, 27.40745 ], [ 79.12018, 27.40551 ], [ 79.1232, 27.40548 ], [ 79.12815, 27.40247 ], [ 79.12934, 27.40415 ], [ 79.13259, 27.40356 ], [ 79.13377, 27.40173 ], [ 79.13545, 27.40359 ], [ 79.13666, 27.40194 ], [ 79.13733, 27.39744 ], [ 79.1381, 27.39703 ], [ 79.14072, 27.3984 ], [ 79.14105, 27.39689 ], [ 79.13819, 27.39543 ], [ 79.13846, 27.39126 ], [ 79.13017, 27.39426 ], [ 79.1257, 27.39316 ], [ 79.11798, 27.38892 ], [ 79.12028, 27.38559 ], [ 79.11136, 27.38005 ], [ 79.10944, 27.3813 ], [ 79.10704, 27.37959 ], [ 79.0959, 27.36757 ], [ 79.09807, 27.36459 ], [ 79.09878, 27.36496 ], [ 79.10206, 27.36264 ], [ 79.09989, 27.36003 ], [ 79.09703, 27.35782 ], [ 79.09297, 27.3561 ], [ 79.09039, 27.3567 ], [ 79.0889, 27.3532 ], [ 79.08489, 27.35039 ], [ 79.08453, 27.34849 ], [ 79.08047, 27.34847 ], [ 79.07362, 27.3445 ], [ 79.0714, 27.34071 ], [ 79.07091, 27.33749 ], [ 79.07383, 27.33468 ], [ 79.07385, 27.33074 ], [ 79.07444, 27.32896 ], [ 79.07647, 27.32731 ], [ 79.076, 27.3267 ], [ 79.07717, 27.32469 ], [ 79.0774, 27.32234 ], [ 79.06601, 27.32513 ], [ 79.06244, 27.32292 ], [ 79.05984, 27.32455 ], [ 79.04793, 27.32846 ], [ 79.048, 27.33006 ], [ 79.04605, 27.3304 ], [ 79.04481, 27.33317 ], [ 79.03722, 27.33195 ], [ 79.03465, 27.33646 ], [ 79.03308, 27.33715 ], [ 79.03341, 27.33991 ], [ 79.03281, 27.34061 ], [ 79.02893, 27.34063 ], [ 79.02536, 27.33952 ], [ 79.01758, 27.34126 ], [ 79.01178, 27.33207 ], [ 78.99799, 27.33052 ], [ 78.99498, 27.32855 ], [ 78.99032, 27.33593 ], [ 78.99112, 27.33776 ], [ 78.99009, 27.34146 ], [ 78.98695, 27.34458 ], [ 78.98449, 27.34915 ], [ 78.98556, 27.35092 ], [ 78.97616, 27.35322 ], [ 78.97002, 27.35809 ], [ 78.96662, 27.3578 ], [ 78.96283, 27.3619 ], [ 78.96209, 27.36427 ], [ 78.96346, 27.36582 ], [ 78.96325, 27.36783 ], [ 78.96142, 27.3693 ], [ 78.95985, 27.36861 ], [ 78.96029, 27.36657 ], [ 78.95791, 27.36514 ], [ 78.95589, 27.36039 ], [ 78.95396, 27.36088 ], [ 78.95342, 27.35978 ], [ 78.95038, 27.35903 ], [ 78.95039, 27.35721 ], [ 78.94748, 27.35679 ], [ 78.9445, 27.35452 ], [ 78.94442, 27.35289 ], [ 78.94354, 27.35254 ], [ 78.94421, 27.34886 ], [ 78.94254, 27.34563 ], [ 78.93396, 27.3451 ], [ 78.93091, 27.34074 ], [ 78.92812, 27.34132 ], [ 78.9246, 27.3372 ], [ 78.91381, 27.3419 ], [ 78.91184, 27.33678 ], [ 78.91153, 27.33368 ], [ 78.90748, 27.33698 ], [ 78.90244, 27.34347 ], [ 78.89906, 27.34387 ], [ 78.89218, 27.34064 ], [ 78.88927, 27.33613 ], [ 78.88607, 27.3336 ], [ 78.88696, 27.33323 ], [ 78.88407, 27.3296 ], [ 78.87843, 27.32912 ], [ 78.87606, 27.33119 ], [ 78.87368, 27.33159 ], [ 78.87146, 27.32963 ], [ 78.86379, 27.32792 ], [ 78.85958, 27.33006 ], [ 78.8555, 27.33444 ], [ 78.85256, 27.33611 ], [ 78.85027, 27.33619 ], [ 78.85001, 27.33767 ], [ 78.84692, 27.34097 ], [ 78.84153, 27.34406 ], [ 78.83799, 27.35032 ], [ 78.83119, 27.35344 ], [ 78.82933, 27.35521 ], [ 78.82758, 27.35514 ], [ 78.82976, 27.35875 ], [ 78.83543, 27.36259 ], [ 78.83526, 27.36531 ], [ 78.84438, 27.37399 ], [ 78.84535, 27.37716 ], [ 78.85129, 27.38553 ], [ 78.85444, 27.39231 ], [ 78.85288, 27.39235 ], [ 78.85162, 27.39456 ], [ 78.84546, 27.39765 ], [ 78.84285, 27.40047 ], [ 78.83952, 27.39843 ], [ 78.84093, 27.40526 ], [ 78.83788, 27.41055 ], [ 78.85161, 27.4176 ], [ 78.85271, 27.41986 ], [ 78.86162, 27.42701 ], [ 78.86065, 27.42939 ], [ 78.86311, 27.43253 ], [ 78.86418, 27.43225 ], [ 78.86586, 27.43661 ], [ 78.86738, 27.43727 ], [ 78.86775, 27.43842 ], [ 78.87154, 27.43745 ], [ 78.87225, 27.44036 ], [ 78.87156, 27.44503 ], [ 78.87463, 27.44824 ], [ 78.87604, 27.45122 ], [ 78.88072, 27.45564 ], [ 78.8846, 27.45546 ], [ 78.88586, 27.45636 ], [ 78.88585, 27.45753 ], [ 78.88351, 27.45888 ], [ 78.88246, 27.46249 ], [ 78.88672, 27.4664 ], [ 78.88538, 27.46795 ], [ 78.88702, 27.46984 ], [ 78.88559, 27.47247 ], [ 78.8867, 27.47337 ], [ 78.88935, 27.47309 ], [ 78.89021, 27.47266 ], [ 78.89039, 27.47084 ] ] ] } },
{ "type": "Feature", "properties": { "OBJECTID": 2606, "state_lgd": "09", "state_name": "UTTAR PRADESH", "district_lgd": "148", "district_name": "MAINPURI", "district_name_source": "district_table", "subdistrict_lgd": "775", "subdistrict_name": "MAINPURI", "subdistrict_type": "Tehsil", "name_corrupted": false, "remarks": "", "label_lon": 78.972363209119564, "label_lat": 27.227513374880843 }, "geometry": { "type": "Polygon", "coordinates": [ [ [ 78.96212, 27.3636 ], [ 78.96662, 27.3578 ], [ 78.97002, 27.35809 ], [ 78.97616, 27.35322 ], [ 78.98556, 27.35092 ], [ 78.98449, 27.34915 ], [ 78.98695, 27.34458 ], [ 78.99009, 27.34146 ], [ 78.99112, 27.33776 ], [ 78.99032, 27.33593 ], [ 78.99498, 27.32855 ], [ 78.99799, 27.33052 ], [ 79.01178, 27.33207 ], [ 79.01758, 27.34126 ], [ 79.02536, 27.33952 ], [ 79.02893, 27.34063 ], [ 79.03281, 27.34061 ], [ 79.03341, 27.33991 ], [ 79.03308, 27.33715 ], [ 79.03465, 27.33646 ], [ 79.03722, 27.33195 ], [ 79.0412, 27.33224 ], [ 79.04221, 27.33323 ], [ 79.04498, 27.33312 ], [ 79.04605, 27.3304 ], [ 79.048, 27.33006 ], [ 79.04793, 27.32846 ], [ 79.05984, 27.32455 ], [ 79.06244, 27.32292 ], [ 79.06037, 27.31462 ], [ 79.05616, 27.31081 ], [ 79.05486, 27.3072 ], [ 79.053, 27.30544 ], [ 79.05899, 27.29491 ], [ 79.06785, 27.29181 ], [ 79.07208, 27.28946 ], [ 79.07822, 27.28865 ], [ 79.08031, 27.28591 ], [ 79.07909, 27.28188 ], [ 79.07429, 27.2758 ], [ 79.0786, 27.27057 ], [ 79.07955, 27.26768 ], [ 79.07691, 27.26499 ], [ 79.07802, 27.26103 ], [ 79.08089, 27.26098 ], [ 79.08374, 27.25912 ], [ 79.08307, 27.2538 ], [ 79.08171, 27.25111 ], [ 79.08462, 27.24855 ], [ 79.08143, 27.24456 ], [ 79.0824, 27.24342 ], [ 79.08074, 27.2422 ], [ 79.08153, 27.24088 ], [ 79.08038, 27.23979 ], [ 79.07016, 27.23609 ], [ 79.06799, 27.23415 ], [ 79.06641, 27.23512 ], [ 79.06652, 27.2369 ], [ 79.06397, 27.23516 ], [ 79.06155, 27.23662 ], [ 79.06297, 27.23478 ], [ 79.06253, 27.23372 ], [ 79.06427, 27.22923 ], [ 79.06203, 27.22752 ], [ 79.06454, 27.22638 ], [ 79.06676, 27.22178 ], [ 79.06706, 27.22009 ], [ 79.06618, 27.21714 ], [ 79.06274, 27.21326 ], [ 79.056, 27.20187 ], [ 79.05242, 27.19998 ], [ 79.04816, 27.19912 ], [ 79.04739, 27.19448 ], [ 79.04307, 27.19244 ], [ 79.03717, 27.18513 ], [ 79.05114, 27.17468 ], [ 79.05793, 27.17311 ], [ 79.05864, 27.17214 ], [ 79.05545, 27.1649 ], [ 79.05701, 27.16126 ], [ 79.05523, 27.15913 ], [ 79.05875, 27.1572 ], [ 79.05583, 27.15265 ], [ 79.05486, 27.14963 ], [ 79.06418, 27.14223 ], [ 79.06534, 27.14215 ], [ 79.06727, 27.14426 ], [ 79.0733, 27.14045 ], [ 79.07554, 27.14064 ], [ 79.08317, 27.13664 ], [ 79.07911, 27.1307 ], [ 79.07307, 27.12389 ], [ 79.07188, 27.12432 ], [ 79.07167, 27.12216 ], [ 79.0701, 27.12115 ], [ 79.06697, 27.12765 ], [ 79.0648, 27.12764 ], [ 79.0617, 27.12604 ], [ 79.05756, 27.12226 ], [ 79.06135, 27.11188 ], [ 79.05926, 27.11191 ], [ 79.0565, 27.1139 ], [ 79.0523, 27.1155 ], [ 79.04975, 27.11558 ], [ 79.04827, 27.11527 ], [ 79.04838, 27.11374 ], [ 79.04498, 27.1114 ], [ 79.04392, 27.11175 ], [ 79.04188, 27.11961 ], [ 79.03503, 27.12014 ], [ 79.0323, 27.11793 ], [ 79.02952, 27.11302 ], [ 79.03067, 27.11087 ], [ 79.02959, 27.10719 ], [ 79.0246, 27.10492 ], [ 79.01792, 27.10461 ], [ 79.01087, 27.09757 ], [ 79.01059, 27.09534 ], [ 79.00541, 27.0921 ], [ 79.00348, 27.09855 ], [ 79.00167, 27.09911 ], [ 79.00269, 27.1008 ], [ 78.99653, 27.10325 ], [ 78.99097, 27.09998 ], [ 78.98945, 27.09988 ], [ 78.97605, 27.10589 ], [ 78.97116, 27.10712 ], [ 78.97042, 27.10768 ], [ 78.97053, 27.10932 ], [ 78.96266, 27.11652 ], [ 78.9617, 27.11889 ], [ 78.95712, 27.11888 ], [ 78.94655, 27.122 ], [ 78.94425, 27.10955 ], [ 78.94089, 27.10887 ], [ 78.93225, 27.11364 ], [ 78.92796, 27.11232 ], [ 78.92497, 27.1127 ], [ 78.9165, 27.10687 ], [ 78.91618, 27.1051 ], [ 78.91181, 27.09875 ], [ 78.90663, 27.09641 ], [ 78.89624, 27.09522 ], [ 78.89337, 27.0935 ], [ 78.88913, 27.09651 ], [ 78.89315, 27.09862 ], [ 78.89754, 27.09969 ], [ 78.89909, 27.10352 ], [ 78.90642, 27.1057 ], [ 78.90737, 27.10726 ], [ 78.91087, 27.10945 ], [ 78.90955, 27.11324 ], [ 78.90773, 27.11488 ], [ 78.90669, 27.11719 ], [ 78.90302, 27.12128 ], [ 78.89944, 27.12301 ], [ 78.90067, 27.12668 ], [ 78.90247, 27.12801 ], [ 78.90369, 27.12688 ], [ 78.9044, 27.12748 ], [ 78.90053, 27.13139 ], [ 78.90167, 27.13385 ], [ 78.90158, 27.13612 ], [ 78.89329, 27.13738 ], [ 78.88963, 27.13292 ], [ 78.88816, 27.13253 ], [ 78.88572, 27.13273 ], [ 78.88269, 27.13652 ], [ 78.88354, 27.13898 ], [ 78.87944, 27.14277 ], [ 78.88162, 27.14586 ], [ 78.88021, 27.14716 ], [ 78.88009, 27.15066 ], [ 78.87813, 27.15223 ], [ 78.87532, 27.15252 ], [ 78.87481, 27.15448 ], [ 78.87305, 27.15539 ], [ 78.87161, 27.15769 ], [ 78.86912, 27.16403 ], [ 78.87371, 27.16828 ], [ 78.87345, 27.17297 ], [ 78.87549, 27.1751 ], [ 78.87582, 27.17657 ], [ 78.87401, 27.182 ], [ 78.86889, 27.18511 ], [ 78.87289, 27.18659 ], [ 78.87201, 27.18814 ], [ 78.87393, 27.18845 ], [ 78.88335, 27.18541 ], [ 78.88577, 27.18541 ], [ 78.88832, 27.18641 ], [ 78.89034, 27.18961 ], [ 78.89402, 27.19064 ], [ 78.89611, 27.19228 ], [ 78.90414, 27.19004 ], [ 78.90573, 27.19033 ], [ 78.90552, 27.19446 ], [ 78.90726, 27.19596 ], [ 78.91097, 27.20659 ], [ 78.90528, 27.21047 ], [ 78.90429, 27.21223 ], [ 78.89845, 27.21459 ], [ 78.89691, 27.21403 ], [ 78.86961, 27.22547 ], [ 78.86798, 27.22629 ], [ 78.8687, 27.22761 ], [ 78.86615, 27.23047 ], [ 78.85856, 27.23277 ], [ 78.86162, 27.24429 ], [ 78.86695, 27.24842 ], [ 78.86614, 27.25191 ], [ 78.86894, 27.25531 ], [ 78.8726, 27.25677 ], [ 78.87431, 27.25856 ], [ 78.87483, 27.25979 ], [ 78.87432, 27.26223 ], [ 78.87961, 27.27092 ], [ 78.8823, 27.27369 ], [ 78.88261, 27.27552 ], [ 78.88057, 27.28056 ], [ 78.88162, 27.28165 ], [ 78.88083, 27.28233 ], [ 78.88182, 27.28298 ], [ 78.87977, 27.28436 ], [ 78.88007, 27.28544 ], [ 78.88402, 27.28509 ], [ 78.89495, 27.2772 ], [ 78.90116, 27.27867 ], [ 78.89707, 27.28026 ], [ 78.8823, 27.29161 ], [ 78.88115, 27.29477 ], [ 78.88306, 27.29632 ], [ 78.88428, 27.29914 ], [ 78.87841, 27.30298 ], [ 78.8794, 27.30351 ], [ 78.88025, 27.3057 ], [ 78.8793, 27.30594 ], [ 78.87971, 27.30686 ], [ 78.87856, 27.3079 ], [ 78.87729, 27.31233 ], [ 78.87656, 27.31272 ], [ 78.87779, 27.31268 ], [ 78.87822, 27.31367 ], [ 78.8784, 27.31874 ], [ 78.88177, 27.32131 ], [ 78.87733, 27.32617 ], [ 78.8758, 27.32661 ], [ 78.87711, 27.32679 ], [ 78.87741, 27.32848 ], [ 78.87843, 27.32912 ], [ 78.88407, 27.3296 ], [ 78.88696, 27.33323 ], [ 78.88607, 27.3336 ], [ 78.88927, 27.33613 ], [ 78.89218, 27.34064 ], [ 78.89906, 27.34387 ], [ 78.90244, 27.34347 ], [ 78.90748, 27.33698 ], [ 78.91153, 27.33368 ], [ 78.91184, 27.33678 ], [ 78.91381, 27.3419 ], [ 78.9246, 27.3372 ], [ 78.92812, 27.34132 ], [ 78.93091, 27.34074 ], [ 78.93396, 27.3451 ], [ 78.94254, 27.34563 ], [ 78.94421, 27.34886 ], [ 78.94354, 27.35254 ], [ 78.94442, 27.35289 ], [ 78.9445, 27.35452 ], [ 78.94748, 27.35679 ], [ 78.95039, 27.35721 ], [ 78.95038, 27.35903 ], [ 78.95342, 27.35978 ], [ 78.95396, 27.36088 ], [ 78.95589, 27.36039 ], [ 78.95791, 27.36514 ], [ 78.96029, 27.36657 ], [ 78.95985, 27.36861 ], [ 78.96049, 27.36926 ], [ 78.96325, 27.36783 ], [ 78.96346, 27.36582 ], [ 78.96212, 27.3636 ] ] ] } }
]
}
