{
"type": "FeatureCollection",
"name": "149_BUDAUN",
"crs": { "type": "name", "properties": { "name": "urn:ogc:def:crs:OGC:1.3:CRS84" } },
"xy_coordinate_resolution": 1e-05,
"features": [
{ "type": "Feature", "properties": { "OBJECTID": 2459, "state_lgd": "09", "state_name": "UTTAR PRADESH", "district_lgd": "149", "district_name": "BUDAUN", "district_name_source": "district_table", "subdistrict_lgd": "780", "subdistrict_name": "BILSI", "subdistrict_type": "Tehsil", "name_corrupted": false, "remarks": "", "label_lon": 78.873622616852032, "label_lat": 28.169476026948939 }, "geometry": { "type": "Polygon", "coordinates": [ [ [ 78.68536, 28.33079 ], [ 78.69026, 28.32832 ], [ 78.69438, 28.32951 ], [ 78.69852, 28.3252 ], [ 78.70182, 28.32384 ], [ 78.70987, 28.31828 ], [ 78.71158, 28.31873 ], [ 78.71264, 28.3174 ], [ 78.71517, 28.31724 ], [ 78.71605, 28.31871 ], [ 78.72196, 28.31723 ], [ 78.72456, 28.3158 ], [ 78.72671, 28.31856 ], [ 78.73219, 28.31495 ], [ 78.73129, 28.31388 ], [ 78.73244, 28.3127 ], [ 78.72928, 28.31003 ], [ 78.73747, 28.30395 ], [ 78.73843, 28.30229 ], [ 78.73771, 28.30173 ], [ 78.73793, 28.30069 ], [ 78.73895, 28.30025 ], [ 78.73582, 28.2949 ], [ 78.73699, 28.29292 ], [ 78.73637, 28.29261 ], [ 78.73802, 28.29083 ], [ 78.73771, 28.28884 ], [ 78.74014, 28.28778 ], [ 78.74192, 28.28799 ], [ 78.74528, 28.29219 ], [ 78.74623, 28.29634 ], [ 78.74776, 28.2983 ], [ 78.74989, 28.29923 ], [ 78.75142, 28.29726 ], [ 78.7578, 28.29347 ], [ 78.76168, 28.29453 ], [ 78.76553, 28.29697 ], [ 78.77048, 28.29403 ], [ 78.77629, 28.30056 ], [ 78.77788, 28.30015 ], [ 78.77946, 28.30136 ], [ 78.78268, 28.30045 ], [ 78.78459, 28.30461 ], [ 78.79042, 28.30861 ], [ 78.79227, 28.30715 ], [ 78.79111, 28.30528 ], [ 78.79329, 28.30158 ], [ 78.79417, 28.29684 ], [ 78.79574, 28.29602 ], [ 78.79564, 28.29458 ], [ 78.79806, 28.29272 ], [ 78.79761, 28.29181 ], [ 78.79857, 28.28937 ], [ 78.80321, 28.28665 ], [ 78.80595, 28.28721 ], [ 78.80647, 28.28785 ], [ 78.806, 28.28861 ], [ 78.80749, 28.28944 ], [ 78.81006, 28.28968 ], [ 78.81193, 28.28875 ], [ 78.81239, 28.2915 ], [ 78.81442, 28.29372 ], [ 78.82306, 28.28848 ], [ 78.83292, 28.29901 ], [ 78.83663, 28.29665 ], [ 78.84409, 28.28959 ], [ 78.8499, 28.28598 ], [ 78.8478, 28.28152 ], [ 78.84909, 28.281 ], [ 78.8496, 28.27947 ], [ 78.84868, 28.27778 ], [ 78.84862, 28.27504 ], [ 78.84907, 28.27263 ], [ 78.85055, 28.27209 ], [ 78.85125, 28.27018 ], [ 78.85024, 28.26312 ], [ 78.85115, 28.26282 ], [ 78.85407, 28.26694 ], [ 78.85965, 28.26295 ], [ 78.86352, 28.26704 ], [ 78.8665, 28.26737 ], [ 78.8673, 28.26817 ], [ 78.86957, 28.26771 ], [ 78.87148, 28.26874 ], [ 78.8728, 28.26773 ], [ 78.87754, 28.27229 ], [ 78.87708, 28.27258 ], [ 78.8788, 28.27525 ], [ 78.87813, 28.27569 ], [ 78.87933, 28.27719 ], [ 78.88035, 28.27654 ], [ 78.8812, 28.27754 ], [ 78.88204, 28.27694 ], [ 78.88308, 28.27763 ], [ 78.88701, 28.27579 ], [ 78.88934, 28.27789 ], [ 78.89325, 28.27553 ], [ 78.89802, 28.27149 ], [ 78.89763, 28.27104 ], [ 78.89941, 28.26968 ], [ 78.89951, 28.26873 ], [ 78.89491, 28.26468 ], [ 78.89193, 28.26582 ], [ 78.89016, 28.26416 ], [ 78.88855, 28.26454 ], [ 78.88786, 28.26366 ], [ 78.88977, 28.26229 ], [ 78.89077, 28.2602 ], [ 78.88782, 28.2571 ], [ 78.8894, 28.25548 ], [ 78.88638, 28.25207 ], [ 78.88697, 28.25119 ], [ 78.88596, 28.25037 ], [ 78.88951, 28.24662 ], [ 78.88276, 28.24071 ], [ 78.8835, 28.23981 ], [ 78.88188, 28.23773 ], [ 78.87628, 28.23328 ], [ 78.87663, 28.23276 ], [ 78.8724, 28.22803 ], [ 78.87331, 28.22752 ], [ 78.87222, 28.22258 ], [ 78.87357, 28.22276 ], [ 78.87844, 28.21958 ], [ 78.88145, 28.22024 ], [ 78.88608, 28.21793 ], [ 78.88885, 28.21826 ], [ 78.89217, 28.21737 ], [ 78.89548, 28.22135 ], [ 78.90466, 28.21515 ], [ 78.90883, 28.22004 ], [ 78.91104, 28.21931 ], [ 78.9131, 28.21803 ], [ 78.91274, 28.21745 ], [ 78.9142, 28.21628 ], [ 78.91385, 28.21544 ], [ 78.91732, 28.2115 ], [ 78.91607, 28.21083 ], [ 78.91676, 28.20962 ], [ 78.9181, 28.2092 ], [ 78.91733, 28.20776 ], [ 78.91835, 28.20716 ], [ 78.91647, 28.205 ], [ 78.91961, 28.20243 ], [ 78.92112, 28.20366 ], [ 78.92451, 28.20205 ], [ 78.92536, 28.20273 ], [ 78.92709, 28.20204 ], [ 78.9298, 28.20317 ], [ 78.93122, 28.20235 ], [ 78.93236, 28.20336 ], [ 78.93356, 28.20252 ], [ 78.93679, 28.20445 ], [ 78.93849, 28.20348 ], [ 78.94004, 28.20468 ], [ 78.94159, 28.20343 ], [ 78.94246, 28.20456 ], [ 78.94316, 28.20405 ], [ 78.94361, 28.2046 ], [ 78.94843, 28.20106 ], [ 78.95811, 28.20755 ], [ 78.96034, 28.20799 ], [ 78.95982, 28.20712 ], [ 78.96067, 28.20552 ], [ 78.9583, 28.20387 ], [ 78.96121, 28.2011 ], [ 78.9631, 28.20134 ], [ 78.96402, 28.20051 ], [ 78.96277, 28.20035 ], [ 78.96175, 28.19892 ], [ 78.96294, 28.19854 ], [ 78.96173, 28.1979 ], [ 78.96415, 28.19538 ], [ 78.96554, 28.19553 ], [ 78.96679, 28.19696 ], [ 78.96906, 28.1952 ], [ 78.97331, 28.19999 ], [ 78.97385, 28.19899 ], [ 78.97259, 28.19736 ], [ 78.97323, 28.19536 ], [ 78.97526, 28.19438 ], [ 78.97537, 28.19188 ], [ 78.97725, 28.19293 ], [ 78.98038, 28.19154 ], [ 78.98091, 28.18961 ], [ 78.98265, 28.19 ], [ 78.98596, 28.18864 ], [ 78.98873, 28.18886 ], [ 78.98862, 28.18671 ], [ 78.99207, 28.18202 ], [ 78.99187, 28.1798 ], [ 78.99335, 28.17798 ], [ 78.99423, 28.1782 ], [ 78.9936, 28.17951 ], [ 78.99425, 28.18058 ], [ 78.9978, 28.17887 ], [ 79.0001, 28.17891 ], [ 79.00717, 28.17526 ], [ 79.00898, 28.17505 ], [ 79.01307, 28.17658 ], [ 79.01501, 28.17625 ], [ 79.01514, 28.17528 ], [ 79.01255, 28.17336 ], [ 79.01298, 28.1721 ], [ 79.01664, 28.17257 ], [ 79.0183, 28.17037 ], [ 79.02235, 28.16946 ], [ 79.03164, 28.16401 ], [ 79.03476, 28.16305 ], [ 79.03622, 28.16519 ], [ 79.03933, 28.16569 ], [ 79.04529, 28.16345 ], [ 79.04457, 28.16175 ], [ 79.04552, 28.15944 ], [ 79.04705, 28.15777 ], [ 79.04882, 28.15751 ], [ 79.0489, 28.15685 ], [ 79.04731, 28.15583 ], [ 79.04877, 28.15248 ], [ 79.04861, 28.1508 ], [ 79.05034, 28.15129 ], [ 79.05125, 28.15342 ], [ 79.05371, 28.15027 ], [ 79.05523, 28.14931 ], [ 79.05663, 28.14946 ], [ 79.05811, 28.14804 ], [ 79.05795, 28.14644 ], [ 79.05587, 28.14336 ], [ 79.05723, 28.1415 ], [ 79.05698, 28.13931 ], [ 79.05968, 28.13758 ], [ 79.05965, 28.13689 ], [ 79.05748, 28.13618 ], [ 79.05659, 28.13687 ], [ 79.05434, 28.13416 ], [ 79.05464, 28.13236 ], [ 79.05205, 28.13187 ], [ 79.05139, 28.12932 ], [ 79.05254, 28.12787 ], [ 79.05384, 28.12777 ], [ 79.05386, 28.1261 ], [ 79.05495, 28.12608 ], [ 79.05493, 28.12717 ], [ 79.05671, 28.12651 ], [ 79.05607, 28.12262 ], [ 79.05892, 28.11796 ], [ 79.05882, 28.11456 ], [ 79.06061, 28.11218 ], [ 79.06279, 28.11201 ], [ 79.06266, 28.10801 ], [ 79.067, 28.1053 ], [ 79.06743, 28.10456 ], [ 79.06648, 28.10268 ], [ 79.06818, 28.10072 ], [ 79.0707, 28.10076 ], [ 79.07084, 28.09852 ], [ 79.06917, 28.09646 ], [ 79.06935, 28.09538 ], [ 79.07197, 28.09602 ], [ 79.06296, 28.08854 ], [ 79.06309, 28.08772 ], [ 79.06087, 28.08673 ], [ 79.05765, 28.08888 ], [ 79.05641, 28.08765 ], [ 79.05458, 28.08894 ], [ 79.05336, 28.08816 ], [ 79.04802, 28.0914 ], [ 79.04472, 28.08818 ], [ 79.04408, 28.08853 ], [ 79.04313, 28.0875 ], [ 79.04132, 28.08774 ], [ 79.04055, 28.08703 ], [ 79.03707, 28.0895 ], [ 79.03628, 28.08869 ], [ 79.03567, 28.08935 ], [ 79.0337, 28.08866 ], [ 79.03173, 28.08936 ], [ 79.03055, 28.08902 ], [ 79.03008, 28.08764 ], [ 79.02836, 28.08908 ], [ 79.0269, 28.08766 ], [ 79.02282, 28.08811 ], [ 79.01924, 28.08288 ], [ 79.02025, 28.08165 ], [ 79.01922, 28.08049 ], [ 79.02498, 28.0773 ], [ 79.02216, 28.0735 ], [ 79.0247, 28.07042 ], [ 79.02421, 28.06992 ], [ 79.02515, 28.06818 ], [ 79.02946, 28.06506 ], [ 79.03082, 28.06291 ], [ 79.0235, 28.0577 ], [ 79.02439, 28.05633 ], [ 79.02373, 28.05554 ], [ 79.02452, 28.05506 ], [ 79.02379, 28.05334 ], [ 79.02428, 28.05231 ], [ 79.01924, 28.0457 ], [ 79.01629, 28.04355 ], [ 79.01694, 28.04318 ], [ 79.0155, 28.04098 ], [ 79.0139, 28.04067 ], [ 79.01191, 28.04181 ], [ 79.01066, 28.04091 ], [ 79.00829, 28.04254 ], [ 79.0089, 28.04359 ], [ 79.00626, 28.04499 ], [ 79.00683, 28.04625 ], [ 79.00599, 28.04693 ], [ 79.00701, 28.04795 ], [ 79.00518, 28.04886 ], [ 79.00329, 28.0486 ], [ 79.00221, 28.04958 ], [ 78.99987, 28.04913 ], [ 78.99941, 28.04714 ], [ 78.99843, 28.04624 ], [ 78.99789, 28.04673 ], [ 78.99497, 28.04268 ], [ 78.99442, 28.04305 ], [ 78.99288, 28.04142 ], [ 78.98738, 28.04281 ], [ 78.98662, 28.04418 ], [ 78.98443, 28.04203 ], [ 78.98114, 28.04398 ], [ 78.9799, 28.0428 ], [ 78.97789, 28.04365 ], [ 78.97681, 28.04245 ], [ 78.97433, 28.04408 ], [ 78.97305, 28.043 ], [ 78.97199, 28.04315 ], [ 78.96068, 28.0319 ], [ 78.95386, 28.02885 ], [ 78.95383, 28.0265 ], [ 78.95481, 28.02574 ], [ 78.9507, 28.02221 ], [ 78.9469, 28.01902 ], [ 78.94536, 28.02034 ], [ 78.94016, 28.01625 ], [ 78.94074, 28.01563 ], [ 78.94015, 28.01501 ], [ 78.94351, 28.01194 ], [ 78.93801, 28.00761 ], [ 78.93723, 28.00846 ], [ 78.93552, 28.00694 ], [ 78.93291, 28.0096 ], [ 78.93154, 28.00871 ], [ 78.93089, 28.00955 ], [ 78.93142, 28.00993 ], [ 78.92878, 28.01248 ], [ 78.92805, 28.01218 ], [ 78.92447, 28.01635 ], [ 78.91015, 28.00803 ], [ 78.90513, 28.01104 ], [ 78.89466, 28.0136 ], [ 78.89595, 28.01564 ], [ 78.89738, 28.01566 ], [ 78.8984, 28.01954 ], [ 78.88949, 28.0295 ], [ 78.88461, 28.0323 ], [ 78.882, 28.03277 ], [ 78.88007, 28.03503 ], [ 78.87985, 28.03684 ], [ 78.88121, 28.03851 ], [ 78.88025, 28.03928 ], [ 78.88436, 28.04352 ], [ 78.88019, 28.0481 ], [ 78.87699, 28.04861 ], [ 78.87326, 28.051 ], [ 78.87934, 28.05886 ], [ 78.87699, 28.0599 ], [ 78.87232, 28.0642 ], [ 78.87277, 28.06475 ], [ 78.87191, 28.06543 ], [ 78.87554, 28.06696 ], [ 78.87478, 28.06865 ], [ 78.87227, 28.0706 ], [ 78.87085, 28.07539 ], [ 78.86169, 28.08132 ], [ 78.85192, 28.07451 ], [ 78.84648, 28.08127 ], [ 78.85052, 28.08429 ], [ 78.85301, 28.08958 ], [ 78.85161, 28.0906 ], [ 78.84951, 28.08947 ], [ 78.84443, 28.09441 ], [ 78.83854, 28.09129 ], [ 78.83624, 28.09458 ], [ 78.83456, 28.09423 ], [ 78.82974, 28.08964 ], [ 78.81736, 28.09907 ], [ 78.82275, 28.10445 ], [ 78.81517, 28.11021 ], [ 78.81064, 28.1147 ], [ 78.81165, 28.11544 ], [ 78.81098, 28.11605 ], [ 78.81119, 28.11811 ], [ 78.81411, 28.12222 ], [ 78.82023, 28.1262 ], [ 78.8272, 28.12403 ], [ 78.8367, 28.13554 ], [ 78.83623, 28.13607 ], [ 78.83923, 28.13818 ], [ 78.83989, 28.13833 ], [ 78.84469, 28.1333 ], [ 78.85018, 28.13506 ], [ 78.85217, 28.1386 ], [ 78.85188, 28.14068 ], [ 78.85012, 28.14318 ], [ 78.8466, 28.14535 ], [ 78.84201, 28.1424 ], [ 78.83645, 28.1419 ], [ 78.82945, 28.14335 ], [ 78.82315, 28.14089 ], [ 78.81856, 28.14475 ], [ 78.8178, 28.14419 ], [ 78.8157, 28.14552 ], [ 78.81339, 28.14565 ], [ 78.81144, 28.14466 ], [ 78.80198, 28.15085 ], [ 78.79855, 28.15377 ], [ 78.79935, 28.15563 ], [ 78.79663, 28.15933 ], [ 78.79436, 28.15737 ], [ 78.78763, 28.15996 ], [ 78.78745, 28.15791 ], [ 78.78546, 28.15729 ], [ 78.78477, 28.15776 ], [ 78.7831, 28.15617 ], [ 78.78225, 28.15654 ], [ 78.77793, 28.15196 ], [ 78.7787, 28.15142 ], [ 78.77803, 28.15063 ], [ 78.77603, 28.14979 ], [ 78.77391, 28.15081 ], [ 78.77211, 28.15035 ], [ 78.76904, 28.15415 ], [ 78.76973, 28.15461 ], [ 78.76889, 28.1557 ], [ 78.77949, 28.16559 ], [ 78.78099, 28.16542 ], [ 78.78387, 28.16843 ], [ 78.78279, 28.172 ], [ 78.78357, 28.17401 ], [ 78.78315, 28.17558 ], [ 78.77739, 28.17858 ], [ 78.77128, 28.17843 ], [ 78.76493, 28.1812 ], [ 78.76044, 28.18211 ], [ 78.76232, 28.18634 ], [ 78.76172, 28.18802 ], [ 78.76279, 28.1906 ], [ 78.76211, 28.19303 ], [ 78.76028, 28.19405 ], [ 78.75643, 28.19374 ], [ 78.74973, 28.19904 ], [ 78.74901, 28.20027 ], [ 78.74979, 28.2016 ], [ 78.74789, 28.2045 ], [ 78.74762, 28.2079 ], [ 78.74386, 28.21262 ], [ 78.74241, 28.21286 ], [ 78.74066, 28.21135 ], [ 78.73923, 28.21158 ], [ 78.73532, 28.2143 ], [ 78.73287, 28.21473 ], [ 78.7305, 28.2173 ], [ 78.72798, 28.21781 ], [ 78.7265, 28.21933 ], [ 78.72475, 28.22235 ], [ 78.72456, 28.22681 ], [ 78.72322, 28.232 ], [ 78.72399, 28.23401 ], [ 78.71894, 28.23959 ], [ 78.71657, 28.24055 ], [ 78.71314, 28.24585 ], [ 78.71155, 28.25135 ], [ 78.70562, 28.25572 ], [ 78.70639, 28.25894 ], [ 78.70373, 28.25694 ], [ 78.69832, 28.25756 ], [ 78.6941, 28.26201 ], [ 78.69006, 28.26287 ], [ 78.68347, 28.27182 ], [ 78.67733, 28.26754 ], [ 78.66964, 28.27277 ], [ 78.65699, 28.26407 ], [ 78.65205, 28.27 ], [ 78.65136, 28.26973 ], [ 78.64996, 28.27093 ], [ 78.64683, 28.27608 ], [ 78.64788, 28.27687 ], [ 78.64612, 28.27871 ], [ 78.64802, 28.28033 ], [ 78.64392, 28.28399 ], [ 78.64976, 28.28831 ], [ 78.64953, 28.28981 ], [ 78.65213, 28.29258 ], [ 78.65096, 28.29455 ], [ 78.65722, 28.29893 ], [ 78.65606, 28.30034 ], [ 78.65738, 28.30117 ], [ 78.65539, 28.30287 ], [ 78.66233, 28.30873 ], [ 78.65462, 28.31711 ], [ 78.65402, 28.31662 ], [ 78.65251, 28.31803 ], [ 78.66199, 28.32747 ], [ 78.66271, 28.3267 ], [ 78.66329, 28.32714 ], [ 78.66328, 28.32797 ], [ 78.66606, 28.32534 ], [ 78.67191, 28.32291 ], [ 78.67308, 28.32433 ], [ 78.67476, 28.32331 ], [ 78.67664, 28.32349 ], [ 78.68234, 28.32888 ], [ 78.684, 28.32913 ], [ 78.68536, 28.33079 ] ] ] } },
{ "type": "Feature", "properties": { "OBJECTID": 2462, "state_lgd": "09", "state_name": "UTTAR PRADESH", "district_lgd": "149", "district_name": "BUDAUN", "district_name_source": "district_table", "subdistrict_lgd": "779", "subdistrict_name": "BISAULI", "subdistrict_type": "Tehsil", "name_corrupted": false, "remarks": "", "label_lon": 78.933591711309234, "label_lat": 28.313074065818864 }, "geometry": { "type": "Polygon", "coordinates": [ [ [ 78.88283, 28.47226 ], [ 78.88945, 28.46798 ], [ 78.88908, 28.46747 ], [ 78.89166, 28.4657 ], [ 78.89396, 28.4626 ], [ 78.89549, 28.4631 ], [ 78.89787, 28.46183 ], [ 78.90632, 28.47101 ], [ 78.91124, 28.46699 ], [ 78.90978, 28.46512 ], [ 78.91267, 28.46206 ], [ 78.91572, 28.46322 ], [ 78.91666, 28.46451 ], [ 78.92081, 28.46266 ], [ 78.92158, 28.46193 ], [ 78.92101, 28.46119 ], [ 78.92465, 28.45851 ], [ 78.92935, 28.46172 ], [ 78.93038, 28.461 ], [ 78.93502, 28.46352 ], [ 78.94103, 28.45986 ], [ 78.94012, 28.45756 ], [ 78.94081, 28.45585 ], [ 78.93994, 28.45513 ], [ 78.94063, 28.45279 ], [ 78.94147, 28.45234 ], [ 78.94081, 28.4497 ], [ 78.9419, 28.44804 ], [ 78.94263, 28.44827 ], [ 78.9421, 28.44656 ], [ 78.94381, 28.4466 ], [ 78.94436, 28.44559 ], [ 78.9433, 28.4448 ], [ 78.94505, 28.44499 ], [ 78.94412, 28.44385 ], [ 78.94618, 28.44118 ], [ 78.94693, 28.44135 ], [ 78.94677, 28.43981 ], [ 78.94947, 28.43941 ], [ 78.94891, 28.4386 ], [ 78.95024, 28.43619 ], [ 78.95179, 28.43517 ], [ 78.95117, 28.43291 ], [ 78.95184, 28.43056 ], [ 78.94922, 28.42906 ], [ 78.9493, 28.42762 ], [ 78.95038, 28.42234 ], [ 78.95278, 28.42004 ], [ 78.95279, 28.41899 ], [ 78.95413, 28.4194 ], [ 78.95671, 28.41871 ], [ 78.95687, 28.41793 ], [ 78.95803, 28.41948 ], [ 78.9597, 28.41729 ], [ 78.96114, 28.41849 ], [ 78.96308, 28.41868 ], [ 78.96211, 28.4195 ], [ 78.96218, 28.42126 ], [ 78.96682, 28.41908 ], [ 78.96864, 28.42115 ], [ 78.9689, 28.42314 ], [ 78.97013, 28.41828 ], [ 78.97121, 28.41921 ], [ 78.97123, 28.41816 ], [ 78.97322, 28.41782 ], [ 78.97294, 28.41599 ], [ 78.97892, 28.41468 ], [ 78.97889, 28.41333 ], [ 78.98091, 28.4129 ], [ 78.98308, 28.41103 ], [ 78.98439, 28.41095 ], [ 78.98538, 28.41239 ], [ 78.98668, 28.41197 ], [ 78.98736, 28.41382 ], [ 78.98821, 28.41328 ], [ 78.98734, 28.41238 ], [ 78.99013, 28.41321 ], [ 78.99183, 28.41142 ], [ 78.99409, 28.412 ], [ 78.99591, 28.41123 ], [ 78.99752, 28.40876 ], [ 78.99616, 28.40544 ], [ 78.99763, 28.40597 ], [ 78.99932, 28.40544 ], [ 78.99819, 28.40141 ], [ 78.999, 28.4007 ], [ 78.9985, 28.39983 ], [ 79.0003, 28.39937 ], [ 78.99954, 28.3993 ], [ 79.00028, 28.3977 ], [ 79.00346, 28.39756 ], [ 79.00437, 28.3954 ], [ 79.00327, 28.39497 ], [ 79.00318, 28.39403 ], [ 79.00517, 28.39317 ], [ 79.00471, 28.39263 ], [ 79.0071, 28.39028 ], [ 79.00896, 28.39033 ], [ 79.0095, 28.3928 ], [ 79.01221, 28.39133 ], [ 79.01362, 28.3921 ], [ 79.01244, 28.39196 ], [ 79.01262, 28.39288 ], [ 79.01614, 28.39387 ], [ 79.01377, 28.39479 ], [ 79.01402, 28.39528 ], [ 79.01761, 28.39479 ], [ 79.01779, 28.39416 ], [ 79.01672, 28.39367 ], [ 79.01692, 28.39133 ], [ 79.01838, 28.39171 ], [ 79.01985, 28.38773 ], [ 79.02035, 28.38945 ], [ 79.01981, 28.39093 ], [ 79.02079, 28.39297 ], [ 79.02186, 28.39101 ], [ 79.02289, 28.39072 ], [ 79.02707, 28.393 ], [ 79.02613, 28.39365 ], [ 79.02659, 28.39414 ], [ 79.03766, 28.39005 ], [ 79.03874, 28.39092 ], [ 79.04039, 28.3892 ], [ 79.04293, 28.39081 ], [ 79.04381, 28.38998 ], [ 79.04316, 28.38846 ], [ 79.04477, 28.38921 ], [ 79.04559, 28.38625 ], [ 79.04781, 28.38528 ], [ 79.04845, 28.38592 ], [ 79.05025, 28.38543 ], [ 79.05083, 28.38294 ], [ 79.05469, 28.38516 ], [ 79.05655, 28.38311 ], [ 79.05724, 28.38445 ], [ 79.05921, 28.38316 ], [ 79.05875, 28.38216 ], [ 79.06126, 28.38022 ], [ 79.06125, 28.3785 ], [ 79.05915, 28.37872 ], [ 79.06085, 28.37615 ], [ 79.06087, 28.37372 ], [ 79.06159, 28.37359 ], [ 79.0618, 28.37505 ], [ 79.06378, 28.37478 ], [ 79.06507, 28.37336 ], [ 79.06605, 28.37384 ], [ 79.06769, 28.37164 ], [ 79.06574, 28.37165 ], [ 79.066, 28.36973 ], [ 79.06516, 28.36988 ], [ 79.0626, 28.36601 ], [ 79.06367, 28.36269 ], [ 79.0623, 28.36234 ], [ 79.06157, 28.36057 ], [ 79.0628, 28.35697 ], [ 79.06128, 28.35527 ], [ 79.05847, 28.3542 ], [ 79.05719, 28.35219 ], [ 79.05823, 28.35181 ], [ 79.05694, 28.34878 ], [ 79.05877, 28.34734 ], [ 79.0582, 28.3467 ], [ 79.05961, 28.34517 ], [ 79.06149, 28.34397 ], [ 79.06227, 28.33796 ], [ 79.06065, 28.33236 ], [ 79.06414, 28.33135 ], [ 79.06723, 28.32839 ], [ 79.07242, 28.33235 ], [ 79.07331, 28.33164 ], [ 79.07428, 28.33249 ], [ 79.07609, 28.33225 ], [ 79.07791, 28.3315 ], [ 79.08298, 28.32614 ], [ 79.08414, 28.32466 ], [ 79.08064, 28.32068 ], [ 79.08161, 28.31997 ], [ 79.07725, 28.31369 ], [ 79.0787, 28.31285 ], [ 79.07793, 28.31163 ], [ 79.07908, 28.31072 ], [ 79.07999, 28.31012 ], [ 79.08097, 28.31101 ], [ 79.08667, 28.307 ], [ 79.0872, 28.30522 ], [ 79.08541, 28.30154 ], [ 79.08848, 28.29935 ], [ 79.0864, 28.29237 ], [ 79.08263, 28.28849 ], [ 79.08169, 28.28937 ], [ 79.08065, 28.2889 ], [ 79.07906, 28.28629 ], [ 79.07957, 28.28531 ], [ 79.07772, 28.28355 ], [ 79.08155, 28.27785 ], [ 79.07769, 28.2734 ], [ 79.0802, 28.27153 ], [ 79.07843, 28.26938 ], [ 79.07876, 28.26453 ], [ 79.08206, 28.2599 ], [ 79.0931, 28.25199 ], [ 79.09554, 28.2505 ], [ 79.09748, 28.25182 ], [ 79.10161, 28.24956 ], [ 79.10138, 28.24823 ], [ 79.10871, 28.24548 ], [ 79.11423, 28.23861 ], [ 79.10879, 28.23404 ], [ 79.11312, 28.23025 ], [ 79.11266, 28.22837 ], [ 79.11376, 28.22777 ], [ 79.11335, 28.22704 ], [ 79.11077, 28.22458 ], [ 79.10987, 28.22548 ], [ 79.10715, 28.22444 ], [ 79.10116, 28.22053 ], [ 79.10111, 28.21877 ], [ 79.10276, 28.21763 ], [ 79.10181, 28.21605 ], [ 79.11052, 28.21101 ], [ 79.11115, 28.20956 ], [ 79.1109, 28.20641 ], [ 79.11235, 28.20394 ], [ 79.11202, 28.20181 ], [ 79.11423, 28.20121 ], [ 79.11461, 28.20319 ], [ 79.11564, 28.2036 ], [ 79.12287, 28.20203 ], [ 79.12577, 28.2031 ], [ 79.12613, 28.20412 ], [ 79.12802, 28.20342 ], [ 79.1293, 28.20481 ], [ 79.13976, 28.19953 ], [ 79.14009, 28.19815 ], [ 79.13948, 28.19457 ], [ 79.13708, 28.19574 ], [ 79.13556, 28.19457 ], [ 79.13128, 28.18744 ], [ 79.12842, 28.18452 ], [ 79.12765, 28.18424 ], [ 79.12472, 28.18591 ], [ 79.12385, 28.18464 ], [ 79.12242, 28.18562 ], [ 79.12068, 28.18368 ], [ 79.12858, 28.17745 ], [ 79.12435, 28.17303 ], [ 79.12517, 28.17169 ], [ 79.11983, 28.16725 ], [ 79.118, 28.16744 ], [ 79.11638, 28.16443 ], [ 79.11685, 28.16385 ], [ 79.10493, 28.15467 ], [ 79.10101, 28.14752 ], [ 79.09508, 28.14072 ], [ 79.09022, 28.13354 ], [ 79.08266, 28.13813 ], [ 79.08033, 28.13643 ], [ 79.06945, 28.13364 ], [ 79.06707, 28.13428 ], [ 79.06611, 28.13693 ], [ 79.06513, 28.1371 ], [ 79.06236, 28.13394 ], [ 79.0548, 28.13499 ], [ 79.05659, 28.13687 ], [ 79.05748, 28.13618 ], [ 79.05965, 28.13689 ], [ 79.05968, 28.13758 ], [ 79.05698, 28.13931 ], [ 79.05723, 28.1415 ], [ 79.05587, 28.14336 ], [ 79.05795, 28.14644 ], [ 79.05811, 28.14804 ], [ 79.05663, 28.14946 ], [ 79.05523, 28.14931 ], [ 79.05371, 28.15027 ], [ 79.05125, 28.15342 ], [ 79.05034, 28.15129 ], [ 79.04861, 28.1508 ], [ 79.04877, 28.15248 ], [ 79.04731, 28.15583 ], [ 79.0489, 28.15685 ], [ 79.04882, 28.15751 ], [ 79.04705, 28.15777 ], [ 79.04552, 28.15944 ], [ 79.04457, 28.16175 ], [ 79.04529, 28.16345 ], [ 79.03933, 28.16569 ], [ 79.03622, 28.16519 ], [ 79.03476, 28.16305 ], [ 79.03164, 28.16401 ], [ 79.02235, 28.16946 ], [ 79.0183, 28.17037 ], [ 79.01664, 28.17257 ], [ 79.01298, 28.1721 ], [ 79.01255, 28.17336 ], [ 79.01514, 28.17528 ], [ 79.01501, 28.17625 ], [ 79.01307, 28.17658 ], [ 79.00898, 28.17505 ], [ 79.00717, 28.17526 ], [ 79.0001, 28.17891 ], [ 78.9978, 28.17887 ], [ 78.99425, 28.18058 ], [ 78.9936, 28.17951 ], [ 78.99423, 28.1782 ], [ 78.99335, 28.17798 ], [ 78.99187, 28.1798 ], [ 78.99207, 28.18202 ], [ 78.98862, 28.18671 ], [ 78.98873, 28.18886 ], [ 78.98596, 28.18864 ], [ 78.98265, 28.19 ], [ 78.98091, 28.18961 ], [ 78.98038, 28.19154 ], [ 78.97725, 28.19293 ], [ 78.97537, 28.19188 ], [ 78.97526, 28.19438 ], [ 78.97323, 28.19536 ], [ 78.97259, 28.19736 ], [ 78.97385, 28.19899 ], [ 78.97331, 28.19999 ], [ 78.96906, 28.1952 ], [ 78.96679, 28.19696 ], [ 78.96554, 28.19553 ], [ 78.96415, 28.19538 ], [ 78.96173, 28.1979 ], [ 78.96294, 28.19854 ], [ 78.96175, 28.19892 ], [ 78.96277, 28.20035 ], [ 78.96402, 28.20051 ], [ 78.9631, 28.20134 ], [ 78.96121, 28.2011 ], [ 78.9583, 28.20387 ], [ 78.96067, 28.20552 ], [ 78.95982, 28.20712 ], [ 78.96034, 28.20799 ], [ 78.95811, 28.20755 ], [ 78.94843, 28.20106 ], [ 78.94361, 28.2046 ], [ 78.94316, 28.20405 ], [ 78.94246, 28.20456 ], [ 78.94159, 28.20343 ], [ 78.94004, 28.20468 ], [ 78.93849, 28.20348 ], [ 78.93679, 28.20445 ], [ 78.93356, 28.20252 ], [ 78.93236, 28.20336 ], [ 78.93122, 28.20235 ], [ 78.9298, 28.20317 ], [ 78.92709, 28.20204 ], [ 78.92536, 28.20273 ], [ 78.92451, 28.20205 ], [ 78.92112, 28.20366 ], [ 78.91961, 28.20243 ], [ 78.91647, 28.205 ], [ 78.91835, 28.20716 ], [ 78.91733, 28.20776 ], [ 78.9181, 28.2092 ], [ 78.91676, 28.20962 ], [ 78.91607, 28.21083 ], [ 78.91732, 28.2115 ], [ 78.91385, 28.21544 ], [ 78.9142, 28.21628 ], [ 78.91274, 28.21745 ], [ 78.9131, 28.21803 ], [ 78.91104, 28.21931 ], [ 78.90883, 28.22004 ], [ 78.90466, 28.21515 ], [ 78.89548, 28.22135 ], [ 78.89217, 28.21737 ], [ 78.88885, 28.21826 ], [ 78.88608, 28.21793 ], [ 78.88145, 28.22024 ], [ 78.87844, 28.21958 ], [ 78.87357, 28.22276 ], [ 78.87222, 28.22258 ], [ 78.87331, 28.22752 ], [ 78.8724, 28.22803 ], [ 78.87663, 28.23276 ], [ 78.87628, 28.23328 ], [ 78.88188, 28.23773 ], [ 78.8835, 28.23981 ], [ 78.88276, 28.24071 ], [ 78.88951, 28.24662 ], [ 78.88596, 28.25037 ], [ 78.88697, 28.25119 ], [ 78.88638, 28.25207 ], [ 78.8894, 28.25548 ], [ 78.88782, 28.2571 ], [ 78.89077, 28.2602 ], [ 78.88977, 28.26229 ], [ 78.88786, 28.26366 ], [ 78.88855, 28.26454 ], [ 78.89016, 28.26416 ], [ 78.89193, 28.26582 ], [ 78.89491, 28.26468 ], [ 78.89951, 28.26873 ], [ 78.89941, 28.26968 ], [ 78.89763, 28.27104 ], [ 78.89788, 28.27164 ], [ 78.88934, 28.27789 ], [ 78.88701, 28.27579 ], [ 78.88308, 28.27763 ], [ 78.88204, 28.27694 ], [ 78.8812, 28.27754 ], [ 78.88035, 28.27654 ], [ 78.8793, 28.27718 ], [ 78.87813, 28.27569 ], [ 78.8788, 28.27525 ], [ 78.87708, 28.27258 ], [ 78.87754, 28.27229 ], [ 78.8728, 28.26773 ], [ 78.87148, 28.26874 ], [ 78.86957, 28.26771 ], [ 78.8673, 28.26817 ], [ 78.8665, 28.26737 ], [ 78.86352, 28.26704 ], [ 78.85965, 28.26295 ], [ 78.85407, 28.26694 ], [ 78.85115, 28.26282 ], [ 78.85024, 28.26312 ], [ 78.85125, 28.27018 ], [ 78.85055, 28.27209 ], [ 78.84907, 28.27263 ], [ 78.84862, 28.27504 ], [ 78.84868, 28.27778 ], [ 78.8496, 28.27947 ], [ 78.84909, 28.281 ], [ 78.8478, 28.28152 ], [ 78.8499, 28.28598 ], [ 78.84409, 28.28959 ], [ 78.83663, 28.29665 ], [ 78.83292, 28.29901 ], [ 78.82306, 28.28848 ], [ 78.81442, 28.29372 ], [ 78.81239, 28.2915 ], [ 78.81193, 28.28875 ], [ 78.81006, 28.28968 ], [ 78.80749, 28.28944 ], [ 78.806, 28.28861 ], [ 78.80647, 28.28785 ], [ 78.80595, 28.28721 ], [ 78.80321, 28.28665 ], [ 78.79857, 28.28937 ], [ 78.79761, 28.29181 ], [ 78.79806, 28.29272 ], [ 78.79564, 28.29458 ], [ 78.79574, 28.29602 ], [ 78.79417, 28.29684 ], [ 78.79329, 28.30158 ], [ 78.79111, 28.30528 ], [ 78.79227, 28.30715 ], [ 78.79042, 28.30861 ], [ 78.78459, 28.30461 ], [ 78.78268, 28.30045 ], [ 78.77946, 28.30136 ], [ 78.77788, 28.30015 ], [ 78.77629, 28.30056 ], [ 78.77048, 28.29403 ], [ 78.76553, 28.29697 ], [ 78.76168, 28.29453 ], [ 78.7578, 28.29347 ], [ 78.75142, 28.29726 ], [ 78.74989, 28.29923 ], [ 78.74776, 28.2983 ], [ 78.74623, 28.29634 ], [ 78.74528, 28.29219 ], [ 78.74192, 28.28799 ], [ 78.74014, 28.28778 ], [ 78.73771, 28.28884 ], [ 78.73802, 28.29083 ], [ 78.73637, 28.29261 ], [ 78.73699, 28.29292 ], [ 78.73582, 28.2949 ], [ 78.73895, 28.30025 ], [ 78.73793, 28.30069 ], [ 78.73771, 28.30173 ], [ 78.73843, 28.30229 ], [ 78.73747, 28.30395 ], [ 78.72928, 28.31003 ], [ 78.73244, 28.3127 ], [ 78.73129, 28.31388 ], [ 78.73219, 28.31495 ], [ 78.72671, 28.31856 ], [ 78.72456, 28.3158 ], [ 78.72196, 28.31723 ], [ 78.71605, 28.31871 ], [ 78.71517, 28.31724 ], [ 78.71264, 28.3174 ], [ 78.71158, 28.31873 ], [ 78.70987, 28.31828 ], [ 78.70182, 28.32384 ], [ 78.69852, 28.3252 ], [ 78.69372, 28.32961 ], [ 78.69026, 28.32832 ], [ 78.68536, 28.33079 ], [ 78.684, 28.32913 ], [ 78.68234, 28.32888 ], [ 78.67862, 28.32595 ], [ 78.67664, 28.32349 ], [ 78.67476, 28.32331 ], [ 78.67308, 28.32433 ], [ 78.67191, 28.32291 ], [ 78.66606, 28.32534 ], [ 78.66328, 28.32797 ], [ 78.66535, 28.32931 ], [ 78.66377, 28.33188 ], [ 78.66469, 28.33272 ], [ 78.66432, 28.33379 ], [ 78.66824, 28.33688 ], [ 78.66951, 28.33618 ], [ 78.67036, 28.33689 ], [ 78.67226, 28.33654 ], [ 78.67398, 28.33546 ], [ 78.67603, 28.33589 ], [ 78.67746, 28.3343 ], [ 78.6785, 28.33519 ], [ 78.67885, 28.33455 ], [ 78.68009, 28.33519 ], [ 78.67969, 28.33553 ], [ 78.68227, 28.33826 ], [ 78.68174, 28.33917 ], [ 78.68698, 28.3435 ], [ 78.6881, 28.34327 ], [ 78.6928, 28.34811 ], [ 78.69421, 28.35049 ], [ 78.69378, 28.3509 ], [ 78.6969, 28.35461 ], [ 78.69644, 28.35507 ], [ 78.69891, 28.35763 ], [ 78.69758, 28.35862 ], [ 78.69813, 28.36022 ], [ 78.69855, 28.35977 ], [ 78.70297, 28.3622 ], [ 78.70702, 28.36644 ], [ 78.7085, 28.36557 ], [ 78.71126, 28.36833 ], [ 78.71554, 28.36547 ], [ 78.71726, 28.36771 ], [ 78.7187, 28.36674 ], [ 78.71966, 28.36741 ], [ 78.72099, 28.36479 ], [ 78.72438, 28.36988 ], [ 78.72507, 28.36948 ], [ 78.72644, 28.37113 ], [ 78.7284, 28.36968 ], [ 78.72973, 28.36989 ], [ 78.72873, 28.37085 ], [ 78.73367, 28.37563 ], [ 78.73554, 28.37347 ], [ 78.73495, 28.37294 ], [ 78.73688, 28.37269 ], [ 78.74121, 28.36729 ], [ 78.74306, 28.36871 ], [ 78.7427, 28.37127 ], [ 78.74417, 28.37235 ], [ 78.74517, 28.37251 ], [ 78.74618, 28.3715 ], [ 78.74695, 28.37208 ], [ 78.752, 28.36818 ], [ 78.75908, 28.37181 ], [ 78.76148, 28.37418 ], [ 78.76032, 28.37638 ], [ 78.76368, 28.37874 ], [ 78.76498, 28.38042 ], [ 78.76445, 28.38102 ], [ 78.76938, 28.38662 ], [ 78.76307, 28.39295 ], [ 78.75967, 28.39506 ], [ 78.7618, 28.39932 ], [ 78.76685, 28.40248 ], [ 78.76681, 28.40496 ], [ 78.7711, 28.40159 ], [ 78.77298, 28.40259 ], [ 78.77957, 28.40024 ], [ 78.78134, 28.39842 ], [ 78.78336, 28.39914 ], [ 78.78381, 28.39705 ], [ 78.78668, 28.39477 ], [ 78.78869, 28.39481 ], [ 78.79146, 28.39725 ], [ 78.79423, 28.39791 ], [ 78.79435, 28.40152 ], [ 78.79749, 28.40197 ], [ 78.79594, 28.40435 ], [ 78.79303, 28.40643 ], [ 78.79393, 28.40767 ], [ 78.79301, 28.40941 ], [ 78.79562, 28.4128 ], [ 78.79672, 28.41205 ], [ 78.80035, 28.41515 ], [ 78.80472, 28.4202 ], [ 78.803, 28.42742 ], [ 78.80089, 28.43073 ], [ 78.80254, 28.43208 ], [ 78.80286, 28.43413 ], [ 78.80607, 28.43861 ], [ 78.80858, 28.44006 ], [ 78.81222, 28.44456 ], [ 78.81444, 28.444 ], [ 78.82302, 28.43863 ], [ 78.82352, 28.43939 ], [ 78.82551, 28.43884 ], [ 78.83433, 28.44678 ], [ 78.83633, 28.44526 ], [ 78.8376, 28.44653 ], [ 78.8394, 28.44476 ], [ 78.84, 28.44613 ], [ 78.84538, 28.44955 ], [ 78.84598, 28.44868 ], [ 78.84713, 28.45076 ], [ 78.84976, 28.45291 ], [ 78.85264, 28.4495 ], [ 78.85266, 28.44818 ], [ 78.85485, 28.447 ], [ 78.85571, 28.44772 ], [ 78.85807, 28.44695 ], [ 78.85935, 28.44864 ], [ 78.85873, 28.45159 ], [ 78.85956, 28.45444 ], [ 78.85876, 28.45558 ], [ 78.86062, 28.45574 ], [ 78.86091, 28.45775 ], [ 78.86275, 28.45808 ], [ 78.86251, 28.45909 ], [ 78.86458, 28.4609 ], [ 78.86602, 28.46063 ], [ 78.86648, 28.4623 ], [ 78.86534, 28.46384 ], [ 78.86591, 28.46523 ], [ 78.86902, 28.466 ], [ 78.87564, 28.46414 ], [ 78.87884, 28.46959 ], [ 78.88283, 28.47226 ] ] ] } },
{ "type": "Feature", "properties": { "OBJECTID": 2464, "state_lgd": "09", "state_name": "UTTAR PRADESH", "district_lgd": "149", "district_name": "BUDAUN", "district_name_source": "district_table", "subdistrict_lgd": "782", "subdistrict_name": "BUDAUN", "subdistrict_type": "Tehsil", "name_corrupted": false, "remarks": "", "label_lon": 79.104049726933013, "label_lat": 28.002619511347881 }, "geometry": { "type": "Polygon", "coordinates": [ [ [ 79.32145, 28.16375 ], [ 79.31871, 28.15786 ], [ 79.32262, 28.15615 ], [ 79.32147, 28.15441 ], [ 79.31872, 28.15258 ], [ 79.31916, 28.15152 ], [ 79.3156, 28.14981 ], [ 79.31473, 28.14389 ], [ 79.31338, 28.14079 ], [ 79.31001, 28.14131 ], [ 79.30505, 28.14428 ], [ 79.30302, 28.14376 ], [ 79.30198, 28.14205 ], [ 79.30243, 28.13846 ], [ 79.30643, 28.13476 ], [ 79.32027, 28.13392 ], [ 79.32102, 28.13001 ], [ 79.32242, 28.12851 ], [ 79.32048, 28.12244 ], [ 79.31796, 28.12182 ], [ 79.316, 28.11964 ], [ 79.31753, 28.11512 ], [ 79.31364, 28.11404 ], [ 79.31299, 28.11175 ], [ 79.31396, 28.1105 ], [ 79.31236, 28.10923 ], [ 79.31036, 28.10984 ], [ 79.30857, 28.10663 ], [ 79.30688, 28.10701 ], [ 79.30678, 28.10515 ], [ 79.29252, 28.10744 ], [ 79.29223, 28.10242 ], [ 79.29134, 28.10038 ], [ 79.29306, 28.09845 ], [ 79.28954, 28.09661 ], [ 79.28594, 28.09561 ], [ 79.27868, 28.09909 ], [ 79.27523, 28.09755 ], [ 79.276, 28.09544 ], [ 79.27977, 28.09137 ], [ 79.27712, 28.08757 ], [ 79.27755, 28.08356 ], [ 79.27689, 28.08199 ], [ 79.27296, 28.07754 ], [ 79.27277, 28.07594 ], [ 79.27412, 28.07322 ], [ 79.27851, 28.07136 ], [ 79.28485, 28.07092 ], [ 79.28826, 28.07308 ], [ 79.28937, 28.07257 ], [ 79.2857, 28.06983 ], [ 79.28475, 28.06817 ], [ 79.28263, 28.0676 ], [ 79.28003, 28.06537 ], [ 79.27849, 28.06066 ], [ 79.27868, 28.05751 ], [ 79.2814, 28.05474 ], [ 79.28249, 28.05096 ], [ 79.28715, 28.04884 ], [ 79.29045, 28.04481 ], [ 79.29037, 28.04121 ], [ 79.28882, 28.03754 ], [ 79.28875, 28.03469 ], [ 79.29117, 28.03217 ], [ 79.29232, 28.02956 ], [ 79.29057, 28.02641 ], [ 79.29328, 28.02541 ], [ 79.29163, 28.02418 ], [ 79.29296, 28.02378 ], [ 79.29311, 28.02287 ], [ 79.2954, 28.02302 ], [ 79.29469, 28.02139 ], [ 79.29888, 28.01929 ], [ 79.29605, 28.01926 ], [ 79.2969, 28.0179 ], [ 79.29507, 28.01768 ], [ 79.29525, 28.01643 ], [ 79.29679, 28.01524 ], [ 79.30352, 28.015 ], [ 79.30921, 28.01244 ], [ 79.31224, 28.00896 ], [ 79.31364, 28.00571 ], [ 79.31326, 28.00363 ], [ 79.31082, 27.99775 ], [ 79.30977, 27.99681 ], [ 79.30633, 27.99503 ], [ 79.30372, 27.99508 ], [ 79.29587, 27.99057 ], [ 79.29924, 27.98534 ], [ 79.2913, 27.98547 ], [ 79.28898, 27.98425 ], [ 79.28885, 27.9848 ], [ 79.28714, 27.9846 ], [ 79.28114, 27.97979 ], [ 79.27472, 27.98059 ], [ 79.27335, 27.97684 ], [ 79.27217, 27.97579 ], [ 79.26704, 27.97513 ], [ 79.26831, 27.97179 ], [ 79.27999, 27.96844 ], [ 79.28124, 27.9661 ], [ 79.28873, 27.97202 ], [ 79.29007, 27.97227 ], [ 79.29322, 27.96977 ], [ 79.30259, 27.97216 ], [ 79.30564, 27.96641 ], [ 79.30409, 27.96379 ], [ 79.30939, 27.96238 ], [ 79.31513, 27.95886 ], [ 79.32086, 27.95752 ], [ 79.32093, 27.95023 ], [ 79.31164, 27.94003 ], [ 79.30945, 27.93646 ], [ 79.30742, 27.9386 ], [ 79.30719, 27.93559 ], [ 79.30195, 27.93924 ], [ 79.30168, 27.94167 ], [ 79.29757, 27.93947 ], [ 79.29167, 27.93787 ], [ 79.2862, 27.93936 ], [ 79.28229, 27.93906 ], [ 79.27889, 27.94082 ], [ 79.27702, 27.9405 ], [ 79.27327, 27.94369 ], [ 79.26481, 27.93529 ], [ 79.26076, 27.93732 ], [ 79.25856, 27.93531 ], [ 79.24952, 27.93969 ], [ 79.24495, 27.934 ], [ 79.2413, 27.93467 ], [ 79.23998, 27.93423 ], [ 79.23411, 27.93931 ], [ 79.2278, 27.93417 ], [ 79.2267, 27.93274 ], [ 79.22859, 27.93079 ], [ 79.22442, 27.92771 ], [ 79.21612, 27.91693 ], [ 79.21883, 27.91503 ], [ 79.21978, 27.9158 ], [ 79.22013, 27.91493 ], [ 79.22382, 27.91332 ], [ 79.22606, 27.91348 ], [ 79.22527, 27.91174 ], [ 79.22797, 27.91104 ], [ 79.22787, 27.90894 ], [ 79.22609, 27.90822 ], [ 79.22565, 27.90597 ], [ 79.22438, 27.90668 ], [ 79.22358, 27.9056 ], [ 79.22451, 27.90422 ], [ 79.21632, 27.90052 ], [ 79.21698, 27.89873 ], [ 79.21637, 27.89809 ], [ 79.218, 27.89544 ], [ 79.21687, 27.89181 ], [ 79.21802, 27.89145 ], [ 79.21613, 27.89037 ], [ 79.21665, 27.88976 ], [ 79.21572, 27.88904 ], [ 79.21331, 27.89082 ], [ 79.21388, 27.89159 ], [ 79.21521, 27.89124 ], [ 79.21617, 27.89272 ], [ 79.21479, 27.89348 ], [ 79.21234, 27.89107 ], [ 79.21227, 27.89255 ], [ 79.20985, 27.89366 ], [ 79.20916, 27.89289 ], [ 79.21067, 27.8904 ], [ 79.20947, 27.88957 ], [ 79.20861, 27.89028 ], [ 79.20752, 27.88977 ], [ 79.20787, 27.88921 ], [ 79.20638, 27.888 ], [ 79.20611, 27.88626 ], [ 79.20519, 27.8859 ], [ 79.20583, 27.88503 ], [ 79.20446, 27.8839 ], [ 79.20596, 27.88273 ], [ 79.20521, 27.88105 ], [ 79.20569, 27.87936 ], [ 79.2069, 27.87911 ], [ 79.20804, 27.88024 ], [ 79.20957, 27.8793 ], [ 79.20746, 27.8772 ], [ 79.20819, 27.87662 ], [ 79.20741, 27.87573 ], [ 79.20801, 27.87457 ], [ 79.20946, 27.87411 ], [ 79.20769, 27.87252 ], [ 79.21211, 27.86967 ], [ 79.2108, 27.86897 ], [ 79.21116, 27.86792 ], [ 79.19859, 27.8668 ], [ 79.19366, 27.86952 ], [ 79.19431, 27.87063 ], [ 79.1926, 27.87173 ], [ 79.18874, 27.86768 ], [ 79.18805, 27.86454 ], [ 79.18693, 27.86448 ], [ 79.18629, 27.86202 ], [ 79.18491, 27.86652 ], [ 79.1827, 27.86764 ], [ 79.17975, 27.86637 ], [ 79.17753, 27.86739 ], [ 79.1766, 27.86675 ], [ 79.17069, 27.86706 ], [ 79.16378, 27.87203 ], [ 79.16219, 27.87064 ], [ 79.16037, 27.87221 ], [ 79.15917, 27.87083 ], [ 79.15779, 27.87107 ], [ 79.15642, 27.86925 ], [ 79.15599, 27.86816 ], [ 79.15848, 27.8669 ], [ 79.15678, 27.86557 ], [ 79.15711, 27.86465 ], [ 79.15613, 27.86347 ], [ 79.15724, 27.86289 ], [ 79.15615, 27.86057 ], [ 79.15521, 27.86106 ], [ 79.15296, 27.85874 ], [ 79.15607, 27.85607 ], [ 79.15541, 27.85538 ], [ 79.15608, 27.8548 ], [ 79.15542, 27.85416 ], [ 79.15592, 27.85323 ], [ 79.1511, 27.84819 ], [ 79.13661, 27.83702 ], [ 79.12865, 27.84096 ], [ 79.12058, 27.84773 ], [ 79.1151, 27.84436 ], [ 79.11007, 27.83824 ], [ 79.09709, 27.82991 ], [ 79.08935, 27.83465 ], [ 79.07903, 27.83682 ], [ 79.07329, 27.83907 ], [ 79.07275, 27.84188 ], [ 79.06994, 27.84383 ], [ 79.06284, 27.8411 ], [ 79.06508, 27.83731 ], [ 79.05848, 27.83439 ], [ 79.03263, 27.83717 ], [ 79.02098, 27.84207 ], [ 79.01092, 27.83847 ], [ 79.0109, 27.84102 ], [ 79.00086, 27.83782 ], [ 79.00909, 27.84954 ], [ 79.00952, 27.85112 ], [ 79.01268, 27.85186 ], [ 79.01603, 27.8564 ], [ 79.00392, 27.86142 ], [ 79.00066, 27.86454 ], [ 78.98419, 27.87417 ], [ 78.9775, 27.86853 ], [ 78.97146, 27.86481 ], [ 78.97086, 27.86106 ], [ 78.96374, 27.84718 ], [ 78.95021, 27.85312 ], [ 78.93539, 27.845 ], [ 78.92929, 27.8502 ], [ 78.91751, 27.85005 ], [ 78.92054, 27.85309 ], [ 78.91837, 27.85332 ], [ 78.91927, 27.85469 ], [ 78.91873, 27.85788 ], [ 78.91692, 27.8596 ], [ 78.91978, 27.8625 ], [ 78.92041, 27.87511 ], [ 78.91029, 27.88397 ], [ 78.88761, 27.91597 ], [ 78.86877, 27.90974 ], [ 78.86227, 27.91231 ], [ 78.85485, 27.91694 ], [ 78.84634, 27.92851 ], [ 78.83601, 27.93269 ], [ 78.82596, 27.93836 ], [ 78.82135, 27.93976 ], [ 78.81475, 27.95201 ], [ 78.80302, 27.95557 ], [ 78.81384, 27.96929 ], [ 78.81583, 27.977 ], [ 78.81727, 27.97722 ], [ 78.81707, 27.97798 ], [ 78.81814, 27.97887 ], [ 78.81938, 27.97853 ], [ 78.82077, 27.98154 ], [ 78.82358, 27.98186 ], [ 78.82353, 27.98445 ], [ 78.82632, 27.98827 ], [ 78.82708, 27.98898 ], [ 78.83038, 27.98714 ], [ 78.83284, 27.98687 ], [ 78.83706, 27.98881 ], [ 78.83889, 27.99049 ], [ 78.84234, 27.99549 ], [ 78.83901, 28.00145 ], [ 78.84302, 28.00641 ], [ 78.84843, 28.00317 ], [ 78.84982, 28.00364 ], [ 78.85668, 28.00012 ], [ 78.85866, 27.9983 ], [ 78.85951, 27.99927 ], [ 78.86116, 27.99836 ], [ 78.86217, 27.99918 ], [ 78.86391, 27.99851 ], [ 78.86452, 27.99919 ], [ 78.86736, 27.99807 ], [ 78.86928, 27.99984 ], [ 78.87005, 27.9994 ], [ 78.87314, 28.00037 ], [ 78.87539, 28.00289 ], [ 78.87147, 28.00482 ], [ 78.87444, 28.00949 ], [ 78.87714, 28.01138 ], [ 78.88597, 28.01367 ], [ 78.89212, 28.01389 ], [ 78.90513, 28.01104 ], [ 78.91015, 28.00803 ], [ 78.92447, 28.01635 ], [ 78.92805, 28.01218 ], [ 78.92878, 28.01248 ], [ 78.93142, 28.00993 ], [ 78.93089, 28.00955 ], [ 78.93154, 28.00871 ], [ 78.93291, 28.0096 ], [ 78.93552, 28.00694 ], [ 78.93723, 28.00846 ], [ 78.93801, 28.00761 ], [ 78.94351, 28.01194 ], [ 78.94015, 28.01501 ], [ 78.94074, 28.01563 ], [ 78.94016, 28.01625 ], [ 78.94536, 28.02034 ], [ 78.9469, 28.01902 ], [ 78.9507, 28.02221 ], [ 78.95481, 28.02574 ], [ 78.95383, 28.0265 ], [ 78.95386, 28.02885 ], [ 78.96068, 28.0319 ], [ 78.97199, 28.04315 ], [ 78.97305, 28.043 ], [ 78.97433, 28.04408 ], [ 78.97681, 28.04245 ], [ 78.97789, 28.04365 ], [ 78.9799, 28.0428 ], [ 78.98114, 28.04398 ], [ 78.98443, 28.04203 ], [ 78.98662, 28.04418 ], [ 78.98738, 28.04281 ], [ 78.99288, 28.04142 ], [ 78.99442, 28.04305 ], [ 78.99497, 28.04268 ], [ 78.99789, 28.04673 ], [ 78.99843, 28.04624 ], [ 78.99941, 28.04714 ], [ 78.99987, 28.04913 ], [ 79.00221, 28.04958 ], [ 79.00329, 28.0486 ], [ 79.00518, 28.04886 ], [ 79.00701, 28.04795 ], [ 79.00599, 28.04693 ], [ 79.00683, 28.04625 ], [ 79.00626, 28.04499 ], [ 79.0089, 28.04359 ], [ 79.00829, 28.04254 ], [ 79.01066, 28.04091 ], [ 79.01191, 28.04181 ], [ 79.0139, 28.04067 ], [ 79.0155, 28.04098 ], [ 79.01694, 28.04318 ], [ 79.01629, 28.04355 ], [ 79.01924, 28.0457 ], [ 79.02428, 28.05231 ], [ 79.02379, 28.05334 ], [ 79.02452, 28.05506 ], [ 79.02373, 28.05554 ], [ 79.02439, 28.05633 ], [ 79.0235, 28.0577 ], [ 79.03082, 28.06291 ], [ 79.02946, 28.06506 ], [ 79.02515, 28.06818 ], [ 79.02421, 28.06992 ], [ 79.0247, 28.07042 ], [ 79.02216, 28.0735 ], [ 79.02498, 28.0773 ], [ 79.01922, 28.08049 ], [ 79.02025, 28.08165 ], [ 79.01924, 28.08288 ], [ 79.02282, 28.08811 ], [ 79.0269, 28.08766 ], [ 79.02836, 28.08908 ], [ 79.03008, 28.08764 ], [ 79.03055, 28.08902 ], [ 79.03173, 28.08936 ], [ 79.0337, 28.08866 ], [ 79.03567, 28.08935 ], [ 79.03628, 28.08869 ], [ 79.03707, 28.0895 ], [ 79.04055, 28.08703 ], [ 79.04132, 28.08774 ], [ 79.04313, 28.0875 ], [ 79.04408, 28.08853 ], [ 79.04472, 28.08818 ], [ 79.04802, 28.0914 ], [ 79.05336, 28.08816 ], [ 79.05458, 28.08894 ], [ 79.05641, 28.08765 ], [ 79.05765, 28.08888 ], [ 79.06087, 28.08673 ], [ 79.06309, 28.08772 ], [ 79.06296, 28.08854 ], [ 79.07197, 28.09602 ], [ 79.06935, 28.09538 ], [ 79.06917, 28.09646 ], [ 79.07084, 28.09852 ], [ 79.0707, 28.10076 ], [ 79.06818, 28.10072 ], [ 79.06648, 28.10268 ], [ 79.06743, 28.10456 ], [ 79.067, 28.1053 ], [ 79.06266, 28.10801 ], [ 79.06279, 28.11201 ], [ 79.06061, 28.11218 ], [ 79.05882, 28.11456 ], [ 79.05892, 28.11796 ], [ 79.05797, 28.12046 ], [ 79.05628, 28.12194 ], [ 79.05671, 28.12651 ], [ 79.05493, 28.12717 ], [ 79.05495, 28.12608 ], [ 79.05386, 28.1261 ], [ 79.05384, 28.12777 ], [ 79.05254, 28.12787 ], [ 79.05139, 28.12932 ], [ 79.05205, 28.13187 ], [ 79.05464, 28.13236 ], [ 79.0548, 28.13499 ], [ 79.06236, 28.13394 ], [ 79.06513, 28.1371 ], [ 79.06611, 28.13693 ], [ 79.06707, 28.13428 ], [ 79.06945, 28.13364 ], [ 79.08033, 28.13643 ], [ 79.08266, 28.13813 ], [ 79.09022, 28.13354 ], [ 79.09508, 28.14072 ], [ 79.10101, 28.14752 ], [ 79.10493, 28.15467 ], [ 79.11685, 28.16385 ], [ 79.11638, 28.16443 ], [ 79.118, 28.16744 ], [ 79.11983, 28.16725 ], [ 79.12517, 28.17169 ], [ 79.12435, 28.17303 ], [ 79.12858, 28.17745 ], [ 79.12068, 28.18368 ], [ 79.12242, 28.18562 ], [ 79.12385, 28.18464 ], [ 79.12472, 28.18591 ], [ 79.12765, 28.18424 ], [ 79.12842, 28.18452 ], [ 79.13128, 28.18744 ], [ 79.13401, 28.19294 ], [ 79.13708, 28.19574 ], [ 79.13948, 28.19457 ], [ 79.13957, 28.19295 ], [ 79.14296, 28.19015 ], [ 79.14542, 28.19115 ], [ 79.14925, 28.19502 ], [ 79.15238, 28.19507 ], [ 79.15382, 28.19607 ], [ 79.15674, 28.19414 ], [ 79.15896, 28.19496 ], [ 79.16179, 28.19125 ], [ 79.16558, 28.19252 ], [ 79.16869, 28.18972 ], [ 79.1766, 28.18641 ], [ 79.18114, 28.19144 ], [ 79.18035, 28.19213 ], [ 79.182, 28.1974 ], [ 79.18621, 28.20347 ], [ 79.19508, 28.20395 ], [ 79.19932, 28.20274 ], [ 79.20594, 28.20298 ], [ 79.21058, 28.19929 ], [ 79.22128, 28.19732 ], [ 79.22448, 28.19744 ], [ 79.22816, 28.1994 ], [ 79.23123, 28.19716 ], [ 79.23188, 28.1944 ], [ 79.23367, 28.19358 ], [ 79.23308, 28.19195 ], [ 79.23398, 28.19045 ], [ 79.23704, 28.19018 ], [ 79.23839, 28.18885 ], [ 79.23973, 28.1904 ], [ 79.2419, 28.19083 ], [ 79.24036, 28.18952 ], [ 79.24033, 28.18814 ], [ 79.24187, 28.18469 ], [ 79.24332, 28.18503 ], [ 79.24347, 28.18626 ], [ 79.24532, 28.18642 ], [ 79.24742, 28.18462 ], [ 79.24953, 28.18605 ], [ 79.25165, 28.18598 ], [ 79.25163, 28.18479 ], [ 79.24931, 28.18473 ], [ 79.24917, 28.18403 ], [ 79.25202, 28.18276 ], [ 79.25475, 28.18293 ], [ 79.25546, 28.18018 ], [ 79.25815, 28.17898 ], [ 79.25744, 28.17506 ], [ 79.258, 28.17388 ], [ 79.25945, 28.17476 ], [ 79.2601, 28.17757 ], [ 79.26185, 28.17639 ], [ 79.26245, 28.17376 ], [ 79.26396, 28.1746 ], [ 79.26578, 28.17436 ], [ 79.26747, 28.17914 ], [ 79.27506, 28.17918 ], [ 79.28186, 28.18466 ], [ 79.29008, 28.18265 ], [ 79.29267, 28.18294 ], [ 79.29524, 28.18491 ], [ 79.29802, 28.18098 ], [ 79.30303, 28.18044 ], [ 79.30816, 28.18628 ], [ 79.31066, 28.18683 ], [ 79.32182, 28.18125 ], [ 79.32415, 28.17927 ], [ 79.32456, 28.17837 ], [ 79.32376, 28.17608 ], [ 79.32447, 28.17328 ], [ 79.32367, 28.17131 ], [ 79.31836, 28.1654 ], [ 79.32145, 28.16375 ] ] ] } },
{ "type": "Feature", "properties": { "OBJECTID": 2483, "state_lgd": "09", "state_name": "UTTAR PRADESH", "district_lgd": "149", "district_name": "BUDAUN", "district_name_source": "district_table", "subdistrict_lgd": "783", "subdistrict_name": "DATAGANJ", "subdistrict_type": "Tehsil", "name_corrupted": false, "remarks": "", "label_lon": 79.340389289450343, "label_lat": 27.926157431540762 }, "geometry": { "type": "Polygon", "coordinates": [ [ [ 79.38985, 28.17609 ], [ 79.39336, 28.1766 ], [ 79.39669, 28.17262 ], [ 79.40342, 28.16777 ], [ 79.4045, 28.16783 ], [ 79.40681, 28.17071 ], [ 79.41088, 28.17218 ], [ 79.41241, 28.17417 ], [ 79.41415, 28.17495 ], [ 79.41633, 28.1736 ], [ 79.41912, 28.17322 ], [ 79.42415, 28.1737 ], [ 79.43624, 28.16961 ], [ 79.44044, 28.1668 ], [ 79.44074, 28.16299 ], [ 79.45034, 28.15045 ], [ 79.45201, 28.14669 ], [ 79.45291, 28.14102 ], [ 79.45669, 28.13742 ], [ 79.46704, 28.13041 ], [ 79.47571, 28.12934 ], [ 79.48742, 28.12406 ], [ 79.49533, 28.12275 ], [ 79.49656, 28.12105 ], [ 79.49842, 28.11619 ], [ 79.50543, 28.10385 ], [ 79.50307, 28.09289 ], [ 79.50782, 28.08554 ], [ 79.51, 28.07522 ], [ 79.50692, 28.06464 ], [ 79.50476, 28.06042 ], [ 79.49799, 28.05459 ], [ 79.49442, 28.0526 ], [ 79.4876, 28.05245 ], [ 79.48808, 28.04648 ], [ 79.48544, 28.04559 ], [ 79.48549, 28.04053 ], [ 79.48732, 28.03383 ], [ 79.49131, 28.03238 ], [ 79.49142, 28.02771 ], [ 79.49774, 28.02487 ], [ 79.50317, 28.01826 ], [ 79.50808, 28.00007 ], [ 79.49855, 28.00011 ], [ 79.49858, 27.99929 ], [ 79.48178, 27.99979 ], [ 79.47636, 27.99402 ], [ 79.47375, 27.99236 ], [ 79.47011, 27.98642 ], [ 79.4753, 27.98117 ], [ 79.47484, 27.97835 ], [ 79.46655, 27.96989 ], [ 79.46331, 27.96515 ], [ 79.4572, 27.96074 ], [ 79.45972, 27.95845 ], [ 79.46461, 27.9635 ], [ 79.46694, 27.96282 ], [ 79.47138, 27.96588 ], [ 79.47627, 27.95619 ], [ 79.47637, 27.95382 ], [ 79.48951, 27.94692 ], [ 79.48923, 27.94059 ], [ 79.48663, 27.93854 ], [ 79.48582, 27.93919 ], [ 79.48618, 27.94209 ], [ 79.48402, 27.94582 ], [ 79.48177, 27.94716 ], [ 79.48129, 27.94396 ], [ 79.48424, 27.93006 ], [ 79.48053, 27.93082 ], [ 79.46543, 27.92484 ], [ 79.46607, 27.92121 ], [ 79.46169, 27.91264 ], [ 79.46501, 27.90747 ], [ 79.46443, 27.90423 ], [ 79.46493, 27.90385 ], [ 79.46359, 27.89912 ], [ 79.46255, 27.89717 ], [ 79.45764, 27.8961 ], [ 79.45398, 27.89391 ], [ 79.45365, 27.8871 ], [ 79.45711, 27.88539 ], [ 79.46536, 27.88371 ], [ 79.46089, 27.8747 ], [ 79.47056, 27.87117 ], [ 79.46841, 27.86522 ], [ 79.47203, 27.86206 ], [ 79.47549, 27.86159 ], [ 79.47339, 27.85592 ], [ 79.47754, 27.85284 ], [ 79.48544, 27.84878 ], [ 79.48403, 27.84538 ], [ 79.48252, 27.84347 ], [ 79.48041, 27.84269 ], [ 79.4728, 27.84294 ], [ 79.46588, 27.85095 ], [ 79.46278, 27.84845 ], [ 79.45641, 27.85081 ], [ 79.45267, 27.84439 ], [ 79.45274, 27.84338 ], [ 79.45568, 27.84027 ], [ 79.45276, 27.83813 ], [ 79.44676, 27.83637 ], [ 79.44157, 27.83594 ], [ 79.43713, 27.84243 ], [ 79.43511, 27.84353 ], [ 79.43284, 27.84338 ], [ 79.41697, 27.83029 ], [ 79.4155, 27.83255 ], [ 79.41679, 27.83598 ], [ 79.41388, 27.84042 ], [ 79.40458, 27.84475 ], [ 79.39937, 27.8378 ], [ 79.40268, 27.83881 ], [ 79.40402, 27.83829 ], [ 79.40471, 27.83655 ], [ 79.39879, 27.83357 ], [ 79.39901, 27.83297 ], [ 79.40224, 27.8335 ], [ 79.40424, 27.83141 ], [ 79.40037, 27.83082 ], [ 79.39898, 27.82935 ], [ 79.39551, 27.82867 ], [ 79.39605, 27.82615 ], [ 79.39535, 27.82209 ], [ 79.39188, 27.82088 ], [ 79.3937, 27.8184 ], [ 79.39249, 27.8176 ], [ 79.3899, 27.81938 ], [ 79.3875, 27.81581 ], [ 79.3861, 27.81528 ], [ 79.38445, 27.8161 ], [ 79.38568, 27.8179 ], [ 79.37923, 27.81686 ], [ 79.3799, 27.81785 ], [ 79.38295, 27.81811 ], [ 79.37979, 27.82119 ], [ 79.38019, 27.82211 ], [ 79.38196, 27.82272 ], [ 79.37958, 27.82355 ], [ 79.37149, 27.81995 ], [ 79.37065, 27.81354 ], [ 79.37358, 27.81297 ], [ 79.3757, 27.81083 ], [ 79.37081, 27.80863 ], [ 79.37245, 27.80477 ], [ 79.3714, 27.80275 ], [ 79.3697, 27.80097 ], [ 79.36846, 27.80155 ], [ 79.36984, 27.80415 ], [ 79.36118, 27.80199 ], [ 79.36232, 27.80459 ], [ 79.36012, 27.80411 ], [ 79.35913, 27.80331 ], [ 79.35891, 27.79758 ], [ 79.35588, 27.7958 ], [ 79.35325, 27.79302 ], [ 79.35302, 27.79067 ], [ 79.35129, 27.78923 ], [ 79.35089, 27.78767 ], [ 79.35523, 27.78254 ], [ 79.35268, 27.77788 ], [ 79.35081, 27.76835 ], [ 79.34634, 27.75587 ], [ 79.34623, 27.75258 ], [ 79.35254, 27.75289 ], [ 79.35547, 27.75141 ], [ 79.35568, 27.74199 ], [ 79.35737, 27.73967 ], [ 79.3592, 27.73933 ], [ 79.36085, 27.73599 ], [ 79.36056, 27.73485 ], [ 79.35666, 27.73367 ], [ 79.35608, 27.73725 ], [ 79.35465, 27.73729 ], [ 79.35229, 27.73581 ], [ 79.34807, 27.73855 ], [ 79.34605, 27.73848 ], [ 79.34408, 27.73695 ], [ 79.34139, 27.73758 ], [ 79.33962, 27.73595 ], [ 79.33735, 27.73781 ], [ 79.33403, 27.7352 ], [ 79.32947, 27.73496 ], [ 79.32673, 27.73119 ], [ 79.32672, 27.73007 ], [ 79.32289, 27.72554 ], [ 79.33212, 27.71985 ], [ 79.33383, 27.71684 ], [ 79.33722, 27.71518 ], [ 79.33948, 27.71124 ], [ 79.33876, 27.70639 ], [ 79.3374, 27.70336 ], [ 79.33898, 27.70275 ], [ 79.3371, 27.69972 ], [ 79.3417, 27.69913 ], [ 79.34231, 27.69527 ], [ 79.34318, 27.69415 ], [ 79.3391, 27.68385 ], [ 79.34127, 27.6829 ], [ 79.3415, 27.68152 ], [ 79.34383, 27.67894 ], [ 79.34674, 27.67875 ], [ 79.349, 27.67655 ], [ 79.35025, 27.67348 ], [ 79.34883, 27.6708 ], [ 79.35687, 27.6684 ], [ 79.352, 27.6578 ], [ 79.34595, 27.66115 ], [ 79.33018, 27.6645 ], [ 79.30899, 27.67095 ], [ 79.30573, 27.67287 ], [ 79.30848, 27.67668 ], [ 79.30312, 27.67966 ], [ 79.30205, 27.6815 ], [ 79.3031, 27.68298 ], [ 79.29158, 27.68598 ], [ 79.28981, 27.68448 ], [ 79.28951, 27.68193 ], [ 79.2996, 27.66979 ], [ 79.29823, 27.66908 ], [ 79.29381, 27.67022 ], [ 79.28331, 27.67994 ], [ 79.27884, 27.68229 ], [ 79.27354, 27.68062 ], [ 79.27094, 27.6813 ], [ 79.26557, 27.68455 ], [ 79.2561, 27.68736 ], [ 79.25823, 27.69417 ], [ 79.25235, 27.69762 ], [ 79.24333, 27.69683 ], [ 79.23513, 27.70849 ], [ 79.23014, 27.7048 ], [ 79.23107, 27.69638 ], [ 79.22957, 27.69646 ], [ 79.22745, 27.69241 ], [ 79.21915, 27.69839 ], [ 79.22022, 27.70013 ], [ 79.21922, 27.70085 ], [ 79.18973, 27.71301 ], [ 79.18143, 27.71533 ], [ 79.19607, 27.75018 ], [ 79.19352, 27.75191 ], [ 79.1921, 27.75512 ], [ 79.18817, 27.76034 ], [ 79.18882, 27.7608 ], [ 79.18703, 27.76473 ], [ 79.17545, 27.76958 ], [ 79.17544, 27.7705 ], [ 79.17043, 27.77106 ], [ 79.17424, 27.77563 ], [ 79.17254, 27.77686 ], [ 79.16996, 27.77685 ], [ 79.16789, 27.77854 ], [ 79.16536, 27.78246 ], [ 79.16394, 27.7969 ], [ 79.14177, 27.81419 ], [ 79.13375, 27.81406 ], [ 79.13397, 27.81551 ], [ 79.14734, 27.82912 ], [ 79.14386, 27.83178 ], [ 79.14284, 27.83152 ], [ 79.14253, 27.8323 ], [ 79.14342, 27.83276 ], [ 79.1412, 27.83384 ], [ 79.13859, 27.83821 ], [ 79.1511, 27.84819 ], [ 79.15592, 27.85323 ], [ 79.15542, 27.85416 ], [ 79.15608, 27.8548 ], [ 79.15541, 27.85538 ], [ 79.15607, 27.85607 ], [ 79.15296, 27.85874 ], [ 79.15521, 27.86106 ], [ 79.15615, 27.86057 ], [ 79.15724, 27.86289 ], [ 79.15613, 27.86347 ], [ 79.15711, 27.86465 ], [ 79.15678, 27.86557 ], [ 79.15848, 27.8669 ], [ 79.15599, 27.86816 ], [ 79.15779, 27.87107 ], [ 79.15917, 27.87083 ], [ 79.16037, 27.87221 ], [ 79.16219, 27.87064 ], [ 79.16378, 27.87203 ], [ 79.17069, 27.86706 ], [ 79.1766, 27.86675 ], [ 79.17753, 27.86739 ], [ 79.17975, 27.86637 ], [ 79.1827, 27.86764 ], [ 79.18491, 27.86652 ], [ 79.18629, 27.86202 ], [ 79.18693, 27.86448 ], [ 79.18805, 27.86454 ], [ 79.18874, 27.86768 ], [ 79.1926, 27.87173 ], [ 79.19431, 27.87063 ], [ 79.19366, 27.86952 ], [ 79.19859, 27.8668 ], [ 79.21116, 27.86792 ], [ 79.2108, 27.86897 ], [ 79.21211, 27.86967 ], [ 79.20769, 27.87252 ], [ 79.20946, 27.87411 ], [ 79.20801, 27.87457 ], [ 79.20741, 27.87573 ], [ 79.20819, 27.87662 ], [ 79.20746, 27.8772 ], [ 79.20957, 27.8793 ], [ 79.20804, 27.88024 ], [ 79.2069, 27.87911 ], [ 79.20569, 27.87936 ], [ 79.20521, 27.88105 ], [ 79.20596, 27.88273 ], [ 79.20446, 27.8839 ], [ 79.20583, 27.88503 ], [ 79.20519, 27.8859 ], [ 79.20611, 27.88626 ], [ 79.20638, 27.888 ], [ 79.20787, 27.88921 ], [ 79.20752, 27.88977 ], [ 79.20861, 27.89028 ], [ 79.20947, 27.88957 ], [ 79.21067, 27.8904 ], [ 79.20916, 27.89289 ], [ 79.20985, 27.89366 ], [ 79.21227, 27.89255 ], [ 79.21234, 27.89107 ], [ 79.21479, 27.89348 ], [ 79.21617, 27.89272 ], [ 79.21521, 27.89124 ], [ 79.21388, 27.89159 ], [ 79.21331, 27.89082 ], [ 79.21572, 27.88904 ], [ 79.21665, 27.88976 ], [ 79.21613, 27.89037 ], [ 79.21802, 27.89145 ], [ 79.21687, 27.89181 ], [ 79.218, 27.89544 ], [ 79.21637, 27.89809 ], [ 79.21698, 27.89873 ], [ 79.21632, 27.90052 ], [ 79.22451, 27.90422 ], [ 79.22358, 27.9056 ], [ 79.22438, 27.90668 ], [ 79.22565, 27.90597 ], [ 79.22609, 27.90822 ], [ 79.22787, 27.90894 ], [ 79.22797, 27.91104 ], [ 79.22527, 27.91174 ], [ 79.22606, 27.91348 ], [ 79.22382, 27.91332 ], [ 79.22013, 27.91493 ], [ 79.21978, 27.9158 ], [ 79.21883, 27.91503 ], [ 79.21612, 27.91693 ], [ 79.22442, 27.92771 ], [ 79.22859, 27.93079 ], [ 79.2267, 27.93274 ], [ 79.23197, 27.93787 ], [ 79.23411, 27.93931 ], [ 79.23998, 27.93423 ], [ 79.2413, 27.93467 ], [ 79.24451, 27.93385 ], [ 79.24952, 27.93969 ], [ 79.25856, 27.93531 ], [ 79.26076, 27.93732 ], [ 79.26481, 27.93529 ], [ 79.27327, 27.94369 ], [ 79.27702, 27.9405 ], [ 79.27889, 27.94082 ], [ 79.28229, 27.93906 ], [ 79.2862, 27.93936 ], [ 79.29167, 27.93787 ], [ 79.29757, 27.93947 ], [ 79.30168, 27.94167 ], [ 79.30195, 27.93924 ], [ 79.30719, 27.93559 ], [ 79.30742, 27.9386 ], [ 79.30945, 27.93646 ], [ 79.31164, 27.94003 ], [ 79.32093, 27.95023 ], [ 79.32086, 27.95752 ], [ 79.31513, 27.95886 ], [ 79.30939, 27.96238 ], [ 79.30409, 27.96379 ], [ 79.30564, 27.96641 ], [ 79.30259, 27.97216 ], [ 79.29322, 27.96977 ], [ 79.29007, 27.97227 ], [ 79.28873, 27.97202 ], [ 79.28124, 27.9661 ], [ 79.27999, 27.96844 ], [ 79.277, 27.96885 ], [ 79.27435, 27.97049 ], [ 79.26952, 27.9711 ], [ 79.26768, 27.97256 ], [ 79.26704, 27.97513 ], [ 79.27217, 27.97579 ], [ 79.27335, 27.97684 ], [ 79.27472, 27.98059 ], [ 79.28114, 27.97979 ], [ 79.28714, 27.9846 ], [ 79.28885, 27.9848 ], [ 79.28898, 27.98425 ], [ 79.2913, 27.98547 ], [ 79.29924, 27.98534 ], [ 79.29587, 27.99057 ], [ 79.30372, 27.99508 ], [ 79.30633, 27.99503 ], [ 79.30977, 27.99681 ], [ 79.31082, 27.99775 ], [ 79.31364, 28.00571 ], [ 79.31224, 28.00896 ], [ 79.30921, 28.01244 ], [ 79.30352, 28.015 ], [ 79.29679, 28.01524 ], [ 79.29525, 28.01643 ], [ 79.29507, 28.01768 ], [ 79.2969, 28.0179 ], [ 79.29605, 28.01926 ], [ 79.29888, 28.01929 ], [ 79.29469, 28.02139 ], [ 79.2954, 28.02302 ], [ 79.29311, 28.02287 ], [ 79.29296, 28.02378 ], [ 79.29163, 28.02418 ], [ 79.29328, 28.02541 ], [ 79.29057, 28.02641 ], [ 79.29232, 28.02956 ], [ 79.29117, 28.03217 ], [ 79.28875, 28.03469 ], [ 79.28882, 28.03754 ], [ 79.29037, 28.04121 ], [ 79.29045, 28.04481 ], [ 79.28715, 28.04884 ], [ 79.28249, 28.05096 ], [ 79.28195, 28.05372 ], [ 79.27844, 28.05872 ], [ 79.27849, 28.06066 ], [ 79.28084, 28.06643 ], [ 79.28475, 28.06817 ], [ 79.2857, 28.06983 ], [ 79.28937, 28.07257 ], [ 79.28826, 28.07308 ], [ 79.28485, 28.07092 ], [ 79.27851, 28.07136 ], [ 79.27412, 28.07322 ], [ 79.27333, 28.07443 ], [ 79.27296, 28.07754 ], [ 79.27689, 28.08199 ], [ 79.27755, 28.08356 ], [ 79.27712, 28.08757 ], [ 79.27977, 28.09137 ], [ 79.276, 28.09544 ], [ 79.27523, 28.09755 ], [ 79.27868, 28.09909 ], [ 79.28594, 28.09561 ], [ 79.28954, 28.09661 ], [ 79.29306, 28.09845 ], [ 79.29134, 28.10038 ], [ 79.29223, 28.10242 ], [ 79.29252, 28.10744 ], [ 79.30678, 28.10515 ], [ 79.30688, 28.10701 ], [ 79.30857, 28.10663 ], [ 79.31036, 28.10984 ], [ 79.31236, 28.10923 ], [ 79.31396, 28.1105 ], [ 79.31299, 28.11175 ], [ 79.31364, 28.11404 ], [ 79.31753, 28.11512 ], [ 79.316, 28.11964 ], [ 79.31796, 28.12182 ], [ 79.32048, 28.12244 ], [ 79.32242, 28.12851 ], [ 79.32102, 28.13001 ], [ 79.32027, 28.13392 ], [ 79.30643, 28.13476 ], [ 79.30243, 28.13846 ], [ 79.30198, 28.14205 ], [ 79.30302, 28.14376 ], [ 79.30505, 28.14428 ], [ 79.31001, 28.14131 ], [ 79.31338, 28.14079 ], [ 79.31473, 28.14389 ], [ 79.3156, 28.14981 ], [ 79.31916, 28.15152 ], [ 79.31872, 28.15258 ], [ 79.32147, 28.15441 ], [ 79.32262, 28.15615 ], [ 79.31871, 28.15786 ], [ 79.32145, 28.16375 ], [ 79.3235, 28.16506 ], [ 79.3289, 28.16219 ], [ 79.33076, 28.16027 ], [ 79.33601, 28.16761 ], [ 79.33695, 28.1706 ], [ 79.34163, 28.17041 ], [ 79.34661, 28.17332 ], [ 79.35158, 28.16643 ], [ 79.35277, 28.16605 ], [ 79.35881, 28.16752 ], [ 79.36046, 28.16874 ], [ 79.361, 28.17263 ], [ 79.36519, 28.1756 ], [ 79.37049, 28.17333 ], [ 79.3736, 28.17344 ], [ 79.3751, 28.17567 ], [ 79.37374, 28.17992 ], [ 79.38849, 28.17888 ], [ 79.38972, 28.17756 ], [ 79.38985, 28.17609 ] ] ] } },
{ "type": "Feature", "properties": { "OBJECTID": 2695, "state_lgd": "09", "state_name": "UTTAR PRADESH", "district_lgd": "149", "district_name": "BUDAUN", "district_name_source": "district_table", "subdistrict_lgd": "781", "subdistrict_name": "SAHASWAN", "subdistrict_type": "Tehsil", "name_corrupted": false, "remarks": "", "label_lon": 78.718439486396349, "label_lat": 28.097470250463939 }, "geometry": { "type": "Polygon", "coordinates": [ [ [ 78.67689, 28.26757 ], [ 78.68347, 28.27182 ], [ 78.69006, 28.26287 ], [ 78.6941, 28.26201 ], [ 78.69832, 28.25756 ], [ 78.70373, 28.25694 ], [ 78.70639, 28.25894 ], [ 78.70562, 28.25572 ], [ 78.71155, 28.25135 ], [ 78.71314, 28.24585 ], [ 78.71657, 28.24055 ], [ 78.71894, 28.23959 ], [ 78.72399, 28.23401 ], [ 78.72322, 28.232 ], [ 78.72456, 28.22681 ], [ 78.72475, 28.22235 ], [ 78.7265, 28.21933 ], [ 78.72798, 28.21781 ], [ 78.7305, 28.2173 ], [ 78.73287, 28.21473 ], [ 78.73532, 28.2143 ], [ 78.73923, 28.21158 ], [ 78.74066, 28.21135 ], [ 78.74241, 28.21286 ], [ 78.74386, 28.21262 ], [ 78.74762, 28.2079 ], [ 78.74789, 28.2045 ], [ 78.74979, 28.2016 ], [ 78.74901, 28.20027 ], [ 78.74973, 28.19904 ], [ 78.75643, 28.19374 ], [ 78.76028, 28.19405 ], [ 78.76211, 28.19303 ], [ 78.76279, 28.1906 ], [ 78.76172, 28.18802 ], [ 78.76232, 28.18634 ], [ 78.76044, 28.18211 ], [ 78.76493, 28.1812 ], [ 78.77128, 28.17843 ], [ 78.77739, 28.17858 ], [ 78.78315, 28.17558 ], [ 78.78357, 28.17401 ], [ 78.78279, 28.172 ], [ 78.78387, 28.16843 ], [ 78.78099, 28.16542 ], [ 78.77949, 28.16559 ], [ 78.76889, 28.1557 ], [ 78.76973, 28.15461 ], [ 78.76904, 28.15415 ], [ 78.77211, 28.15035 ], [ 78.77391, 28.15081 ], [ 78.77603, 28.14979 ], [ 78.77803, 28.15063 ], [ 78.7787, 28.15142 ], [ 78.77793, 28.15196 ], [ 78.78225, 28.15654 ], [ 78.7831, 28.15617 ], [ 78.78477, 28.15776 ], [ 78.78546, 28.15729 ], [ 78.78745, 28.15791 ], [ 78.78763, 28.15996 ], [ 78.79436, 28.15737 ], [ 78.79663, 28.15933 ], [ 78.79935, 28.15563 ], [ 78.79855, 28.15377 ], [ 78.81144, 28.14466 ], [ 78.81339, 28.14565 ], [ 78.8157, 28.14552 ], [ 78.8178, 28.14419 ], [ 78.81856, 28.14475 ], [ 78.82351, 28.14086 ], [ 78.82945, 28.14335 ], [ 78.83645, 28.1419 ], [ 78.84201, 28.1424 ], [ 78.8466, 28.14535 ], [ 78.85012, 28.14318 ], [ 78.85188, 28.14068 ], [ 78.85217, 28.1386 ], [ 78.85018, 28.13506 ], [ 78.84495, 28.13331 ], [ 78.83989, 28.13833 ], [ 78.83923, 28.13818 ], [ 78.83623, 28.13607 ], [ 78.8367, 28.13554 ], [ 78.8272, 28.12403 ], [ 78.82023, 28.1262 ], [ 78.81411, 28.12222 ], [ 78.81119, 28.11811 ], [ 78.81098, 28.11605 ], [ 78.81165, 28.11544 ], [ 78.81064, 28.1147 ], [ 78.81517, 28.11021 ], [ 78.82275, 28.10445 ], [ 78.81736, 28.09907 ], [ 78.82974, 28.08964 ], [ 78.83456, 28.09423 ], [ 78.83624, 28.09458 ], [ 78.83854, 28.09129 ], [ 78.84443, 28.09441 ], [ 78.84951, 28.08947 ], [ 78.85161, 28.0906 ], [ 78.85301, 28.08958 ], [ 78.85052, 28.08429 ], [ 78.84648, 28.08127 ], [ 78.85192, 28.07451 ], [ 78.86169, 28.08132 ], [ 78.87085, 28.07539 ], [ 78.87227, 28.0706 ], [ 78.87478, 28.06865 ], [ 78.87554, 28.06696 ], [ 78.87191, 28.06543 ], [ 78.87277, 28.06475 ], [ 78.87232, 28.0642 ], [ 78.87699, 28.0599 ], [ 78.87934, 28.05886 ], [ 78.87326, 28.051 ], [ 78.87699, 28.04861 ], [ 78.88019, 28.0481 ], [ 78.88436, 28.04352 ], [ 78.88025, 28.03928 ], [ 78.88121, 28.03851 ], [ 78.87985, 28.03684 ], [ 78.88007, 28.03503 ], [ 78.882, 28.03277 ], [ 78.88461, 28.0323 ], [ 78.88859, 28.03022 ], [ 78.89163, 28.02752 ], [ 78.8984, 28.01954 ], [ 78.89763, 28.01639 ], [ 78.89738, 28.01566 ], [ 78.89595, 28.01564 ], [ 78.89466, 28.0136 ], [ 78.88597, 28.01367 ], [ 78.87641, 28.01101 ], [ 78.87359, 28.00847 ], [ 78.87147, 28.00482 ], [ 78.87539, 28.00289 ], [ 78.87314, 28.00037 ], [ 78.87005, 27.9994 ], [ 78.86928, 27.99984 ], [ 78.86736, 27.99807 ], [ 78.86452, 27.99919 ], [ 78.86391, 27.99851 ], [ 78.86217, 27.99918 ], [ 78.86116, 27.99836 ], [ 78.85951, 27.99927 ], [ 78.85866, 27.9983 ], [ 78.85668, 28.00012 ], [ 78.84982, 28.00364 ], [ 78.84843, 28.00317 ], [ 78.84302, 28.00641 ], [ 78.83901, 28.00145 ], [ 78.84234, 27.99549 ], [ 78.83889, 27.99049 ], [ 78.83706, 27.98881 ], [ 78.83284, 27.98687 ], [ 78.83038, 27.98714 ], [ 78.82708, 27.98898 ], [ 78.82632, 27.98827 ], [ 78.82353, 27.98445 ], [ 78.82358, 27.98186 ], [ 78.82077, 27.98154 ], [ 78.81938, 27.97853 ], [ 78.81814, 27.97887 ], [ 78.81707, 27.97798 ], [ 78.81727, 27.97722 ], [ 78.81583, 27.977 ], [ 78.8136, 27.96891 ], [ 78.79887, 27.95095 ], [ 78.78773, 27.95335 ], [ 78.78697, 27.95173 ], [ 78.77747, 27.95534 ], [ 78.77759, 27.95889 ], [ 78.77561, 27.96083 ], [ 78.76571, 27.96309 ], [ 78.75737, 27.94854 ], [ 78.7522, 27.955 ], [ 78.74948, 27.95709 ], [ 78.75529, 27.97004 ], [ 78.7549, 27.97227 ], [ 78.75645, 27.97523 ], [ 78.75503, 27.97513 ], [ 78.74966, 27.96932 ], [ 78.74143, 27.9661 ], [ 78.7354, 27.96193 ], [ 78.73439, 27.96266 ], [ 78.73123, 27.96044 ], [ 78.72229, 27.96363 ], [ 78.7195, 27.96823 ], [ 78.71743, 27.9694 ], [ 78.71816, 27.97131 ], [ 78.71734, 27.97229 ], [ 78.71788, 27.97359 ], [ 78.7165, 27.97432 ], [ 78.7165, 27.97573 ], [ 78.71161, 27.97666 ], [ 78.70889, 27.98095 ], [ 78.70513, 27.98451 ], [ 78.7036, 27.99326 ], [ 78.69458, 27.99784 ], [ 78.68785, 27.99838 ], [ 78.68396, 27.99956 ], [ 78.67018, 28.00012 ], [ 78.66017, 28.00275 ], [ 78.65347, 28.0079 ], [ 78.65901, 28.0106 ], [ 78.65987, 28.01319 ], [ 78.66331, 28.01414 ], [ 78.66605, 28.01596 ], [ 78.6534, 28.01444 ], [ 78.65535, 28.01241 ], [ 78.6505, 28.01231 ], [ 78.6522, 28.01382 ], [ 78.64495, 28.01792 ], [ 78.63587, 28.01863 ], [ 78.62807, 28.02794 ], [ 78.62358, 28.02471 ], [ 78.61716, 28.01602 ], [ 78.61027, 28.01937 ], [ 78.60772, 28.01799 ], [ 78.59976, 28.02672 ], [ 78.59541, 28.03316 ], [ 78.58902, 28.03373 ], [ 78.59594, 28.03448 ], [ 78.59873, 28.03618 ], [ 78.6048, 28.0374 ], [ 78.60453, 28.03861 ], [ 78.59603, 28.0409 ], [ 78.59091, 28.0414 ], [ 78.58702, 28.04566 ], [ 78.58198, 28.0487 ], [ 78.57972, 28.04827 ], [ 78.57309, 28.0498 ], [ 78.57657, 28.05378 ], [ 78.57637, 28.05469 ], [ 78.57927, 28.05663 ], [ 78.5828, 28.06089 ], [ 78.58026, 28.06318 ], [ 78.58105, 28.06634 ], [ 78.58317, 28.07115 ], [ 78.58831, 28.07583 ], [ 78.5901, 28.08364 ], [ 78.59131, 28.08462 ], [ 78.58911, 28.08636 ], [ 78.59073, 28.09002 ], [ 78.58969, 28.09121 ], [ 78.58569, 28.09207 ], [ 78.58565, 28.09527 ], [ 78.58368, 28.09663 ], [ 78.58359, 28.09746 ], [ 78.58273, 28.09776 ], [ 78.58161, 28.0968 ], [ 78.57197, 28.09899 ], [ 78.57224, 28.10228 ], [ 78.57258, 28.10318 ], [ 78.57949, 28.10299 ], [ 78.58048, 28.10433 ], [ 78.57978, 28.10755 ], [ 78.58513, 28.11099 ], [ 78.58908, 28.11575 ], [ 78.58809, 28.11653 ], [ 78.58875, 28.11705 ], [ 78.58176, 28.1231 ], [ 78.59386, 28.13309 ], [ 78.58318, 28.14023 ], [ 78.57832, 28.13801 ], [ 78.57667, 28.13609 ], [ 78.57441, 28.13893 ], [ 78.57466, 28.14258 ], [ 78.57804, 28.14779 ], [ 78.58597, 28.14662 ], [ 78.58723, 28.15413 ], [ 78.59291, 28.16088 ], [ 78.60144, 28.15938 ], [ 78.6103, 28.16517 ], [ 78.61193, 28.16916 ], [ 78.6103, 28.17278 ], [ 78.60557, 28.17073 ], [ 78.60204, 28.17107 ], [ 78.6041, 28.17322 ], [ 78.60412, 28.17443 ], [ 78.60142, 28.17471 ], [ 78.6006, 28.17598 ], [ 78.59881, 28.17541 ], [ 78.5969, 28.17632 ], [ 78.59836, 28.17994 ], [ 78.5974, 28.18041 ], [ 78.5944, 28.17917 ], [ 78.59202, 28.18236 ], [ 78.59224, 28.18563 ], [ 78.5941, 28.18736 ], [ 78.59562, 28.19093 ], [ 78.59972, 28.19542 ], [ 78.60163, 28.19674 ], [ 78.60669, 28.19573 ], [ 78.60988, 28.19853 ], [ 78.61166, 28.20337 ], [ 78.61709, 28.20543 ], [ 78.61703, 28.20894 ], [ 78.6199, 28.21046 ], [ 78.62452, 28.2115 ], [ 78.62759, 28.21434 ], [ 78.63238, 28.21581 ], [ 78.63651, 28.22157 ], [ 78.63684, 28.22248 ], [ 78.63472, 28.22479 ], [ 78.63095, 28.22754 ], [ 78.63078, 28.22912 ], [ 78.63437, 28.23319 ], [ 78.63552, 28.23343 ], [ 78.63535, 28.23598 ], [ 78.63357, 28.23696 ], [ 78.63253, 28.2441 ], [ 78.63613, 28.25012 ], [ 78.63605, 28.25142 ], [ 78.64061, 28.25457 ], [ 78.64161, 28.25847 ], [ 78.6392, 28.26081 ], [ 78.65205, 28.27 ], [ 78.65699, 28.26407 ], [ 78.66964, 28.27277 ], [ 78.67689, 28.26757 ] ] ] } }
]
}
