{
"type": "FeatureCollection",
"name": "154_SITAPUR",
"crs": { "type": "name", "properties": { "name": "urn:ogc:def:crs:OGC:1.3:CRS84" } },
"xy_coordinate_resolution": 1e-05,
"features": [
{ "type": "Feature", "properties": { "OBJECTID": 2463, "state_lgd": "09", "state_name": "UTTAR PRADESH", "district_lgd": "154", "district_name": "SITAPUR", "district_name_source": "district_table", "subdistrict_lgd": "806", "subdistrict_name": "BISWAN", "subdistrict_type": "Tehsil", "name_corrupted": false, "remarks": "", "label_lon": 81.09594917133289, "label_lat": 27.542406258483222 }, "geometry": { "type": "Polygon", "coordinates": [ [ [ 81.24308, 27.72902 ], [ 81.24571, 27.72391 ], [ 81.24554, 27.71991 ], [ 81.24742, 27.71682 ], [ 81.25436, 27.71461 ], [ 81.26555, 27.71338 ], [ 81.26973, 27.70569 ], [ 81.269, 27.70134 ], [ 81.27242, 27.69867 ], [ 81.27201, 27.69807 ], [ 81.26636, 27.70051 ], [ 81.26301, 27.69917 ], [ 81.25023, 27.6862 ], [ 81.24911, 27.68197 ], [ 81.2505, 27.67889 ], [ 81.25204, 27.67974 ], [ 81.25959, 27.67979 ], [ 81.27358, 27.67559 ], [ 81.27436, 27.67683 ], [ 81.27486, 27.68418 ], [ 81.27837, 27.6851 ], [ 81.27902, 27.68344 ], [ 81.2778, 27.67843 ], [ 81.27912, 27.67578 ], [ 81.2859, 27.67068 ], [ 81.29397, 27.66637 ], [ 81.29355, 27.66206 ], [ 81.29168, 27.65951 ], [ 81.29123, 27.65523 ], [ 81.29603, 27.65387 ], [ 81.30449, 27.65298 ], [ 81.31275, 27.63537 ], [ 81.31117, 27.63123 ], [ 81.30539, 27.60047 ], [ 81.31331, 27.59495 ], [ 81.32496, 27.58853 ], [ 81.32255, 27.58326 ], [ 81.3218, 27.57764 ], [ 81.32059, 27.54802 ], [ 81.32032, 27.5464 ], [ 81.31915, 27.54597 ], [ 81.30538, 27.5483 ], [ 81.30414, 27.54171 ], [ 81.30215, 27.5385 ], [ 81.3049, 27.53749 ], [ 81.3151, 27.53727 ], [ 81.31641, 27.53562 ], [ 81.31726, 27.53097 ], [ 81.32268, 27.52953 ], [ 81.31977, 27.52457 ], [ 81.31909, 27.52157 ], [ 81.31954, 27.51826 ], [ 81.32248, 27.51648 ], [ 81.32082, 27.51286 ], [ 81.32031, 27.50386 ], [ 81.31887, 27.50021 ], [ 81.32548, 27.49427 ], [ 81.33219, 27.49022 ], [ 81.3326, 27.48765 ], [ 81.33142, 27.48125 ], [ 81.33403, 27.47328 ], [ 81.33097, 27.46287 ], [ 81.3358, 27.4568 ], [ 81.34055, 27.4568 ], [ 81.33331, 27.44216 ], [ 81.33045, 27.44475 ], [ 81.32123, 27.44198 ], [ 81.31717, 27.44179 ], [ 81.31096, 27.44747 ], [ 81.32079, 27.4613 ], [ 81.31918, 27.46645 ], [ 81.30984, 27.46606 ], [ 81.30827, 27.46579 ], [ 81.30561, 27.45371 ], [ 81.30293, 27.45572 ], [ 81.30056, 27.45063 ], [ 81.29606, 27.45188 ], [ 81.28977, 27.44648 ], [ 81.28775, 27.44957 ], [ 81.28683, 27.44962 ], [ 81.28381, 27.45291 ], [ 81.28284, 27.45565 ], [ 81.27864, 27.45918 ], [ 81.27199, 27.45583 ], [ 81.27073, 27.45221 ], [ 81.26769, 27.4492 ], [ 81.26811, 27.44775 ], [ 81.27103, 27.44597 ], [ 81.26916, 27.44389 ], [ 81.26284, 27.44024 ], [ 81.25803, 27.43884 ], [ 81.25481, 27.43968 ], [ 81.24826, 27.44787 ], [ 81.24724, 27.4452 ], [ 81.2445, 27.44477 ], [ 81.23997, 27.44221 ], [ 81.2378, 27.43989 ], [ 81.23624, 27.44217 ], [ 81.23363, 27.44321 ], [ 81.23201, 27.44626 ], [ 81.229, 27.44805 ], [ 81.22299, 27.44241 ], [ 81.22088, 27.4341 ], [ 81.21958, 27.43263 ], [ 81.2152, 27.42974 ], [ 81.21075, 27.4281 ], [ 81.20413, 27.43518 ], [ 81.19985, 27.43773 ], [ 81.19951, 27.43904 ], [ 81.19549, 27.44311 ], [ 81.19624, 27.44861 ], [ 81.19871, 27.45523 ], [ 81.1958, 27.46155 ], [ 81.19044, 27.46352 ], [ 81.1891, 27.46992 ], [ 81.17822, 27.47977 ], [ 81.17511, 27.48365 ], [ 81.17083, 27.48589 ], [ 81.16096, 27.48832 ], [ 81.15695, 27.48692 ], [ 81.15564, 27.4884 ], [ 81.15909, 27.49268 ], [ 81.16064, 27.49296 ], [ 81.16023, 27.49382 ], [ 81.15672, 27.49664 ], [ 81.15286, 27.49108 ], [ 81.15099, 27.49093 ], [ 81.15119, 27.49728 ], [ 81.15526, 27.49775 ], [ 81.14987, 27.50014 ], [ 81.14817, 27.50306 ], [ 81.14645, 27.50372 ], [ 81.14599, 27.50722 ], [ 81.14508, 27.50787 ], [ 81.1434, 27.50712 ], [ 81.13369, 27.51351 ], [ 81.13095, 27.51289 ], [ 81.12644, 27.50943 ], [ 81.12541, 27.50954 ], [ 81.12208, 27.51415 ], [ 81.11608, 27.50807 ], [ 81.11914, 27.5044 ], [ 81.10919, 27.49418 ], [ 81.11011, 27.49275 ], [ 81.10733, 27.49113 ], [ 81.1001, 27.4983 ], [ 81.09551, 27.49369 ], [ 81.09298, 27.48815 ], [ 81.09954, 27.48467 ], [ 81.09636, 27.48009 ], [ 81.0911, 27.47794 ], [ 81.09027, 27.47544 ], [ 81.08742, 27.4726 ], [ 81.08065, 27.46758 ], [ 81.07322, 27.47142 ], [ 81.07214, 27.4704 ], [ 81.07163, 27.46761 ], [ 81.06991, 27.46618 ], [ 81.06227, 27.46755 ], [ 81.05985, 27.46403 ], [ 81.05304, 27.45864 ], [ 81.05209, 27.45894 ], [ 81.04571, 27.45555 ], [ 81.04479, 27.45403 ], [ 81.04189, 27.4528 ], [ 81.03975, 27.45086 ], [ 81.03787, 27.44677 ], [ 81.03434, 27.44273 ], [ 81.03523, 27.4406 ], [ 81.03169, 27.43597 ], [ 81.02968, 27.42886 ], [ 81.02953, 27.42538 ], [ 81.02831, 27.42427 ], [ 81.02517, 27.42539 ], [ 81.02344, 27.42497 ], [ 81.01596, 27.41608 ], [ 81.00962, 27.42107 ], [ 81.00178, 27.41217 ], [ 80.99765, 27.41455 ], [ 80.99172, 27.41084 ], [ 80.98841, 27.40738 ], [ 80.98253, 27.40883 ], [ 80.98193, 27.4099 ], [ 80.98231, 27.41253 ], [ 80.98029, 27.41307 ], [ 80.9778, 27.40881 ], [ 80.97632, 27.40395 ], [ 80.97771, 27.40169 ], [ 80.97583, 27.40067 ], [ 80.96424, 27.40033 ], [ 80.96124, 27.40146 ], [ 80.95862, 27.40104 ], [ 80.95458, 27.40585 ], [ 80.9528, 27.40519 ], [ 80.94598, 27.396 ], [ 80.94742, 27.39429 ], [ 80.94726, 27.393 ], [ 80.94592, 27.3883 ], [ 80.94253, 27.38162 ], [ 80.93875, 27.3774 ], [ 80.9352, 27.3755 ], [ 80.93373, 27.3738 ], [ 80.93214, 27.3697 ], [ 80.93012, 27.36794 ], [ 80.92848, 27.36804 ], [ 80.92155, 27.37483 ], [ 80.91325, 27.38039 ], [ 80.90678, 27.38268 ], [ 80.90508, 27.38212 ], [ 80.90006, 27.38387 ], [ 80.89943, 27.39407 ], [ 80.90326, 27.40167 ], [ 80.90165, 27.4027 ], [ 80.89938, 27.40365 ], [ 80.89498, 27.40079 ], [ 80.89137, 27.39516 ], [ 80.89227, 27.3941 ], [ 80.88827, 27.38894 ], [ 80.88554, 27.39097 ], [ 80.88095, 27.39156 ], [ 80.87598, 27.39593 ], [ 80.86918, 27.39798 ], [ 80.86481, 27.40288 ], [ 80.86292, 27.40283 ], [ 80.86038, 27.40142 ], [ 80.85697, 27.40324 ], [ 80.85582, 27.40612 ], [ 80.85131, 27.40761 ], [ 80.87054, 27.42674 ], [ 80.87256, 27.42923 ], [ 80.87232, 27.4312 ], [ 80.87513, 27.43389 ], [ 80.87653, 27.43408 ], [ 80.8777, 27.43752 ], [ 80.87969, 27.43696 ], [ 80.88082, 27.44066 ], [ 80.88532, 27.44629 ], [ 80.88732, 27.45632 ], [ 80.8861, 27.45864 ], [ 80.88393, 27.45866 ], [ 80.8777, 27.46266 ], [ 80.87562, 27.46582 ], [ 80.87677, 27.46841 ], [ 80.86759, 27.47426 ], [ 80.85764, 27.47509 ], [ 80.85638, 27.4748 ], [ 80.85337, 27.47124 ], [ 80.84397, 27.47626 ], [ 80.83894, 27.47499 ], [ 80.83636, 27.47332 ], [ 80.8395, 27.47893 ], [ 80.83876, 27.48042 ], [ 80.83398, 27.47971 ], [ 80.83378, 27.48418 ], [ 80.83261, 27.48598 ], [ 80.83389, 27.4863 ], [ 80.836, 27.48463 ], [ 80.83724, 27.4857 ], [ 80.83561, 27.48679 ], [ 80.83695, 27.48893 ], [ 80.83559, 27.48997 ], [ 80.83515, 27.49284 ], [ 80.83336, 27.49307 ], [ 80.83318, 27.49147 ], [ 80.83177, 27.49217 ], [ 80.83095, 27.49476 ], [ 80.83195, 27.49776 ], [ 80.82984, 27.49839 ], [ 80.82921, 27.49953 ], [ 80.83118, 27.50163 ], [ 80.83249, 27.49941 ], [ 80.83433, 27.50082 ], [ 80.83852, 27.50129 ], [ 80.83861, 27.50219 ], [ 80.83953, 27.50215 ], [ 80.83921, 27.50588 ], [ 80.84031, 27.50652 ], [ 80.84208, 27.50584 ], [ 80.84209, 27.50705 ], [ 80.84353, 27.50815 ], [ 80.84109, 27.51015 ], [ 80.84392, 27.51022 ], [ 80.84321, 27.51277 ], [ 80.84429, 27.51378 ], [ 80.84518, 27.51346 ], [ 80.84596, 27.51545 ], [ 80.84934, 27.51587 ], [ 80.85063, 27.51696 ], [ 80.85153, 27.51544 ], [ 80.85254, 27.51731 ], [ 80.85214, 27.51939 ], [ 80.85329, 27.52014 ], [ 80.85334, 27.52252 ], [ 80.85458, 27.52334 ], [ 80.85168, 27.52648 ], [ 80.8489, 27.52732 ], [ 80.84812, 27.52658 ], [ 80.8454, 27.52766 ], [ 80.84512, 27.52923 ], [ 80.8409, 27.52986 ], [ 80.84087, 27.53144 ], [ 80.83843, 27.5343 ], [ 80.83925, 27.53768 ], [ 80.83855, 27.54063 ], [ 80.83969, 27.5421 ], [ 80.83956, 27.54382 ], [ 80.84023, 27.54441 ], [ 80.84298, 27.54395 ], [ 80.84703, 27.5455 ], [ 80.8508, 27.54416 ], [ 80.85825, 27.55262 ], [ 80.8571, 27.55332 ], [ 80.85782, 27.55507 ], [ 80.85678, 27.55587 ], [ 80.85843, 27.55863 ], [ 80.85637, 27.56018 ], [ 80.86269, 27.56548 ], [ 80.86587, 27.56008 ], [ 80.86713, 27.56082 ], [ 80.87023, 27.55938 ], [ 80.87089, 27.56031 ], [ 80.87179, 27.55971 ], [ 80.87383, 27.56076 ], [ 80.87747, 27.55785 ], [ 80.87783, 27.55561 ], [ 80.88409, 27.55239 ], [ 80.88698, 27.55456 ], [ 80.88992, 27.55886 ], [ 80.89632, 27.56489 ], [ 80.89946, 27.5637 ], [ 80.90409, 27.56825 ], [ 80.90903, 27.57002 ], [ 80.91199, 27.56964 ], [ 80.91493, 27.57142 ], [ 80.91762, 27.57001 ], [ 80.92203, 27.57363 ], [ 80.92743, 27.57143 ], [ 80.92883, 27.57312 ], [ 80.92784, 27.57406 ], [ 80.92945, 27.57732 ], [ 80.92488, 27.58028 ], [ 80.92361, 27.58426 ], [ 80.9243, 27.587 ], [ 80.92378, 27.59072 ], [ 80.92504, 27.59104 ], [ 80.92897, 27.58918 ], [ 80.9304, 27.59131 ], [ 80.93334, 27.59096 ], [ 80.94196, 27.59777 ], [ 80.94253, 27.59973 ], [ 80.94124, 27.60127 ], [ 80.94343, 27.60371 ], [ 80.94531, 27.61091 ], [ 80.95373, 27.61868 ], [ 80.95855, 27.61655 ], [ 80.96174, 27.619 ], [ 80.96316, 27.61393 ], [ 80.96575, 27.61063 ], [ 80.97136, 27.61425 ], [ 80.97793, 27.62222 ], [ 80.95998, 27.63349 ], [ 80.95439, 27.63879 ], [ 80.95854, 27.64372 ], [ 80.958, 27.64428 ], [ 80.95915, 27.64579 ], [ 80.96533, 27.64965 ], [ 80.96291, 27.6509 ], [ 80.96063, 27.6547 ], [ 80.96384, 27.65907 ], [ 80.96236, 27.65969 ], [ 80.96302, 27.66081 ], [ 80.96574, 27.66326 ], [ 80.96631, 27.66281 ], [ 80.96895, 27.6652 ], [ 80.97027, 27.66526 ], [ 80.97357, 27.66239 ], [ 80.97676, 27.66251 ], [ 80.97729, 27.6636 ], [ 80.9767, 27.66402 ], [ 80.9783, 27.66587 ], [ 80.9777, 27.66648 ], [ 80.9787, 27.66748 ], [ 80.97818, 27.66789 ], [ 80.97968, 27.67061 ], [ 80.98105, 27.67121 ], [ 80.98241, 27.6705 ], [ 80.98381, 27.67085 ], [ 80.98789, 27.66597 ], [ 80.9894, 27.6659 ], [ 80.99332, 27.66284 ], [ 80.99381, 27.66577 ], [ 81.00036, 27.66126 ], [ 81.00241, 27.66096 ], [ 81.00389, 27.66359 ], [ 81.00729, 27.66622 ], [ 81.00975, 27.66294 ], [ 81.01472, 27.66203 ], [ 81.01296, 27.66061 ], [ 81.01734, 27.65812 ], [ 81.01944, 27.65945 ], [ 81.02267, 27.65925 ], [ 81.02412, 27.66049 ], [ 81.02974, 27.65718 ], [ 81.03155, 27.65747 ], [ 81.03255, 27.6557 ], [ 81.03275, 27.65248 ], [ 81.03397, 27.65075 ], [ 81.03312, 27.64847 ], [ 81.03438, 27.64515 ], [ 81.03437, 27.64261 ], [ 81.03259, 27.64234 ], [ 81.03398, 27.63998 ], [ 81.0327, 27.63824 ], [ 81.0329, 27.63709 ], [ 81.0341, 27.6371 ], [ 81.03575, 27.63927 ], [ 81.03777, 27.6367 ], [ 81.03891, 27.63662 ], [ 81.03771, 27.638 ], [ 81.0382, 27.63863 ], [ 81.03956, 27.63779 ], [ 81.03976, 27.63525 ], [ 81.04203, 27.63702 ], [ 81.04528, 27.63639 ], [ 81.04708, 27.64017 ], [ 81.0486, 27.63828 ], [ 81.05131, 27.63811 ], [ 81.05474, 27.6355 ], [ 81.05423, 27.63293 ], [ 81.0515, 27.63167 ], [ 81.05041, 27.62965 ], [ 81.05079, 27.62703 ], [ 81.05359, 27.62527 ], [ 81.05465, 27.62137 ], [ 81.05037, 27.6201 ], [ 81.04907, 27.61881 ], [ 81.05067, 27.61421 ], [ 81.05153, 27.6145 ], [ 81.05481, 27.61121 ], [ 81.05709, 27.60636 ], [ 81.05519, 27.6055 ], [ 81.05422, 27.60314 ], [ 81.05508, 27.60123 ], [ 81.05612, 27.60095 ], [ 81.05554, 27.5999 ], [ 81.05648, 27.59911 ], [ 81.05589, 27.59821 ], [ 81.05757, 27.59444 ], [ 81.05754, 27.59271 ], [ 81.05933, 27.5924 ], [ 81.06013, 27.59496 ], [ 81.06619, 27.59331 ], [ 81.0665, 27.594 ], [ 81.06861, 27.59317 ], [ 81.07125, 27.59386 ], [ 81.07197, 27.59553 ], [ 81.07333, 27.59559 ], [ 81.07405, 27.59689 ], [ 81.0744, 27.59988 ], [ 81.07597, 27.60001 ], [ 81.09, 27.59146 ], [ 81.08947, 27.58862 ], [ 81.09544, 27.58491 ], [ 81.09683, 27.58454 ], [ 81.09898, 27.5886 ], [ 81.10338, 27.58922 ], [ 81.10753, 27.58784 ], [ 81.10789, 27.58856 ], [ 81.11256, 27.58646 ], [ 81.11551, 27.59176 ], [ 81.12365, 27.59544 ], [ 81.12607, 27.59781 ], [ 81.12852, 27.60334 ], [ 81.13121, 27.60238 ], [ 81.13508, 27.60635 ], [ 81.14005, 27.6091 ], [ 81.13687, 27.61203 ], [ 81.13645, 27.61322 ], [ 81.13778, 27.6149 ], [ 81.13653, 27.6159 ], [ 81.1403, 27.62282 ], [ 81.14575, 27.62797 ], [ 81.14565, 27.62929 ], [ 81.14251, 27.63327 ], [ 81.14087, 27.64278 ], [ 81.14262, 27.64808 ], [ 81.14793, 27.65549 ], [ 81.14767, 27.65854 ], [ 81.15486, 27.65634 ], [ 81.15498, 27.65945 ], [ 81.15634, 27.65997 ], [ 81.15667, 27.66131 ], [ 81.15901, 27.66066 ], [ 81.16438, 27.66466 ], [ 81.17111, 27.65911 ], [ 81.17433, 27.66248 ], [ 81.17466, 27.66408 ], [ 81.17256, 27.66486 ], [ 81.17421, 27.66864 ], [ 81.17375, 27.67414 ], [ 81.17478, 27.67628 ], [ 81.17031, 27.68411 ], [ 81.17043, 27.68536 ], [ 81.17425, 27.69035 ], [ 81.17656, 27.69182 ], [ 81.18215, 27.69348 ], [ 81.18338, 27.69897 ], [ 81.18583, 27.7031 ], [ 81.19767, 27.71139 ], [ 81.20234, 27.71681 ], [ 81.20426, 27.7203 ], [ 81.20494, 27.72002 ], [ 81.20524, 27.72143 ], [ 81.20758, 27.71574 ], [ 81.21141, 27.717 ], [ 81.21685, 27.71487 ], [ 81.2198, 27.72081 ], [ 81.22276, 27.72385 ], [ 81.22752, 27.72369 ], [ 81.22894, 27.72527 ], [ 81.23003, 27.72897 ], [ 81.23533, 27.72622 ], [ 81.23869, 27.72812 ], [ 81.24308, 27.72902 ] ] ] } },
{ "type": "Feature", "properties": { "OBJECTID": 2585, "state_lgd": "09", "state_name": "UTTAR PRADESH", "district_lgd": "154", "district_name": "SITAPUR", "district_name_source": "district_table", "subdistrict_lgd": "805", "subdistrict_name": "LAHARPUR", "subdistrict_type": "Tehsil", "name_corrupted": false, "remarks": "", "label_lon": 80.968752329097086, "label_lat": 27.715728858924521 }, "geometry": { "type": "Polygon", "coordinates": [ [ [ 80.9857, 27.88602 ], [ 80.99645, 27.88796 ], [ 81.0035, 27.88339 ], [ 81.01019, 27.87768 ], [ 81.0033, 27.8738 ], [ 80.99891, 27.87232 ], [ 80.99625, 27.86939 ], [ 80.99594, 27.86875 ], [ 80.99786, 27.86727 ], [ 80.99423, 27.85644 ], [ 80.99593, 27.85464 ], [ 80.98573, 27.84199 ], [ 80.98818, 27.82644 ], [ 80.99037, 27.82408 ], [ 80.99661, 27.82301 ], [ 80.99928, 27.82537 ], [ 81.00436, 27.82466 ], [ 81.01537, 27.82054 ], [ 81.02083, 27.81532 ], [ 81.02386, 27.82076 ], [ 81.02545, 27.82264 ], [ 81.02679, 27.82263 ], [ 81.02941, 27.81944 ], [ 81.03099, 27.82055 ], [ 81.03468, 27.8192 ], [ 81.03829, 27.81236 ], [ 81.04691, 27.81828 ], [ 81.0552, 27.81587 ], [ 81.06033, 27.81112 ], [ 81.0688, 27.82424 ], [ 81.07034, 27.82346 ], [ 81.07143, 27.82446 ], [ 81.07373, 27.82386 ], [ 81.0808, 27.82036 ], [ 81.08286, 27.82147 ], [ 81.08452, 27.82043 ], [ 81.08355, 27.81649 ], [ 81.08392, 27.81476 ], [ 81.08922, 27.81454 ], [ 81.09319, 27.81251 ], [ 81.09204, 27.811 ], [ 81.09312, 27.8084 ], [ 81.09188, 27.80365 ], [ 81.09359, 27.80219 ], [ 81.10436, 27.79792 ], [ 81.10613, 27.79063 ], [ 81.11114, 27.78852 ], [ 81.11492, 27.78919 ], [ 81.11629, 27.79305 ], [ 81.12168, 27.79241 ], [ 81.12677, 27.80378 ], [ 81.13093, 27.8003 ], [ 81.14107, 27.80573 ], [ 81.14397, 27.80198 ], [ 81.14374, 27.79941 ], [ 81.14238, 27.79695 ], [ 81.14256, 27.79387 ], [ 81.14634, 27.78542 ], [ 81.15054, 27.78044 ], [ 81.1526, 27.78195 ], [ 81.15871, 27.777 ], [ 81.17022, 27.77734 ], [ 81.17098, 27.77987 ], [ 81.17739, 27.78424 ], [ 81.17951, 27.78438 ], [ 81.18655, 27.78062 ], [ 81.19739, 27.77167 ], [ 81.2139, 27.76539 ], [ 81.21796, 27.76508 ], [ 81.22519, 27.76271 ], [ 81.22859, 27.75921 ], [ 81.22888, 27.75639 ], [ 81.22673, 27.75421 ], [ 81.21923, 27.74962 ], [ 81.21562, 27.74882 ], [ 81.2082, 27.74879 ], [ 81.20968, 27.7502 ], [ 81.20355, 27.7565 ], [ 81.20056, 27.75601 ], [ 81.19498, 27.75344 ], [ 81.19556, 27.75014 ], [ 81.19472, 27.74975 ], [ 81.1924, 27.74513 ], [ 81.19132, 27.7398 ], [ 81.185, 27.73594 ], [ 81.1846, 27.73448 ], [ 81.18637, 27.73116 ], [ 81.18628, 27.72883 ], [ 81.19683, 27.72546 ], [ 81.20163, 27.72534 ], [ 81.20107, 27.72282 ], [ 81.20333, 27.71902 ], [ 81.20234, 27.71681 ], [ 81.19546, 27.70956 ], [ 81.18583, 27.7031 ], [ 81.18338, 27.69897 ], [ 81.18215, 27.69348 ], [ 81.17656, 27.69182 ], [ 81.17425, 27.69035 ], [ 81.17043, 27.68536 ], [ 81.17031, 27.68411 ], [ 81.17478, 27.67628 ], [ 81.17375, 27.67414 ], [ 81.17421, 27.66864 ], [ 81.17256, 27.66486 ], [ 81.17466, 27.66408 ], [ 81.17433, 27.66248 ], [ 81.17111, 27.65911 ], [ 81.16438, 27.66466 ], [ 81.15901, 27.66066 ], [ 81.15667, 27.66131 ], [ 81.15634, 27.65997 ], [ 81.15498, 27.65945 ], [ 81.15486, 27.65634 ], [ 81.14767, 27.65854 ], [ 81.14793, 27.65549 ], [ 81.14262, 27.64808 ], [ 81.14087, 27.64278 ], [ 81.14251, 27.63327 ], [ 81.14565, 27.62929 ], [ 81.14575, 27.62797 ], [ 81.1403, 27.62282 ], [ 81.13653, 27.6159 ], [ 81.13778, 27.6149 ], [ 81.13645, 27.61322 ], [ 81.13687, 27.61203 ], [ 81.14005, 27.6091 ], [ 81.13508, 27.60635 ], [ 81.13121, 27.60238 ], [ 81.12852, 27.60334 ], [ 81.12607, 27.59781 ], [ 81.12365, 27.59544 ], [ 81.11551, 27.59176 ], [ 81.11256, 27.58646 ], [ 81.10789, 27.58856 ], [ 81.10753, 27.58784 ], [ 81.10338, 27.58922 ], [ 81.09898, 27.5886 ], [ 81.09683, 27.58454 ], [ 81.09544, 27.58491 ], [ 81.08947, 27.58862 ], [ 81.09, 27.59146 ], [ 81.07597, 27.60001 ], [ 81.0744, 27.59988 ], [ 81.07405, 27.59689 ], [ 81.07333, 27.59559 ], [ 81.07197, 27.59553 ], [ 81.07125, 27.59386 ], [ 81.06861, 27.59317 ], [ 81.0665, 27.594 ], [ 81.06619, 27.59331 ], [ 81.06013, 27.59496 ], [ 81.05933, 27.5924 ], [ 81.05811, 27.59223 ], [ 81.05623, 27.59648 ], [ 81.05589, 27.59821 ], [ 81.05648, 27.59911 ], [ 81.05554, 27.5999 ], [ 81.05612, 27.60095 ], [ 81.05508, 27.60123 ], [ 81.05422, 27.60314 ], [ 81.05519, 27.6055 ], [ 81.05709, 27.60636 ], [ 81.05481, 27.61121 ], [ 81.05153, 27.6145 ], [ 81.05067, 27.61421 ], [ 81.04907, 27.61881 ], [ 81.05037, 27.6201 ], [ 81.05465, 27.62137 ], [ 81.05359, 27.62527 ], [ 81.05079, 27.62703 ], [ 81.05041, 27.62965 ], [ 81.0515, 27.63167 ], [ 81.05489, 27.63386 ], [ 81.05441, 27.63614 ], [ 81.05131, 27.63811 ], [ 81.0486, 27.63828 ], [ 81.04708, 27.64017 ], [ 81.04528, 27.63639 ], [ 81.04203, 27.63702 ], [ 81.03976, 27.63525 ], [ 81.03956, 27.63779 ], [ 81.0382, 27.63863 ], [ 81.03771, 27.638 ], [ 81.03891, 27.63662 ], [ 81.03777, 27.6367 ], [ 81.03575, 27.63927 ], [ 81.0341, 27.6371 ], [ 81.0329, 27.63709 ], [ 81.0327, 27.63824 ], [ 81.03398, 27.63998 ], [ 81.03259, 27.64234 ], [ 81.03437, 27.64261 ], [ 81.03438, 27.64515 ], [ 81.03312, 27.64847 ], [ 81.03397, 27.65075 ], [ 81.03275, 27.65248 ], [ 81.03255, 27.6557 ], [ 81.03155, 27.65747 ], [ 81.02974, 27.65718 ], [ 81.02412, 27.66049 ], [ 81.02267, 27.65925 ], [ 81.01944, 27.65945 ], [ 81.01734, 27.65812 ], [ 81.01296, 27.66061 ], [ 81.01472, 27.66203 ], [ 81.00975, 27.66294 ], [ 81.00729, 27.66622 ], [ 81.00389, 27.66359 ], [ 81.00241, 27.66096 ], [ 81.00036, 27.66126 ], [ 80.99381, 27.66577 ], [ 80.99332, 27.66284 ], [ 80.9894, 27.6659 ], [ 80.98789, 27.66597 ], [ 80.98381, 27.67085 ], [ 80.98241, 27.6705 ], [ 80.98105, 27.67121 ], [ 80.97968, 27.67061 ], [ 80.97818, 27.66789 ], [ 80.9787, 27.66748 ], [ 80.9777, 27.66648 ], [ 80.9783, 27.66587 ], [ 80.9767, 27.66402 ], [ 80.97729, 27.6636 ], [ 80.97676, 27.66251 ], [ 80.97357, 27.66239 ], [ 80.97027, 27.66526 ], [ 80.96895, 27.6652 ], [ 80.96345, 27.66136 ], [ 80.96236, 27.65969 ], [ 80.96384, 27.65907 ], [ 80.96063, 27.6547 ], [ 80.96291, 27.6509 ], [ 80.96533, 27.64965 ], [ 80.95915, 27.64579 ], [ 80.958, 27.64428 ], [ 80.95854, 27.64372 ], [ 80.95439, 27.63879 ], [ 80.95998, 27.63349 ], [ 80.97793, 27.62222 ], [ 80.97136, 27.61425 ], [ 80.96575, 27.61063 ], [ 80.96316, 27.61393 ], [ 80.96174, 27.619 ], [ 80.95855, 27.61655 ], [ 80.95373, 27.61868 ], [ 80.94531, 27.61091 ], [ 80.94343, 27.60371 ], [ 80.94124, 27.60127 ], [ 80.94253, 27.59973 ], [ 80.94196, 27.59777 ], [ 80.93334, 27.59096 ], [ 80.9304, 27.59131 ], [ 80.92897, 27.58918 ], [ 80.92504, 27.59104 ], [ 80.92378, 27.59072 ], [ 80.9243, 27.587 ], [ 80.92361, 27.58426 ], [ 80.92488, 27.58028 ], [ 80.92945, 27.57732 ], [ 80.92784, 27.57406 ], [ 80.92883, 27.57312 ], [ 80.92743, 27.57143 ], [ 80.92203, 27.57363 ], [ 80.91762, 27.57001 ], [ 80.91493, 27.57142 ], [ 80.91199, 27.56964 ], [ 80.90903, 27.57002 ], [ 80.90409, 27.56825 ], [ 80.89946, 27.5637 ], [ 80.89632, 27.56489 ], [ 80.88992, 27.55886 ], [ 80.88698, 27.55456 ], [ 80.88409, 27.55239 ], [ 80.87783, 27.55561 ], [ 80.87747, 27.55785 ], [ 80.87383, 27.56076 ], [ 80.87179, 27.55971 ], [ 80.87089, 27.56031 ], [ 80.87023, 27.55938 ], [ 80.86713, 27.56082 ], [ 80.86587, 27.56008 ], [ 80.86269, 27.56548 ], [ 80.85637, 27.56018 ], [ 80.85843, 27.55863 ], [ 80.85678, 27.55587 ], [ 80.85782, 27.55507 ], [ 80.8571, 27.55332 ], [ 80.85825, 27.55262 ], [ 80.8508, 27.54416 ], [ 80.84703, 27.5455 ], [ 80.84298, 27.54395 ], [ 80.84023, 27.54441 ], [ 80.83956, 27.54382 ], [ 80.83796, 27.54478 ], [ 80.8363, 27.5474 ], [ 80.83393, 27.54713 ], [ 80.83248, 27.55033 ], [ 80.83047, 27.55169 ], [ 80.83274, 27.55511 ], [ 80.83401, 27.5556 ], [ 80.83459, 27.55935 ], [ 80.83069, 27.56095 ], [ 80.8301, 27.5619 ], [ 80.82819, 27.56176 ], [ 80.8285, 27.5634 ], [ 80.8263, 27.5634 ], [ 80.82542, 27.56441 ], [ 80.82554, 27.5656 ], [ 80.82457, 27.56614 ], [ 80.8208, 27.56549 ], [ 80.81767, 27.56685 ], [ 80.81551, 27.56503 ], [ 80.81396, 27.56487 ], [ 80.81266, 27.56596 ], [ 80.80983, 27.56615 ], [ 80.80997, 27.56892 ], [ 80.80773, 27.5691 ], [ 80.80706, 27.57168 ], [ 80.80393, 27.57071 ], [ 80.80275, 27.57523 ], [ 80.80126, 27.57665 ], [ 80.80127, 27.57772 ], [ 80.80307, 27.57945 ], [ 80.80122, 27.58037 ], [ 80.80158, 27.58512 ], [ 80.79986, 27.58551 ], [ 80.80006, 27.58767 ], [ 80.79934, 27.58909 ], [ 80.80067, 27.59078 ], [ 80.80238, 27.59091 ], [ 80.80268, 27.59208 ], [ 80.80426, 27.59227 ], [ 80.8046, 27.59629 ], [ 80.80363, 27.59828 ], [ 80.80002, 27.60083 ], [ 80.79992, 27.60305 ], [ 80.79859, 27.6034 ], [ 80.79949, 27.60532 ], [ 80.7981, 27.60588 ], [ 80.79868, 27.60682 ], [ 80.79788, 27.60844 ], [ 80.79907, 27.60905 ], [ 80.79809, 27.60969 ], [ 80.7991, 27.61109 ], [ 80.79743, 27.61157 ], [ 80.79811, 27.61316 ], [ 80.79687, 27.61383 ], [ 80.79828, 27.6168 ], [ 80.79697, 27.62016 ], [ 80.79915, 27.61999 ], [ 80.80083, 27.62448 ], [ 80.80292, 27.62483 ], [ 80.80504, 27.62784 ], [ 80.80345, 27.62973 ], [ 80.80372, 27.63457 ], [ 80.80209, 27.63616 ], [ 80.80174, 27.64252 ], [ 80.80345, 27.64366 ], [ 80.8038, 27.64299 ], [ 80.80532, 27.64327 ], [ 80.80726, 27.64523 ], [ 80.80874, 27.64536 ], [ 80.80988, 27.64723 ], [ 80.81008, 27.64949 ], [ 80.81145, 27.6495 ], [ 80.8118, 27.65229 ], [ 80.80992, 27.65156 ], [ 80.80963, 27.65277 ], [ 80.80779, 27.6522 ], [ 80.80676, 27.65403 ], [ 80.80473, 27.65292 ], [ 80.80114, 27.65638 ], [ 80.79895, 27.65518 ], [ 80.79873, 27.65387 ], [ 80.79618, 27.65461 ], [ 80.79441, 27.65267 ], [ 80.78966, 27.65199 ], [ 80.78763, 27.65281 ], [ 80.78701, 27.65521 ], [ 80.78475, 27.65568 ], [ 80.78475, 27.65992 ], [ 80.78335, 27.66131 ], [ 80.78409, 27.66199 ], [ 80.78122, 27.66313 ], [ 80.77993, 27.66534 ], [ 80.77847, 27.66388 ], [ 80.77829, 27.66252 ], [ 80.77565, 27.66036 ], [ 80.76946, 27.66409 ], [ 80.77793, 27.67343 ], [ 80.77939, 27.67432 ], [ 80.78271, 27.67455 ], [ 80.78307, 27.67702 ], [ 80.78052, 27.6798 ], [ 80.78006, 27.68229 ], [ 80.77523, 27.68309 ], [ 80.77205, 27.68587 ], [ 80.77127, 27.68794 ], [ 80.76941, 27.68816 ], [ 80.76359, 27.69117 ], [ 80.75969, 27.69036 ], [ 80.76084, 27.6931 ], [ 80.7586, 27.69553 ], [ 80.76035, 27.69762 ], [ 80.76306, 27.69735 ], [ 80.76408, 27.69816 ], [ 80.76453, 27.69956 ], [ 80.76372, 27.70332 ], [ 80.76797, 27.70904 ], [ 80.76798, 27.71326 ], [ 80.77051, 27.71479 ], [ 80.77283, 27.71755 ], [ 80.775, 27.71644 ], [ 80.77618, 27.71674 ], [ 80.78396, 27.70978 ], [ 80.78557, 27.70899 ], [ 80.78621, 27.70985 ], [ 80.78352, 27.71182 ], [ 80.78474, 27.71399 ], [ 80.78447, 27.71672 ], [ 80.78023, 27.72291 ], [ 80.78099, 27.72464 ], [ 80.77904, 27.72626 ], [ 80.77746, 27.72588 ], [ 80.7768, 27.72683 ], [ 80.77791, 27.73034 ], [ 80.77597, 27.73785 ], [ 80.77837, 27.741 ], [ 80.78543, 27.74347 ], [ 80.79127, 27.74097 ], [ 80.79552, 27.73762 ], [ 80.80143, 27.73452 ], [ 80.80553, 27.73572 ], [ 80.80846, 27.73543 ], [ 80.80922, 27.73772 ], [ 80.80922, 27.7387 ], [ 80.80549, 27.74236 ], [ 80.79713, 27.74688 ], [ 80.79662, 27.74967 ], [ 80.79214, 27.75137 ], [ 80.78738, 27.75494 ], [ 80.78151, 27.75676 ], [ 80.78547, 27.76514 ], [ 80.78924, 27.77046 ], [ 80.79006, 27.77524 ], [ 80.78902, 27.77633 ], [ 80.7892, 27.77875 ], [ 80.78829, 27.78051 ], [ 80.78893, 27.78253 ], [ 80.79223, 27.78658 ], [ 80.78587, 27.79587 ], [ 80.77811, 27.79628 ], [ 80.77576, 27.79737 ], [ 80.77503, 27.79869 ], [ 80.77085, 27.79997 ], [ 80.76995, 27.80138 ], [ 80.77169, 27.8059 ], [ 80.77527, 27.80959 ], [ 80.77642, 27.81184 ], [ 80.7795, 27.81222 ], [ 80.78264, 27.81104 ], [ 80.78879, 27.81812 ], [ 80.80757, 27.80728 ], [ 80.81236, 27.80352 ], [ 80.81584, 27.79951 ], [ 80.81567, 27.79703 ], [ 80.81833, 27.79362 ], [ 80.8258, 27.79084 ], [ 80.82976, 27.79411 ], [ 80.83142, 27.79405 ], [ 80.83289, 27.79502 ], [ 80.83546, 27.79859 ], [ 80.83895, 27.79782 ], [ 80.84422, 27.80445 ], [ 80.84258, 27.80754 ], [ 80.84471, 27.81164 ], [ 80.84638, 27.81128 ], [ 80.84732, 27.81277 ], [ 80.84579, 27.81759 ], [ 80.8466, 27.82553 ], [ 80.84889, 27.826 ], [ 80.85512, 27.82488 ], [ 80.85605, 27.82581 ], [ 80.86433, 27.82415 ], [ 80.86602, 27.8267 ], [ 80.86431, 27.82879 ], [ 80.87241, 27.83551 ], [ 80.87414, 27.83928 ], [ 80.88115, 27.84282 ], [ 80.8839, 27.8409 ], [ 80.88659, 27.84436 ], [ 80.88921, 27.84537 ], [ 80.89452, 27.85165 ], [ 80.89621, 27.85192 ], [ 80.89836, 27.85031 ], [ 80.89943, 27.85037 ], [ 80.90507, 27.84541 ], [ 80.9035, 27.8417 ], [ 80.90071, 27.84121 ], [ 80.90145, 27.83864 ], [ 80.90089, 27.83752 ], [ 80.9065, 27.83418 ], [ 80.90789, 27.83656 ], [ 80.91103, 27.83822 ], [ 80.91207, 27.84011 ], [ 80.91475, 27.84206 ], [ 80.91987, 27.84925 ], [ 80.92877, 27.84506 ], [ 80.93446, 27.85356 ], [ 80.9355, 27.85465 ], [ 80.93646, 27.85414 ], [ 80.93986, 27.85786 ], [ 80.93636, 27.86318 ], [ 80.93938, 27.86787 ], [ 80.93702, 27.87345 ], [ 80.94117, 27.87148 ], [ 80.94464, 27.87086 ], [ 80.9494, 27.87249 ], [ 80.95135, 27.87461 ], [ 80.95175, 27.87859 ], [ 80.95395, 27.8824 ], [ 80.95291, 27.88681 ], [ 80.95932, 27.89573 ], [ 80.95965, 27.8967 ], [ 80.95747, 27.89966 ], [ 80.96131, 27.90275 ], [ 80.97025, 27.90629 ], [ 80.97495, 27.90584 ], [ 80.97868, 27.90405 ], [ 80.98235, 27.9002 ], [ 80.97324, 27.8968 ], [ 80.97231, 27.89501 ], [ 80.98009, 27.88843 ], [ 80.9857, 27.88602 ] ] ] } },
{ "type": "Feature", "properties": { "OBJECTID": 2602, "state_lgd": "09", "state_name": "UTTAR PRADESH", "district_lgd": "154", "district_name": "SITAPUR", "district_name_source": "district_table", "subdistrict_lgd": "807", "subdistrict_name": "MAHMUDABAD", "subdistrict_type": "Tehsil", "name_corrupted": false, "remarks": "", "label_lon": 81.175816002997536, "label_lat": 27.3607583228093 }, "geometry": { "type": "Polygon", "coordinates": [ [ [ 81.12644, 27.50943 ], [ 81.13095, 27.51289 ], [ 81.13369, 27.51351 ], [ 81.1434, 27.50712 ], [ 81.14508, 27.50787 ], [ 81.14599, 27.50722 ], [ 81.14645, 27.50372 ], [ 81.14817, 27.50306 ], [ 81.14987, 27.50014 ], [ 81.15526, 27.49775 ], [ 81.15119, 27.49728 ], [ 81.15076, 27.49655 ], [ 81.15145, 27.49053 ], [ 81.15286, 27.49108 ], [ 81.15672, 27.49664 ], [ 81.16064, 27.49296 ], [ 81.15909, 27.49268 ], [ 81.15564, 27.4884 ], [ 81.15593, 27.4876 ], [ 81.15695, 27.48692 ], [ 81.16096, 27.48832 ], [ 81.17083, 27.48589 ], [ 81.17511, 27.48365 ], [ 81.17822, 27.47977 ], [ 81.1891, 27.46992 ], [ 81.19044, 27.46352 ], [ 81.1958, 27.46155 ], [ 81.19871, 27.45523 ], [ 81.19624, 27.44861 ], [ 81.19549, 27.44311 ], [ 81.19951, 27.43904 ], [ 81.19985, 27.43773 ], [ 81.20413, 27.43518 ], [ 81.21075, 27.4281 ], [ 81.2152, 27.42974 ], [ 81.21958, 27.43263 ], [ 81.22088, 27.4341 ], [ 81.22299, 27.44241 ], [ 81.229, 27.44805 ], [ 81.23201, 27.44626 ], [ 81.23363, 27.44321 ], [ 81.23624, 27.44217 ], [ 81.2378, 27.43989 ], [ 81.23997, 27.44221 ], [ 81.2445, 27.44477 ], [ 81.24724, 27.4452 ], [ 81.24826, 27.44787 ], [ 81.25481, 27.43968 ], [ 81.25803, 27.43884 ], [ 81.26284, 27.44024 ], [ 81.26916, 27.44389 ], [ 81.27103, 27.44597 ], [ 81.26811, 27.44775 ], [ 81.26769, 27.4492 ], [ 81.27073, 27.45221 ], [ 81.27199, 27.45583 ], [ 81.27864, 27.45918 ], [ 81.28284, 27.45565 ], [ 81.28381, 27.45291 ], [ 81.28683, 27.44962 ], [ 81.28775, 27.44957 ], [ 81.28977, 27.44648 ], [ 81.29606, 27.45188 ], [ 81.30056, 27.45063 ], [ 81.30293, 27.45572 ], [ 81.30561, 27.45371 ], [ 81.30827, 27.4658 ], [ 81.31919, 27.46644 ], [ 81.32079, 27.46129 ], [ 81.31096, 27.44748 ], [ 81.31717, 27.44179 ], [ 81.32123, 27.44198 ], [ 81.33045, 27.44475 ], [ 81.33331, 27.44216 ], [ 81.34055, 27.4568 ], [ 81.34103, 27.4566 ], [ 81.3421, 27.45233 ], [ 81.3432, 27.45087 ], [ 81.34648, 27.44918 ], [ 81.3539, 27.43834 ], [ 81.35074, 27.42673 ], [ 81.35645, 27.42483 ], [ 81.35983, 27.42533 ], [ 81.35881, 27.42126 ], [ 81.36896, 27.41191 ], [ 81.37324, 27.40961 ], [ 81.37493, 27.40617 ], [ 81.37547, 27.39911 ], [ 81.37663, 27.39657 ], [ 81.38034, 27.39289 ], [ 81.38348, 27.38665 ], [ 81.38859, 27.38159 ], [ 81.39549, 27.37708 ], [ 81.40492, 27.37489 ], [ 81.40863, 27.37169 ], [ 81.41224, 27.36628 ], [ 81.41607, 27.35489 ], [ 81.41632, 27.35097 ], [ 81.41342, 27.34456 ], [ 81.41259, 27.33419 ], [ 81.39531, 27.34079 ], [ 81.39447, 27.33451 ], [ 81.40014, 27.32899 ], [ 81.39977, 27.32583 ], [ 81.39799, 27.32457 ], [ 81.39302, 27.3248 ], [ 81.39115, 27.32336 ], [ 81.38976, 27.31958 ], [ 81.38415, 27.3194 ], [ 81.37986, 27.31616 ], [ 81.38082, 27.31528 ], [ 81.38467, 27.31668 ], [ 81.38904, 27.31566 ], [ 81.39078, 27.31293 ], [ 81.39125, 27.30928 ], [ 81.38989, 27.30791 ], [ 81.38829, 27.30819 ], [ 81.38548, 27.30976 ], [ 81.38399, 27.31199 ], [ 81.38214, 27.31216 ], [ 81.38361, 27.30399 ], [ 81.38263, 27.3038 ], [ 81.38224, 27.30211 ], [ 81.38257, 27.2948 ], [ 81.37711, 27.29564 ], [ 81.37342, 27.29295 ], [ 81.37166, 27.28265 ], [ 81.37241, 27.28166 ], [ 81.37992, 27.27892 ], [ 81.38129, 27.2776 ], [ 81.37582, 27.2738 ], [ 81.37275, 27.27325 ], [ 81.37677, 27.26803 ], [ 81.37632, 27.26668 ], [ 81.37466, 27.26634 ], [ 81.37041, 27.26751 ], [ 81.36521, 27.26582 ], [ 81.36233, 27.26385 ], [ 81.3611, 27.25998 ], [ 81.35943, 27.25769 ], [ 81.34799, 27.25734 ], [ 81.34316, 27.25411 ], [ 81.34113, 27.25375 ], [ 81.33823, 27.25882 ], [ 81.33538, 27.27169 ], [ 81.33213, 27.27294 ], [ 81.32589, 27.27303 ], [ 81.32106, 27.27043 ], [ 81.31487, 27.27858 ], [ 81.31472, 27.28024 ], [ 81.31936, 27.28938 ], [ 81.3218, 27.29708 ], [ 81.32005, 27.29867 ], [ 81.31778, 27.29896 ], [ 81.31366, 27.29538 ], [ 81.30962, 27.29646 ], [ 81.30554, 27.29995 ], [ 81.30569, 27.30202 ], [ 81.30794, 27.30426 ], [ 81.30859, 27.30617 ], [ 81.31161, 27.30773 ], [ 81.31276, 27.30949 ], [ 81.31556, 27.32048 ], [ 81.30599, 27.32824 ], [ 81.30241, 27.32918 ], [ 81.2969, 27.33591 ], [ 81.29482, 27.34248 ], [ 81.29573, 27.3453 ], [ 81.29854, 27.3478 ], [ 81.29183, 27.35931 ], [ 81.28944, 27.35319 ], [ 81.28456, 27.35402 ], [ 81.28347, 27.35001 ], [ 81.28415, 27.34661 ], [ 81.27878, 27.34076 ], [ 81.27706, 27.33719 ], [ 81.27671, 27.33554 ], [ 81.27737, 27.33421 ], [ 81.28062, 27.33234 ], [ 81.27328, 27.33142 ], [ 81.27243, 27.33101 ], [ 81.27269, 27.32872 ], [ 81.27198, 27.32857 ], [ 81.26699, 27.3314 ], [ 81.25805, 27.33471 ], [ 81.25395, 27.32973 ], [ 81.255, 27.32517 ], [ 81.25232, 27.31805 ], [ 81.24827, 27.31398 ], [ 81.24089, 27.32254 ], [ 81.2359, 27.31894 ], [ 81.23511, 27.31972 ], [ 81.23133, 27.31902 ], [ 81.23043, 27.32235 ], [ 81.22834, 27.32383 ], [ 81.22386, 27.31627 ], [ 81.22512, 27.31149 ], [ 81.23994, 27.3069 ], [ 81.23653, 27.30289 ], [ 81.23125, 27.29871 ], [ 81.23261, 27.29696 ], [ 81.23276, 27.29446 ], [ 81.23555, 27.294 ], [ 81.23561, 27.29084 ], [ 81.23724, 27.29031 ], [ 81.2382, 27.28879 ], [ 81.23775, 27.28765 ], [ 81.23965, 27.28763 ], [ 81.23938, 27.28665 ], [ 81.24255, 27.28468 ], [ 81.24013, 27.28325 ], [ 81.23836, 27.28098 ], [ 81.23824, 27.27815 ], [ 81.23666, 27.27497 ], [ 81.24198, 27.27046 ], [ 81.23621, 27.26451 ], [ 81.23285, 27.26267 ], [ 81.228, 27.26936 ], [ 81.22811, 27.27186 ], [ 81.22637, 27.27288 ], [ 81.22528, 27.27241 ], [ 81.22321, 27.26968 ], [ 81.22279, 27.26778 ], [ 81.22095, 27.26748 ], [ 81.21969, 27.26489 ], [ 81.21779, 27.26373 ], [ 81.21798, 27.26228 ], [ 81.21588, 27.25869 ], [ 81.21345, 27.2566 ], [ 81.20965, 27.25552 ], [ 81.2073, 27.25249 ], [ 81.20949, 27.25021 ], [ 81.21371, 27.24768 ], [ 81.20888, 27.23825 ], [ 81.20809, 27.23843 ], [ 81.20718, 27.2372 ], [ 81.20422, 27.23881 ], [ 81.20128, 27.23652 ], [ 81.19554, 27.23739 ], [ 81.18301, 27.2454 ], [ 81.18382, 27.24817 ], [ 81.18267, 27.24925 ], [ 81.18279, 27.25134 ], [ 81.18398, 27.25563 ], [ 81.17663, 27.26024 ], [ 81.17664, 27.26381 ], [ 81.17348, 27.26695 ], [ 81.16782, 27.26865 ], [ 81.16245, 27.26554 ], [ 81.15866, 27.26613 ], [ 81.15362, 27.26021 ], [ 81.14858, 27.25792 ], [ 81.14584, 27.25903 ], [ 81.14455, 27.26083 ], [ 81.1404, 27.26216 ], [ 81.13923, 27.26538 ], [ 81.13729, 27.26627 ], [ 81.13159, 27.27153 ], [ 81.12406, 27.27164 ], [ 81.1238, 27.27281 ], [ 81.11669, 27.27217 ], [ 81.11488, 27.27266 ], [ 81.11281, 27.27455 ], [ 81.11068, 27.2715 ], [ 81.10071, 27.26516 ], [ 81.09678, 27.26859 ], [ 81.09155, 27.26413 ], [ 81.08934, 27.25936 ], [ 81.09091, 27.25546 ], [ 81.09045, 27.25101 ], [ 81.0876, 27.25051 ], [ 81.08466, 27.2477 ], [ 81.08401, 27.24447 ], [ 81.07956, 27.23596 ], [ 81.08517, 27.22868 ], [ 81.08218, 27.22621 ], [ 81.07924, 27.22871 ], [ 81.07663, 27.22954 ], [ 81.07438, 27.22751 ], [ 81.07254, 27.22354 ], [ 81.06769, 27.22055 ], [ 81.06672, 27.21912 ], [ 81.06401, 27.22007 ], [ 81.0619, 27.22194 ], [ 81.06052, 27.21986 ], [ 81.05876, 27.21966 ], [ 81.05675, 27.2176 ], [ 81.05348, 27.21754 ], [ 81.05295, 27.21886 ], [ 81.05409, 27.2216 ], [ 81.05466, 27.22766 ], [ 81.05352, 27.22863 ], [ 81.05166, 27.22852 ], [ 81.04922, 27.22691 ], [ 81.04569, 27.22739 ], [ 81.04205, 27.22921 ], [ 81.04022, 27.22697 ], [ 81.03877, 27.22663 ], [ 81.03221, 27.22988 ], [ 81.02939, 27.22544 ], [ 81.0269, 27.22528 ], [ 81.01937, 27.22849 ], [ 81.01663, 27.22838 ], [ 81.0159, 27.22512 ], [ 81.00745, 27.2276 ], [ 81.00599, 27.22662 ], [ 81.0023, 27.22678 ], [ 81.00064, 27.22738 ], [ 80.99682, 27.23118 ], [ 80.9883, 27.23215 ], [ 80.98293, 27.23503 ], [ 80.96971, 27.24016 ], [ 80.97389, 27.24531 ], [ 80.97658, 27.24467 ], [ 80.98155, 27.24492 ], [ 80.98727, 27.24932 ], [ 80.98743, 27.25277 ], [ 80.98403, 27.25589 ], [ 80.9848, 27.25761 ], [ 80.98793, 27.25877 ], [ 80.98929, 27.26277 ], [ 80.98734, 27.27324 ], [ 80.98636, 27.27442 ], [ 80.98889, 27.2761 ], [ 80.98927, 27.2773 ], [ 80.99208, 27.27721 ], [ 80.99382, 27.27997 ], [ 80.99762, 27.28231 ], [ 81.00108, 27.27893 ], [ 81.00147, 27.27987 ], [ 81.00347, 27.28021 ], [ 81.00816, 27.27818 ], [ 81.01208, 27.28143 ], [ 81.01329, 27.27896 ], [ 81.01631, 27.27694 ], [ 81.01866, 27.28031 ], [ 81.01725, 27.2817 ], [ 81.0179, 27.2837 ], [ 81.01888, 27.28348 ], [ 81.0207, 27.28655 ], [ 81.02481, 27.28948 ], [ 81.02744, 27.29269 ], [ 81.01936, 27.29583 ], [ 81.01586, 27.29813 ], [ 81.01726, 27.30158 ], [ 81.01681, 27.30355 ], [ 81.0091, 27.30544 ], [ 81.00914, 27.30667 ], [ 81.00839, 27.30714 ], [ 81.01262, 27.3134 ], [ 81.01195, 27.31378 ], [ 81.01233, 27.31442 ], [ 81.0106, 27.31486 ], [ 81.00909, 27.31854 ], [ 81.00695, 27.32126 ], [ 80.99827, 27.3228 ], [ 80.99511, 27.32421 ], [ 80.99568, 27.32582 ], [ 80.99511, 27.32736 ], [ 80.99604, 27.32704 ], [ 80.9972, 27.32968 ], [ 80.99756, 27.33546 ], [ 80.99714, 27.33643 ], [ 80.99375, 27.33695 ], [ 80.99664, 27.34202 ], [ 80.99715, 27.34563 ], [ 81.00062, 27.34487 ], [ 81.00285, 27.34745 ], [ 81.00221, 27.34841 ], [ 81.00372, 27.34874 ], [ 81.00784, 27.3534 ], [ 81.00865, 27.35543 ], [ 81.00956, 27.3552 ], [ 81.01031, 27.35645 ], [ 81.00991, 27.35819 ], [ 81.00695, 27.36194 ], [ 81.00745, 27.36291 ], [ 81.00596, 27.36579 ], [ 81.00082, 27.36975 ], [ 80.99312, 27.37083 ], [ 80.98931, 27.37637 ], [ 80.99606, 27.38314 ], [ 80.99495, 27.39034 ], [ 80.99299, 27.3929 ], [ 80.98701, 27.39444 ], [ 80.98507, 27.39768 ], [ 80.98152, 27.40083 ], [ 80.98688, 27.4047 ], [ 80.9894, 27.40897 ], [ 80.99765, 27.41455 ], [ 81.00178, 27.41217 ], [ 81.00962, 27.42107 ], [ 81.01596, 27.41608 ], [ 81.02344, 27.42497 ], [ 81.02517, 27.42539 ], [ 81.02878, 27.42449 ], [ 81.02953, 27.42538 ], [ 81.02968, 27.42886 ], [ 81.03169, 27.43597 ], [ 81.03523, 27.4406 ], [ 81.03434, 27.44273 ], [ 81.03787, 27.44677 ], [ 81.03975, 27.45086 ], [ 81.04189, 27.4528 ], [ 81.04479, 27.45403 ], [ 81.04757, 27.4566 ], [ 81.05209, 27.45894 ], [ 81.05304, 27.45864 ], [ 81.05985, 27.46403 ], [ 81.06227, 27.46755 ], [ 81.06991, 27.46618 ], [ 81.07163, 27.46761 ], [ 81.07214, 27.4704 ], [ 81.07322, 27.47142 ], [ 81.08065, 27.46758 ], [ 81.08925, 27.47432 ], [ 81.09188, 27.47865 ], [ 81.09636, 27.48009 ], [ 81.09954, 27.48467 ], [ 81.09298, 27.48815 ], [ 81.09409, 27.49162 ], [ 81.09958, 27.49793 ], [ 81.10073, 27.498 ], [ 81.1057, 27.49233 ], [ 81.10807, 27.49125 ], [ 81.11011, 27.49275 ], [ 81.10919, 27.49418 ], [ 81.11914, 27.5044 ], [ 81.11608, 27.50807 ], [ 81.12165, 27.51374 ], [ 81.12208, 27.51415 ], [ 81.12541, 27.50954 ], [ 81.12644, 27.50943 ] ] ] } },
{ "type": "Feature", "properties": { "OBJECTID": 2604, "state_lgd": "09", "state_name": "UTTAR PRADESH", "district_lgd": "154", "district_name": "SITAPUR", "district_name_source": "district_table", "subdistrict_lgd": "6293", "subdistrict_name": "MAHOLI", "subdistrict_type": "Tehsil", "name_corrupted": false, "remarks": "", "label_lon": 80.463704526780106, "label_lat": 27.65109693099738 }, "geometry": { "type": "Polygon", "coordinates": [ [ [ 80.57414, 27.64993 ], [ 80.57341, 27.64498 ], [ 80.57431, 27.64464 ], [ 80.57446, 27.64306 ], [ 80.5697, 27.64192 ], [ 80.5673, 27.64224 ], [ 80.56706, 27.64316 ], [ 80.56123, 27.6468 ], [ 80.56077, 27.64825 ], [ 80.55936, 27.64891 ], [ 80.56679, 27.65122 ], [ 80.56342, 27.65285 ], [ 80.55688, 27.65308 ], [ 80.55207, 27.65163 ], [ 80.54818, 27.65252 ], [ 80.54595, 27.64757 ], [ 80.54841, 27.64473 ], [ 80.547, 27.64225 ], [ 80.54769, 27.64041 ], [ 80.55974, 27.63637 ], [ 80.56117, 27.63122 ], [ 80.56089, 27.62968 ], [ 80.56293, 27.62669 ], [ 80.56311, 27.6227 ], [ 80.56466, 27.62009 ], [ 80.56392, 27.61864 ], [ 80.56448, 27.61677 ], [ 80.56331, 27.61401 ], [ 80.56448, 27.60907 ], [ 80.56729, 27.60655 ], [ 80.57409, 27.60734 ], [ 80.57867, 27.60423 ], [ 80.57861, 27.59803 ], [ 80.57927, 27.59614 ], [ 80.57705, 27.59233 ], [ 80.57464, 27.59061 ], [ 80.57858, 27.58671 ], [ 80.5814, 27.587 ], [ 80.58186, 27.58557 ], [ 80.58544, 27.58327 ], [ 80.58603, 27.57973 ], [ 80.58778, 27.57777 ], [ 80.58735, 27.57711 ], [ 80.58812, 27.57585 ], [ 80.58532, 27.57094 ], [ 80.58569, 27.56998 ], [ 80.58446, 27.5696 ], [ 80.58387, 27.5683 ], [ 80.58369, 27.56687 ], [ 80.58501, 27.56528 ], [ 80.58591, 27.56168 ], [ 80.58539, 27.55679 ], [ 80.58418, 27.55431 ], [ 80.57972, 27.55242 ], [ 80.57787, 27.55319 ], [ 80.5768, 27.55263 ], [ 80.57486, 27.55428 ], [ 80.57367, 27.55309 ], [ 80.57279, 27.55368 ], [ 80.57052, 27.55208 ], [ 80.56894, 27.55206 ], [ 80.56741, 27.55359 ], [ 80.5664, 27.55303 ], [ 80.5627, 27.55599 ], [ 80.56206, 27.55811 ], [ 80.56256, 27.55955 ], [ 80.5559, 27.56286 ], [ 80.55513, 27.56718 ], [ 80.55379, 27.56881 ], [ 80.55234, 27.57305 ], [ 80.55017, 27.57517 ], [ 80.54855, 27.57567 ], [ 80.54761, 27.56822 ], [ 80.54651, 27.56696 ], [ 80.5427, 27.56643 ], [ 80.53782, 27.56717 ], [ 80.53259, 27.56524 ], [ 80.53276, 27.566 ], [ 80.52771, 27.5674 ], [ 80.52053, 27.57314 ], [ 80.51515, 27.57627 ], [ 80.51142, 27.57265 ], [ 80.51079, 27.56935 ], [ 80.51177, 27.5675 ], [ 80.50587, 27.5636 ], [ 80.50421, 27.56142 ], [ 80.50499, 27.55893 ], [ 80.5119, 27.55341 ], [ 80.50869, 27.54883 ], [ 80.50639, 27.54919 ], [ 80.50171, 27.54788 ], [ 80.4967, 27.54238 ], [ 80.48764, 27.54738 ], [ 80.48856, 27.55589 ], [ 80.47796, 27.5556 ], [ 80.47716, 27.55712 ], [ 80.47364, 27.54964 ], [ 80.46712, 27.55398 ], [ 80.46408, 27.55397 ], [ 80.46344, 27.55301 ], [ 80.4606, 27.55386 ], [ 80.44845, 27.55302 ], [ 80.45056, 27.55005 ], [ 80.44961, 27.547 ], [ 80.45142, 27.5468 ], [ 80.45511, 27.54817 ], [ 80.45608, 27.55057 ], [ 80.45698, 27.5507 ], [ 80.45853, 27.54714 ], [ 80.46059, 27.54682 ], [ 80.46016, 27.54481 ], [ 80.45823, 27.54406 ], [ 80.45928, 27.54236 ], [ 80.45745, 27.54146 ], [ 80.45276, 27.54365 ], [ 80.44789, 27.54107 ], [ 80.44559, 27.53886 ], [ 80.44592, 27.53608 ], [ 80.44396, 27.53563 ], [ 80.44499, 27.53303 ], [ 80.44231, 27.53304 ], [ 80.44279, 27.53086 ], [ 80.44052, 27.53087 ], [ 80.43858, 27.52825 ], [ 80.43492, 27.52824 ], [ 80.43182, 27.52982 ], [ 80.42845, 27.52939 ], [ 80.42758, 27.53103 ], [ 80.42977, 27.53319 ], [ 80.42838, 27.5353 ], [ 80.42561, 27.53243 ], [ 80.42709, 27.52991 ], [ 80.42577, 27.52666 ], [ 80.42394, 27.52614 ], [ 80.42342, 27.52832 ], [ 80.4208, 27.52766 ], [ 80.41981, 27.5294 ], [ 80.41769, 27.52653 ], [ 80.41606, 27.52654 ], [ 80.41394, 27.52502 ], [ 80.41654, 27.52278 ], [ 80.41685, 27.52022 ], [ 80.41823, 27.51953 ], [ 80.41807, 27.51788 ], [ 80.41645, 27.51617 ], [ 80.42007, 27.51629 ], [ 80.42001, 27.51449 ], [ 80.41723, 27.51388 ], [ 80.41751, 27.51314 ], [ 80.41886, 27.51332 ], [ 80.41705, 27.5118 ], [ 80.41676, 27.51043 ], [ 80.41423, 27.50989 ], [ 80.41428, 27.5073 ], [ 80.40963, 27.50475 ], [ 80.41029, 27.50253 ], [ 80.40855, 27.50179 ], [ 80.4072, 27.49891 ], [ 80.40099, 27.49606 ], [ 80.40063, 27.4922 ], [ 80.39519, 27.48701 ], [ 80.39799, 27.47855 ], [ 80.39138, 27.47247 ], [ 80.39093, 27.4736 ], [ 80.38716, 27.47472 ], [ 80.38667, 27.47698 ], [ 80.385, 27.47603 ], [ 80.38375, 27.47725 ], [ 80.38237, 27.47452 ], [ 80.38144, 27.47434 ], [ 80.3813, 27.47666 ], [ 80.37908, 27.47724 ], [ 80.37851, 27.47901 ], [ 80.37621, 27.48128 ], [ 80.37479, 27.47969 ], [ 80.36943, 27.48122 ], [ 80.36919, 27.47872 ], [ 80.36758, 27.47773 ], [ 80.36642, 27.47787 ], [ 80.36491, 27.48 ], [ 80.36209, 27.48093 ], [ 80.35654, 27.48001 ], [ 80.35607, 27.48764 ], [ 80.35496, 27.48782 ], [ 80.35178, 27.48593 ], [ 80.35242, 27.48783 ], [ 80.35015, 27.48886 ], [ 80.35022, 27.49037 ], [ 80.35238, 27.4912 ], [ 80.35279, 27.49257 ], [ 80.3481, 27.49646 ], [ 80.34901, 27.49878 ], [ 80.34675, 27.49999 ], [ 80.34636, 27.50145 ], [ 80.34884, 27.50362 ], [ 80.34652, 27.50498 ], [ 80.34625, 27.50729 ], [ 80.34406, 27.51058 ], [ 80.34307, 27.51165 ], [ 80.34033, 27.51231 ], [ 80.3401, 27.5137 ], [ 80.33814, 27.51406 ], [ 80.33679, 27.51813 ], [ 80.33184, 27.51771 ], [ 80.32997, 27.52033 ], [ 80.32506, 27.52298 ], [ 80.32479, 27.52509 ], [ 80.32683, 27.52579 ], [ 80.32724, 27.52797 ], [ 80.32576, 27.53079 ], [ 80.32091, 27.5348 ], [ 80.32375, 27.53729 ], [ 80.32076, 27.54017 ], [ 80.32189, 27.54227 ], [ 80.32197, 27.54466 ], [ 80.32034, 27.54698 ], [ 80.32103, 27.54911 ], [ 80.32251, 27.55018 ], [ 80.32035, 27.55108 ], [ 80.3204, 27.55464 ], [ 80.31766, 27.55704 ], [ 80.31882, 27.55801 ], [ 80.31771, 27.56029 ], [ 80.3176, 27.56501 ], [ 80.31405, 27.56951 ], [ 80.31238, 27.57023 ], [ 80.31178, 27.57194 ], [ 80.30632, 27.57637 ], [ 80.30502, 27.58217 ], [ 80.30527, 27.58719 ], [ 80.30827, 27.58829 ], [ 80.3095, 27.59059 ], [ 80.3123, 27.59015 ], [ 80.32066, 27.59217 ], [ 80.3201, 27.5937 ], [ 80.32151, 27.59663 ], [ 80.32435, 27.5988 ], [ 80.32423, 27.60069 ], [ 80.31772, 27.60323 ], [ 80.31745, 27.6042 ], [ 80.31945, 27.60505 ], [ 80.31857, 27.60626 ], [ 80.31503, 27.60618 ], [ 80.31347, 27.60362 ], [ 80.31219, 27.6032 ], [ 80.31043, 27.60338 ], [ 80.30994, 27.6051 ], [ 80.30576, 27.60574 ], [ 80.30708, 27.60713 ], [ 80.30405, 27.60834 ], [ 80.30365, 27.60945 ], [ 80.30549, 27.60948 ], [ 80.30673, 27.60855 ], [ 80.30713, 27.60919 ], [ 80.30362, 27.61232 ], [ 80.30607, 27.61613 ], [ 80.30499, 27.6182 ], [ 80.30179, 27.61817 ], [ 80.30209, 27.62299 ], [ 80.30325, 27.62491 ], [ 80.30216, 27.62767 ], [ 80.30014, 27.62884 ], [ 80.29863, 27.63166 ], [ 80.29891, 27.63305 ], [ 80.30143, 27.63258 ], [ 80.30258, 27.63442 ], [ 80.30658, 27.63409 ], [ 80.30642, 27.63483 ], [ 80.30315, 27.6363 ], [ 80.30283, 27.63737 ], [ 80.30687, 27.63719 ], [ 80.30954, 27.63844 ], [ 80.31091, 27.64038 ], [ 80.31084, 27.64177 ], [ 80.30805, 27.64479 ], [ 80.30821, 27.64572 ], [ 80.31041, 27.64568 ], [ 80.31089, 27.64707 ], [ 80.3089, 27.64811 ], [ 80.30958, 27.6511 ], [ 80.30674, 27.65168 ], [ 80.30743, 27.65338 ], [ 80.30624, 27.65578 ], [ 80.31023, 27.65464 ], [ 80.3102, 27.65706 ], [ 80.30828, 27.65842 ], [ 80.30781, 27.65984 ], [ 80.31028, 27.65938 ], [ 80.31149, 27.66048 ], [ 80.31141, 27.66158 ], [ 80.30794, 27.66462 ], [ 80.31114, 27.66468 ], [ 80.31245, 27.66618 ], [ 80.30952, 27.6704 ], [ 80.30766, 27.6712 ], [ 80.30661, 27.67396 ], [ 80.30705, 27.67474 ], [ 80.30941, 27.67417 ], [ 80.30992, 27.67979 ], [ 80.31674, 27.68472 ], [ 80.32056, 27.68898 ], [ 80.32801, 27.69297 ], [ 80.33384, 27.69924 ], [ 80.33778, 27.69931 ], [ 80.34372, 27.70301 ], [ 80.34715, 27.70173 ], [ 80.3485, 27.70445 ], [ 80.35285, 27.70312 ], [ 80.35397, 27.70348 ], [ 80.35569, 27.70575 ], [ 80.35896, 27.70531 ], [ 80.36149, 27.70929 ], [ 80.36682, 27.70476 ], [ 80.36794, 27.70484 ], [ 80.37006, 27.71002 ], [ 80.37128, 27.70909 ], [ 80.37237, 27.71005 ], [ 80.37804, 27.7069 ], [ 80.38445, 27.71345 ], [ 80.3868, 27.71284 ], [ 80.38896, 27.71419 ], [ 80.39078, 27.71637 ], [ 80.39297, 27.72139 ], [ 80.39326, 27.7267 ], [ 80.39567, 27.7273 ], [ 80.40295, 27.73475 ], [ 80.40858, 27.73918 ], [ 80.40894, 27.74132 ], [ 80.41386, 27.74419 ], [ 80.41738, 27.74408 ], [ 80.41839, 27.74538 ], [ 80.42134, 27.7463 ], [ 80.4287, 27.73995 ], [ 80.43232, 27.74251 ], [ 80.4353, 27.74199 ], [ 80.43703, 27.74433 ], [ 80.43712, 27.746 ], [ 80.4383, 27.74542 ], [ 80.43922, 27.74607 ], [ 80.44213, 27.74558 ], [ 80.44479, 27.74618 ], [ 80.45015, 27.74917 ], [ 80.45022, 27.75157 ], [ 80.45224, 27.75219 ], [ 80.45079, 27.75484 ], [ 80.45167, 27.76184 ], [ 80.44767, 27.76326 ], [ 80.44524, 27.76195 ], [ 80.44366, 27.76366 ], [ 80.44247, 27.76573 ], [ 80.44379, 27.76688 ], [ 80.44392, 27.7659 ], [ 80.4447, 27.76613 ], [ 80.44546, 27.76732 ], [ 80.44563, 27.76848 ], [ 80.44367, 27.7692 ], [ 80.44399, 27.77031 ], [ 80.44573, 27.77057 ], [ 80.44504, 27.77159 ], [ 80.45163, 27.76996 ], [ 80.45532, 27.76806 ], [ 80.45585, 27.7601 ], [ 80.464, 27.75738 ], [ 80.46483, 27.76317 ], [ 80.46837, 27.77353 ], [ 80.47017, 27.77281 ], [ 80.47187, 27.77419 ], [ 80.47405, 27.77691 ], [ 80.47463, 27.77958 ], [ 80.48527, 27.77348 ], [ 80.48591, 27.7743 ], [ 80.48817, 27.77452 ], [ 80.4888, 27.77552 ], [ 80.48975, 27.77536 ], [ 80.49077, 27.77737 ], [ 80.4888, 27.77999 ], [ 80.4911, 27.78094 ], [ 80.493, 27.78079 ], [ 80.49447, 27.7821 ], [ 80.49562, 27.78416 ], [ 80.49625, 27.78886 ], [ 80.50151, 27.797 ], [ 80.5032, 27.79599 ], [ 80.50451, 27.79582 ], [ 80.50623, 27.79696 ], [ 80.50753, 27.79613 ], [ 80.5126, 27.79864 ], [ 80.51391, 27.80153 ], [ 80.51592, 27.80344 ], [ 80.51593, 27.80416 ], [ 80.51498, 27.80441 ], [ 80.51522, 27.80644 ], [ 80.51605, 27.80913 ], [ 80.51732, 27.81038 ], [ 80.53476, 27.80091 ], [ 80.53411, 27.79997 ], [ 80.53993, 27.79623 ], [ 80.53985, 27.79437 ], [ 80.53669, 27.78865 ], [ 80.53609, 27.78463 ], [ 80.54086, 27.78055 ], [ 80.53947, 27.77933 ], [ 80.54105, 27.77819 ], [ 80.54076, 27.77683 ], [ 80.54182, 27.77509 ], [ 80.54154, 27.77204 ], [ 80.54249, 27.77197 ], [ 80.54299, 27.77038 ], [ 80.54474, 27.77156 ], [ 80.54614, 27.77392 ], [ 80.54765, 27.77292 ], [ 80.54891, 27.7738 ], [ 80.55446, 27.77043 ], [ 80.55458, 27.76643 ], [ 80.55344, 27.76216 ], [ 80.5625, 27.75723 ], [ 80.56333, 27.75506 ], [ 80.56278, 27.7535 ], [ 80.56385, 27.75227 ], [ 80.56532, 27.75174 ], [ 80.56958, 27.75284 ], [ 80.57299, 27.74969 ], [ 80.57766, 27.75527 ], [ 80.58592, 27.75206 ], [ 80.58927, 27.75244 ], [ 80.59627, 27.74865 ], [ 80.59826, 27.74886 ], [ 80.59961, 27.75056 ], [ 80.60511, 27.7507 ], [ 80.60509, 27.7539 ], [ 80.60652, 27.7582 ], [ 80.60314, 27.76238 ], [ 80.60925, 27.77438 ], [ 80.6136, 27.77685 ], [ 80.61363, 27.7812 ], [ 80.62023, 27.7896 ], [ 80.62204, 27.79536 ], [ 80.62954, 27.80385 ], [ 80.62828, 27.80732 ], [ 80.62833, 27.81033 ], [ 80.63473, 27.82764 ], [ 80.63707, 27.83032 ], [ 80.63543, 27.83185 ], [ 80.64182, 27.8392 ], [ 80.64387, 27.83751 ], [ 80.64403, 27.83631 ], [ 80.64759, 27.83577 ], [ 80.64789, 27.83397 ], [ 80.64925, 27.83341 ], [ 80.64853, 27.83096 ], [ 80.6498, 27.83029 ], [ 80.65081, 27.82812 ], [ 80.64894, 27.82633 ], [ 80.64915, 27.82485 ], [ 80.65084, 27.82424 ], [ 80.65055, 27.82147 ], [ 80.65194, 27.81856 ], [ 80.65421, 27.817 ], [ 80.65788, 27.818 ], [ 80.6597, 27.81585 ], [ 80.65972, 27.81298 ], [ 80.66199, 27.81231 ], [ 80.66102, 27.81036 ], [ 80.65792, 27.80956 ], [ 80.65762, 27.80829 ], [ 80.65621, 27.80838 ], [ 80.65802, 27.80728 ], [ 80.6576, 27.80574 ], [ 80.65926, 27.80527 ], [ 80.65687, 27.80321 ], [ 80.65521, 27.80303 ], [ 80.65577, 27.79931 ], [ 80.65386, 27.79729 ], [ 80.65748, 27.79708 ], [ 80.65785, 27.79635 ], [ 80.65543, 27.79403 ], [ 80.65443, 27.79143 ], [ 80.65639, 27.79048 ], [ 80.65558, 27.78929 ], [ 80.65638, 27.78538 ], [ 80.65367, 27.7826 ], [ 80.65556, 27.77982 ], [ 80.65587, 27.77513 ], [ 80.65522, 27.77239 ], [ 80.65369, 27.77114 ], [ 80.65309, 27.76788 ], [ 80.65593, 27.76767 ], [ 80.65547, 27.76258 ], [ 80.65596, 27.7611 ], [ 80.65739, 27.76072 ], [ 80.65813, 27.75779 ], [ 80.65789, 27.75294 ], [ 80.65922, 27.75207 ], [ 80.65941, 27.75016 ], [ 80.66127, 27.74983 ], [ 80.65861, 27.74922 ], [ 80.65777, 27.74744 ], [ 80.65484, 27.74592 ], [ 80.64981, 27.74617 ], [ 80.64775, 27.74708 ], [ 80.64693, 27.744 ], [ 80.64376, 27.74499 ], [ 80.63577, 27.75016 ], [ 80.63283, 27.7494 ], [ 80.63019, 27.74995 ], [ 80.62935, 27.74883 ], [ 80.6278, 27.74928 ], [ 80.62504, 27.74743 ], [ 80.62321, 27.74295 ], [ 80.62562, 27.74031 ], [ 80.6247, 27.7386 ], [ 80.62607, 27.73767 ], [ 80.6266, 27.73558 ], [ 80.62408, 27.7308 ], [ 80.62016, 27.7265 ], [ 80.62128, 27.7256 ], [ 80.61925, 27.72118 ], [ 80.62083, 27.72 ], [ 80.62072, 27.71919 ], [ 80.62447, 27.7167 ], [ 80.6265, 27.71341 ], [ 80.62619, 27.71216 ], [ 80.61889, 27.70555 ], [ 80.61987, 27.70456 ], [ 80.61912, 27.70252 ], [ 80.61517, 27.6987 ], [ 80.61395, 27.69611 ], [ 80.61439, 27.68739 ], [ 80.6162, 27.68605 ], [ 80.6166, 27.68286 ], [ 80.61443, 27.67969 ], [ 80.61038, 27.67748 ], [ 80.60758, 27.67392 ], [ 80.60297, 27.67484 ], [ 80.60224, 27.66089 ], [ 80.60286, 27.65878 ], [ 80.60218, 27.65771 ], [ 80.60022, 27.65742 ], [ 80.59435, 27.66084 ], [ 80.59242, 27.66028 ], [ 80.59128, 27.65817 ], [ 80.58988, 27.65851 ], [ 80.58406, 27.66252 ], [ 80.58286, 27.66479 ], [ 80.57473, 27.66347 ], [ 80.57394, 27.66323 ], [ 80.57435, 27.65715 ], [ 80.57707, 27.66115 ], [ 80.58163, 27.65808 ], [ 80.58151, 27.65572 ], [ 80.57414, 27.64993 ] ] ] } },
{ "type": "Feature", "properties": { "OBJECTID": 2632, "state_lgd": "09", "state_name": "UTTAR PRADESH", "district_lgd": "154", "district_name": "SITAPUR", "district_name_source": "district_table", "subdistrict_lgd": "803", "subdistrict_name": "MISRIKH", "subdistrict_type": "Tehsil", "name_corrupted": false, "remarks": "", "label_lon": 80.58171404761724, "label_lat": 27.41431661867415 }, "geometry": { "type": "Polygon", "coordinates": [ [ [ 80.52771, 27.5674 ], [ 80.53276, 27.566 ], [ 80.53259, 27.56524 ], [ 80.53782, 27.56717 ], [ 80.5427, 27.56643 ], [ 80.54633, 27.56688 ], [ 80.54761, 27.56822 ], [ 80.54855, 27.57567 ], [ 80.5507, 27.57498 ], [ 80.55234, 27.57305 ], [ 80.55518, 27.56704 ], [ 80.5559, 27.56286 ], [ 80.56256, 27.55955 ], [ 80.56206, 27.55811 ], [ 80.5627, 27.55599 ], [ 80.5664, 27.55303 ], [ 80.56741, 27.55359 ], [ 80.56894, 27.55206 ], [ 80.57052, 27.55208 ], [ 80.57279, 27.55368 ], [ 80.57367, 27.55309 ], [ 80.57486, 27.55428 ], [ 80.5768, 27.55263 ], [ 80.57787, 27.55319 ], [ 80.57972, 27.55242 ], [ 80.58418, 27.55431 ], [ 80.58868, 27.55258 ], [ 80.5889, 27.55123 ], [ 80.58693, 27.54742 ], [ 80.5824, 27.54456 ], [ 80.57722, 27.53958 ], [ 80.57334, 27.54308 ], [ 80.57137, 27.54283 ], [ 80.56995, 27.54363 ], [ 80.56871, 27.54286 ], [ 80.56496, 27.54305 ], [ 80.56264, 27.54054 ], [ 80.56033, 27.53986 ], [ 80.5574, 27.53705 ], [ 80.55553, 27.52832 ], [ 80.55677, 27.51747 ], [ 80.55455, 27.51184 ], [ 80.55761, 27.50538 ], [ 80.55868, 27.50021 ], [ 80.55865, 27.4933 ], [ 80.55931, 27.49275 ], [ 80.56939, 27.49184 ], [ 80.5711, 27.4886 ], [ 80.57554, 27.49437 ], [ 80.57483, 27.49483 ], [ 80.5766, 27.4964 ], [ 80.57948, 27.49792 ], [ 80.58204, 27.49816 ], [ 80.58335, 27.49979 ], [ 80.58384, 27.50222 ], [ 80.58672, 27.50545 ], [ 80.59069, 27.50537 ], [ 80.59247, 27.50682 ], [ 80.59686, 27.50527 ], [ 80.59936, 27.50305 ], [ 80.60945, 27.50129 ], [ 80.61481, 27.50854 ], [ 80.61366, 27.51206 ], [ 80.61447, 27.51288 ], [ 80.61859, 27.51263 ], [ 80.61967, 27.5117 ], [ 80.623, 27.51148 ], [ 80.63083, 27.50821 ], [ 80.63243, 27.50838 ], [ 80.63898, 27.51691 ], [ 80.64259, 27.51917 ], [ 80.64571, 27.51807 ], [ 80.64589, 27.51326 ], [ 80.64939, 27.51181 ], [ 80.65082, 27.50947 ], [ 80.65108, 27.50596 ], [ 80.65386, 27.50332 ], [ 80.65632, 27.50428 ], [ 80.65714, 27.50365 ], [ 80.65952, 27.50439 ], [ 80.66235, 27.50373 ], [ 80.66512, 27.50559 ], [ 80.66689, 27.50363 ], [ 80.67015, 27.50303 ], [ 80.67003, 27.49884 ], [ 80.67216, 27.49831 ], [ 80.67392, 27.49526 ], [ 80.67241, 27.49087 ], [ 80.67278, 27.48725 ], [ 80.67468, 27.48705 ], [ 80.67749, 27.49139 ], [ 80.67973, 27.49073 ], [ 80.67985, 27.494 ], [ 80.68356, 27.49105 ], [ 80.6841, 27.48742 ], [ 80.68502, 27.48737 ], [ 80.68579, 27.4876 ], [ 80.68591, 27.4898 ], [ 80.68699, 27.49122 ], [ 80.69131, 27.49178 ], [ 80.69178, 27.49257 ], [ 80.69119, 27.49432 ], [ 80.69412, 27.49508 ], [ 80.69433, 27.49796 ], [ 80.69715, 27.50148 ], [ 80.69579, 27.50327 ], [ 80.69628, 27.5038 ], [ 80.69878, 27.50314 ], [ 80.70081, 27.50132 ], [ 80.70186, 27.5016 ], [ 80.70183, 27.50382 ], [ 80.69958, 27.50665 ], [ 80.70097, 27.50767 ], [ 80.70941, 27.50459 ], [ 80.71024, 27.50335 ], [ 80.70695, 27.50022 ], [ 80.70621, 27.49827 ], [ 80.70709, 27.49779 ], [ 80.71039, 27.49839 ], [ 80.71127, 27.49781 ], [ 80.71265, 27.49201 ], [ 80.71364, 27.49077 ], [ 80.71671, 27.48826 ], [ 80.71799, 27.48998 ], [ 80.71867, 27.48975 ], [ 80.71793, 27.48467 ], [ 80.71657, 27.48193 ], [ 80.71829, 27.47882 ], [ 80.72125, 27.47841 ], [ 80.72479, 27.48208 ], [ 80.72905, 27.48337 ], [ 80.72794, 27.48026 ], [ 80.7283, 27.47745 ], [ 80.72651, 27.47664 ], [ 80.72657, 27.47565 ], [ 80.72838, 27.47603 ], [ 80.73349, 27.47385 ], [ 80.73544, 27.47527 ], [ 80.73728, 27.4721 ], [ 80.73898, 27.47205 ], [ 80.74026, 27.47101 ], [ 80.74391, 27.46671 ], [ 80.74425, 27.46476 ], [ 80.74285, 27.46234 ], [ 80.74126, 27.46146 ], [ 80.74169, 27.45983 ], [ 80.74615, 27.46026 ], [ 80.74694, 27.46077 ], [ 80.7468, 27.46183 ], [ 80.74831, 27.46226 ], [ 80.74956, 27.46076 ], [ 80.74652, 27.45785 ], [ 80.74632, 27.45528 ], [ 80.75792, 27.45474 ], [ 80.75812, 27.45238 ], [ 80.75743, 27.45153 ], [ 80.75538, 27.45142 ], [ 80.75298, 27.44848 ], [ 80.75323, 27.44532 ], [ 80.75417, 27.44484 ], [ 80.75659, 27.44549 ], [ 80.75678, 27.44782 ], [ 80.75959, 27.4487 ], [ 80.76111, 27.45085 ], [ 80.76775, 27.44975 ], [ 80.76734, 27.44837 ], [ 80.7593, 27.44183 ], [ 80.76357, 27.43924 ], [ 80.76698, 27.44097 ], [ 80.76888, 27.44071 ], [ 80.76896, 27.43894 ], [ 80.76803, 27.43736 ], [ 80.76473, 27.43749 ], [ 80.76439, 27.43687 ], [ 80.76529, 27.4357 ], [ 80.7644, 27.43431 ], [ 80.76275, 27.4354 ], [ 80.76157, 27.43276 ], [ 80.76178, 27.43121 ], [ 80.76465, 27.43024 ], [ 80.7681, 27.43209 ], [ 80.76911, 27.43343 ], [ 80.77279, 27.43323 ], [ 80.77154, 27.43545 ], [ 80.77315, 27.43595 ], [ 80.77353, 27.43855 ], [ 80.77618, 27.43879 ], [ 80.77663, 27.43667 ], [ 80.77529, 27.43366 ], [ 80.77769, 27.43295 ], [ 80.77825, 27.43193 ], [ 80.77718, 27.42696 ], [ 80.78576, 27.43088 ], [ 80.78827, 27.42883 ], [ 80.78969, 27.42899 ], [ 80.79052, 27.42734 ], [ 80.79506, 27.42689 ], [ 80.79947, 27.42374 ], [ 80.80046, 27.41858 ], [ 80.79976, 27.41676 ], [ 80.79661, 27.41705 ], [ 80.79416, 27.42086 ], [ 80.79235, 27.42065 ], [ 80.79247, 27.41878 ], [ 80.79174, 27.41847 ], [ 80.78935, 27.42006 ], [ 80.78736, 27.41954 ], [ 80.78356, 27.42002 ], [ 80.78298, 27.41847 ], [ 80.78512, 27.41532 ], [ 80.7843, 27.41223 ], [ 80.77851, 27.41374 ], [ 80.77431, 27.41244 ], [ 80.77362, 27.41307 ], [ 80.7737, 27.4156 ], [ 80.77209, 27.41634 ], [ 80.77069, 27.41537 ], [ 80.76919, 27.41115 ], [ 80.76027, 27.40925 ], [ 80.76447, 27.40449 ], [ 80.76521, 27.40263 ], [ 80.76499, 27.40062 ], [ 80.76369, 27.39975 ], [ 80.76177, 27.39996 ], [ 80.75892, 27.40174 ], [ 80.75788, 27.40136 ], [ 80.75867, 27.39887 ], [ 80.76167, 27.39545 ], [ 80.76062, 27.39436 ], [ 80.75714, 27.39468 ], [ 80.75627, 27.39355 ], [ 80.75597, 27.39181 ], [ 80.75965, 27.39095 ], [ 80.7594, 27.3882 ], [ 80.74678, 27.3905 ], [ 80.74554, 27.38995 ], [ 80.74531, 27.38899 ], [ 80.74776, 27.38484 ], [ 80.74733, 27.38411 ], [ 80.74635, 27.38385 ], [ 80.73945, 27.3868 ], [ 80.73456, 27.38471 ], [ 80.72914, 27.38596 ], [ 80.72741, 27.38518 ], [ 80.7263, 27.38165 ], [ 80.72653, 27.38037 ], [ 80.72849, 27.37835 ], [ 80.73035, 27.37794 ], [ 80.73493, 27.37969 ], [ 80.73969, 27.37794 ], [ 80.73969, 27.37674 ], [ 80.73629, 27.37354 ], [ 80.7394, 27.37121 ], [ 80.73989, 27.3697 ], [ 80.73658, 27.3662 ], [ 80.7353, 27.36163 ], [ 80.73573, 27.35933 ], [ 80.73909, 27.35845 ], [ 80.74186, 27.35145 ], [ 80.74385, 27.35233 ], [ 80.74304, 27.35662 ], [ 80.74614, 27.35726 ], [ 80.74831, 27.34978 ], [ 80.7507, 27.34762 ], [ 80.75349, 27.34334 ], [ 80.75444, 27.34349 ], [ 80.75504, 27.34485 ], [ 80.7551, 27.34958 ], [ 80.75886, 27.34931 ], [ 80.75788, 27.34412 ], [ 80.75832, 27.33926 ], [ 80.75495, 27.33914 ], [ 80.75397, 27.33756 ], [ 80.75061, 27.33715 ], [ 80.74981, 27.33332 ], [ 80.74435, 27.33045 ], [ 80.73942, 27.3216 ], [ 80.73883, 27.32169 ], [ 80.73906, 27.32082 ], [ 80.73779, 27.3187 ], [ 80.7385, 27.31803 ], [ 80.73714, 27.31656 ], [ 80.73433, 27.30977 ], [ 80.73144, 27.30778 ], [ 80.72706, 27.30885 ], [ 80.72693, 27.3081 ], [ 80.72503, 27.3081 ], [ 80.72438, 27.30711 ], [ 80.72201, 27.30709 ], [ 80.71893, 27.30109 ], [ 80.7188, 27.30045 ], [ 80.72081, 27.30015 ], [ 80.71968, 27.29801 ], [ 80.71838, 27.29842 ], [ 80.71708, 27.29671 ], [ 80.71647, 27.29761 ], [ 80.71429, 27.29682 ], [ 80.71387, 27.29796 ], [ 80.71218, 27.29668 ], [ 80.7085, 27.29727 ], [ 80.70655, 27.29492 ], [ 80.70166, 27.29866 ], [ 80.70279, 27.29974 ], [ 80.70072, 27.30014 ], [ 80.70075, 27.30104 ], [ 80.69973, 27.30144 ], [ 80.69639, 27.29982 ], [ 80.69334, 27.3009 ], [ 80.69175, 27.30208 ], [ 80.69204, 27.30272 ], [ 80.69068, 27.3029 ], [ 80.69013, 27.30092 ], [ 80.68713, 27.29885 ], [ 80.6857, 27.29891 ], [ 80.68479, 27.29737 ], [ 80.68161, 27.30039 ], [ 80.6732, 27.30519 ], [ 80.67326, 27.30725 ], [ 80.67243, 27.30837 ], [ 80.67639, 27.31268 ], [ 80.66799, 27.31636 ], [ 80.66815, 27.31768 ], [ 80.66611, 27.31861 ], [ 80.66423, 27.31461 ], [ 80.65967, 27.31407 ], [ 80.66025, 27.31338 ], [ 80.65902, 27.31262 ], [ 80.65931, 27.31135 ], [ 80.6573, 27.30789 ], [ 80.65911, 27.30701 ], [ 80.65554, 27.30458 ], [ 80.65438, 27.30582 ], [ 80.65053, 27.30374 ], [ 80.64981, 27.30128 ], [ 80.65053, 27.2998 ], [ 80.64619, 27.29479 ], [ 80.64508, 27.29601 ], [ 80.64369, 27.29572 ], [ 80.64363, 27.29485 ], [ 80.64207, 27.29581 ], [ 80.63356, 27.28908 ], [ 80.63447, 27.28754 ], [ 80.63317, 27.28544 ], [ 80.63324, 27.28221 ], [ 80.62996, 27.2823 ], [ 80.62802, 27.28332 ], [ 80.62521, 27.28167 ], [ 80.62703, 27.28003 ], [ 80.6268, 27.27386 ], [ 80.61961, 27.26903 ], [ 80.61795, 27.27135 ], [ 80.61575, 27.27141 ], [ 80.61267, 27.26894 ], [ 80.60518, 27.26547 ], [ 80.60268, 27.26292 ], [ 80.6008, 27.26284 ], [ 80.59741, 27.26636 ], [ 80.59788, 27.27021 ], [ 80.59726, 27.27084 ], [ 80.59473, 27.271 ], [ 80.59034, 27.26877 ], [ 80.58903, 27.26909 ], [ 80.58576, 27.27267 ], [ 80.58701, 27.27762 ], [ 80.58668, 27.27884 ], [ 80.58399, 27.27847 ], [ 80.58149, 27.27702 ], [ 80.58078, 27.27461 ], [ 80.57909, 27.27643 ], [ 80.57674, 27.27638 ], [ 80.57486, 27.27765 ], [ 80.56924, 27.27869 ], [ 80.56996, 27.28017 ], [ 80.57725, 27.2852 ], [ 80.57777, 27.28781 ], [ 80.57206, 27.28618 ], [ 80.57164, 27.28691 ], [ 80.5743, 27.29171 ], [ 80.57183, 27.29291 ], [ 80.5665, 27.29272 ], [ 80.55944, 27.27969 ], [ 80.55938, 27.27688 ], [ 80.55773, 27.27374 ], [ 80.55861, 27.27034 ], [ 80.5577, 27.26918 ], [ 80.55501, 27.26936 ], [ 80.55029, 27.27236 ], [ 80.54685, 27.2721 ], [ 80.54382, 27.27064 ], [ 80.53996, 27.26602 ], [ 80.53083, 27.2614 ], [ 80.52223, 27.2598 ], [ 80.51539, 27.26118 ], [ 80.51339, 27.25814 ], [ 80.51361, 27.25494 ], [ 80.50778, 27.25643 ], [ 80.49688, 27.25486 ], [ 80.49504, 27.25605 ], [ 80.4947, 27.25709 ], [ 80.49561, 27.25705 ], [ 80.49834, 27.26042 ], [ 80.50262, 27.26165 ], [ 80.50988, 27.26724 ], [ 80.51117, 27.26746 ], [ 80.51309, 27.26516 ], [ 80.51562, 27.2648 ], [ 80.51689, 27.26642 ], [ 80.51721, 27.26857 ], [ 80.51659, 27.27022 ], [ 80.51402, 27.27137 ], [ 80.51229, 27.27327 ], [ 80.51174, 27.28759 ], [ 80.51096, 27.2895 ], [ 80.50801, 27.29144 ], [ 80.5059, 27.29408 ], [ 80.50661, 27.29762 ], [ 80.50625, 27.30043 ], [ 80.49973, 27.30334 ], [ 80.49535, 27.31193 ], [ 80.49581, 27.31922 ], [ 80.50159, 27.32264 ], [ 80.50174, 27.32459 ], [ 80.5, 27.32616 ], [ 80.49361, 27.32687 ], [ 80.48724, 27.33004 ], [ 80.48363, 27.33638 ], [ 80.48457, 27.3419 ], [ 80.48373, 27.34419 ], [ 80.48257, 27.34508 ], [ 80.47407, 27.34634 ], [ 80.47003, 27.3452 ], [ 80.46681, 27.34245 ], [ 80.46564, 27.34 ], [ 80.46054, 27.34166 ], [ 80.45672, 27.33893 ], [ 80.45552, 27.33915 ], [ 80.45597, 27.34136 ], [ 80.45859, 27.3429 ], [ 80.46284, 27.34375 ], [ 80.46364, 27.34557 ], [ 80.46231, 27.34885 ], [ 80.45641, 27.35354 ], [ 80.45411, 27.36003 ], [ 80.45979, 27.36095 ], [ 80.46183, 27.35967 ], [ 80.46481, 27.35583 ], [ 80.46589, 27.35583 ], [ 80.46612, 27.36232 ], [ 80.46795, 27.36715 ], [ 80.46731, 27.36848 ], [ 80.46532, 27.36961 ], [ 80.46265, 27.36941 ], [ 80.45932, 27.36663 ], [ 80.45763, 27.36666 ], [ 80.45424, 27.37063 ], [ 80.44866, 27.38345 ], [ 80.45014, 27.38727 ], [ 80.44893, 27.39076 ], [ 80.45148, 27.39391 ], [ 80.45145, 27.39563 ], [ 80.44721, 27.39773 ], [ 80.44779, 27.39887 ], [ 80.45136, 27.40052 ], [ 80.45139, 27.40123 ], [ 80.44552, 27.4035 ], [ 80.43791, 27.40189 ], [ 80.43566, 27.40213 ], [ 80.43202, 27.40824 ], [ 80.42333, 27.4138 ], [ 80.42171, 27.41712 ], [ 80.42174, 27.41963 ], [ 80.42583, 27.41994 ], [ 80.42937, 27.41836 ], [ 80.43093, 27.41983 ], [ 80.43061, 27.42297 ], [ 80.42576, 27.42515 ], [ 80.42144, 27.42919 ], [ 80.41927, 27.43315 ], [ 80.41724, 27.43455 ], [ 80.41566, 27.435 ], [ 80.41303, 27.43378 ], [ 80.41027, 27.43444 ], [ 80.41011, 27.43834 ], [ 80.4086, 27.43996 ], [ 80.40835, 27.44372 ], [ 80.40494, 27.44635 ], [ 80.40778, 27.44721 ], [ 80.4079, 27.44968 ], [ 80.40653, 27.4507 ], [ 80.40443, 27.4506 ], [ 80.40221, 27.44847 ], [ 80.40164, 27.45057 ], [ 80.40404, 27.45296 ], [ 80.40402, 27.45395 ], [ 80.40276, 27.45465 ], [ 80.39841, 27.45318 ], [ 80.39742, 27.45404 ], [ 80.39795, 27.45503 ], [ 80.40087, 27.45645 ], [ 80.40301, 27.45914 ], [ 80.40293, 27.46289 ], [ 80.39891, 27.46332 ], [ 80.3953, 27.46499 ], [ 80.39105, 27.46577 ], [ 80.39051, 27.47004 ], [ 80.39138, 27.47247 ], [ 80.39799, 27.47855 ], [ 80.39519, 27.48701 ], [ 80.40063, 27.4922 ], [ 80.40099, 27.49606 ], [ 80.4072, 27.49891 ], [ 80.40855, 27.50179 ], [ 80.41029, 27.50253 ], [ 80.40963, 27.50475 ], [ 80.41428, 27.5073 ], [ 80.41423, 27.50989 ], [ 80.41676, 27.51043 ], [ 80.41705, 27.5118 ], [ 80.41886, 27.51332 ], [ 80.41751, 27.51314 ], [ 80.41723, 27.51388 ], [ 80.42001, 27.51449 ], [ 80.42007, 27.51629 ], [ 80.41645, 27.51617 ], [ 80.41807, 27.51788 ], [ 80.41823, 27.51953 ], [ 80.41685, 27.52022 ], [ 80.41654, 27.52278 ], [ 80.41394, 27.52502 ], [ 80.41606, 27.52654 ], [ 80.41769, 27.52653 ], [ 80.41981, 27.5294 ], [ 80.4208, 27.52766 ], [ 80.42342, 27.52832 ], [ 80.42394, 27.52614 ], [ 80.42577, 27.52666 ], [ 80.42709, 27.52991 ], [ 80.42561, 27.53243 ], [ 80.42838, 27.5353 ], [ 80.42977, 27.53319 ], [ 80.42758, 27.53103 ], [ 80.42845, 27.52939 ], [ 80.43182, 27.52982 ], [ 80.43492, 27.52824 ], [ 80.43858, 27.52825 ], [ 80.44052, 27.53087 ], [ 80.44279, 27.53086 ], [ 80.44231, 27.53304 ], [ 80.44499, 27.53303 ], [ 80.44396, 27.53563 ], [ 80.44592, 27.53608 ], [ 80.44559, 27.53886 ], [ 80.44789, 27.54107 ], [ 80.45276, 27.54365 ], [ 80.45745, 27.54146 ], [ 80.45928, 27.54236 ], [ 80.45823, 27.54406 ], [ 80.46016, 27.54481 ], [ 80.46059, 27.54682 ], [ 80.45853, 27.54714 ], [ 80.45698, 27.5507 ], [ 80.45608, 27.55057 ], [ 80.45511, 27.54817 ], [ 80.45142, 27.5468 ], [ 80.44961, 27.547 ], [ 80.45056, 27.55005 ], [ 80.44828, 27.55294 ], [ 80.4606, 27.55386 ], [ 80.46344, 27.55301 ], [ 80.46408, 27.55397 ], [ 80.46712, 27.55398 ], [ 80.47364, 27.54964 ], [ 80.47716, 27.55712 ], [ 80.47796, 27.5556 ], [ 80.48856, 27.55589 ], [ 80.48764, 27.54738 ], [ 80.4967, 27.54238 ], [ 80.50171, 27.54788 ], [ 80.50639, 27.54919 ], [ 80.50869, 27.54883 ], [ 80.5119, 27.55341 ], [ 80.50499, 27.55893 ], [ 80.50421, 27.56142 ], [ 80.50587, 27.5636 ], [ 80.51177, 27.5675 ], [ 80.51079, 27.56935 ], [ 80.51142, 27.57265 ], [ 80.51515, 27.57627 ], [ 80.52053, 27.57314 ], [ 80.52771, 27.5674 ] ] ] } },
{ "type": "Feature", "properties": { "OBJECTID": 2720, "state_lgd": "09", "state_name": "UTTAR PRADESH", "district_lgd": "154", "district_name": "SITAPUR", "district_name_source": "district_table", "subdistrict_lgd": "808", "subdistrict_name": "SIDHAULI", "subdistrict_type": "Tehsil", "name_corrupted": false, "remarks": "", "label_lon": 80.84450950743927, "label_lat": 27.287974493801393 }, "geometry": { "type": "Polygon", "coordinates": [ [ [ 80.84397, 27.47626 ], [ 80.85337, 27.47124 ], [ 80.85638, 27.4748 ], [ 80.85764, 27.47509 ], [ 80.86759, 27.47426 ], [ 80.87677, 27.46841 ], [ 80.87562, 27.46582 ], [ 80.8777, 27.46266 ], [ 80.88393, 27.45866 ], [ 80.8861, 27.45864 ], [ 80.88732, 27.45632 ], [ 80.88532, 27.44629 ], [ 80.88082, 27.44066 ], [ 80.87969, 27.43696 ], [ 80.8777, 27.43752 ], [ 80.87653, 27.43408 ], [ 80.87513, 27.43389 ], [ 80.87232, 27.4312 ], [ 80.87256, 27.42923 ], [ 80.87054, 27.42674 ], [ 80.85131, 27.40761 ], [ 80.85582, 27.40612 ], [ 80.85697, 27.40324 ], [ 80.86038, 27.40142 ], [ 80.86292, 27.40283 ], [ 80.86481, 27.40288 ], [ 80.86918, 27.39798 ], [ 80.87598, 27.39593 ], [ 80.88095, 27.39156 ], [ 80.88554, 27.39097 ], [ 80.88827, 27.38894 ], [ 80.89227, 27.3941 ], [ 80.89137, 27.39516 ], [ 80.89498, 27.40079 ], [ 80.89938, 27.40365 ], [ 80.90165, 27.4027 ], [ 80.90326, 27.40167 ], [ 80.89943, 27.39407 ], [ 80.90006, 27.38387 ], [ 80.90508, 27.38212 ], [ 80.90678, 27.38268 ], [ 80.91325, 27.38039 ], [ 80.92155, 27.37483 ], [ 80.92903, 27.3677 ], [ 80.93214, 27.3697 ], [ 80.93373, 27.3738 ], [ 80.93591, 27.37623 ], [ 80.93875, 27.3774 ], [ 80.94253, 27.38162 ], [ 80.94592, 27.3883 ], [ 80.94726, 27.393 ], [ 80.94742, 27.39429 ], [ 80.94598, 27.396 ], [ 80.9528, 27.40519 ], [ 80.95458, 27.40585 ], [ 80.95862, 27.40104 ], [ 80.96124, 27.40146 ], [ 80.96424, 27.40033 ], [ 80.97583, 27.40067 ], [ 80.97771, 27.40169 ], [ 80.97632, 27.40395 ], [ 80.9778, 27.40881 ], [ 80.98029, 27.41307 ], [ 80.98231, 27.41253 ], [ 80.98193, 27.4099 ], [ 80.98253, 27.40883 ], [ 80.98841, 27.40738 ], [ 80.98688, 27.4047 ], [ 80.98152, 27.40083 ], [ 80.98507, 27.39768 ], [ 80.98701, 27.39444 ], [ 80.99299, 27.3929 ], [ 80.99495, 27.39034 ], [ 80.99606, 27.38314 ], [ 80.98931, 27.37637 ], [ 80.99312, 27.37083 ], [ 81.00082, 27.36975 ], [ 81.00596, 27.36579 ], [ 81.00745, 27.36291 ], [ 81.00695, 27.36194 ], [ 81.00991, 27.35819 ], [ 81.01031, 27.35645 ], [ 81.00956, 27.3552 ], [ 81.00865, 27.35543 ], [ 81.00784, 27.3534 ], [ 81.00372, 27.34874 ], [ 81.00221, 27.34841 ], [ 81.00285, 27.34745 ], [ 81.00062, 27.34487 ], [ 80.99715, 27.34563 ], [ 80.99664, 27.34202 ], [ 80.99375, 27.33695 ], [ 80.99714, 27.33643 ], [ 80.99756, 27.33546 ], [ 80.9972, 27.32968 ], [ 80.99604, 27.32704 ], [ 80.99511, 27.32736 ], [ 80.99568, 27.32582 ], [ 80.99511, 27.32421 ], [ 80.99827, 27.3228 ], [ 81.00695, 27.32126 ], [ 81.00909, 27.31854 ], [ 81.0106, 27.31486 ], [ 81.01233, 27.31442 ], [ 81.01195, 27.31378 ], [ 81.01262, 27.3134 ], [ 81.00839, 27.30714 ], [ 81.00914, 27.30667 ], [ 81.0091, 27.30544 ], [ 81.01681, 27.30355 ], [ 81.01726, 27.30158 ], [ 81.01586, 27.29813 ], [ 81.01936, 27.29583 ], [ 81.02744, 27.29269 ], [ 81.02481, 27.28948 ], [ 81.0207, 27.28655 ], [ 81.01888, 27.28348 ], [ 81.0179, 27.2837 ], [ 81.01725, 27.2817 ], [ 81.01866, 27.28031 ], [ 81.01631, 27.27694 ], [ 81.01329, 27.27896 ], [ 81.01208, 27.28143 ], [ 81.00816, 27.27818 ], [ 81.00347, 27.28021 ], [ 81.00147, 27.27987 ], [ 81.00108, 27.27893 ], [ 80.99762, 27.28231 ], [ 80.99382, 27.27997 ], [ 80.99208, 27.27721 ], [ 80.98927, 27.2773 ], [ 80.98889, 27.2761 ], [ 80.98636, 27.27442 ], [ 80.98734, 27.27324 ], [ 80.98929, 27.26277 ], [ 80.98793, 27.25877 ], [ 80.9848, 27.25761 ], [ 80.98403, 27.25589 ], [ 80.98743, 27.25277 ], [ 80.98727, 27.24932 ], [ 80.98155, 27.24492 ], [ 80.97658, 27.24467 ], [ 80.97389, 27.24531 ], [ 80.96971, 27.24016 ], [ 80.96813, 27.23948 ], [ 80.9674, 27.23689 ], [ 80.96677, 27.22345 ], [ 80.96493, 27.21982 ], [ 80.96587, 27.21738 ], [ 80.96394, 27.21662 ], [ 80.96126, 27.21868 ], [ 80.95638, 27.21928 ], [ 80.95401, 27.21436 ], [ 80.95041, 27.21219 ], [ 80.94719, 27.20248 ], [ 80.94566, 27.20121 ], [ 80.94556, 27.19974 ], [ 80.94155, 27.20031 ], [ 80.93906, 27.19787 ], [ 80.93721, 27.19437 ], [ 80.9325, 27.19736 ], [ 80.93207, 27.19904 ], [ 80.93088, 27.19999 ], [ 80.92705, 27.20098 ], [ 80.9266, 27.19873 ], [ 80.92803, 27.1973 ], [ 80.92826, 27.19434 ], [ 80.9266, 27.19054 ], [ 80.92446, 27.18863 ], [ 80.92393, 27.18703 ], [ 80.92518, 27.18498 ], [ 80.92491, 27.18257 ], [ 80.93035, 27.18145 ], [ 80.93173, 27.17837 ], [ 80.93146, 27.17527 ], [ 80.93403, 27.17141 ], [ 80.93342, 27.16469 ], [ 80.93025, 27.15852 ], [ 80.92749, 27.1571 ], [ 80.92259, 27.15823 ], [ 80.9151, 27.14835 ], [ 80.90739, 27.1515 ], [ 80.90364, 27.14594 ], [ 80.89931, 27.14152 ], [ 80.89785, 27.1361 ], [ 80.8942, 27.13219 ], [ 80.89477, 27.12709 ], [ 80.8924, 27.12762 ], [ 80.88924, 27.12615 ], [ 80.88677, 27.12827 ], [ 80.88079, 27.12898 ], [ 80.87932, 27.1286 ], [ 80.87863, 27.12682 ], [ 80.8769, 27.12571 ], [ 80.86828, 27.12336 ], [ 80.86697, 27.12378 ], [ 80.86677, 27.12576 ], [ 80.86462, 27.12599 ], [ 80.86242, 27.12466 ], [ 80.86018, 27.12114 ], [ 80.85891, 27.12116 ], [ 80.85813, 27.1203 ], [ 80.85496, 27.12084 ], [ 80.85308, 27.11685 ], [ 80.84759, 27.11198 ], [ 80.83908, 27.1083 ], [ 80.83608, 27.10814 ], [ 80.8355, 27.1073 ], [ 80.83742, 27.10714 ], [ 80.83673, 27.10583 ], [ 80.83812, 27.10443 ], [ 80.83511, 27.10335 ], [ 80.83178, 27.1006 ], [ 80.82794, 27.09944 ], [ 80.82656, 27.1007 ], [ 80.82608, 27.10529 ], [ 80.82446, 27.10886 ], [ 80.82364, 27.1133 ], [ 80.82169, 27.11574 ], [ 80.81865, 27.11553 ], [ 80.81629, 27.11435 ], [ 80.81003, 27.10763 ], [ 80.80787, 27.10781 ], [ 80.80641, 27.10929 ], [ 80.80665, 27.11141 ], [ 80.80876, 27.11522 ], [ 80.81036, 27.12217 ], [ 80.80934, 27.12385 ], [ 80.80489, 27.12619 ], [ 80.8042, 27.13091 ], [ 80.80656, 27.13353 ], [ 80.81736, 27.1353 ], [ 80.82158, 27.13873 ], [ 80.82164, 27.14062 ], [ 80.81716, 27.14613 ], [ 80.81638, 27.14955 ], [ 80.81721, 27.15357 ], [ 80.82104, 27.15648 ], [ 80.82173, 27.15873 ], [ 80.8213, 27.15957 ], [ 80.81373, 27.16072 ], [ 80.8122, 27.16926 ], [ 80.80974, 27.17281 ], [ 80.80735, 27.17321 ], [ 80.80568, 27.16997 ], [ 80.80468, 27.17016 ], [ 80.80384, 27.17503 ], [ 80.80561, 27.17581 ], [ 80.80166, 27.18592 ], [ 80.79795, 27.19873 ], [ 80.79575, 27.2008 ], [ 80.79089, 27.19998 ], [ 80.78985, 27.20069 ], [ 80.78897, 27.20251 ], [ 80.78851, 27.20822 ], [ 80.78439, 27.20538 ], [ 80.78372, 27.2031 ], [ 80.78259, 27.20244 ], [ 80.77835, 27.20271 ], [ 80.77566, 27.20426 ], [ 80.7733, 27.20195 ], [ 80.7709, 27.20111 ], [ 80.76643, 27.2019 ], [ 80.76414, 27.20834 ], [ 80.75974, 27.20845 ], [ 80.75267, 27.21344 ], [ 80.75161, 27.21648 ], [ 80.75209, 27.22172 ], [ 80.74995, 27.22352 ], [ 80.74792, 27.22786 ], [ 80.74655, 27.22762 ], [ 80.74581, 27.22416 ], [ 80.74458, 27.22292 ], [ 80.74047, 27.22282 ], [ 80.7363, 27.22681 ], [ 80.73054, 27.23074 ], [ 80.72721, 27.23476 ], [ 80.72441, 27.23598 ], [ 80.71734, 27.23503 ], [ 80.70829, 27.23084 ], [ 80.70572, 27.23048 ], [ 80.70105, 27.22541 ], [ 80.69685, 27.21751 ], [ 80.69307, 27.21548 ], [ 80.69152, 27.21577 ], [ 80.68495, 27.22042 ], [ 80.67551, 27.22032 ], [ 80.6672, 27.2259 ], [ 80.65686, 27.22611 ], [ 80.65428, 27.22773 ], [ 80.65176, 27.23279 ], [ 80.65095, 27.24165 ], [ 80.64986, 27.24247 ], [ 80.64328, 27.24378 ], [ 80.64165, 27.24574 ], [ 80.64305, 27.2495 ], [ 80.64629, 27.2522 ], [ 80.65196, 27.25292 ], [ 80.65238, 27.2544 ], [ 80.6517, 27.25674 ], [ 80.64772, 27.25989 ], [ 80.64377, 27.26056 ], [ 80.63258, 27.25792 ], [ 80.63095, 27.25355 ], [ 80.62757, 27.25294 ], [ 80.62569, 27.255 ], [ 80.62421, 27.26022 ], [ 80.61961, 27.26903 ], [ 80.6268, 27.27386 ], [ 80.62703, 27.28003 ], [ 80.62521, 27.28167 ], [ 80.62802, 27.28332 ], [ 80.62996, 27.2823 ], [ 80.63324, 27.28221 ], [ 80.63317, 27.28544 ], [ 80.63447, 27.28754 ], [ 80.63356, 27.28908 ], [ 80.64207, 27.29581 ], [ 80.64363, 27.29485 ], [ 80.64369, 27.29572 ], [ 80.64508, 27.29601 ], [ 80.64619, 27.29479 ], [ 80.65053, 27.2998 ], [ 80.64981, 27.30128 ], [ 80.65053, 27.30374 ], [ 80.65438, 27.30582 ], [ 80.65554, 27.30458 ], [ 80.65911, 27.30701 ], [ 80.6573, 27.30789 ], [ 80.65931, 27.31135 ], [ 80.65902, 27.31262 ], [ 80.66025, 27.31338 ], [ 80.65967, 27.31407 ], [ 80.66423, 27.31461 ], [ 80.66611, 27.31861 ], [ 80.66815, 27.31768 ], [ 80.66799, 27.31636 ], [ 80.67639, 27.31268 ], [ 80.67243, 27.30837 ], [ 80.67326, 27.30725 ], [ 80.6732, 27.30519 ], [ 80.68161, 27.30039 ], [ 80.68479, 27.29737 ], [ 80.6857, 27.29891 ], [ 80.68713, 27.29885 ], [ 80.69013, 27.30092 ], [ 80.69068, 27.3029 ], [ 80.69204, 27.30272 ], [ 80.69175, 27.30208 ], [ 80.69334, 27.3009 ], [ 80.69639, 27.29982 ], [ 80.69973, 27.30144 ], [ 80.70075, 27.30104 ], [ 80.70072, 27.30014 ], [ 80.70279, 27.29974 ], [ 80.70166, 27.29866 ], [ 80.70655, 27.29492 ], [ 80.7085, 27.29727 ], [ 80.71218, 27.29668 ], [ 80.71387, 27.29796 ], [ 80.71429, 27.29682 ], [ 80.71647, 27.29761 ], [ 80.71708, 27.29671 ], [ 80.71838, 27.29842 ], [ 80.71968, 27.29801 ], [ 80.72019, 27.29873 ], [ 80.72081, 27.30015 ], [ 80.7188, 27.30045 ], [ 80.71893, 27.30109 ], [ 80.72201, 27.30709 ], [ 80.72438, 27.30711 ], [ 80.72503, 27.3081 ], [ 80.72693, 27.3081 ], [ 80.72706, 27.30885 ], [ 80.73144, 27.30778 ], [ 80.73433, 27.30977 ], [ 80.73714, 27.31656 ], [ 80.7385, 27.31803 ], [ 80.73779, 27.3187 ], [ 80.73906, 27.32082 ], [ 80.73883, 27.32169 ], [ 80.73942, 27.3216 ], [ 80.74435, 27.33045 ], [ 80.74981, 27.33332 ], [ 80.75061, 27.33715 ], [ 80.75397, 27.33756 ], [ 80.75495, 27.33914 ], [ 80.75832, 27.33926 ], [ 80.75788, 27.34412 ], [ 80.75904, 27.34908 ], [ 80.75685, 27.34991 ], [ 80.7551, 27.34958 ], [ 80.75504, 27.34485 ], [ 80.75387, 27.34327 ], [ 80.74831, 27.34978 ], [ 80.74614, 27.35726 ], [ 80.74304, 27.35662 ], [ 80.74385, 27.35233 ], [ 80.743, 27.35154 ], [ 80.74124, 27.35189 ], [ 80.73909, 27.35845 ], [ 80.73573, 27.35933 ], [ 80.7353, 27.36163 ], [ 80.73658, 27.3662 ], [ 80.73989, 27.3697 ], [ 80.7394, 27.37121 ], [ 80.73629, 27.37354 ], [ 80.73969, 27.37674 ], [ 80.73969, 27.37794 ], [ 80.73493, 27.37969 ], [ 80.73035, 27.37794 ], [ 80.72849, 27.37835 ], [ 80.72653, 27.38037 ], [ 80.7263, 27.38165 ], [ 80.72741, 27.38518 ], [ 80.72914, 27.38596 ], [ 80.73456, 27.38471 ], [ 80.73945, 27.3868 ], [ 80.74635, 27.38385 ], [ 80.74733, 27.38411 ], [ 80.74776, 27.38484 ], [ 80.74531, 27.38899 ], [ 80.74554, 27.38995 ], [ 80.74678, 27.3905 ], [ 80.7594, 27.3882 ], [ 80.75965, 27.39095 ], [ 80.75597, 27.39181 ], [ 80.75627, 27.39355 ], [ 80.75714, 27.39468 ], [ 80.76062, 27.39436 ], [ 80.76167, 27.39545 ], [ 80.75867, 27.39887 ], [ 80.75788, 27.40136 ], [ 80.75892, 27.40174 ], [ 80.76177, 27.39996 ], [ 80.76369, 27.39975 ], [ 80.76499, 27.40062 ], [ 80.76521, 27.40263 ], [ 80.76447, 27.40449 ], [ 80.76027, 27.40925 ], [ 80.76919, 27.41115 ], [ 80.77069, 27.41537 ], [ 80.77176, 27.41623 ], [ 80.77353, 27.41588 ], [ 80.77362, 27.41307 ], [ 80.77431, 27.41244 ], [ 80.77851, 27.41374 ], [ 80.78393, 27.41213 ], [ 80.78518, 27.41432 ], [ 80.78493, 27.41611 ], [ 80.78289, 27.41878 ], [ 80.78356, 27.42002 ], [ 80.78736, 27.41954 ], [ 80.78935, 27.42006 ], [ 80.79174, 27.41847 ], [ 80.79247, 27.41878 ], [ 80.79235, 27.42065 ], [ 80.79416, 27.42086 ], [ 80.79739, 27.4167 ], [ 80.79934, 27.41661 ], [ 80.80273, 27.41812 ], [ 80.80435, 27.4161 ], [ 80.80662, 27.41612 ], [ 80.80783, 27.41803 ], [ 80.80536, 27.41742 ], [ 80.80626, 27.41999 ], [ 80.8079, 27.41993 ], [ 80.80917, 27.42101 ], [ 80.81737, 27.419 ], [ 80.81841, 27.41952 ], [ 80.81889, 27.42244 ], [ 80.82018, 27.42267 ], [ 80.82167, 27.42533 ], [ 80.82455, 27.42398 ], [ 80.82491, 27.428 ], [ 80.82876, 27.43043 ], [ 80.82785, 27.43204 ], [ 80.82581, 27.43102 ], [ 80.82617, 27.43513 ], [ 80.82942, 27.43355 ], [ 80.8301, 27.43443 ], [ 80.82946, 27.43587 ], [ 80.82436, 27.43656 ], [ 80.82445, 27.43959 ], [ 80.82554, 27.43982 ], [ 80.8275, 27.438 ], [ 80.82987, 27.44192 ], [ 80.82827, 27.44424 ], [ 80.82555, 27.44571 ], [ 80.82648, 27.44669 ], [ 80.82867, 27.44682 ], [ 80.82762, 27.44953 ], [ 80.82779, 27.45192 ], [ 80.83004, 27.45193 ], [ 80.83092, 27.45016 ], [ 80.83187, 27.45086 ], [ 80.83221, 27.45333 ], [ 80.83196, 27.45482 ], [ 80.8303, 27.45582 ], [ 80.82907, 27.45309 ], [ 80.8266, 27.45718 ], [ 80.82802, 27.45943 ], [ 80.82781, 27.46265 ], [ 80.83133, 27.46348 ], [ 80.83057, 27.46533 ], [ 80.83117, 27.46574 ], [ 80.83213, 27.46543 ], [ 80.833, 27.4634 ], [ 80.83439, 27.46299 ], [ 80.83502, 27.46477 ], [ 80.8342, 27.46601 ], [ 80.83442, 27.46764 ], [ 80.83584, 27.46782 ], [ 80.83587, 27.46613 ], [ 80.83729, 27.46577 ], [ 80.83838, 27.46955 ], [ 80.83598, 27.47184 ], [ 80.83636, 27.47332 ], [ 80.84006, 27.47533 ], [ 80.84397, 27.47626 ] ] ] } },
{ "type": "Feature", "properties": { "OBJECTID": 2728, "state_lgd": "09", "state_name": "UTTAR PRADESH", "district_lgd": "154", "district_name": "SITAPUR", "district_name_source": "district_table", "subdistrict_lgd": "804", "subdistrict_name": "SITAPUR", "subdistrict_type": "Tehsil", "name_corrupted": false, "remarks": "", "label_lon": 80.706597947979375, "label_lat": 27.617640259670178 }, "geometry": { "type": "Polygon", "coordinates": [ [ [ 80.66961, 27.82654 ], [ 80.67097, 27.82643 ], [ 80.6706, 27.82492 ], [ 80.67161, 27.82226 ], [ 80.6762, 27.82223 ], [ 80.67825, 27.82051 ], [ 80.67997, 27.82157 ], [ 80.68202, 27.82143 ], [ 80.68222, 27.82309 ], [ 80.68527, 27.82463 ], [ 80.68583, 27.82459 ], [ 80.68573, 27.82285 ], [ 80.68774, 27.8242 ], [ 80.68954, 27.82312 ], [ 80.69399, 27.82367 ], [ 80.69634, 27.8202 ], [ 80.6985, 27.81875 ], [ 80.71001, 27.81364 ], [ 80.71663, 27.81229 ], [ 80.71963, 27.80919 ], [ 80.72552, 27.80604 ], [ 80.72714, 27.80267 ], [ 80.73372, 27.80157 ], [ 80.74395, 27.79573 ], [ 80.74482, 27.80043 ], [ 80.74199, 27.80589 ], [ 80.74671, 27.81149 ], [ 80.74811, 27.81229 ], [ 80.76099, 27.80595 ], [ 80.7637, 27.80946 ], [ 80.76316, 27.81062 ], [ 80.7652, 27.81552 ], [ 80.76631, 27.81569 ], [ 80.77509, 27.80952 ], [ 80.77169, 27.8059 ], [ 80.76995, 27.80138 ], [ 80.77085, 27.79997 ], [ 80.77503, 27.79869 ], [ 80.77576, 27.79737 ], [ 80.77811, 27.79628 ], [ 80.78587, 27.79587 ], [ 80.79223, 27.78658 ], [ 80.78893, 27.78253 ], [ 80.78829, 27.78051 ], [ 80.7892, 27.77875 ], [ 80.78902, 27.77633 ], [ 80.79006, 27.77524 ], [ 80.78924, 27.77046 ], [ 80.78547, 27.76514 ], [ 80.78151, 27.75676 ], [ 80.78738, 27.75494 ], [ 80.79214, 27.75137 ], [ 80.79662, 27.74967 ], [ 80.79713, 27.74688 ], [ 80.80549, 27.74236 ], [ 80.80922, 27.7387 ], [ 80.80846, 27.73543 ], [ 80.80553, 27.73572 ], [ 80.80143, 27.73452 ], [ 80.79972, 27.73498 ], [ 80.79127, 27.74097 ], [ 80.78543, 27.74347 ], [ 80.77837, 27.741 ], [ 80.77597, 27.73785 ], [ 80.77791, 27.73034 ], [ 80.7768, 27.72683 ], [ 80.77746, 27.72588 ], [ 80.77904, 27.72626 ], [ 80.78099, 27.72464 ], [ 80.78023, 27.72291 ], [ 80.78447, 27.71672 ], [ 80.78474, 27.71399 ], [ 80.78352, 27.71182 ], [ 80.78621, 27.70985 ], [ 80.78557, 27.70899 ], [ 80.78396, 27.70978 ], [ 80.77618, 27.71674 ], [ 80.775, 27.71644 ], [ 80.77283, 27.71755 ], [ 80.77051, 27.71479 ], [ 80.76798, 27.71326 ], [ 80.76797, 27.70904 ], [ 80.76372, 27.70332 ], [ 80.76453, 27.69956 ], [ 80.76408, 27.69816 ], [ 80.76306, 27.69735 ], [ 80.76035, 27.69762 ], [ 80.7586, 27.69553 ], [ 80.76084, 27.6931 ], [ 80.75969, 27.69036 ], [ 80.76359, 27.69117 ], [ 80.76941, 27.68816 ], [ 80.77127, 27.68794 ], [ 80.77205, 27.68587 ], [ 80.77523, 27.68309 ], [ 80.78006, 27.68229 ], [ 80.78052, 27.6798 ], [ 80.78307, 27.67702 ], [ 80.78271, 27.67455 ], [ 80.77939, 27.67432 ], [ 80.77793, 27.67343 ], [ 80.76946, 27.66409 ], [ 80.77565, 27.66036 ], [ 80.77829, 27.66252 ], [ 80.77847, 27.66388 ], [ 80.77993, 27.66534 ], [ 80.78122, 27.66313 ], [ 80.78409, 27.66199 ], [ 80.78335, 27.66131 ], [ 80.78475, 27.65992 ], [ 80.78475, 27.65568 ], [ 80.78701, 27.65521 ], [ 80.78763, 27.65281 ], [ 80.78966, 27.65199 ], [ 80.79441, 27.65267 ], [ 80.79618, 27.65461 ], [ 80.79873, 27.65387 ], [ 80.79895, 27.65518 ], [ 80.80114, 27.65638 ], [ 80.80473, 27.65292 ], [ 80.80676, 27.65403 ], [ 80.80779, 27.6522 ], [ 80.80963, 27.65277 ], [ 80.80992, 27.65156 ], [ 80.8118, 27.65229 ], [ 80.81145, 27.6495 ], [ 80.81008, 27.64949 ], [ 80.80988, 27.64723 ], [ 80.80874, 27.64536 ], [ 80.80726, 27.64523 ], [ 80.80532, 27.64327 ], [ 80.8038, 27.64299 ], [ 80.80345, 27.64366 ], [ 80.80174, 27.64252 ], [ 80.80209, 27.63616 ], [ 80.80372, 27.63457 ], [ 80.80345, 27.62973 ], [ 80.80504, 27.62784 ], [ 80.80292, 27.62483 ], [ 80.80083, 27.62448 ], [ 80.79915, 27.61999 ], [ 80.79697, 27.62016 ], [ 80.79828, 27.6168 ], [ 80.79687, 27.61383 ], [ 80.79811, 27.61316 ], [ 80.79743, 27.61157 ], [ 80.7991, 27.61109 ], [ 80.79809, 27.60969 ], [ 80.79907, 27.60905 ], [ 80.79788, 27.60844 ], [ 80.79868, 27.60682 ], [ 80.7981, 27.60588 ], [ 80.79949, 27.60532 ], [ 80.79859, 27.6034 ], [ 80.79992, 27.60305 ], [ 80.80002, 27.60083 ], [ 80.80363, 27.59828 ], [ 80.8046, 27.59629 ], [ 80.80426, 27.59227 ], [ 80.80268, 27.59208 ], [ 80.80238, 27.59091 ], [ 80.80067, 27.59078 ], [ 80.79934, 27.58909 ], [ 80.80006, 27.58767 ], [ 80.79986, 27.58551 ], [ 80.80158, 27.58512 ], [ 80.80122, 27.58037 ], [ 80.80307, 27.57945 ], [ 80.80127, 27.57772 ], [ 80.80126, 27.57665 ], [ 80.80275, 27.57523 ], [ 80.80393, 27.57071 ], [ 80.80706, 27.57168 ], [ 80.80773, 27.5691 ], [ 80.80997, 27.56892 ], [ 80.80983, 27.56615 ], [ 80.81266, 27.56596 ], [ 80.81396, 27.56487 ], [ 80.81551, 27.56503 ], [ 80.81767, 27.56685 ], [ 80.8208, 27.56549 ], [ 80.82457, 27.56614 ], [ 80.82554, 27.5656 ], [ 80.82542, 27.56441 ], [ 80.8263, 27.5634 ], [ 80.8285, 27.5634 ], [ 80.82819, 27.56176 ], [ 80.8301, 27.5619 ], [ 80.83069, 27.56095 ], [ 80.83459, 27.55935 ], [ 80.83401, 27.5556 ], [ 80.83274, 27.55511 ], [ 80.83044, 27.55183 ], [ 80.83248, 27.55033 ], [ 80.83393, 27.54713 ], [ 80.8363, 27.5474 ], [ 80.83796, 27.54478 ], [ 80.83956, 27.54383 ], [ 80.83969, 27.5421 ], [ 80.83855, 27.54063 ], [ 80.83925, 27.53807 ], [ 80.83843, 27.53609 ], [ 80.83859, 27.53377 ], [ 80.84087, 27.53144 ], [ 80.8409, 27.52986 ], [ 80.84512, 27.52923 ], [ 80.8454, 27.52766 ], [ 80.84812, 27.52658 ], [ 80.8489, 27.52732 ], [ 80.85168, 27.52648 ], [ 80.85455, 27.5239 ], [ 80.85334, 27.52252 ], [ 80.85321, 27.51993 ], [ 80.85214, 27.51939 ], [ 80.85254, 27.51731 ], [ 80.85153, 27.51544 ], [ 80.85063, 27.51696 ], [ 80.84934, 27.51587 ], [ 80.84596, 27.51545 ], [ 80.84518, 27.51346 ], [ 80.84429, 27.51378 ], [ 80.84321, 27.51277 ], [ 80.84392, 27.51022 ], [ 80.84109, 27.51015 ], [ 80.84353, 27.50815 ], [ 80.84209, 27.50705 ], [ 80.84208, 27.50584 ], [ 80.84031, 27.50652 ], [ 80.83921, 27.50588 ], [ 80.83953, 27.50215 ], [ 80.83861, 27.50219 ], [ 80.83852, 27.50129 ], [ 80.83433, 27.50082 ], [ 80.83249, 27.49941 ], [ 80.83118, 27.50163 ], [ 80.82921, 27.49953 ], [ 80.82984, 27.49839 ], [ 80.83195, 27.49776 ], [ 80.83095, 27.49476 ], [ 80.83177, 27.49217 ], [ 80.83318, 27.49147 ], [ 80.83336, 27.49307 ], [ 80.83515, 27.49284 ], [ 80.83559, 27.48997 ], [ 80.83695, 27.48893 ], [ 80.83561, 27.48679 ], [ 80.83724, 27.4857 ], [ 80.836, 27.48463 ], [ 80.83389, 27.4863 ], [ 80.83261, 27.48598 ], [ 80.83378, 27.48418 ], [ 80.83398, 27.47971 ], [ 80.83876, 27.48042 ], [ 80.8395, 27.47893 ], [ 80.83586, 27.47245 ], [ 80.83838, 27.46955 ], [ 80.83729, 27.46577 ], [ 80.83587, 27.46613 ], [ 80.83584, 27.46782 ], [ 80.83442, 27.46764 ], [ 80.8342, 27.46601 ], [ 80.83502, 27.46477 ], [ 80.83439, 27.46299 ], [ 80.833, 27.4634 ], [ 80.83213, 27.46543 ], [ 80.83117, 27.46574 ], [ 80.83057, 27.46533 ], [ 80.83133, 27.46348 ], [ 80.82781, 27.46265 ], [ 80.82802, 27.45943 ], [ 80.8266, 27.45718 ], [ 80.82907, 27.45309 ], [ 80.82975, 27.45355 ], [ 80.82962, 27.45543 ], [ 80.83145, 27.45548 ], [ 80.83218, 27.45424 ], [ 80.83187, 27.45086 ], [ 80.8309, 27.45016 ], [ 80.83004, 27.45193 ], [ 80.82779, 27.45192 ], [ 80.82762, 27.44953 ], [ 80.82867, 27.44682 ], [ 80.82648, 27.44669 ], [ 80.82553, 27.4455 ], [ 80.82827, 27.44424 ], [ 80.82987, 27.44192 ], [ 80.8275, 27.438 ], [ 80.82554, 27.43982 ], [ 80.82462, 27.43976 ], [ 80.82429, 27.4368 ], [ 80.82946, 27.43587 ], [ 80.83006, 27.43395 ], [ 80.82899, 27.43367 ], [ 80.82624, 27.43522 ], [ 80.82581, 27.43102 ], [ 80.82785, 27.43204 ], [ 80.82865, 27.43132 ], [ 80.8286, 27.43 ], [ 80.82491, 27.428 ], [ 80.82455, 27.42398 ], [ 80.82167, 27.42533 ], [ 80.82018, 27.42267 ], [ 80.81889, 27.42244 ], [ 80.81799, 27.41921 ], [ 80.81478, 27.41923 ], [ 80.80896, 27.42103 ], [ 80.8079, 27.41993 ], [ 80.80626, 27.41999 ], [ 80.80541, 27.41824 ], [ 80.80559, 27.41737 ], [ 80.80783, 27.41803 ], [ 80.80702, 27.41631 ], [ 80.80435, 27.4161 ], [ 80.8032, 27.41802 ], [ 80.80045, 27.4175 ], [ 80.79926, 27.42396 ], [ 80.79506, 27.42689 ], [ 80.79052, 27.42734 ], [ 80.78969, 27.42899 ], [ 80.78827, 27.42883 ], [ 80.78576, 27.43088 ], [ 80.78021, 27.42879 ], [ 80.77743, 27.42684 ], [ 80.77689, 27.42785 ], [ 80.77827, 27.43091 ], [ 80.77817, 27.43247 ], [ 80.77529, 27.43366 ], [ 80.77663, 27.43667 ], [ 80.77618, 27.43879 ], [ 80.77353, 27.43855 ], [ 80.77315, 27.43595 ], [ 80.77154, 27.43545 ], [ 80.77279, 27.43323 ], [ 80.76911, 27.43343 ], [ 80.7681, 27.43209 ], [ 80.76465, 27.43024 ], [ 80.76178, 27.43121 ], [ 80.76157, 27.43276 ], [ 80.76275, 27.4354 ], [ 80.7644, 27.43431 ], [ 80.76529, 27.4357 ], [ 80.76439, 27.43687 ], [ 80.76473, 27.43749 ], [ 80.76803, 27.43736 ], [ 80.76896, 27.43894 ], [ 80.76888, 27.44071 ], [ 80.76698, 27.44097 ], [ 80.76357, 27.43924 ], [ 80.7593, 27.44183 ], [ 80.76734, 27.44837 ], [ 80.76775, 27.44975 ], [ 80.76111, 27.45085 ], [ 80.75959, 27.4487 ], [ 80.75678, 27.44782 ], [ 80.75659, 27.44549 ], [ 80.75417, 27.44484 ], [ 80.75323, 27.44532 ], [ 80.75298, 27.44848 ], [ 80.75538, 27.45142 ], [ 80.75743, 27.45153 ], [ 80.75812, 27.45238 ], [ 80.75792, 27.45474 ], [ 80.74632, 27.45528 ], [ 80.74652, 27.45785 ], [ 80.74956, 27.46076 ], [ 80.74831, 27.46226 ], [ 80.7468, 27.46183 ], [ 80.74694, 27.46077 ], [ 80.74615, 27.46026 ], [ 80.74169, 27.45983 ], [ 80.74126, 27.46146 ], [ 80.74285, 27.46234 ], [ 80.74425, 27.46476 ], [ 80.74391, 27.46671 ], [ 80.74026, 27.47101 ], [ 80.73898, 27.47205 ], [ 80.73728, 27.4721 ], [ 80.73544, 27.47527 ], [ 80.73349, 27.47385 ], [ 80.72838, 27.47603 ], [ 80.72657, 27.47565 ], [ 80.72651, 27.47664 ], [ 80.7283, 27.47745 ], [ 80.72794, 27.48026 ], [ 80.72905, 27.48337 ], [ 80.72479, 27.48208 ], [ 80.72125, 27.47841 ], [ 80.71829, 27.47882 ], [ 80.71657, 27.48193 ], [ 80.71793, 27.48467 ], [ 80.71867, 27.48975 ], [ 80.71799, 27.48998 ], [ 80.71671, 27.48826 ], [ 80.71364, 27.49077 ], [ 80.71265, 27.49201 ], [ 80.71127, 27.49781 ], [ 80.71039, 27.49839 ], [ 80.70709, 27.49779 ], [ 80.70621, 27.49827 ], [ 80.70695, 27.50022 ], [ 80.71024, 27.50335 ], [ 80.70941, 27.50459 ], [ 80.70097, 27.50767 ], [ 80.69958, 27.50665 ], [ 80.70183, 27.50382 ], [ 80.70186, 27.5016 ], [ 80.70081, 27.50132 ], [ 80.69878, 27.50314 ], [ 80.69628, 27.5038 ], [ 80.69579, 27.50327 ], [ 80.69715, 27.50148 ], [ 80.69433, 27.49796 ], [ 80.69412, 27.49508 ], [ 80.69119, 27.49432 ], [ 80.69178, 27.49257 ], [ 80.69131, 27.49178 ], [ 80.68699, 27.49122 ], [ 80.68591, 27.4898 ], [ 80.68579, 27.4876 ], [ 80.68502, 27.48737 ], [ 80.6841, 27.48742 ], [ 80.68356, 27.49105 ], [ 80.67985, 27.494 ], [ 80.67973, 27.49073 ], [ 80.67749, 27.49139 ], [ 80.67468, 27.48705 ], [ 80.67278, 27.48725 ], [ 80.67241, 27.49087 ], [ 80.67392, 27.49526 ], [ 80.67216, 27.49831 ], [ 80.67003, 27.49884 ], [ 80.67015, 27.50303 ], [ 80.66689, 27.50363 ], [ 80.66512, 27.50559 ], [ 80.66235, 27.50373 ], [ 80.65952, 27.50439 ], [ 80.65714, 27.50365 ], [ 80.65632, 27.50428 ], [ 80.65386, 27.50332 ], [ 80.65108, 27.50596 ], [ 80.65082, 27.50947 ], [ 80.64939, 27.51181 ], [ 80.64589, 27.51326 ], [ 80.64571, 27.51807 ], [ 80.64259, 27.51917 ], [ 80.63898, 27.51691 ], [ 80.63243, 27.50838 ], [ 80.63083, 27.50821 ], [ 80.623, 27.51148 ], [ 80.61967, 27.5117 ], [ 80.61859, 27.51263 ], [ 80.61447, 27.51288 ], [ 80.61366, 27.51206 ], [ 80.61481, 27.50854 ], [ 80.60945, 27.50129 ], [ 80.59936, 27.50305 ], [ 80.59686, 27.50527 ], [ 80.59247, 27.50682 ], [ 80.59069, 27.50537 ], [ 80.58672, 27.50545 ], [ 80.58384, 27.50222 ], [ 80.58335, 27.49979 ], [ 80.58204, 27.49816 ], [ 80.57948, 27.49792 ], [ 80.5766, 27.4964 ], [ 80.57483, 27.49483 ], [ 80.57554, 27.49437 ], [ 80.5711, 27.4886 ], [ 80.56939, 27.49184 ], [ 80.55865, 27.4933 ], [ 80.55804, 27.50348 ], [ 80.55455, 27.51184 ], [ 80.55677, 27.51747 ], [ 80.55553, 27.52832 ], [ 80.55636, 27.53412 ], [ 80.55842, 27.53829 ], [ 80.56264, 27.54054 ], [ 80.56496, 27.54305 ], [ 80.56871, 27.54286 ], [ 80.56995, 27.54363 ], [ 80.57137, 27.54283 ], [ 80.57334, 27.54308 ], [ 80.57722, 27.53958 ], [ 80.5824, 27.54456 ], [ 80.58693, 27.54742 ], [ 80.58899, 27.55184 ], [ 80.58748, 27.55348 ], [ 80.58418, 27.55431 ], [ 80.58539, 27.55679 ], [ 80.58591, 27.56168 ], [ 80.58501, 27.56528 ], [ 80.58369, 27.56687 ], [ 80.58446, 27.5696 ], [ 80.58569, 27.56998 ], [ 80.58532, 27.57094 ], [ 80.58812, 27.57585 ], [ 80.58735, 27.57711 ], [ 80.58778, 27.57777 ], [ 80.58603, 27.57973 ], [ 80.58544, 27.58327 ], [ 80.58186, 27.58557 ], [ 80.5814, 27.587 ], [ 80.57858, 27.58671 ], [ 80.57464, 27.59061 ], [ 80.57705, 27.59233 ], [ 80.57927, 27.59614 ], [ 80.57861, 27.59803 ], [ 80.57867, 27.60423 ], [ 80.57409, 27.60734 ], [ 80.56729, 27.60655 ], [ 80.56448, 27.60907 ], [ 80.56331, 27.61401 ], [ 80.56448, 27.61677 ], [ 80.56392, 27.61864 ], [ 80.56466, 27.62009 ], [ 80.56311, 27.6227 ], [ 80.56293, 27.62669 ], [ 80.56089, 27.62968 ], [ 80.56117, 27.63122 ], [ 80.55974, 27.63637 ], [ 80.54769, 27.64041 ], [ 80.547, 27.64225 ], [ 80.54841, 27.64473 ], [ 80.54595, 27.64757 ], [ 80.54646, 27.64947 ], [ 80.54818, 27.65252 ], [ 80.55207, 27.65163 ], [ 80.55688, 27.65308 ], [ 80.56342, 27.65285 ], [ 80.56679, 27.65122 ], [ 80.55936, 27.64908 ], [ 80.56077, 27.64825 ], [ 80.56096, 27.64702 ], [ 80.56609, 27.64397 ], [ 80.5673, 27.64224 ], [ 80.57375, 27.64239 ], [ 80.57446, 27.64306 ], [ 80.57431, 27.64464 ], [ 80.57341, 27.64498 ], [ 80.57416, 27.6501 ], [ 80.58151, 27.65572 ], [ 80.58163, 27.65808 ], [ 80.57707, 27.66115 ], [ 80.57435, 27.65715 ], [ 80.57394, 27.66323 ], [ 80.58286, 27.66479 ], [ 80.58406, 27.66252 ], [ 80.58988, 27.65851 ], [ 80.59128, 27.65817 ], [ 80.59242, 27.66028 ], [ 80.59435, 27.66084 ], [ 80.60022, 27.65742 ], [ 80.60283, 27.65834 ], [ 80.60224, 27.66089 ], [ 80.60297, 27.67484 ], [ 80.60758, 27.67392 ], [ 80.61038, 27.67748 ], [ 80.61221, 27.67807 ], [ 80.61583, 27.68143 ], [ 80.61669, 27.68314 ], [ 80.6162, 27.68605 ], [ 80.61439, 27.68739 ], [ 80.61364, 27.69369 ], [ 80.61411, 27.69662 ], [ 80.61668, 27.70054 ], [ 80.61912, 27.70252 ], [ 80.61987, 27.70456 ], [ 80.61889, 27.70555 ], [ 80.62624, 27.71233 ], [ 80.6265, 27.71341 ], [ 80.62447, 27.7167 ], [ 80.62072, 27.71919 ], [ 80.62083, 27.72 ], [ 80.61925, 27.72118 ], [ 80.62128, 27.7256 ], [ 80.62016, 27.7265 ], [ 80.62408, 27.7308 ], [ 80.6266, 27.73558 ], [ 80.62607, 27.73767 ], [ 80.6247, 27.7386 ], [ 80.62562, 27.74031 ], [ 80.62321, 27.74295 ], [ 80.6241, 27.7462 ], [ 80.62577, 27.74825 ], [ 80.6278, 27.74928 ], [ 80.62882, 27.74874 ], [ 80.63019, 27.74995 ], [ 80.63283, 27.7494 ], [ 80.63577, 27.75016 ], [ 80.64376, 27.74499 ], [ 80.64693, 27.744 ], [ 80.64775, 27.74708 ], [ 80.64981, 27.74617 ], [ 80.65484, 27.74592 ], [ 80.65777, 27.74744 ], [ 80.65861, 27.74922 ], [ 80.66127, 27.74983 ], [ 80.65941, 27.75016 ], [ 80.65922, 27.75207 ], [ 80.65789, 27.75294 ], [ 80.65813, 27.75779 ], [ 80.65739, 27.76072 ], [ 80.65596, 27.7611 ], [ 80.65547, 27.76258 ], [ 80.65593, 27.76767 ], [ 80.65309, 27.76788 ], [ 80.65369, 27.77114 ], [ 80.65522, 27.77239 ], [ 80.65587, 27.77513 ], [ 80.65556, 27.77982 ], [ 80.65367, 27.7826 ], [ 80.65638, 27.78538 ], [ 80.65558, 27.78929 ], [ 80.65639, 27.79048 ], [ 80.65443, 27.79143 ], [ 80.65543, 27.79403 ], [ 80.65785, 27.79635 ], [ 80.65748, 27.79708 ], [ 80.65384, 27.79716 ], [ 80.65577, 27.79931 ], [ 80.65521, 27.80303 ], [ 80.65687, 27.80321 ], [ 80.65926, 27.80527 ], [ 80.6576, 27.80574 ], [ 80.65802, 27.80728 ], [ 80.65621, 27.80838 ], [ 80.65762, 27.80829 ], [ 80.65792, 27.80956 ], [ 80.66102, 27.81036 ], [ 80.66195, 27.81181 ], [ 80.6617, 27.81269 ], [ 80.65957, 27.81319 ], [ 80.6597, 27.81585 ], [ 80.65788, 27.818 ], [ 80.66049, 27.81799 ], [ 80.66416, 27.82517 ], [ 80.66318, 27.82624 ], [ 80.66538, 27.82651 ], [ 80.66705, 27.82853 ], [ 80.6664, 27.83028 ], [ 80.6689, 27.83056 ], [ 80.67057, 27.8296 ], [ 80.66961, 27.82654 ] ] ] } }
]
}
