{
"type": "FeatureCollection",
"name": "166_JHANSI",
"crs": { "type": "name", "properties": { "name": "urn:ogc:def:crs:OGC:1.3:CRS84" } },
"xy_coordinate_resolution": 1e-05,
"features": [
{ "type": "Feature", "properties": { "OBJECTID": 2505, "state_lgd": "09", "state_name": "UTTAR PRADESH", "district_lgd": "166", "district_name": "JHANSI", "district_name_source": "district_table", "subdistrict_lgd": "857", "subdistrict_name": "GARAUTHA", "subdistrict_type": "Tehsil", "name_corrupted": false, "remarks": "", "label_lon": 79.248927339602716, "label_lat": 25.62874985974965 }, "geometry": { "type": "Polygon", "coordinates": [ [ [ 79.11519, 25.82422 ], [ 79.12019, 25.82195 ], [ 79.12698, 25.81724 ], [ 79.1352, 25.80889 ], [ 79.14929, 25.80937 ], [ 79.16378, 25.81214 ], [ 79.16516, 25.81113 ], [ 79.16712, 25.80717 ], [ 79.17028, 25.80811 ], [ 79.17434, 25.80546 ], [ 79.1783, 25.80491 ], [ 79.18444, 25.80275 ], [ 79.18949, 25.8034 ], [ 79.19213, 25.80149 ], [ 79.19317, 25.79963 ], [ 79.19851, 25.79903 ], [ 79.20187, 25.79435 ], [ 79.20815, 25.78942 ], [ 79.21087, 25.78876 ], [ 79.2149, 25.78913 ], [ 79.23207, 25.79701 ], [ 79.23535, 25.80001 ], [ 79.23908, 25.80531 ], [ 79.24225, 25.80648 ], [ 79.24499, 25.80585 ], [ 79.24803, 25.8038 ], [ 79.2542, 25.79646 ], [ 79.25679, 25.7919 ], [ 79.25903, 25.79025 ], [ 79.26111, 25.78935 ], [ 79.26526, 25.78979 ], [ 79.27225, 25.7972 ], [ 79.27487, 25.80514 ], [ 79.27876, 25.81254 ], [ 79.28949, 25.81952 ], [ 79.29246, 25.82036 ], [ 79.29176, 25.81494 ], [ 79.29429, 25.81396 ], [ 79.29805, 25.81064 ], [ 79.29886, 25.80751 ], [ 79.29854, 25.80326 ], [ 79.30244, 25.8008 ], [ 79.29828, 25.79892 ], [ 79.29176, 25.79764 ], [ 79.29048, 25.79636 ], [ 79.28928, 25.79327 ], [ 79.29105, 25.79048 ], [ 79.29133, 25.78505 ], [ 79.2943, 25.78133 ], [ 79.30402, 25.77879 ], [ 79.31213, 25.77567 ], [ 79.3168, 25.77052 ], [ 79.32109, 25.76742 ], [ 79.32406, 25.7664 ], [ 79.32665, 25.76664 ], [ 79.33293, 25.76963 ], [ 79.33495, 25.77224 ], [ 79.33616, 25.77558 ], [ 79.34606, 25.78466 ], [ 79.35012, 25.78707 ], [ 79.35335, 25.79069 ], [ 79.35731, 25.79037 ], [ 79.36842, 25.78701 ], [ 79.3729, 25.78383 ], [ 79.37571, 25.78385 ], [ 79.37878, 25.78463 ], [ 79.38942, 25.78999 ], [ 79.39627, 25.79555 ], [ 79.39793, 25.79429 ], [ 79.40223, 25.78807 ], [ 79.40194, 25.78611 ], [ 79.39466, 25.77607 ], [ 79.38945, 25.77249 ], [ 79.37866, 25.77512 ], [ 79.37035, 25.77544 ], [ 79.35957, 25.77208 ], [ 79.35867, 25.77138 ], [ 79.35824, 25.76928 ], [ 79.35856, 25.76719 ], [ 79.36006, 25.76572 ], [ 79.37141, 25.76502 ], [ 79.37523, 25.76264 ], [ 79.37779, 25.75661 ], [ 79.37667, 25.75036 ], [ 79.3751, 25.74719 ], [ 79.37648, 25.74444 ], [ 79.37773, 25.74383 ], [ 79.38385, 25.7444 ], [ 79.39151, 25.74365 ], [ 79.3964, 25.74102 ], [ 79.39966, 25.7382 ], [ 79.39997, 25.73523 ], [ 79.39814, 25.73149 ], [ 79.39511, 25.73022 ], [ 79.39129, 25.72642 ], [ 79.38402, 25.72274 ], [ 79.37902, 25.72155 ], [ 79.37061, 25.71509 ], [ 79.36857, 25.71085 ], [ 79.36928, 25.70863 ], [ 79.36884, 25.70096 ], [ 79.37251, 25.69286 ], [ 79.37379, 25.69178 ], [ 79.3784, 25.69123 ], [ 79.38364, 25.68901 ], [ 79.38527, 25.68762 ], [ 79.38743, 25.6833 ], [ 79.38588, 25.67815 ], [ 79.37958, 25.67219 ], [ 79.3773, 25.66723 ], [ 79.37894, 25.66282 ], [ 79.38364, 25.6602 ], [ 79.3894, 25.6615 ], [ 79.39597, 25.66055 ], [ 79.40245, 25.65548 ], [ 79.40345, 25.65324 ], [ 79.40344, 25.65038 ], [ 79.40153, 25.64739 ], [ 79.39813, 25.6455 ], [ 79.3841, 25.64594 ], [ 79.37856, 25.64752 ], [ 79.37199, 25.65193 ], [ 79.36669, 25.65301 ], [ 79.36009, 25.64905 ], [ 79.35527, 25.6439 ], [ 79.35739, 25.63877 ], [ 79.35799, 25.63462 ], [ 79.3618, 25.62779 ], [ 79.36368, 25.62635 ], [ 79.37239, 25.62448 ], [ 79.37513, 25.6214 ], [ 79.37493, 25.61519 ], [ 79.36863, 25.60865 ], [ 79.36892, 25.60275 ], [ 79.37534, 25.59734 ], [ 79.37582, 25.59408 ], [ 79.38094, 25.58615 ], [ 79.38219, 25.58211 ], [ 79.38599, 25.57626 ], [ 79.38885, 25.57387 ], [ 79.39507, 25.57386 ], [ 79.40691, 25.58015 ], [ 79.41191, 25.58136 ], [ 79.41666, 25.57972 ], [ 79.41937, 25.57634 ], [ 79.42001, 25.57448 ], [ 79.4172, 25.57213 ], [ 79.40641, 25.57096 ], [ 79.40115, 25.56854 ], [ 79.39887, 25.56628 ], [ 79.39731, 25.5633 ], [ 79.3991, 25.55934 ], [ 79.40127, 25.55817 ], [ 79.40941, 25.54719 ], [ 79.41089, 25.54259 ], [ 79.41099, 25.53772 ], [ 79.40801, 25.53139 ], [ 79.39943, 25.52863 ], [ 79.38787, 25.52209 ], [ 79.38515, 25.51282 ], [ 79.38535, 25.50619 ], [ 79.37678, 25.49845 ], [ 79.37137, 25.49458 ], [ 79.36795, 25.49345 ], [ 79.36763, 25.49073 ], [ 79.36496, 25.4886 ], [ 79.36458, 25.48651 ], [ 79.36211, 25.48521 ], [ 79.36117, 25.47959 ], [ 79.3641, 25.47673 ], [ 79.36871, 25.46746 ], [ 79.36844, 25.46427 ], [ 79.3668, 25.46008 ], [ 79.36306, 25.45698 ], [ 79.35516, 25.45493 ], [ 79.3506, 25.44957 ], [ 79.34804, 25.44805 ], [ 79.34589, 25.44412 ], [ 79.34204, 25.44188 ], [ 79.33283, 25.43359 ], [ 79.33263, 25.42786 ], [ 79.33537, 25.42519 ], [ 79.33982, 25.41671 ], [ 79.33935, 25.41254 ], [ 79.34034, 25.40914 ], [ 79.3397, 25.40646 ], [ 79.34019, 25.40194 ], [ 79.3352, 25.40132 ], [ 79.3356, 25.40049 ], [ 79.33292, 25.39998 ], [ 79.32305, 25.40113 ], [ 79.31901, 25.39639 ], [ 79.31923, 25.39359 ], [ 79.3184, 25.39236 ], [ 79.31631, 25.39049 ], [ 79.31371, 25.38977 ], [ 79.31256, 25.38668 ], [ 79.31038, 25.38428 ], [ 79.30328, 25.38244 ], [ 79.30299, 25.38002 ], [ 79.29911, 25.37764 ], [ 79.29814, 25.37548 ], [ 79.2873, 25.37679 ], [ 79.26793, 25.3831 ], [ 79.26352, 25.38331 ], [ 79.24329, 25.39357 ], [ 79.23719, 25.39466 ], [ 79.23696, 25.3904 ], [ 79.23543, 25.39076 ], [ 79.23235, 25.3873 ], [ 79.22629, 25.38825 ], [ 79.22153, 25.39044 ], [ 79.21921, 25.39059 ], [ 79.21564, 25.38884 ], [ 79.2137, 25.38871 ], [ 79.20783, 25.39202 ], [ 79.2052, 25.39297 ], [ 79.20462, 25.39235 ], [ 79.20255, 25.39364 ], [ 79.20189, 25.39261 ], [ 79.20239, 25.3916 ], [ 79.19775, 25.38737 ], [ 79.19638, 25.38458 ], [ 79.19338, 25.38168 ], [ 79.19123, 25.38079 ], [ 79.18724, 25.38273 ], [ 79.18881, 25.38853 ], [ 79.19242, 25.39308 ], [ 79.19497, 25.39366 ], [ 79.19518, 25.39626 ], [ 79.19409, 25.39719 ], [ 79.19422, 25.40623 ], [ 79.19791, 25.4093 ], [ 79.19346, 25.41032 ], [ 79.19126, 25.41184 ], [ 79.19183, 25.41313 ], [ 79.19938, 25.42189 ], [ 79.19915, 25.42374 ], [ 79.19789, 25.42412 ], [ 79.19924, 25.42574 ], [ 79.19937, 25.42782 ], [ 79.20389, 25.42677 ], [ 79.20486, 25.42713 ], [ 79.20399, 25.42968 ], [ 79.20445, 25.43023 ], [ 79.20851, 25.42929 ], [ 79.20806, 25.43281 ], [ 79.20884, 25.43564 ], [ 79.21134, 25.43783 ], [ 79.212, 25.44116 ], [ 79.21603, 25.44378 ], [ 79.21614, 25.44846 ], [ 79.21855, 25.45105 ], [ 79.2182, 25.45386 ], [ 79.22137, 25.45656 ], [ 79.22322, 25.46663 ], [ 79.22603, 25.46842 ], [ 79.22702, 25.47006 ], [ 79.22711, 25.47145 ], [ 79.22424, 25.47469 ], [ 79.22499, 25.47745 ], [ 79.23147, 25.48163 ], [ 79.23119, 25.48309 ], [ 79.22905, 25.48423 ], [ 79.22728, 25.48664 ], [ 79.22262, 25.48577 ], [ 79.22171, 25.48679 ], [ 79.2223, 25.49429 ], [ 79.22667, 25.50035 ], [ 79.22207, 25.51109 ], [ 79.22192, 25.51867 ], [ 79.21838, 25.51704 ], [ 79.21361, 25.51672 ], [ 79.21068, 25.52148 ], [ 79.20186, 25.52552 ], [ 79.18645, 25.53602 ], [ 79.186, 25.53913 ], [ 79.17976, 25.54338 ], [ 79.17522, 25.54861 ], [ 79.18471, 25.55743 ], [ 79.1848, 25.55918 ], [ 79.18209, 25.56481 ], [ 79.18074, 25.57351 ], [ 79.16504, 25.57985 ], [ 79.16968, 25.59096 ], [ 79.14945, 25.58395 ], [ 79.14317, 25.58531 ], [ 79.12712, 25.59916 ], [ 79.12107, 25.60278 ], [ 79.12327, 25.60847 ], [ 79.12644, 25.61235 ], [ 79.12736, 25.62076 ], [ 79.12954, 25.62117 ], [ 79.13116, 25.6195 ], [ 79.1318, 25.62059 ], [ 79.13441, 25.61938 ], [ 79.13484, 25.62014 ], [ 79.1371, 25.62008 ], [ 79.13768, 25.62123 ], [ 79.13639, 25.62149 ], [ 79.13739, 25.62761 ], [ 79.14302, 25.62766 ], [ 79.1417, 25.63372 ], [ 79.14188, 25.64198 ], [ 79.13417, 25.64517 ], [ 79.13887, 25.6526 ], [ 79.13871, 25.65445 ], [ 79.12604, 25.65784 ], [ 79.11971, 25.66045 ], [ 79.12934, 25.668 ], [ 79.1295, 25.67191 ], [ 79.12867, 25.67561 ], [ 79.12374, 25.68892 ], [ 79.11904, 25.68716 ], [ 79.11017, 25.68678 ], [ 79.0921, 25.68023 ], [ 79.09023, 25.68027 ], [ 79.08765, 25.68144 ], [ 79.07436, 25.69297 ], [ 79.07071, 25.69398 ], [ 79.06366, 25.68433 ], [ 79.05903, 25.68575 ], [ 79.053, 25.68561 ], [ 79.05419, 25.68706 ], [ 79.05426, 25.69186 ], [ 79.04064, 25.70128 ], [ 79.03185, 25.70417 ], [ 79.01889, 25.70517 ], [ 79.02183, 25.70773 ], [ 79.02595, 25.70874 ], [ 79.03327, 25.70744 ], [ 79.03817, 25.70756 ], [ 79.03825, 25.70913 ], [ 79.04211, 25.71266 ], [ 79.04328, 25.71477 ], [ 79.04209, 25.71984 ], [ 79.04962, 25.72399 ], [ 79.04991, 25.72788 ], [ 79.05193, 25.73284 ], [ 79.05783, 25.73985 ], [ 79.05917, 25.74436 ], [ 79.06127, 25.74488 ], [ 79.06254, 25.74663 ], [ 79.06366, 25.75022 ], [ 79.06298, 25.75272 ], [ 79.05774, 25.75777 ], [ 79.05232, 25.76163 ], [ 79.0521, 25.76273 ], [ 79.054, 25.76305 ], [ 79.05624, 25.76527 ], [ 79.05686, 25.76795 ], [ 79.06128, 25.77207 ], [ 79.06414, 25.77867 ], [ 79.06682, 25.78235 ], [ 79.08746, 25.8016 ], [ 79.08896, 25.80567 ], [ 79.08934, 25.81343 ], [ 79.08809, 25.81309 ], [ 79.09241, 25.81886 ], [ 79.09157, 25.81955 ], [ 79.09259, 25.82109 ], [ 79.09742, 25.82458 ], [ 79.10154, 25.82546 ], [ 79.10777, 25.82558 ], [ 79.11519, 25.82422 ] ] ] } },
{ "type": "Feature", "properties": { "OBJECTID": 2549, "state_lgd": "09", "state_name": "UTTAR PRADESH", "district_lgd": "166", "district_name": "JHANSI", "district_name_source": "district_table", "subdistrict_lgd": "860", "subdistrict_name": "JHANSI", "subdistrict_type": "Tehsil", "name_corrupted": false, "remarks": "", "label_lon": 78.526625150289433, "label_lat": 25.396646812895728 }, "geometry": { "type": "Polygon", "coordinates": [ [ [ 78.69119, 25.5888 ], [ 78.69599, 25.58777 ], [ 78.69795, 25.58462 ], [ 78.69854, 25.58325 ], [ 78.69827, 25.57804 ], [ 78.70223, 25.57797 ], [ 78.70566, 25.57582 ], [ 78.70744, 25.57683 ], [ 78.71265, 25.57701 ], [ 78.71205, 25.57392 ], [ 78.71264, 25.57189 ], [ 78.71448, 25.56973 ], [ 78.71568, 25.57009 ], [ 78.71851, 25.56769 ], [ 78.72003, 25.5647 ], [ 78.72472, 25.56277 ], [ 78.7245, 25.56134 ], [ 78.72345, 25.56134 ], [ 78.72404, 25.55949 ], [ 78.72648, 25.55925 ], [ 78.72628, 25.55805 ], [ 78.72918, 25.55691 ], [ 78.7305, 25.55757 ], [ 78.73123, 25.55709 ], [ 78.7323, 25.55552 ], [ 78.7317, 25.55271 ], [ 78.73377, 25.54965 ], [ 78.73308, 25.54836 ], [ 78.73512, 25.54548 ], [ 78.73414, 25.54197 ], [ 78.73354, 25.54215 ], [ 78.73195, 25.54023 ], [ 78.73235, 25.53826 ], [ 78.7336, 25.53808 ], [ 78.73347, 25.53676 ], [ 78.73466, 25.53658 ], [ 78.73512, 25.53795 ], [ 78.73668, 25.53775 ], [ 78.73848, 25.53873 ], [ 78.74, 25.53753 ], [ 78.74145, 25.53879 ], [ 78.74587, 25.53873 ], [ 78.74758, 25.53752 ], [ 78.7478, 25.53412 ], [ 78.7575, 25.53262 ], [ 78.75595, 25.52818 ], [ 78.76627, 25.52147 ], [ 78.76833, 25.52364 ], [ 78.77951, 25.52422 ], [ 78.78272, 25.51485 ], [ 78.78095, 25.51196 ], [ 78.77795, 25.50963 ], [ 78.79017, 25.50058 ], [ 78.77967, 25.50074 ], [ 78.77272, 25.50715 ], [ 78.76021, 25.50417 ], [ 78.75682, 25.50485 ], [ 78.75274, 25.50423 ], [ 78.74097, 25.49769 ], [ 78.73635, 25.49382 ], [ 78.73346, 25.48943 ], [ 78.73274, 25.48484 ], [ 78.73157, 25.46173 ], [ 78.73183, 25.45806 ], [ 78.73507, 25.45733 ], [ 78.73706, 25.45499 ], [ 78.73745, 25.4498 ], [ 78.74411, 25.44971 ], [ 78.75132, 25.44777 ], [ 78.75383, 25.44317 ], [ 78.75775, 25.44025 ], [ 78.75611, 25.43824 ], [ 78.75893, 25.43036 ], [ 78.76127, 25.42877 ], [ 78.76236, 25.4269 ], [ 78.76689, 25.42513 ], [ 78.76644, 25.42423 ], [ 78.7707, 25.42285 ], [ 78.7734, 25.42697 ], [ 78.77582, 25.42865 ], [ 78.77848, 25.42917 ], [ 78.78183, 25.4327 ], [ 78.78212, 25.4342 ], [ 78.78539, 25.43587 ], [ 78.78776, 25.43652 ], [ 78.7882, 25.43573 ], [ 78.79418, 25.43728 ], [ 78.79716, 25.43638 ], [ 78.80297, 25.43716 ], [ 78.80514, 25.43607 ], [ 78.80524, 25.43515 ], [ 78.80698, 25.43536 ], [ 78.80951, 25.43422 ], [ 78.81032, 25.43317 ], [ 78.8098, 25.4316 ], [ 78.81046, 25.43035 ], [ 78.82137, 25.42258 ], [ 78.82113, 25.42124 ], [ 78.81974, 25.4199 ], [ 78.81027, 25.4212 ], [ 78.80483, 25.42291 ], [ 78.80191, 25.42235 ], [ 78.7991, 25.42289 ], [ 78.79812, 25.42084 ], [ 78.79977, 25.41927 ], [ 78.79758, 25.41861 ], [ 78.79581, 25.41645 ], [ 78.79317, 25.41704 ], [ 78.78792, 25.41986 ], [ 78.78251, 25.41571 ], [ 78.77917, 25.41925 ], [ 78.77495, 25.41987 ], [ 78.77139, 25.41851 ], [ 78.77158, 25.4177 ], [ 78.76738, 25.41496 ], [ 78.75811, 25.4154 ], [ 78.75118, 25.41252 ], [ 78.74804, 25.4079 ], [ 78.74686, 25.40306 ], [ 78.74556, 25.40281 ], [ 78.74681, 25.39346 ], [ 78.74769, 25.39311 ], [ 78.74713, 25.39169 ], [ 78.74814, 25.39099 ], [ 78.75, 25.39385 ], [ 78.75161, 25.39409 ], [ 78.75254, 25.39518 ], [ 78.7536, 25.39404 ], [ 78.75555, 25.39521 ], [ 78.75676, 25.39506 ], [ 78.76278, 25.39941 ], [ 78.76479, 25.40188 ], [ 78.76781, 25.40031 ], [ 78.76517, 25.39091 ], [ 78.76134, 25.38594 ], [ 78.75875, 25.38646 ], [ 78.75692, 25.38544 ], [ 78.75789, 25.38328 ], [ 78.75986, 25.38166 ], [ 78.7688, 25.37908 ], [ 78.77366, 25.37617 ], [ 78.7736, 25.37525 ], [ 78.7711, 25.37453 ], [ 78.76592, 25.36915 ], [ 78.76642, 25.36768 ], [ 78.77002, 25.3642 ], [ 78.77139, 25.35935 ], [ 78.77444, 25.35614 ], [ 78.77459, 25.3531 ], [ 78.76438, 25.35204 ], [ 78.75997, 25.35044 ], [ 78.75478, 25.35147 ], [ 78.75438, 25.34751 ], [ 78.75278, 25.34591 ], [ 78.75, 25.34638 ], [ 78.74105, 25.34498 ], [ 78.74049, 25.34622 ], [ 78.738, 25.34794 ], [ 78.73096, 25.34871 ], [ 78.72942, 25.34781 ], [ 78.72752, 25.3443 ], [ 78.72412, 25.34397 ], [ 78.70879, 25.35199 ], [ 78.70908, 25.35607 ], [ 78.70771, 25.36088 ], [ 78.70791, 25.36309 ], [ 78.70889, 25.36304 ], [ 78.71067, 25.36669 ], [ 78.7136, 25.36962 ], [ 78.71405, 25.37215 ], [ 78.70761, 25.37193 ], [ 78.70301, 25.37377 ], [ 78.70016, 25.37918 ], [ 78.70048, 25.38081 ], [ 78.6996, 25.38189 ], [ 78.69783, 25.38067 ], [ 78.69467, 25.37386 ], [ 78.68184, 25.37775 ], [ 78.67536, 25.38115 ], [ 78.66384, 25.38256 ], [ 78.65895, 25.38529 ], [ 78.66102, 25.38839 ], [ 78.6663, 25.39273 ], [ 78.66234, 25.39633 ], [ 78.66245, 25.39888 ], [ 78.66362, 25.40087 ], [ 78.66309, 25.40223 ], [ 78.65916, 25.40579 ], [ 78.6589, 25.4085 ], [ 78.66601, 25.41581 ], [ 78.66751, 25.41225 ], [ 78.66831, 25.40648 ], [ 78.67142, 25.40507 ], [ 78.6749, 25.39957 ], [ 78.70674, 25.42186 ], [ 78.70906, 25.42402 ], [ 78.7112, 25.42845 ], [ 78.70257, 25.43294 ], [ 78.70088, 25.43497 ], [ 78.7012, 25.43601 ], [ 78.6997, 25.43701 ], [ 78.69961, 25.44009 ], [ 78.69655, 25.44299 ], [ 78.68987, 25.44575 ], [ 78.68171, 25.43322 ], [ 78.67443, 25.43656 ], [ 78.67041, 25.44002 ], [ 78.66545, 25.43978 ], [ 78.65984, 25.44166 ], [ 78.65875, 25.44135 ], [ 78.65625, 25.43779 ], [ 78.65398, 25.43841 ], [ 78.65068, 25.43637 ], [ 78.64321, 25.43531 ], [ 78.64136, 25.43349 ], [ 78.64096, 25.42942 ], [ 78.64188, 25.4284 ], [ 78.64267, 25.4229 ], [ 78.64456, 25.41947 ], [ 78.64377, 25.41757 ], [ 78.64526, 25.41604 ], [ 78.64493, 25.41267 ], [ 78.64074, 25.40835 ], [ 78.63846, 25.40308 ], [ 78.63582, 25.40069 ], [ 78.631, 25.3993 ], [ 78.62575, 25.40123 ], [ 78.62362, 25.41347 ], [ 78.61938, 25.41559 ], [ 78.61392, 25.41458 ], [ 78.60967, 25.41602 ], [ 78.60446, 25.41351 ], [ 78.60667, 25.4113 ], [ 78.60394, 25.41085 ], [ 78.60111, 25.409 ], [ 78.60205, 25.40336 ], [ 78.60096, 25.40196 ], [ 78.60225, 25.39916 ], [ 78.59843, 25.39627 ], [ 78.59941, 25.39256 ], [ 78.59323, 25.38906 ], [ 78.59019, 25.38603 ], [ 78.58572, 25.3863 ], [ 78.58364, 25.3877 ], [ 78.58145, 25.38571 ], [ 78.57612, 25.39073 ], [ 78.56651, 25.39353 ], [ 78.56616, 25.3871 ], [ 78.56354, 25.38327 ], [ 78.56289, 25.37726 ], [ 78.56924, 25.37731 ], [ 78.57361, 25.38033 ], [ 78.57778, 25.38124 ], [ 78.57966, 25.37886 ], [ 78.5857, 25.37417 ], [ 78.58628, 25.3699 ], [ 78.58877, 25.36597 ], [ 78.58779, 25.35589 ], [ 78.58475, 25.35338 ], [ 78.5847, 25.34937 ], [ 78.58329, 25.34697 ], [ 78.57751, 25.34384 ], [ 78.57446, 25.34419 ], [ 78.57084, 25.3433 ], [ 78.56727, 25.34074 ], [ 78.56319, 25.34183 ], [ 78.56138, 25.34122 ], [ 78.55845, 25.34423 ], [ 78.55281, 25.35294 ], [ 78.55184, 25.3567 ], [ 78.5485, 25.35656 ], [ 78.53649, 25.3602 ], [ 78.532, 25.35658 ], [ 78.5305, 25.3547 ], [ 78.53064, 25.35148 ], [ 78.54123, 25.34554 ], [ 78.53705, 25.33823 ], [ 78.54048, 25.33011 ], [ 78.53964, 25.32775 ], [ 78.54371, 25.32603 ], [ 78.54386, 25.32418 ], [ 78.54694, 25.32198 ], [ 78.55007, 25.32238 ], [ 78.55307, 25.31964 ], [ 78.53754, 25.31066 ], [ 78.534, 25.31013 ], [ 78.53325, 25.30881 ], [ 78.53309, 25.3044 ], [ 78.53119, 25.30002 ], [ 78.5202, 25.29946 ], [ 78.51487, 25.29674 ], [ 78.5099, 25.29555 ], [ 78.50657, 25.29952 ], [ 78.50275, 25.30087 ], [ 78.50359, 25.30407 ], [ 78.5006, 25.31378 ], [ 78.50298, 25.3187 ], [ 78.50318, 25.32091 ], [ 78.5023, 25.3209 ], [ 78.49717, 25.31943 ], [ 78.49478, 25.31308 ], [ 78.48813, 25.30672 ], [ 78.48434, 25.3009 ], [ 78.48043, 25.30031 ], [ 78.47804, 25.29852 ], [ 78.47693, 25.29663 ], [ 78.47775, 25.29549 ], [ 78.47812, 25.29213 ], [ 78.47756, 25.28948 ], [ 78.47294, 25.2855 ], [ 78.47118, 25.29034 ], [ 78.46709, 25.29076 ], [ 78.46384, 25.29435 ], [ 78.45873, 25.29675 ], [ 78.45782, 25.2987 ], [ 78.45471, 25.30124 ], [ 78.44967, 25.30096 ], [ 78.44773, 25.29903 ], [ 78.44519, 25.29931 ], [ 78.44265, 25.29652 ], [ 78.44062, 25.2957 ], [ 78.43893, 25.28866 ], [ 78.43503, 25.28416 ], [ 78.43659, 25.2827 ], [ 78.43829, 25.27458 ], [ 78.44283, 25.27101 ], [ 78.44425, 25.26729 ], [ 78.45049, 25.26211 ], [ 78.45676, 25.26349 ], [ 78.46029, 25.26546 ], [ 78.46495, 25.26659 ], [ 78.47289, 25.27373 ], [ 78.48364, 25.27736 ], [ 78.48698, 25.281 ], [ 78.48928, 25.2815 ], [ 78.49031, 25.28286 ], [ 78.49775, 25.28713 ], [ 78.50392, 25.28963 ], [ 78.50783, 25.284 ], [ 78.50808, 25.28151 ], [ 78.50967, 25.27958 ], [ 78.51056, 25.27678 ], [ 78.51665, 25.27789 ], [ 78.53092, 25.28465 ], [ 78.5318, 25.28162 ], [ 78.53373, 25.28063 ], [ 78.53084, 25.27711 ], [ 78.53289, 25.27287 ], [ 78.53361, 25.26837 ], [ 78.53731, 25.26889 ], [ 78.54118, 25.26568 ], [ 78.54279, 25.26586 ], [ 78.54527, 25.26471 ], [ 78.54983, 25.26776 ], [ 78.55972, 25.26359 ], [ 78.563, 25.26368 ], [ 78.56847, 25.25978 ], [ 78.57041, 25.26024 ], [ 78.57204, 25.25957 ], [ 78.57042, 25.25793 ], [ 78.57473, 25.25499 ], [ 78.5779, 25.25482 ], [ 78.57826, 25.25402 ], [ 78.57182, 25.24412 ], [ 78.56808, 25.24084 ], [ 78.56753, 25.23638 ], [ 78.56842, 25.2329 ], [ 78.5678, 25.23081 ], [ 78.55915, 25.22028 ], [ 78.55582, 25.21334 ], [ 78.55576, 25.20921 ], [ 78.55077, 25.20402 ], [ 78.54854, 25.19936 ], [ 78.54165, 25.19156 ], [ 78.53727, 25.18404 ], [ 78.53342, 25.18102 ], [ 78.52248, 25.18187 ], [ 78.51817, 25.18607 ], [ 78.5139, 25.18554 ], [ 78.51406, 25.18428 ], [ 78.50307, 25.17577 ], [ 78.49886, 25.17138 ], [ 78.49931, 25.16967 ], [ 78.50452, 25.16429 ], [ 78.50306, 25.1632 ], [ 78.49665, 25.15368 ], [ 78.49426, 25.15265 ], [ 78.49354, 25.15303 ], [ 78.49142, 25.15139 ], [ 78.48436, 25.14312 ], [ 78.47178, 25.13751 ], [ 78.4635, 25.13128 ], [ 78.44682, 25.12177 ], [ 78.4482, 25.12591 ], [ 78.44795, 25.12811 ], [ 78.44203, 25.13094 ], [ 78.43951, 25.13428 ], [ 78.42737, 25.14589 ], [ 78.42675, 25.14686 ], [ 78.4273, 25.15399 ], [ 78.43206, 25.15517 ], [ 78.44786, 25.15271 ], [ 78.45187, 25.15998 ], [ 78.45759, 25.16277 ], [ 78.45825, 25.16461 ], [ 78.45336, 25.16842 ], [ 78.45155, 25.16893 ], [ 78.44608, 25.16823 ], [ 78.44337, 25.16548 ], [ 78.43372, 25.16648 ], [ 78.4234, 25.16931 ], [ 78.42474, 25.17208 ], [ 78.42206, 25.17284 ], [ 78.41636, 25.17644 ], [ 78.41664, 25.18353 ], [ 78.40752, 25.18443 ], [ 78.40174, 25.18637 ], [ 78.39928, 25.1859 ], [ 78.39608, 25.18722 ], [ 78.39483, 25.18907 ], [ 78.39526, 25.19081 ], [ 78.39413, 25.1935 ], [ 78.39498, 25.19537 ], [ 78.39466, 25.19735 ], [ 78.39156, 25.19894 ], [ 78.39138, 25.20119 ], [ 78.39336, 25.203 ], [ 78.3965, 25.20373 ], [ 78.39829, 25.20538 ], [ 78.39829, 25.20753 ], [ 78.3993, 25.20862 ], [ 78.41095, 25.21267 ], [ 78.4049, 25.21488 ], [ 78.4025, 25.2176 ], [ 78.39796, 25.21822 ], [ 78.39672, 25.21691 ], [ 78.38206, 25.22259 ], [ 78.37714, 25.22784 ], [ 78.37852, 25.23869 ], [ 78.37488, 25.23924 ], [ 78.37296, 25.23719 ], [ 78.36878, 25.23772 ], [ 78.36739, 25.23685 ], [ 78.3598, 25.24219 ], [ 78.37251, 25.25991 ], [ 78.36877, 25.26138 ], [ 78.36849, 25.26355 ], [ 78.36668, 25.26475 ], [ 78.36637, 25.26673 ], [ 78.36055, 25.27273 ], [ 78.35709, 25.27314 ], [ 78.35379, 25.27555 ], [ 78.35212, 25.27544 ], [ 78.35011, 25.27733 ], [ 78.34988, 25.27937 ], [ 78.3548, 25.29046 ], [ 78.35459, 25.29225 ], [ 78.35223, 25.29242 ], [ 78.35031, 25.29152 ], [ 78.34803, 25.2925 ], [ 78.34672, 25.29171 ], [ 78.3454, 25.29268 ], [ 78.3433, 25.29189 ], [ 78.34078, 25.29251 ], [ 78.33828, 25.2919 ], [ 78.33484, 25.29308 ], [ 78.33397, 25.29241 ], [ 78.32991, 25.29649 ], [ 78.3197, 25.29883 ], [ 78.3166, 25.30184 ], [ 78.3151, 25.30138 ], [ 78.31173, 25.3033 ], [ 78.31126, 25.30519 ], [ 78.31376, 25.30655 ], [ 78.31579, 25.30963 ], [ 78.32022, 25.31267 ], [ 78.32274, 25.31633 ], [ 78.32489, 25.31595 ], [ 78.32935, 25.3196 ], [ 78.33055, 25.319 ], [ 78.3324, 25.32021 ], [ 78.3337, 25.3226 ], [ 78.3387, 25.32406 ], [ 78.34379, 25.32846 ], [ 78.34118, 25.32981 ], [ 78.33755, 25.33025 ], [ 78.3373, 25.33639 ], [ 78.33095, 25.34602 ], [ 78.32806, 25.35254 ], [ 78.31909, 25.35496 ], [ 78.31835, 25.35646 ], [ 78.31605, 25.35755 ], [ 78.3123, 25.35765 ], [ 78.30498, 25.3605 ], [ 78.3008, 25.35993 ], [ 78.30097, 25.36203 ], [ 78.30464, 25.37027 ], [ 78.305, 25.37376 ], [ 78.30611, 25.37518 ], [ 78.30544, 25.37708 ], [ 78.30794, 25.3812 ], [ 78.31178, 25.37916 ], [ 78.31685, 25.37867 ], [ 78.32237, 25.38741 ], [ 78.32601, 25.38982 ], [ 78.32877, 25.38977 ], [ 78.33137, 25.39075 ], [ 78.33783, 25.39589 ], [ 78.34053, 25.39953 ], [ 78.34091, 25.40283 ], [ 78.33884, 25.40698 ], [ 78.34112, 25.41636 ], [ 78.34282, 25.41768 ], [ 78.34309, 25.42002 ], [ 78.3416, 25.4236 ], [ 78.33939, 25.42638 ], [ 78.3389, 25.43102 ], [ 78.34179, 25.43098 ], [ 78.34698, 25.43528 ], [ 78.34754, 25.4379 ], [ 78.34991, 25.44096 ], [ 78.34902, 25.44281 ], [ 78.35455, 25.45198 ], [ 78.35731, 25.45242 ], [ 78.3602, 25.45146 ], [ 78.36176, 25.44969 ], [ 78.36219, 25.44598 ], [ 78.36946, 25.43833 ], [ 78.37212, 25.43783 ], [ 78.37643, 25.43865 ], [ 78.37766, 25.43681 ], [ 78.38095, 25.44035 ], [ 78.38531, 25.44059 ], [ 78.39496, 25.44421 ], [ 78.39686, 25.45109 ], [ 78.39722, 25.45628 ], [ 78.40031, 25.46355 ], [ 78.40386, 25.4671 ], [ 78.4067, 25.46717 ], [ 78.40979, 25.46891 ], [ 78.41411, 25.46979 ], [ 78.41575, 25.47163 ], [ 78.41534, 25.47536 ], [ 78.41662, 25.47562 ], [ 78.41648, 25.47648 ], [ 78.41992, 25.47587 ], [ 78.42569, 25.47174 ], [ 78.42781, 25.4712 ], [ 78.43131, 25.47363 ], [ 78.43105, 25.47594 ], [ 78.42741, 25.48485 ], [ 78.42869, 25.48785 ], [ 78.42017, 25.49834 ], [ 78.4193, 25.50039 ], [ 78.41681, 25.5017 ], [ 78.41912, 25.50641 ], [ 78.41841, 25.50815 ], [ 78.41881, 25.50902 ], [ 78.42059, 25.50813 ], [ 78.42248, 25.51003 ], [ 78.4243, 25.50938 ], [ 78.42853, 25.50993 ], [ 78.42885, 25.51155 ], [ 78.42367, 25.51556 ], [ 78.42008, 25.51667 ], [ 78.41906, 25.51814 ], [ 78.42013, 25.52011 ], [ 78.42031, 25.52403 ], [ 78.41926, 25.52614 ], [ 78.41934, 25.53296 ], [ 78.4208, 25.53517 ], [ 78.42107, 25.53992 ], [ 78.42635, 25.54279 ], [ 78.42783, 25.54539 ], [ 78.42828, 25.55043 ], [ 78.43801, 25.55975 ], [ 78.4436, 25.5632 ], [ 78.44937, 25.56329 ], [ 78.44816, 25.56258 ], [ 78.44826, 25.56179 ], [ 78.44647, 25.56146 ], [ 78.44762, 25.56072 ], [ 78.44656, 25.55943 ], [ 78.44881, 25.55398 ], [ 78.45096, 25.55176 ], [ 78.4563, 25.54806 ], [ 78.46469, 25.54551 ], [ 78.46584, 25.54817 ], [ 78.46557, 25.54956 ], [ 78.46666, 25.55011 ], [ 78.46627, 25.55118 ], [ 78.46829, 25.55159 ], [ 78.46817, 25.55255 ], [ 78.46983, 25.55348 ], [ 78.46657, 25.55337 ], [ 78.46567, 25.55637 ], [ 78.46685, 25.55768 ], [ 78.46685, 25.55932 ], [ 78.46821, 25.56058 ], [ 78.46903, 25.56012 ], [ 78.46951, 25.56138 ], [ 78.47099, 25.56124 ], [ 78.47416, 25.56291 ], [ 78.47537, 25.56466 ], [ 78.47622, 25.564 ], [ 78.47637, 25.56485 ], [ 78.47833, 25.56468 ], [ 78.47909, 25.56554 ], [ 78.47864, 25.56741 ], [ 78.48227, 25.57126 ], [ 78.48332, 25.5708 ], [ 78.48266, 25.57222 ], [ 78.48592, 25.57315 ], [ 78.48635, 25.57436 ], [ 78.4871, 25.57315 ], [ 78.48716, 25.57441 ], [ 78.4895, 25.5764 ], [ 78.49011, 25.57593 ], [ 78.49017, 25.57692 ], [ 78.49095, 25.57637 ], [ 78.49113, 25.57758 ], [ 78.49288, 25.57736 ], [ 78.49334, 25.5787 ], [ 78.49403, 25.57763 ], [ 78.49473, 25.57834 ], [ 78.49766, 25.57779 ], [ 78.49844, 25.57721 ], [ 78.49847, 25.57509 ], [ 78.49986, 25.57416 ], [ 78.50206, 25.57493 ], [ 78.50672, 25.57297 ], [ 78.50608, 25.57202 ], [ 78.5066, 25.57152 ], [ 78.50912, 25.57254 ], [ 78.51058, 25.57052 ], [ 78.51294, 25.56995 ], [ 78.51275, 25.56931 ], [ 78.51807, 25.5692 ], [ 78.51828, 25.57022 ], [ 78.51912, 25.57029 ], [ 78.52125, 25.56845 ], [ 78.52297, 25.56851 ], [ 78.52366, 25.56699 ], [ 78.52601, 25.56709 ], [ 78.52746, 25.56801 ], [ 78.52743, 25.56691 ], [ 78.52837, 25.56666 ], [ 78.5327, 25.57166 ], [ 78.53616, 25.5693 ], [ 78.53674, 25.56778 ], [ 78.54219, 25.56535 ], [ 78.54248, 25.56295 ], [ 78.54466, 25.56158 ], [ 78.54962, 25.56145 ], [ 78.55565, 25.55928 ], [ 78.5587, 25.56058 ], [ 78.56063, 25.55905 ], [ 78.56316, 25.56274 ], [ 78.56675, 25.56256 ], [ 78.56922, 25.56462 ], [ 78.57268, 25.56311 ], [ 78.57704, 25.56316 ], [ 78.58227, 25.56138 ], [ 78.58774, 25.5566 ], [ 78.58944, 25.55682 ], [ 78.59113, 25.55834 ], [ 78.59243, 25.56319 ], [ 78.59802, 25.57069 ], [ 78.60016, 25.57046 ], [ 78.60155, 25.56912 ], [ 78.61169, 25.56987 ], [ 78.61173, 25.57139 ], [ 78.61054, 25.57252 ], [ 78.61138, 25.57422 ], [ 78.61078, 25.57797 ], [ 78.61283, 25.58101 ], [ 78.61439, 25.5808 ], [ 78.61596, 25.58353 ], [ 78.61814, 25.58366 ], [ 78.62135, 25.58306 ], [ 78.6308, 25.57893 ], [ 78.62419, 25.56738 ], [ 78.64629, 25.56075 ], [ 78.65868, 25.55989 ], [ 78.66002, 25.56094 ], [ 78.66247, 25.56708 ], [ 78.66688, 25.57223 ], [ 78.6675, 25.5747 ], [ 78.67489, 25.57733 ], [ 78.67609, 25.58164 ], [ 78.67886, 25.58531 ], [ 78.68632, 25.58765 ], [ 78.68731, 25.58889 ], [ 78.69119, 25.5888 ] ] ] } },
{ "type": "Feature", "properties": { "OBJECTID": 2620, "state_lgd": "09", "state_name": "UTTAR PRADESH", "district_lgd": "166", "district_name": "JHANSI", "district_name_source": "district_table", "subdistrict_lgd": "859", "subdistrict_name": "MAURANIPUR", "subdistrict_type": "Tehsil", "name_corrupted": false, "remarks": "", "label_lon": 79.099313383639497, "label_lat": 25.275511356422225 }, "geometry": { "type": "MultiPolygon", "coordinates": [ [ [ [ 79.13433, 25.4228 ], [ 79.13509, 25.42324 ], [ 79.13855, 25.42163 ], [ 79.14075, 25.41892 ], [ 79.14333, 25.41929 ], [ 79.1443, 25.41617 ], [ 79.14534, 25.41615 ], [ 79.1456, 25.41527 ], [ 79.1472, 25.41495 ], [ 79.14859, 25.41771 ], [ 79.15048, 25.41754 ], [ 79.15105, 25.41851 ], [ 79.1525, 25.41811 ], [ 79.15305, 25.41909 ], [ 79.15893, 25.41636 ], [ 79.15718, 25.41258 ], [ 79.15854, 25.41128 ], [ 79.15726, 25.40806 ], [ 79.15068, 25.39815 ], [ 79.1537, 25.39585 ], [ 79.15578, 25.39599 ], [ 79.16093, 25.39862 ], [ 79.16354, 25.40126 ], [ 79.17404, 25.4001 ], [ 79.17884, 25.39791 ], [ 79.1804, 25.39913 ], [ 79.18543, 25.39977 ], [ 79.18823, 25.40115 ], [ 79.19167, 25.40516 ], [ 79.19422, 25.40623 ], [ 79.19409, 25.39719 ], [ 79.19518, 25.39626 ], [ 79.19497, 25.39366 ], [ 79.19242, 25.39308 ], [ 79.18881, 25.38853 ], [ 79.18724, 25.38273 ], [ 79.19123, 25.38079 ], [ 79.19338, 25.38168 ], [ 79.19638, 25.38458 ], [ 79.1969, 25.38639 ], [ 79.20239, 25.3916 ], [ 79.20189, 25.39261 ], [ 79.20255, 25.39364 ], [ 79.20462, 25.39235 ], [ 79.2052, 25.39297 ], [ 79.20783, 25.39202 ], [ 79.2137, 25.38871 ], [ 79.21564, 25.38884 ], [ 79.21921, 25.39059 ], [ 79.22153, 25.39044 ], [ 79.22629, 25.38825 ], [ 79.23235, 25.3873 ], [ 79.23543, 25.39076 ], [ 79.23696, 25.3904 ], [ 79.23719, 25.39466 ], [ 79.24329, 25.39357 ], [ 79.26352, 25.38331 ], [ 79.26793, 25.3831 ], [ 79.2873, 25.37679 ], [ 79.29814, 25.37548 ], [ 79.29713, 25.36808 ], [ 79.29502, 25.36541 ], [ 79.29526, 25.35911 ], [ 79.29149, 25.35437 ], [ 79.28886, 25.3532 ], [ 79.28912, 25.35222 ], [ 79.28601, 25.34444 ], [ 79.28093, 25.33642 ], [ 79.27833, 25.32015 ], [ 79.2699, 25.30833 ], [ 79.26845, 25.30031 ], [ 79.26753, 25.28462 ], [ 79.26282, 25.27339 ], [ 79.26447, 25.26894 ], [ 79.26676, 25.26593 ], [ 79.27684, 25.25761 ], [ 79.27821, 25.25327 ], [ 79.27722, 25.24802 ], [ 79.2823, 25.24071 ], [ 79.28448, 25.23503 ], [ 79.2856, 25.23064 ], [ 79.28596, 25.22327 ], [ 79.2826, 25.21327 ], [ 79.28176, 25.20586 ], [ 79.28283, 25.19697 ], [ 79.28462, 25.19119 ], [ 79.29201, 25.18428 ], [ 79.30746, 25.176 ], [ 79.31126, 25.17051 ], [ 79.31363, 25.16188 ], [ 79.32313, 25.14983 ], [ 79.32136, 25.14824 ], [ 79.31526, 25.14714 ], [ 79.31365, 25.13623 ], [ 79.31122, 25.13581 ], [ 79.31089, 25.13393 ], [ 79.30969, 25.13421 ], [ 79.30804, 25.12988 ], [ 79.30697, 25.12931 ], [ 79.29661, 25.13202 ], [ 79.29241, 25.13053 ], [ 79.28711, 25.13186 ], [ 79.28638, 25.13123 ], [ 79.28791, 25.12943 ], [ 79.2879, 25.12778 ], [ 79.28255, 25.11754 ], [ 79.27818, 25.11743 ], [ 79.27746, 25.11851 ], [ 79.27772, 25.11994 ], [ 79.2753, 25.12038 ], [ 79.27489, 25.12169 ], [ 79.27379, 25.12155 ], [ 79.27279, 25.12256 ], [ 79.27032, 25.12053 ], [ 79.2659, 25.12147 ], [ 79.25991, 25.12526 ], [ 79.26404, 25.12824 ], [ 79.2649, 25.13387 ], [ 79.26672, 25.13499 ], [ 79.26691, 25.13629 ], [ 79.26881, 25.13845 ], [ 79.26515, 25.13919 ], [ 79.26354, 25.14071 ], [ 79.26646, 25.14626 ], [ 79.26489, 25.15172 ], [ 79.26394, 25.15264 ], [ 79.26265, 25.15208 ], [ 79.26053, 25.15307 ], [ 79.25555, 25.15787 ], [ 79.2537, 25.15777 ], [ 79.25151, 25.15938 ], [ 79.2492, 25.15954 ], [ 79.24805, 25.15837 ], [ 79.2446, 25.15905 ], [ 79.23976, 25.1576 ], [ 79.23234, 25.15339 ], [ 79.23168, 25.15126 ], [ 79.22595, 25.1482 ], [ 79.22416, 25.14605 ], [ 79.22954, 25.14446 ], [ 79.23634, 25.1405 ], [ 79.24922, 25.1403 ], [ 79.24914, 25.13923 ], [ 79.24994, 25.13871 ], [ 79.24611, 25.1348 ], [ 79.24304, 25.12298 ], [ 79.24809, 25.11686 ], [ 79.24794, 25.11592 ], [ 79.24514, 25.11385 ], [ 79.24037, 25.11326 ], [ 79.22737, 25.122 ], [ 79.22228, 25.11504 ], [ 79.21804, 25.11291 ], [ 79.21718, 25.1108 ], [ 79.21503, 25.11141 ], [ 79.21241, 25.11398 ], [ 79.2136, 25.12066 ], [ 79.21087, 25.1212 ], [ 79.20385, 25.12561 ], [ 79.20524, 25.12915 ], [ 79.20344, 25.13006 ], [ 79.20246, 25.13251 ], [ 79.20431, 25.13992 ], [ 79.19605, 25.14284 ], [ 79.19221, 25.14621 ], [ 79.1908, 25.14544 ], [ 79.19034, 25.14331 ], [ 79.18612, 25.14419 ], [ 79.18515, 25.14202 ], [ 79.18335, 25.14337 ], [ 79.18164, 25.14144 ], [ 79.17949, 25.14078 ], [ 79.17789, 25.14167 ], [ 79.1766, 25.14135 ], [ 79.17623, 25.13971 ], [ 79.17727, 25.13776 ], [ 79.17558, 25.13453 ], [ 79.17462, 25.12821 ], [ 79.18729, 25.12638 ], [ 79.18545, 25.12066 ], [ 79.186, 25.11493 ], [ 79.18412, 25.1146 ], [ 79.18386, 25.1156 ], [ 79.18134, 25.11648 ], [ 79.1779, 25.11558 ], [ 79.17613, 25.1123 ], [ 79.17544, 25.10893 ], [ 79.17424, 25.10828 ], [ 79.17316, 25.10782 ], [ 79.16887, 25.10857 ], [ 79.1658, 25.1072 ], [ 79.16429, 25.1088 ], [ 79.16226, 25.10737 ], [ 79.16127, 25.10893 ], [ 79.15931, 25.10744 ], [ 79.15808, 25.10814 ], [ 79.15772, 25.11144 ], [ 79.14391, 25.11487 ], [ 79.14109, 25.11174 ], [ 79.14017, 25.10859 ], [ 79.13189, 25.10901 ], [ 79.12436, 25.11065 ], [ 79.12351, 25.11491 ], [ 79.12466, 25.11618 ], [ 79.12437, 25.11879 ], [ 79.12646, 25.11959 ], [ 79.12876, 25.12488 ], [ 79.13079, 25.12687 ], [ 79.13213, 25.12711 ], [ 79.12126, 25.13425 ], [ 79.116, 25.13965 ], [ 79.11862, 25.14611 ], [ 79.12106, 25.14872 ], [ 79.12274, 25.15209 ], [ 79.12609, 25.16122 ], [ 79.11317, 25.16452 ], [ 79.11314, 25.16553 ], [ 79.11024, 25.16736 ], [ 79.09585, 25.1747 ], [ 79.09461, 25.17663 ], [ 79.09556, 25.17853 ], [ 79.09545, 25.18246 ], [ 79.09063, 25.19081 ], [ 79.08815, 25.18695 ], [ 79.08862, 25.18435 ], [ 79.08669, 25.18436 ], [ 79.08141, 25.18135 ], [ 79.07678, 25.17429 ], [ 79.07475, 25.17283 ], [ 79.07388, 25.17364 ], [ 79.07149, 25.1702 ], [ 79.07084, 25.1685 ], [ 79.0715, 25.16629 ], [ 79.07124, 25.16112 ], [ 79.07023, 25.15543 ], [ 79.06881, 25.15398 ], [ 79.06908, 25.15177 ], [ 79.068, 25.1497 ], [ 79.06699, 25.14834 ], [ 79.06637, 25.14885 ], [ 79.06299, 25.14798 ], [ 79.06125, 25.14489 ], [ 79.05952, 25.14457 ], [ 79.05878, 25.14269 ], [ 79.05559, 25.14133 ], [ 79.05548, 25.139 ], [ 79.0528, 25.13817 ], [ 79.05081, 25.13398 ], [ 79.03533, 25.13665 ], [ 79.03076, 25.13848 ], [ 79.02879, 25.14178 ], [ 79.02957, 25.14418 ], [ 79.03079, 25.14471 ], [ 79.03164, 25.14632 ], [ 79.03211, 25.15018 ], [ 79.03342, 25.1525 ], [ 79.03339, 25.15506 ], [ 79.03236, 25.15645 ], [ 79.03353, 25.15675 ], [ 79.03408, 25.15888 ], [ 79.03688, 25.16139 ], [ 79.03184, 25.164 ], [ 79.03431, 25.1645 ], [ 79.03686, 25.1666 ], [ 79.04004, 25.17091 ], [ 79.03439, 25.1741 ], [ 79.03397, 25.17648 ], [ 79.03469, 25.17799 ], [ 79.03157, 25.18035 ], [ 79.03091, 25.18448 ], [ 79.03874, 25.19422 ], [ 79.04223, 25.1967 ], [ 79.0445, 25.20174 ], [ 79.04739, 25.20341 ], [ 79.04873, 25.20609 ], [ 79.05233, 25.20744 ], [ 79.054, 25.20361 ], [ 79.05402, 25.20169 ], [ 79.04859, 25.19346 ], [ 79.05206, 25.18743 ], [ 79.05967, 25.19041 ], [ 79.06209, 25.19333 ], [ 79.06098, 25.19518 ], [ 79.06205, 25.19904 ], [ 79.06432, 25.19947 ], [ 79.06414, 25.20169 ], [ 79.06242, 25.20028 ], [ 79.06032, 25.20107 ], [ 79.06195, 25.20666 ], [ 79.06055, 25.20738 ], [ 79.06057, 25.20964 ], [ 79.06293, 25.21163 ], [ 79.06373, 25.21487 ], [ 79.06321, 25.21765 ], [ 79.06368, 25.22176 ], [ 79.05454, 25.22564 ], [ 79.04128, 25.22974 ], [ 79.03693, 25.2331 ], [ 79.03365, 25.23372 ], [ 79.03663, 25.23629 ], [ 79.03999, 25.24268 ], [ 79.03799, 25.24354 ], [ 79.03594, 25.24265 ], [ 79.03387, 25.24285 ], [ 79.02847, 25.2406 ], [ 79.02664, 25.24089 ], [ 79.02613, 25.24222 ], [ 79.02485, 25.24087 ], [ 79.02177, 25.24157 ], [ 79.02139, 25.24538 ], [ 79.01799, 25.24927 ], [ 79.0235, 25.25733 ], [ 79.02433, 25.25723 ], [ 79.02561, 25.26128 ], [ 79.0224, 25.26265 ], [ 79.02241, 25.26361 ], [ 79.02084, 25.26444 ], [ 79.02285, 25.2679 ], [ 79.01322, 25.27405 ], [ 79.01215, 25.27243 ], [ 79.00938, 25.27311 ], [ 79.00522, 25.27216 ], [ 78.99438, 25.27316 ], [ 78.99493, 25.26708 ], [ 78.99136, 25.26518 ], [ 78.98767, 25.26487 ], [ 78.98683, 25.26414 ], [ 78.98522, 25.25916 ], [ 78.98355, 25.25883 ], [ 78.98137, 25.2546 ], [ 78.97995, 25.25452 ], [ 78.97484, 25.24049 ], [ 78.97472, 25.23729 ], [ 78.97608, 25.23666 ], [ 78.97715, 25.23782 ], [ 78.98005, 25.23852 ], [ 78.98062, 25.23994 ], [ 78.9846, 25.23958 ], [ 78.98422, 25.23551 ], [ 78.98289, 25.23425 ], [ 78.99466, 25.23222 ], [ 78.99841, 25.23371 ], [ 79.00119, 25.2337 ], [ 79.00146, 25.23312 ], [ 78.99923, 25.23151 ], [ 78.99936, 25.23067 ], [ 79.00192, 25.22982 ], [ 79.00152, 25.22851 ], [ 79.00251, 25.22795 ], [ 79.00124, 25.22504 ], [ 79.00102, 25.22105 ], [ 79.00742, 25.212 ], [ 79.0065, 25.2127 ], [ 79.00614, 25.21224 ], [ 79.00537, 25.20708 ], [ 79.0059, 25.20589 ], [ 79.00483, 25.20056 ], [ 79.00587, 25.19505 ], [ 78.99967, 25.19672 ], [ 78.99277, 25.19686 ], [ 78.98074, 25.20532 ], [ 78.9806, 25.21146 ], [ 78.97594, 25.21198 ], [ 78.97029, 25.21644 ], [ 78.96498, 25.21718 ], [ 78.96364, 25.21568 ], [ 78.96378, 25.21228 ], [ 78.96308, 25.21108 ], [ 78.9601, 25.21338 ], [ 78.95747, 25.21746 ], [ 78.95386, 25.21896 ], [ 78.95165, 25.21288 ], [ 78.94656, 25.21429 ], [ 78.94394, 25.21276 ], [ 78.93529, 25.2107 ], [ 78.93433, 25.21189 ], [ 78.92957, 25.20713 ], [ 78.92902, 25.20757 ], [ 78.92521, 25.20445 ], [ 78.92079, 25.20034 ], [ 78.90754, 25.18479 ], [ 78.91127, 25.18237 ], [ 78.9119, 25.18084 ], [ 78.91, 25.17984 ], [ 78.90965, 25.17787 ], [ 78.90485, 25.17642 ], [ 78.90305, 25.17492 ], [ 78.90303, 25.17043 ], [ 78.89806, 25.16862 ], [ 78.89486, 25.16512 ], [ 78.8925, 25.16372 ], [ 78.89028, 25.16066 ], [ 78.88771, 25.16101 ], [ 78.88191, 25.15689 ], [ 78.8804, 25.15762 ], [ 78.87865, 25.16684 ], [ 78.87999, 25.17106 ], [ 78.87437, 25.17241 ], [ 78.87418, 25.17411 ], [ 78.87285, 25.17541 ], [ 78.87398, 25.17904 ], [ 78.87344, 25.18389 ], [ 78.87255, 25.18656 ], [ 78.87063, 25.18701 ], [ 78.87398, 25.19137 ], [ 78.88283, 25.19794 ], [ 78.8868, 25.20604 ], [ 78.88635, 25.21 ], [ 78.88762, 25.21054 ], [ 78.89059, 25.21442 ], [ 78.87722, 25.22374 ], [ 78.87036, 25.22643 ], [ 78.87062, 25.22855 ], [ 78.86953, 25.23111 ], [ 78.87108, 25.23456 ], [ 78.8716, 25.23887 ], [ 78.87302, 25.24145 ], [ 78.87712, 25.24507 ], [ 78.8795, 25.25226 ], [ 78.88092, 25.25401 ], [ 78.88431, 25.2544 ], [ 78.88453, 25.2536 ], [ 78.88581, 25.25375 ], [ 78.89338, 25.24471 ], [ 78.89631, 25.24331 ], [ 78.89978, 25.24312 ], [ 78.90239, 25.24589 ], [ 78.90385, 25.25247 ], [ 78.90841, 25.25647 ], [ 78.91233, 25.26923 ], [ 78.91703, 25.27359 ], [ 78.92014, 25.27358 ], [ 78.92925, 25.26982 ], [ 78.93293, 25.2633 ], [ 78.9376, 25.25969 ], [ 78.94514, 25.25942 ], [ 78.9454, 25.26109 ], [ 78.94732, 25.26179 ], [ 78.95459, 25.26136 ], [ 78.95503, 25.265 ], [ 78.95392, 25.26934 ], [ 78.94868, 25.27418 ], [ 78.95551, 25.28276 ], [ 78.96236, 25.27977 ], [ 78.97353, 25.27716 ], [ 78.97588, 25.27758 ], [ 78.97754, 25.27673 ], [ 78.97992, 25.27905 ], [ 78.9798, 25.28033 ], [ 78.97687, 25.28292 ], [ 78.97561, 25.28814 ], [ 78.9689, 25.29259 ], [ 78.96386, 25.29936 ], [ 78.95743, 25.30224 ], [ 78.96029, 25.30737 ], [ 78.95748, 25.31625 ], [ 78.95829, 25.31987 ], [ 78.95727, 25.32494 ], [ 78.95941, 25.33811 ], [ 78.96151, 25.34345 ], [ 78.96018, 25.344 ], [ 78.96062, 25.34508 ], [ 78.95771, 25.3459 ], [ 78.95621, 25.34322 ], [ 78.95501, 25.34322 ], [ 78.95318, 25.34047 ], [ 78.94772, 25.34213 ], [ 78.9473, 25.33851 ], [ 78.94624, 25.33742 ], [ 78.94696, 25.33533 ], [ 78.94631, 25.3339 ], [ 78.94312, 25.33265 ], [ 78.94104, 25.33026 ], [ 78.93872, 25.32907 ], [ 78.93774, 25.32718 ], [ 78.93494, 25.32737 ], [ 78.93503, 25.32668 ], [ 78.93402, 25.32645 ], [ 78.93276, 25.32698 ], [ 78.93225, 25.32516 ], [ 78.92793, 25.32413 ], [ 78.92721, 25.32436 ], [ 78.92672, 25.32724 ], [ 78.9278, 25.32876 ], [ 78.93006, 25.3295 ], [ 78.93221, 25.33594 ], [ 78.92797, 25.33993 ], [ 78.92254, 25.3429 ], [ 78.92091, 25.34359 ], [ 78.91619, 25.33494 ], [ 78.91389, 25.33498 ], [ 78.91184, 25.33256 ], [ 78.90826, 25.33477 ], [ 78.9054, 25.33498 ], [ 78.90054, 25.33803 ], [ 78.89602, 25.3397 ], [ 78.89266, 25.33864 ], [ 78.89063, 25.34135 ], [ 78.88815, 25.34203 ], [ 78.88657, 25.34339 ], [ 78.88414, 25.34414 ], [ 78.882, 25.34364 ], [ 78.88079, 25.341 ], [ 78.88067, 25.33818 ], [ 78.88174, 25.33659 ], [ 78.88037, 25.33211 ], [ 78.88111, 25.33062 ], [ 78.88048, 25.32734 ], [ 78.88125, 25.32492 ], [ 78.86757, 25.32555 ], [ 78.86772, 25.32365 ], [ 78.86554, 25.31844 ], [ 78.86262, 25.31445 ], [ 78.86397, 25.31022 ], [ 78.87446, 25.30845 ], [ 78.87088, 25.30335 ], [ 78.87176, 25.29912 ], [ 78.87434, 25.29558 ], [ 78.87439, 25.29395 ], [ 78.87722, 25.28884 ], [ 78.8799, 25.28598 ], [ 78.87498, 25.27838 ], [ 78.87281, 25.28043 ], [ 78.86853, 25.281 ], [ 78.86661, 25.28039 ], [ 78.865, 25.2647 ], [ 78.86281, 25.26267 ], [ 78.86182, 25.2595 ], [ 78.85993, 25.2577 ], [ 78.85629, 25.25665 ], [ 78.85564, 25.25253 ], [ 78.85751, 25.24967 ], [ 78.8569, 25.24708 ], [ 78.85737, 25.24396 ], [ 78.85392, 25.24107 ], [ 78.85387, 25.23952 ], [ 78.85214, 25.23732 ], [ 78.853, 25.23622 ], [ 78.85217, 25.23082 ], [ 78.84965, 25.22878 ], [ 78.8428, 25.22769 ], [ 78.83856, 25.23778 ], [ 78.83514, 25.24291 ], [ 78.83404, 25.25017 ], [ 78.83274, 25.25252 ], [ 78.8303, 25.25412 ], [ 78.82291, 25.2562 ], [ 78.82014, 25.26123 ], [ 78.81808, 25.26259 ], [ 78.81865, 25.26355 ], [ 78.80947, 25.2706 ], [ 78.81088, 25.27559 ], [ 78.81374, 25.27762 ], [ 78.81293, 25.28006 ], [ 78.81808, 25.28313 ], [ 78.8174, 25.29111 ], [ 78.82043, 25.2961 ], [ 78.81848, 25.298 ], [ 78.81845, 25.29895 ], [ 78.82099, 25.30135 ], [ 78.8278, 25.30141 ], [ 78.82857, 25.30274 ], [ 78.82273, 25.3068 ], [ 78.82031, 25.30702 ], [ 78.81959, 25.30593 ], [ 78.81715, 25.30668 ], [ 78.81393, 25.30243 ], [ 78.80981, 25.29957 ], [ 78.80458, 25.29281 ], [ 78.79881, 25.28917 ], [ 78.79393, 25.29117 ], [ 78.79117, 25.29589 ], [ 78.78778, 25.29601 ], [ 78.78846, 25.30009 ], [ 78.79237, 25.30602 ], [ 78.79232, 25.30809 ], [ 78.7939, 25.31042 ], [ 78.79824, 25.31394 ], [ 78.81034, 25.30781 ], [ 78.81355, 25.30746 ], [ 78.81437, 25.30851 ], [ 78.8193, 25.30694 ], [ 78.81924, 25.30783 ], [ 78.81719, 25.30877 ], [ 78.81793, 25.30993 ], [ 78.81969, 25.30968 ], [ 78.82129, 25.31151 ], [ 78.82062, 25.31328 ], [ 78.8219, 25.3161 ], [ 78.83445, 25.32322 ], [ 78.83936, 25.3318 ], [ 78.84207, 25.33262 ], [ 78.84261, 25.33655 ], [ 78.84716, 25.33678 ], [ 78.84728, 25.33247 ], [ 78.84579, 25.33258 ], [ 78.84616, 25.32698 ], [ 78.84748, 25.33197 ], [ 78.84842, 25.33222 ], [ 78.84994, 25.33494 ], [ 78.84455, 25.34093 ], [ 78.84483, 25.34202 ], [ 78.8413, 25.34265 ], [ 78.84104, 25.34497 ], [ 78.84359, 25.34946 ], [ 78.84731, 25.35051 ], [ 78.847, 25.35341 ], [ 78.84574, 25.35555 ], [ 78.85161, 25.35746 ], [ 78.85544, 25.36026 ], [ 78.85701, 25.36292 ], [ 78.85953, 25.36312 ], [ 78.85834, 25.3644 ], [ 78.86194, 25.3686 ], [ 78.86154, 25.36937 ], [ 78.86257, 25.36932 ], [ 78.86287, 25.37117 ], [ 78.86661, 25.37149 ], [ 78.86786, 25.37244 ], [ 78.86804, 25.37417 ], [ 78.87071, 25.37744 ], [ 78.87082, 25.37962 ], [ 78.87178, 25.38095 ], [ 78.87464, 25.3797 ], [ 78.87635, 25.38096 ], [ 78.88145, 25.38226 ], [ 78.88006, 25.38363 ], [ 78.88024, 25.38589 ], [ 78.90201, 25.38543 ], [ 78.91376, 25.38425 ], [ 78.91776, 25.3961 ], [ 78.91876, 25.39565 ], [ 78.91981, 25.39697 ], [ 78.92678, 25.39532 ], [ 78.92666, 25.39613 ], [ 78.92969, 25.39589 ], [ 78.93166, 25.39988 ], [ 78.93506, 25.39897 ], [ 78.93474, 25.39518 ], [ 78.93597, 25.39513 ], [ 78.93717, 25.39812 ], [ 78.93817, 25.39816 ], [ 78.93872, 25.39939 ], [ 78.93949, 25.39892 ], [ 78.9402, 25.40038 ], [ 78.94424, 25.39928 ], [ 78.94556, 25.39988 ], [ 78.94722, 25.39949 ], [ 78.9487, 25.4005 ], [ 78.95192, 25.39954 ], [ 78.9533, 25.39995 ], [ 78.95355, 25.39815 ], [ 78.95647, 25.39719 ], [ 78.95809, 25.39463 ], [ 78.95755, 25.39368 ], [ 78.95237, 25.38854 ], [ 78.95103, 25.38969 ], [ 78.94949, 25.38748 ], [ 78.94863, 25.38753 ], [ 78.94737, 25.38488 ], [ 78.94541, 25.38561 ], [ 78.94289, 25.38279 ], [ 78.94212, 25.38294 ], [ 78.93898, 25.37815 ], [ 78.93829, 25.37483 ], [ 78.93444, 25.37545 ], [ 78.92857, 25.37834 ], [ 78.92861, 25.38021 ], [ 78.9243, 25.38082 ], [ 78.92103, 25.38002 ], [ 78.91594, 25.38144 ], [ 78.91464, 25.37893 ], [ 78.91259, 25.37712 ], [ 78.89908, 25.37769 ], [ 78.89642, 25.37411 ], [ 78.89657, 25.37186 ], [ 78.8978, 25.37176 ], [ 78.89811, 25.36963 ], [ 78.89968, 25.36861 ], [ 78.89918, 25.368 ], [ 78.9001, 25.36749 ], [ 78.89974, 25.36531 ], [ 78.90134, 25.36162 ], [ 78.90371, 25.36123 ], [ 78.90503, 25.35948 ], [ 78.91453, 25.35762 ], [ 78.9193, 25.35774 ], [ 78.92325, 25.3588 ], [ 78.92382, 25.35483 ], [ 78.92691, 25.35284 ], [ 78.92699, 25.35161 ], [ 78.9393, 25.34704 ], [ 78.93966, 25.34771 ], [ 78.94067, 25.3475 ], [ 78.94128, 25.34923 ], [ 78.94321, 25.34875 ], [ 78.945, 25.35041 ], [ 78.95044, 25.36061 ], [ 78.95181, 25.36067 ], [ 78.95382, 25.36504 ], [ 78.9566, 25.36712 ], [ 78.95916, 25.37151 ], [ 78.96354, 25.3689 ], [ 78.9654, 25.37068 ], [ 78.96629, 25.3694 ], [ 78.96658, 25.37021 ], [ 78.97524, 25.36607 ], [ 78.97517, 25.36685 ], [ 78.97818, 25.3682 ], [ 78.97897, 25.36954 ], [ 78.9816, 25.36954 ], [ 78.98255, 25.37059 ], [ 78.98896, 25.36879 ], [ 78.9906, 25.36633 ], [ 78.99861, 25.36331 ], [ 78.99938, 25.36172 ], [ 79.00226, 25.3671 ], [ 78.99874, 25.36959 ], [ 78.99485, 25.3753 ], [ 78.99373, 25.37978 ], [ 78.99476, 25.38572 ], [ 79.00171, 25.39517 ], [ 79.00304, 25.40217 ], [ 79.00674, 25.40271 ], [ 79.02023, 25.40049 ], [ 79.02064, 25.40134 ], [ 79.02459, 25.39967 ], [ 79.02909, 25.39344 ], [ 79.02747, 25.39093 ], [ 79.03168, 25.38838 ], [ 79.03673, 25.38761 ], [ 79.03655, 25.38258 ], [ 79.04471, 25.38197 ], [ 79.04769, 25.38813 ], [ 79.04508, 25.39056 ], [ 79.0454, 25.39232 ], [ 79.04412, 25.39301 ], [ 79.04779, 25.4001 ], [ 79.04666, 25.40343 ], [ 79.05052, 25.41332 ], [ 79.05538, 25.4183 ], [ 79.06275, 25.41575 ], [ 79.06326, 25.41496 ], [ 79.06507, 25.41638 ], [ 79.07267, 25.41623 ], [ 79.07293, 25.41869 ], [ 79.07684, 25.4178 ], [ 79.07617, 25.41621 ], [ 79.07771, 25.41557 ], [ 79.07962, 25.41769 ], [ 79.08017, 25.41659 ], [ 79.08369, 25.4158 ], [ 79.09312, 25.43092 ], [ 79.09011, 25.4333 ], [ 79.09165, 25.43707 ], [ 79.08911, 25.44276 ], [ 79.09078, 25.44406 ], [ 79.09272, 25.4447 ], [ 79.09517, 25.44241 ], [ 79.09744, 25.4381 ], [ 79.09746, 25.4366 ], [ 79.10196, 25.43151 ], [ 79.12535, 25.42512 ], [ 79.13175, 25.42439 ], [ 79.13433, 25.4228 ] ] ], [ [ [ 79.06671, 25.43671 ], [ 79.0647, 25.43332 ], [ 79.0632, 25.43227 ], [ 79.06341, 25.43063 ], [ 79.06112, 25.42728 ], [ 79.0572, 25.42825 ], [ 79.04932, 25.43405 ], [ 79.05052, 25.43668 ], [ 79.05408, 25.43802 ], [ 79.05399, 25.44167 ], [ 79.05957, 25.44313 ], [ 79.06282, 25.44608 ], [ 79.06513, 25.44535 ], [ 79.06637, 25.44192 ], [ 79.06671, 25.43671 ] ] ] ] } },
{ "type": "Feature", "properties": { "OBJECTID": 2639, "state_lgd": "09", "state_name": "UTTAR PRADESH", "district_lgd": "166", "district_name": "JHANSI", "district_name_source": "district_table", "subdistrict_lgd": "856", "subdistrict_name": "MOTH", "subdistrict_type": "Tehsil", "name_corrupted": false, "remarks": "", "label_lon": 78.916460438488244, "label_lat": 25.741202499350283 }, "geometry": { "type": "Polygon", "coordinates": [ [ [ 79.09742, 25.82458 ], [ 79.09157, 25.81955 ], [ 79.09241, 25.81886 ], [ 79.08809, 25.81309 ], [ 79.08934, 25.81343 ], [ 79.08896, 25.80567 ], [ 79.08665, 25.80045 ], [ 79.06682, 25.78235 ], [ 79.06414, 25.77867 ], [ 79.06128, 25.77207 ], [ 79.05686, 25.76795 ], [ 79.05624, 25.76527 ], [ 79.054, 25.76305 ], [ 79.0521, 25.76273 ], [ 79.05232, 25.76163 ], [ 79.05774, 25.75777 ], [ 79.06298, 25.75272 ], [ 79.06348, 25.74917 ], [ 79.06127, 25.74488 ], [ 79.05917, 25.74436 ], [ 79.05783, 25.73985 ], [ 79.05193, 25.73284 ], [ 79.04991, 25.72788 ], [ 79.04962, 25.72399 ], [ 79.04209, 25.71984 ], [ 79.04328, 25.71477 ], [ 79.04211, 25.71266 ], [ 79.03825, 25.70913 ], [ 79.03817, 25.70756 ], [ 79.03327, 25.70744 ], [ 79.02595, 25.70874 ], [ 79.02099, 25.70724 ], [ 79.01772, 25.70394 ], [ 79.01455, 25.69898 ], [ 79.01261, 25.6855 ], [ 79.01269, 25.67755 ], [ 79.01153, 25.67676 ], [ 79.00858, 25.67738 ], [ 79.00888, 25.67282 ], [ 79.00782, 25.67074 ], [ 79.00491, 25.66925 ], [ 78.99736, 25.6694 ], [ 78.9937, 25.6679 ], [ 78.99178, 25.66453 ], [ 78.99144, 25.66196 ], [ 78.99227, 25.6609 ], [ 78.98628, 25.65663 ], [ 78.98637, 25.65413 ], [ 78.98309, 25.6507 ], [ 78.97632, 25.64825 ], [ 78.97455, 25.64631 ], [ 78.96407, 25.64418 ], [ 78.95946, 25.64231 ], [ 78.95735, 25.64061 ], [ 78.95485, 25.63827 ], [ 78.9536, 25.63516 ], [ 78.95073, 25.62281 ], [ 78.94579, 25.61605 ], [ 78.93957, 25.61028 ], [ 78.93683, 25.60979 ], [ 78.93532, 25.60796 ], [ 78.9295, 25.60856 ], [ 78.92737, 25.60766 ], [ 78.92526, 25.60468 ], [ 78.91501, 25.60254 ], [ 78.9107, 25.59171 ], [ 78.91733, 25.57995 ], [ 78.91758, 25.57607 ], [ 78.91929, 25.57259 ], [ 78.91894, 25.56932 ], [ 78.91779, 25.56208 ], [ 78.91656, 25.5601 ], [ 78.9134, 25.55668 ], [ 78.90701, 25.55189 ], [ 78.90565, 25.55123 ], [ 78.90005, 25.5522 ], [ 78.89686, 25.55514 ], [ 78.89524, 25.55535 ], [ 78.88411, 25.55436 ], [ 78.87985, 25.55193 ], [ 78.87765, 25.55309 ], [ 78.87331, 25.55368 ], [ 78.86808, 25.55258 ], [ 78.86139, 25.55323 ], [ 78.86028, 25.55231 ], [ 78.85969, 25.55015 ], [ 78.85678, 25.54715 ], [ 78.85367, 25.53901 ], [ 78.8558, 25.54013 ], [ 78.8565, 25.53949 ], [ 78.85629, 25.53538 ], [ 78.85732, 25.5354 ], [ 78.86275, 25.54015 ], [ 78.86347, 25.53646 ], [ 78.86827, 25.53644 ], [ 78.86486, 25.53319 ], [ 78.86841, 25.52978 ], [ 78.86584, 25.52672 ], [ 78.8548, 25.5236 ], [ 78.8484, 25.52547 ], [ 78.84955, 25.52931 ], [ 78.84852, 25.52995 ], [ 78.84308, 25.53083 ], [ 78.83803, 25.53024 ], [ 78.83215, 25.52844 ], [ 78.83213, 25.52641 ], [ 78.82905, 25.52457 ], [ 78.8307, 25.52211 ], [ 78.82615, 25.51803 ], [ 78.82256, 25.51617 ], [ 78.81946, 25.51584 ], [ 78.81469, 25.51675 ], [ 78.80954, 25.51915 ], [ 78.8088, 25.5197 ], [ 78.81046, 25.52171 ], [ 78.8054, 25.52411 ], [ 78.80343, 25.52589 ], [ 78.79637, 25.52251 ], [ 78.78972, 25.51476 ], [ 78.78204, 25.51711 ], [ 78.77951, 25.52422 ], [ 78.76833, 25.52364 ], [ 78.76627, 25.52147 ], [ 78.75595, 25.52818 ], [ 78.7575, 25.53262 ], [ 78.7478, 25.53412 ], [ 78.74758, 25.53752 ], [ 78.74587, 25.53873 ], [ 78.74145, 25.53879 ], [ 78.74, 25.53753 ], [ 78.73848, 25.53873 ], [ 78.73668, 25.53775 ], [ 78.73512, 25.53795 ], [ 78.73466, 25.53658 ], [ 78.73347, 25.53676 ], [ 78.7336, 25.53808 ], [ 78.73235, 25.53826 ], [ 78.73195, 25.54023 ], [ 78.73354, 25.54215 ], [ 78.73414, 25.54197 ], [ 78.73512, 25.54548 ], [ 78.73308, 25.54836 ], [ 78.73377, 25.54965 ], [ 78.7317, 25.55271 ], [ 78.7323, 25.55552 ], [ 78.73123, 25.55709 ], [ 78.7305, 25.55757 ], [ 78.72918, 25.55691 ], [ 78.72628, 25.55805 ], [ 78.72648, 25.55925 ], [ 78.72404, 25.55949 ], [ 78.72345, 25.56134 ], [ 78.7245, 25.56134 ], [ 78.72472, 25.56277 ], [ 78.72003, 25.5647 ], [ 78.71851, 25.56769 ], [ 78.71568, 25.57009 ], [ 78.71448, 25.56973 ], [ 78.71264, 25.57189 ], [ 78.71205, 25.57392 ], [ 78.71265, 25.57701 ], [ 78.70744, 25.57683 ], [ 78.70566, 25.57582 ], [ 78.70223, 25.57797 ], [ 78.69827, 25.57804 ], [ 78.69854, 25.58325 ], [ 78.69552, 25.58808 ], [ 78.69942, 25.59091 ], [ 78.70019, 25.59507 ], [ 78.7042, 25.59791 ], [ 78.7077, 25.59912 ], [ 78.71634, 25.59953 ], [ 78.7168, 25.60049 ], [ 78.71598, 25.6036 ], [ 78.71733, 25.60533 ], [ 78.72065, 25.60554 ], [ 78.72269, 25.6027 ], [ 78.72457, 25.60216 ], [ 78.73008, 25.60606 ], [ 78.73177, 25.60625 ], [ 78.73531, 25.60101 ], [ 78.73832, 25.5996 ], [ 78.74074, 25.59698 ], [ 78.74215, 25.59699 ], [ 78.74425, 25.5985 ], [ 78.74927, 25.59877 ], [ 78.74934, 25.60174 ], [ 78.75032, 25.60304 ], [ 78.75456, 25.60477 ], [ 78.75609, 25.60669 ], [ 78.76102, 25.60685 ], [ 78.76621, 25.6102 ], [ 78.77397, 25.61205 ], [ 78.77881, 25.61091 ], [ 78.78236, 25.61271 ], [ 78.79037, 25.61179 ], [ 78.79394, 25.61242 ], [ 78.79672, 25.61382 ], [ 78.79799, 25.61642 ], [ 78.80961, 25.61917 ], [ 78.81176, 25.62078 ], [ 78.81273, 25.62451 ], [ 78.81151, 25.62888 ], [ 78.81169, 25.63208 ], [ 78.81613, 25.63581 ], [ 78.81987, 25.64857 ], [ 78.81974, 25.65195 ], [ 78.8177, 25.65552 ], [ 78.8157, 25.66233 ], [ 78.8158, 25.66413 ], [ 78.81878, 25.66921 ], [ 78.8167, 25.67632 ], [ 78.81365, 25.67871 ], [ 78.8125, 25.68105 ], [ 78.80716, 25.68412 ], [ 78.8068, 25.68799 ], [ 78.80453, 25.69228 ], [ 78.79557, 25.69672 ], [ 78.79511, 25.69978 ], [ 78.79998, 25.70294 ], [ 78.79991, 25.70507 ], [ 78.79808, 25.70601 ], [ 78.79285, 25.70571 ], [ 78.78893, 25.70778 ], [ 78.78363, 25.70872 ], [ 78.78085, 25.71062 ], [ 78.7798, 25.71327 ], [ 78.77478, 25.717 ], [ 78.76333, 25.71993 ], [ 78.75859, 25.72557 ], [ 78.7557, 25.73047 ], [ 78.75628, 25.73205 ], [ 78.75364, 25.74108 ], [ 78.75377, 25.74712 ], [ 78.75286, 25.75 ], [ 78.75455, 25.75037 ], [ 78.75483, 25.75196 ], [ 78.75597, 25.752 ], [ 78.75593, 25.75283 ], [ 78.75748, 25.75272 ], [ 78.75873, 25.75452 ], [ 78.769, 25.75018 ], [ 78.77081, 25.74863 ], [ 78.77356, 25.75527 ], [ 78.77208, 25.75722 ], [ 78.77296, 25.75861 ], [ 78.77628, 25.75978 ], [ 78.77883, 25.75787 ], [ 78.78288, 25.75848 ], [ 78.78628, 25.76472 ], [ 78.78597, 25.76925 ], [ 78.79138, 25.77581 ], [ 78.79344, 25.78084 ], [ 78.79534, 25.78406 ], [ 78.7964, 25.78435 ], [ 78.79785, 25.78838 ], [ 78.80292, 25.79208 ], [ 78.80829, 25.80097 ], [ 78.8134, 25.79922 ], [ 78.81416, 25.80047 ], [ 78.82259, 25.79699 ], [ 78.82862, 25.79571 ], [ 78.82944, 25.80061 ], [ 78.8333, 25.80962 ], [ 78.83076, 25.81129 ], [ 78.82831, 25.81434 ], [ 78.82046, 25.81574 ], [ 78.81671, 25.80931 ], [ 78.81431, 25.80704 ], [ 78.81145, 25.80769 ], [ 78.81143, 25.8096 ], [ 78.8092, 25.80989 ], [ 78.80938, 25.81114 ], [ 78.80627, 25.81309 ], [ 78.80777, 25.81685 ], [ 78.81038, 25.8169 ], [ 78.81487, 25.82236 ], [ 78.81843, 25.82901 ], [ 78.83138, 25.82476 ], [ 78.83165, 25.82534 ], [ 78.83284, 25.82439 ], [ 78.84555, 25.82156 ], [ 78.84508, 25.82025 ], [ 78.84629, 25.81953 ], [ 78.84574, 25.81859 ], [ 78.84687, 25.81854 ], [ 78.84633, 25.81784 ], [ 78.84741, 25.81763 ], [ 78.84707, 25.81603 ], [ 78.84796, 25.81517 ], [ 78.84668, 25.81395 ], [ 78.84706, 25.81338 ], [ 78.8462, 25.81257 ], [ 78.84681, 25.81156 ], [ 78.84572, 25.81149 ], [ 78.84635, 25.81079 ], [ 78.84524, 25.80964 ], [ 78.84618, 25.80719 ], [ 78.84473, 25.80605 ], [ 78.84488, 25.80529 ], [ 78.846, 25.80541 ], [ 78.84482, 25.80433 ], [ 78.84753, 25.80334 ], [ 78.84464, 25.8036 ], [ 78.84753, 25.80254 ], [ 78.84633, 25.80236 ], [ 78.84595, 25.80078 ], [ 78.84908, 25.79935 ], [ 78.8517, 25.7967 ], [ 78.85553, 25.79516 ], [ 78.85715, 25.79181 ], [ 78.86364, 25.79078 ], [ 78.86439, 25.79308 ], [ 78.86708, 25.79321 ], [ 78.87039, 25.80137 ], [ 78.87244, 25.80138 ], [ 78.87281, 25.80832 ], [ 78.86997, 25.80903 ], [ 78.87115, 25.81547 ], [ 78.87037, 25.81555 ], [ 78.87061, 25.81679 ], [ 78.87424, 25.82215 ], [ 78.87308, 25.82238 ], [ 78.87398, 25.82362 ], [ 78.87323, 25.82689 ], [ 78.87193, 25.82811 ], [ 78.87258, 25.83509 ], [ 78.86774, 25.83613 ], [ 78.8643, 25.83594 ], [ 78.86209, 25.84274 ], [ 78.85141, 25.83846 ], [ 78.85177, 25.84602 ], [ 78.8506, 25.85218 ], [ 78.85131, 25.85423 ], [ 78.85565, 25.86086 ], [ 78.86195, 25.86556 ], [ 78.86411, 25.87141 ], [ 78.86888, 25.87247 ], [ 78.87306, 25.87514 ], [ 78.87622, 25.87588 ], [ 78.88738, 25.86849 ], [ 78.89013, 25.87451 ], [ 78.89168, 25.88024 ], [ 78.88672, 25.88292 ], [ 78.88698, 25.88471 ], [ 78.89198, 25.89135 ], [ 78.89268, 25.89365 ], [ 78.89404, 25.89337 ], [ 78.89481, 25.89517 ], [ 78.89115, 25.89715 ], [ 78.88845, 25.90422 ], [ 78.88656, 25.90687 ], [ 78.88489, 25.90739 ], [ 78.88337, 25.90901 ], [ 78.88416, 25.91303 ], [ 78.88607, 25.91534 ], [ 78.88729, 25.91459 ], [ 78.89859, 25.91794 ], [ 78.90566, 25.92562 ], [ 78.90576, 25.92953 ], [ 78.90969, 25.93153 ], [ 78.90825, 25.9345 ], [ 78.91569, 25.93798 ], [ 78.91671, 25.94005 ], [ 78.92154, 25.94065 ], [ 78.92665, 25.94677 ], [ 78.92856, 25.94755 ], [ 78.93207, 25.94745 ], [ 78.93575, 25.94206 ], [ 78.93689, 25.94162 ], [ 78.93896, 25.94269 ], [ 78.939, 25.94401 ], [ 78.93691, 25.94461 ], [ 78.93329, 25.94818 ], [ 78.93449, 25.95041 ], [ 78.93711, 25.95276 ], [ 78.93945, 25.95113 ], [ 78.94763, 25.95017 ], [ 78.96905, 25.93567 ], [ 78.96955, 25.93739 ], [ 78.97725, 25.94661 ], [ 78.99381, 25.93995 ], [ 78.99359, 25.93947 ], [ 79.00605, 25.93282 ], [ 79.01354, 25.93616 ], [ 79.01922, 25.93996 ], [ 79.02635, 25.93563 ], [ 79.02708, 25.93674 ], [ 79.02867, 25.93634 ], [ 79.03003, 25.93723 ], [ 79.03737, 25.93658 ], [ 79.04246, 25.93318 ], [ 79.04621, 25.92854 ], [ 79.05524, 25.92674 ], [ 79.05634, 25.92535 ], [ 79.06846, 25.92124 ], [ 79.06941, 25.92164 ], [ 79.08238, 25.91897 ], [ 79.08255, 25.91774 ], [ 79.08435, 25.91709 ], [ 79.07953, 25.90462 ], [ 79.06823, 25.90706 ], [ 79.06521, 25.90681 ], [ 79.06442, 25.90587 ], [ 79.06078, 25.90607 ], [ 79.05776, 25.90758 ], [ 79.05546, 25.90723 ], [ 79.05376, 25.90327 ], [ 79.05461, 25.90201 ], [ 79.05397, 25.89733 ], [ 79.05481, 25.89696 ], [ 79.0549, 25.89394 ], [ 79.05263, 25.89223 ], [ 79.04496, 25.89659 ], [ 79.04542, 25.89856 ], [ 79.0468, 25.89996 ], [ 79.04627, 25.90021 ], [ 79.04384, 25.9003 ], [ 79.04284, 25.89961 ], [ 79.03143, 25.90403 ], [ 79.02864, 25.89981 ], [ 79.03207, 25.89832 ], [ 79.03159, 25.89532 ], [ 79.03338, 25.89404 ], [ 79.03148, 25.89022 ], [ 79.03432, 25.88817 ], [ 79.03295, 25.88585 ], [ 79.03657, 25.88443 ], [ 79.03626, 25.88338 ], [ 79.03831, 25.88269 ], [ 79.0381, 25.88172 ], [ 79.03943, 25.88181 ], [ 79.03987, 25.88272 ], [ 79.04192, 25.88161 ], [ 79.04334, 25.87936 ], [ 79.04328, 25.87659 ], [ 79.04185, 25.87245 ], [ 79.03846, 25.86823 ], [ 79.05345, 25.85962 ], [ 79.06533, 25.8558 ], [ 79.06583, 25.85712 ], [ 79.06747, 25.85774 ], [ 79.06848, 25.86008 ], [ 79.07511, 25.85929 ], [ 79.07637, 25.86254 ], [ 79.0772, 25.86625 ], [ 79.07184, 25.86767 ], [ 79.07176, 25.87121 ], [ 79.07236, 25.87147 ], [ 79.07201, 25.8738 ], [ 79.07316, 25.87931 ], [ 79.07648, 25.88558 ], [ 79.07591, 25.88632 ], [ 79.07763, 25.89015 ], [ 79.08732, 25.88667 ], [ 79.08848, 25.8877 ], [ 79.09129, 25.88781 ], [ 79.09167, 25.88887 ], [ 79.10095, 25.88839 ], [ 79.10378, 25.89178 ], [ 79.10514, 25.89139 ], [ 79.10545, 25.89215 ], [ 79.1072, 25.89121 ], [ 79.10539, 25.88377 ], [ 79.1056, 25.87615 ], [ 79.09975, 25.86597 ], [ 79.09712, 25.86654 ], [ 79.09615, 25.86243 ], [ 79.09731, 25.86183 ], [ 79.09735, 25.861 ], [ 79.10139, 25.86001 ], [ 79.10242, 25.85558 ], [ 79.10573, 25.85525 ], [ 79.10906, 25.85573 ], [ 79.11095, 25.85713 ], [ 79.11497, 25.85739 ], [ 79.11786, 25.86623 ], [ 79.12663, 25.86392 ], [ 79.12055, 25.84794 ], [ 79.12548, 25.84628 ], [ 79.12199, 25.83219 ], [ 79.11973, 25.82877 ], [ 79.11519, 25.82422 ], [ 79.10777, 25.82558 ], [ 79.10154, 25.82546 ], [ 79.09742, 25.82458 ] ] ] } },
{ "type": "Feature", "properties": { "OBJECTID": 2733, "state_lgd": "09", "state_name": "UTTAR PRADESH", "district_lgd": "166", "district_name": "JHANSI", "district_name_source": "district_table", "subdistrict_lgd": "858", "subdistrict_name": "TAHRAULI", "subdistrict_type": "Tehsil", "name_corrupted": false, "remarks": "", "label_lon": 79.060841971095812, "label_lat": 25.532686500974037 }, "geometry": { "type": "MultiPolygon", "coordinates": [ [ [ [ 78.87487, 25.5534 ], [ 78.87985, 25.55193 ], [ 78.87692, 25.54846 ], [ 78.8743, 25.54095 ], [ 78.87791, 25.53681 ], [ 78.88644, 25.53243 ], [ 78.88706, 25.52684 ], [ 78.88503, 25.52149 ], [ 78.88432, 25.51724 ], [ 78.88509, 25.51681 ], [ 78.88438, 25.51558 ], [ 78.87611, 25.51747 ], [ 78.87107, 25.5132 ], [ 78.86908, 25.51369 ], [ 78.86648, 25.51205 ], [ 78.86582, 25.51292 ], [ 78.85216, 25.51387 ], [ 78.84851, 25.51269 ], [ 78.84751, 25.51341 ], [ 78.84154, 25.51254 ], [ 78.83984, 25.51157 ], [ 78.83886, 25.50919 ], [ 78.83496, 25.50582 ], [ 78.83313, 25.50153 ], [ 78.83282, 25.4995 ], [ 78.83715, 25.49989 ], [ 78.84232, 25.49891 ], [ 78.84246, 25.49797 ], [ 78.84086, 25.49783 ], [ 78.84019, 25.49336 ], [ 78.84309, 25.49224 ], [ 78.84479, 25.49295 ], [ 78.85436, 25.49001 ], [ 78.85457, 25.48874 ], [ 78.85565, 25.48837 ], [ 78.85469, 25.48751 ], [ 78.85541, 25.48667 ], [ 78.85536, 25.48447 ], [ 78.85744, 25.48424 ], [ 78.85887, 25.48031 ], [ 78.8603, 25.47925 ], [ 78.86031, 25.47126 ], [ 78.86173, 25.47058 ], [ 78.8629, 25.4685 ], [ 78.86442, 25.46834 ], [ 78.86511, 25.46637 ], [ 78.86617, 25.46567 ], [ 78.86501, 25.46163 ], [ 78.86547, 25.45894 ], [ 78.86298, 25.45614 ], [ 78.86388, 25.45124 ], [ 78.86209, 25.44937 ], [ 78.8607, 25.445 ], [ 78.85651, 25.44668 ], [ 78.85553, 25.44427 ], [ 78.84891, 25.43727 ], [ 78.84806, 25.43501 ], [ 78.84807, 25.42974 ], [ 78.84656, 25.42869 ], [ 78.84361, 25.42766 ], [ 78.83782, 25.42797 ], [ 78.83656, 25.42906 ], [ 78.8328, 25.42991 ], [ 78.83163, 25.43157 ], [ 78.82802, 25.42825 ], [ 78.82575, 25.43046 ], [ 78.82357, 25.43134 ], [ 78.82433, 25.4342 ], [ 78.82072, 25.43869 ], [ 78.82149, 25.44055 ], [ 78.82338, 25.44155 ], [ 78.8234, 25.44261 ], [ 78.82503, 25.44216 ], [ 78.82576, 25.44335 ], [ 78.82708, 25.44237 ], [ 78.82917, 25.4435 ], [ 78.834, 25.44329 ], [ 78.84046, 25.4417 ], [ 78.84184, 25.44382 ], [ 78.84563, 25.44331 ], [ 78.84826, 25.44595 ], [ 78.85207, 25.44549 ], [ 78.85489, 25.44769 ], [ 78.85319, 25.44918 ], [ 78.84976, 25.44912 ], [ 78.83518, 25.45479 ], [ 78.84089, 25.4615 ], [ 78.8392, 25.46196 ], [ 78.83123, 25.46118 ], [ 78.82061, 25.46774 ], [ 78.81593, 25.46176 ], [ 78.81574, 25.4591 ], [ 78.81427, 25.45614 ], [ 78.81248, 25.4566 ], [ 78.80917, 25.45341 ], [ 78.80638, 25.45447 ], [ 78.80966, 25.45868 ], [ 78.81046, 25.46142 ], [ 78.81136, 25.4614 ], [ 78.81577, 25.46635 ], [ 78.81797, 25.46751 ], [ 78.8179, 25.46896 ], [ 78.81891, 25.46953 ], [ 78.81869, 25.47098 ], [ 78.81825, 25.47165 ], [ 78.8051, 25.47533 ], [ 78.79669, 25.48276 ], [ 78.79094, 25.48337 ], [ 78.78784, 25.48126 ], [ 78.78681, 25.4795 ], [ 78.78073, 25.47971 ], [ 78.77632, 25.4784 ], [ 78.77493, 25.47611 ], [ 78.7728, 25.47627 ], [ 78.77216, 25.47404 ], [ 78.77137, 25.47409 ], [ 78.77104, 25.47191 ], [ 78.76783, 25.46943 ], [ 78.76538, 25.47121 ], [ 78.76167, 25.4723 ], [ 78.76046, 25.47437 ], [ 78.75821, 25.47553 ], [ 78.75731, 25.47819 ], [ 78.75622, 25.4786 ], [ 78.7572, 25.48069 ], [ 78.75397, 25.4825 ], [ 78.7523, 25.4829 ], [ 78.75202, 25.48229 ], [ 78.75074, 25.48331 ], [ 78.75, 25.48277 ], [ 78.74733, 25.48476 ], [ 78.74784, 25.4887 ], [ 78.74631, 25.48942 ], [ 78.74764, 25.4913 ], [ 78.74661, 25.49172 ], [ 78.74772, 25.49334 ], [ 78.74732, 25.49461 ], [ 78.74541, 25.49582 ], [ 78.74627, 25.49662 ], [ 78.74269, 25.4987 ], [ 78.75274, 25.50423 ], [ 78.75682, 25.50485 ], [ 78.76021, 25.50417 ], [ 78.77272, 25.50715 ], [ 78.77967, 25.50074 ], [ 78.79017, 25.50058 ], [ 78.77795, 25.50963 ], [ 78.78095, 25.51196 ], [ 78.78272, 25.51485 ], [ 78.78204, 25.51711 ], [ 78.78972, 25.51476 ], [ 78.79637, 25.52251 ], [ 78.80216, 25.52555 ], [ 78.80343, 25.52589 ], [ 78.8054, 25.52411 ], [ 78.81046, 25.52171 ], [ 78.8088, 25.5197 ], [ 78.81008, 25.51882 ], [ 78.81469, 25.51675 ], [ 78.81946, 25.51584 ], [ 78.82256, 25.51617 ], [ 78.82615, 25.51803 ], [ 78.8307, 25.52211 ], [ 78.82905, 25.52457 ], [ 78.83213, 25.52641 ], [ 78.83215, 25.52844 ], [ 78.83803, 25.53024 ], [ 78.84308, 25.53083 ], [ 78.84852, 25.52995 ], [ 78.84955, 25.52931 ], [ 78.8484, 25.52547 ], [ 78.8548, 25.5236 ], [ 78.86584, 25.52672 ], [ 78.86841, 25.52978 ], [ 78.86486, 25.53319 ], [ 78.86827, 25.53644 ], [ 78.86347, 25.53646 ], [ 78.86275, 25.54015 ], [ 78.85732, 25.5354 ], [ 78.85629, 25.53538 ], [ 78.8565, 25.53949 ], [ 78.8558, 25.54013 ], [ 78.85367, 25.53901 ], [ 78.85678, 25.54715 ], [ 78.85969, 25.55015 ], [ 78.8612, 25.55315 ], [ 78.86808, 25.55258 ], [ 78.87071, 25.5528 ], [ 78.87135, 25.55355 ], [ 78.87487, 25.5534 ] ] ], [ [ [ 79.03185, 25.70417 ], [ 79.04064, 25.70128 ], [ 79.05426, 25.69186 ], [ 79.05419, 25.68706 ], [ 79.053, 25.68561 ], [ 79.05903, 25.68575 ], [ 79.06366, 25.68433 ], [ 79.07071, 25.69398 ], [ 79.07436, 25.69297 ], [ 79.08765, 25.68144 ], [ 79.09023, 25.68027 ], [ 79.0921, 25.68023 ], [ 79.11017, 25.68678 ], [ 79.11904, 25.68716 ], [ 79.12374, 25.68892 ], [ 79.12867, 25.67561 ], [ 79.1295, 25.67191 ], [ 79.12934, 25.668 ], [ 79.11971, 25.66045 ], [ 79.12604, 25.65784 ], [ 79.13871, 25.65445 ], [ 79.13887, 25.6526 ], [ 79.13417, 25.64517 ], [ 79.14188, 25.64198 ], [ 79.1417, 25.63372 ], [ 79.14302, 25.62766 ], [ 79.13739, 25.62761 ], [ 79.13639, 25.62149 ], [ 79.13768, 25.62123 ], [ 79.1371, 25.62008 ], [ 79.13484, 25.62014 ], [ 79.13441, 25.61938 ], [ 79.1318, 25.62059 ], [ 79.13116, 25.6195 ], [ 79.12954, 25.62117 ], [ 79.12736, 25.62076 ], [ 79.12644, 25.61235 ], [ 79.12327, 25.60847 ], [ 79.12107, 25.60278 ], [ 79.12712, 25.59916 ], [ 79.14317, 25.58531 ], [ 79.14945, 25.58395 ], [ 79.16968, 25.59096 ], [ 79.16504, 25.57985 ], [ 79.18074, 25.57351 ], [ 79.18209, 25.56481 ], [ 79.1848, 25.55918 ], [ 79.18471, 25.55743 ], [ 79.17522, 25.54861 ], [ 79.17976, 25.54338 ], [ 79.186, 25.53913 ], [ 79.18645, 25.53602 ], [ 79.20186, 25.52552 ], [ 79.21068, 25.52148 ], [ 79.21361, 25.51672 ], [ 79.21838, 25.51704 ], [ 79.22192, 25.51867 ], [ 79.22207, 25.51109 ], [ 79.22667, 25.50035 ], [ 79.2223, 25.49429 ], [ 79.22171, 25.48679 ], [ 79.22262, 25.48577 ], [ 79.22728, 25.48664 ], [ 79.22905, 25.48423 ], [ 79.23119, 25.48309 ], [ 79.23147, 25.48163 ], [ 79.22499, 25.47745 ], [ 79.22424, 25.47469 ], [ 79.22711, 25.47145 ], [ 79.22702, 25.47006 ], [ 79.22603, 25.46842 ], [ 79.22322, 25.46663 ], [ 79.22137, 25.45656 ], [ 79.2182, 25.45386 ], [ 79.21855, 25.45105 ], [ 79.21614, 25.44846 ], [ 79.21603, 25.44378 ], [ 79.212, 25.44116 ], [ 79.21134, 25.43783 ], [ 79.20884, 25.43564 ], [ 79.20806, 25.43281 ], [ 79.20851, 25.42929 ], [ 79.20445, 25.43023 ], [ 79.20399, 25.42968 ], [ 79.20486, 25.42713 ], [ 79.20389, 25.42677 ], [ 79.19937, 25.42782 ], [ 79.19924, 25.42574 ], [ 79.19789, 25.42412 ], [ 79.19915, 25.42374 ], [ 79.19938, 25.42189 ], [ 79.19183, 25.41313 ], [ 79.19126, 25.41184 ], [ 79.19346, 25.41032 ], [ 79.19791, 25.4093 ], [ 79.19363, 25.40573 ], [ 79.19167, 25.40516 ], [ 79.18823, 25.40115 ], [ 79.17798, 25.3979 ], [ 79.17561, 25.39973 ], [ 79.16354, 25.40126 ], [ 79.16093, 25.39862 ], [ 79.15578, 25.39599 ], [ 79.1537, 25.39585 ], [ 79.15068, 25.39815 ], [ 79.15726, 25.40806 ], [ 79.15854, 25.41128 ], [ 79.15718, 25.41258 ], [ 79.15893, 25.41636 ], [ 79.15305, 25.41909 ], [ 79.1525, 25.41811 ], [ 79.15105, 25.41851 ], [ 79.15048, 25.41754 ], [ 79.14859, 25.41771 ], [ 79.1472, 25.41495 ], [ 79.1456, 25.41527 ], [ 79.14534, 25.41615 ], [ 79.1443, 25.41617 ], [ 79.14333, 25.41929 ], [ 79.14075, 25.41892 ], [ 79.13855, 25.42163 ], [ 79.13509, 25.42324 ], [ 79.13433, 25.4228 ], [ 79.13175, 25.42439 ], [ 79.12535, 25.42512 ], [ 79.10196, 25.43151 ], [ 79.09746, 25.4366 ], [ 79.09744, 25.4381 ], [ 79.09517, 25.44241 ], [ 79.09272, 25.4447 ], [ 79.08911, 25.44276 ], [ 79.09165, 25.43707 ], [ 79.09011, 25.4333 ], [ 79.09312, 25.43092 ], [ 79.08369, 25.4158 ], [ 79.08017, 25.41659 ], [ 79.07962, 25.41769 ], [ 79.07771, 25.41557 ], [ 79.07617, 25.41621 ], [ 79.07684, 25.4178 ], [ 79.07293, 25.41869 ], [ 79.07267, 25.41623 ], [ 79.06507, 25.41638 ], [ 79.06326, 25.41496 ], [ 79.06275, 25.41575 ], [ 79.05538, 25.4183 ], [ 79.05052, 25.41332 ], [ 79.04666, 25.40343 ], [ 79.04779, 25.4001 ], [ 79.04412, 25.39301 ], [ 79.0454, 25.39232 ], [ 79.04508, 25.39056 ], [ 79.04769, 25.38813 ], [ 79.04471, 25.38197 ], [ 79.03655, 25.38258 ], [ 79.03673, 25.38761 ], [ 79.03168, 25.38838 ], [ 79.02747, 25.39093 ], [ 79.02909, 25.39344 ], [ 79.02459, 25.39967 ], [ 79.02064, 25.40134 ], [ 79.02023, 25.40049 ], [ 79.00674, 25.40271 ], [ 79.00304, 25.40217 ], [ 79.00171, 25.39517 ], [ 78.99476, 25.38572 ], [ 78.99373, 25.37978 ], [ 78.99485, 25.3753 ], [ 78.99874, 25.36959 ], [ 79.00226, 25.3671 ], [ 78.99938, 25.36172 ], [ 78.99861, 25.36331 ], [ 78.9906, 25.36633 ], [ 78.98896, 25.36879 ], [ 78.98255, 25.37059 ], [ 78.98454, 25.37091 ], [ 78.98651, 25.37322 ], [ 78.98933, 25.37404 ], [ 78.98619, 25.37807 ], [ 78.9875, 25.38129 ], [ 78.98355, 25.38236 ], [ 78.98361, 25.38349 ], [ 78.97926, 25.38548 ], [ 78.97526, 25.38633 ], [ 78.96993, 25.39011 ], [ 78.97133, 25.39298 ], [ 78.9733, 25.39418 ], [ 78.9738, 25.39789 ], [ 78.97204, 25.40298 ], [ 78.96955, 25.40319 ], [ 78.96846, 25.40467 ], [ 78.97094, 25.40772 ], [ 78.97199, 25.4116 ], [ 78.97477, 25.41553 ], [ 78.97624, 25.41996 ], [ 78.96999, 25.42323 ], [ 78.96901, 25.4275 ], [ 78.96974, 25.43166 ], [ 78.967, 25.43462 ], [ 78.9603, 25.43716 ], [ 78.95942, 25.43924 ], [ 78.958, 25.44028 ], [ 78.95484, 25.4394 ], [ 78.95373, 25.43989 ], [ 78.95349, 25.43901 ], [ 78.95094, 25.44055 ], [ 78.95037, 25.43733 ], [ 78.94828, 25.43734 ], [ 78.94678, 25.43594 ], [ 78.93827, 25.42225 ], [ 78.93245, 25.42404 ], [ 78.93265, 25.42691 ], [ 78.93151, 25.42756 ], [ 78.93283, 25.42918 ], [ 78.93264, 25.4303 ], [ 78.92769, 25.43202 ], [ 78.92539, 25.43157 ], [ 78.92165, 25.43242 ], [ 78.9143, 25.43839 ], [ 78.91227, 25.43895 ], [ 78.91315, 25.43959 ], [ 78.91147, 25.44133 ], [ 78.90887, 25.44242 ], [ 78.90897, 25.44508 ], [ 78.91541, 25.44626 ], [ 78.92018, 25.45178 ], [ 78.92351, 25.45384 ], [ 78.92522, 25.45712 ], [ 78.92399, 25.45949 ], [ 78.93602, 25.46161 ], [ 78.94391, 25.48293 ], [ 78.92885, 25.48996 ], [ 78.92681, 25.48996 ], [ 78.92698, 25.49185 ], [ 78.93719, 25.48933 ], [ 78.93937, 25.48983 ], [ 78.94224, 25.49213 ], [ 78.9402, 25.49333 ], [ 78.94109, 25.49503 ], [ 78.93676, 25.49542 ], [ 78.933, 25.49936 ], [ 78.93332, 25.50233 ], [ 78.93499, 25.50526 ], [ 78.92947, 25.50748 ], [ 78.92712, 25.5074 ], [ 78.92053, 25.5137 ], [ 78.91997, 25.51559 ], [ 78.92052, 25.51618 ], [ 78.92244, 25.51567 ], [ 78.9272, 25.52498 ], [ 78.92899, 25.52471 ], [ 78.93063, 25.52264 ], [ 78.93642, 25.51979 ], [ 78.94685, 25.52946 ], [ 78.95285, 25.53753 ], [ 78.94755, 25.54086 ], [ 78.95118, 25.54586 ], [ 78.95179, 25.54879 ], [ 78.94861, 25.55033 ], [ 78.94787, 25.55195 ], [ 78.94638, 25.55188 ], [ 78.9433, 25.55378 ], [ 78.94413, 25.55627 ], [ 78.93937, 25.55722 ], [ 78.9331, 25.55534 ], [ 78.93087, 25.5509 ], [ 78.92828, 25.55022 ], [ 78.92337, 25.53594 ], [ 78.921, 25.5373 ], [ 78.91864, 25.54331 ], [ 78.91618, 25.54627 ], [ 78.91773, 25.54973 ], [ 78.91711, 25.55229 ], [ 78.91242, 25.55351 ], [ 78.9112, 25.55516 ], [ 78.91512, 25.55823 ], [ 78.91779, 25.56208 ], [ 78.91929, 25.57259 ], [ 78.91758, 25.57607 ], [ 78.91733, 25.57995 ], [ 78.9107, 25.59171 ], [ 78.91501, 25.60254 ], [ 78.92526, 25.60468 ], [ 78.92737, 25.60766 ], [ 78.9295, 25.60856 ], [ 78.93532, 25.60796 ], [ 78.93683, 25.60979 ], [ 78.94023, 25.61077 ], [ 78.94579, 25.61605 ], [ 78.95073, 25.62281 ], [ 78.95284, 25.6329 ], [ 78.95485, 25.63827 ], [ 78.95852, 25.64162 ], [ 78.96407, 25.64418 ], [ 78.97455, 25.64631 ], [ 78.97632, 25.64825 ], [ 78.98309, 25.6507 ], [ 78.98637, 25.65413 ], [ 78.98628, 25.65663 ], [ 78.99227, 25.6609 ], [ 78.99144, 25.66196 ], [ 78.99178, 25.66453 ], [ 78.9937, 25.6679 ], [ 78.99736, 25.6694 ], [ 79.00491, 25.66925 ], [ 79.00782, 25.67074 ], [ 79.00888, 25.67282 ], [ 79.00858, 25.67738 ], [ 79.01153, 25.67676 ], [ 79.01269, 25.67755 ], [ 79.01261, 25.6855 ], [ 79.01455, 25.69898 ], [ 79.01889, 25.70517 ], [ 79.03185, 25.70417 ] ], [ [ 79.05399, 25.44167 ], [ 79.05408, 25.43802 ], [ 79.05052, 25.43668 ], [ 79.04932, 25.43405 ], [ 79.0572, 25.42825 ], [ 79.06112, 25.42728 ], [ 79.06341, 25.43063 ], [ 79.0632, 25.43227 ], [ 79.06617, 25.43546 ], [ 79.06699, 25.43794 ], [ 79.06513, 25.44535 ], [ 79.06222, 25.4458 ], [ 79.06127, 25.44406 ], [ 79.05957, 25.44313 ], [ 79.05479, 25.44229 ], [ 79.05399, 25.44167 ] ] ] ] } }
]
}
