{
"type": "FeatureCollection",
"name": "167_LALITPUR",
"crs": { "type": "name", "properties": { "name": "urn:ogc:def:crs:OGC:1.3:CRS84" } },
"xy_coordinate_resolution": 1e-05,
"features": [
{ "type": "Feature", "properties": { "OBJECTID": 2591, "state_lgd": "09", "state_name": "UTTAR PRADESH", "district_lgd": "167", "district_name": "LALITPUR", "district_name_source": "district_table", "subdistrict_lgd": "862", "subdistrict_name": "LALITPUR", "subdistrict_type": "Tehsil", "name_corrupted": false, "remarks": "", "label_lon": 78.390150849564918, "label_lat": 24.672092352965421 }, "geometry": { "type": "Polygon", "coordinates": [ [ [ 78.33554, 24.93471 ], [ 78.33614, 24.92971 ], [ 78.32881, 24.92241 ], [ 78.32165, 24.91623 ], [ 78.31613, 24.91578 ], [ 78.31624, 24.91414 ], [ 78.31298, 24.90974 ], [ 78.31287, 24.90515 ], [ 78.31156, 24.90226 ], [ 78.31179, 24.89957 ], [ 78.30823, 24.89663 ], [ 78.3048, 24.89015 ], [ 78.30349, 24.8892 ], [ 78.3042, 24.88725 ], [ 78.30375, 24.88119 ], [ 78.30987, 24.88091 ], [ 78.311, 24.88153 ], [ 78.31304, 24.88092 ], [ 78.3212, 24.87478 ], [ 78.32286, 24.87237 ], [ 78.3194, 24.87056 ], [ 78.3157, 24.87056 ], [ 78.31436, 24.86388 ], [ 78.31242, 24.86182 ], [ 78.31244, 24.85819 ], [ 78.31116, 24.85551 ], [ 78.30794, 24.85237 ], [ 78.30923, 24.84593 ], [ 78.31684, 24.84199 ], [ 78.32359, 24.84427 ], [ 78.32651, 24.84444 ], [ 78.32795, 24.84323 ], [ 78.34128, 24.83976 ], [ 78.34184, 24.84015 ], [ 78.34005, 24.84379 ], [ 78.34042, 24.84577 ], [ 78.34168, 24.84711 ], [ 78.346, 24.84965 ], [ 78.351, 24.85014 ], [ 78.36801, 24.84423 ], [ 78.37658, 24.84375 ], [ 78.38503, 24.84113 ], [ 78.39621, 24.84765 ], [ 78.40102, 24.85399 ], [ 78.40137, 24.85773 ], [ 78.40275, 24.85941 ], [ 78.40373, 24.85852 ], [ 78.40465, 24.85333 ], [ 78.40551, 24.85233 ], [ 78.40953, 24.85285 ], [ 78.41211, 24.85469 ], [ 78.4177, 24.85524 ], [ 78.42074, 24.85634 ], [ 78.4227, 24.85523 ], [ 78.42304, 24.85421 ], [ 78.42898, 24.85428 ], [ 78.43279, 24.85594 ], [ 78.43466, 24.85844 ], [ 78.43506, 24.85399 ], [ 78.43876, 24.85321 ], [ 78.44418, 24.85339 ], [ 78.45214, 24.85693 ], [ 78.45391, 24.85694 ], [ 78.47002, 24.85274 ], [ 78.47299, 24.8499 ], [ 78.47658, 24.8491 ], [ 78.48988, 24.84257 ], [ 78.49024, 24.84085 ], [ 78.48887, 24.83792 ], [ 78.48095, 24.82836 ], [ 78.48111, 24.82523 ], [ 78.4801, 24.82148 ], [ 78.47518, 24.81537 ], [ 78.4741, 24.8105 ], [ 78.46963, 24.80508 ], [ 78.46833, 24.8001 ], [ 78.46535, 24.79767 ], [ 78.46307, 24.79419 ], [ 78.45972, 24.79262 ], [ 78.45883, 24.78996 ], [ 78.45668, 24.7877 ], [ 78.45822, 24.7874 ], [ 78.46324, 24.78182 ], [ 78.46561, 24.78139 ], [ 78.4692, 24.77724 ], [ 78.46893, 24.77575 ], [ 78.47299, 24.77253 ], [ 78.47727, 24.77507 ], [ 78.47774, 24.77649 ], [ 78.4797, 24.77661 ], [ 78.48204, 24.77812 ], [ 78.48296, 24.78032 ], [ 78.49789, 24.78012 ], [ 78.50604, 24.7822 ], [ 78.50722, 24.78375 ], [ 78.51152, 24.78295 ], [ 78.51193, 24.77832 ], [ 78.50968, 24.77192 ], [ 78.51156, 24.76704 ], [ 78.51143, 24.76359 ], [ 78.50499, 24.76304 ], [ 78.50327, 24.76003 ], [ 78.50171, 24.7586 ], [ 78.49853, 24.75766 ], [ 78.49808, 24.75601 ], [ 78.50251, 24.75337 ], [ 78.50591, 24.75332 ], [ 78.51193, 24.74945 ], [ 78.51289, 24.74965 ], [ 78.51513, 24.75312 ], [ 78.51738, 24.75807 ], [ 78.52076, 24.7614 ], [ 78.52547, 24.76804 ], [ 78.52807, 24.76985 ], [ 78.53151, 24.77007 ], [ 78.53349, 24.77132 ], [ 78.53664, 24.76476 ], [ 78.54535, 24.76156 ], [ 78.56056, 24.76157 ], [ 78.56893, 24.75674 ], [ 78.57034, 24.75358 ], [ 78.57832, 24.75626 ], [ 78.58033, 24.75852 ], [ 78.58192, 24.75812 ], [ 78.58298, 24.75644 ], [ 78.58498, 24.74844 ], [ 78.58641, 24.74807 ], [ 78.5886, 24.74897 ], [ 78.59013, 24.74783 ], [ 78.59358, 24.74297 ], [ 78.59511, 24.73637 ], [ 78.60194, 24.73301 ], [ 78.60429, 24.72687 ], [ 78.60425, 24.72437 ], [ 78.60109, 24.72161 ], [ 78.60088, 24.72033 ], [ 78.60491, 24.71395 ], [ 78.60432, 24.70999 ], [ 78.60499, 24.70627 ], [ 78.6071, 24.69936 ], [ 78.61089, 24.69495 ], [ 78.6117, 24.69144 ], [ 78.61113, 24.68925 ], [ 78.60854, 24.68632 ], [ 78.6115, 24.68318 ], [ 78.61122, 24.67932 ], [ 78.60894, 24.67568 ], [ 78.61138, 24.65562 ], [ 78.61342, 24.65355 ], [ 78.61113, 24.65144 ], [ 78.61237, 24.64838 ], [ 78.61485, 24.64813 ], [ 78.6158, 24.64326 ], [ 78.62027, 24.63519 ], [ 78.62359, 24.62411 ], [ 78.62504, 24.61381 ], [ 78.6238, 24.60829 ], [ 78.62192, 24.60727 ], [ 78.62184, 24.60236 ], [ 78.61795, 24.59885 ], [ 78.61715, 24.59644 ], [ 78.6149, 24.59396 ], [ 78.61324, 24.58855 ], [ 78.60605, 24.58497 ], [ 78.60485, 24.58189 ], [ 78.60168, 24.57798 ], [ 78.60113, 24.57405 ], [ 78.60375, 24.56897 ], [ 78.60386, 24.56697 ], [ 78.60271, 24.55593 ], [ 78.60123, 24.55218 ], [ 78.59814, 24.55035 ], [ 78.59527, 24.55191 ], [ 78.59389, 24.55151 ], [ 78.59243, 24.55008 ], [ 78.592, 24.54807 ], [ 78.56765, 24.55243 ], [ 78.55596, 24.538 ], [ 78.53246, 24.54065 ], [ 78.5229, 24.53585 ], [ 78.51814, 24.54153 ], [ 78.51963, 24.54871 ], [ 78.52903, 24.567 ], [ 78.52988, 24.57069 ], [ 78.5022, 24.56715 ], [ 78.50715, 24.54531 ], [ 78.49866, 24.5372 ], [ 78.49554, 24.53298 ], [ 78.49051, 24.52255 ], [ 78.4921, 24.51922 ], [ 78.48837, 24.51852 ], [ 78.48609, 24.51692 ], [ 78.48183, 24.51081 ], [ 78.47149, 24.512 ], [ 78.45887, 24.51504 ], [ 78.45581, 24.51491 ], [ 78.45052, 24.51308 ], [ 78.44308, 24.51359 ], [ 78.43523, 24.52508 ], [ 78.43087, 24.52438 ], [ 78.42302, 24.52753 ], [ 78.41662, 24.52765 ], [ 78.41184, 24.5321 ], [ 78.40459, 24.52655 ], [ 78.39974, 24.52455 ], [ 78.39264, 24.52512 ], [ 78.39128, 24.52572 ], [ 78.39141, 24.52653 ], [ 78.39011, 24.52766 ], [ 78.38822, 24.52607 ], [ 78.38113, 24.52625 ], [ 78.37564, 24.52765 ], [ 78.37656, 24.5224 ], [ 78.378, 24.52136 ], [ 78.37805, 24.5186 ], [ 78.37625, 24.51775 ], [ 78.36881, 24.52015 ], [ 78.35288, 24.52154 ], [ 78.35328, 24.5196 ], [ 78.3518, 24.51887 ], [ 78.35146, 24.51595 ], [ 78.34635, 24.51616 ], [ 78.34847, 24.5143 ], [ 78.34418, 24.51257 ], [ 78.34583, 24.51106 ], [ 78.34353, 24.51109 ], [ 78.34344, 24.50855 ], [ 78.34431, 24.50756 ], [ 78.34049, 24.50568 ], [ 78.3429, 24.50553 ], [ 78.34214, 24.50046 ], [ 78.34287, 24.49833 ], [ 78.34192, 24.49492 ], [ 78.3436, 24.49191 ], [ 78.34245, 24.48982 ], [ 78.33908, 24.48917 ], [ 78.339, 24.48789 ], [ 78.33719, 24.48617 ], [ 78.33741, 24.48522 ], [ 78.33936, 24.48244 ], [ 78.34427, 24.47992 ], [ 78.34899, 24.47975 ], [ 78.35313, 24.47846 ], [ 78.3538, 24.47508 ], [ 78.35638, 24.47648 ], [ 78.36045, 24.47524 ], [ 78.3614, 24.47276 ], [ 78.36339, 24.47238 ], [ 78.36522, 24.46988 ], [ 78.37674, 24.47177 ], [ 78.37801, 24.4704 ], [ 78.37848, 24.45958 ], [ 78.37982, 24.45799 ], [ 78.37574, 24.4548 ], [ 78.37431, 24.45175 ], [ 78.37101, 24.44977 ], [ 78.37136, 24.44641 ], [ 78.36866, 24.44008 ], [ 78.36086, 24.43518 ], [ 78.36204, 24.43475 ], [ 78.37059, 24.43717 ], [ 78.37051, 24.44017 ], [ 78.3731, 24.4476 ], [ 78.38125, 24.44989 ], [ 78.38299, 24.44904 ], [ 78.38217, 24.44404 ], [ 78.38129, 24.44288 ], [ 78.38218, 24.44121 ], [ 78.38216, 24.43303 ], [ 78.38089, 24.43154 ], [ 78.38392, 24.41748 ], [ 78.38652, 24.41856 ], [ 78.38725, 24.42059 ], [ 78.4084, 24.42917 ], [ 78.41249, 24.4298 ], [ 78.41765, 24.42909 ], [ 78.42537, 24.43049 ], [ 78.42955, 24.43011 ], [ 78.4307, 24.42902 ], [ 78.4324, 24.41579 ], [ 78.43086, 24.40392 ], [ 78.42822, 24.39373 ], [ 78.41587, 24.38466 ], [ 78.41352, 24.38183 ], [ 78.40211, 24.37374 ], [ 78.39139, 24.37188 ], [ 78.38939, 24.37287 ], [ 78.38935, 24.37422 ], [ 78.38552, 24.37627 ], [ 78.3839, 24.3755 ], [ 78.38304, 24.37625 ], [ 78.38444, 24.37825 ], [ 78.38217, 24.38107 ], [ 78.37879, 24.38231 ], [ 78.37645, 24.37989 ], [ 78.37218, 24.37728 ], [ 78.3699, 24.37683 ], [ 78.36722, 24.38031 ], [ 78.36619, 24.38521 ], [ 78.36494, 24.38648 ], [ 78.3562, 24.38543 ], [ 78.3489, 24.38744 ], [ 78.34491, 24.39387 ], [ 78.34385, 24.39914 ], [ 78.34075, 24.40207 ], [ 78.33779, 24.4038 ], [ 78.33092, 24.4047 ], [ 78.32189, 24.4088 ], [ 78.31895, 24.41123 ], [ 78.31624, 24.4154 ], [ 78.3106, 24.41898 ], [ 78.307, 24.42309 ], [ 78.3006, 24.42751 ], [ 78.29145, 24.43218 ], [ 78.28297, 24.43859 ], [ 78.26969, 24.44694 ], [ 78.26452, 24.4531 ], [ 78.26416, 24.4557 ], [ 78.26704, 24.46006 ], [ 78.27379, 24.46723 ], [ 78.27548, 24.47118 ], [ 78.27498, 24.47392 ], [ 78.27109, 24.47746 ], [ 78.26802, 24.47904 ], [ 78.24957, 24.48358 ], [ 78.24589, 24.48614 ], [ 78.24406, 24.48905 ], [ 78.24773, 24.5026 ], [ 78.24759, 24.5055 ], [ 78.24602, 24.50954 ], [ 78.24443, 24.51142 ], [ 78.23683, 24.51271 ], [ 78.23321, 24.51408 ], [ 78.22809, 24.51738 ], [ 78.22582, 24.52011 ], [ 78.22506, 24.52323 ], [ 78.22574, 24.53054 ], [ 78.22694, 24.53469 ], [ 78.22944, 24.53753 ], [ 78.24351, 24.5442 ], [ 78.2561, 24.54714 ], [ 78.26321, 24.55059 ], [ 78.26447, 24.5522 ], [ 78.26646, 24.55939 ], [ 78.26482, 24.5675 ], [ 78.26733, 24.57595 ], [ 78.27196, 24.57808 ], [ 78.27289, 24.57941 ], [ 78.27231, 24.58303 ], [ 78.2733, 24.59576 ], [ 78.27798, 24.61164 ], [ 78.27799, 24.61458 ], [ 78.27618, 24.61948 ], [ 78.26744, 24.62801 ], [ 78.26475, 24.63257 ], [ 78.26275, 24.64116 ], [ 78.26267, 24.646 ], [ 78.26405, 24.6511 ], [ 78.27522, 24.65818 ], [ 78.27677, 24.66108 ], [ 78.2767, 24.66299 ], [ 78.26534, 24.67934 ], [ 78.25752, 24.70417 ], [ 78.25034, 24.71148 ], [ 78.23242, 24.73603 ], [ 78.22614, 24.74691 ], [ 78.22531, 24.74968 ], [ 78.22557, 24.75303 ], [ 78.23178, 24.76236 ], [ 78.23505, 24.76381 ], [ 78.23574, 24.77175 ], [ 78.23451, 24.77438 ], [ 78.23175, 24.77714 ], [ 78.23122, 24.77999 ], [ 78.22799, 24.7844 ], [ 78.21668, 24.80859 ], [ 78.20403, 24.8244 ], [ 78.20232, 24.82764 ], [ 78.20103, 24.83415 ], [ 78.1976, 24.83978 ], [ 78.19347, 24.84252 ], [ 78.17751, 24.84333 ], [ 78.17327, 24.84669 ], [ 78.17039, 24.85524 ], [ 78.16897, 24.86262 ], [ 78.16906, 24.86934 ], [ 78.17097, 24.87527 ], [ 78.17351, 24.87864 ], [ 78.19495, 24.88943 ], [ 78.21059, 24.89481 ], [ 78.21899, 24.90938 ], [ 78.22381, 24.91531 ], [ 78.23546, 24.92172 ], [ 78.2474, 24.92962 ], [ 78.2494, 24.92987 ], [ 78.255, 24.93598 ], [ 78.26128, 24.93921 ], [ 78.26535, 24.94058 ], [ 78.27177, 24.93981 ], [ 78.27254, 24.93919 ], [ 78.27255, 24.9365 ], [ 78.27584, 24.93264 ], [ 78.27893, 24.92655 ], [ 78.28012, 24.92652 ], [ 78.28837, 24.93073 ], [ 78.29273, 24.93074 ], [ 78.2965, 24.92824 ], [ 78.29889, 24.92976 ], [ 78.29765, 24.93098 ], [ 78.29876, 24.93136 ], [ 78.30875, 24.93181 ], [ 78.30882, 24.93088 ], [ 78.31146, 24.93095 ], [ 78.31595, 24.9344 ], [ 78.31995, 24.93546 ], [ 78.32559, 24.94037 ], [ 78.33155, 24.9433 ], [ 78.33554, 24.93471 ] ] ] } },
{ "type": "Feature", "properties": { "OBJECTID": 2605, "state_lgd": "09", "state_name": "UTTAR PRADESH", "district_lgd": "167", "district_name": "LALITPUR", "district_name_source": "district_table", "subdistrict_lgd": "863", "subdistrict_name": "MAHRONI", "subdistrict_type": "Tehsil", "name_corrupted": false, "remarks": "", "label_lon": 78.737536612392901, "label_lat": 24.637916752679253 }, "geometry": { "type": "Polygon", "coordinates": [ [ [ 78.71297, 24.87934 ], [ 78.71589, 24.8798 ], [ 78.72007, 24.88184 ], [ 78.72217, 24.88166 ], [ 78.72912, 24.87895 ], [ 78.74676, 24.86522 ], [ 78.74825, 24.8653 ], [ 78.75277, 24.86888 ], [ 78.7539, 24.86883 ], [ 78.75822, 24.86395 ], [ 78.76147, 24.86191 ], [ 78.76219, 24.86002 ], [ 78.76384, 24.85928 ], [ 78.7678, 24.85988 ], [ 78.77004, 24.85902 ], [ 78.77477, 24.84975 ], [ 78.77357, 24.84094 ], [ 78.77593, 24.83072 ], [ 78.78117, 24.81932 ], [ 78.78384, 24.81565 ], [ 78.78826, 24.81287 ], [ 78.78993, 24.81044 ], [ 78.78941, 24.8069 ], [ 78.78688, 24.80114 ], [ 78.78467, 24.79991 ], [ 78.7818, 24.79956 ], [ 78.77564, 24.79567 ], [ 78.77407, 24.79439 ], [ 78.7704, 24.7884 ], [ 78.7728, 24.78257 ], [ 78.77035, 24.7747 ], [ 78.77135, 24.76883 ], [ 78.77, 24.75808 ], [ 78.77251, 24.75548 ], [ 78.77442, 24.75499 ], [ 78.7766, 24.75183 ], [ 78.7723, 24.74311 ], [ 78.77352, 24.73476 ], [ 78.77329, 24.73117 ], [ 78.77421, 24.72527 ], [ 78.7766, 24.71934 ], [ 78.77685, 24.71364 ], [ 78.78115, 24.70893 ], [ 78.781, 24.70608 ], [ 78.77795, 24.69948 ], [ 78.77354, 24.69662 ], [ 78.77098, 24.69141 ], [ 78.76364, 24.69048 ], [ 78.7637, 24.68689 ], [ 78.76522, 24.68087 ], [ 78.76411, 24.67636 ], [ 78.76147, 24.6709 ], [ 78.75879, 24.66904 ], [ 78.75474, 24.66915 ], [ 78.75085, 24.66613 ], [ 78.75051, 24.66419 ], [ 78.74677, 24.66268 ], [ 78.74719, 24.65651 ], [ 78.74599, 24.65452 ], [ 78.74393, 24.65406 ], [ 78.74411, 24.65303 ], [ 78.74567, 24.65301 ], [ 78.7454, 24.6516 ], [ 78.74737, 24.65049 ], [ 78.74708, 24.65193 ], [ 78.74863, 24.65106 ], [ 78.74919, 24.64817 ], [ 78.75064, 24.64856 ], [ 78.74948, 24.64676 ], [ 78.75196, 24.64241 ], [ 78.75001, 24.64185 ], [ 78.75142, 24.64073 ], [ 78.75046, 24.63987 ], [ 78.75069, 24.63787 ], [ 78.75216, 24.63706 ], [ 78.75107, 24.63612 ], [ 78.7527, 24.63401 ], [ 78.75208, 24.62688 ], [ 78.75289, 24.62337 ], [ 78.75208, 24.62192 ], [ 78.75482, 24.61992 ], [ 78.75425, 24.61878 ], [ 78.75179, 24.61844 ], [ 78.75109, 24.61721 ], [ 78.75239, 24.61513 ], [ 78.75136, 24.61342 ], [ 78.75271, 24.61185 ], [ 78.75221, 24.6107 ], [ 78.75382, 24.60821 ], [ 78.75457, 24.60382 ], [ 78.7537, 24.60174 ], [ 78.75197, 24.60083 ], [ 78.75244, 24.59948 ], [ 78.75706, 24.59893 ], [ 78.76933, 24.59417 ], [ 78.77657, 24.58874 ], [ 78.78304, 24.58843 ], [ 78.79162, 24.59247 ], [ 78.799, 24.59437 ], [ 78.80138, 24.59636 ], [ 78.8032, 24.59929 ], [ 78.80236, 24.60187 ], [ 78.80322, 24.60353 ], [ 78.80786, 24.60304 ], [ 78.81145, 24.60393 ], [ 78.81244, 24.6021 ], [ 78.81375, 24.60224 ], [ 78.81428, 24.60109 ], [ 78.81679, 24.60099 ], [ 78.82383, 24.60244 ], [ 78.82637, 24.6046 ], [ 78.83461, 24.60456 ], [ 78.83776, 24.6158 ], [ 78.8433, 24.62329 ], [ 78.84873, 24.62213 ], [ 78.85253, 24.62469 ], [ 78.85346, 24.62349 ], [ 78.85281, 24.622 ], [ 78.85477, 24.6207 ], [ 78.85555, 24.61785 ], [ 78.8571, 24.61874 ], [ 78.85717, 24.61755 ], [ 78.85976, 24.61764 ], [ 78.86135, 24.62128 ], [ 78.86447, 24.62406 ], [ 78.86623, 24.62743 ], [ 78.86689, 24.63399 ], [ 78.86861, 24.6368 ], [ 78.86802, 24.63999 ], [ 78.87447, 24.64178 ], [ 78.8749, 24.64074 ], [ 78.87705, 24.64081 ], [ 78.87721, 24.64221 ], [ 78.87847, 24.64114 ], [ 78.8801, 24.64225 ], [ 78.88311, 24.6414 ], [ 78.88231, 24.64041 ], [ 78.88356, 24.64003 ], [ 78.88444, 24.63793 ], [ 78.88636, 24.63737 ], [ 78.88633, 24.63566 ], [ 78.88555, 24.63495 ], [ 78.88769, 24.6334 ], [ 78.88732, 24.63245 ], [ 78.88898, 24.6322 ], [ 78.88866, 24.6311 ], [ 78.88999, 24.63114 ], [ 78.88941, 24.62962 ], [ 78.89126, 24.62946 ], [ 78.89148, 24.62846 ], [ 78.89218, 24.62928 ], [ 78.89471, 24.62599 ], [ 78.8962, 24.62572 ], [ 78.8948, 24.6213 ], [ 78.89555, 24.62079 ], [ 78.89657, 24.61602 ], [ 78.89745, 24.6159 ], [ 78.89701, 24.61479 ], [ 78.89915, 24.61425 ], [ 78.89865, 24.61221 ], [ 78.89981, 24.61088 ], [ 78.89919, 24.60952 ], [ 78.90061, 24.60722 ], [ 78.90207, 24.60779 ], [ 78.90206, 24.60616 ], [ 78.90328, 24.60613 ], [ 78.90608, 24.6037 ], [ 78.90802, 24.6037 ], [ 78.90939, 24.6025 ], [ 78.91003, 24.60297 ], [ 78.91114, 24.60012 ], [ 78.91257, 24.60017 ], [ 78.91346, 24.59512 ], [ 78.91185, 24.5945 ], [ 78.91278, 24.59404 ], [ 78.91262, 24.59074 ], [ 78.91436, 24.58715 ], [ 78.91442, 24.58472 ], [ 78.91656, 24.58216 ], [ 78.91772, 24.5786 ], [ 78.92005, 24.57495 ], [ 78.92323, 24.5735 ], [ 78.92493, 24.57499 ], [ 78.92765, 24.57113 ], [ 78.92751, 24.56933 ], [ 78.9292, 24.56573 ], [ 78.93227, 24.56366 ], [ 78.9338, 24.56396 ], [ 78.93502, 24.56076 ], [ 78.93979, 24.5586 ], [ 78.94645, 24.55715 ], [ 78.94722, 24.55496 ], [ 78.94834, 24.55425 ], [ 78.94692, 24.55181 ], [ 78.94711, 24.55071 ], [ 78.95321, 24.5469 ], [ 78.94815, 24.54414 ], [ 78.94523, 24.53934 ], [ 78.94368, 24.53451 ], [ 78.94648, 24.52585 ], [ 78.9501, 24.52165 ], [ 78.95132, 24.51878 ], [ 78.94804, 24.51515 ], [ 78.94849, 24.50866 ], [ 78.94725, 24.5024 ], [ 78.95705, 24.49876 ], [ 78.96561, 24.49792 ], [ 78.96943, 24.4947 ], [ 78.97152, 24.49424 ], [ 78.97044, 24.48922 ], [ 78.96347, 24.48353 ], [ 78.94127, 24.47909 ], [ 78.93622, 24.47942 ], [ 78.92722, 24.48207 ], [ 78.92792, 24.48433 ], [ 78.93425, 24.48897 ], [ 78.93591, 24.48896 ], [ 78.93734, 24.49075 ], [ 78.9318, 24.49138 ], [ 78.92995, 24.49341 ], [ 78.92719, 24.49452 ], [ 78.92465, 24.49983 ], [ 78.92058, 24.49972 ], [ 78.91973, 24.49834 ], [ 78.92013, 24.49729 ], [ 78.91785, 24.49624 ], [ 78.91739, 24.49517 ], [ 78.91401, 24.49461 ], [ 78.90834, 24.49099 ], [ 78.90505, 24.49233 ], [ 78.90381, 24.49382 ], [ 78.90001, 24.49587 ], [ 78.89526, 24.49778 ], [ 78.89106, 24.49827 ], [ 78.89201, 24.49669 ], [ 78.89215, 24.49149 ], [ 78.89552, 24.48815 ], [ 78.89349, 24.48798 ], [ 78.89061, 24.48638 ], [ 78.88894, 24.48663 ], [ 78.88745, 24.48465 ], [ 78.88759, 24.48071 ], [ 78.88503, 24.47663 ], [ 78.87774, 24.47666 ], [ 78.876, 24.47507 ], [ 78.87175, 24.47412 ], [ 78.87076, 24.47278 ], [ 78.87015, 24.46795 ], [ 78.87227, 24.46569 ], [ 78.87356, 24.46566 ], [ 78.87412, 24.46361 ], [ 78.87361, 24.46109 ], [ 78.87551, 24.45805 ], [ 78.87588, 24.45491 ], [ 78.87554, 24.45336 ], [ 78.874, 24.4538 ], [ 78.87057, 24.44603 ], [ 78.87031, 24.44456 ], [ 78.87168, 24.44239 ], [ 78.87136, 24.43549 ], [ 78.87363, 24.43428 ], [ 78.87085, 24.43077 ], [ 78.86956, 24.4276 ], [ 78.86875, 24.42029 ], [ 78.87173, 24.41615 ], [ 78.8741, 24.41477 ], [ 78.87675, 24.4144 ], [ 78.87659, 24.41387 ], [ 78.87278, 24.41441 ], [ 78.8673, 24.41291 ], [ 78.8641, 24.41298 ], [ 78.86242, 24.41197 ], [ 78.86268, 24.40678 ], [ 78.86459, 24.40142 ], [ 78.86455, 24.39913 ], [ 78.86304, 24.40048 ], [ 78.86128, 24.40037 ], [ 78.85869, 24.40255 ], [ 78.85776, 24.40494 ], [ 78.8565, 24.40501 ], [ 78.85658, 24.40644 ], [ 78.84914, 24.40688 ], [ 78.8478, 24.40798 ], [ 78.84711, 24.41 ], [ 78.84442, 24.41057 ], [ 78.84425, 24.41187 ], [ 78.84189, 24.41344 ], [ 78.83961, 24.41923 ], [ 78.83675, 24.42125 ], [ 78.83565, 24.4257 ], [ 78.83588, 24.42901 ], [ 78.83689, 24.4312 ], [ 78.83602, 24.4322 ], [ 78.83737, 24.43538 ], [ 78.8401, 24.43706 ], [ 78.84438, 24.43686 ], [ 78.84699, 24.4377 ], [ 78.84892, 24.43938 ], [ 78.85075, 24.43974 ], [ 78.85071, 24.44057 ], [ 78.85248, 24.44059 ], [ 78.84664, 24.44458 ], [ 78.84576, 24.44678 ], [ 78.84726, 24.44947 ], [ 78.84703, 24.45111 ], [ 78.842, 24.45427 ], [ 78.84206, 24.45638 ], [ 78.84637, 24.4624 ], [ 78.84341, 24.46334 ], [ 78.8395, 24.46295 ], [ 78.83314, 24.46588 ], [ 78.83577, 24.47131 ], [ 78.83586, 24.47641 ], [ 78.82448, 24.48199 ], [ 78.82456, 24.48523 ], [ 78.82023, 24.4877 ], [ 78.81957, 24.48905 ], [ 78.817, 24.49138 ], [ 78.81562, 24.49163 ], [ 78.8154, 24.49282 ], [ 78.81378, 24.49385 ], [ 78.81187, 24.49416 ], [ 78.81162, 24.49492 ], [ 78.80955, 24.49479 ], [ 78.80746, 24.49598 ], [ 78.80706, 24.49706 ], [ 78.80628, 24.49653 ], [ 78.80407, 24.49717 ], [ 78.80107, 24.49908 ], [ 78.79881, 24.49773 ], [ 78.79779, 24.49594 ], [ 78.79916, 24.49295 ], [ 78.79584, 24.49134 ], [ 78.79736, 24.48985 ], [ 78.79562, 24.48803 ], [ 78.79563, 24.48696 ], [ 78.79428, 24.48613 ], [ 78.79398, 24.4838 ], [ 78.79024, 24.48198 ], [ 78.78582, 24.478 ], [ 78.78065, 24.47742 ], [ 78.77837, 24.47557 ], [ 78.77462, 24.47499 ], [ 78.77353, 24.47557 ], [ 78.77147, 24.47404 ], [ 78.7722, 24.47845 ], [ 78.77852, 24.48953 ], [ 78.7769, 24.48932 ], [ 78.77546, 24.48756 ], [ 78.77333, 24.48688 ], [ 78.7727, 24.4874 ], [ 78.77087, 24.48576 ], [ 78.76626, 24.48471 ], [ 78.76504, 24.48664 ], [ 78.76138, 24.48956 ], [ 78.75826, 24.49006 ], [ 78.75818, 24.49114 ], [ 78.75649, 24.49201 ], [ 78.74863, 24.49238 ], [ 78.74721, 24.4921 ], [ 78.75462, 24.48796 ], [ 78.74324, 24.47368 ], [ 78.74129, 24.47415 ], [ 78.73797, 24.4727 ], [ 78.72679, 24.47452 ], [ 78.71244, 24.47385 ], [ 78.71048, 24.47541 ], [ 78.70766, 24.47598 ], [ 78.70829, 24.47962 ], [ 78.70567, 24.48228 ], [ 78.70545, 24.48366 ], [ 78.69854, 24.47587 ], [ 78.69358, 24.47278 ], [ 78.67864, 24.46731 ], [ 78.67549, 24.46293 ], [ 78.66672, 24.4638 ], [ 78.65723, 24.46584 ], [ 78.65345, 24.46699 ], [ 78.65147, 24.47029 ], [ 78.64995, 24.47681 ], [ 78.64783, 24.48068 ], [ 78.64333, 24.48419 ], [ 78.64142, 24.48767 ], [ 78.64254, 24.49007 ], [ 78.64115, 24.50192 ], [ 78.64244, 24.5045 ], [ 78.6425, 24.50714 ], [ 78.6398, 24.50926 ], [ 78.64079, 24.51455 ], [ 78.64022, 24.51725 ], [ 78.6419, 24.52098 ], [ 78.64146, 24.5229 ], [ 78.63811, 24.52529 ], [ 78.6345, 24.5255 ], [ 78.63196, 24.52692 ], [ 78.6303, 24.52646 ], [ 78.62863, 24.52738 ], [ 78.62711, 24.53161 ], [ 78.62556, 24.53259 ], [ 78.62311, 24.53299 ], [ 78.62015, 24.53223 ], [ 78.61616, 24.53383 ], [ 78.61404, 24.53681 ], [ 78.60942, 24.53893 ], [ 78.60662, 24.54286 ], [ 78.60633, 24.54446 ], [ 78.60473, 24.545 ], [ 78.60291, 24.54797 ], [ 78.60163, 24.54775 ], [ 78.60133, 24.54858 ], [ 78.60048, 24.54829 ], [ 78.5983, 24.54942 ], [ 78.59814, 24.55035 ], [ 78.60123, 24.55218 ], [ 78.60247, 24.55467 ], [ 78.60322, 24.55947 ], [ 78.60375, 24.56897 ], [ 78.60113, 24.57405 ], [ 78.60168, 24.57798 ], [ 78.60485, 24.58189 ], [ 78.60605, 24.58497 ], [ 78.61324, 24.58855 ], [ 78.6149, 24.59396 ], [ 78.61715, 24.59644 ], [ 78.61795, 24.59885 ], [ 78.62184, 24.60236 ], [ 78.62192, 24.60727 ], [ 78.6238, 24.60829 ], [ 78.62504, 24.61381 ], [ 78.62359, 24.62411 ], [ 78.62027, 24.63519 ], [ 78.6158, 24.64326 ], [ 78.61485, 24.64813 ], [ 78.61237, 24.64838 ], [ 78.61113, 24.65144 ], [ 78.61342, 24.65355 ], [ 78.61138, 24.65562 ], [ 78.60894, 24.67568 ], [ 78.61122, 24.67932 ], [ 78.6115, 24.68318 ], [ 78.60854, 24.68632 ], [ 78.61113, 24.68925 ], [ 78.6117, 24.69144 ], [ 78.61089, 24.69495 ], [ 78.6071, 24.69936 ], [ 78.60499, 24.70627 ], [ 78.60432, 24.70999 ], [ 78.60491, 24.71395 ], [ 78.60088, 24.72033 ], [ 78.60109, 24.72161 ], [ 78.60425, 24.72437 ], [ 78.60429, 24.72687 ], [ 78.60194, 24.73301 ], [ 78.59511, 24.73637 ], [ 78.59358, 24.74297 ], [ 78.59013, 24.74783 ], [ 78.5886, 24.74897 ], [ 78.58641, 24.74807 ], [ 78.58498, 24.74844 ], [ 78.58298, 24.75644 ], [ 78.5804, 24.76168 ], [ 78.58295, 24.7671 ], [ 78.58241, 24.77382 ], [ 78.58513, 24.77557 ], [ 78.58775, 24.77893 ], [ 78.58868, 24.78288 ], [ 78.59407, 24.79083 ], [ 78.59449, 24.79298 ], [ 78.59303, 24.79646 ], [ 78.59281, 24.80176 ], [ 78.59535, 24.80222 ], [ 78.59601, 24.80314 ], [ 78.5959, 24.80526 ], [ 78.5978, 24.81113 ], [ 78.59722, 24.81241 ], [ 78.59977, 24.81648 ], [ 78.60169, 24.81721 ], [ 78.60995, 24.81745 ], [ 78.61249, 24.81879 ], [ 78.61597, 24.82245 ], [ 78.62231, 24.82333 ], [ 78.62678, 24.82497 ], [ 78.63053, 24.8244 ], [ 78.63217, 24.82285 ], [ 78.63507, 24.82346 ], [ 78.6449, 24.82909 ], [ 78.65226, 24.82668 ], [ 78.65806, 24.83041 ], [ 78.65852, 24.83323 ], [ 78.66155, 24.839 ], [ 78.66563, 24.84345 ], [ 78.67102, 24.84576 ], [ 78.67777, 24.84511 ], [ 78.68104, 24.84758 ], [ 78.68116, 24.85122 ], [ 78.68358, 24.8563 ], [ 78.6836, 24.85888 ], [ 78.68239, 24.86011 ], [ 78.67817, 24.86 ], [ 78.6761, 24.86165 ], [ 78.67741, 24.863 ], [ 78.67479, 24.86733 ], [ 78.67517, 24.87146 ], [ 78.67392, 24.87524 ], [ 78.67434, 24.87707 ], [ 78.67748, 24.88078 ], [ 78.67879, 24.8837 ], [ 78.68033, 24.89124 ], [ 78.67973, 24.89406 ], [ 78.67631, 24.89887 ], [ 78.68366, 24.89499 ], [ 78.69414, 24.89424 ], [ 78.69668, 24.89318 ], [ 78.70503, 24.88725 ], [ 78.70948, 24.88058 ], [ 78.71297, 24.87934 ] ] ] } },
{ "type": "Feature", "properties": { "OBJECTID": 2622, "state_lgd": "09", "state_name": "UTTAR PRADESH", "district_lgd": "167", "district_name": "LALITPUR", "district_name_source": "district_table", "subdistrict_lgd": "6077", "subdistrict_name": "MDAWARA", "subdistrict_type": "Tehsil", "name_corrupted": false, "remarks": "", "label_lon": 78.818718345294073, "label_lat": 24.351363791492847 }, "geometry": { "type": "Polygon", "coordinates": [ [ [ 78.80609, 24.49659 ], [ 78.80657, 24.49727 ], [ 78.80885, 24.49511 ], [ 78.81162, 24.49492 ], [ 78.81187, 24.49416 ], [ 78.81529, 24.49291 ], [ 78.81562, 24.49163 ], [ 78.81716, 24.49124 ], [ 78.82023, 24.4877 ], [ 78.82456, 24.48523 ], [ 78.82448, 24.48199 ], [ 78.83586, 24.47641 ], [ 78.83577, 24.47131 ], [ 78.83314, 24.46588 ], [ 78.8395, 24.46295 ], [ 78.84341, 24.46334 ], [ 78.84637, 24.4624 ], [ 78.84206, 24.45638 ], [ 78.842, 24.45427 ], [ 78.84703, 24.45111 ], [ 78.84726, 24.44947 ], [ 78.84576, 24.44678 ], [ 78.84664, 24.44458 ], [ 78.85248, 24.44059 ], [ 78.85071, 24.44057 ], [ 78.85075, 24.43974 ], [ 78.84892, 24.43938 ], [ 78.84699, 24.4377 ], [ 78.84438, 24.43686 ], [ 78.8401, 24.43706 ], [ 78.83737, 24.43538 ], [ 78.83602, 24.4322 ], [ 78.83689, 24.4312 ], [ 78.83588, 24.42901 ], [ 78.83565, 24.4257 ], [ 78.83641, 24.42193 ], [ 78.8371, 24.42063 ], [ 78.83961, 24.41923 ], [ 78.84189, 24.41344 ], [ 78.84425, 24.41187 ], [ 78.84442, 24.41057 ], [ 78.84711, 24.41 ], [ 78.8478, 24.40798 ], [ 78.84914, 24.40688 ], [ 78.85658, 24.40644 ], [ 78.8565, 24.40501 ], [ 78.85776, 24.40494 ], [ 78.85869, 24.40255 ], [ 78.86128, 24.40037 ], [ 78.86304, 24.40048 ], [ 78.86401, 24.39922 ], [ 78.86455, 24.39913 ], [ 78.86459, 24.40142 ], [ 78.86312, 24.40459 ], [ 78.86242, 24.41197 ], [ 78.8641, 24.41298 ], [ 78.8673, 24.41291 ], [ 78.87278, 24.41441 ], [ 78.87659, 24.41387 ], [ 78.87675, 24.4144 ], [ 78.8741, 24.41477 ], [ 78.87173, 24.41615 ], [ 78.86875, 24.42029 ], [ 78.86956, 24.4276 ], [ 78.87085, 24.43077 ], [ 78.87363, 24.43428 ], [ 78.87136, 24.43549 ], [ 78.87168, 24.44239 ], [ 78.87031, 24.44456 ], [ 78.87057, 24.44603 ], [ 78.874, 24.4538 ], [ 78.87554, 24.45336 ], [ 78.87588, 24.45491 ], [ 78.87551, 24.45805 ], [ 78.87361, 24.46109 ], [ 78.87412, 24.46361 ], [ 78.87356, 24.46566 ], [ 78.87227, 24.46569 ], [ 78.87015, 24.46795 ], [ 78.87076, 24.47278 ], [ 78.87175, 24.47412 ], [ 78.876, 24.47507 ], [ 78.87774, 24.47666 ], [ 78.88503, 24.47663 ], [ 78.88759, 24.48071 ], [ 78.88745, 24.48465 ], [ 78.88894, 24.48663 ], [ 78.89061, 24.48638 ], [ 78.89349, 24.48798 ], [ 78.89552, 24.48815 ], [ 78.89215, 24.49149 ], [ 78.89201, 24.49669 ], [ 78.89106, 24.49827 ], [ 78.89526, 24.49778 ], [ 78.90001, 24.49587 ], [ 78.90381, 24.49382 ], [ 78.90505, 24.49233 ], [ 78.90834, 24.49099 ], [ 78.91401, 24.49461 ], [ 78.91726, 24.49511 ], [ 78.91785, 24.49624 ], [ 78.92013, 24.49729 ], [ 78.91849, 24.49516 ], [ 78.91876, 24.4916 ], [ 78.91798, 24.49127 ], [ 78.91634, 24.48233 ], [ 78.91221, 24.47345 ], [ 78.91334, 24.46788 ], [ 78.9127, 24.46558 ], [ 78.91485, 24.46229 ], [ 78.91486, 24.46009 ], [ 78.91421, 24.45962 ], [ 78.91512, 24.4582 ], [ 78.92068, 24.46001 ], [ 78.92827, 24.46019 ], [ 78.93116, 24.45759 ], [ 78.93993, 24.45345 ], [ 78.93998, 24.45245 ], [ 78.94178, 24.45107 ], [ 78.94157, 24.44727 ], [ 78.94272, 24.44408 ], [ 78.94627, 24.43993 ], [ 78.94748, 24.43662 ], [ 78.9548, 24.43703 ], [ 78.96096, 24.43954 ], [ 78.96522, 24.43873 ], [ 78.96749, 24.43983 ], [ 78.97175, 24.43961 ], [ 78.97767, 24.44109 ], [ 78.98041, 24.44009 ], [ 78.98201, 24.4416 ], [ 78.98576, 24.44168 ], [ 78.98824, 24.43347 ], [ 78.9904, 24.43144 ], [ 78.99124, 24.42645 ], [ 78.99365, 24.42275 ], [ 78.99245, 24.41891 ], [ 78.98405, 24.41026 ], [ 78.98435, 24.40478 ], [ 78.97999, 24.39393 ], [ 78.97693, 24.38875 ], [ 78.97503, 24.37857 ], [ 78.96991, 24.37028 ], [ 78.97259, 24.35449 ], [ 78.9707, 24.35139 ], [ 78.97145, 24.34761 ], [ 78.96806, 24.34542 ], [ 78.96301, 24.34421 ], [ 78.95681, 24.33531 ], [ 78.94664, 24.32392 ], [ 78.94391, 24.31815 ], [ 78.94125, 24.31529 ], [ 78.93495, 24.3118 ], [ 78.92825, 24.30938 ], [ 78.92365, 24.30649 ], [ 78.91888, 24.30023 ], [ 78.90964, 24.298 ], [ 78.91161, 24.288 ], [ 78.91866, 24.28298 ], [ 78.91697, 24.2768 ], [ 78.91607, 24.26763 ], [ 78.91398, 24.26628 ], [ 78.91033, 24.26666 ], [ 78.90546, 24.26453 ], [ 78.8952, 24.25699 ], [ 78.88687, 24.25247 ], [ 78.88437, 24.25 ], [ 78.88407, 24.24335 ], [ 78.88757, 24.23226 ], [ 78.88805, 24.22728 ], [ 78.88438, 24.2196 ], [ 78.88065, 24.21599 ], [ 78.8768, 24.2138 ], [ 78.86251, 24.20945 ], [ 78.85847, 24.2097 ], [ 78.85168, 24.21416 ], [ 78.84689, 24.21377 ], [ 78.84099, 24.2088 ], [ 78.83807, 24.20734 ], [ 78.83309, 24.20264 ], [ 78.82929, 24.19691 ], [ 78.82675, 24.19545 ], [ 78.82503, 24.1955 ], [ 78.82376, 24.19685 ], [ 78.82268, 24.20276 ], [ 78.82177, 24.20415 ], [ 78.81708, 24.20681 ], [ 78.81495, 24.2068 ], [ 78.81373, 24.20574 ], [ 78.81294, 24.20297 ], [ 78.8122, 24.19105 ], [ 78.8144, 24.18588 ], [ 78.81267, 24.18103 ], [ 78.81109, 24.17966 ], [ 78.80621, 24.17829 ], [ 78.79534, 24.17813 ], [ 78.79282, 24.17683 ], [ 78.78943, 24.17711 ], [ 78.78725, 24.18266 ], [ 78.78554, 24.1835 ], [ 78.7853, 24.18548 ], [ 78.783, 24.18915 ], [ 78.78183, 24.19933 ], [ 78.78075, 24.19977 ], [ 78.78163, 24.20342 ], [ 78.78113, 24.20605 ], [ 78.77699, 24.21108 ], [ 78.77133, 24.21447 ], [ 78.76737, 24.22021 ], [ 78.76794, 24.22354 ], [ 78.76751, 24.22668 ], [ 78.76471, 24.23038 ], [ 78.76452, 24.2318 ], [ 78.76766, 24.23879 ], [ 78.76864, 24.24848 ], [ 78.76741, 24.25311 ], [ 78.76439, 24.25538 ], [ 78.76189, 24.25954 ], [ 78.75987, 24.25733 ], [ 78.76038, 24.24899 ], [ 78.75979, 24.24407 ], [ 78.75769, 24.24185 ], [ 78.75545, 24.24112 ], [ 78.75496, 24.23834 ], [ 78.75042, 24.23389 ], [ 78.74368, 24.23446 ], [ 78.7416, 24.23384 ], [ 78.74042, 24.23498 ], [ 78.739, 24.23808 ], [ 78.74181, 24.24501 ], [ 78.74126, 24.24734 ], [ 78.73417, 24.2524 ], [ 78.7279, 24.24823 ], [ 78.72638, 24.24203 ], [ 78.72365, 24.24 ], [ 78.72543, 24.23793 ], [ 78.72557, 24.23644 ], [ 78.7208, 24.23494 ], [ 78.71683, 24.23603 ], [ 78.71312, 24.23424 ], [ 78.70871, 24.23431 ], [ 78.70306, 24.22692 ], [ 78.69467, 24.23077 ], [ 78.69268, 24.2328 ], [ 78.69213, 24.23879 ], [ 78.69004, 24.24023 ], [ 78.6897, 24.24175 ], [ 78.6859, 24.24599 ], [ 78.68325, 24.24642 ], [ 78.68025, 24.24946 ], [ 78.68603, 24.25088 ], [ 78.69161, 24.25454 ], [ 78.69292, 24.25613 ], [ 78.69264, 24.25954 ], [ 78.69565, 24.25999 ], [ 78.69883, 24.2627 ], [ 78.69799, 24.26732 ], [ 78.69647, 24.26857 ], [ 78.6982, 24.2718 ], [ 78.69775, 24.27472 ], [ 78.7001, 24.27566 ], [ 78.69818, 24.27657 ], [ 78.69913, 24.27866 ], [ 78.698, 24.27992 ], [ 78.699, 24.28261 ], [ 78.69853, 24.28513 ], [ 78.69744, 24.2835 ], [ 78.69046, 24.28021 ], [ 78.69196, 24.27989 ], [ 78.69105, 24.27938 ], [ 78.69127, 24.27853 ], [ 78.68779, 24.27736 ], [ 78.6871, 24.27815 ], [ 78.68882, 24.28131 ], [ 78.6899, 24.28154 ], [ 78.69059, 24.28339 ], [ 78.6918, 24.28327 ], [ 78.69192, 24.2841 ], [ 78.68832, 24.28578 ], [ 78.68667, 24.28536 ], [ 78.68449, 24.28714 ], [ 78.67898, 24.28824 ], [ 78.67845, 24.28975 ], [ 78.67575, 24.2908 ], [ 78.67692, 24.29311 ], [ 78.67537, 24.29368 ], [ 78.67125, 24.29459 ], [ 78.66778, 24.29122 ], [ 78.66367, 24.29192 ], [ 78.66321, 24.29435 ], [ 78.66566, 24.29552 ], [ 78.6744, 24.29512 ], [ 78.67578, 24.29764 ], [ 78.67467, 24.29926 ], [ 78.67474, 24.30248 ], [ 78.67839, 24.30286 ], [ 78.67978, 24.30372 ], [ 78.68419, 24.30913 ], [ 78.6844, 24.31201 ], [ 78.68966, 24.31212 ], [ 78.69112, 24.3131 ], [ 78.69046, 24.31457 ], [ 78.68815, 24.31435 ], [ 78.6891, 24.31548 ], [ 78.68867, 24.3168 ], [ 78.68606, 24.31482 ], [ 78.68327, 24.31513 ], [ 78.68262, 24.31424 ], [ 78.68046, 24.31495 ], [ 78.67876, 24.31314 ], [ 78.67869, 24.31408 ], [ 78.67718, 24.31168 ], [ 78.67633, 24.31268 ], [ 78.67589, 24.3108 ], [ 78.67446, 24.311 ], [ 78.67569, 24.31135 ], [ 78.67557, 24.31314 ], [ 78.67728, 24.31306 ], [ 78.67816, 24.31468 ], [ 78.67937, 24.31453 ], [ 78.68029, 24.31555 ], [ 78.674, 24.31666 ], [ 78.67664, 24.31712 ], [ 78.67704, 24.31641 ], [ 78.67861, 24.31694 ], [ 78.67894, 24.31625 ], [ 78.67927, 24.31696 ], [ 78.67968, 24.31595 ], [ 78.68173, 24.31617 ], [ 78.6819, 24.31537 ], [ 78.68553, 24.31615 ], [ 78.68476, 24.31724 ], [ 78.68569, 24.31769 ], [ 78.68533, 24.3187 ], [ 78.68892, 24.32049 ], [ 78.69038, 24.32233 ], [ 78.68827, 24.32252 ], [ 78.69003, 24.32477 ], [ 78.68926, 24.32531 ], [ 78.69049, 24.32571 ], [ 78.68969, 24.32715 ], [ 78.69292, 24.3269 ], [ 78.69405, 24.32764 ], [ 78.69359, 24.33011 ], [ 78.69308, 24.32933 ], [ 78.69183, 24.32967 ], [ 78.69215, 24.33057 ], [ 78.6908, 24.33235 ], [ 78.6896, 24.33188 ], [ 78.68726, 24.32863 ], [ 78.68887, 24.33268 ], [ 78.68691, 24.33378 ], [ 78.68534, 24.33256 ], [ 78.6844, 24.33313 ], [ 78.68343, 24.33138 ], [ 78.68261, 24.33282 ], [ 78.67946, 24.32933 ], [ 78.68197, 24.33432 ], [ 78.68121, 24.33563 ], [ 78.68008, 24.33594 ], [ 78.68247, 24.33684 ], [ 78.68071, 24.33809 ], [ 78.68294, 24.33861 ], [ 78.67973, 24.33813 ], [ 78.67883, 24.33848 ], [ 78.67979, 24.33925 ], [ 78.67881, 24.33933 ], [ 78.68237, 24.34041 ], [ 78.6839, 24.34193 ], [ 78.68231, 24.34184 ], [ 78.68162, 24.34377 ], [ 78.67856, 24.34559 ], [ 78.67821, 24.34098 ], [ 78.67698, 24.34132 ], [ 78.67724, 24.34232 ], [ 78.67607, 24.34177 ], [ 78.67487, 24.33955 ], [ 78.67218, 24.33864 ], [ 78.66998, 24.33651 ], [ 78.66999, 24.33521 ], [ 78.66844, 24.33566 ], [ 78.66789, 24.33494 ], [ 78.66658, 24.33579 ], [ 78.66961, 24.33723 ], [ 78.66992, 24.33875 ], [ 78.66905, 24.33955 ], [ 78.67069, 24.34149 ], [ 78.66968, 24.34214 ], [ 78.67138, 24.34338 ], [ 78.67135, 24.34443 ], [ 78.67388, 24.34376 ], [ 78.67467, 24.34277 ], [ 78.67594, 24.34383 ], [ 78.67657, 24.3435 ], [ 78.67837, 24.34734 ], [ 78.67831, 24.34983 ], [ 78.68021, 24.3498 ], [ 78.6804, 24.35143 ], [ 78.68142, 24.35149 ], [ 78.68028, 24.35212 ], [ 78.68128, 24.35386 ], [ 78.68242, 24.35487 ], [ 78.68409, 24.35369 ], [ 78.68509, 24.35416 ], [ 78.68415, 24.3564 ], [ 78.68606, 24.36067 ], [ 78.68569, 24.36257 ], [ 78.68367, 24.36403 ], [ 78.68425, 24.36679 ], [ 78.68337, 24.36988 ], [ 78.68481, 24.36988 ], [ 78.68627, 24.37262 ], [ 78.68693, 24.37722 ], [ 78.68534, 24.38017 ], [ 78.68572, 24.38572 ], [ 78.68165, 24.38578 ], [ 78.68076, 24.38662 ], [ 78.68243, 24.39152 ], [ 78.68185, 24.39538 ], [ 78.6832, 24.39829 ], [ 78.68852, 24.40294 ], [ 78.68872, 24.40438 ], [ 78.68615, 24.40875 ], [ 78.68639, 24.4108 ], [ 78.68846, 24.41128 ], [ 78.69084, 24.4086 ], [ 78.69298, 24.40991 ], [ 78.68943, 24.41647 ], [ 78.69153, 24.4192 ], [ 78.69043, 24.42283 ], [ 78.69076, 24.42493 ], [ 78.69556, 24.42575 ], [ 78.69456, 24.42763 ], [ 78.6947, 24.42993 ], [ 78.7058, 24.44505 ], [ 78.70469, 24.44754 ], [ 78.70109, 24.44833 ], [ 78.69995, 24.45074 ], [ 78.70064, 24.45246 ], [ 78.7015, 24.45269 ], [ 78.70579, 24.45122 ], [ 78.70722, 24.45206 ], [ 78.70683, 24.46167 ], [ 78.70756, 24.46618 ], [ 78.70662, 24.47348 ], [ 78.70766, 24.47598 ], [ 78.71048, 24.47541 ], [ 78.71244, 24.47385 ], [ 78.72679, 24.47452 ], [ 78.73797, 24.4727 ], [ 78.74129, 24.47415 ], [ 78.74324, 24.47368 ], [ 78.75462, 24.48796 ], [ 78.74721, 24.4921 ], [ 78.75475, 24.49241 ], [ 78.75818, 24.49114 ], [ 78.75826, 24.49006 ], [ 78.76138, 24.48956 ], [ 78.76504, 24.48664 ], [ 78.76626, 24.48471 ], [ 78.77087, 24.48576 ], [ 78.7727, 24.4874 ], [ 78.77333, 24.48688 ], [ 78.77546, 24.48756 ], [ 78.7769, 24.48932 ], [ 78.77852, 24.48953 ], [ 78.7722, 24.47845 ], [ 78.77147, 24.47404 ], [ 78.77353, 24.47557 ], [ 78.77462, 24.47499 ], [ 78.77837, 24.47557 ], [ 78.78065, 24.47742 ], [ 78.78582, 24.478 ], [ 78.79024, 24.48198 ], [ 78.79398, 24.4838 ], [ 78.79428, 24.48613 ], [ 78.79563, 24.48696 ], [ 78.79562, 24.48803 ], [ 78.79736, 24.48985 ], [ 78.79584, 24.49134 ], [ 78.79916, 24.49295 ], [ 78.79773, 24.49565 ], [ 78.79881, 24.49773 ], [ 78.80107, 24.49908 ], [ 78.80609, 24.49659 ] ] ] } },
{ "type": "Feature", "properties": { "OBJECTID": 2661, "state_lgd": "09", "state_name": "UTTAR PRADESH", "district_lgd": "167", "district_name": "LALITPUR", "district_name_source": "district_table", "subdistrict_lgd": "6301", "subdistrict_name": "PALI", "subdistrict_type": "Tehsil", "name_corrupted": false, "remarks": "", "label_lon": 78.526877319779317, "label_lat": 24.417449636155496 }, "geometry": { "type": "Polygon", "coordinates": [ [ [ 78.66322, 24.29352 ], [ 78.66367, 24.29192 ], [ 78.66778, 24.29122 ], [ 78.67125, 24.29459 ], [ 78.67537, 24.29368 ], [ 78.67692, 24.29311 ], [ 78.67575, 24.2908 ], [ 78.67845, 24.28975 ], [ 78.67898, 24.28824 ], [ 78.68449, 24.28714 ], [ 78.68667, 24.28536 ], [ 78.68832, 24.28578 ], [ 78.69192, 24.2841 ], [ 78.6918, 24.28327 ], [ 78.69059, 24.28339 ], [ 78.6899, 24.28154 ], [ 78.68882, 24.28131 ], [ 78.6871, 24.27815 ], [ 78.68779, 24.27736 ], [ 78.69127, 24.27853 ], [ 78.69105, 24.27938 ], [ 78.69196, 24.27989 ], [ 78.69046, 24.28021 ], [ 78.69744, 24.2835 ], [ 78.69853, 24.28513 ], [ 78.699, 24.28261 ], [ 78.698, 24.27992 ], [ 78.69913, 24.27866 ], [ 78.69818, 24.27657 ], [ 78.7001, 24.27566 ], [ 78.69775, 24.27472 ], [ 78.6982, 24.2718 ], [ 78.69647, 24.26857 ], [ 78.69799, 24.26732 ], [ 78.69883, 24.2627 ], [ 78.69565, 24.25999 ], [ 78.69264, 24.25954 ], [ 78.69292, 24.25613 ], [ 78.69161, 24.25454 ], [ 78.68603, 24.25088 ], [ 78.68025, 24.24946 ], [ 78.68325, 24.24642 ], [ 78.6859, 24.24599 ], [ 78.6897, 24.24175 ], [ 78.69004, 24.24023 ], [ 78.69213, 24.23879 ], [ 78.69268, 24.2328 ], [ 78.69075, 24.23476 ], [ 78.68252, 24.23823 ], [ 78.67599, 24.23959 ], [ 78.67133, 24.23885 ], [ 78.66783, 24.24062 ], [ 78.66664, 24.24196 ], [ 78.66662, 24.24624 ], [ 78.66383, 24.25067 ], [ 78.6643, 24.2561 ], [ 78.66146, 24.26239 ], [ 78.66062, 24.26688 ], [ 78.65828, 24.26881 ], [ 78.64928, 24.27163 ], [ 78.648, 24.27454 ], [ 78.64629, 24.27561 ], [ 78.64565, 24.27853 ], [ 78.63969, 24.28301 ], [ 78.63891, 24.28507 ], [ 78.63137, 24.28643 ], [ 78.62839, 24.28243 ], [ 78.6258, 24.28059 ], [ 78.62454, 24.28656 ], [ 78.62003, 24.29032 ], [ 78.61997, 24.2929 ], [ 78.62204, 24.294 ], [ 78.62445, 24.29769 ], [ 78.62809, 24.30031 ], [ 78.62898, 24.30167 ], [ 78.62844, 24.30394 ], [ 78.62684, 24.30536 ], [ 78.62624, 24.30732 ], [ 78.62341, 24.3071 ], [ 78.61914, 24.31032 ], [ 78.61821, 24.30709 ], [ 78.61582, 24.30964 ], [ 78.60942, 24.30855 ], [ 78.60665, 24.31212 ], [ 78.60365, 24.3145 ], [ 78.60128, 24.32094 ], [ 78.60104, 24.32655 ], [ 78.59906, 24.32976 ], [ 78.59652, 24.33199 ], [ 78.5961, 24.33518 ], [ 78.59384, 24.33656 ], [ 78.58929, 24.33772 ], [ 78.58429, 24.3465 ], [ 78.5831, 24.34983 ], [ 78.586, 24.35374 ], [ 78.58029, 24.35589 ], [ 78.57647, 24.35565 ], [ 78.575, 24.35532 ], [ 78.57319, 24.35099 ], [ 78.56331, 24.35798 ], [ 78.56231, 24.358 ], [ 78.56084, 24.35648 ], [ 78.55934, 24.35674 ], [ 78.55062, 24.36056 ], [ 78.54752, 24.3631 ], [ 78.53837, 24.36795 ], [ 78.52988, 24.3681 ], [ 78.53043, 24.36994 ], [ 78.52991, 24.37238 ], [ 78.52723, 24.37525 ], [ 78.52983, 24.37891 ], [ 78.52705, 24.37933 ], [ 78.52674, 24.38198 ], [ 78.52227, 24.38646 ], [ 78.51838, 24.38782 ], [ 78.50223, 24.39034 ], [ 78.49362, 24.38138 ], [ 78.48579, 24.36934 ], [ 78.47768, 24.36136 ], [ 78.47429, 24.35634 ], [ 78.47518, 24.35166 ], [ 78.47421, 24.34777 ], [ 78.47755, 24.34085 ], [ 78.47758, 24.33848 ], [ 78.47469, 24.33611 ], [ 78.46951, 24.33441 ], [ 78.46366, 24.33013 ], [ 78.45639, 24.32818 ], [ 78.45565, 24.3272 ], [ 78.45646, 24.32578 ], [ 78.45584, 24.32446 ], [ 78.44402, 24.31947 ], [ 78.44587, 24.31587 ], [ 78.43849, 24.31232 ], [ 78.43864, 24.30997 ], [ 78.43762, 24.30858 ], [ 78.43791, 24.30489 ], [ 78.43998, 24.30044 ], [ 78.44016, 24.29624 ], [ 78.43394, 24.29127 ], [ 78.43388, 24.28792 ], [ 78.43109, 24.28403 ], [ 78.43033, 24.28366 ], [ 78.42785, 24.28523 ], [ 78.4242, 24.28558 ], [ 78.4184, 24.28494 ], [ 78.41408, 24.27792 ], [ 78.41396, 24.27298 ], [ 78.41168, 24.27283 ], [ 78.41173, 24.27169 ], [ 78.40997, 24.27112 ], [ 78.40873, 24.27177 ], [ 78.40644, 24.2706 ], [ 78.40345, 24.2706 ], [ 78.40001, 24.27202 ], [ 78.39813, 24.26944 ], [ 78.39666, 24.27017 ], [ 78.39538, 24.26896 ], [ 78.3928, 24.26951 ], [ 78.39162, 24.27068 ], [ 78.38852, 24.27085 ], [ 78.38787, 24.26905 ], [ 78.38705, 24.2709 ], [ 78.38597, 24.26966 ], [ 78.3849, 24.27001 ], [ 78.38187, 24.27312 ], [ 78.38085, 24.28041 ], [ 78.3781, 24.28408 ], [ 78.37633, 24.28485 ], [ 78.37244, 24.28358 ], [ 78.37033, 24.28404 ], [ 78.36627, 24.29107 ], [ 78.36456, 24.29186 ], [ 78.35816, 24.29231 ], [ 78.34805, 24.29958 ], [ 78.34559, 24.30624 ], [ 78.34555, 24.31446 ], [ 78.34201, 24.31882 ], [ 78.33824, 24.31978 ], [ 78.33146, 24.32393 ], [ 78.32908, 24.32713 ], [ 78.32952, 24.33058 ], [ 78.33128, 24.33432 ], [ 78.33442, 24.33801 ], [ 78.34046, 24.34173 ], [ 78.34329, 24.34462 ], [ 78.3468, 24.35241 ], [ 78.35693, 24.36282 ], [ 78.35793, 24.36758 ], [ 78.36233, 24.37143 ], [ 78.36885, 24.37391 ], [ 78.3699, 24.37683 ], [ 78.37218, 24.37728 ], [ 78.37645, 24.37989 ], [ 78.37879, 24.38231 ], [ 78.38217, 24.38107 ], [ 78.38444, 24.37825 ], [ 78.38304, 24.37625 ], [ 78.3839, 24.3755 ], [ 78.38552, 24.37627 ], [ 78.38935, 24.37422 ], [ 78.38939, 24.37287 ], [ 78.39139, 24.37188 ], [ 78.40211, 24.37374 ], [ 78.41352, 24.38183 ], [ 78.41587, 24.38466 ], [ 78.42822, 24.39373 ], [ 78.43086, 24.40392 ], [ 78.4324, 24.41579 ], [ 78.4307, 24.42902 ], [ 78.42955, 24.43011 ], [ 78.42537, 24.43049 ], [ 78.41765, 24.42909 ], [ 78.41249, 24.4298 ], [ 78.4084, 24.42917 ], [ 78.38725, 24.42059 ], [ 78.38652, 24.41856 ], [ 78.38392, 24.41748 ], [ 78.38089, 24.43154 ], [ 78.38216, 24.43303 ], [ 78.38218, 24.44121 ], [ 78.38129, 24.44288 ], [ 78.38217, 24.44404 ], [ 78.38299, 24.44904 ], [ 78.38125, 24.44989 ], [ 78.3731, 24.4476 ], [ 78.37051, 24.44017 ], [ 78.37059, 24.43717 ], [ 78.36204, 24.43475 ], [ 78.36086, 24.43518 ], [ 78.36866, 24.44008 ], [ 78.37136, 24.44641 ], [ 78.37101, 24.44977 ], [ 78.37431, 24.45175 ], [ 78.37574, 24.4548 ], [ 78.37982, 24.45799 ], [ 78.37848, 24.45958 ], [ 78.37801, 24.4704 ], [ 78.37674, 24.47177 ], [ 78.36522, 24.46988 ], [ 78.36339, 24.47238 ], [ 78.3614, 24.47276 ], [ 78.36045, 24.47524 ], [ 78.35638, 24.47648 ], [ 78.3538, 24.47508 ], [ 78.35313, 24.47846 ], [ 78.34899, 24.47975 ], [ 78.34427, 24.47992 ], [ 78.33936, 24.48244 ], [ 78.33741, 24.48522 ], [ 78.33719, 24.48617 ], [ 78.339, 24.48789 ], [ 78.33908, 24.48917 ], [ 78.34245, 24.48982 ], [ 78.3436, 24.49191 ], [ 78.34192, 24.49492 ], [ 78.34287, 24.49833 ], [ 78.34214, 24.50046 ], [ 78.3429, 24.50553 ], [ 78.34049, 24.50568 ], [ 78.34431, 24.50756 ], [ 78.34344, 24.50855 ], [ 78.34353, 24.51109 ], [ 78.34583, 24.51106 ], [ 78.34418, 24.51257 ], [ 78.34847, 24.5143 ], [ 78.34635, 24.51616 ], [ 78.35146, 24.51595 ], [ 78.3518, 24.51887 ], [ 78.35328, 24.5196 ], [ 78.35288, 24.52154 ], [ 78.36881, 24.52015 ], [ 78.37625, 24.51775 ], [ 78.37805, 24.5186 ], [ 78.378, 24.52136 ], [ 78.37656, 24.5224 ], [ 78.37564, 24.52765 ], [ 78.38113, 24.52625 ], [ 78.38822, 24.52607 ], [ 78.39011, 24.52766 ], [ 78.39141, 24.52653 ], [ 78.39128, 24.52572 ], [ 78.39264, 24.52512 ], [ 78.39974, 24.52455 ], [ 78.40459, 24.52655 ], [ 78.41184, 24.5321 ], [ 78.41662, 24.52765 ], [ 78.42302, 24.52753 ], [ 78.43087, 24.52438 ], [ 78.43523, 24.52508 ], [ 78.44308, 24.51359 ], [ 78.45052, 24.51308 ], [ 78.45581, 24.51491 ], [ 78.45887, 24.51504 ], [ 78.47149, 24.512 ], [ 78.48183, 24.51081 ], [ 78.48609, 24.51692 ], [ 78.48837, 24.51852 ], [ 78.4921, 24.51922 ], [ 78.49051, 24.52255 ], [ 78.49554, 24.53298 ], [ 78.49866, 24.5372 ], [ 78.50715, 24.54531 ], [ 78.5022, 24.56715 ], [ 78.52988, 24.57069 ], [ 78.52903, 24.567 ], [ 78.51963, 24.54871 ], [ 78.51814, 24.54153 ], [ 78.5229, 24.53585 ], [ 78.53246, 24.54065 ], [ 78.55596, 24.538 ], [ 78.56765, 24.55243 ], [ 78.592, 24.54807 ], [ 78.59287, 24.55083 ], [ 78.59527, 24.55191 ], [ 78.59781, 24.55081 ], [ 78.59853, 24.54911 ], [ 78.60133, 24.54858 ], [ 78.60163, 24.54775 ], [ 78.60291, 24.54797 ], [ 78.60473, 24.545 ], [ 78.60633, 24.54446 ], [ 78.60662, 24.54286 ], [ 78.60942, 24.53893 ], [ 78.61404, 24.53681 ], [ 78.61616, 24.53383 ], [ 78.62015, 24.53223 ], [ 78.62311, 24.53299 ], [ 78.62556, 24.53259 ], [ 78.62711, 24.53161 ], [ 78.62863, 24.52738 ], [ 78.6303, 24.52646 ], [ 78.63196, 24.52692 ], [ 78.6345, 24.5255 ], [ 78.63811, 24.52529 ], [ 78.64146, 24.5229 ], [ 78.6419, 24.52098 ], [ 78.64022, 24.51725 ], [ 78.64079, 24.51455 ], [ 78.6398, 24.50926 ], [ 78.6425, 24.50714 ], [ 78.64244, 24.5045 ], [ 78.64115, 24.50192 ], [ 78.64254, 24.49007 ], [ 78.64142, 24.48767 ], [ 78.64333, 24.48419 ], [ 78.64783, 24.48068 ], [ 78.64995, 24.47681 ], [ 78.65147, 24.47029 ], [ 78.65345, 24.46699 ], [ 78.66672, 24.4638 ], [ 78.67549, 24.46293 ], [ 78.67864, 24.46731 ], [ 78.69358, 24.47278 ], [ 78.69854, 24.47587 ], [ 78.70545, 24.48366 ], [ 78.70567, 24.48228 ], [ 78.70857, 24.47859 ], [ 78.70662, 24.47348 ], [ 78.70756, 24.46618 ], [ 78.70683, 24.46167 ], [ 78.70733, 24.45251 ], [ 78.70579, 24.45122 ], [ 78.7015, 24.45269 ], [ 78.70064, 24.45246 ], [ 78.69995, 24.45074 ], [ 78.70109, 24.44833 ], [ 78.70469, 24.44754 ], [ 78.7058, 24.44505 ], [ 78.6947, 24.42993 ], [ 78.69456, 24.42763 ], [ 78.69556, 24.42575 ], [ 78.69076, 24.42493 ], [ 78.69043, 24.42283 ], [ 78.69153, 24.4192 ], [ 78.68943, 24.41647 ], [ 78.69298, 24.40991 ], [ 78.69084, 24.4086 ], [ 78.68846, 24.41128 ], [ 78.68639, 24.4108 ], [ 78.68615, 24.40875 ], [ 78.68872, 24.40438 ], [ 78.68852, 24.40294 ], [ 78.6832, 24.39829 ], [ 78.68185, 24.39538 ], [ 78.68243, 24.39152 ], [ 78.68076, 24.38662 ], [ 78.68165, 24.38578 ], [ 78.68572, 24.38572 ], [ 78.68534, 24.38017 ], [ 78.68693, 24.37722 ], [ 78.68627, 24.37262 ], [ 78.68481, 24.36988 ], [ 78.68337, 24.36988 ], [ 78.68425, 24.36679 ], [ 78.68367, 24.36403 ], [ 78.68569, 24.36257 ], [ 78.68606, 24.36067 ], [ 78.68415, 24.3564 ], [ 78.68509, 24.35416 ], [ 78.68409, 24.35369 ], [ 78.68242, 24.35487 ], [ 78.68128, 24.35386 ], [ 78.68028, 24.35212 ], [ 78.68142, 24.35149 ], [ 78.6804, 24.35143 ], [ 78.68021, 24.3498 ], [ 78.67831, 24.34983 ], [ 78.67837, 24.34734 ], [ 78.67657, 24.3435 ], [ 78.67594, 24.34383 ], [ 78.67467, 24.34277 ], [ 78.67388, 24.34376 ], [ 78.67135, 24.34443 ], [ 78.67138, 24.34338 ], [ 78.66968, 24.34214 ], [ 78.67069, 24.34149 ], [ 78.66905, 24.33955 ], [ 78.66992, 24.33875 ], [ 78.66961, 24.33723 ], [ 78.66658, 24.33579 ], [ 78.66789, 24.33494 ], [ 78.66844, 24.33566 ], [ 78.66999, 24.33521 ], [ 78.66998, 24.33651 ], [ 78.67218, 24.33864 ], [ 78.67487, 24.33955 ], [ 78.67607, 24.34177 ], [ 78.67724, 24.34232 ], [ 78.67698, 24.34132 ], [ 78.67821, 24.34098 ], [ 78.67856, 24.34559 ], [ 78.68162, 24.34377 ], [ 78.68231, 24.34184 ], [ 78.6839, 24.34193 ], [ 78.68237, 24.34041 ], [ 78.67881, 24.33933 ], [ 78.67979, 24.33925 ], [ 78.67883, 24.33848 ], [ 78.67973, 24.33813 ], [ 78.68174, 24.33882 ], [ 78.68294, 24.33861 ], [ 78.68071, 24.33809 ], [ 78.68247, 24.33684 ], [ 78.68008, 24.33594 ], [ 78.68121, 24.33563 ], [ 78.68197, 24.33432 ], [ 78.67946, 24.32933 ], [ 78.68261, 24.33282 ], [ 78.68343, 24.33138 ], [ 78.6844, 24.33313 ], [ 78.68534, 24.33256 ], [ 78.68691, 24.33378 ], [ 78.68887, 24.33268 ], [ 78.68726, 24.32863 ], [ 78.6896, 24.33188 ], [ 78.6908, 24.33235 ], [ 78.69215, 24.33057 ], [ 78.69183, 24.32967 ], [ 78.69308, 24.32933 ], [ 78.69359, 24.33011 ], [ 78.69405, 24.32764 ], [ 78.69292, 24.3269 ], [ 78.68969, 24.32715 ], [ 78.69049, 24.32571 ], [ 78.68926, 24.32531 ], [ 78.69003, 24.32477 ], [ 78.68827, 24.32252 ], [ 78.69038, 24.32233 ], [ 78.68892, 24.32049 ], [ 78.68533, 24.3187 ], [ 78.68569, 24.31769 ], [ 78.68476, 24.31724 ], [ 78.68553, 24.31615 ], [ 78.6819, 24.31537 ], [ 78.68173, 24.31617 ], [ 78.67968, 24.31595 ], [ 78.67927, 24.31696 ], [ 78.67894, 24.31625 ], [ 78.67861, 24.31694 ], [ 78.67704, 24.31641 ], [ 78.67664, 24.31712 ], [ 78.674, 24.31666 ], [ 78.68029, 24.31555 ], [ 78.67937, 24.31453 ], [ 78.67816, 24.31468 ], [ 78.67728, 24.31306 ], [ 78.67557, 24.31314 ], [ 78.67569, 24.31135 ], [ 78.67446, 24.311 ], [ 78.67589, 24.3108 ], [ 78.67633, 24.31268 ], [ 78.67718, 24.31168 ], [ 78.67869, 24.31408 ], [ 78.67876, 24.31314 ], [ 78.68046, 24.31495 ], [ 78.68262, 24.31424 ], [ 78.68327, 24.31513 ], [ 78.68606, 24.31482 ], [ 78.68867, 24.3168 ], [ 78.6891, 24.31548 ], [ 78.68815, 24.31435 ], [ 78.69046, 24.31457 ], [ 78.69112, 24.3131 ], [ 78.68966, 24.31212 ], [ 78.6844, 24.31201 ], [ 78.68419, 24.30913 ], [ 78.67978, 24.30372 ], [ 78.67839, 24.30286 ], [ 78.67474, 24.30248 ], [ 78.67467, 24.29926 ], [ 78.67578, 24.29764 ], [ 78.6744, 24.29512 ], [ 78.66566, 24.29552 ], [ 78.66383, 24.29514 ], [ 78.66322, 24.29352 ] ] ] } },
{ "type": "Feature", "properties": { "OBJECTID": 2735, "state_lgd": "09", "state_name": "UTTAR PRADESH", "district_lgd": "167", "district_name": "LALITPUR", "district_name_source": "district_table", "subdistrict_lgd": "861", "subdistrict_name": "TALBEHAT", "subdistrict_type": "Tehsil", "name_corrupted": false, "remarks": "", "label_lon": 78.497662982887505, "label_lat": 24.971111250161087 }, "geometry": { "type": "Polygon", "coordinates": [ [ [ 78.57062, 25.22191 ], [ 78.57054, 25.20519 ], [ 78.57639, 25.1952 ], [ 78.58334, 25.18733 ], [ 78.58705, 25.17853 ], [ 78.59599, 25.16589 ], [ 78.60068, 25.15539 ], [ 78.60312, 25.14687 ], [ 78.6049, 25.13421 ], [ 78.60533, 25.12693 ], [ 78.60429, 25.11751 ], [ 78.60568, 25.10888 ], [ 78.60191, 25.09784 ], [ 78.60217, 25.09494 ], [ 78.60715, 25.09039 ], [ 78.61198, 25.08799 ], [ 78.61589, 25.08707 ], [ 78.62681, 25.08711 ], [ 78.62815, 25.0862 ], [ 78.63233, 25.08228 ], [ 78.63602, 25.07717 ], [ 78.63799, 25.07317 ], [ 78.64101, 25.06953 ], [ 78.64437, 25.06261 ], [ 78.65093, 25.05469 ], [ 78.65262, 25.05059 ], [ 78.65192, 25.03917 ], [ 78.65336, 25.03145 ], [ 78.65238, 25.02859 ], [ 78.64682, 25.02196 ], [ 78.64572, 25.0186 ], [ 78.64706, 25.00612 ], [ 78.64471, 25.00332 ], [ 78.64441, 24.99996 ], [ 78.64504, 24.99915 ], [ 78.64373, 24.99543 ], [ 78.64431, 24.99443 ], [ 78.6441, 24.99012 ], [ 78.64316, 24.98766 ], [ 78.64401, 24.98429 ], [ 78.64143, 24.98197 ], [ 78.6414, 24.97778 ], [ 78.63893, 24.97578 ], [ 78.64031, 24.97389 ], [ 78.64003, 24.97208 ], [ 78.6363, 24.96945 ], [ 78.6348, 24.9672 ], [ 78.633, 24.96712 ], [ 78.63279, 24.96557 ], [ 78.63363, 24.96552 ], [ 78.63394, 24.96339 ], [ 78.63174, 24.96183 ], [ 78.63156, 24.95857 ], [ 78.63173, 24.95769 ], [ 78.63429, 24.95919 ], [ 78.63657, 24.95905 ], [ 78.63919, 24.95656 ], [ 78.64236, 24.95569 ], [ 78.64283, 24.95418 ], [ 78.65236, 24.94784 ], [ 78.65284, 24.9438 ], [ 78.64988, 24.94102 ], [ 78.65186, 24.93838 ], [ 78.65577, 24.94037 ], [ 78.66339, 24.93844 ], [ 78.66538, 24.92101 ], [ 78.66724, 24.91379 ], [ 78.67148, 24.90566 ], [ 78.6802, 24.8925 ], [ 78.67879, 24.8837 ], [ 78.67393, 24.87582 ], [ 78.67517, 24.87146 ], [ 78.67479, 24.86733 ], [ 78.67741, 24.863 ], [ 78.6761, 24.86165 ], [ 78.67871, 24.85981 ], [ 78.68239, 24.86011 ], [ 78.68381, 24.85763 ], [ 78.68116, 24.85122 ], [ 78.6813, 24.84803 ], [ 78.67996, 24.84635 ], [ 78.67731, 24.84503 ], [ 78.67102, 24.84576 ], [ 78.66563, 24.84345 ], [ 78.66155, 24.839 ], [ 78.65852, 24.83323 ], [ 78.65806, 24.83041 ], [ 78.65226, 24.82668 ], [ 78.6449, 24.82909 ], [ 78.63507, 24.82346 ], [ 78.63217, 24.82285 ], [ 78.63053, 24.8244 ], [ 78.62678, 24.82497 ], [ 78.62231, 24.82333 ], [ 78.61597, 24.82245 ], [ 78.61249, 24.81879 ], [ 78.60995, 24.81745 ], [ 78.60169, 24.81721 ], [ 78.59977, 24.81648 ], [ 78.59722, 24.81241 ], [ 78.5978, 24.81113 ], [ 78.5959, 24.80526 ], [ 78.59601, 24.80314 ], [ 78.59535, 24.80222 ], [ 78.59281, 24.80176 ], [ 78.59303, 24.79646 ], [ 78.59449, 24.79298 ], [ 78.59407, 24.79083 ], [ 78.58868, 24.78288 ], [ 78.58775, 24.77893 ], [ 78.58513, 24.77557 ], [ 78.58241, 24.77382 ], [ 78.58295, 24.7671 ], [ 78.5804, 24.76226 ], [ 78.58192, 24.75812 ], [ 78.58033, 24.75852 ], [ 78.57832, 24.75626 ], [ 78.57034, 24.75358 ], [ 78.56893, 24.75674 ], [ 78.56056, 24.76157 ], [ 78.54535, 24.76156 ], [ 78.53664, 24.76476 ], [ 78.53349, 24.77132 ], [ 78.53151, 24.77007 ], [ 78.52807, 24.76985 ], [ 78.52547, 24.76804 ], [ 78.52076, 24.7614 ], [ 78.51738, 24.75807 ], [ 78.51513, 24.75312 ], [ 78.51289, 24.74965 ], [ 78.51193, 24.74945 ], [ 78.50591, 24.75332 ], [ 78.50251, 24.75337 ], [ 78.49808, 24.75601 ], [ 78.49853, 24.75766 ], [ 78.50171, 24.7586 ], [ 78.50327, 24.76003 ], [ 78.50499, 24.76304 ], [ 78.51143, 24.76359 ], [ 78.51156, 24.76704 ], [ 78.50968, 24.77192 ], [ 78.51193, 24.77832 ], [ 78.51152, 24.78295 ], [ 78.50722, 24.78375 ], [ 78.50604, 24.7822 ], [ 78.49789, 24.78012 ], [ 78.48296, 24.78032 ], [ 78.48204, 24.77812 ], [ 78.4797, 24.77661 ], [ 78.47774, 24.77649 ], [ 78.47727, 24.77507 ], [ 78.47299, 24.77253 ], [ 78.46893, 24.77575 ], [ 78.4692, 24.77724 ], [ 78.46561, 24.78139 ], [ 78.46324, 24.78182 ], [ 78.45822, 24.7874 ], [ 78.45668, 24.7877 ], [ 78.45883, 24.78996 ], [ 78.45972, 24.79262 ], [ 78.46307, 24.79419 ], [ 78.46535, 24.79767 ], [ 78.46833, 24.8001 ], [ 78.46963, 24.80508 ], [ 78.4741, 24.8105 ], [ 78.47518, 24.81537 ], [ 78.4801, 24.82148 ], [ 78.48111, 24.82523 ], [ 78.48095, 24.82836 ], [ 78.48887, 24.83792 ], [ 78.49024, 24.84085 ], [ 78.48988, 24.84257 ], [ 78.47658, 24.8491 ], [ 78.47299, 24.8499 ], [ 78.47002, 24.85274 ], [ 78.45391, 24.85694 ], [ 78.45214, 24.85693 ], [ 78.44418, 24.85339 ], [ 78.43876, 24.85321 ], [ 78.43506, 24.85399 ], [ 78.43466, 24.85844 ], [ 78.43279, 24.85594 ], [ 78.42898, 24.85428 ], [ 78.42304, 24.85421 ], [ 78.4227, 24.85523 ], [ 78.42074, 24.85634 ], [ 78.4177, 24.85524 ], [ 78.41211, 24.85469 ], [ 78.40953, 24.85285 ], [ 78.40551, 24.85233 ], [ 78.40465, 24.85333 ], [ 78.40373, 24.85852 ], [ 78.40275, 24.85941 ], [ 78.40137, 24.85773 ], [ 78.40102, 24.85399 ], [ 78.39621, 24.84765 ], [ 78.38503, 24.84113 ], [ 78.37658, 24.84375 ], [ 78.36801, 24.84423 ], [ 78.351, 24.85014 ], [ 78.346, 24.84965 ], [ 78.34168, 24.84711 ], [ 78.34042, 24.84577 ], [ 78.34005, 24.84379 ], [ 78.34184, 24.84015 ], [ 78.34128, 24.83976 ], [ 78.32795, 24.84323 ], [ 78.32651, 24.84444 ], [ 78.32359, 24.84427 ], [ 78.31684, 24.84199 ], [ 78.30923, 24.84593 ], [ 78.30794, 24.85237 ], [ 78.31116, 24.85551 ], [ 78.31244, 24.85819 ], [ 78.31242, 24.86182 ], [ 78.31436, 24.86388 ], [ 78.3157, 24.87056 ], [ 78.3194, 24.87056 ], [ 78.32286, 24.87237 ], [ 78.3212, 24.87478 ], [ 78.31304, 24.88092 ], [ 78.311, 24.88153 ], [ 78.30987, 24.88091 ], [ 78.30375, 24.88119 ], [ 78.3042, 24.88725 ], [ 78.30349, 24.8892 ], [ 78.3048, 24.89015 ], [ 78.30823, 24.89663 ], [ 78.31179, 24.89957 ], [ 78.31156, 24.90226 ], [ 78.31287, 24.90515 ], [ 78.31298, 24.90974 ], [ 78.31624, 24.91414 ], [ 78.31613, 24.91578 ], [ 78.32165, 24.91623 ], [ 78.33614, 24.92971 ], [ 78.33554, 24.93471 ], [ 78.3328, 24.9413 ], [ 78.33155, 24.9433 ], [ 78.33092, 24.94303 ], [ 78.32559, 24.94037 ], [ 78.31995, 24.93546 ], [ 78.31595, 24.9344 ], [ 78.31146, 24.93095 ], [ 78.30882, 24.93088 ], [ 78.30875, 24.93181 ], [ 78.29876, 24.93136 ], [ 78.29765, 24.93098 ], [ 78.29889, 24.92976 ], [ 78.2965, 24.92824 ], [ 78.29273, 24.93074 ], [ 78.28837, 24.93073 ], [ 78.28012, 24.92652 ], [ 78.27841, 24.92714 ], [ 78.27584, 24.93264 ], [ 78.27255, 24.9365 ], [ 78.27254, 24.93919 ], [ 78.26535, 24.94058 ], [ 78.27093, 24.94877 ], [ 78.27915, 24.95607 ], [ 78.28666, 24.95814 ], [ 78.29733, 24.96539 ], [ 78.30703, 24.97747 ], [ 78.31114, 24.98477 ], [ 78.31382, 24.98779 ], [ 78.32018, 24.99185 ], [ 78.33032, 24.99362 ], [ 78.33329, 24.99484 ], [ 78.33639, 25.00057 ], [ 78.34139, 25.00616 ], [ 78.34536, 25.01208 ], [ 78.34707, 25.01859 ], [ 78.34718, 25.0245 ], [ 78.34018, 25.04028 ], [ 78.33875, 25.05225 ], [ 78.33536, 25.06763 ], [ 78.3355, 25.08114 ], [ 78.33655, 25.084 ], [ 78.33863, 25.08658 ], [ 78.36084, 25.09573 ], [ 78.36785, 25.09658 ], [ 78.38345, 25.10172 ], [ 78.38786, 25.10572 ], [ 78.39973, 25.12411 ], [ 78.4025, 25.12686 ], [ 78.40682, 25.12893 ], [ 78.41118, 25.12947 ], [ 78.41544, 25.12843 ], [ 78.43444, 25.12014 ], [ 78.44404, 25.12076 ], [ 78.44927, 25.12297 ], [ 78.4635, 25.13128 ], [ 78.47178, 25.13751 ], [ 78.48436, 25.14312 ], [ 78.49142, 25.15139 ], [ 78.49354, 25.15303 ], [ 78.49426, 25.15265 ], [ 78.49665, 25.15368 ], [ 78.50306, 25.1632 ], [ 78.50452, 25.16429 ], [ 78.49931, 25.16967 ], [ 78.49886, 25.17138 ], [ 78.50307, 25.17577 ], [ 78.51406, 25.18428 ], [ 78.5139, 25.18554 ], [ 78.51817, 25.18607 ], [ 78.52248, 25.18187 ], [ 78.53342, 25.18102 ], [ 78.53553, 25.18254 ], [ 78.53763, 25.18453 ], [ 78.54165, 25.19156 ], [ 78.54854, 25.19936 ], [ 78.55077, 25.20402 ], [ 78.55511, 25.20816 ], [ 78.55595, 25.21072 ], [ 78.55635, 25.2102 ], [ 78.55699, 25.21105 ], [ 78.56193, 25.22056 ], [ 78.56819, 25.22474 ], [ 78.5702, 25.22388 ], [ 78.57062, 25.22191 ] ] ] } }
]
}
