{
"type": "FeatureCollection",
"name": "171_CHITRAKOOT",
"crs": { "type": "name", "properties": { "name": "urn:ogc:def:crs:OGC:1.3:CRS84" } },
"xy_coordinate_resolution": 1e-05,
"features": [
{ "type": "Feature", "properties": { "OBJECTID": 2563, "state_lgd": "09", "state_name": "UTTAR PRADESH", "district_lgd": "171", "district_name": "CHITRAKOOT", "district_name_source": "district_table", "subdistrict_lgd": "875", "subdistrict_name": "KARWI", "subdistrict_type": "Tehsil", "name_corrupted": false, "remarks": "", "label_lon": 80.842494855033422, "label_lat": 25.241917107714524 }, "geometry": { "type": "Polygon", "coordinates": [ [ [ 80.89603, 25.41734 ], [ 80.89472, 25.41158 ], [ 80.89103, 25.40569 ], [ 80.90091, 25.40001 ], [ 80.91329, 25.40321 ], [ 80.91442, 25.40033 ], [ 80.91484, 25.39385 ], [ 80.91375, 25.38362 ], [ 80.91554, 25.38114 ], [ 80.91435, 25.38004 ], [ 80.91161, 25.37988 ], [ 80.91115, 25.37838 ], [ 80.91294, 25.37866 ], [ 80.91186, 25.37587 ], [ 80.91096, 25.37663 ], [ 80.90963, 25.37627 ], [ 80.90888, 25.37248 ], [ 80.91149, 25.3712 ], [ 80.91196, 25.36604 ], [ 80.91018, 25.3632 ], [ 80.90806, 25.36199 ], [ 80.90322, 25.35504 ], [ 80.90575, 25.35266 ], [ 80.91965, 25.35008 ], [ 80.92557, 25.35283 ], [ 80.92784, 25.35061 ], [ 80.93185, 25.34855 ], [ 80.9479, 25.34518 ], [ 80.95134, 25.34811 ], [ 80.95083, 25.34913 ], [ 80.95244, 25.34915 ], [ 80.95117, 25.35065 ], [ 80.95282, 25.35208 ], [ 80.95429, 25.35225 ], [ 80.95386, 25.3535 ], [ 80.95528, 25.35422 ], [ 80.95385, 25.3545 ], [ 80.95395, 25.35528 ], [ 80.95549, 25.35621 ], [ 80.95694, 25.35632 ], [ 80.95785, 25.35548 ], [ 80.9583, 25.35596 ], [ 80.95944, 25.35823 ], [ 80.95785, 25.35835 ], [ 80.95734, 25.35957 ], [ 80.95879, 25.35965 ], [ 80.96015, 25.36103 ], [ 80.96035, 25.36277 ], [ 80.96637, 25.3653 ], [ 80.96662, 25.3648 ], [ 80.96496, 25.36361 ], [ 80.96829, 25.36163 ], [ 80.96966, 25.36205 ], [ 80.97267, 25.36123 ], [ 80.97473, 25.36228 ], [ 80.97533, 25.3608 ], [ 80.97628, 25.36254 ], [ 80.97988, 25.36067 ], [ 80.98086, 25.36222 ], [ 80.98245, 25.36215 ], [ 80.98322, 25.36314 ], [ 80.98394, 25.36247 ], [ 80.98302, 25.36066 ], [ 80.98536, 25.3626 ], [ 80.99344, 25.36009 ], [ 80.99417, 25.35631 ], [ 81.01638, 25.35098 ], [ 81.01979, 25.34825 ], [ 81.02398, 25.34247 ], [ 81.02897, 25.34196 ], [ 81.0342, 25.34436 ], [ 81.03812, 25.34224 ], [ 81.04244, 25.34167 ], [ 81.04366, 25.33679 ], [ 81.04641, 25.33535 ], [ 81.04949, 25.32173 ], [ 81.05355, 25.31676 ], [ 81.05309, 25.31575 ], [ 81.04943, 25.31428 ], [ 81.04905, 25.31341 ], [ 81.0485, 25.30867 ], [ 81.05145, 25.30541 ], [ 81.05105, 25.3029 ], [ 81.04664, 25.29829 ], [ 81.04224, 25.29908 ], [ 81.03942, 25.29876 ], [ 81.03686, 25.2946 ], [ 81.0344, 25.29299 ], [ 81.03137, 25.28892 ], [ 81.02916, 25.27101 ], [ 81.03014, 25.26409 ], [ 81.03181, 25.26212 ], [ 81.03685, 25.25927 ], [ 81.03759, 25.25807 ], [ 81.03691, 25.255 ], [ 81.03265, 25.24957 ], [ 81.03123, 25.2489 ], [ 81.0303, 25.24916 ], [ 81.02995, 25.25275 ], [ 81.02892, 25.25275 ], [ 81.02693, 25.25004 ], [ 81.02509, 25.25038 ], [ 81.02435, 25.24412 ], [ 81.02075, 25.23954 ], [ 81.01811, 25.23751 ], [ 81.01677, 25.23495 ], [ 81.01171, 25.23516 ], [ 81.00442, 25.23896 ], [ 80.99944, 25.2339 ], [ 80.99892, 25.2306 ], [ 80.99678, 25.23213 ], [ 80.99725, 25.23433 ], [ 80.99241, 25.23115 ], [ 80.99049, 25.22805 ], [ 80.99139, 25.22465 ], [ 80.99279, 25.22464 ], [ 80.99353, 25.22195 ], [ 80.99461, 25.22154 ], [ 80.99314, 25.22126 ], [ 80.99195, 25.2198 ], [ 80.99275, 25.21829 ], [ 80.99181, 25.21713 ], [ 80.99304, 25.21582 ], [ 80.99135, 25.21394 ], [ 80.98991, 25.21492 ], [ 80.98887, 25.2142 ], [ 80.98819, 25.21486 ], [ 80.98797, 25.21236 ], [ 80.98721, 25.21306 ], [ 80.98535, 25.21218 ], [ 80.98538, 25.21042 ], [ 80.98434, 25.21033 ], [ 80.98441, 25.20927 ], [ 80.98633, 25.20726 ], [ 80.9835, 25.20428 ], [ 80.98453, 25.20359 ], [ 80.98489, 25.19811 ], [ 80.9808, 25.19346 ], [ 80.97733, 25.19438 ], [ 80.97826, 25.19198 ], [ 80.97551, 25.18872 ], [ 80.97349, 25.18839 ], [ 80.97127, 25.18554 ], [ 80.9693, 25.18861 ], [ 80.9636, 25.18685 ], [ 80.96237, 25.18782 ], [ 80.96107, 25.1877 ], [ 80.95861, 25.18552 ], [ 80.95584, 25.18537 ], [ 80.95389, 25.18303 ], [ 80.95354, 25.17849 ], [ 80.9485, 25.17667 ], [ 80.94474, 25.17632 ], [ 80.94236, 25.17818 ], [ 80.93545, 25.17564 ], [ 80.93182, 25.17727 ], [ 80.93066, 25.17368 ], [ 80.93354, 25.17234 ], [ 80.93535, 25.16859 ], [ 80.92626, 25.1621 ], [ 80.9251, 25.16233 ], [ 80.92196, 25.15712 ], [ 80.91355, 25.15059 ], [ 80.90797, 25.15261 ], [ 80.91291, 25.15908 ], [ 80.90372, 25.15931 ], [ 80.90239, 25.1623 ], [ 80.89891, 25.16632 ], [ 80.89572, 25.16852 ], [ 80.88924, 25.17548 ], [ 80.88876, 25.17812 ], [ 80.88618, 25.17908 ], [ 80.88518, 25.18181 ], [ 80.88208, 25.18244 ], [ 80.88197, 25.18507 ], [ 80.88432, 25.18612 ], [ 80.88466, 25.18794 ], [ 80.88057, 25.18687 ], [ 80.8795, 25.18126 ], [ 80.87238, 25.17809 ], [ 80.86879, 25.17451 ], [ 80.86808, 25.17845 ], [ 80.86573, 25.18012 ], [ 80.86415, 25.18277 ], [ 80.86177, 25.18274 ], [ 80.85716, 25.18069 ], [ 80.85563, 25.18247 ], [ 80.84508, 25.18494 ], [ 80.84415, 25.1869 ], [ 80.84312, 25.18654 ], [ 80.84043, 25.18237 ], [ 80.83814, 25.18035 ], [ 80.83928, 25.17994 ], [ 80.83822, 25.17898 ], [ 80.83905, 25.17877 ], [ 80.83829, 25.17865 ], [ 80.83816, 25.17769 ], [ 80.83948, 25.17726 ], [ 80.83879, 25.17615 ], [ 80.84303, 25.17599 ], [ 80.8428, 25.17514 ], [ 80.84491, 25.17372 ], [ 80.84804, 25.16792 ], [ 80.84779, 25.16505 ], [ 80.8491, 25.1626 ], [ 80.84738, 25.16241 ], [ 80.84552, 25.16039 ], [ 80.84326, 25.15952 ], [ 80.84294, 25.15834 ], [ 80.83991, 25.15549 ], [ 80.83977, 25.15246 ], [ 80.84059, 25.15078 ], [ 80.83917, 25.148 ], [ 80.83995, 25.14645 ], [ 80.83912, 25.14477 ], [ 80.83982, 25.14455 ], [ 80.83784, 25.14143 ], [ 80.83796, 25.13771 ], [ 80.83645, 25.13056 ], [ 80.83794, 25.12847 ], [ 80.83808, 25.12518 ], [ 80.84061, 25.1232 ], [ 80.83918, 25.12181 ], [ 80.83891, 25.11893 ], [ 80.83996, 25.11792 ], [ 80.83974, 25.11582 ], [ 80.8407, 25.11429 ], [ 80.84008, 25.11338 ], [ 80.84091, 25.11191 ], [ 80.84061, 25.10861 ], [ 80.83962, 25.10701 ], [ 80.83754, 25.10593 ], [ 80.83911, 25.1055 ], [ 80.83814, 25.10431 ], [ 80.83554, 25.10513 ], [ 80.83605, 25.10658 ], [ 80.83408, 25.10603 ], [ 80.83292, 25.10466 ], [ 80.83373, 25.10349 ], [ 80.83157, 25.10278 ], [ 80.82989, 25.10006 ], [ 80.83003, 25.10315 ], [ 80.82897, 25.10594 ], [ 80.82948, 25.10681 ], [ 80.82865, 25.10824 ], [ 80.82926, 25.11001 ], [ 80.82781, 25.11203 ], [ 80.82781, 25.11522 ], [ 80.8258, 25.11497 ], [ 80.82439, 25.11613 ], [ 80.82665, 25.12145 ], [ 80.82321, 25.12257 ], [ 80.82359, 25.12339 ], [ 80.8225, 25.12395 ], [ 80.82155, 25.12402 ], [ 80.8212, 25.12327 ], [ 80.8189, 25.12449 ], [ 80.81843, 25.12388 ], [ 80.81724, 25.12423 ], [ 80.81597, 25.12241 ], [ 80.81195, 25.12408 ], [ 80.81527, 25.13165 ], [ 80.81319, 25.13467 ], [ 80.8084, 25.13679 ], [ 80.80376, 25.13757 ], [ 80.80305, 25.1363 ], [ 80.80078, 25.1354 ], [ 80.79708, 25.13657 ], [ 80.79475, 25.13059 ], [ 80.79136, 25.13168 ], [ 80.78638, 25.12944 ], [ 80.78281, 25.13348 ], [ 80.78171, 25.13363 ], [ 80.78227, 25.13451 ], [ 80.78314, 25.13391 ], [ 80.78287, 25.13555 ], [ 80.78417, 25.13694 ], [ 80.78158, 25.13967 ], [ 80.78025, 25.14002 ], [ 80.77878, 25.14226 ], [ 80.7784, 25.13875 ], [ 80.77903, 25.1386 ], [ 80.77744, 25.13764 ], [ 80.77744, 25.1365 ], [ 80.77576, 25.13646 ], [ 80.77206, 25.13263 ], [ 80.76639, 25.13306 ], [ 80.7618, 25.13483 ], [ 80.75999, 25.13336 ], [ 80.75391, 25.1328 ], [ 80.74835, 25.13096 ], [ 80.74545, 25.12911 ], [ 80.74432, 25.1257 ], [ 80.74195, 25.12363 ], [ 80.73675, 25.13536 ], [ 80.73585, 25.13403 ], [ 80.73464, 25.13462 ], [ 80.73392, 25.13311 ], [ 80.73258, 25.13321 ], [ 80.73256, 25.13418 ], [ 80.73352, 25.13454 ], [ 80.73304, 25.13503 ], [ 80.73471, 25.13667 ], [ 80.73479, 25.13787 ], [ 80.73389, 25.13862 ], [ 80.73483, 25.13936 ], [ 80.7336, 25.14048 ], [ 80.73251, 25.13861 ], [ 80.73189, 25.13936 ], [ 80.73165, 25.14495 ], [ 80.73001, 25.14617 ], [ 80.73019, 25.14329 ], [ 80.72961, 25.14332 ], [ 80.72763, 25.13768 ], [ 80.72318, 25.13714 ], [ 80.72157, 25.13529 ], [ 80.72042, 25.1358 ], [ 80.7214, 25.13855 ], [ 80.72089, 25.13886 ], [ 80.71921, 25.13467 ], [ 80.72031, 25.13437 ], [ 80.72012, 25.1324 ], [ 80.71886, 25.13184 ], [ 80.71811, 25.13034 ], [ 80.71401, 25.12951 ], [ 80.70761, 25.13053 ], [ 80.70504, 25.12914 ], [ 80.70347, 25.12641 ], [ 80.7041, 25.12227 ], [ 80.70588, 25.11907 ], [ 80.70763, 25.11765 ], [ 80.71087, 25.11976 ], [ 80.72101, 25.12103 ], [ 80.72286, 25.12027 ], [ 80.72385, 25.12158 ], [ 80.72459, 25.1211 ], [ 80.72735, 25.11855 ], [ 80.73066, 25.11265 ], [ 80.72631, 25.11116 ], [ 80.72324, 25.10507 ], [ 80.72324, 25.09461 ], [ 80.72545, 25.09143 ], [ 80.73079, 25.08928 ], [ 80.73512, 25.08923 ], [ 80.73621, 25.09 ], [ 80.7359, 25.0944 ], [ 80.7366, 25.09487 ], [ 80.73953, 25.09326 ], [ 80.74336, 25.09272 ], [ 80.74703, 25.09342 ], [ 80.75193, 25.09289 ], [ 80.7541, 25.09031 ], [ 80.7575, 25.09083 ], [ 80.75524, 25.08679 ], [ 80.75703, 25.084 ], [ 80.75713, 25.08232 ], [ 80.76886, 25.07923 ], [ 80.76891, 25.07777 ], [ 80.76999, 25.07717 ], [ 80.77193, 25.07821 ], [ 80.77527, 25.07778 ], [ 80.77597, 25.07652 ], [ 80.78363, 25.07595 ], [ 80.78409, 25.06885 ], [ 80.78781, 25.06155 ], [ 80.78467, 25.06167 ], [ 80.77576, 25.05482 ], [ 80.77101, 25.05474 ], [ 80.76588, 25.05289 ], [ 80.76458, 25.05445 ], [ 80.76206, 25.05468 ], [ 80.76171, 25.05601 ], [ 80.75284, 25.05678 ], [ 80.7514, 25.05594 ], [ 80.75107, 25.05407 ], [ 80.74566, 25.05442 ], [ 80.74254, 25.05383 ], [ 80.74303, 25.05595 ], [ 80.73775, 25.05466 ], [ 80.73691, 25.05296 ], [ 80.73431, 25.05594 ], [ 80.73234, 25.06369 ], [ 80.72716, 25.06324 ], [ 80.71901, 25.06382 ], [ 80.71958, 25.06628 ], [ 80.71729, 25.06869 ], [ 80.71705, 25.07104 ], [ 80.71566, 25.07264 ], [ 80.70955, 25.0745 ], [ 80.70825, 25.07232 ], [ 80.7063, 25.0719 ], [ 80.69883, 25.07979 ], [ 80.69526, 25.08201 ], [ 80.69512, 25.08262 ], [ 80.70392, 25.08366 ], [ 80.7055, 25.08625 ], [ 80.71164, 25.09174 ], [ 80.71557, 25.09146 ], [ 80.71429, 25.09277 ], [ 80.70929, 25.09592 ], [ 80.70008, 25.09809 ], [ 80.69924, 25.10026 ], [ 80.69506, 25.1023 ], [ 80.69582, 25.10641 ], [ 80.69353, 25.10973 ], [ 80.6924, 25.10897 ], [ 80.683, 25.10904 ], [ 80.68132, 25.11034 ], [ 80.68013, 25.10874 ], [ 80.67105, 25.1094 ], [ 80.66771, 25.11067 ], [ 80.66729, 25.11255 ], [ 80.66151, 25.11519 ], [ 80.6634, 25.11737 ], [ 80.66275, 25.12225 ], [ 80.65749, 25.12882 ], [ 80.65945, 25.1299 ], [ 80.65921, 25.13202 ], [ 80.66067, 25.13631 ], [ 80.65741, 25.13735 ], [ 80.65622, 25.13684 ], [ 80.65581, 25.13813 ], [ 80.65822, 25.14215 ], [ 80.65992, 25.1422 ], [ 80.66109, 25.14354 ], [ 80.6624, 25.14324 ], [ 80.66513, 25.14796 ], [ 80.66508, 25.14974 ], [ 80.66239, 25.15247 ], [ 80.66221, 25.15539 ], [ 80.65762, 25.16048 ], [ 80.65769, 25.16234 ], [ 80.65912, 25.16468 ], [ 80.65653, 25.16967 ], [ 80.65534, 25.16985 ], [ 80.65549, 25.17315 ], [ 80.64443, 25.18012 ], [ 80.64404, 25.18135 ], [ 80.64236, 25.18189 ], [ 80.64086, 25.18552 ], [ 80.63834, 25.18466 ], [ 80.637, 25.18637 ], [ 80.63559, 25.1865 ], [ 80.63676, 25.18867 ], [ 80.6348, 25.18953 ], [ 80.63463, 25.19106 ], [ 80.63731, 25.19339 ], [ 80.63435, 25.19227 ], [ 80.63326, 25.19441 ], [ 80.63203, 25.19492 ], [ 80.633, 25.19613 ], [ 80.63004, 25.19765 ], [ 80.62967, 25.19973 ], [ 80.63231, 25.20096 ], [ 80.63426, 25.20352 ], [ 80.63521, 25.20363 ], [ 80.63425, 25.20638 ], [ 80.63709, 25.20667 ], [ 80.647, 25.20455 ], [ 80.65416, 25.20644 ], [ 80.65639, 25.20864 ], [ 80.65785, 25.21163 ], [ 80.65505, 25.21417 ], [ 80.65708, 25.21599 ], [ 80.65586, 25.21725 ], [ 80.65578, 25.22307 ], [ 80.65851, 25.22374 ], [ 80.65923, 25.22258 ], [ 80.65888, 25.21994 ], [ 80.66229, 25.2197 ], [ 80.66524, 25.22047 ], [ 80.67164, 25.21883 ], [ 80.68293, 25.21833 ], [ 80.68807, 25.22058 ], [ 80.68837, 25.22191 ], [ 80.69041, 25.22352 ], [ 80.69063, 25.2254 ], [ 80.68956, 25.22774 ], [ 80.69253, 25.233 ], [ 80.6914, 25.23804 ], [ 80.69002, 25.23945 ], [ 80.69121, 25.24055 ], [ 80.6907, 25.24183 ], [ 80.69193, 25.24632 ], [ 80.6912, 25.24925 ], [ 80.69249, 25.25036 ], [ 80.69272, 25.25169 ], [ 80.69217, 25.2536 ], [ 80.6928, 25.26247 ], [ 80.69379, 25.26493 ], [ 80.69187, 25.26941 ], [ 80.69546, 25.27055 ], [ 80.69892, 25.27477 ], [ 80.70477, 25.27659 ], [ 80.70804, 25.27661 ], [ 80.70982, 25.27801 ], [ 80.7107, 25.27993 ], [ 80.70929, 25.28284 ], [ 80.70923, 25.28517 ], [ 80.71193, 25.28896 ], [ 80.71474, 25.29047 ], [ 80.71689, 25.2874 ], [ 80.72064, 25.28536 ], [ 80.72195, 25.28686 ], [ 80.72289, 25.28687 ], [ 80.72427, 25.27989 ], [ 80.72814, 25.27866 ], [ 80.73168, 25.28671 ], [ 80.73687, 25.29208 ], [ 80.74183, 25.29287 ], [ 80.74378, 25.29453 ], [ 80.7453, 25.29365 ], [ 80.74448, 25.29621 ], [ 80.74589, 25.29652 ], [ 80.74834, 25.29892 ], [ 80.75017, 25.29851 ], [ 80.75158, 25.29719 ], [ 80.75252, 25.29759 ], [ 80.75268, 25.30083 ], [ 80.75515, 25.30398 ], [ 80.75492, 25.30642 ], [ 80.75976, 25.30926 ], [ 80.75856, 25.31282 ], [ 80.76111, 25.31567 ], [ 80.76127, 25.31698 ], [ 80.7594, 25.31872 ], [ 80.75591, 25.31919 ], [ 80.75816, 25.32315 ], [ 80.76105, 25.32228 ], [ 80.76252, 25.32338 ], [ 80.7664, 25.32209 ], [ 80.76908, 25.32213 ], [ 80.7715, 25.32368 ], [ 80.77152, 25.32491 ], [ 80.77006, 25.32517 ], [ 80.76968, 25.32652 ], [ 80.77062, 25.32751 ], [ 80.77025, 25.33028 ], [ 80.77278, 25.33005 ], [ 80.77223, 25.32774 ], [ 80.77386, 25.32739 ], [ 80.7762, 25.32931 ], [ 80.7832, 25.3289 ], [ 80.78412, 25.32981 ], [ 80.78432, 25.33378 ], [ 80.78534, 25.33542 ], [ 80.78863, 25.33216 ], [ 80.79066, 25.33234 ], [ 80.79474, 25.34001 ], [ 80.79837, 25.343 ], [ 80.80028, 25.34204 ], [ 80.80158, 25.3346 ], [ 80.80365, 25.33424 ], [ 80.80702, 25.34024 ], [ 80.80883, 25.34123 ], [ 80.81343, 25.34106 ], [ 80.81534, 25.34221 ], [ 80.81697, 25.34796 ], [ 80.81854, 25.34943 ], [ 80.82002, 25.34957 ], [ 80.82601, 25.34509 ], [ 80.82941, 25.34628 ], [ 80.83314, 25.35012 ], [ 80.8365, 25.35036 ], [ 80.84033, 25.3567 ], [ 80.84421, 25.35901 ], [ 80.84423, 25.36299 ], [ 80.85035, 25.36457 ], [ 80.85031, 25.3688 ], [ 80.85432, 25.36662 ], [ 80.85518, 25.36684 ], [ 80.85996, 25.3701 ], [ 80.86399, 25.37431 ], [ 80.8642, 25.37887 ], [ 80.86647, 25.38408 ], [ 80.86563, 25.38782 ], [ 80.87145, 25.38902 ], [ 80.87288, 25.39149 ], [ 80.87259, 25.39377 ], [ 80.87002, 25.39528 ], [ 80.8709, 25.39845 ], [ 80.87535, 25.39969 ], [ 80.87651, 25.40157 ], [ 80.88094, 25.40016 ], [ 80.88388, 25.4003 ], [ 80.88342, 25.40277 ], [ 80.88467, 25.40415 ], [ 80.88462, 25.40584 ], [ 80.88572, 25.40791 ], [ 80.88546, 25.41043 ], [ 80.88581, 25.41172 ], [ 80.88631, 25.4109 ], [ 80.88631, 25.41315 ], [ 80.88744, 25.41405 ], [ 80.88578, 25.41384 ], [ 80.88611, 25.41468 ], [ 80.88508, 25.41598 ], [ 80.88348, 25.41498 ], [ 80.88246, 25.41527 ], [ 80.88552, 25.41755 ], [ 80.88808, 25.42093 ], [ 80.89327, 25.42227 ], [ 80.89527, 25.41984 ], [ 80.89603, 25.41734 ] ] ] } },
{ "type": "Feature", "properties": { "OBJECTID": 2609, "state_lgd": "09", "state_name": "UTTAR PRADESH", "district_lgd": "171", "district_name": "CHITRAKOOT", "district_name_source": "district_table", "subdistrict_lgd": "6304", "subdistrict_name": "MANIKPUR", "subdistrict_type": "Tehsil", "name_corrupted": false, "remarks": "", "label_lon": 81.052358898604496, "label_lat": 25.074289970995171 }, "geometry": { "type": "Polygon", "coordinates": [ [ [ 81.04224, 25.29908 ], [ 81.04764, 25.29722 ], [ 81.04517, 25.29194 ], [ 81.06143, 25.28257 ], [ 81.06633, 25.27658 ], [ 81.06876, 25.27554 ], [ 81.07899, 25.27547 ], [ 81.08302, 25.27451 ], [ 81.08646, 25.27081 ], [ 81.0947, 25.2699 ], [ 81.1018, 25.26592 ], [ 81.10704, 25.26418 ], [ 81.11004, 25.26476 ], [ 81.10989, 25.2692 ], [ 81.11525, 25.27264 ], [ 81.12271, 25.26763 ], [ 81.12332, 25.26183 ], [ 81.12454, 25.26199 ], [ 81.12671, 25.263 ], [ 81.12879, 25.26605 ], [ 81.12847, 25.27117 ], [ 81.12933, 25.27398 ], [ 81.13701, 25.27872 ], [ 81.14631, 25.27604 ], [ 81.14589, 25.27313 ], [ 81.14743, 25.27026 ], [ 81.14536, 25.26754 ], [ 81.14517, 25.26573 ], [ 81.14734, 25.26362 ], [ 81.14877, 25.25929 ], [ 81.15081, 25.25864 ], [ 81.15124, 25.25697 ], [ 81.1499, 25.25422 ], [ 81.14656, 25.25224 ], [ 81.14892, 25.24795 ], [ 81.14786, 25.24483 ], [ 81.14925, 25.24352 ], [ 81.14712, 25.24042 ], [ 81.14774, 25.23793 ], [ 81.14709, 25.23637 ], [ 81.14834, 25.22957 ], [ 81.14799, 25.22797 ], [ 81.14932, 25.22781 ], [ 81.14941, 25.22473 ], [ 81.15012, 25.22393 ], [ 81.15022, 25.22204 ], [ 81.14914, 25.22085 ], [ 81.15057, 25.21966 ], [ 81.15006, 25.21838 ], [ 81.15107, 25.21619 ], [ 81.15069, 25.21539 ], [ 81.14999, 25.21637 ], [ 81.14866, 25.21582 ], [ 81.14863, 25.21473 ], [ 81.14966, 25.21381 ], [ 81.14498, 25.21258 ], [ 81.14605, 25.21187 ], [ 81.1463, 25.20957 ], [ 81.14711, 25.2093 ], [ 81.14853, 25.20557 ], [ 81.14721, 25.20418 ], [ 81.14813, 25.20285 ], [ 81.14803, 25.19934 ], [ 81.14971, 25.19888 ], [ 81.15008, 25.19639 ], [ 81.14941, 25.195 ], [ 81.15207, 25.19318 ], [ 81.15304, 25.18987 ], [ 81.15548, 25.18791 ], [ 81.15808, 25.18736 ], [ 81.16104, 25.18861 ], [ 81.16287, 25.19398 ], [ 81.16581, 25.19774 ], [ 81.16631, 25.19459 ], [ 81.1655, 25.194 ], [ 81.16603, 25.19204 ], [ 81.16541, 25.18987 ], [ 81.16759, 25.18763 ], [ 81.16831, 25.1851 ], [ 81.17157, 25.18418 ], [ 81.17254, 25.18197 ], [ 81.17084, 25.17971 ], [ 81.17074, 25.17779 ], [ 81.16899, 25.17562 ], [ 81.16911, 25.17455 ], [ 81.17402, 25.17113 ], [ 81.17783, 25.17147 ], [ 81.17976, 25.17026 ], [ 81.18204, 25.16758 ], [ 81.18212, 25.16599 ], [ 81.18472, 25.16067 ], [ 81.19166, 25.15754 ], [ 81.19018, 25.15277 ], [ 81.19023, 25.14927 ], [ 81.19256, 25.14966 ], [ 81.19482, 25.14866 ], [ 81.19684, 25.14713 ], [ 81.19687, 25.14537 ], [ 81.19845, 25.14286 ], [ 81.20053, 25.14299 ], [ 81.20386, 25.14101 ], [ 81.20318, 25.13991 ], [ 81.20346, 25.13788 ], [ 81.20707, 25.13158 ], [ 81.20721, 25.12998 ], [ 81.20498, 25.12788 ], [ 81.20545, 25.12553 ], [ 81.20317, 25.12403 ], [ 81.20069, 25.12469 ], [ 81.20029, 25.12398 ], [ 81.2057, 25.11939 ], [ 81.20918, 25.12012 ], [ 81.21503, 25.12448 ], [ 81.22002, 25.12952 ], [ 81.22268, 25.12867 ], [ 81.22493, 25.13087 ], [ 81.22396, 25.13452 ], [ 81.22008, 25.14144 ], [ 81.22392, 25.14776 ], [ 81.227, 25.151 ], [ 81.22433, 25.16647 ], [ 81.22671, 25.16515 ], [ 81.22992, 25.15576 ], [ 81.23475, 25.15138 ], [ 81.24565, 25.14979 ], [ 81.2482, 25.14756 ], [ 81.25723, 25.14723 ], [ 81.25951, 25.14607 ], [ 81.26184, 25.14315 ], [ 81.2661, 25.14305 ], [ 81.26699, 25.14219 ], [ 81.2661, 25.13977 ], [ 81.26832, 25.13388 ], [ 81.26817, 25.12809 ], [ 81.26416, 25.1268 ], [ 81.26276, 25.12539 ], [ 81.26479, 25.12228 ], [ 81.26472, 25.11669 ], [ 81.26133, 25.11018 ], [ 81.2572, 25.11106 ], [ 81.25327, 25.10776 ], [ 81.25214, 25.10208 ], [ 81.255, 25.09854 ], [ 81.25849, 25.09752 ], [ 81.25965, 25.0918 ], [ 81.26156, 25.08837 ], [ 81.26667, 25.08439 ], [ 81.25949, 25.07574 ], [ 81.26506, 25.07355 ], [ 81.26736, 25.071 ], [ 81.2689, 25.06745 ], [ 81.26204, 25.05808 ], [ 81.26382, 25.05277 ], [ 81.25857, 25.049 ], [ 81.257, 25.04408 ], [ 81.25373, 25.0389 ], [ 81.24829, 25.03305 ], [ 81.2451, 25.02752 ], [ 81.24183, 25.02587 ], [ 81.23935, 25.01922 ], [ 81.23724, 25.01792 ], [ 81.23374, 25.01143 ], [ 81.22947, 25.00727 ], [ 81.22666, 25.00196 ], [ 81.22441, 25.00042 ], [ 81.22363, 24.99884 ], [ 81.2208, 24.9974 ], [ 81.21304, 24.99999 ], [ 81.21208, 24.9957 ], [ 81.20892, 24.99262 ], [ 81.21643, 24.98627 ], [ 81.21932, 24.98213 ], [ 81.22087, 24.97761 ], [ 81.22028, 24.97382 ], [ 81.21681, 24.97091 ], [ 81.21313, 24.9697 ], [ 81.20714, 24.96448 ], [ 81.20847, 24.96226 ], [ 81.21443, 24.95796 ], [ 81.21355, 24.95344 ], [ 81.21463, 24.94852 ], [ 81.21113, 24.94614 ], [ 81.21318, 24.94532 ], [ 81.21473, 24.93866 ], [ 81.21359, 24.93686 ], [ 81.21524, 24.93288 ], [ 81.2173, 24.93239 ], [ 81.21935, 24.93511 ], [ 81.22061, 24.93453 ], [ 81.21964, 24.92862 ], [ 81.21388, 24.92756 ], [ 81.21016, 24.92423 ], [ 81.21017, 24.92262 ], [ 81.2035, 24.92476 ], [ 81.20162, 24.9269 ], [ 81.19639, 24.92468 ], [ 81.19291, 24.92535 ], [ 81.19146, 24.92621 ], [ 81.19162, 24.92718 ], [ 81.19759, 24.92795 ], [ 81.19872, 24.93044 ], [ 81.2007, 24.93178 ], [ 81.20281, 24.93186 ], [ 81.20591, 24.92981 ], [ 81.20719, 24.93043 ], [ 81.20354, 24.93266 ], [ 81.20097, 24.93801 ], [ 81.19737, 24.93867 ], [ 81.19715, 24.94147 ], [ 81.19223, 24.94502 ], [ 81.18881, 24.94472 ], [ 81.18515, 24.95204 ], [ 81.18265, 24.9502 ], [ 81.17937, 24.94988 ], [ 81.17633, 24.95231 ], [ 81.17632, 24.95393 ], [ 81.17221, 24.9573 ], [ 81.16801, 24.95523 ], [ 81.16471, 24.94683 ], [ 81.16402, 24.94265 ], [ 81.16606, 24.93816 ], [ 81.16371, 24.93764 ], [ 81.16346, 24.93345 ], [ 81.16436, 24.93188 ], [ 81.16378, 24.92832 ], [ 81.16133, 24.92792 ], [ 81.15852, 24.92344 ], [ 81.1588, 24.92155 ], [ 81.16079, 24.91912 ], [ 81.1602, 24.91355 ], [ 81.15588, 24.91412 ], [ 81.1504, 24.9137 ], [ 81.14546, 24.9103 ], [ 81.14512, 24.90672 ], [ 81.14165, 24.90324 ], [ 81.13991, 24.89675 ], [ 81.14007, 24.89264 ], [ 81.14124, 24.89025 ], [ 81.1396, 24.88753 ], [ 81.13591, 24.89057 ], [ 81.13332, 24.89151 ], [ 81.13131, 24.89439 ], [ 81.12248, 24.89967 ], [ 81.12058, 24.90186 ], [ 81.11808, 24.90787 ], [ 81.11634, 24.90829 ], [ 81.1123, 24.90737 ], [ 81.10686, 24.9133 ], [ 81.10388, 24.9183 ], [ 81.0995, 24.91938 ], [ 81.0963, 24.92119 ], [ 81.09337, 24.92899 ], [ 81.09046, 24.92887 ], [ 81.0897, 24.93152 ], [ 81.08704, 24.93322 ], [ 81.08942, 24.93946 ], [ 81.0889, 24.94164 ], [ 81.0903, 24.94494 ], [ 81.08951, 24.94656 ], [ 81.08784, 24.94704 ], [ 81.08451, 24.94991 ], [ 81.07971, 24.94828 ], [ 81.0705, 24.94984 ], [ 81.06625, 24.94903 ], [ 81.06085, 24.95192 ], [ 81.05518, 24.95216 ], [ 81.05284, 24.95017 ], [ 81.0499, 24.94981 ], [ 81.04076, 24.95046 ], [ 81.03373, 24.95261 ], [ 81.02856, 24.94859 ], [ 81.02585, 24.94875 ], [ 81.0261, 24.94684 ], [ 81.02835, 24.94349 ], [ 81.02548, 24.94475 ], [ 81.0242, 24.94342 ], [ 81.02558, 24.94005 ], [ 81.02399, 24.94131 ], [ 81.02284, 24.94422 ], [ 81.01914, 24.94752 ], [ 81.01627, 24.9515 ], [ 81.01411, 24.95015 ], [ 81.01354, 24.94776 ], [ 81.01672, 24.94509 ], [ 81.02008, 24.93987 ], [ 81.0212, 24.93945 ], [ 81.02132, 24.93771 ], [ 81.02261, 24.93578 ], [ 81.02736, 24.93465 ], [ 81.02885, 24.93326 ], [ 81.0283, 24.93269 ], [ 81.02467, 24.93309 ], [ 81.02307, 24.92762 ], [ 81.02052, 24.92844 ], [ 81.01718, 24.93102 ], [ 81.01316, 24.92793 ], [ 81.00952, 24.93599 ], [ 81.00711, 24.93712 ], [ 81.00607, 24.93626 ], [ 81.00451, 24.93722 ], [ 81.00405, 24.93647 ], [ 81.00229, 24.93693 ], [ 81.0004, 24.93604 ], [ 80.99722, 24.93288 ], [ 80.99573, 24.92955 ], [ 80.99653, 24.92811 ], [ 80.98763, 24.92603 ], [ 80.98649, 24.92468 ], [ 80.98675, 24.9232 ], [ 80.98275, 24.92664 ], [ 80.9847, 24.93018 ], [ 80.98618, 24.9306 ], [ 80.98538, 24.93288 ], [ 80.9815, 24.93258 ], [ 80.97385, 24.93419 ], [ 80.9702, 24.93305 ], [ 80.96825, 24.93003 ], [ 80.9646, 24.92982 ], [ 80.96574, 24.92607 ], [ 80.96186, 24.92576 ], [ 80.96197, 24.92285 ], [ 80.95992, 24.91921 ], [ 80.95718, 24.91785 ], [ 80.95752, 24.92181 ], [ 80.95615, 24.92119 ], [ 80.9557, 24.92192 ], [ 80.9573, 24.92306 ], [ 80.95655, 24.92989 ], [ 80.95879, 24.93858 ], [ 80.95844, 24.93942 ], [ 80.9557, 24.94055 ], [ 80.95273, 24.93972 ], [ 80.95068, 24.94076 ], [ 80.94771, 24.94097 ], [ 80.95023, 24.94742 ], [ 80.95262, 24.95001 ], [ 80.95405, 24.95434 ], [ 80.95361, 24.95595 ], [ 80.95095, 24.95896 ], [ 80.95006, 24.96441 ], [ 80.946, 24.96626 ], [ 80.93635, 24.96198 ], [ 80.92835, 24.96106 ], [ 80.92609, 24.95945 ], [ 80.91629, 24.95592 ], [ 80.90372, 24.94978 ], [ 80.89915, 24.94862 ], [ 80.89762, 24.94503 ], [ 80.90016, 24.94121 ], [ 80.90524, 24.93866 ], [ 80.90708, 24.93505 ], [ 80.90619, 24.93493 ], [ 80.90447, 24.93806 ], [ 80.89946, 24.94004 ], [ 80.89546, 24.94511 ], [ 80.89172, 24.94511 ], [ 80.87897, 24.93949 ], [ 80.87902, 24.93677 ], [ 80.88083, 24.93534 ], [ 80.87757, 24.9345 ], [ 80.87446, 24.936 ], [ 80.87324, 24.93581 ], [ 80.8722, 24.93464 ], [ 80.87015, 24.93441 ], [ 80.86179, 24.92996 ], [ 80.86073, 24.92867 ], [ 80.85936, 24.92895 ], [ 80.85667, 24.93158 ], [ 80.8547, 24.93069 ], [ 80.85133, 24.93157 ], [ 80.84781, 24.92985 ], [ 80.84386, 24.93062 ], [ 80.83744, 24.92833 ], [ 80.838, 24.9215 ], [ 80.8363, 24.91985 ], [ 80.83254, 24.92001 ], [ 80.82901, 24.91793 ], [ 80.82532, 24.91977 ], [ 80.81459, 24.9209 ], [ 80.81199, 24.92255 ], [ 80.8119, 24.92346 ], [ 80.81245, 24.92342 ], [ 80.81391, 24.92743 ], [ 80.81905, 24.93074 ], [ 80.82005, 24.93169 ], [ 80.82005, 24.93291 ], [ 80.81811, 24.93311 ], [ 80.81279, 24.93737 ], [ 80.80817, 24.93868 ], [ 80.80584, 24.94368 ], [ 80.80877, 24.94886 ], [ 80.80888, 24.95206 ], [ 80.80993, 24.95273 ], [ 80.80719, 24.95376 ], [ 80.80517, 24.95351 ], [ 80.7995, 24.95854 ], [ 80.79518, 24.96023 ], [ 80.79454, 24.96235 ], [ 80.79221, 24.96487 ], [ 80.7998, 24.96841 ], [ 80.80599, 24.96885 ], [ 80.81137, 24.97023 ], [ 80.81389, 24.96936 ], [ 80.81383, 24.96749 ], [ 80.81588, 24.96621 ], [ 80.82379, 24.96777 ], [ 80.82543, 24.96966 ], [ 80.82526, 24.97512 ], [ 80.82723, 24.97775 ], [ 80.83382, 24.98243 ], [ 80.84589, 24.98392 ], [ 80.8521, 24.98892 ], [ 80.85334, 24.99339 ], [ 80.85309, 24.99673 ], [ 80.85527, 25.00127 ], [ 80.85513, 25.00399 ], [ 80.84977, 25.01 ], [ 80.84303, 25.01962 ], [ 80.83943, 25.02064 ], [ 80.83655, 25.02269 ], [ 80.83316, 25.02844 ], [ 80.83178, 25.03287 ], [ 80.8325, 25.03337 ], [ 80.8365, 25.03255 ], [ 80.84012, 25.03342 ], [ 80.84233, 25.03566 ], [ 80.844, 25.04098 ], [ 80.8464, 25.04444 ], [ 80.85546, 25.04731 ], [ 80.86375, 25.05652 ], [ 80.86966, 25.05886 ], [ 80.87804, 25.06547 ], [ 80.87718, 25.0726 ], [ 80.87539, 25.07383 ], [ 80.86861, 25.07299 ], [ 80.86718, 25.07951 ], [ 80.87268, 25.08967 ], [ 80.87682, 25.0961 ], [ 80.87951, 25.09867 ], [ 80.87914, 25.10156 ], [ 80.87459, 25.10415 ], [ 80.87382, 25.10928 ], [ 80.87015, 25.11117 ], [ 80.86818, 25.1146 ], [ 80.8688, 25.11653 ], [ 80.87494, 25.12026 ], [ 80.87626, 25.12376 ], [ 80.87886, 25.12565 ], [ 80.87953, 25.13834 ], [ 80.88219, 25.13738 ], [ 80.88401, 25.13536 ], [ 80.88711, 25.13464 ], [ 80.88863, 25.13252 ], [ 80.89478, 25.13401 ], [ 80.89573, 25.13529 ], [ 80.89421, 25.13646 ], [ 80.89454, 25.13818 ], [ 80.89845, 25.14233 ], [ 80.90193, 25.14781 ], [ 80.90437, 25.14991 ], [ 80.90797, 25.15261 ], [ 80.91013, 25.15227 ], [ 80.91271, 25.15056 ], [ 80.91445, 25.15103 ], [ 80.92196, 25.15712 ], [ 80.9251, 25.16233 ], [ 80.92626, 25.1621 ], [ 80.93535, 25.16859 ], [ 80.93354, 25.17234 ], [ 80.93066, 25.17368 ], [ 80.93182, 25.17727 ], [ 80.93545, 25.17564 ], [ 80.94236, 25.17818 ], [ 80.94474, 25.17632 ], [ 80.95291, 25.17812 ], [ 80.95406, 25.1802 ], [ 80.95389, 25.18303 ], [ 80.95584, 25.18537 ], [ 80.95861, 25.18552 ], [ 80.96107, 25.1877 ], [ 80.96237, 25.18782 ], [ 80.9636, 25.18685 ], [ 80.9693, 25.18861 ], [ 80.97127, 25.18554 ], [ 80.97349, 25.18839 ], [ 80.97551, 25.18872 ], [ 80.97826, 25.19198 ], [ 80.97733, 25.19438 ], [ 80.9808, 25.19346 ], [ 80.98506, 25.19861 ], [ 80.98453, 25.20359 ], [ 80.9835, 25.20428 ], [ 80.98633, 25.20726 ], [ 80.98441, 25.20927 ], [ 80.98434, 25.21033 ], [ 80.98538, 25.21042 ], [ 80.98535, 25.21218 ], [ 80.98721, 25.21306 ], [ 80.98797, 25.21236 ], [ 80.98819, 25.21486 ], [ 80.98887, 25.2142 ], [ 80.98991, 25.21492 ], [ 80.99135, 25.21394 ], [ 80.99304, 25.21582 ], [ 80.99181, 25.21713 ], [ 80.99275, 25.21829 ], [ 80.99195, 25.2198 ], [ 80.99314, 25.22126 ], [ 80.99461, 25.22154 ], [ 80.99353, 25.22195 ], [ 80.99279, 25.22464 ], [ 80.99139, 25.22465 ], [ 80.99049, 25.22805 ], [ 80.99241, 25.23115 ], [ 80.99725, 25.23433 ], [ 80.99678, 25.23213 ], [ 80.99892, 25.2306 ], [ 80.99944, 25.2339 ], [ 81.00442, 25.23896 ], [ 81.01171, 25.23516 ], [ 81.01677, 25.23495 ], [ 81.01811, 25.23751 ], [ 81.02075, 25.23954 ], [ 81.02435, 25.24412 ], [ 81.02509, 25.25038 ], [ 81.02693, 25.25004 ], [ 81.02892, 25.25275 ], [ 81.02995, 25.25275 ], [ 81.0303, 25.24916 ], [ 81.03123, 25.2489 ], [ 81.03265, 25.24957 ], [ 81.03691, 25.255 ], [ 81.03759, 25.25807 ], [ 81.03685, 25.25927 ], [ 81.03181, 25.26212 ], [ 81.03014, 25.26409 ], [ 81.02916, 25.27101 ], [ 81.03088, 25.28627 ], [ 81.03137, 25.28892 ], [ 81.03327, 25.29181 ], [ 81.03686, 25.2946 ], [ 81.03942, 25.29876 ], [ 81.04224, 25.29908 ] ] ] } },
{ "type": "Feature", "properties": { "OBJECTID": 2617, "state_lgd": "09", "state_name": "UTTAR PRADESH", "district_lgd": "171", "district_name": "CHITRAKOOT", "district_name_source": "district_table", "subdistrict_lgd": "876", "subdistrict_name": "MAU", "subdistrict_type": "Tehsil", "name_corrupted": false, "remarks": "", "label_lon": 81.348964080526912, "label_lat": 25.219832321009836 }, "geometry": { "type": "Polygon", "coordinates": [ [ [ 81.43926, 25.10686 ], [ 81.44517, 25.10599 ], [ 81.44766, 25.10717 ], [ 81.4457, 25.10926 ], [ 81.44668, 25.11109 ], [ 81.44513, 25.11608 ], [ 81.44382, 25.11622 ], [ 81.4438, 25.11821 ], [ 81.44269, 25.11974 ], [ 81.44194, 25.12071 ], [ 81.4402, 25.12103 ], [ 81.43791, 25.12389 ], [ 81.43693, 25.12815 ], [ 81.43852, 25.13033 ], [ 81.43245, 25.1303 ], [ 81.4301, 25.13118 ], [ 81.42892, 25.13049 ], [ 81.42561, 25.13261 ], [ 81.42187, 25.12855 ], [ 81.4154, 25.12844 ], [ 81.40619, 25.13129 ], [ 81.40526, 25.13063 ], [ 81.4057, 25.12911 ], [ 81.40853, 25.12523 ], [ 81.41429, 25.12093 ], [ 81.41213, 25.11992 ], [ 81.39992, 25.11922 ], [ 81.39521, 25.12274 ], [ 81.3954, 25.12616 ], [ 81.39326, 25.12623 ], [ 81.39405, 25.12924 ], [ 81.39214, 25.13013 ], [ 81.39262, 25.13096 ], [ 81.38538, 25.13216 ], [ 81.38299, 25.13405 ], [ 81.38228, 25.13608 ], [ 81.37856, 25.13484 ], [ 81.3709, 25.13484 ], [ 81.37154, 25.1364 ], [ 81.37541, 25.13904 ], [ 81.37573, 25.14173 ], [ 81.36882, 25.1439 ], [ 81.36268, 25.15306 ], [ 81.3617, 25.15923 ], [ 81.35728, 25.1631 ], [ 81.35402, 25.16391 ], [ 81.35273, 25.16202 ], [ 81.34528, 25.1619 ], [ 81.3388, 25.16549 ], [ 81.33452, 25.1693 ], [ 81.3311, 25.16666 ], [ 81.32668, 25.16538 ], [ 81.32106, 25.16032 ], [ 81.31956, 25.15678 ], [ 81.3188, 25.14846 ], [ 81.31867, 25.14397 ], [ 81.3217, 25.13964 ], [ 81.32503, 25.13651 ], [ 81.32394, 25.13476 ], [ 81.32401, 25.12763 ], [ 81.3262, 25.11936 ], [ 81.33108, 25.11463 ], [ 81.32732, 25.11415 ], [ 81.32406, 25.11251 ], [ 81.32099, 25.11301 ], [ 81.32127, 25.11877 ], [ 81.32058, 25.12019 ], [ 81.31889, 25.12092 ], [ 81.31857, 25.12282 ], [ 81.31624, 25.12349 ], [ 81.3179, 25.1254 ], [ 81.31708, 25.12666 ], [ 81.31569, 25.1271 ], [ 81.31516, 25.13242 ], [ 81.31422, 25.13281 ], [ 81.31432, 25.13539 ], [ 81.3119, 25.13777 ], [ 81.31322, 25.14945 ], [ 81.31229, 25.15591 ], [ 81.3155, 25.15888 ], [ 81.31343, 25.16374 ], [ 81.29921, 25.16447 ], [ 81.29658, 25.16268 ], [ 81.28897, 25.16188 ], [ 81.28546, 25.16278 ], [ 81.28152, 25.16517 ], [ 81.27752, 25.166 ], [ 81.2751, 25.16346 ], [ 81.28062, 25.1556 ], [ 81.28167, 25.15206 ], [ 81.27755, 25.14652 ], [ 81.26616, 25.13969 ], [ 81.26671, 25.14275 ], [ 81.26256, 25.14279 ], [ 81.25818, 25.14693 ], [ 81.2482, 25.14756 ], [ 81.24565, 25.14979 ], [ 81.23733, 25.15083 ], [ 81.23355, 25.15209 ], [ 81.22992, 25.15576 ], [ 81.22671, 25.16515 ], [ 81.22433, 25.16647 ], [ 81.227, 25.151 ], [ 81.22392, 25.14776 ], [ 81.22008, 25.14144 ], [ 81.22396, 25.13452 ], [ 81.22493, 25.13087 ], [ 81.22268, 25.12867 ], [ 81.22002, 25.12952 ], [ 81.21503, 25.12448 ], [ 81.20918, 25.12012 ], [ 81.2057, 25.11939 ], [ 81.20029, 25.12398 ], [ 81.20069, 25.12469 ], [ 81.20317, 25.12403 ], [ 81.20545, 25.12553 ], [ 81.20498, 25.12788 ], [ 81.20721, 25.12998 ], [ 81.20707, 25.13158 ], [ 81.20346, 25.13788 ], [ 81.20318, 25.13991 ], [ 81.20386, 25.14101 ], [ 81.20053, 25.14299 ], [ 81.19845, 25.14286 ], [ 81.19687, 25.14537 ], [ 81.19684, 25.14713 ], [ 81.19482, 25.14866 ], [ 81.19256, 25.14966 ], [ 81.19023, 25.14927 ], [ 81.19018, 25.15277 ], [ 81.19166, 25.15754 ], [ 81.18472, 25.16067 ], [ 81.18212, 25.16599 ], [ 81.18204, 25.16758 ], [ 81.17976, 25.17026 ], [ 81.17783, 25.17147 ], [ 81.17402, 25.17113 ], [ 81.16911, 25.17455 ], [ 81.16899, 25.17562 ], [ 81.17074, 25.17779 ], [ 81.17084, 25.17971 ], [ 81.17254, 25.18197 ], [ 81.17157, 25.18418 ], [ 81.16831, 25.1851 ], [ 81.16759, 25.18763 ], [ 81.16541, 25.18987 ], [ 81.16603, 25.19204 ], [ 81.1655, 25.194 ], [ 81.16631, 25.19459 ], [ 81.16581, 25.19774 ], [ 81.16287, 25.19398 ], [ 81.16104, 25.18861 ], [ 81.15808, 25.18736 ], [ 81.15548, 25.18791 ], [ 81.15304, 25.18987 ], [ 81.15207, 25.19318 ], [ 81.14941, 25.195 ], [ 81.15008, 25.19639 ], [ 81.14971, 25.19888 ], [ 81.14803, 25.19934 ], [ 81.14813, 25.20285 ], [ 81.14721, 25.20418 ], [ 81.14853, 25.20557 ], [ 81.14711, 25.2093 ], [ 81.1463, 25.20957 ], [ 81.14605, 25.21187 ], [ 81.14498, 25.21258 ], [ 81.14966, 25.21381 ], [ 81.14863, 25.21473 ], [ 81.14866, 25.21582 ], [ 81.14999, 25.21637 ], [ 81.15069, 25.21539 ], [ 81.15107, 25.21619 ], [ 81.15006, 25.21838 ], [ 81.15057, 25.21966 ], [ 81.14914, 25.22085 ], [ 81.15022, 25.22204 ], [ 81.15012, 25.22393 ], [ 81.14941, 25.22473 ], [ 81.14932, 25.22781 ], [ 81.14799, 25.22797 ], [ 81.14834, 25.22957 ], [ 81.14709, 25.23637 ], [ 81.14774, 25.23793 ], [ 81.14712, 25.24042 ], [ 81.14925, 25.24352 ], [ 81.14786, 25.24483 ], [ 81.14892, 25.24795 ], [ 81.14656, 25.25224 ], [ 81.1499, 25.25422 ], [ 81.1512, 25.25785 ], [ 81.14877, 25.25929 ], [ 81.14734, 25.26362 ], [ 81.14517, 25.26573 ], [ 81.14536, 25.26754 ], [ 81.14743, 25.27026 ], [ 81.14589, 25.27313 ], [ 81.14631, 25.27604 ], [ 81.13574, 25.2789 ], [ 81.13301, 25.28067 ], [ 81.13362, 25.28142 ], [ 81.133, 25.28279 ], [ 81.13537, 25.28599 ], [ 81.13626, 25.28866 ], [ 81.13973, 25.29216 ], [ 81.13988, 25.29696 ], [ 81.14513, 25.29393 ], [ 81.14471, 25.29131 ], [ 81.14599, 25.28994 ], [ 81.14838, 25.29011 ], [ 81.15099, 25.29325 ], [ 81.15248, 25.29324 ], [ 81.15684, 25.29095 ], [ 81.15772, 25.28949 ], [ 81.15719, 25.28588 ], [ 81.16027, 25.28549 ], [ 81.16125, 25.28295 ], [ 81.16214, 25.28258 ], [ 81.16622, 25.28237 ], [ 81.16813, 25.28525 ], [ 81.18672, 25.28267 ], [ 81.18741, 25.28203 ], [ 81.18539, 25.28016 ], [ 81.18667, 25.27751 ], [ 81.19061, 25.27404 ], [ 81.19208, 25.2714 ], [ 81.19319, 25.27303 ], [ 81.19419, 25.27275 ], [ 81.19507, 25.2712 ], [ 81.19475, 25.26966 ], [ 81.19624, 25.26884 ], [ 81.2017, 25.26753 ], [ 81.21459, 25.26173 ], [ 81.21628, 25.2651 ], [ 81.21974, 25.26818 ], [ 81.22012, 25.2712 ], [ 81.22226, 25.2739 ], [ 81.22495, 25.27981 ], [ 81.23347, 25.29041 ], [ 81.23637, 25.30007 ], [ 81.23574, 25.3069 ], [ 81.23691, 25.30887 ], [ 81.23787, 25.3136 ], [ 81.23972, 25.31484 ], [ 81.24395, 25.31376 ], [ 81.24416, 25.3122 ], [ 81.24724, 25.3103 ], [ 81.25034, 25.31152 ], [ 81.25423, 25.31037 ], [ 81.25208, 25.3069 ], [ 81.2522, 25.30179 ], [ 81.25303, 25.29923 ], [ 81.25508, 25.29781 ], [ 81.25645, 25.29717 ], [ 81.25915, 25.2984 ], [ 81.26906, 25.29457 ], [ 81.27342, 25.29485 ], [ 81.27356, 25.29714 ], [ 81.2765, 25.29904 ], [ 81.27696, 25.30529 ], [ 81.26704, 25.30782 ], [ 81.26653, 25.30866 ], [ 81.26682, 25.30962 ], [ 81.27115, 25.3125 ], [ 81.27249, 25.31489 ], [ 81.27245, 25.31603 ], [ 81.26732, 25.31962 ], [ 81.26787, 25.32528 ], [ 81.27604, 25.32709 ], [ 81.27967, 25.33349 ], [ 81.28882, 25.34008 ], [ 81.29632, 25.34175 ], [ 81.30394, 25.33999 ], [ 81.31078, 25.34291 ], [ 81.3316, 25.34886 ], [ 81.3497, 25.34623 ], [ 81.37637, 25.33896 ], [ 81.38945, 25.33347 ], [ 81.3968, 25.32861 ], [ 81.39878, 25.32635 ], [ 81.40197, 25.3175 ], [ 81.40215, 25.31328 ], [ 81.40104, 25.30651 ], [ 81.39845, 25.30149 ], [ 81.38624, 25.28811 ], [ 81.38341, 25.28203 ], [ 81.38366, 25.27758 ], [ 81.38585, 25.27514 ], [ 81.39008, 25.27308 ], [ 81.39722, 25.27142 ], [ 81.42576, 25.26836 ], [ 81.45186, 25.25902 ], [ 81.46009, 25.25852 ], [ 81.46616, 25.26091 ], [ 81.46915, 25.26629 ], [ 81.47113, 25.26769 ], [ 81.47744, 25.26617 ], [ 81.48423, 25.2675 ], [ 81.49987, 25.26797 ], [ 81.50746, 25.26942 ], [ 81.51484, 25.27319 ], [ 81.5285, 25.27839 ], [ 81.53488, 25.2836 ], [ 81.54304, 25.28751 ], [ 81.54997, 25.29217 ], [ 81.5509, 25.28805 ], [ 81.55044, 25.28626 ], [ 81.55122, 25.28555 ], [ 81.54948, 25.28421 ], [ 81.55384, 25.28009 ], [ 81.5531, 25.27949 ], [ 81.55335, 25.27759 ], [ 81.55201, 25.27339 ], [ 81.55322, 25.27079 ], [ 81.55297, 25.2683 ], [ 81.55406, 25.26398 ], [ 81.5521, 25.25585 ], [ 81.55419, 25.25576 ], [ 81.55673, 25.25224 ], [ 81.55748, 25.25033 ], [ 81.55531, 25.24943 ], [ 81.55754, 25.24686 ], [ 81.5575, 25.24541 ], [ 81.55966, 25.24328 ], [ 81.55972, 25.242 ], [ 81.56115, 25.24146 ], [ 81.56082, 25.24021 ], [ 81.56209, 25.23974 ], [ 81.5622, 25.2387 ], [ 81.55767, 25.23743 ], [ 81.55581, 25.23572 ], [ 81.55426, 25.23569 ], [ 81.55397, 25.23414 ], [ 81.55235, 25.23357 ], [ 81.54368, 25.23489 ], [ 81.53172, 25.23458 ], [ 81.52828, 25.23368 ], [ 81.52285, 25.23583 ], [ 81.52231, 25.23483 ], [ 81.52309, 25.2339 ], [ 81.52312, 25.22782 ], [ 81.52166, 25.22572 ], [ 81.51862, 25.22563 ], [ 81.51959, 25.22101 ], [ 81.51911, 25.21629 ], [ 81.51708, 25.21017 ], [ 81.51726, 25.20811 ], [ 81.51807, 25.20753 ], [ 81.51702, 25.20654 ], [ 81.51767, 25.20105 ], [ 81.51702, 25.19611 ], [ 81.51843, 25.19509 ], [ 81.52344, 25.19451 ], [ 81.52726, 25.19199 ], [ 81.52994, 25.19312 ], [ 81.53282, 25.19165 ], [ 81.53965, 25.19059 ], [ 81.54026, 25.1895 ], [ 81.53979, 25.18806 ], [ 81.54051, 25.18737 ], [ 81.53954, 25.18649 ], [ 81.54055, 25.18521 ], [ 81.5397, 25.18344 ], [ 81.5398, 25.18036 ], [ 81.5394, 25.18091 ], [ 81.53451, 25.18063 ], [ 81.53284, 25.18239 ], [ 81.52746, 25.18085 ], [ 81.52498, 25.18236 ], [ 81.52496, 25.18386 ], [ 81.51838, 25.18605 ], [ 81.5146, 25.18434 ], [ 81.51441, 25.17953 ], [ 81.51248, 25.17734 ], [ 81.51282, 25.17647 ], [ 81.514, 25.17628 ], [ 81.51464, 25.17358 ], [ 81.51617, 25.17407 ], [ 81.51597, 25.17271 ], [ 81.51824, 25.17145 ], [ 81.51792, 25.1705 ], [ 81.52002, 25.16922 ], [ 81.52077, 25.16755 ], [ 81.52247, 25.16743 ], [ 81.52533, 25.16563 ], [ 81.52496, 25.16457 ], [ 81.52578, 25.16417 ], [ 81.52716, 25.1652 ], [ 81.52915, 25.16406 ], [ 81.53099, 25.1647 ], [ 81.5365, 25.16055 ], [ 81.5356, 25.15812 ], [ 81.5331, 25.15705 ], [ 81.53143, 25.15522 ], [ 81.53205, 25.15485 ], [ 81.52992, 25.15161 ], [ 81.5246, 25.14873 ], [ 81.5227, 25.14667 ], [ 81.52658, 25.14779 ], [ 81.5309, 25.14521 ], [ 81.53024, 25.14286 ], [ 81.52724, 25.13809 ], [ 81.5266, 25.13811 ], [ 81.52396, 25.13912 ], [ 81.52182, 25.14131 ], [ 81.51977, 25.14181 ], [ 81.51916, 25.14315 ], [ 81.51548, 25.14304 ], [ 81.5139, 25.14564 ], [ 81.50998, 25.14601 ], [ 81.5088, 25.14782 ], [ 81.49951, 25.14868 ], [ 81.49858, 25.14753 ], [ 81.49911, 25.14705 ], [ 81.49864, 25.14436 ], [ 81.49709, 25.14332 ], [ 81.49618, 25.14047 ], [ 81.49555, 25.13444 ], [ 81.49565, 25.13301 ], [ 81.49632, 25.13311 ], [ 81.49576, 25.13127 ], [ 81.49603, 25.12996 ], [ 81.4967, 25.13019 ], [ 81.49638, 25.12898 ], [ 81.49388, 25.13208 ], [ 81.48781, 25.13329 ], [ 81.48519, 25.13483 ], [ 81.47996, 25.13218 ], [ 81.48076, 25.12764 ], [ 81.48744, 25.12377 ], [ 81.48414, 25.11595 ], [ 81.48866, 25.11421 ], [ 81.49032, 25.10945 ], [ 81.49583, 25.10853 ], [ 81.49826, 25.10506 ], [ 81.50034, 25.10669 ], [ 81.50218, 25.1063 ], [ 81.50307, 25.10686 ], [ 81.50893, 25.10535 ], [ 81.51371, 25.10156 ], [ 81.5181, 25.10074 ], [ 81.50962, 25.09783 ], [ 81.50665, 25.09553 ], [ 81.50319, 25.09515 ], [ 81.50241, 25.09605 ], [ 81.50024, 25.09638 ], [ 81.5028, 25.09264 ], [ 81.50298, 25.08971 ], [ 81.50186, 25.08609 ], [ 81.5018, 25.08175 ], [ 81.50085, 25.0801 ], [ 81.50108, 25.07743 ], [ 81.49947, 25.07682 ], [ 81.49844, 25.07874 ], [ 81.49722, 25.07837 ], [ 81.49586, 25.07987 ], [ 81.49365, 25.08027 ], [ 81.49113, 25.07232 ], [ 81.48647, 25.07346 ], [ 81.48205, 25.07675 ], [ 81.47228, 25.07809 ], [ 81.46927, 25.07979 ], [ 81.46506, 25.08381 ], [ 81.46733, 25.08841 ], [ 81.46481, 25.09011 ], [ 81.46191, 25.08937 ], [ 81.46158, 25.09038 ], [ 81.45451, 25.09039 ], [ 81.44259, 25.09343 ], [ 81.43677, 25.09408 ], [ 81.42993, 25.09762 ], [ 81.42736, 25.09729 ], [ 81.42644, 25.09803 ], [ 81.42407, 25.09809 ], [ 81.4176, 25.10235 ], [ 81.40973, 25.10356 ], [ 81.40727, 25.10491 ], [ 81.40857, 25.10621 ], [ 81.41371, 25.10792 ], [ 81.41621, 25.10792 ], [ 81.41879, 25.10688 ], [ 81.42061, 25.10778 ], [ 81.42246, 25.10758 ], [ 81.42407, 25.10643 ], [ 81.42717, 25.10712 ], [ 81.43069, 25.10558 ], [ 81.43472, 25.10727 ], [ 81.43663, 25.1062 ], [ 81.43926, 25.10686 ] ] ] } },
{ "type": "Feature", "properties": { "OBJECTID": 2677, "state_lgd": "09", "state_name": "UTTAR PRADESH", "district_lgd": "171", "district_name": "CHITRAKOOT", "district_name_source": "district_table", "subdistrict_lgd": "6305", "subdistrict_name": "RAJAPUR", "subdistrict_type": "Tehsil", "name_corrupted": false, "remarks": "", "label_lon": 81.081677623938006, "label_lat": 25.395916179103057 }, "geometry": { "type": "Polygon", "coordinates": [ [ [ 81.0258, 25.53951 ], [ 81.03131, 25.53368 ], [ 81.03727, 25.53018 ], [ 81.07947, 25.51865 ], [ 81.09136, 25.51735 ], [ 81.10154, 25.51783 ], [ 81.12342, 25.51073 ], [ 81.13663, 25.50891 ], [ 81.16614, 25.50037 ], [ 81.18984, 25.48978 ], [ 81.1927, 25.48594 ], [ 81.19326, 25.48333 ], [ 81.19398, 25.47258 ], [ 81.19548, 25.46391 ], [ 81.19466, 25.45789 ], [ 81.19086, 25.4519 ], [ 81.18529, 25.44575 ], [ 81.17178, 25.43804 ], [ 81.16559, 25.43305 ], [ 81.15637, 25.43115 ], [ 81.15191, 25.4277 ], [ 81.1501, 25.42455 ], [ 81.1473, 25.41511 ], [ 81.14666, 25.40976 ], [ 81.14725, 25.40299 ], [ 81.15095, 25.39501 ], [ 81.1553, 25.38988 ], [ 81.17497, 25.37633 ], [ 81.19004, 25.37046 ], [ 81.20692, 25.36881 ], [ 81.23574, 25.3619 ], [ 81.2438, 25.35794 ], [ 81.24773, 25.3519 ], [ 81.25629, 25.33498 ], [ 81.26108, 25.32867 ], [ 81.26498, 25.32591 ], [ 81.26787, 25.32528 ], [ 81.26732, 25.31962 ], [ 81.27245, 25.31603 ], [ 81.27115, 25.3125 ], [ 81.26682, 25.30962 ], [ 81.26653, 25.30866 ], [ 81.26704, 25.30782 ], [ 81.27696, 25.30529 ], [ 81.2765, 25.29904 ], [ 81.27356, 25.29714 ], [ 81.27342, 25.29485 ], [ 81.27043, 25.2943 ], [ 81.2648, 25.2958 ], [ 81.25915, 25.2984 ], [ 81.25645, 25.29717 ], [ 81.254, 25.29839 ], [ 81.2522, 25.30179 ], [ 81.25196, 25.30633 ], [ 81.25423, 25.31037 ], [ 81.25034, 25.31152 ], [ 81.24724, 25.3103 ], [ 81.24416, 25.3122 ], [ 81.24395, 25.31376 ], [ 81.23972, 25.31484 ], [ 81.23729, 25.31298 ], [ 81.23691, 25.30887 ], [ 81.23574, 25.3069 ], [ 81.23637, 25.30007 ], [ 81.23347, 25.29041 ], [ 81.22495, 25.27981 ], [ 81.22226, 25.2739 ], [ 81.22012, 25.2712 ], [ 81.21974, 25.26818 ], [ 81.21628, 25.2651 ], [ 81.21459, 25.26173 ], [ 81.2017, 25.26753 ], [ 81.19624, 25.26884 ], [ 81.19475, 25.26966 ], [ 81.19507, 25.2712 ], [ 81.19419, 25.27275 ], [ 81.19319, 25.27303 ], [ 81.19208, 25.2714 ], [ 81.19061, 25.27404 ], [ 81.18667, 25.27751 ], [ 81.18539, 25.28016 ], [ 81.18741, 25.28203 ], [ 81.18672, 25.28267 ], [ 81.16813, 25.28525 ], [ 81.16622, 25.28237 ], [ 81.16214, 25.28258 ], [ 81.16125, 25.28295 ], [ 81.16027, 25.28549 ], [ 81.15719, 25.28588 ], [ 81.15772, 25.28949 ], [ 81.15684, 25.29095 ], [ 81.15248, 25.29324 ], [ 81.15099, 25.29325 ], [ 81.14838, 25.29011 ], [ 81.14599, 25.28994 ], [ 81.14471, 25.29131 ], [ 81.14513, 25.29393 ], [ 81.13988, 25.29696 ], [ 81.13973, 25.29216 ], [ 81.13626, 25.28866 ], [ 81.13297, 25.28262 ], [ 81.13363, 25.27973 ], [ 81.13701, 25.27872 ], [ 81.12933, 25.27398 ], [ 81.12847, 25.27117 ], [ 81.12879, 25.26605 ], [ 81.12671, 25.263 ], [ 81.12332, 25.26183 ], [ 81.12271, 25.26763 ], [ 81.11525, 25.27264 ], [ 81.10989, 25.2692 ], [ 81.11004, 25.26476 ], [ 81.10704, 25.26418 ], [ 81.1018, 25.26592 ], [ 81.0947, 25.2699 ], [ 81.08646, 25.27081 ], [ 81.08302, 25.27451 ], [ 81.07899, 25.27547 ], [ 81.06876, 25.27554 ], [ 81.06633, 25.27658 ], [ 81.06143, 25.28257 ], [ 81.04517, 25.29194 ], [ 81.04764, 25.29722 ], [ 81.04474, 25.29811 ], [ 81.04745, 25.2988 ], [ 81.05159, 25.30446 ], [ 81.0485, 25.30867 ], [ 81.04905, 25.31341 ], [ 81.04943, 25.31428 ], [ 81.05309, 25.31575 ], [ 81.05355, 25.31676 ], [ 81.04949, 25.32173 ], [ 81.04641, 25.33535 ], [ 81.04366, 25.33679 ], [ 81.04244, 25.34167 ], [ 81.03812, 25.34224 ], [ 81.0342, 25.34436 ], [ 81.02897, 25.34196 ], [ 81.02398, 25.34247 ], [ 81.01979, 25.34825 ], [ 81.01638, 25.35098 ], [ 80.99417, 25.35631 ], [ 80.99344, 25.36009 ], [ 80.98536, 25.3626 ], [ 80.98302, 25.36066 ], [ 80.98394, 25.36247 ], [ 80.98322, 25.36314 ], [ 80.98245, 25.36215 ], [ 80.98086, 25.36222 ], [ 80.97988, 25.36067 ], [ 80.97628, 25.36254 ], [ 80.97533, 25.3608 ], [ 80.97473, 25.36228 ], [ 80.97267, 25.36123 ], [ 80.96966, 25.36205 ], [ 80.96829, 25.36163 ], [ 80.96496, 25.36361 ], [ 80.96662, 25.3648 ], [ 80.96637, 25.3653 ], [ 80.96035, 25.36277 ], [ 80.96015, 25.36103 ], [ 80.95879, 25.35965 ], [ 80.95734, 25.35957 ], [ 80.95785, 25.35835 ], [ 80.95944, 25.35823 ], [ 80.9583, 25.35596 ], [ 80.95785, 25.35548 ], [ 80.95694, 25.35632 ], [ 80.95549, 25.35621 ], [ 80.95395, 25.35528 ], [ 80.95385, 25.3545 ], [ 80.95528, 25.35422 ], [ 80.95386, 25.3535 ], [ 80.95429, 25.35225 ], [ 80.95282, 25.35208 ], [ 80.95117, 25.35065 ], [ 80.95244, 25.34915 ], [ 80.95083, 25.34913 ], [ 80.95134, 25.34811 ], [ 80.9479, 25.34518 ], [ 80.93185, 25.34855 ], [ 80.92784, 25.35061 ], [ 80.92557, 25.35283 ], [ 80.91965, 25.35008 ], [ 80.90514, 25.35299 ], [ 80.90322, 25.35504 ], [ 80.90806, 25.36199 ], [ 80.91018, 25.3632 ], [ 80.91196, 25.36604 ], [ 80.91149, 25.3712 ], [ 80.90888, 25.37248 ], [ 80.90963, 25.37627 ], [ 80.91096, 25.37663 ], [ 80.91186, 25.37587 ], [ 80.91294, 25.37866 ], [ 80.91115, 25.37838 ], [ 80.91161, 25.37988 ], [ 80.91435, 25.38004 ], [ 80.91554, 25.38114 ], [ 80.91375, 25.38362 ], [ 80.91484, 25.39385 ], [ 80.91442, 25.40033 ], [ 80.91329, 25.40321 ], [ 80.90091, 25.40001 ], [ 80.89103, 25.40569 ], [ 80.89472, 25.41158 ], [ 80.89615, 25.41572 ], [ 80.89527, 25.41984 ], [ 80.89327, 25.42227 ], [ 80.89585, 25.42429 ], [ 80.89759, 25.42828 ], [ 80.90055, 25.42953 ], [ 80.90321, 25.42951 ], [ 80.90457, 25.43398 ], [ 80.90253, 25.4355 ], [ 80.9018, 25.43821 ], [ 80.90396, 25.44032 ], [ 80.9075, 25.44083 ], [ 80.91164, 25.43976 ], [ 80.91731, 25.43649 ], [ 80.91846, 25.43711 ], [ 80.91939, 25.44058 ], [ 80.92045, 25.44157 ], [ 80.92606, 25.43933 ], [ 80.92567, 25.44296 ], [ 80.92687, 25.44562 ], [ 80.93645, 25.45064 ], [ 80.93504, 25.45751 ], [ 80.93119, 25.45763 ], [ 80.9322, 25.4616 ], [ 80.93314, 25.46137 ], [ 80.94111, 25.46843 ], [ 80.94285, 25.46806 ], [ 80.9449, 25.46915 ], [ 80.94609, 25.4671 ], [ 80.94971, 25.4654 ], [ 80.95272, 25.46666 ], [ 80.9549, 25.46862 ], [ 80.95631, 25.46737 ], [ 80.9593, 25.4672 ], [ 80.95904, 25.46489 ], [ 80.95781, 25.46298 ], [ 80.96042, 25.46267 ], [ 80.96387, 25.4628 ], [ 80.96872, 25.46422 ], [ 80.96976, 25.46686 ], [ 80.97312, 25.46786 ], [ 80.97433, 25.46725 ], [ 80.97704, 25.46221 ], [ 80.9788, 25.4623 ], [ 80.97994, 25.46686 ], [ 80.97816, 25.47083 ], [ 80.97847, 25.47413 ], [ 80.98165, 25.47597 ], [ 80.98643, 25.47697 ], [ 80.98938, 25.47687 ], [ 80.99328, 25.47489 ], [ 80.99475, 25.47557 ], [ 80.99578, 25.47679 ], [ 80.99675, 25.48051 ], [ 80.99473, 25.48417 ], [ 80.99493, 25.48525 ], [ 80.99826, 25.48597 ], [ 81.01865, 25.50037 ], [ 81.02458, 25.50541 ], [ 81.02339, 25.50622 ], [ 81.02343, 25.50726 ], [ 81.01936, 25.50887 ], [ 81.01876, 25.51624 ], [ 81.01728, 25.51826 ], [ 81.01287, 25.52024 ], [ 81.01104, 25.52215 ], [ 81.00476, 25.53567 ], [ 81.00508, 25.53756 ], [ 81.00678, 25.53891 ], [ 81.01483, 25.53872 ], [ 81.01614, 25.54232 ], [ 81.02043, 25.54688 ], [ 81.0258, 25.53951 ] ] ] } }
]
}
