{
"type": "FeatureCollection",
"name": "194_JAUNPUR",
"crs": { "type": "name", "properties": { "name": "urn:ogc:def:crs:OGC:1.3:CRS84" } },
"xy_coordinate_resolution": 1e-05,
"features": [
{ "type": "Feature", "properties": { "OBJECTID": 2421, "state_lgd": "09", "state_name": "UTTAR PRADESH", "district_lgd": "194", "district_name": "JAUNPUR", "district_name_source": "district_table", "subdistrict_lgd": "982", "subdistrict_name": "BADLAPUR", "subdistrict_type": "Tehsil", "name_corrupted": false, "remarks": "", "label_lon": 82.42442702707956, "label_lat": 25.887973983019027 }, "geometry": { "type": "MultiPolygon", "coordinates": [ [ [ [ 82.43009, 26.00667 ], [ 82.43229, 26.00501 ], [ 82.43393, 26.00666 ], [ 82.43922, 26.00485 ], [ 82.46648, 26.00253 ], [ 82.47209, 26.00146 ], [ 82.4763, 25.99966 ], [ 82.48076, 25.99337 ], [ 82.48487, 25.98538 ], [ 82.48613, 25.98155 ], [ 82.48685, 25.97444 ], [ 82.48769, 25.97367 ], [ 82.49881, 25.97563 ], [ 82.50467, 25.97509 ], [ 82.50547, 25.97681 ], [ 82.51144, 25.97724 ], [ 82.51416, 25.97635 ], [ 82.51613, 25.97444 ], [ 82.51763, 25.96778 ], [ 82.51642, 25.96546 ], [ 82.51704, 25.96423 ], [ 82.5218, 25.96459 ], [ 82.5382, 25.96306 ], [ 82.55779, 25.9639 ], [ 82.56366, 25.96258 ], [ 82.5675, 25.9517 ], [ 82.57096, 25.93664 ], [ 82.57026, 25.93511 ], [ 82.55482, 25.9293 ], [ 82.54476, 25.92947 ], [ 82.54314, 25.92893 ], [ 82.54254, 25.9276 ], [ 82.54501, 25.9222 ], [ 82.54771, 25.919 ], [ 82.55871, 25.91938 ], [ 82.5643, 25.91602 ], [ 82.56731, 25.91134 ], [ 82.56784, 25.90468 ], [ 82.56746, 25.90257 ], [ 82.56673, 25.90216 ], [ 82.56862, 25.89628 ], [ 82.57125, 25.89411 ], [ 82.5793, 25.89366 ], [ 82.58211, 25.8917 ], [ 82.58313, 25.8867 ], [ 82.58252, 25.8793 ], [ 82.58431, 25.87428 ], [ 82.58674, 25.86932 ], [ 82.59549, 25.86061 ], [ 82.59395, 25.85683 ], [ 82.58983, 25.85188 ], [ 82.58612, 25.8511 ], [ 82.58488, 25.85687 ], [ 82.58354, 25.85718 ], [ 82.58186, 25.85512 ], [ 82.57931, 25.85544 ], [ 82.57725, 25.85652 ], [ 82.57642, 25.85943 ], [ 82.57208, 25.85886 ], [ 82.56979, 25.86021 ], [ 82.5673, 25.85941 ], [ 82.56576, 25.86111 ], [ 82.56278, 25.86077 ], [ 82.55916, 25.85936 ], [ 82.55795, 25.85532 ], [ 82.5514, 25.85851 ], [ 82.55044, 25.85967 ], [ 82.5474, 25.86009 ], [ 82.54482, 25.85789 ], [ 82.54292, 25.85984 ], [ 82.54134, 25.85997 ], [ 82.53745, 25.85626 ], [ 82.53574, 25.85672 ], [ 82.53429, 25.85532 ], [ 82.53111, 25.85088 ], [ 82.53146, 25.8501 ], [ 82.52715, 25.84595 ], [ 82.52614, 25.84245 ], [ 82.52777, 25.84179 ], [ 82.52761, 25.84069 ], [ 82.52949, 25.84007 ], [ 82.53006, 25.83719 ], [ 82.52864, 25.83804 ], [ 82.52716, 25.8359 ], [ 82.52297, 25.83463 ], [ 82.527, 25.83102 ], [ 82.52719, 25.82957 ], [ 82.52351, 25.83056 ], [ 82.52152, 25.83276 ], [ 82.51471, 25.835 ], [ 82.50922, 25.83416 ], [ 82.50938, 25.83519 ], [ 82.50656, 25.8374 ], [ 82.50264, 25.83738 ], [ 82.50302, 25.8378 ], [ 82.4981, 25.84049 ], [ 82.49604, 25.83923 ], [ 82.4936, 25.83931 ], [ 82.49282, 25.8383 ], [ 82.49097, 25.83867 ], [ 82.49004, 25.83811 ], [ 82.49019, 25.83886 ], [ 82.48742, 25.83976 ], [ 82.48663, 25.84111 ], [ 82.48478, 25.8415 ], [ 82.48231, 25.84358 ], [ 82.4804, 25.84335 ], [ 82.47782, 25.8401 ], [ 82.47585, 25.83898 ], [ 82.47191, 25.83966 ], [ 82.4704, 25.83609 ], [ 82.46839, 25.83489 ], [ 82.46854, 25.83564 ], [ 82.46724, 25.83626 ], [ 82.46648, 25.83555 ], [ 82.46666, 25.83668 ], [ 82.46437, 25.8373 ], [ 82.46368, 25.83847 ], [ 82.4614, 25.83891 ], [ 82.46066, 25.83786 ], [ 82.45915, 25.8402 ], [ 82.45402, 25.84212 ], [ 82.45097, 25.83681 ], [ 82.45015, 25.83369 ], [ 82.44938, 25.8331 ], [ 82.44459, 25.83344 ], [ 82.4424, 25.82729 ], [ 82.4484, 25.8261 ], [ 82.45051, 25.82847 ], [ 82.45286, 25.82776 ], [ 82.45216, 25.82583 ], [ 82.45304, 25.82551 ], [ 82.45328, 25.82212 ], [ 82.45041, 25.82155 ], [ 82.4505, 25.82039 ], [ 82.44943, 25.81955 ], [ 82.44427, 25.81929 ], [ 82.44475, 25.8208 ], [ 82.43921, 25.82102 ], [ 82.44076, 25.8201 ], [ 82.44058, 25.81945 ], [ 82.43724, 25.82062 ], [ 82.43498, 25.82322 ], [ 82.42949, 25.82494 ], [ 82.42704, 25.82386 ], [ 82.42643, 25.82025 ], [ 82.42673, 25.81722 ], [ 82.42892, 25.81457 ], [ 82.42996, 25.81 ], [ 82.43619, 25.8069 ], [ 82.43497, 25.80481 ], [ 82.43522, 25.80344 ], [ 82.44122, 25.80394 ], [ 82.44301, 25.80201 ], [ 82.4466, 25.80135 ], [ 82.44585, 25.79952 ], [ 82.44664, 25.79737 ], [ 82.45076, 25.79719 ], [ 82.45341, 25.79596 ], [ 82.45341, 25.79464 ], [ 82.45116, 25.79451 ], [ 82.45189, 25.79207 ], [ 82.43744, 25.79019 ], [ 82.42827, 25.79155 ], [ 82.42135, 25.79452 ], [ 82.4194, 25.79374 ], [ 82.41458, 25.78967 ], [ 82.40674, 25.79348 ], [ 82.39561, 25.79283 ], [ 82.39088, 25.79178 ], [ 82.38549, 25.79367 ], [ 82.37926, 25.79082 ], [ 82.36522, 25.78897 ], [ 82.36387, 25.7875 ], [ 82.36279, 25.78423 ], [ 82.35908, 25.78152 ], [ 82.35653, 25.78287 ], [ 82.35591, 25.78595 ], [ 82.35126, 25.78948 ], [ 82.34988, 25.79235 ], [ 82.35112, 25.79522 ], [ 82.35592, 25.79819 ], [ 82.35566, 25.80069 ], [ 82.35446, 25.80211 ], [ 82.35099, 25.80419 ], [ 82.34882, 25.80381 ], [ 82.34262, 25.80075 ], [ 82.33625, 25.79496 ], [ 82.33246, 25.79557 ], [ 82.32986, 25.79813 ], [ 82.32705, 25.80481 ], [ 82.32309, 25.80664 ], [ 82.31735, 25.81338 ], [ 82.31661, 25.81663 ], [ 82.31784, 25.81987 ], [ 82.31748, 25.82088 ], [ 82.3083, 25.82629 ], [ 82.30521, 25.8261 ], [ 82.30321, 25.82392 ], [ 82.30384, 25.81586 ], [ 82.30039, 25.81211 ], [ 82.2976, 25.81154 ], [ 82.29457, 25.81212 ], [ 82.2929, 25.8111 ], [ 82.29058, 25.81439 ], [ 82.28764, 25.81444 ], [ 82.28636, 25.8135 ], [ 82.28776, 25.80898 ], [ 82.28756, 25.80644 ], [ 82.28664, 25.80559 ], [ 82.28061, 25.8067 ], [ 82.27119, 25.81031 ], [ 82.26064, 25.80935 ], [ 82.25314, 25.81085 ], [ 82.24098, 25.81073 ], [ 82.22889, 25.81227 ], [ 82.22122, 25.8148 ], [ 82.21833, 25.81705 ], [ 82.21483, 25.82152 ], [ 82.20978, 25.82264 ], [ 82.21017, 25.82384 ], [ 82.20937, 25.82585 ], [ 82.20787, 25.82658 ], [ 82.20787, 25.8283 ], [ 82.21059, 25.82941 ], [ 82.21099, 25.83047 ], [ 82.21701, 25.8316 ], [ 82.21662, 25.8379 ], [ 82.21814, 25.84033 ], [ 82.22112, 25.84029 ], [ 82.23079, 25.83775 ], [ 82.23556, 25.8343 ], [ 82.23749, 25.83529 ], [ 82.24802, 25.83266 ], [ 82.25779, 25.8364 ], [ 82.25969, 25.83591 ], [ 82.26359, 25.84255 ], [ 82.26744, 25.84673 ], [ 82.27232, 25.84735 ], [ 82.27497, 25.84371 ], [ 82.27697, 25.84306 ], [ 82.27809, 25.84374 ], [ 82.27965, 25.8428 ], [ 82.27968, 25.84768 ], [ 82.28126, 25.8479 ], [ 82.28252, 25.84984 ], [ 82.2828, 25.85307 ], [ 82.28663, 25.8579 ], [ 82.28738, 25.86086 ], [ 82.28877, 25.86043 ], [ 82.28869, 25.85944 ], [ 82.29074, 25.85994 ], [ 82.29016, 25.86315 ], [ 82.29162, 25.86799 ], [ 82.29465, 25.86781 ], [ 82.29575, 25.86873 ], [ 82.2906, 25.87213 ], [ 82.29134, 25.87362 ], [ 82.29085, 25.87887 ], [ 82.29578, 25.88712 ], [ 82.29482, 25.89111 ], [ 82.29681, 25.89314 ], [ 82.30208, 25.89488 ], [ 82.30179, 25.8958 ], [ 82.30375, 25.89581 ], [ 82.30419, 25.89712 ], [ 82.30571, 25.89723 ], [ 82.30685, 25.89579 ], [ 82.30769, 25.89844 ], [ 82.30944, 25.89864 ], [ 82.31127, 25.90088 ], [ 82.32083, 25.90195 ], [ 82.32163, 25.90149 ], [ 82.3218, 25.89986 ], [ 82.32295, 25.8993 ], [ 82.32529, 25.89901 ], [ 82.32613, 25.90008 ], [ 82.33231, 25.89898 ], [ 82.3338, 25.9003 ], [ 82.33337, 25.90197 ], [ 82.33665, 25.90377 ], [ 82.33924, 25.90393 ], [ 82.33919, 25.90683 ], [ 82.34099, 25.90668 ], [ 82.34079, 25.90801 ], [ 82.34227, 25.91012 ], [ 82.34234, 25.91189 ], [ 82.3445, 25.91204 ], [ 82.34488, 25.91464 ], [ 82.34665, 25.91526 ], [ 82.34772, 25.91343 ], [ 82.34878, 25.9131 ], [ 82.35002, 25.9139 ], [ 82.3508, 25.91222 ], [ 82.35224, 25.9113 ], [ 82.3547, 25.90495 ], [ 82.35745, 25.9062 ], [ 82.3581, 25.90732 ], [ 82.35771, 25.90862 ], [ 82.35944, 25.90798 ], [ 82.36407, 25.9083 ], [ 82.36517, 25.91177 ], [ 82.3694, 25.91262 ], [ 82.36878, 25.91425 ], [ 82.37, 25.91651 ], [ 82.3715, 25.91665 ], [ 82.37267, 25.91381 ], [ 82.37433, 25.91373 ], [ 82.38014, 25.90901 ], [ 82.38486, 25.90863 ], [ 82.38782, 25.90943 ], [ 82.39333, 25.90939 ], [ 82.3923, 25.91298 ], [ 82.39264, 25.91489 ], [ 82.38824, 25.91605 ], [ 82.38488, 25.91972 ], [ 82.38618, 25.92108 ], [ 82.38706, 25.92429 ], [ 82.38813, 25.92487 ], [ 82.38774, 25.92635 ], [ 82.38888, 25.92742 ], [ 82.39083, 25.93316 ], [ 82.3867, 25.93268 ], [ 82.3809, 25.93358 ], [ 82.37836, 25.93141 ], [ 82.37746, 25.93256 ], [ 82.37784, 25.93488 ], [ 82.37684, 25.939 ], [ 82.37175, 25.94061 ], [ 82.36968, 25.9431 ], [ 82.36799, 25.94137 ], [ 82.36484, 25.94065 ], [ 82.36518, 25.93937 ], [ 82.36385, 25.93806 ], [ 82.35649, 25.94239 ], [ 82.35711, 25.94319 ], [ 82.35521, 25.94459 ], [ 82.35578, 25.94657 ], [ 82.35514, 25.94809 ], [ 82.3529, 25.95046 ], [ 82.35459, 25.95302 ], [ 82.35199, 25.95467 ], [ 82.34412, 25.95665 ], [ 82.34457, 25.95797 ], [ 82.34616, 25.96071 ], [ 82.34939, 25.96315 ], [ 82.35222, 25.96211 ], [ 82.35291, 25.96261 ], [ 82.35512, 25.96099 ], [ 82.35908, 25.96149 ], [ 82.36032, 25.96466 ], [ 82.36293, 25.96726 ], [ 82.36065, 25.9697 ], [ 82.36148, 25.97064 ], [ 82.36075, 25.97115 ], [ 82.3689, 25.98232 ], [ 82.37091, 25.98185 ], [ 82.37441, 25.97927 ], [ 82.37932, 25.98022 ], [ 82.38736, 25.97658 ], [ 82.39269, 25.97687 ], [ 82.39705, 25.97392 ], [ 82.40392, 25.97355 ], [ 82.40766, 25.97426 ], [ 82.41088, 25.9768 ], [ 82.41177, 25.97898 ], [ 82.41848, 25.97796 ], [ 82.4249, 25.98499 ], [ 82.42757, 25.98291 ], [ 82.42905, 25.98324 ], [ 82.43153, 25.98213 ], [ 82.42933, 25.9814 ], [ 82.42926, 25.97927 ], [ 82.42738, 25.98002 ], [ 82.42579, 25.97822 ], [ 82.42952, 25.97707 ], [ 82.43439, 25.9852 ], [ 82.43153, 25.98716 ], [ 82.43134, 25.98809 ], [ 82.42396, 25.99141 ], [ 82.42587, 25.99472 ], [ 82.42526, 25.99503 ], [ 82.42584, 25.998 ], [ 82.42502, 25.99859 ], [ 82.42598, 26.00009 ], [ 82.42525, 26.00051 ], [ 82.42684, 26.0027 ], [ 82.42611, 26.00605 ], [ 82.42724, 26.00675 ], [ 82.43009, 26.00667 ] ] ], [ [ [ 82.40876, 25.98408 ], [ 82.41077, 25.98315 ], [ 82.41016, 25.98114 ], [ 82.41074, 25.98034 ], [ 82.40785, 25.98086 ], [ 82.40767, 25.9796 ], [ 82.40628, 25.98042 ], [ 82.4064, 25.9831 ], [ 82.40752, 25.98288 ], [ 82.40876, 25.98408 ] ] ] ] } },
{ "type": "Feature", "properties": { "OBJECTID": 2547, "state_lgd": "09", "state_name": "UTTAR PRADESH", "district_lgd": "194", "district_name": "JAUNPUR", "district_name_source": "district_table", "subdistrict_lgd": "984", "subdistrict_name": "JAUNPUR", "subdistrict_type": "Tehsil", "name_corrupted": false, "remarks": "", "label_lon": 82.647989531900322, "label_lat": 25.761363001262914 }, "geometry": { "type": "Polygon", "coordinates": [ [ [ 82.57326, 25.89908 ], [ 82.58039, 25.89943 ], [ 82.5837, 25.89718 ], [ 82.58807, 25.89853 ], [ 82.59031, 25.89487 ], [ 82.59044, 25.88667 ], [ 82.59402, 25.88723 ], [ 82.60253, 25.88229 ], [ 82.61609, 25.88137 ], [ 82.61952, 25.87987 ], [ 82.61963, 25.87802 ], [ 82.62216, 25.87415 ], [ 82.62876, 25.87129 ], [ 82.62132, 25.86994 ], [ 82.61904, 25.86803 ], [ 82.61624, 25.86343 ], [ 82.6172, 25.86195 ], [ 82.62152, 25.8602 ], [ 82.62605, 25.86299 ], [ 82.63223, 25.86398 ], [ 82.63701, 25.85873 ], [ 82.64103, 25.85672 ], [ 82.64237, 25.85734 ], [ 82.64906, 25.85631 ], [ 82.65143, 25.86207 ], [ 82.65345, 25.86123 ], [ 82.65323, 25.85287 ], [ 82.65463, 25.85102 ], [ 82.668, 25.84739 ], [ 82.67674, 25.84374 ], [ 82.68378, 25.84381 ], [ 82.68387, 25.84891 ], [ 82.68584, 25.85562 ], [ 82.6855, 25.86024 ], [ 82.69169, 25.85709 ], [ 82.6977, 25.85096 ], [ 82.70048, 25.85056 ], [ 82.69977, 25.84662 ], [ 82.70162, 25.84638 ], [ 82.7036, 25.84921 ], [ 82.70347, 25.85156 ], [ 82.70578, 25.85636 ], [ 82.71001, 25.856 ], [ 82.71599, 25.85759 ], [ 82.71797, 25.8552 ], [ 82.71629, 25.85047 ], [ 82.71655, 25.84789 ], [ 82.72011, 25.84759 ], [ 82.72146, 25.84864 ], [ 82.72282, 25.85198 ], [ 82.72814, 25.85039 ], [ 82.73116, 25.85227 ], [ 82.7343, 25.85145 ], [ 82.73501, 25.8532 ], [ 82.74047, 25.85455 ], [ 82.74946, 25.86068 ], [ 82.75765, 25.86164 ], [ 82.76437, 25.86016 ], [ 82.76346, 25.85831 ], [ 82.76513, 25.85638 ], [ 82.76502, 25.8517 ], [ 82.76236, 25.85043 ], [ 82.76187, 25.84814 ], [ 82.7581, 25.8414 ], [ 82.75449, 25.83687 ], [ 82.75892, 25.83581 ], [ 82.76462, 25.83239 ], [ 82.76873, 25.83105 ], [ 82.77828, 25.82923 ], [ 82.78004, 25.83 ], [ 82.78278, 25.82773 ], [ 82.78559, 25.8269 ], [ 82.78432, 25.82389 ], [ 82.7866, 25.8187 ], [ 82.79258, 25.81769 ], [ 82.79507, 25.81403 ], [ 82.7977, 25.81185 ], [ 82.80086, 25.80539 ], [ 82.80858, 25.806 ], [ 82.80895, 25.79979 ], [ 82.80671, 25.7927 ], [ 82.80624, 25.78857 ], [ 82.80688, 25.78757 ], [ 82.81795, 25.78543 ], [ 82.81941, 25.7831 ], [ 82.82215, 25.78236 ], [ 82.82056, 25.77581 ], [ 82.82174, 25.7739 ], [ 82.82557, 25.77284 ], [ 82.82539, 25.7697 ], [ 82.83553, 25.76848 ], [ 82.83874, 25.7689 ], [ 82.84489, 25.76685 ], [ 82.85871, 25.77232 ], [ 82.86531, 25.77111 ], [ 82.86838, 25.7586 ], [ 82.86747, 25.75435 ], [ 82.86102, 25.75624 ], [ 82.85621, 25.75559 ], [ 82.84822, 25.75843 ], [ 82.84631, 25.75806 ], [ 82.84777, 25.75187 ], [ 82.84427, 25.74071 ], [ 82.84452, 25.73948 ], [ 82.84644, 25.73851 ], [ 82.84638, 25.73731 ], [ 82.84136, 25.73687 ], [ 82.83878, 25.73784 ], [ 82.83702, 25.74243 ], [ 82.8348, 25.74478 ], [ 82.83293, 25.73752 ], [ 82.83097, 25.73731 ], [ 82.83121, 25.73125 ], [ 82.82687, 25.73174 ], [ 82.82431, 25.73098 ], [ 82.82634, 25.7292 ], [ 82.82212, 25.72409 ], [ 82.81876, 25.71402 ], [ 82.81798, 25.7141 ], [ 82.81815, 25.71601 ], [ 82.80992, 25.71715 ], [ 82.8066, 25.7206 ], [ 82.80769, 25.72537 ], [ 82.80422, 25.72539 ], [ 82.80271, 25.72439 ], [ 82.79982, 25.72541 ], [ 82.79722, 25.71777 ], [ 82.79499, 25.71933 ], [ 82.79023, 25.71716 ], [ 82.79025, 25.71425 ], [ 82.78849, 25.70895 ], [ 82.78627, 25.70807 ], [ 82.785, 25.70428 ], [ 82.79392, 25.69634 ], [ 82.79646, 25.69243 ], [ 82.79855, 25.68544 ], [ 82.80081, 25.68083 ], [ 82.80571, 25.67449 ], [ 82.80664, 25.67082 ], [ 82.80406, 25.66843 ], [ 82.79564, 25.66767 ], [ 82.7926, 25.66593 ], [ 82.79353, 25.66225 ], [ 82.79931, 25.65788 ], [ 82.80123, 25.65312 ], [ 82.79377, 25.65021 ], [ 82.79202, 25.64719 ], [ 82.79309, 25.64245 ], [ 82.79568, 25.63799 ], [ 82.79625, 25.6331 ], [ 82.79484, 25.63038 ], [ 82.78975, 25.62804 ], [ 82.78547, 25.6243 ], [ 82.7768, 25.62397 ], [ 82.7697, 25.62535 ], [ 82.76303, 25.62981 ], [ 82.7594, 25.63071 ], [ 82.75213, 25.62886 ], [ 82.74595, 25.6151 ], [ 82.74239, 25.61333 ], [ 82.73887, 25.6137 ], [ 82.73513, 25.61971 ], [ 82.73476, 25.62566 ], [ 82.73599, 25.62838 ], [ 82.74444, 25.63859 ], [ 82.74332, 25.64105 ], [ 82.74149, 25.64215 ], [ 82.73764, 25.64283 ], [ 82.72424, 25.64198 ], [ 82.7193, 25.63987 ], [ 82.71865, 25.6356 ], [ 82.71632, 25.6344 ], [ 82.70839, 25.63528 ], [ 82.69768, 25.63969 ], [ 82.68874, 25.64033 ], [ 82.68386, 25.64397 ], [ 82.6837, 25.64338 ], [ 82.6817, 25.6441 ], [ 82.67046, 25.64445 ], [ 82.66363, 25.6518 ], [ 82.66134, 25.65967 ], [ 82.65621, 25.66357 ], [ 82.65587, 25.66983 ], [ 82.65224, 25.6745 ], [ 82.65383, 25.68062 ], [ 82.65327, 25.68223 ], [ 82.63832, 25.68901 ], [ 82.63512, 25.69173 ], [ 82.63227, 25.69301 ], [ 82.6264, 25.69231 ], [ 82.61926, 25.69468 ], [ 82.6128, 25.69389 ], [ 82.61101, 25.69448 ], [ 82.6084, 25.69696 ], [ 82.6076, 25.70078 ], [ 82.60638, 25.70273 ], [ 82.60364, 25.70509 ], [ 82.59853, 25.70743 ], [ 82.58956, 25.70765 ], [ 82.5795, 25.71092 ], [ 82.57269, 25.71034 ], [ 82.57041, 25.7118 ], [ 82.56862, 25.71519 ], [ 82.56721, 25.7156 ], [ 82.56275, 25.71358 ], [ 82.56251, 25.71453 ], [ 82.56165, 25.71433 ], [ 82.56155, 25.71183 ], [ 82.56228, 25.71158 ], [ 82.5575, 25.70521 ], [ 82.55432, 25.70336 ], [ 82.55144, 25.69953 ], [ 82.55, 25.69892 ], [ 82.54742, 25.69961 ], [ 82.54679, 25.69705 ], [ 82.54616, 25.6972 ], [ 82.54565, 25.69589 ], [ 82.54607, 25.69504 ], [ 82.54362, 25.69517 ], [ 82.53965, 25.68861 ], [ 82.53724, 25.68609 ], [ 82.53551, 25.6863 ], [ 82.52766, 25.69228 ], [ 82.52533, 25.69262 ], [ 82.51948, 25.70035 ], [ 82.52149, 25.70832 ], [ 82.51982, 25.70948 ], [ 82.51807, 25.707 ], [ 82.51417, 25.71734 ], [ 82.51888, 25.721 ], [ 82.51881, 25.72291 ], [ 82.51778, 25.72437 ], [ 82.51819, 25.72475 ], [ 82.5162, 25.7257 ], [ 82.51585, 25.72739 ], [ 82.51264, 25.72887 ], [ 82.50888, 25.72938 ], [ 82.50734, 25.72564 ], [ 82.50544, 25.72575 ], [ 82.50247, 25.72449 ], [ 82.49811, 25.72559 ], [ 82.49278, 25.72519 ], [ 82.49154, 25.71989 ], [ 82.48723, 25.71937 ], [ 82.48723, 25.71785 ], [ 82.48515, 25.71824 ], [ 82.48082, 25.71746 ], [ 82.47578, 25.71856 ], [ 82.47283, 25.71217 ], [ 82.4682, 25.7129 ], [ 82.46438, 25.71487 ], [ 82.45886, 25.714 ], [ 82.45693, 25.71231 ], [ 82.45493, 25.71177 ], [ 82.45399, 25.71005 ], [ 82.44948, 25.71092 ], [ 82.45079, 25.72063 ], [ 82.44814, 25.72368 ], [ 82.45174, 25.72844 ], [ 82.45173, 25.74018 ], [ 82.44922, 25.74289 ], [ 82.44219, 25.7456 ], [ 82.43369, 25.75034 ], [ 82.43354, 25.75146 ], [ 82.43088, 25.75247 ], [ 82.43186, 25.75698 ], [ 82.42809, 25.76013 ], [ 82.42577, 25.76074 ], [ 82.42671, 25.76265 ], [ 82.42975, 25.76295 ], [ 82.43296, 25.7658 ], [ 82.43379, 25.77231 ], [ 82.4422, 25.7686 ], [ 82.44317, 25.7709 ], [ 82.4456, 25.77007 ], [ 82.44851, 25.77034 ], [ 82.45252, 25.77532 ], [ 82.45118, 25.77721 ], [ 82.4532, 25.78122 ], [ 82.4537, 25.78183 ], [ 82.45533, 25.7815 ], [ 82.45778, 25.78658 ], [ 82.45834, 25.79191 ], [ 82.45189, 25.79207 ], [ 82.45116, 25.79451 ], [ 82.45341, 25.79464 ], [ 82.45317, 25.79625 ], [ 82.45076, 25.79719 ], [ 82.44664, 25.79737 ], [ 82.44585, 25.79952 ], [ 82.4466, 25.80135 ], [ 82.44301, 25.80201 ], [ 82.44204, 25.80368 ], [ 82.43522, 25.80344 ], [ 82.43497, 25.80481 ], [ 82.43619, 25.8069 ], [ 82.42996, 25.81 ], [ 82.42892, 25.81457 ], [ 82.42673, 25.81722 ], [ 82.42704, 25.82386 ], [ 82.42823, 25.82476 ], [ 82.43099, 25.82492 ], [ 82.43498, 25.82322 ], [ 82.43909, 25.81967 ], [ 82.44058, 25.81945 ], [ 82.44076, 25.8201 ], [ 82.43912, 25.82089 ], [ 82.44084, 25.82126 ], [ 82.44475, 25.8208 ], [ 82.44427, 25.81929 ], [ 82.45011, 25.81985 ], [ 82.45041, 25.82155 ], [ 82.45351, 25.82263 ], [ 82.45271, 25.82429 ], [ 82.45304, 25.82551 ], [ 82.45216, 25.82583 ], [ 82.45286, 25.82776 ], [ 82.45051, 25.82847 ], [ 82.4484, 25.8261 ], [ 82.4424, 25.82729 ], [ 82.44459, 25.83344 ], [ 82.44938, 25.8331 ], [ 82.45015, 25.83369 ], [ 82.45097, 25.83681 ], [ 82.45402, 25.84212 ], [ 82.45915, 25.8402 ], [ 82.46066, 25.83786 ], [ 82.4614, 25.83891 ], [ 82.46368, 25.83847 ], [ 82.46437, 25.8373 ], [ 82.46666, 25.83668 ], [ 82.46648, 25.83555 ], [ 82.46724, 25.83626 ], [ 82.46854, 25.83564 ], [ 82.46839, 25.83489 ], [ 82.4704, 25.83609 ], [ 82.47191, 25.83966 ], [ 82.47585, 25.83898 ], [ 82.47782, 25.8401 ], [ 82.4804, 25.84335 ], [ 82.48231, 25.84358 ], [ 82.48478, 25.8415 ], [ 82.48663, 25.84111 ], [ 82.48742, 25.83976 ], [ 82.49019, 25.83886 ], [ 82.49004, 25.83811 ], [ 82.49097, 25.83867 ], [ 82.49282, 25.8383 ], [ 82.4936, 25.83931 ], [ 82.49604, 25.83923 ], [ 82.4981, 25.84049 ], [ 82.50302, 25.8378 ], [ 82.50264, 25.83738 ], [ 82.50656, 25.8374 ], [ 82.50938, 25.83519 ], [ 82.50922, 25.83416 ], [ 82.51471, 25.835 ], [ 82.52152, 25.83276 ], [ 82.52351, 25.83056 ], [ 82.52719, 25.82957 ], [ 82.527, 25.83102 ], [ 82.52297, 25.83463 ], [ 82.52716, 25.8359 ], [ 82.52864, 25.83804 ], [ 82.53006, 25.83719 ], [ 82.52949, 25.84007 ], [ 82.52761, 25.84069 ], [ 82.52777, 25.84179 ], [ 82.52614, 25.84245 ], [ 82.52736, 25.84639 ], [ 82.53146, 25.8501 ], [ 82.53111, 25.85088 ], [ 82.533, 25.85388 ], [ 82.53574, 25.85672 ], [ 82.53725, 25.85614 ], [ 82.54161, 25.86003 ], [ 82.54292, 25.85984 ], [ 82.54482, 25.85789 ], [ 82.5474, 25.86009 ], [ 82.55044, 25.85967 ], [ 82.5514, 25.85851 ], [ 82.55795, 25.85532 ], [ 82.55916, 25.85936 ], [ 82.56278, 25.86077 ], [ 82.56576, 25.86111 ], [ 82.5673, 25.85941 ], [ 82.56979, 25.86021 ], [ 82.57208, 25.85886 ], [ 82.57642, 25.85943 ], [ 82.57725, 25.85652 ], [ 82.57931, 25.85544 ], [ 82.58186, 25.85512 ], [ 82.58354, 25.85718 ], [ 82.58488, 25.85687 ], [ 82.58612, 25.8511 ], [ 82.58983, 25.85188 ], [ 82.59395, 25.85683 ], [ 82.59549, 25.86061 ], [ 82.58674, 25.86932 ], [ 82.58431, 25.87428 ], [ 82.58252, 25.8793 ], [ 82.58313, 25.8867 ], [ 82.58211, 25.8917 ], [ 82.5793, 25.89366 ], [ 82.57534, 25.8934 ], [ 82.57022, 25.89458 ], [ 82.5673, 25.8993 ], [ 82.57105, 25.89903 ], [ 82.57208, 25.89982 ], [ 82.57326, 25.89908 ] ] ] } },
{ "type": "Feature", "properties": { "OBJECTID": 2567, "state_lgd": "09", "state_name": "UTTAR PRADESH", "district_lgd": "194", "district_name": "JAUNPUR", "district_name_source": "district_table", "subdistrict_lgd": "986", "subdistrict_name": "KERAKAT", "subdistrict_type": "Tehsil", "name_corrupted": false, "remarks": "", "label_lon": 82.902491080649696, "label_lat": 25.635661903976246 }, "geometry": { "type": "Polygon", "coordinates": [ [ [ 82.89941, 25.77473 ], [ 82.90005, 25.77136 ], [ 82.9012, 25.77045 ], [ 82.90239, 25.77143 ], [ 82.90423, 25.76949 ], [ 82.90647, 25.76935 ], [ 82.90687, 25.76801 ], [ 82.90866, 25.7688 ], [ 82.9125, 25.76765 ], [ 82.9165, 25.76388 ], [ 82.91699, 25.76223 ], [ 82.91847, 25.76164 ], [ 82.91881, 25.75972 ], [ 82.92271, 25.7585 ], [ 82.92402, 25.7572 ], [ 82.92525, 25.75723 ], [ 82.92652, 25.75848 ], [ 82.92938, 25.75728 ], [ 82.92877, 25.75653 ], [ 82.9299, 25.75425 ], [ 82.92769, 25.74929 ], [ 82.92899, 25.74728 ], [ 82.92329, 25.74435 ], [ 82.92356, 25.74195 ], [ 82.92212, 25.74095 ], [ 82.92291, 25.73911 ], [ 82.92149, 25.73776 ], [ 82.92357, 25.73575 ], [ 82.92323, 25.73508 ], [ 82.92462, 25.73498 ], [ 82.92393, 25.73245 ], [ 82.92707, 25.72982 ], [ 82.9279, 25.73218 ], [ 82.92927, 25.73198 ], [ 82.92977, 25.72994 ], [ 82.93171, 25.73001 ], [ 82.93198, 25.73219 ], [ 82.93376, 25.73112 ], [ 82.9329, 25.72367 ], [ 82.93456, 25.7229 ], [ 82.93536, 25.71865 ], [ 82.93969, 25.71771 ], [ 82.94116, 25.71648 ], [ 82.9418, 25.70829 ], [ 82.95359, 25.70582 ], [ 82.9561, 25.70649 ], [ 82.95802, 25.70803 ], [ 82.9657, 25.7009 ], [ 82.96817, 25.69972 ], [ 82.97624, 25.69033 ], [ 82.97712, 25.68894 ], [ 82.97651, 25.68595 ], [ 82.98062, 25.68478 ], [ 82.97973, 25.68259 ], [ 82.98197, 25.68016 ], [ 82.98433, 25.68075 ], [ 82.98511, 25.68343 ], [ 82.98991, 25.68438 ], [ 82.99239, 25.68583 ], [ 82.99862, 25.68435 ], [ 83.00124, 25.69414 ], [ 82.99799, 25.69361 ], [ 82.99736, 25.69792 ], [ 82.99887, 25.69787 ], [ 83.00286, 25.69974 ], [ 83.00336, 25.70338 ], [ 82.99983, 25.70416 ], [ 83.00366, 25.71067 ], [ 83.00895, 25.71504 ], [ 83.01128, 25.71112 ], [ 83.01376, 25.71117 ], [ 83.01484, 25.7102 ], [ 83.01406, 25.70914 ], [ 83.01603, 25.70866 ], [ 83.01614, 25.70705 ], [ 83.01865, 25.70559 ], [ 83.02161, 25.7067 ], [ 83.02259, 25.70568 ], [ 83.02592, 25.7049 ], [ 83.02767, 25.70334 ], [ 83.02836, 25.70485 ], [ 83.03095, 25.70556 ], [ 83.03061, 25.70204 ], [ 83.03277, 25.69775 ], [ 83.03346, 25.69793 ], [ 83.03305, 25.69868 ], [ 83.03402, 25.69831 ], [ 83.0359, 25.7004 ], [ 83.04344, 25.70199 ], [ 83.04403, 25.70096 ], [ 83.04184, 25.69707 ], [ 83.04073, 25.69149 ], [ 83.05262, 25.68929 ], [ 83.05429, 25.6871 ], [ 83.05392, 25.68552 ], [ 83.05644, 25.68333 ], [ 83.05787, 25.68366 ], [ 83.05895, 25.68288 ], [ 83.06363, 25.68452 ], [ 83.06878, 25.68442 ], [ 83.0714, 25.68618 ], [ 83.07417, 25.68558 ], [ 83.07519, 25.68405 ], [ 83.079, 25.68254 ], [ 83.07869, 25.67819 ], [ 83.07734, 25.67536 ], [ 83.07732, 25.67184 ], [ 83.06809, 25.66812 ], [ 83.06205, 25.65945 ], [ 83.06411, 25.65594 ], [ 83.06601, 25.65437 ], [ 83.06622, 25.65283 ], [ 83.06374, 25.6433 ], [ 83.06375, 25.63846 ], [ 83.06281, 25.63604 ], [ 83.06477, 25.62691 ], [ 83.06802, 25.62066 ], [ 83.07437, 25.61894 ], [ 83.07694, 25.61561 ], [ 83.07599, 25.61166 ], [ 83.0768, 25.61013 ], [ 83.07512, 25.6006 ], [ 83.06789, 25.59869 ], [ 83.06681, 25.59734 ], [ 83.06661, 25.59532 ], [ 83.07675, 25.59073 ], [ 83.07694, 25.58808 ], [ 83.07978, 25.58835 ], [ 83.08282, 25.59025 ], [ 83.08627, 25.59074 ], [ 83.08775, 25.57923 ], [ 83.08965, 25.57666 ], [ 83.09012, 25.57359 ], [ 83.08985, 25.57298 ], [ 83.08046, 25.57126 ], [ 83.07749, 25.56226 ], [ 83.07807, 25.55751 ], [ 83.07672, 25.55568 ], [ 83.0721, 25.55359 ], [ 83.07032, 25.55121 ], [ 83.06603, 25.5563 ], [ 83.06369, 25.55749 ], [ 83.06096, 25.55749 ], [ 83.05711, 25.55384 ], [ 83.05242, 25.54443 ], [ 83.0485, 25.54194 ], [ 83.04304, 25.5406 ], [ 83.04058, 25.54173 ], [ 83.03925, 25.55335 ], [ 83.03696, 25.55796 ], [ 83.03178, 25.56363 ], [ 83.02959, 25.57159 ], [ 83.02422, 25.57638 ], [ 83.0202, 25.57757 ], [ 83.01635, 25.57616 ], [ 83.00977, 25.56708 ], [ 83.01056, 25.56338 ], [ 83.00962, 25.55975 ], [ 83.00172, 25.55614 ], [ 83.00134, 25.55372 ], [ 83.00551, 25.55559 ], [ 83.01009, 25.55402 ], [ 83.01056, 25.55156 ], [ 83.00995, 25.54889 ], [ 83.00654, 25.54802 ], [ 82.99955, 25.54997 ], [ 82.99941, 25.55361 ], [ 82.99002, 25.55654 ], [ 82.98423, 25.55577 ], [ 82.97753, 25.55664 ], [ 82.97602, 25.55146 ], [ 82.97686, 25.54792 ], [ 82.97579, 25.54544 ], [ 82.97217, 25.54479 ], [ 82.97148, 25.54316 ], [ 82.96714, 25.54027 ], [ 82.96393, 25.52942 ], [ 82.96305, 25.52849 ], [ 82.96001, 25.52643 ], [ 82.95694, 25.52689 ], [ 82.95605, 25.52548 ], [ 82.95531, 25.52555 ], [ 82.95177, 25.52677 ], [ 82.95177, 25.52814 ], [ 82.95072, 25.52914 ], [ 82.94503, 25.5297 ], [ 82.94185, 25.53224 ], [ 82.94034, 25.53693 ], [ 82.93987, 25.54394 ], [ 82.9433, 25.54694 ], [ 82.94181, 25.5484 ], [ 82.94139, 25.55219 ], [ 82.94041, 25.55393 ], [ 82.93582, 25.55608 ], [ 82.93426, 25.56533 ], [ 82.93291, 25.5673 ], [ 82.92385, 25.56978 ], [ 82.92248, 25.57222 ], [ 82.91957, 25.56957 ], [ 82.91548, 25.56966 ], [ 82.9129, 25.56831 ], [ 82.89583, 25.57181 ], [ 82.895, 25.56926 ], [ 82.89036, 25.56989 ], [ 82.88911, 25.56871 ], [ 82.88524, 25.56902 ], [ 82.88313, 25.56679 ], [ 82.87459, 25.56686 ], [ 82.87308, 25.5699 ], [ 82.87353, 25.57312 ], [ 82.87296, 25.57492 ], [ 82.86688, 25.58024 ], [ 82.85955, 25.57747 ], [ 82.85762, 25.56783 ], [ 82.85515, 25.56299 ], [ 82.8512, 25.56221 ], [ 82.84685, 25.56527 ], [ 82.84364, 25.56628 ], [ 82.84155, 25.5682 ], [ 82.83631, 25.56821 ], [ 82.83713, 25.56425 ], [ 82.83794, 25.56354 ], [ 82.83754, 25.56131 ], [ 82.83883, 25.55866 ], [ 82.83761, 25.55474 ], [ 82.83392, 25.55287 ], [ 82.82976, 25.55321 ], [ 82.82732, 25.54933 ], [ 82.80941, 25.5528 ], [ 82.80876, 25.55017 ], [ 82.80126, 25.55166 ], [ 82.79741, 25.55125 ], [ 82.79471, 25.55177 ], [ 82.79299, 25.55328 ], [ 82.79295, 25.5493 ], [ 82.79483, 25.54758 ], [ 82.79439, 25.54476 ], [ 82.79191, 25.5424 ], [ 82.78982, 25.54343 ], [ 82.78527, 25.54333 ], [ 82.7844, 25.53531 ], [ 82.77939, 25.52948 ], [ 82.77666, 25.52924 ], [ 82.77092, 25.53039 ], [ 82.76856, 25.53344 ], [ 82.76256, 25.53729 ], [ 82.76009, 25.54222 ], [ 82.75381, 25.54245 ], [ 82.74726, 25.54489 ], [ 82.74789, 25.54991 ], [ 82.74957, 25.55081 ], [ 82.75151, 25.55547 ], [ 82.7511, 25.55762 ], [ 82.74978, 25.55865 ], [ 82.74773, 25.55898 ], [ 82.7456, 25.55824 ], [ 82.73575, 25.56096 ], [ 82.73096, 25.56835 ], [ 82.73067, 25.57724 ], [ 82.72725, 25.57925 ], [ 82.72594, 25.57739 ], [ 82.72579, 25.57891 ], [ 82.72006, 25.58008 ], [ 82.71748, 25.58043 ], [ 82.71648, 25.57951 ], [ 82.70704, 25.58017 ], [ 82.69898, 25.58542 ], [ 82.69883, 25.58881 ], [ 82.69609, 25.5918 ], [ 82.69893, 25.59533 ], [ 82.69844, 25.59621 ], [ 82.69942, 25.5983 ], [ 82.69922, 25.60548 ], [ 82.70122, 25.6094 ], [ 82.70283, 25.61034 ], [ 82.70438, 25.6156 ], [ 82.70239, 25.61898 ], [ 82.69939, 25.61962 ], [ 82.69979, 25.62187 ], [ 82.6972, 25.62432 ], [ 82.69675, 25.62697 ], [ 82.69435, 25.62783 ], [ 82.69447, 25.63002 ], [ 82.69324, 25.63109 ], [ 82.69318, 25.63437 ], [ 82.69761, 25.63569 ], [ 82.70624, 25.6351 ], [ 82.7071, 25.63577 ], [ 82.71632, 25.6344 ], [ 82.71865, 25.6356 ], [ 82.7193, 25.63987 ], [ 82.72424, 25.64198 ], [ 82.73764, 25.64283 ], [ 82.74149, 25.64215 ], [ 82.74332, 25.64105 ], [ 82.74444, 25.63859 ], [ 82.73599, 25.62838 ], [ 82.73476, 25.62566 ], [ 82.73513, 25.61971 ], [ 82.73691, 25.61633 ], [ 82.73887, 25.6137 ], [ 82.74239, 25.61333 ], [ 82.74595, 25.6151 ], [ 82.75213, 25.62886 ], [ 82.7594, 25.63071 ], [ 82.76303, 25.62981 ], [ 82.7697, 25.62535 ], [ 82.7768, 25.62397 ], [ 82.78547, 25.6243 ], [ 82.78975, 25.62804 ], [ 82.79484, 25.63038 ], [ 82.79625, 25.6331 ], [ 82.79568, 25.63799 ], [ 82.79309, 25.64245 ], [ 82.79202, 25.64719 ], [ 82.79377, 25.65021 ], [ 82.80123, 25.65312 ], [ 82.79931, 25.65788 ], [ 82.79353, 25.66225 ], [ 82.7926, 25.66593 ], [ 82.79564, 25.66767 ], [ 82.80406, 25.66843 ], [ 82.80664, 25.67082 ], [ 82.80571, 25.67449 ], [ 82.80081, 25.68083 ], [ 82.79855, 25.68544 ], [ 82.79646, 25.69243 ], [ 82.79392, 25.69634 ], [ 82.785, 25.70428 ], [ 82.78627, 25.70807 ], [ 82.78849, 25.70895 ], [ 82.79025, 25.71425 ], [ 82.79023, 25.71716 ], [ 82.79499, 25.71933 ], [ 82.79722, 25.71777 ], [ 82.79982, 25.72541 ], [ 82.80271, 25.72439 ], [ 82.80422, 25.72539 ], [ 82.80769, 25.72537 ], [ 82.8066, 25.7206 ], [ 82.80992, 25.71715 ], [ 82.81815, 25.71601 ], [ 82.81798, 25.7141 ], [ 82.81876, 25.71402 ], [ 82.82212, 25.72409 ], [ 82.82634, 25.7292 ], [ 82.82431, 25.73098 ], [ 82.82687, 25.73174 ], [ 82.83121, 25.73125 ], [ 82.83097, 25.73731 ], [ 82.83293, 25.73752 ], [ 82.8348, 25.74478 ], [ 82.83702, 25.74243 ], [ 82.83878, 25.73784 ], [ 82.84136, 25.73687 ], [ 82.84638, 25.73731 ], [ 82.84644, 25.73851 ], [ 82.84452, 25.73948 ], [ 82.84427, 25.74071 ], [ 82.84777, 25.75187 ], [ 82.84631, 25.75806 ], [ 82.84822, 25.75843 ], [ 82.85621, 25.75559 ], [ 82.86102, 25.75624 ], [ 82.86747, 25.75435 ], [ 82.86838, 25.7586 ], [ 82.86531, 25.77111 ], [ 82.86577, 25.7723 ], [ 82.87011, 25.77377 ], [ 82.87198, 25.773 ], [ 82.87847, 25.77335 ], [ 82.88087, 25.77167 ], [ 82.89024, 25.76924 ], [ 82.8926, 25.76976 ], [ 82.89492, 25.7716 ], [ 82.8947, 25.77321 ], [ 82.89672, 25.77348 ], [ 82.89751, 25.77489 ], [ 82.89941, 25.77473 ] ] ] } },
{ "type": "Feature", "properties": { "OBJECTID": 2595, "state_lgd": "09", "state_name": "UTTAR PRADESH", "district_lgd": "194", "district_name": "JAUNPUR", "district_name_source": "district_table", "subdistrict_lgd": "983", "subdistrict_name": "MACHHLISHAHR", "subdistrict_type": "Tehsil", "name_corrupted": false, "remarks": "", "label_lon": 82.316713556436625, "label_lat": 25.679533579994278 }, "geometry": { "type": "Polygon", "coordinates": [ [ [ 82.1909, 25.82895 ], [ 82.20128, 25.82227 ], [ 82.20417, 25.82124 ], [ 82.20799, 25.82074 ], [ 82.2097, 25.82135 ], [ 82.20978, 25.82264 ], [ 82.21483, 25.82152 ], [ 82.21833, 25.81705 ], [ 82.22122, 25.8148 ], [ 82.22889, 25.81227 ], [ 82.24098, 25.81073 ], [ 82.25314, 25.81085 ], [ 82.26064, 25.80935 ], [ 82.27119, 25.81031 ], [ 82.28061, 25.8067 ], [ 82.28664, 25.80559 ], [ 82.28756, 25.80644 ], [ 82.28776, 25.80898 ], [ 82.28636, 25.8135 ], [ 82.28764, 25.81444 ], [ 82.29058, 25.81439 ], [ 82.2929, 25.8111 ], [ 82.29457, 25.81212 ], [ 82.2976, 25.81154 ], [ 82.30039, 25.81211 ], [ 82.30384, 25.81586 ], [ 82.30321, 25.82392 ], [ 82.30521, 25.8261 ], [ 82.3083, 25.82629 ], [ 82.31748, 25.82088 ], [ 82.31784, 25.81987 ], [ 82.31661, 25.81663 ], [ 82.31735, 25.81338 ], [ 82.32309, 25.80664 ], [ 82.32705, 25.80481 ], [ 82.32986, 25.79813 ], [ 82.33246, 25.79557 ], [ 82.33625, 25.79496 ], [ 82.34262, 25.80075 ], [ 82.34882, 25.80381 ], [ 82.35099, 25.80419 ], [ 82.35446, 25.80211 ], [ 82.35566, 25.80069 ], [ 82.35592, 25.79819 ], [ 82.35112, 25.79522 ], [ 82.34988, 25.79235 ], [ 82.35126, 25.78948 ], [ 82.35591, 25.78595 ], [ 82.35593, 25.7836 ], [ 82.35824, 25.78152 ], [ 82.35969, 25.78163 ], [ 82.36279, 25.78423 ], [ 82.36387, 25.7875 ], [ 82.36522, 25.78897 ], [ 82.37926, 25.79082 ], [ 82.38549, 25.79367 ], [ 82.39088, 25.79178 ], [ 82.39561, 25.79283 ], [ 82.40674, 25.79348 ], [ 82.41458, 25.78967 ], [ 82.4194, 25.79374 ], [ 82.42135, 25.79452 ], [ 82.42827, 25.79155 ], [ 82.43744, 25.79019 ], [ 82.44143, 25.79025 ], [ 82.4474, 25.79197 ], [ 82.45834, 25.79191 ], [ 82.45778, 25.78658 ], [ 82.45533, 25.7815 ], [ 82.4537, 25.78183 ], [ 82.4532, 25.78122 ], [ 82.45118, 25.77721 ], [ 82.45252, 25.77532 ], [ 82.44851, 25.77034 ], [ 82.4456, 25.77007 ], [ 82.44317, 25.7709 ], [ 82.4422, 25.7686 ], [ 82.43379, 25.77231 ], [ 82.43296, 25.7658 ], [ 82.42975, 25.76295 ], [ 82.42671, 25.76265 ], [ 82.42577, 25.76074 ], [ 82.42809, 25.76013 ], [ 82.43186, 25.75698 ], [ 82.43088, 25.75247 ], [ 82.43354, 25.75146 ], [ 82.43369, 25.75034 ], [ 82.44219, 25.7456 ], [ 82.44922, 25.74289 ], [ 82.45173, 25.74018 ], [ 82.45174, 25.72844 ], [ 82.44814, 25.72368 ], [ 82.45079, 25.72063 ], [ 82.44948, 25.71092 ], [ 82.45399, 25.71005 ], [ 82.45493, 25.71177 ], [ 82.45693, 25.71231 ], [ 82.45886, 25.714 ], [ 82.46438, 25.71487 ], [ 82.4682, 25.7129 ], [ 82.47283, 25.71217 ], [ 82.47578, 25.71856 ], [ 82.48082, 25.71746 ], [ 82.48515, 25.71824 ], [ 82.48723, 25.71785 ], [ 82.48723, 25.71937 ], [ 82.49154, 25.71989 ], [ 82.49278, 25.72519 ], [ 82.49811, 25.72559 ], [ 82.50247, 25.72449 ], [ 82.50544, 25.72575 ], [ 82.50734, 25.72564 ], [ 82.50888, 25.72938 ], [ 82.51264, 25.72887 ], [ 82.51585, 25.72739 ], [ 82.5162, 25.7257 ], [ 82.51819, 25.72475 ], [ 82.51778, 25.72437 ], [ 82.51881, 25.72291 ], [ 82.51888, 25.721 ], [ 82.51417, 25.71734 ], [ 82.51807, 25.707 ], [ 82.51982, 25.70948 ], [ 82.52149, 25.70832 ], [ 82.51948, 25.70035 ], [ 82.52585, 25.6922 ], [ 82.52766, 25.69228 ], [ 82.53484, 25.68668 ], [ 82.5373, 25.6862 ], [ 82.5393, 25.68327 ], [ 82.53884, 25.6793 ], [ 82.5369, 25.67622 ], [ 82.53451, 25.67434 ], [ 82.52764, 25.67306 ], [ 82.52646, 25.67433 ], [ 82.52607, 25.67831 ], [ 82.52026, 25.67905 ], [ 82.51768, 25.67181 ], [ 82.51521, 25.67193 ], [ 82.50304, 25.66553 ], [ 82.49711, 25.66579 ], [ 82.49611, 25.66479 ], [ 82.49498, 25.66484 ], [ 82.49104, 25.66647 ], [ 82.48991, 25.66569 ], [ 82.49104, 25.6623 ], [ 82.48728, 25.6559 ], [ 82.48472, 25.65478 ], [ 82.47612, 25.65386 ], [ 82.47539, 25.65212 ], [ 82.47737, 25.64882 ], [ 82.47332, 25.6459 ], [ 82.47507, 25.63798 ], [ 82.47687, 25.6373 ], [ 82.47787, 25.63877 ], [ 82.48114, 25.63984 ], [ 82.48216, 25.63844 ], [ 82.48158, 25.63322 ], [ 82.48265, 25.63151 ], [ 82.48423, 25.63081 ], [ 82.48316, 25.62957 ], [ 82.48332, 25.62651 ], [ 82.4814, 25.62294 ], [ 82.48172, 25.62024 ], [ 82.47866, 25.61711 ], [ 82.47498, 25.61926 ], [ 82.46978, 25.62029 ], [ 82.46901, 25.61923 ], [ 82.47009, 25.61704 ], [ 82.46774, 25.61421 ], [ 82.4591, 25.61269 ], [ 82.45803, 25.61485 ], [ 82.45895, 25.6205 ], [ 82.45463, 25.62056 ], [ 82.45345, 25.62035 ], [ 82.45392, 25.61739 ], [ 82.45196, 25.6147 ], [ 82.44744, 25.61214 ], [ 82.44671, 25.61268 ], [ 82.44449, 25.61188 ], [ 82.44322, 25.61462 ], [ 82.44108, 25.61501 ], [ 82.44138, 25.6182 ], [ 82.43945, 25.62003 ], [ 82.4408, 25.62168 ], [ 82.44038, 25.62238 ], [ 82.43891, 25.6226 ], [ 82.43824, 25.62125 ], [ 82.43691, 25.62129 ], [ 82.43327, 25.62332 ], [ 82.43216, 25.62639 ], [ 82.43302, 25.62815 ], [ 82.43188, 25.62867 ], [ 82.43107, 25.62747 ], [ 82.42953, 25.6293 ], [ 82.42917, 25.63121 ], [ 82.43083, 25.63294 ], [ 82.43003, 25.63443 ], [ 82.43134, 25.63606 ], [ 82.42983, 25.63678 ], [ 82.42776, 25.63595 ], [ 82.42678, 25.63455 ], [ 82.42442, 25.63453 ], [ 82.42404, 25.63228 ], [ 82.42114, 25.63284 ], [ 82.41965, 25.63502 ], [ 82.41776, 25.63507 ], [ 82.41907, 25.63265 ], [ 82.41648, 25.63105 ], [ 82.41905, 25.62839 ], [ 82.41817, 25.62714 ], [ 82.41631, 25.62769 ], [ 82.415, 25.62647 ], [ 82.4162, 25.62421 ], [ 82.41355, 25.62142 ], [ 82.40923, 25.6226 ], [ 82.4088, 25.62009 ], [ 82.4066, 25.62003 ], [ 82.4082, 25.61842 ], [ 82.40506, 25.6182 ], [ 82.40211, 25.62063 ], [ 82.40042, 25.61851 ], [ 82.39872, 25.61978 ], [ 82.39987, 25.61496 ], [ 82.39553, 25.60769 ], [ 82.39705, 25.60721 ], [ 82.39744, 25.60629 ], [ 82.39452, 25.60402 ], [ 82.39388, 25.60008 ], [ 82.39693, 25.59896 ], [ 82.39741, 25.59656 ], [ 82.39912, 25.59615 ], [ 82.39958, 25.58572 ], [ 82.39681, 25.58094 ], [ 82.39491, 25.58002 ], [ 82.39733, 25.57705 ], [ 82.39998, 25.57609 ], [ 82.40094, 25.57664 ], [ 82.40376, 25.57524 ], [ 82.4033, 25.57044 ], [ 82.40193, 25.56747 ], [ 82.40106, 25.56673 ], [ 82.39974, 25.56695 ], [ 82.39808, 25.56483 ], [ 82.39955, 25.56413 ], [ 82.3988, 25.56226 ], [ 82.40577, 25.557 ], [ 82.40349, 25.55226 ], [ 82.4007, 25.55368 ], [ 82.39954, 25.55315 ], [ 82.39971, 25.54951 ], [ 82.39877, 25.54596 ], [ 82.39937, 25.5398 ], [ 82.39863, 25.5398 ], [ 82.39716, 25.53675 ], [ 82.39593, 25.53672 ], [ 82.39449, 25.53478 ], [ 82.39112, 25.53317 ], [ 82.38934, 25.52749 ], [ 82.38997, 25.52626 ], [ 82.39361, 25.52701 ], [ 82.39451, 25.52394 ], [ 82.39646, 25.52172 ], [ 82.39574, 25.51974 ], [ 82.39408, 25.51894 ], [ 82.39441, 25.51487 ], [ 82.39259, 25.51307 ], [ 82.39043, 25.51311 ], [ 82.38806, 25.51207 ], [ 82.38633, 25.51456 ], [ 82.38308, 25.5155 ], [ 82.38091, 25.51767 ], [ 82.37657, 25.51646 ], [ 82.3729, 25.51801 ], [ 82.37167, 25.51736 ], [ 82.37231, 25.51456 ], [ 82.3765, 25.51156 ], [ 82.37545, 25.50823 ], [ 82.37182, 25.50766 ], [ 82.36928, 25.5087 ], [ 82.36642, 25.50859 ], [ 82.363, 25.51068 ], [ 82.36167, 25.50857 ], [ 82.35955, 25.50816 ], [ 82.35674, 25.50886 ], [ 82.35466, 25.5109 ], [ 82.35386, 25.51302 ], [ 82.35177, 25.51398 ], [ 82.35164, 25.51645 ], [ 82.34989, 25.51862 ], [ 82.35033, 25.52123 ], [ 82.34916, 25.52292 ], [ 82.34871, 25.52647 ], [ 82.34575, 25.53056 ], [ 82.34352, 25.53161 ], [ 82.34013, 25.53566 ], [ 82.33737, 25.5353 ], [ 82.33535, 25.53659 ], [ 82.33211, 25.53566 ], [ 82.32956, 25.53734 ], [ 82.32581, 25.54287 ], [ 82.32359, 25.54285 ], [ 82.31859, 25.54558 ], [ 82.31508, 25.54623 ], [ 82.31203, 25.54555 ], [ 82.31051, 25.54731 ], [ 82.30641, 25.54667 ], [ 82.2994, 25.54766 ], [ 82.29532, 25.54114 ], [ 82.28978, 25.54199 ], [ 82.28586, 25.55349 ], [ 82.27665, 25.55445 ], [ 82.2729, 25.55642 ], [ 82.2714, 25.55825 ], [ 82.26947, 25.55907 ], [ 82.26786, 25.56334 ], [ 82.26542, 25.56382 ], [ 82.26404, 25.5653 ], [ 82.26073, 25.56567 ], [ 82.25643, 25.56214 ], [ 82.25431, 25.56208 ], [ 82.25246, 25.56072 ], [ 82.25066, 25.56098 ], [ 82.24561, 25.56818 ], [ 82.24815, 25.57269 ], [ 82.2496, 25.57122 ], [ 82.251, 25.571 ], [ 82.25179, 25.57348 ], [ 82.25098, 25.57527 ], [ 82.25126, 25.57783 ], [ 82.24471, 25.58094 ], [ 82.23047, 25.58564 ], [ 82.22402, 25.58942 ], [ 82.22129, 25.58702 ], [ 82.21376, 25.58594 ], [ 82.21149, 25.58168 ], [ 82.21172, 25.57771 ], [ 82.20977, 25.57831 ], [ 82.20907, 25.57609 ], [ 82.20725, 25.57558 ], [ 82.20502, 25.57302 ], [ 82.20138, 25.57553 ], [ 82.20263, 25.57661 ], [ 82.20399, 25.57635 ], [ 82.20232, 25.58047 ], [ 82.20355, 25.58175 ], [ 82.20221, 25.58211 ], [ 82.20278, 25.58275 ], [ 82.20187, 25.5842 ], [ 82.19891, 25.58298 ], [ 82.19308, 25.58306 ], [ 82.18569, 25.57718 ], [ 82.1815, 25.58065 ], [ 82.17878, 25.58074 ], [ 82.17772, 25.58424 ], [ 82.17438, 25.58528 ], [ 82.17148, 25.59035 ], [ 82.17259, 25.59116 ], [ 82.17336, 25.59346 ], [ 82.17145, 25.59811 ], [ 82.16944, 25.59862 ], [ 82.16158, 25.59751 ], [ 82.15657, 25.59913 ], [ 82.15436, 25.60103 ], [ 82.14756, 25.61293 ], [ 82.14623, 25.61192 ], [ 82.14234, 25.61678 ], [ 82.14033, 25.62099 ], [ 82.1371, 25.62234 ], [ 82.13813, 25.62785 ], [ 82.13699, 25.63037 ], [ 82.13084, 25.63302 ], [ 82.1302, 25.63514 ], [ 82.124, 25.6404 ], [ 82.12431, 25.64149 ], [ 82.12293, 25.6424 ], [ 82.12252, 25.64496 ], [ 82.12698, 25.64674 ], [ 82.1329, 25.64512 ], [ 82.13604, 25.64523 ], [ 82.13908, 25.65171 ], [ 82.14284, 25.64946 ], [ 82.14559, 25.65068 ], [ 82.14642, 25.65173 ], [ 82.14509, 25.65334 ], [ 82.13856, 25.65472 ], [ 82.14411, 25.66791 ], [ 82.15368, 25.66771 ], [ 82.15514, 25.67156 ], [ 82.1542, 25.67366 ], [ 82.15534, 25.67667 ], [ 82.15613, 25.67693 ], [ 82.15556, 25.6784 ], [ 82.1582, 25.6789 ], [ 82.15949, 25.68023 ], [ 82.16326, 25.68032 ], [ 82.16547, 25.68614 ], [ 82.16558, 25.68885 ], [ 82.16949, 25.69864 ], [ 82.16965, 25.70378 ], [ 82.17046, 25.70441 ], [ 82.17965, 25.70352 ], [ 82.17984, 25.70116 ], [ 82.181, 25.70098 ], [ 82.18525, 25.70339 ], [ 82.18773, 25.70788 ], [ 82.19157, 25.72292 ], [ 82.19173, 25.73448 ], [ 82.1969, 25.74203 ], [ 82.19668, 25.74355 ], [ 82.19419, 25.74509 ], [ 82.18769, 25.75608 ], [ 82.18792, 25.76022 ], [ 82.18875, 25.76312 ], [ 82.19122, 25.76325 ], [ 82.19412, 25.76465 ], [ 82.1965, 25.76435 ], [ 82.19809, 25.76678 ], [ 82.19006, 25.77253 ], [ 82.18754, 25.7697 ], [ 82.18343, 25.77227 ], [ 82.18152, 25.77524 ], [ 82.18305, 25.7772 ], [ 82.18276, 25.77802 ], [ 82.18433, 25.77859 ], [ 82.18225, 25.77993 ], [ 82.17787, 25.78098 ], [ 82.17365, 25.78414 ], [ 82.16989, 25.79001 ], [ 82.17033, 25.79158 ], [ 82.16978, 25.79226 ], [ 82.17073, 25.79313 ], [ 82.16926, 25.79402 ], [ 82.17039, 25.79473 ], [ 82.16958, 25.79595 ], [ 82.17155, 25.79985 ], [ 82.17749, 25.80085 ], [ 82.17891, 25.8004 ], [ 82.18123, 25.80185 ], [ 82.18285, 25.79922 ], [ 82.18358, 25.79953 ], [ 82.18413, 25.80169 ], [ 82.18305, 25.80216 ], [ 82.18242, 25.80456 ], [ 82.18321, 25.80677 ], [ 82.17889, 25.80909 ], [ 82.18237, 25.81503 ], [ 82.1817, 25.81713 ], [ 82.17727, 25.82316 ], [ 82.17859, 25.82642 ], [ 82.18281, 25.82952 ], [ 82.18573, 25.83016 ], [ 82.1909, 25.82895 ] ] ] } },
{ "type": "Feature", "properties": { "OBJECTID": 2612, "state_lgd": "09", "state_name": "UTTAR PRADESH", "district_lgd": "194", "district_name": "JAUNPUR", "district_name_source": "district_table", "subdistrict_lgd": "985", "subdistrict_name": "MARIAHU", "subdistrict_type": "Tehsil", "name_corrupted": false, "remarks": "", "label_lon": 82.578097885977314, "label_lat": 25.554320405199128 }, "geometry": { "type": "Polygon", "coordinates": [ [ [ 82.56721, 25.7156 ], [ 82.56862, 25.71519 ], [ 82.57041, 25.7118 ], [ 82.57269, 25.71034 ], [ 82.5795, 25.71092 ], [ 82.58956, 25.70765 ], [ 82.59853, 25.70743 ], [ 82.60364, 25.70509 ], [ 82.60638, 25.70273 ], [ 82.6076, 25.70078 ], [ 82.6084, 25.69696 ], [ 82.61101, 25.69448 ], [ 82.6128, 25.69389 ], [ 82.61926, 25.69468 ], [ 82.6264, 25.69231 ], [ 82.63227, 25.69301 ], [ 82.63512, 25.69173 ], [ 82.63832, 25.68901 ], [ 82.65327, 25.68223 ], [ 82.65383, 25.68062 ], [ 82.65224, 25.6745 ], [ 82.65587, 25.66983 ], [ 82.65621, 25.66357 ], [ 82.66134, 25.65967 ], [ 82.66363, 25.6518 ], [ 82.67046, 25.64445 ], [ 82.6817, 25.6441 ], [ 82.6837, 25.64338 ], [ 82.68386, 25.64397 ], [ 82.68874, 25.64033 ], [ 82.69768, 25.63969 ], [ 82.7071, 25.63577 ], [ 82.70624, 25.6351 ], [ 82.69761, 25.63569 ], [ 82.69318, 25.63437 ], [ 82.69324, 25.63109 ], [ 82.69447, 25.63002 ], [ 82.69435, 25.62783 ], [ 82.69675, 25.62697 ], [ 82.6972, 25.62432 ], [ 82.69979, 25.62187 ], [ 82.69939, 25.61962 ], [ 82.70239, 25.61898 ], [ 82.70438, 25.6156 ], [ 82.70283, 25.61034 ], [ 82.70122, 25.6094 ], [ 82.69922, 25.60548 ], [ 82.69942, 25.5983 ], [ 82.69844, 25.59621 ], [ 82.69893, 25.59533 ], [ 82.69609, 25.5918 ], [ 82.69883, 25.58881 ], [ 82.69898, 25.58542 ], [ 82.70704, 25.58017 ], [ 82.71648, 25.57951 ], [ 82.71748, 25.58043 ], [ 82.72006, 25.58008 ], [ 82.72579, 25.57891 ], [ 82.72594, 25.57739 ], [ 82.72725, 25.57925 ], [ 82.72848, 25.5786 ], [ 82.73101, 25.57666 ], [ 82.73096, 25.56835 ], [ 82.73575, 25.56096 ], [ 82.7456, 25.55824 ], [ 82.74773, 25.55898 ], [ 82.74978, 25.55865 ], [ 82.75154, 25.5565 ], [ 82.74957, 25.55081 ], [ 82.74789, 25.54991 ], [ 82.74726, 25.54489 ], [ 82.74314, 25.54668 ], [ 82.73749, 25.54762 ], [ 82.73296, 25.54481 ], [ 82.72423, 25.54153 ], [ 82.72268, 25.53989 ], [ 82.72089, 25.53421 ], [ 82.71634, 25.53227 ], [ 82.71517, 25.53077 ], [ 82.7161, 25.52888 ], [ 82.72303, 25.52538 ], [ 82.7237, 25.52142 ], [ 82.72602, 25.51924 ], [ 82.72458, 25.51671 ], [ 82.72541, 25.50278 ], [ 82.72167, 25.50329 ], [ 82.72031, 25.50054 ], [ 82.71796, 25.50139 ], [ 82.71592, 25.50083 ], [ 82.7143, 25.49368 ], [ 82.70988, 25.48322 ], [ 82.71132, 25.48093 ], [ 82.71372, 25.47948 ], [ 82.71935, 25.47822 ], [ 82.72437, 25.47462 ], [ 82.72934, 25.47289 ], [ 82.73108, 25.47144 ], [ 82.736, 25.47037 ], [ 82.73708, 25.46972 ], [ 82.73847, 25.46666 ], [ 82.73326, 25.45956 ], [ 82.72998, 25.46069 ], [ 82.72808, 25.45961 ], [ 82.72586, 25.46004 ], [ 82.72445, 25.46142 ], [ 82.72098, 25.46249 ], [ 82.71848, 25.45891 ], [ 82.71255, 25.46116 ], [ 82.71108, 25.45967 ], [ 82.70886, 25.45964 ], [ 82.70623, 25.45769 ], [ 82.7065, 25.45147 ], [ 82.70437, 25.44947 ], [ 82.70282, 25.44995 ], [ 82.7034, 25.44763 ], [ 82.70695, 25.44642 ], [ 82.70844, 25.44808 ], [ 82.71005, 25.4432 ], [ 82.71389, 25.4435 ], [ 82.71784, 25.44176 ], [ 82.71838, 25.43811 ], [ 82.71945, 25.43734 ], [ 82.72035, 25.43469 ], [ 82.72045, 25.43168 ], [ 82.7165, 25.43254 ], [ 82.71174, 25.43162 ], [ 82.70843, 25.43184 ], [ 82.70394, 25.43035 ], [ 82.70405, 25.43203 ], [ 82.70248, 25.43223 ], [ 82.70232, 25.43064 ], [ 82.70112, 25.42984 ], [ 82.69688, 25.43111 ], [ 82.69483, 25.42953 ], [ 82.68976, 25.42858 ], [ 82.68829, 25.42735 ], [ 82.68699, 25.42422 ], [ 82.68391, 25.42186 ], [ 82.68492, 25.41912 ], [ 82.68284, 25.41732 ], [ 82.68505, 25.4136 ], [ 82.68556, 25.41092 ], [ 82.68413, 25.40714 ], [ 82.6909, 25.39801 ], [ 82.69543, 25.39596 ], [ 82.69381, 25.39406 ], [ 82.68577, 25.39766 ], [ 82.68355, 25.39703 ], [ 82.68136, 25.39889 ], [ 82.67659, 25.3987 ], [ 82.67389, 25.39957 ], [ 82.67182, 25.39887 ], [ 82.66911, 25.4005 ], [ 82.6672, 25.3986 ], [ 82.66284, 25.40023 ], [ 82.66076, 25.39922 ], [ 82.65568, 25.39939 ], [ 82.64901, 25.3972 ], [ 82.64568, 25.3975 ], [ 82.64091, 25.39373 ], [ 82.63795, 25.3946 ], [ 82.63609, 25.39319 ], [ 82.6337, 25.3937 ], [ 82.6317, 25.39266 ], [ 82.62803, 25.39323 ], [ 82.62539, 25.39456 ], [ 82.6232, 25.3928 ], [ 82.62167, 25.39413 ], [ 82.61983, 25.39359 ], [ 82.61838, 25.39785 ], [ 82.61868, 25.40137 ], [ 82.62133, 25.40349 ], [ 82.62377, 25.40328 ], [ 82.62516, 25.4042 ], [ 82.62735, 25.4022 ], [ 82.62858, 25.40464 ], [ 82.62908, 25.40191 ], [ 82.63133, 25.40229 ], [ 82.63215, 25.40043 ], [ 82.63591, 25.39981 ], [ 82.63754, 25.40087 ], [ 82.63951, 25.40434 ], [ 82.63818, 25.40618 ], [ 82.63822, 25.4081 ], [ 82.63503, 25.40862 ], [ 82.63336, 25.41056 ], [ 82.62995, 25.41048 ], [ 82.6274, 25.41308 ], [ 82.62467, 25.41087 ], [ 82.62336, 25.41357 ], [ 82.61897, 25.41574 ], [ 82.61471, 25.41527 ], [ 82.61191, 25.41711 ], [ 82.60924, 25.41572 ], [ 82.60798, 25.41362 ], [ 82.60465, 25.41379 ], [ 82.60284, 25.41249 ], [ 82.60134, 25.4132 ], [ 82.60012, 25.41599 ], [ 82.59865, 25.41708 ], [ 82.60042, 25.41908 ], [ 82.59991, 25.4216 ], [ 82.60131, 25.42288 ], [ 82.60147, 25.4249 ], [ 82.60436, 25.42854 ], [ 82.60716, 25.4292 ], [ 82.60728, 25.43212 ], [ 82.61058, 25.43255 ], [ 82.61179, 25.4344 ], [ 82.61411, 25.43575 ], [ 82.61457, 25.4379 ], [ 82.61296, 25.4433 ], [ 82.61304, 25.44589 ], [ 82.61038, 25.44782 ], [ 82.60985, 25.44919 ], [ 82.60801, 25.44939 ], [ 82.60616, 25.45073 ], [ 82.60148, 25.45009 ], [ 82.60083, 25.4518 ], [ 82.60014, 25.4511 ], [ 82.59893, 25.45165 ], [ 82.5975, 25.45005 ], [ 82.59491, 25.44991 ], [ 82.59424, 25.45223 ], [ 82.59209, 25.45145 ], [ 82.59239, 25.45026 ], [ 82.5918, 25.44999 ], [ 82.59025, 25.4507 ], [ 82.59121, 25.45205 ], [ 82.59083, 25.45265 ], [ 82.5886, 25.4524 ], [ 82.58671, 25.45355 ], [ 82.5855, 25.45297 ], [ 82.58149, 25.44827 ], [ 82.58389, 25.44615 ], [ 82.58248, 25.44303 ], [ 82.58383, 25.442 ], [ 82.58376, 25.44043 ], [ 82.58498, 25.4395 ], [ 82.58518, 25.43818 ], [ 82.58398, 25.43643 ], [ 82.58408, 25.43371 ], [ 82.58568, 25.433 ], [ 82.58453, 25.43213 ], [ 82.58367, 25.42918 ], [ 82.58299, 25.42151 ], [ 82.57965, 25.41744 ], [ 82.57701, 25.41714 ], [ 82.57681, 25.41499 ], [ 82.57469, 25.41623 ], [ 82.57271, 25.41581 ], [ 82.57285, 25.41728 ], [ 82.56974, 25.41813 ], [ 82.57004, 25.42191 ], [ 82.56829, 25.42407 ], [ 82.56903, 25.42814 ], [ 82.56836, 25.43092 ], [ 82.56967, 25.43401 ], [ 82.56785, 25.43692 ], [ 82.56861, 25.44069 ], [ 82.5676, 25.44228 ], [ 82.56788, 25.4448 ], [ 82.56566, 25.44635 ], [ 82.5658, 25.44817 ], [ 82.56453, 25.44969 ], [ 82.56433, 25.45237 ], [ 82.56322, 25.45244 ], [ 82.56312, 25.45441 ], [ 82.55874, 25.45875 ], [ 82.55613, 25.45913 ], [ 82.55386, 25.46051 ], [ 82.55239, 25.4595 ], [ 82.55042, 25.46206 ], [ 82.5471, 25.46269 ], [ 82.54443, 25.45888 ], [ 82.54524, 25.45862 ], [ 82.54535, 25.45321 ], [ 82.54641, 25.45276 ], [ 82.5464, 25.45149 ], [ 82.5488, 25.45251 ], [ 82.54974, 25.45144 ], [ 82.55262, 25.45127 ], [ 82.55493, 25.44975 ], [ 82.5549, 25.44772 ], [ 82.55598, 25.44729 ], [ 82.55583, 25.44551 ], [ 82.55741, 25.4453 ], [ 82.5522, 25.43837 ], [ 82.5491, 25.4366 ], [ 82.5475, 25.43731 ], [ 82.54611, 25.43667 ], [ 82.54199, 25.43687 ], [ 82.54012, 25.43778 ], [ 82.53417, 25.43848 ], [ 82.53009, 25.44117 ], [ 82.52969, 25.4398 ], [ 82.52878, 25.43967 ], [ 82.52642, 25.44298 ], [ 82.52357, 25.44282 ], [ 82.5236, 25.44164 ], [ 82.52125, 25.44094 ], [ 82.51955, 25.44185 ], [ 82.51704, 25.44151 ], [ 82.51492, 25.4436 ], [ 82.51583, 25.44407 ], [ 82.51522, 25.44621 ], [ 82.51702, 25.4501 ], [ 82.51304, 25.45479 ], [ 82.51284, 25.45755 ], [ 82.50915, 25.46109 ], [ 82.50992, 25.46731 ], [ 82.50809, 25.46824 ], [ 82.50764, 25.47162 ], [ 82.50595, 25.4719 ], [ 82.50548, 25.47427 ], [ 82.50201, 25.47784 ], [ 82.49941, 25.47887 ], [ 82.49692, 25.47686 ], [ 82.49484, 25.47786 ], [ 82.49171, 25.47725 ], [ 82.49052, 25.47846 ], [ 82.48891, 25.4776 ], [ 82.48954, 25.47541 ], [ 82.48553, 25.47489 ], [ 82.48297, 25.47248 ], [ 82.47808, 25.46969 ], [ 82.4723, 25.46926 ], [ 82.46979, 25.47042 ], [ 82.4689, 25.47331 ], [ 82.46563, 25.47611 ], [ 82.46577, 25.47848 ], [ 82.46857, 25.48005 ], [ 82.47089, 25.48022 ], [ 82.4716, 25.48168 ], [ 82.47407, 25.48151 ], [ 82.4753, 25.48276 ], [ 82.47961, 25.48409 ], [ 82.48018, 25.48456 ], [ 82.48, 25.48736 ], [ 82.47754, 25.48982 ], [ 82.47417, 25.48978 ], [ 82.47237, 25.48896 ], [ 82.47109, 25.48952 ], [ 82.47047, 25.48802 ], [ 82.46739, 25.49009 ], [ 82.46138, 25.4896 ], [ 82.4601, 25.49111 ], [ 82.45763, 25.49167 ], [ 82.45659, 25.49292 ], [ 82.4527, 25.49357 ], [ 82.45247, 25.49508 ], [ 82.44948, 25.49551 ], [ 82.44778, 25.49848 ], [ 82.44686, 25.50386 ], [ 82.4479, 25.51064 ], [ 82.44599, 25.51323 ], [ 82.4449, 25.51764 ], [ 82.44282, 25.5186 ], [ 82.44109, 25.5169 ], [ 82.43779, 25.51712 ], [ 82.43659, 25.51613 ], [ 82.43552, 25.51661 ], [ 82.43291, 25.51547 ], [ 82.43031, 25.51661 ], [ 82.42826, 25.51508 ], [ 82.42708, 25.51638 ], [ 82.42495, 25.51581 ], [ 82.4238, 25.5136 ], [ 82.42475, 25.51288 ], [ 82.42442, 25.5087 ], [ 82.41918, 25.50721 ], [ 82.4188, 25.50586 ], [ 82.41599, 25.5055 ], [ 82.41712, 25.50399 ], [ 82.41701, 25.50308 ], [ 82.41609, 25.50298 ], [ 82.41606, 25.50174 ], [ 82.41835, 25.50097 ], [ 82.41634, 25.49835 ], [ 82.41255, 25.49542 ], [ 82.40973, 25.4996 ], [ 82.40767, 25.50534 ], [ 82.40563, 25.50584 ], [ 82.40327, 25.50791 ], [ 82.40249, 25.51271 ], [ 82.39943, 25.51521 ], [ 82.39771, 25.51921 ], [ 82.39574, 25.51974 ], [ 82.39646, 25.52172 ], [ 82.39451, 25.52394 ], [ 82.39384, 25.52682 ], [ 82.38948, 25.5264 ], [ 82.39112, 25.53317 ], [ 82.39449, 25.53478 ], [ 82.39593, 25.53672 ], [ 82.39716, 25.53675 ], [ 82.39863, 25.5398 ], [ 82.39937, 25.5398 ], [ 82.39877, 25.54596 ], [ 82.39971, 25.54951 ], [ 82.39954, 25.55315 ], [ 82.4007, 25.55368 ], [ 82.40349, 25.55226 ], [ 82.40577, 25.557 ], [ 82.3988, 25.56226 ], [ 82.39955, 25.56413 ], [ 82.39808, 25.56483 ], [ 82.39974, 25.56695 ], [ 82.40106, 25.56673 ], [ 82.40193, 25.56747 ], [ 82.4033, 25.57044 ], [ 82.40376, 25.57524 ], [ 82.40094, 25.57664 ], [ 82.39998, 25.57609 ], [ 82.39733, 25.57705 ], [ 82.39491, 25.58002 ], [ 82.39681, 25.58094 ], [ 82.39958, 25.58572 ], [ 82.39912, 25.59615 ], [ 82.39741, 25.59656 ], [ 82.39693, 25.59896 ], [ 82.39388, 25.60008 ], [ 82.39452, 25.60402 ], [ 82.39744, 25.60629 ], [ 82.39705, 25.60721 ], [ 82.39553, 25.60769 ], [ 82.39987, 25.61496 ], [ 82.39872, 25.61978 ], [ 82.40042, 25.61851 ], [ 82.40211, 25.62063 ], [ 82.40506, 25.6182 ], [ 82.4082, 25.61842 ], [ 82.4066, 25.62003 ], [ 82.4088, 25.62009 ], [ 82.40923, 25.6226 ], [ 82.41355, 25.62142 ], [ 82.4162, 25.62421 ], [ 82.415, 25.62647 ], [ 82.41631, 25.62769 ], [ 82.41817, 25.62714 ], [ 82.41905, 25.62839 ], [ 82.41648, 25.63105 ], [ 82.41907, 25.63265 ], [ 82.41776, 25.63507 ], [ 82.41965, 25.63502 ], [ 82.42114, 25.63284 ], [ 82.42404, 25.63228 ], [ 82.42442, 25.63453 ], [ 82.42678, 25.63455 ], [ 82.42776, 25.63595 ], [ 82.42983, 25.63678 ], [ 82.43134, 25.63606 ], [ 82.43003, 25.63443 ], [ 82.43083, 25.63294 ], [ 82.42917, 25.63121 ], [ 82.42953, 25.6293 ], [ 82.43107, 25.62747 ], [ 82.43188, 25.62867 ], [ 82.43302, 25.62815 ], [ 82.43216, 25.62639 ], [ 82.43327, 25.62332 ], [ 82.43691, 25.62129 ], [ 82.43824, 25.62125 ], [ 82.43891, 25.6226 ], [ 82.44038, 25.62238 ], [ 82.4408, 25.62168 ], [ 82.43945, 25.62003 ], [ 82.44138, 25.6182 ], [ 82.44108, 25.61501 ], [ 82.44322, 25.61462 ], [ 82.44449, 25.61188 ], [ 82.44671, 25.61268 ], [ 82.44744, 25.61214 ], [ 82.45196, 25.6147 ], [ 82.45392, 25.61739 ], [ 82.45345, 25.62035 ], [ 82.45463, 25.62056 ], [ 82.45895, 25.6205 ], [ 82.45803, 25.61485 ], [ 82.4591, 25.61269 ], [ 82.46774, 25.61421 ], [ 82.47009, 25.61704 ], [ 82.46901, 25.61923 ], [ 82.46978, 25.62029 ], [ 82.47498, 25.61926 ], [ 82.47791, 25.61711 ], [ 82.47977, 25.61759 ], [ 82.48172, 25.62024 ], [ 82.4814, 25.62294 ], [ 82.48332, 25.62651 ], [ 82.48316, 25.62957 ], [ 82.48423, 25.63081 ], [ 82.48265, 25.63151 ], [ 82.48158, 25.63322 ], [ 82.48216, 25.63844 ], [ 82.48114, 25.63984 ], [ 82.47787, 25.63877 ], [ 82.47687, 25.6373 ], [ 82.47507, 25.63798 ], [ 82.47332, 25.6459 ], [ 82.47737, 25.64882 ], [ 82.47539, 25.65212 ], [ 82.47612, 25.65386 ], [ 82.48472, 25.65478 ], [ 82.48728, 25.6559 ], [ 82.49104, 25.6623 ], [ 82.48991, 25.66569 ], [ 82.49104, 25.66647 ], [ 82.49498, 25.66484 ], [ 82.49611, 25.66479 ], [ 82.49711, 25.66579 ], [ 82.50304, 25.66553 ], [ 82.51521, 25.67193 ], [ 82.51768, 25.67181 ], [ 82.52026, 25.67905 ], [ 82.52607, 25.67831 ], [ 82.52646, 25.67433 ], [ 82.52764, 25.67306 ], [ 82.53451, 25.67434 ], [ 82.5369, 25.67622 ], [ 82.53884, 25.6793 ], [ 82.5393, 25.68327 ], [ 82.5373, 25.6862 ], [ 82.54186, 25.69145 ], [ 82.54362, 25.69517 ], [ 82.54607, 25.69504 ], [ 82.54565, 25.69589 ], [ 82.54616, 25.6972 ], [ 82.54679, 25.69705 ], [ 82.54742, 25.69961 ], [ 82.55, 25.69892 ], [ 82.55144, 25.69953 ], [ 82.55432, 25.70336 ], [ 82.5575, 25.70521 ], [ 82.56228, 25.71158 ], [ 82.56155, 25.71183 ], [ 82.56165, 25.71433 ], [ 82.56251, 25.71453 ], [ 82.56275, 25.71358 ], [ 82.56721, 25.7156 ] ] ] } },
{ "type": "Feature", "properties": { "OBJECTID": 2713, "state_lgd": "09", "state_name": "UTTAR PRADESH", "district_lgd": "194", "district_name": "JAUNPUR", "district_name_source": "district_table", "subdistrict_lgd": "981", "subdistrict_name": "SHAHGANJ", "subdistrict_type": "Tehsil", "name_corrupted": false, "remarks": "", "label_lon": 82.617467759405741, "label_lat": 26.015448794096283 }, "geometry": { "type": "Polygon", "coordinates": [ [ [ 82.60078, 26.19837 ], [ 82.60541, 26.19815 ], [ 82.60901, 26.19487 ], [ 82.61098, 26.19424 ], [ 82.61095, 26.19296 ], [ 82.61424, 26.18955 ], [ 82.61606, 26.18297 ], [ 82.61883, 26.18373 ], [ 82.62058, 26.18114 ], [ 82.62242, 26.18098 ], [ 82.62232, 26.17725 ], [ 82.62112, 26.1741 ], [ 82.62299, 26.17105 ], [ 82.62462, 26.17175 ], [ 82.63197, 26.17066 ], [ 82.6341, 26.17128 ], [ 82.63596, 26.17413 ], [ 82.64068, 26.17221 ], [ 82.64371, 26.1767 ], [ 82.64466, 26.1754 ], [ 82.64888, 26.17422 ], [ 82.64727, 26.16938 ], [ 82.64498, 26.1681 ], [ 82.6428, 26.16552 ], [ 82.63909, 26.16456 ], [ 82.63673, 26.16168 ], [ 82.6377, 26.16091 ], [ 82.64119, 26.15954 ], [ 82.64599, 26.15939 ], [ 82.64729, 26.16075 ], [ 82.64973, 26.15986 ], [ 82.65273, 26.1664 ], [ 82.65959, 26.16556 ], [ 82.66515, 26.16371 ], [ 82.66799, 26.16111 ], [ 82.66878, 26.16016 ], [ 82.6686, 26.1579 ], [ 82.67293, 26.15334 ], [ 82.67869, 26.1515 ], [ 82.6763, 26.14691 ], [ 82.67662, 26.1454 ], [ 82.67297, 26.14427 ], [ 82.66902, 26.14533 ], [ 82.66555, 26.14282 ], [ 82.66577, 26.1397 ], [ 82.66486, 26.13781 ], [ 82.66717, 26.13316 ], [ 82.67074, 26.13099 ], [ 82.668, 26.12678 ], [ 82.66747, 26.12336 ], [ 82.6693, 26.12204 ], [ 82.67063, 26.12253 ], [ 82.6721, 26.12047 ], [ 82.67323, 26.12123 ], [ 82.67664, 26.12088 ], [ 82.67738, 26.11839 ], [ 82.68023, 26.11661 ], [ 82.67939, 26.11524 ], [ 82.68092, 26.11294 ], [ 82.67878, 26.11219 ], [ 82.6772, 26.11039 ], [ 82.67684, 26.10421 ], [ 82.67902, 26.1051 ], [ 82.68401, 26.10292 ], [ 82.68353, 26.09897 ], [ 82.6846, 26.09819 ], [ 82.68957, 26.097 ], [ 82.69255, 26.09829 ], [ 82.69705, 26.09722 ], [ 82.70173, 26.09716 ], [ 82.70224, 26.09541 ], [ 82.70518, 26.09441 ], [ 82.70658, 26.09492 ], [ 82.70379, 26.08985 ], [ 82.70311, 26.08502 ], [ 82.70371, 26.08412 ], [ 82.69993, 26.07389 ], [ 82.69689, 26.06857 ], [ 82.69703, 26.06716 ], [ 82.69988, 26.06563 ], [ 82.70161, 26.06738 ], [ 82.70407, 26.06446 ], [ 82.70757, 26.06252 ], [ 82.7089, 26.05788 ], [ 82.71268, 26.05217 ], [ 82.71249, 26.05052 ], [ 82.71022, 26.04758 ], [ 82.70883, 26.04754 ], [ 82.70765, 26.0491 ], [ 82.70334, 26.05054 ], [ 82.70253, 26.04867 ], [ 82.70179, 26.04866 ], [ 82.69856, 26.04007 ], [ 82.70569, 26.03975 ], [ 82.71037, 26.04166 ], [ 82.71285, 26.04153 ], [ 82.71739, 26.04295 ], [ 82.71843, 26.04247 ], [ 82.71895, 26.03786 ], [ 82.72189, 26.03556 ], [ 82.72098, 26.03285 ], [ 82.71904, 26.03456 ], [ 82.71656, 26.03458 ], [ 82.71249, 26.03293 ], [ 82.71114, 26.02948 ], [ 82.71016, 26.02979 ], [ 82.70739, 26.02754 ], [ 82.70523, 26.02762 ], [ 82.70369, 26.02624 ], [ 82.70336, 26.02411 ], [ 82.71107, 26.02422 ], [ 82.7127, 26.02553 ], [ 82.71544, 26.02532 ], [ 82.71959, 26.0271 ], [ 82.72401, 26.02781 ], [ 82.72675, 26.02437 ], [ 82.73118, 26.02548 ], [ 82.72882, 26.02147 ], [ 82.73169, 26.01743 ], [ 82.72986, 26.01662 ], [ 82.72868, 26.01791 ], [ 82.72635, 26.01699 ], [ 82.72481, 26.01557 ], [ 82.72229, 26.00916 ], [ 82.72504, 26.00656 ], [ 82.7258, 26.00475 ], [ 82.72473, 25.99795 ], [ 82.72587, 25.99154 ], [ 82.72776, 25.98762 ], [ 82.73072, 25.9847 ], [ 82.73059, 25.98242 ], [ 82.73221, 25.98237 ], [ 82.7342, 25.9836 ], [ 82.73289, 25.97741 ], [ 82.73491, 25.97493 ], [ 82.7356, 25.97123 ], [ 82.73714, 25.97101 ], [ 82.74447, 25.96652 ], [ 82.74444, 25.96254 ], [ 82.74771, 25.95982 ], [ 82.7478, 25.95517 ], [ 82.74966, 25.95447 ], [ 82.74741, 25.94708 ], [ 82.75188, 25.94513 ], [ 82.75294, 25.94357 ], [ 82.75181, 25.94181 ], [ 82.75256, 25.94081 ], [ 82.75115, 25.93682 ], [ 82.7594, 25.93366 ], [ 82.75536, 25.92684 ], [ 82.76029, 25.92352 ], [ 82.76352, 25.92284 ], [ 82.7634, 25.92005 ], [ 82.76171, 25.91643 ], [ 82.76356, 25.91496 ], [ 82.76222, 25.91149 ], [ 82.76551, 25.91001 ], [ 82.76748, 25.90789 ], [ 82.76778, 25.90504 ], [ 82.76932, 25.90189 ], [ 82.76936, 25.89826 ], [ 82.77275, 25.89632 ], [ 82.77025, 25.89391 ], [ 82.76642, 25.89622 ], [ 82.76477, 25.88443 ], [ 82.76723, 25.88289 ], [ 82.77028, 25.88423 ], [ 82.77365, 25.88184 ], [ 82.7696, 25.87708 ], [ 82.76778, 25.87671 ], [ 82.76529, 25.87152 ], [ 82.76327, 25.87064 ], [ 82.76174, 25.86545 ], [ 82.76294, 25.86029 ], [ 82.75765, 25.86164 ], [ 82.74946, 25.86068 ], [ 82.74047, 25.85455 ], [ 82.73501, 25.8532 ], [ 82.7343, 25.85145 ], [ 82.73116, 25.85227 ], [ 82.72814, 25.85039 ], [ 82.72282, 25.85198 ], [ 82.72146, 25.84864 ], [ 82.72011, 25.84759 ], [ 82.71655, 25.84789 ], [ 82.71629, 25.85047 ], [ 82.71797, 25.8552 ], [ 82.71599, 25.85759 ], [ 82.71001, 25.856 ], [ 82.70578, 25.85636 ], [ 82.70347, 25.85156 ], [ 82.7036, 25.84921 ], [ 82.70162, 25.84638 ], [ 82.69977, 25.84662 ], [ 82.70048, 25.85056 ], [ 82.6977, 25.85096 ], [ 82.69169, 25.85709 ], [ 82.6855, 25.86024 ], [ 82.68584, 25.85562 ], [ 82.68387, 25.84891 ], [ 82.68378, 25.84381 ], [ 82.67674, 25.84374 ], [ 82.668, 25.84739 ], [ 82.65463, 25.85102 ], [ 82.65323, 25.85287 ], [ 82.65345, 25.86123 ], [ 82.65143, 25.86207 ], [ 82.64906, 25.85631 ], [ 82.64237, 25.85734 ], [ 82.64103, 25.85672 ], [ 82.63701, 25.85873 ], [ 82.63223, 25.86398 ], [ 82.62605, 25.86299 ], [ 82.62152, 25.8602 ], [ 82.6172, 25.86195 ], [ 82.61624, 25.86343 ], [ 82.61904, 25.86803 ], [ 82.62132, 25.86994 ], [ 82.62876, 25.87129 ], [ 82.62216, 25.87415 ], [ 82.61963, 25.87802 ], [ 82.61952, 25.87987 ], [ 82.61609, 25.88137 ], [ 82.60253, 25.88229 ], [ 82.59402, 25.88723 ], [ 82.59044, 25.88667 ], [ 82.59031, 25.89487 ], [ 82.58784, 25.89862 ], [ 82.58657, 25.89763 ], [ 82.5837, 25.89718 ], [ 82.58201, 25.89886 ], [ 82.57927, 25.89963 ], [ 82.5737, 25.89883 ], [ 82.57208, 25.89982 ], [ 82.57105, 25.89903 ], [ 82.5673, 25.8993 ], [ 82.56673, 25.90216 ], [ 82.56746, 25.90257 ], [ 82.56784, 25.90468 ], [ 82.56762, 25.90974 ], [ 82.5667, 25.91287 ], [ 82.5643, 25.91602 ], [ 82.55871, 25.91938 ], [ 82.54771, 25.919 ], [ 82.54501, 25.9222 ], [ 82.54272, 25.92694 ], [ 82.54314, 25.92893 ], [ 82.55482, 25.9293 ], [ 82.56863, 25.93405 ], [ 82.57072, 25.93606 ], [ 82.5672, 25.95296 ], [ 82.56489, 25.96037 ], [ 82.56314, 25.96308 ], [ 82.55779, 25.9639 ], [ 82.5382, 25.96306 ], [ 82.5218, 25.96459 ], [ 82.51704, 25.96423 ], [ 82.51642, 25.96546 ], [ 82.51763, 25.96778 ], [ 82.51744, 25.96962 ], [ 82.51613, 25.97444 ], [ 82.51416, 25.97635 ], [ 82.51003, 25.97729 ], [ 82.50547, 25.97681 ], [ 82.50467, 25.97509 ], [ 82.49881, 25.97563 ], [ 82.4987, 25.9785 ], [ 82.49991, 25.97865 ], [ 82.50206, 25.98183 ], [ 82.50576, 25.98055 ], [ 82.50987, 25.98517 ], [ 82.50562, 25.98679 ], [ 82.50202, 25.98998 ], [ 82.50366, 25.99121 ], [ 82.50589, 25.99489 ], [ 82.50579, 25.9968 ], [ 82.51085, 25.99633 ], [ 82.51377, 26.0005 ], [ 82.51748, 26.00005 ], [ 82.52027, 26.00408 ], [ 82.51799, 26.00688 ], [ 82.51899, 26.01109 ], [ 82.51276, 26.01465 ], [ 82.51123, 26.01294 ], [ 82.50797, 26.01361 ], [ 82.50226, 26.0165 ], [ 82.50473, 26.02176 ], [ 82.50681, 26.02411 ], [ 82.50921, 26.02459 ], [ 82.51078, 26.02586 ], [ 82.51226, 26.02569 ], [ 82.51473, 26.02879 ], [ 82.5174, 26.03004 ], [ 82.51647, 26.03097 ], [ 82.51325, 26.02964 ], [ 82.51208, 26.02997 ], [ 82.51044, 26.03257 ], [ 82.50487, 26.03616 ], [ 82.50462, 26.03824 ], [ 82.50369, 26.03893 ], [ 82.50398, 26.04206 ], [ 82.5012, 26.04231 ], [ 82.499, 26.03993 ], [ 82.4978, 26.04151 ], [ 82.49596, 26.04072 ], [ 82.49404, 26.042 ], [ 82.49221, 26.04204 ], [ 82.4901, 26.04413 ], [ 82.48137, 26.04564 ], [ 82.47904, 26.04484 ], [ 82.47821, 26.04528 ], [ 82.4789, 26.04439 ], [ 82.48039, 26.04432 ], [ 82.47977, 26.04332 ], [ 82.47792, 26.04373 ], [ 82.47599, 26.03932 ], [ 82.47045, 26.03926 ], [ 82.45767, 26.04477 ], [ 82.45787, 26.04562 ], [ 82.45907, 26.0456 ], [ 82.45992, 26.04679 ], [ 82.46109, 26.04665 ], [ 82.46182, 26.04836 ], [ 82.46045, 26.05002 ], [ 82.46277, 26.05427 ], [ 82.46025, 26.05596 ], [ 82.46016, 26.05698 ], [ 82.46294, 26.0632 ], [ 82.46617, 26.06134 ], [ 82.47072, 26.06044 ], [ 82.47623, 26.06977 ], [ 82.47522, 26.07107 ], [ 82.47512, 26.07535 ], [ 82.4734, 26.07645 ], [ 82.46913, 26.07686 ], [ 82.46582, 26.07458 ], [ 82.46537, 26.07346 ], [ 82.45982, 26.07699 ], [ 82.45521, 26.08136 ], [ 82.45451, 26.08293 ], [ 82.44878, 26.084 ], [ 82.44935, 26.08545 ], [ 82.4463, 26.08812 ], [ 82.44714, 26.0917 ], [ 82.44516, 26.09291 ], [ 82.44576, 26.09419 ], [ 82.44398, 26.09691 ], [ 82.44083, 26.09749 ], [ 82.43814, 26.09667 ], [ 82.4352, 26.09802 ], [ 82.43603, 26.10306 ], [ 82.43463, 26.10364 ], [ 82.43517, 26.10481 ], [ 82.43614, 26.10489 ], [ 82.43804, 26.10901 ], [ 82.44175, 26.10964 ], [ 82.44361, 26.11214 ], [ 82.44109, 26.11289 ], [ 82.44146, 26.11385 ], [ 82.44084, 26.11404 ], [ 82.44539, 26.12174 ], [ 82.44442, 26.12216 ], [ 82.44436, 26.12331 ], [ 82.44168, 26.12433 ], [ 82.44269, 26.12591 ], [ 82.44362, 26.13243 ], [ 82.44723, 26.13235 ], [ 82.44851, 26.13424 ], [ 82.45108, 26.13517 ], [ 82.45393, 26.13387 ], [ 82.45511, 26.13561 ], [ 82.46051, 26.13456 ], [ 82.46297, 26.13183 ], [ 82.46599, 26.13109 ], [ 82.46953, 26.13138 ], [ 82.47737, 26.12942 ], [ 82.47975, 26.13383 ], [ 82.48037, 26.14007 ], [ 82.48311, 26.1431 ], [ 82.48664, 26.145 ], [ 82.48816, 26.1447 ], [ 82.48917, 26.14296 ], [ 82.4914, 26.1419 ], [ 82.49408, 26.13847 ], [ 82.49472, 26.13602 ], [ 82.49592, 26.13567 ], [ 82.49672, 26.1341 ], [ 82.4981, 26.13454 ], [ 82.49912, 26.1335 ], [ 82.50136, 26.13341 ], [ 82.5029, 26.13545 ], [ 82.50431, 26.1356 ], [ 82.50507, 26.1381 ], [ 82.50651, 26.13968 ], [ 82.50824, 26.14059 ], [ 82.51392, 26.13685 ], [ 82.51479, 26.13706 ], [ 82.51571, 26.13873 ], [ 82.51532, 26.14083 ], [ 82.51802, 26.14261 ], [ 82.52351, 26.14221 ], [ 82.53064, 26.14637 ], [ 82.53844, 26.14361 ], [ 82.53938, 26.13846 ], [ 82.54149, 26.13741 ], [ 82.54595, 26.1369 ], [ 82.5488, 26.13522 ], [ 82.55217, 26.13637 ], [ 82.55724, 26.13549 ], [ 82.55791, 26.13385 ], [ 82.55919, 26.13344 ], [ 82.56054, 26.13035 ], [ 82.56399, 26.1323 ], [ 82.56697, 26.13112 ], [ 82.56756, 26.13326 ], [ 82.56951, 26.13552 ], [ 82.56986, 26.138 ], [ 82.57078, 26.13771 ], [ 82.57116, 26.1385 ], [ 82.57044, 26.14146 ], [ 82.56609, 26.13984 ], [ 82.56532, 26.14112 ], [ 82.56393, 26.14046 ], [ 82.56037, 26.14333 ], [ 82.55996, 26.14585 ], [ 82.56183, 26.14829 ], [ 82.56611, 26.14952 ], [ 82.5716, 26.14824 ], [ 82.57332, 26.149 ], [ 82.57355, 26.1527 ], [ 82.57091, 26.15624 ], [ 82.57134, 26.16129 ], [ 82.56935, 26.16346 ], [ 82.57514, 26.16699 ], [ 82.57673, 26.16571 ], [ 82.57855, 26.1666 ], [ 82.57892, 26.16549 ], [ 82.58068, 26.16765 ], [ 82.58043, 26.17017 ], [ 82.58201, 26.17023 ], [ 82.58111, 26.17196 ], [ 82.58126, 26.17356 ], [ 82.5792, 26.1765 ], [ 82.57882, 26.17848 ], [ 82.57716, 26.17862 ], [ 82.57778, 26.18351 ], [ 82.57936, 26.18631 ], [ 82.58069, 26.18517 ], [ 82.58144, 26.18696 ], [ 82.58368, 26.18299 ], [ 82.58549, 26.18136 ], [ 82.58619, 26.17888 ], [ 82.59191, 26.17932 ], [ 82.59333, 26.181 ], [ 82.59726, 26.18118 ], [ 82.59757, 26.18219 ], [ 82.59566, 26.18612 ], [ 82.59596, 26.19183 ], [ 82.59507, 26.19521 ], [ 82.59389, 26.19837 ], [ 82.59242, 26.1993 ], [ 82.59602, 26.20114 ], [ 82.59772, 26.20123 ], [ 82.60078, 26.19837 ] ] ] } }
]
}
