{
"type": "FeatureCollection",
"name": "700_NIRMAL",
"crs": { "type": "name", "properties": { "name": "urn:ogc:def:crs:OGC:1.3:CRS84" } },
"xy_coordinate_resolution": 1e-05,
"features": [
{ "type": "Feature", "properties": { "OBJECTID": 4922, "state_lgd": "36", "state_name": "TELANGANA", "district_lgd": "700", "district_name": "NIRMAL", "district_name_source": "district_table", "subdistrict_lgd": "07033", "subdistrict_name": "BASAR", "subdistrict_type": "", "name_corrupted": false, "remarks": "", "label_lon": 77.949611367933088, "label_lat": 18.900011518889652 }, "geometry": { "type": "Polygon", "coordinates": [ [ [ 78.04189, 18.90934 ], [ 78.04077, 18.90237 ], [ 78.04095, 18.89765 ], [ 78.0369, 18.88782 ], [ 78.03927, 18.88246 ], [ 78.03754, 18.87736 ], [ 78.03296, 18.87599 ], [ 78.02803, 18.87674 ], [ 78.02409, 18.87877 ], [ 78.01789, 18.88388 ], [ 78.01404, 18.88458 ], [ 78.00885, 18.88426 ], [ 77.99587, 18.8804 ], [ 77.9881, 18.87987 ], [ 77.9827, 18.87691 ], [ 77.97114, 18.87274 ], [ 77.96832, 18.87069 ], [ 77.95946, 18.86041 ], [ 77.95672, 18.8538 ], [ 77.95137, 18.84831 ], [ 77.9489, 18.84329 ], [ 77.93478, 18.84514 ], [ 77.93516, 18.84799 ], [ 77.93745, 18.85159 ], [ 77.92935, 18.85359 ], [ 77.93006, 18.85873 ], [ 77.92514, 18.86069 ], [ 77.91415, 18.86137 ], [ 77.91426, 18.86346 ], [ 77.91243, 18.86317 ], [ 77.91242, 18.86507 ], [ 77.90323, 18.86663 ], [ 77.90259, 18.87177 ], [ 77.90391, 18.88125 ], [ 77.89692, 18.88189 ], [ 77.89158, 18.88141 ], [ 77.88481, 18.9003 ], [ 77.88538, 18.9042 ], [ 77.87396, 18.90767 ], [ 77.87839, 18.91815 ], [ 77.87827, 18.92234 ], [ 77.88056, 18.92729 ], [ 77.88425, 18.93255 ], [ 77.88407, 18.93398 ], [ 77.88525, 18.93655 ], [ 77.88859, 18.93796 ], [ 77.89396, 18.9387 ], [ 77.89828, 18.94293 ], [ 77.90847, 18.94815 ], [ 77.91269, 18.94632 ], [ 77.91389, 18.94481 ], [ 77.91762, 18.94472 ], [ 77.91964, 18.94068 ], [ 77.91923, 18.93646 ], [ 77.92121, 18.93307 ], [ 77.92012, 18.92982 ], [ 77.92157, 18.92742 ], [ 77.92317, 18.92872 ], [ 77.92504, 18.93442 ], [ 77.92663, 18.93323 ], [ 77.92908, 18.93365 ], [ 77.92881, 18.93562 ], [ 77.93033, 18.93947 ], [ 77.94262, 18.93998 ], [ 77.95723, 18.93727 ], [ 77.96058, 18.93565 ], [ 77.96578, 18.92965 ], [ 77.97739, 18.93206 ], [ 77.98104, 18.92584 ], [ 77.98985, 18.92447 ], [ 77.98994, 18.92109 ], [ 77.99303, 18.91513 ], [ 78.00092, 18.91432 ], [ 78.00395, 18.91659 ], [ 78.00611, 18.9168 ], [ 78.012, 18.9168 ], [ 78.01366, 18.91534 ], [ 78.01529, 18.9161 ], [ 78.0204, 18.91583 ], [ 78.02309, 18.91386 ], [ 78.02436, 18.91398 ], [ 78.02746, 18.91067 ], [ 78.032, 18.91165 ], [ 78.0333, 18.9126 ], [ 78.03273, 18.91483 ], [ 78.03394, 18.91456 ], [ 78.03475, 18.91534 ], [ 78.03564, 18.91486 ], [ 78.03527, 18.91257 ], [ 78.036, 18.91132 ], [ 78.03734, 18.9114 ], [ 78.03736, 18.9099 ], [ 78.04189, 18.90934 ] ] ] } },
{ "type": "Feature", "properties": { "OBJECTID": 4923, "state_lgd": "36", "state_name": "TELANGANA", "district_lgd": "700", "district_name": "NIRMAL", "district_name_source": "district_table", "subdistrict_lgd": "04339", "subdistrict_name": "BHAINSA", "subdistrict_type": "", "name_corrupted": false, "remarks": "", "label_lon": 77.97768778177506, "label_lat": 19.111319850216891 }, "geometry": { "type": "Polygon", "coordinates": [ [ [ 77.97446, 19.21984 ], [ 77.98646, 19.21757 ], [ 77.9879, 19.21527 ], [ 77.99002, 19.21476 ], [ 77.99073, 19.21372 ], [ 77.99081, 19.21114 ], [ 77.9967, 19.20798 ], [ 77.99873, 19.20554 ], [ 78.00522, 19.20401 ], [ 78.00419, 19.19971 ], [ 78.00467, 19.19691 ], [ 78.00292, 19.19448 ], [ 78.00326, 19.1933 ], [ 77.99997, 19.18928 ], [ 78.00059, 19.18632 ], [ 77.99944, 19.18269 ], [ 77.99967, 19.17662 ], [ 78.01082, 19.17483 ], [ 78.02295, 19.16969 ], [ 78.02058, 19.16373 ], [ 78.02642, 19.15789 ], [ 78.03182, 19.14561 ], [ 78.04148, 19.14415 ], [ 78.05204, 19.14044 ], [ 78.06147, 19.14064 ], [ 78.05885, 19.12691 ], [ 78.06842, 19.12411 ], [ 78.07388, 19.12346 ], [ 78.08617, 19.11854 ], [ 78.08412, 19.11326 ], [ 78.0841, 19.11 ], [ 78.08526, 19.10848 ], [ 78.08904, 19.10649 ], [ 78.09084, 19.10423 ], [ 78.09095, 19.10252 ], [ 78.08916, 19.09787 ], [ 78.09136, 19.09168 ], [ 78.08773, 19.09147 ], [ 78.08608, 19.09042 ], [ 78.08304, 19.091 ], [ 78.0809, 19.09287 ], [ 78.07911, 19.09295 ], [ 78.07424, 19.09566 ], [ 78.07322, 19.08721 ], [ 78.07416, 19.08059 ], [ 78.06923, 19.07938 ], [ 78.06039, 19.08181 ], [ 78.05389, 19.08044 ], [ 78.04516, 19.07495 ], [ 78.03996, 19.06714 ], [ 78.03613, 19.06471 ], [ 78.03287, 19.06497 ], [ 78.02994, 19.06621 ], [ 78.02407, 19.07037 ], [ 78.01993, 19.07211 ], [ 78.01766, 19.07154 ], [ 78.01523, 19.06826 ], [ 78.01174, 19.06777 ], [ 78.01072, 19.06344 ], [ 78.00931, 19.0461 ], [ 78.00651, 19.03634 ], [ 78.00708, 19.03452 ], [ 78.00473, 19.03382 ], [ 78.00194, 19.03454 ], [ 77.9969, 19.03438 ], [ 77.98761, 19.03679 ], [ 77.97955, 19.03632 ], [ 77.97295, 19.03811 ], [ 77.96894, 19.03473 ], [ 77.96452, 19.03579 ], [ 77.96118, 19.03868 ], [ 77.95329, 19.03892 ], [ 77.94887, 19.04041 ], [ 77.94719, 19.03936 ], [ 77.9468, 19.0372 ], [ 77.94157, 19.03835 ], [ 77.93239, 19.04303 ], [ 77.92697, 19.04412 ], [ 77.92696, 19.04967 ], [ 77.92412, 19.05555 ], [ 77.9199, 19.05317 ], [ 77.91643, 19.05252 ], [ 77.90435, 19.05583 ], [ 77.89336, 19.05452 ], [ 77.88749, 19.05477 ], [ 77.88264, 19.05597 ], [ 77.87593, 19.07263 ], [ 77.87911, 19.06991 ], [ 77.88212, 19.06904 ], [ 77.88823, 19.07548 ], [ 77.90686, 19.07934 ], [ 77.90739, 19.08098 ], [ 77.9078, 19.08454 ], [ 77.89244, 19.09682 ], [ 77.89536, 19.1029 ], [ 77.8966, 19.11262 ], [ 77.90091, 19.12572 ], [ 77.89697, 19.14407 ], [ 77.9007, 19.14753 ], [ 77.90157, 19.15077 ], [ 77.90271, 19.15146 ], [ 77.90672, 19.15779 ], [ 77.90705, 19.16048 ], [ 77.91091, 19.16803 ], [ 77.91282, 19.17722 ], [ 77.9257, 19.17406 ], [ 77.93021, 19.16825 ], [ 77.9407, 19.16792 ], [ 77.94411, 19.16618 ], [ 77.95525, 19.16284 ], [ 77.96981, 19.15666 ], [ 77.97987, 19.17196 ], [ 77.97557, 19.1711 ], [ 77.97215, 19.17312 ], [ 77.96878, 19.1738 ], [ 77.96583, 19.17703 ], [ 77.96562, 19.18324 ], [ 77.96368, 19.18414 ], [ 77.97013, 19.19657 ], [ 77.97323, 19.20463 ], [ 77.97421, 19.20895 ], [ 77.97446, 19.21984 ] ] ] } },
{ "type": "Feature", "properties": { "OBJECTID": 4924, "state_lgd": "36", "state_name": "TELANGANA", "district_lgd": "700", "district_name": "NIRMAL", "district_name_source": "district_table", "subdistrict_lgd": "07031", "subdistrict_name": "DASTURABAD", "subdistrict_type": "", "name_corrupted": false, "remarks": "", "label_lon": 78.887775691490262, "label_lat": 19.082740181411417 }, "geometry": { "type": "Polygon", "coordinates": [ [ [ 78.85873, 19.12187 ], [ 78.86118, 19.12118 ], [ 78.86124, 19.11993 ], [ 78.87099, 19.11077 ], [ 78.87246, 19.10677 ], [ 78.87515, 19.10475 ], [ 78.87719, 19.10503 ], [ 78.88177, 19.10851 ], [ 78.8827, 19.11153 ], [ 78.88529, 19.10928 ], [ 78.88701, 19.10573 ], [ 78.88923, 19.10368 ], [ 78.9029, 19.09397 ], [ 78.9121, 19.10442 ], [ 78.92115, 19.10654 ], [ 78.92078, 19.10927 ], [ 78.91708, 19.11064 ], [ 78.91432, 19.11441 ], [ 78.91392, 19.11671 ], [ 78.92378, 19.11411 ], [ 78.93051, 19.11871 ], [ 78.94125, 19.10869 ], [ 78.93851, 19.10039 ], [ 78.94182, 19.09404 ], [ 78.94204, 19.08428 ], [ 78.94079, 19.08088 ], [ 78.94757, 19.0728 ], [ 78.94115, 19.06564 ], [ 78.9399, 19.06303 ], [ 78.93577, 19.06146 ], [ 78.93138, 19.0571 ], [ 78.92481, 19.04836 ], [ 78.92246, 19.04197 ], [ 78.92047, 19.0406 ], [ 78.91867, 19.03778 ], [ 78.91759, 19.03418 ], [ 78.91566, 19.03308 ], [ 78.91433, 19.03091 ], [ 78.91005, 19.03075 ], [ 78.89994, 19.03542 ], [ 78.87385, 19.05585 ], [ 78.8724, 19.05535 ], [ 78.86942, 19.0561 ], [ 78.86645, 19.05927 ], [ 78.86204, 19.05928 ], [ 78.82547, 19.08416 ], [ 78.82868, 19.08632 ], [ 78.83317, 19.09142 ], [ 78.83145, 19.09601 ], [ 78.83282, 19.09791 ], [ 78.83031, 19.10027 ], [ 78.83067, 19.10393 ], [ 78.82953, 19.10786 ], [ 78.83004, 19.10924 ], [ 78.83577, 19.11417 ], [ 78.83733, 19.12203 ], [ 78.83727, 19.13004 ], [ 78.83923, 19.13399 ], [ 78.84183, 19.13673 ], [ 78.84164, 19.14104 ], [ 78.85756, 19.12641 ], [ 78.85873, 19.12187 ] ] ] } },
{ "type": "Feature", "properties": { "OBJECTID": 4925, "state_lgd": "36", "state_name": "TELANGANA", "district_lgd": "700", "district_name": "NIRMAL", "district_name_source": "district_table", "subdistrict_lgd": "04343", "subdistrict_name": "DILAWARPUR", "subdistrict_type": "", "name_corrupted": false, "remarks": "", "label_lon": 78.24347699839123, "label_lat": 19.068994257746208 }, "geometry": { "type": "Polygon", "coordinates": [ [ [ 78.29419, 19.1193 ], [ 78.29702, 19.10912 ], [ 78.29638, 19.10799 ], [ 78.29332, 19.1053 ], [ 78.29013, 19.10553 ], [ 78.28159, 19.10036 ], [ 78.28206, 19.09868 ], [ 78.2848, 19.09632 ], [ 78.28952, 19.08612 ], [ 78.29006, 19.07843 ], [ 78.29194, 19.07043 ], [ 78.29109, 19.06177 ], [ 78.28748, 19.05455 ], [ 78.28748, 19.05293 ], [ 78.28837, 19.05062 ], [ 78.29287, 19.04718 ], [ 78.29438, 19.04827 ], [ 78.2993, 19.04669 ], [ 78.30221, 19.0466 ], [ 78.29991, 19.04299 ], [ 78.29944, 19.03879 ], [ 78.30133, 19.03404 ], [ 78.30544, 19.0314 ], [ 78.3002, 19.02397 ], [ 78.29976, 19.01936 ], [ 78.29596, 19.00583 ], [ 78.29041, 19.00203 ], [ 78.28826, 19.00119 ], [ 78.28562, 19.00145 ], [ 78.28594, 19.00084 ], [ 78.28222, 18.99541 ], [ 78.27786, 18.99209 ], [ 78.27787, 18.99129 ], [ 78.27472, 18.9947 ], [ 78.26481, 19.00237 ], [ 78.25768, 19.00627 ], [ 78.25156, 19.01262 ], [ 78.2471, 19.01558 ], [ 78.2397, 19.01633 ], [ 78.23341, 19.01307 ], [ 78.21821, 19.01702 ], [ 78.20992, 19.0223 ], [ 78.20735, 19.02197 ], [ 78.20137, 19.01794 ], [ 78.19754, 19.01965 ], [ 78.19263, 19.02497 ], [ 78.19058, 19.02601 ], [ 78.18015, 19.02538 ], [ 78.17745, 19.02592 ], [ 78.17264, 19.03017 ], [ 78.17111, 19.03842 ], [ 78.16914, 19.04191 ], [ 78.16591, 19.04398 ], [ 78.16083, 19.04374 ], [ 78.15949, 19.04472 ], [ 78.1595, 19.04697 ], [ 78.16213, 19.05598 ], [ 78.17176, 19.05904 ], [ 78.17791, 19.05562 ], [ 78.18225, 19.05507 ], [ 78.18544, 19.05182 ], [ 78.18671, 19.05337 ], [ 78.19056, 19.06364 ], [ 78.19277, 19.07399 ], [ 78.20316, 19.08022 ], [ 78.20271, 19.08988 ], [ 78.20165, 19.09421 ], [ 78.2001, 19.09687 ], [ 78.20275, 19.10948 ], [ 78.20427, 19.11167 ], [ 78.20603, 19.11269 ], [ 78.20501, 19.11346 ], [ 78.20077, 19.11321 ], [ 78.19634, 19.11657 ], [ 78.19659, 19.11788 ], [ 78.19509, 19.11896 ], [ 78.2037, 19.13024 ], [ 78.20626, 19.13746 ], [ 78.20855, 19.13732 ], [ 78.20981, 19.13921 ], [ 78.21227, 19.13897 ], [ 78.21194, 19.14313 ], [ 78.21321, 19.14384 ], [ 78.21463, 19.14343 ], [ 78.21511, 19.14134 ], [ 78.21984, 19.14432 ], [ 78.21931, 19.14231 ], [ 78.2208, 19.14053 ], [ 78.22456, 19.13845 ], [ 78.23486, 19.13717 ], [ 78.23578, 19.13081 ], [ 78.23322, 19.12626 ], [ 78.24149, 19.12543 ], [ 78.24238, 19.1207 ], [ 78.24576, 19.11844 ], [ 78.24828, 19.1181 ], [ 78.25683, 19.12593 ], [ 78.26255, 19.12912 ], [ 78.26523, 19.13567 ], [ 78.27123, 19.13964 ], [ 78.27378, 19.1461 ], [ 78.27928, 19.15093 ], [ 78.28274, 19.15294 ], [ 78.28499, 19.15115 ], [ 78.28548, 19.14461 ], [ 78.29263, 19.13918 ], [ 78.29453, 19.13598 ], [ 78.29482, 19.13336 ], [ 78.29343, 19.1259 ], [ 78.29419, 19.1193 ] ] ] } },
{ "type": "Feature", "properties": { "OBJECTID": 4926, "state_lgd": "36", "state_name": "TELANGANA", "district_lgd": "700", "district_name": "NIRMAL", "district_name_source": "district_table", "subdistrict_lgd": "04335", "subdistrict_name": "KADDAM", "subdistrict_type": "", "name_corrupted": false, "remarks": "", "label_lon": 78.799442580280598, "label_lat": 19.169448567995349 }, "geometry": { "type": "Polygon", "coordinates": [ [ [ 78.72257, 19.32659 ], [ 78.71998, 19.29668 ], [ 78.73654, 19.28615 ], [ 78.75889, 19.27835 ], [ 78.76796, 19.25674 ], [ 78.77596, 19.25082 ], [ 78.78053, 19.24951 ], [ 78.78425, 19.24604 ], [ 78.78619, 19.24087 ], [ 78.79015, 19.24066 ], [ 78.79485, 19.23065 ], [ 78.80059, 19.21403 ], [ 78.80204, 19.21685 ], [ 78.80537, 19.21727 ], [ 78.81217, 19.2217 ], [ 78.81513, 19.23156 ], [ 78.8184, 19.23558 ], [ 78.81971, 19.24693 ], [ 78.8297, 19.25286 ], [ 78.84328, 19.25489 ], [ 78.84489, 19.2567 ], [ 78.84478, 19.26026 ], [ 78.84888, 19.26287 ], [ 78.8467, 19.2679 ], [ 78.84786, 19.27193 ], [ 78.85387, 19.27832 ], [ 78.86884, 19.28266 ], [ 78.8751, 19.27715 ], [ 78.88376, 19.27466 ], [ 78.88552, 19.27292 ], [ 78.88814, 19.27532 ], [ 78.8881, 19.27755 ], [ 78.89303, 19.28143 ], [ 78.89398, 19.2903 ], [ 78.89804, 19.28554 ], [ 78.90798, 19.27821 ], [ 78.91639, 19.27076 ], [ 78.92093, 19.26785 ], [ 78.92833, 19.26533 ], [ 78.9348, 19.26045 ], [ 78.94174, 19.2524 ], [ 78.94511, 19.2524 ], [ 78.94872, 19.25435 ], [ 78.95139, 19.25354 ], [ 78.9544, 19.25084 ], [ 78.9481, 19.24432 ], [ 78.94762, 19.24158 ], [ 78.94643, 19.23985 ], [ 78.94117, 19.23545 ], [ 78.93875, 19.2327 ], [ 78.93829, 19.23019 ], [ 78.93612, 19.22863 ], [ 78.93712, 19.2266 ], [ 78.93631, 19.22488 ], [ 78.93718, 19.22334 ], [ 78.93581, 19.21772 ], [ 78.93377, 19.21442 ], [ 78.93053, 19.21393 ], [ 78.92755, 19.20884 ], [ 78.91795, 19.20163 ], [ 78.91801, 19.18909 ], [ 78.91818, 19.18823 ], [ 78.92045, 19.18689 ], [ 78.9213, 19.18397 ], [ 78.91993, 19.18255 ], [ 78.91426, 19.18291 ], [ 78.91102, 19.18192 ], [ 78.90263, 19.17802 ], [ 78.87763, 19.16039 ], [ 78.87751, 19.15915 ], [ 78.88065, 19.15898 ], [ 78.88311, 19.15566 ], [ 78.88237, 19.1536 ], [ 78.88543, 19.14513 ], [ 78.88562, 19.13806 ], [ 78.88808, 19.13143 ], [ 78.88712, 19.12792 ], [ 78.88318, 19.12306 ], [ 78.88223, 19.12069 ], [ 78.8803, 19.11346 ], [ 78.8827, 19.11153 ], [ 78.88177, 19.10851 ], [ 78.87631, 19.10459 ], [ 78.8727, 19.10657 ], [ 78.87099, 19.11077 ], [ 78.86124, 19.11993 ], [ 78.86118, 19.12118 ], [ 78.8588, 19.12175 ], [ 78.85756, 19.12641 ], [ 78.84164, 19.14104 ], [ 78.84183, 19.13673 ], [ 78.83923, 19.13399 ], [ 78.83727, 19.13004 ], [ 78.83733, 19.12203 ], [ 78.83577, 19.11417 ], [ 78.83004, 19.10924 ], [ 78.82953, 19.10786 ], [ 78.83067, 19.10393 ], [ 78.83031, 19.10027 ], [ 78.83282, 19.09791 ], [ 78.83145, 19.09601 ], [ 78.83317, 19.09142 ], [ 78.82868, 19.08632 ], [ 78.82547, 19.08416 ], [ 78.83363, 19.07814 ], [ 78.84118, 19.07379 ], [ 78.84499, 19.07035 ], [ 78.84198, 19.06905 ], [ 78.83555, 19.06845 ], [ 78.83345, 19.06539 ], [ 78.82871, 19.06135 ], [ 78.82376, 19.05205 ], [ 78.82109, 19.04893 ], [ 78.81472, 19.04917 ], [ 78.8111, 19.04781 ], [ 78.80533, 19.04939 ], [ 78.79883, 19.04825 ], [ 78.79061, 19.04325 ], [ 78.78879, 19.04344 ], [ 78.7788, 19.03768 ], [ 78.77247, 19.03243 ], [ 78.77083, 19.02993 ], [ 78.76833, 19.02123 ], [ 78.76944, 19.0201 ], [ 78.77006, 19.01432 ], [ 78.76739, 19.01546 ], [ 78.76513, 19.01313 ], [ 78.76158, 19.01131 ], [ 78.75664, 19.01134 ], [ 78.74024, 19.01708 ], [ 78.72688, 19.02308 ], [ 78.72368, 19.02541 ], [ 78.71668, 19.02774 ], [ 78.70942, 19.03252 ], [ 78.701, 19.03606 ], [ 78.69981, 19.03962 ], [ 78.70114, 19.04148 ], [ 78.70082, 19.04516 ], [ 78.69918, 19.0461 ], [ 78.69949, 19.04927 ], [ 78.69847, 19.04984 ], [ 78.69749, 19.05296 ], [ 78.6995, 19.05791 ], [ 78.69741, 19.05924 ], [ 78.69778, 19.06075 ], [ 78.69505, 19.06266 ], [ 78.69271, 19.06544 ], [ 78.69248, 19.06694 ], [ 78.69795, 19.06782 ], [ 78.69527, 19.07565 ], [ 78.69478, 19.08098 ], [ 78.69976, 19.086 ], [ 78.7038, 19.09253 ], [ 78.71515, 19.09186 ], [ 78.72544, 19.09353 ], [ 78.72763, 19.09737 ], [ 78.7281, 19.10127 ], [ 78.73158, 19.10422 ], [ 78.7349, 19.10922 ], [ 78.7377, 19.12271 ], [ 78.74913, 19.13554 ], [ 78.74961, 19.13713 ], [ 78.74687, 19.14112 ], [ 78.74308, 19.14453 ], [ 78.74253, 19.1446 ], [ 78.74266, 19.14326 ], [ 78.74185, 19.14335 ], [ 78.73981, 19.14462 ], [ 78.73867, 19.14676 ], [ 78.73707, 19.14647 ], [ 78.73083, 19.15175 ], [ 78.73044, 19.15092 ], [ 78.72066, 19.15669 ], [ 78.71698, 19.15957 ], [ 78.71698, 19.16103 ], [ 78.71266, 19.16106 ], [ 78.71179, 19.1621 ], [ 78.71033, 19.16096 ], [ 78.70937, 19.16118 ], [ 78.70279, 19.16865 ], [ 78.7003, 19.17367 ], [ 78.69827, 19.17531 ], [ 78.69282, 19.17659 ], [ 78.69117, 19.17946 ], [ 78.69225, 19.18226 ], [ 78.69591, 19.18266 ], [ 78.69944, 19.18864 ], [ 78.70275, 19.19211 ], [ 78.70407, 19.19793 ], [ 78.70394, 19.21229 ], [ 78.70559, 19.21752 ], [ 78.70616, 19.23292 ], [ 78.70736, 19.23944 ], [ 78.707, 19.24549 ], [ 78.70906, 19.25223 ], [ 78.70858, 19.25508 ], [ 78.70611, 19.25753 ], [ 78.70652, 19.26578 ], [ 78.70972, 19.26967 ], [ 78.7111, 19.27414 ], [ 78.71317, 19.27652 ], [ 78.71654, 19.27756 ], [ 78.71849, 19.2792 ], [ 78.71934, 19.28395 ], [ 78.71431, 19.29048 ], [ 78.70605, 19.29911 ], [ 78.69989, 19.30375 ], [ 78.69073, 19.3089 ], [ 78.6742, 19.31633 ], [ 78.67745, 19.31694 ], [ 78.69053, 19.31671 ], [ 78.70399, 19.3216 ], [ 78.72257, 19.32659 ] ] ] } },
{ "type": "Feature", "properties": { "OBJECTID": 4927, "state_lgd": "36", "state_name": "TELANGANA", "district_lgd": "700", "district_name": "NIRMAL", "district_name_source": "district_table", "subdistrict_lgd": "04347", "subdistrict_name": "KHANAPUR", "subdistrict_type": "", "name_corrupted": false, "remarks": "", "label_lon": 78.643530797921855, "label_lat": 19.101325699867694 }, "geometry": { "type": "Polygon", "coordinates": [ [ [ 78.61399, 19.15932 ], [ 78.61251, 19.15661 ], [ 78.6089, 19.15431 ], [ 78.60732, 19.15089 ], [ 78.60874, 19.14768 ], [ 78.60758, 19.14567 ], [ 78.60612, 19.14554 ], [ 78.60578, 19.14323 ], [ 78.60657, 19.14333 ], [ 78.60637, 19.14166 ], [ 78.60734, 19.13943 ], [ 78.60615, 19.1389 ], [ 78.60791, 19.13317 ], [ 78.59938, 19.13136 ], [ 78.5976, 19.12048 ], [ 78.59759, 19.11736 ], [ 78.59855, 19.115 ], [ 78.60485, 19.11441 ], [ 78.61212, 19.11112 ], [ 78.61653, 19.11017 ], [ 78.62094, 19.11191 ], [ 78.62244, 19.11423 ], [ 78.62741, 19.11583 ], [ 78.63039, 19.11423 ], [ 78.63792, 19.10731 ], [ 78.64605, 19.10191 ], [ 78.65317, 19.09896 ], [ 78.65175, 19.10432 ], [ 78.65184, 19.10812 ], [ 78.65344, 19.11362 ], [ 78.65069, 19.1327 ], [ 78.63952, 19.13341 ], [ 78.63675, 19.13477 ], [ 78.63951, 19.14179 ], [ 78.64503, 19.14619 ], [ 78.6455, 19.15555 ], [ 78.64761, 19.15973 ], [ 78.65266, 19.16659 ], [ 78.66064, 19.17534 ], [ 78.67024, 19.18056 ], [ 78.67216, 19.18455 ], [ 78.6783, 19.18634 ], [ 78.68433, 19.18333 ], [ 78.68728, 19.18313 ], [ 78.69024, 19.18183 ], [ 78.69225, 19.18226 ], [ 78.69117, 19.17946 ], [ 78.69282, 19.17659 ], [ 78.69827, 19.17531 ], [ 78.69998, 19.17399 ], [ 78.70279, 19.16865 ], [ 78.70937, 19.16118 ], [ 78.71033, 19.16096 ], [ 78.71179, 19.1621 ], [ 78.71266, 19.16106 ], [ 78.71698, 19.16103 ], [ 78.71698, 19.15957 ], [ 78.72066, 19.15669 ], [ 78.73044, 19.15092 ], [ 78.73083, 19.15175 ], [ 78.73707, 19.14647 ], [ 78.73867, 19.14676 ], [ 78.73981, 19.14462 ], [ 78.74185, 19.14335 ], [ 78.74266, 19.14326 ], [ 78.74253, 19.1446 ], [ 78.74308, 19.14453 ], [ 78.74687, 19.14112 ], [ 78.74961, 19.13713 ], [ 78.74913, 19.13554 ], [ 78.7377, 19.12271 ], [ 78.7349, 19.10922 ], [ 78.73158, 19.10422 ], [ 78.7281, 19.10127 ], [ 78.72763, 19.09737 ], [ 78.72544, 19.09353 ], [ 78.71515, 19.09186 ], [ 78.7038, 19.09253 ], [ 78.69976, 19.086 ], [ 78.69478, 19.08098 ], [ 78.69527, 19.07565 ], [ 78.69795, 19.06782 ], [ 78.69248, 19.06694 ], [ 78.69271, 19.06544 ], [ 78.69505, 19.06266 ], [ 78.69778, 19.06075 ], [ 78.69741, 19.05924 ], [ 78.6995, 19.05791 ], [ 78.69749, 19.05296 ], [ 78.69847, 19.04984 ], [ 78.69949, 19.04927 ], [ 78.69918, 19.0461 ], [ 78.70082, 19.04516 ], [ 78.70114, 19.04148 ], [ 78.69981, 19.03962 ], [ 78.701, 19.03606 ], [ 78.69181, 19.03322 ], [ 78.6864, 19.03021 ], [ 78.66555, 19.01485 ], [ 78.66001, 19.00495 ], [ 78.66027, 19.00086 ], [ 78.65617, 18.99785 ], [ 78.64803, 18.98875 ], [ 78.64316, 18.98399 ], [ 78.6408, 18.98308 ], [ 78.63831, 18.97952 ], [ 78.63603, 18.97786 ], [ 78.62033, 18.98193 ], [ 78.61282, 18.9831 ], [ 78.60583, 18.98599 ], [ 78.61743, 18.98926 ], [ 78.61786, 18.9905 ], [ 78.61718, 18.99245 ], [ 78.61449, 18.99719 ], [ 78.61553, 19.00084 ], [ 78.61401, 19.0102 ], [ 78.61845, 19.01619 ], [ 78.60798, 19.03431 ], [ 78.60656, 19.04271 ], [ 78.59837, 19.05595 ], [ 78.58902, 19.0619 ], [ 78.58987, 19.06421 ], [ 78.58914, 19.06435 ], [ 78.59244, 19.07192 ], [ 78.59263, 19.08388 ], [ 78.60072, 19.09509 ], [ 78.57274, 19.10773 ], [ 78.56077, 19.12038 ], [ 78.55974, 19.12592 ], [ 78.54253, 19.13347 ], [ 78.53011, 19.1336 ], [ 78.53357, 19.14057 ], [ 78.53316, 19.14672 ], [ 78.53459, 19.15201 ], [ 78.53438, 19.15353 ], [ 78.5315, 19.15702 ], [ 78.52983, 19.16878 ], [ 78.5325, 19.16852 ], [ 78.5352, 19.16704 ], [ 78.54367, 19.16055 ], [ 78.55125, 19.15715 ], [ 78.55528, 19.15673 ], [ 78.55742, 19.17953 ], [ 78.56183, 19.18199 ], [ 78.5686, 19.18287 ], [ 78.57098, 19.18401 ], [ 78.57331, 19.18721 ], [ 78.57536, 19.1931 ], [ 78.58495, 19.20042 ], [ 78.58687, 19.20701 ], [ 78.5891, 19.20259 ], [ 78.59633, 19.1956 ], [ 78.6003, 19.18808 ], [ 78.60205, 19.1814 ], [ 78.60714, 19.17735 ], [ 78.61402, 19.16523 ], [ 78.61399, 19.15932 ] ] ] } },
{ "type": "Feature", "properties": { "OBJECTID": 4928, "state_lgd": "36", "state_name": "TELANGANA", "district_lgd": "700", "district_name": "NIRMAL", "district_name_source": "district_table", "subdistrict_lgd": "04338", "subdistrict_name": "KUBIR", "subdistrict_type": "", "name_corrupted": false, "remarks": "", "label_lon": 77.945665243803333, "label_lat": 19.240801189677086 }, "geometry": { "type": "Polygon", "coordinates": [ [ [ 77.94512, 19.34245 ], [ 77.96186, 19.33561 ], [ 77.96385, 19.33291 ], [ 77.96526, 19.32819 ], [ 77.96682, 19.32666 ], [ 77.97411, 19.32262 ], [ 77.97763, 19.32271 ], [ 77.9829, 19.315 ], [ 77.9853, 19.3095 ], [ 77.99466, 19.30539 ], [ 77.99868, 19.2998 ], [ 78.00376, 19.2978 ], [ 78.00665, 19.29761 ], [ 78.0135, 19.29472 ], [ 78.01563, 19.29082 ], [ 78.01596, 19.28757 ], [ 78.01424, 19.28596 ], [ 78.01482, 19.27904 ], [ 78.01815, 19.2787 ], [ 78.03388, 19.27396 ], [ 78.03702, 19.27217 ], [ 78.04251, 19.2706 ], [ 78.04184, 19.26166 ], [ 78.0375, 19.25515 ], [ 78.03594, 19.25063 ], [ 78.04161, 19.24343 ], [ 78.05567, 19.23712 ], [ 78.05195, 19.22917 ], [ 78.05093, 19.22924 ], [ 78.04919, 19.22606 ], [ 78.04526, 19.21044 ], [ 78.04158, 19.20541 ], [ 78.04025, 19.20576 ], [ 78.03823, 19.20458 ], [ 78.03696, 19.19403 ], [ 78.0316, 19.1873 ], [ 78.02979, 19.18385 ], [ 78.02885, 19.17573 ], [ 78.02295, 19.16969 ], [ 78.01082, 19.17483 ], [ 77.99967, 19.17662 ], [ 77.99944, 19.18269 ], [ 78.00059, 19.18632 ], [ 77.99997, 19.18928 ], [ 78.00326, 19.1933 ], [ 78.00292, 19.19448 ], [ 78.00467, 19.19691 ], [ 78.00419, 19.19971 ], [ 78.00522, 19.20401 ], [ 77.99873, 19.20554 ], [ 77.9967, 19.20798 ], [ 77.99081, 19.21114 ], [ 77.99073, 19.21372 ], [ 77.99002, 19.21476 ], [ 77.9879, 19.21527 ], [ 77.98646, 19.21757 ], [ 77.97446, 19.21984 ], [ 77.97421, 19.20895 ], [ 77.97323, 19.20463 ], [ 77.97013, 19.19657 ], [ 77.96368, 19.18414 ], [ 77.96562, 19.18324 ], [ 77.96583, 19.17703 ], [ 77.96878, 19.1738 ], [ 77.97215, 19.17312 ], [ 77.97557, 19.1711 ], [ 77.97987, 19.17196 ], [ 77.96981, 19.15666 ], [ 77.95525, 19.16284 ], [ 77.94411, 19.16618 ], [ 77.9407, 19.16792 ], [ 77.93021, 19.16825 ], [ 77.9257, 19.17406 ], [ 77.91282, 19.17722 ], [ 77.91091, 19.16803 ], [ 77.90705, 19.16048 ], [ 77.90672, 19.15779 ], [ 77.90271, 19.15146 ], [ 77.90157, 19.15077 ], [ 77.9007, 19.14753 ], [ 77.89697, 19.14407 ], [ 77.89083, 19.14875 ], [ 77.88957, 19.152 ], [ 77.88451, 19.15452 ], [ 77.88227, 19.15673 ], [ 77.87895, 19.16339 ], [ 77.87461, 19.16295 ], [ 77.8706, 19.16553 ], [ 77.87282, 19.15709 ], [ 77.87011, 19.15416 ], [ 77.8611, 19.15588 ], [ 77.85248, 19.15602 ], [ 77.85197, 19.16079 ], [ 77.85265, 19.16682 ], [ 77.85398, 19.16794 ], [ 77.85452, 19.1702 ], [ 77.85671, 19.17075 ], [ 77.85538, 19.17479 ], [ 77.85569, 19.17651 ], [ 77.86049, 19.18035 ], [ 77.85863, 19.18328 ], [ 77.85401, 19.18749 ], [ 77.84772, 19.1896 ], [ 77.85149, 19.1961 ], [ 77.85123, 19.19975 ], [ 77.85481, 19.20277 ], [ 77.85819, 19.21418 ], [ 77.86369, 19.22407 ], [ 77.86601, 19.2264 ], [ 77.86612, 19.23261 ], [ 77.86814, 19.23674 ], [ 77.8669, 19.23994 ], [ 77.86884, 19.24102 ], [ 77.87002, 19.24418 ], [ 77.86947, 19.24817 ], [ 77.8714, 19.25502 ], [ 77.87461, 19.25364 ], [ 77.87502, 19.25884 ], [ 77.88215, 19.26047 ], [ 77.89001, 19.26089 ], [ 77.89092, 19.25928 ], [ 77.89933, 19.25675 ], [ 77.90285, 19.25646 ], [ 77.90756, 19.26823 ], [ 77.90629, 19.2702 ], [ 77.90603, 19.27309 ], [ 77.90346, 19.2764 ], [ 77.90346, 19.27796 ], [ 77.89751, 19.27853 ], [ 77.89419, 19.27981 ], [ 77.88436, 19.27893 ], [ 77.86558, 19.28382 ], [ 77.86606, 19.2865 ], [ 77.86495, 19.28813 ], [ 77.8664, 19.29172 ], [ 77.86427, 19.29722 ], [ 77.86346, 19.3042 ], [ 77.87283, 19.30531 ], [ 77.87818, 19.30928 ], [ 77.89003, 19.3133 ], [ 77.89179, 19.31489 ], [ 77.89299, 19.31928 ], [ 77.89432, 19.32047 ], [ 77.89922, 19.31946 ], [ 77.90332, 19.31736 ], [ 77.91155, 19.31626 ], [ 77.9176, 19.32328 ], [ 77.9233, 19.32578 ], [ 77.92801, 19.33221 ], [ 77.93198, 19.33467 ], [ 77.93824, 19.33411 ], [ 77.94093, 19.33778 ], [ 77.94248, 19.34244 ], [ 77.94512, 19.34245 ] ] ] } },
{ "type": "Feature", "properties": { "OBJECTID": 4929, "state_lgd": "36", "state_name": "TELANGANA", "district_lgd": "700", "district_name": "NIRMAL", "district_name_source": "district_table", "subdistrict_lgd": "04337", "subdistrict_name": "KUNTALA", "subdistrict_type": "", "name_corrupted": false, "remarks": "", "label_lon": 78.087241264073853, "label_lat": 19.181146992010927 }, "geometry": { "type": "Polygon", "coordinates": [ [ [ 78.08876, 19.23962 ], [ 78.09531, 19.24374 ], [ 78.11317, 19.24442 ], [ 78.11522, 19.24883 ], [ 78.11704, 19.24864 ], [ 78.13428, 19.23889 ], [ 78.13709, 19.23439 ], [ 78.14461, 19.22939 ], [ 78.14529, 19.22486 ], [ 78.14478, 19.21916 ], [ 78.14347, 19.2157 ], [ 78.14081, 19.21242 ], [ 78.13975, 19.20752 ], [ 78.1331, 19.20556 ], [ 78.12684, 19.20535 ], [ 78.12757, 19.19996 ], [ 78.12706, 19.19535 ], [ 78.12327, 19.1873 ], [ 78.12072, 19.18427 ], [ 78.12131, 19.18122 ], [ 78.1242, 19.18067 ], [ 78.13024, 19.1692 ], [ 78.13111, 19.16814 ], [ 78.1333, 19.16853 ], [ 78.13373, 19.16504 ], [ 78.1377, 19.16356 ], [ 78.14979, 19.16138 ], [ 78.14871, 19.15901 ], [ 78.15125, 19.15033 ], [ 78.14501, 19.14566 ], [ 78.13061, 19.14588 ], [ 78.12384, 19.14546 ], [ 78.12327, 19.14462 ], [ 78.12023, 19.14415 ], [ 78.12065, 19.1414 ], [ 78.11871, 19.13973 ], [ 78.1152, 19.12848 ], [ 78.11048, 19.11701 ], [ 78.10867, 19.10652 ], [ 78.10749, 19.10389 ], [ 78.10862, 19.10154 ], [ 78.1048, 19.09858 ], [ 78.09942, 19.09632 ], [ 78.09856, 19.0945 ], [ 78.09809, 19.09181 ], [ 78.09975, 19.08844 ], [ 78.09954, 19.08628 ], [ 78.09522, 19.08983 ], [ 78.09129, 19.09161 ], [ 78.08916, 19.09787 ], [ 78.09095, 19.10252 ], [ 78.09084, 19.10423 ], [ 78.08904, 19.10649 ], [ 78.08526, 19.10848 ], [ 78.0841, 19.11 ], [ 78.08412, 19.11326 ], [ 78.08617, 19.11854 ], [ 78.07388, 19.12346 ], [ 78.06842, 19.12411 ], [ 78.05885, 19.12691 ], [ 78.06147, 19.14064 ], [ 78.05204, 19.14044 ], [ 78.04148, 19.14415 ], [ 78.03182, 19.14561 ], [ 78.02642, 19.15789 ], [ 78.02058, 19.16373 ], [ 78.02295, 19.16969 ], [ 78.02885, 19.17573 ], [ 78.02979, 19.18385 ], [ 78.0316, 19.1873 ], [ 78.03696, 19.19403 ], [ 78.03823, 19.20458 ], [ 78.04025, 19.20576 ], [ 78.04158, 19.20541 ], [ 78.04526, 19.21044 ], [ 78.04919, 19.22606 ], [ 78.05093, 19.22924 ], [ 78.05195, 19.22917 ], [ 78.05473, 19.23584 ], [ 78.05952, 19.24307 ], [ 78.06442, 19.24777 ], [ 78.0723, 19.24925 ], [ 78.0791, 19.25483 ], [ 78.08323, 19.24868 ], [ 78.08235, 19.24322 ], [ 78.08876, 19.23962 ] ] ] } },
{ "type": "Feature", "properties": { "OBJECTID": 4930, "state_lgd": "36", "state_name": "TELANGANA", "district_lgd": "700", "district_name": "NIRMAL", "district_name_source": "district_table", "subdistrict_lgd": "04345", "subdistrict_name": "LAKSHMANCHANDA", "subdistrict_type": "", "name_corrupted": false, "remarks": "", "label_lon": 78.457076106385102, "label_lat": 19.029891567738105 }, "geometry": { "type": "Polygon", "coordinates": [ [ [ 78.49696, 19.09235 ], [ 78.49371, 19.073 ], [ 78.48892, 19.0707 ], [ 78.48581, 19.07047 ], [ 78.48409, 19.07189 ], [ 78.47858, 19.06067 ], [ 78.47743, 19.05529 ], [ 78.47995, 19.05599 ], [ 78.48167, 19.05508 ], [ 78.48173, 19.05252 ], [ 78.48409, 19.0478 ], [ 78.485, 19.02937 ], [ 78.50189, 19.03655 ], [ 78.50699, 19.02852 ], [ 78.51212, 19.02229 ], [ 78.51313, 19.01912 ], [ 78.51108, 19.0147 ], [ 78.5137, 19.00934 ], [ 78.51341, 19.00725 ], [ 78.51579, 19.00083 ], [ 78.51668, 18.99313 ], [ 78.51833, 18.98808 ], [ 78.51287, 18.98398 ], [ 78.50651, 18.982 ], [ 78.50646, 18.97939 ], [ 78.50826, 18.97249 ], [ 78.49085, 18.97304 ], [ 78.48629, 18.96993 ], [ 78.48372, 18.96634 ], [ 78.48237, 18.96214 ], [ 78.47728, 18.95822 ], [ 78.47275, 18.95729 ], [ 78.46549, 18.95854 ], [ 78.463, 18.95679 ], [ 78.45752, 18.95548 ], [ 78.45631, 18.95629 ], [ 78.45254, 18.96425 ], [ 78.45025, 18.96532 ], [ 78.44061, 18.9668 ], [ 78.42635, 18.97717 ], [ 78.42525, 18.97886 ], [ 78.42455, 18.98306 ], [ 78.41719, 18.99968 ], [ 78.41487, 19.00171 ], [ 78.41053, 19.00408 ], [ 78.40916, 19.00411 ], [ 78.41084, 19.0066 ], [ 78.40975, 19.00878 ], [ 78.41325, 19.01107 ], [ 78.41379, 19.01226 ], [ 78.41634, 19.01322 ], [ 78.41687, 19.01585 ], [ 78.41205, 19.01863 ], [ 78.41184, 19.02198 ], [ 78.40782, 19.02595 ], [ 78.40928, 19.03438 ], [ 78.41034, 19.03517 ], [ 78.41092, 19.04233 ], [ 78.41206, 19.04504 ], [ 78.411, 19.04682 ], [ 78.40687, 19.04883 ], [ 78.4063, 19.05921 ], [ 78.4048, 19.06656 ], [ 78.40355, 19.06891 ], [ 78.40157, 19.0697 ], [ 78.39848, 19.06961 ], [ 78.39835, 19.07606 ], [ 78.39931, 19.07796 ], [ 78.40634, 19.0806 ], [ 78.40835, 19.08279 ], [ 78.41167, 19.0911 ], [ 78.41011, 19.09902 ], [ 78.43187, 19.09381 ], [ 78.43698, 19.09401 ], [ 78.44311, 19.09301 ], [ 78.44584, 19.09365 ], [ 78.44954, 19.09736 ], [ 78.45055, 19.09731 ], [ 78.46218, 19.09316 ], [ 78.466, 19.09308 ], [ 78.47231, 19.09151 ], [ 78.47489, 19.09414 ], [ 78.49018, 19.10318 ], [ 78.4938, 19.11079 ], [ 78.49748, 19.10074 ], [ 78.49696, 19.09235 ] ] ] } },
{ "type": "Feature", "properties": { "OBJECTID": 4931, "state_lgd": "36", "state_name": "TELANGANA", "district_lgd": "700", "district_name": "NIRMAL", "district_name_source": "district_table", "subdistrict_lgd": "04342", "subdistrict_name": "LOKESHWARAM", "subdistrict_type": "", "name_corrupted": false, "remarks": "", "label_lon": 78.099133115259647, "label_lat": 19.01712519857794 }, "geometry": { "type": "Polygon", "coordinates": [ [ [ 78.15812, 19.0763 ], [ 78.15892, 19.07169 ], [ 78.15484, 19.06719 ], [ 78.15451, 19.0653 ], [ 78.15624, 19.06181 ], [ 78.1609, 19.05911 ], [ 78.16205, 19.05745 ], [ 78.15949, 19.04472 ], [ 78.16083, 19.04374 ], [ 78.16591, 19.04398 ], [ 78.16914, 19.04191 ], [ 78.17111, 19.03842 ], [ 78.172, 19.03145 ], [ 78.17502, 19.02745 ], [ 78.17867, 19.02547 ], [ 78.19058, 19.02601 ], [ 78.19263, 19.02497 ], [ 78.19754, 19.01965 ], [ 78.20077, 19.01803 ], [ 78.2023, 19.0181 ], [ 78.20735, 19.02197 ], [ 78.20992, 19.0223 ], [ 78.21821, 19.01702 ], [ 78.23341, 19.01307 ], [ 78.22809, 19.00855 ], [ 78.22249, 19.0063 ], [ 78.2132, 19.00511 ], [ 78.20416, 19.00239 ], [ 78.19908, 18.99939 ], [ 78.1935, 18.99799 ], [ 78.18847, 18.99749 ], [ 78.18315, 18.99949 ], [ 78.17837, 18.99995 ], [ 78.17481, 18.99867 ], [ 78.17029, 18.99894 ], [ 78.16729, 18.99783 ], [ 78.16454, 18.99501 ], [ 78.16511, 18.99278 ], [ 78.16437, 18.99086 ], [ 78.16121, 18.98829 ], [ 78.16199, 18.9828 ], [ 78.16121, 18.98052 ], [ 78.15029, 18.96961 ], [ 78.14972, 18.96758 ], [ 78.14803, 18.96744 ], [ 78.14692, 18.96571 ], [ 78.13274, 18.96126 ], [ 78.12222, 18.96117 ], [ 78.11825, 18.96294 ], [ 78.11326, 18.96151 ], [ 78.11016, 18.95982 ], [ 78.10693, 18.95596 ], [ 78.10474, 18.95463 ], [ 78.10263, 18.95122 ], [ 78.09651, 18.94446 ], [ 78.08941, 18.94014 ], [ 78.08784, 18.94092 ], [ 78.07893, 18.94085 ], [ 78.07678, 18.94007 ], [ 78.07349, 18.9412 ], [ 78.06755, 18.94069 ], [ 78.05774, 18.94234 ], [ 78.0502, 18.93866 ], [ 78.04594, 18.94195 ], [ 78.04488, 18.94368 ], [ 78.04187, 18.94522 ], [ 78.04116, 18.94638 ], [ 78.04153, 18.9497 ], [ 78.03998, 18.95191 ], [ 78.03082, 18.95725 ], [ 78.03566, 18.96495 ], [ 78.03002, 18.96916 ], [ 78.0335, 18.98605 ], [ 78.03685, 18.99293 ], [ 78.03791, 18.99862 ], [ 78.03649, 19.00083 ], [ 78.0496, 19.01207 ], [ 78.04766, 19.016 ], [ 78.04453, 19.01966 ], [ 78.03877, 19.01555 ], [ 78.03353, 19.01355 ], [ 78.02617, 19.01672 ], [ 78.01983, 19.0232 ], [ 78.019, 19.0259 ], [ 78.01494, 19.03102 ], [ 78.01399, 19.03447 ], [ 78.00708, 19.03452 ], [ 78.00651, 19.03634 ], [ 78.00931, 19.0461 ], [ 78.01072, 19.06344 ], [ 78.01174, 19.06777 ], [ 78.01523, 19.06826 ], [ 78.01766, 19.07154 ], [ 78.01993, 19.07211 ], [ 78.02407, 19.07037 ], [ 78.02994, 19.06621 ], [ 78.03601, 19.06469 ], [ 78.03996, 19.06714 ], [ 78.04516, 19.07495 ], [ 78.05532, 19.08093 ], [ 78.06075, 19.0818 ], [ 78.07026, 19.07939 ], [ 78.08063, 19.08336 ], [ 78.08664, 19.08004 ], [ 78.09055, 19.07939 ], [ 78.09595, 19.08083 ], [ 78.10153, 19.08523 ], [ 78.11259, 19.08216 ], [ 78.11673, 19.07983 ], [ 78.123, 19.07875 ], [ 78.12938, 19.07593 ], [ 78.13444, 19.07732 ], [ 78.14026, 19.08199 ], [ 78.1465, 19.08553 ], [ 78.15128, 19.08592 ], [ 78.15371, 19.08358 ], [ 78.15812, 19.0763 ] ] ] } },
{ "type": "Feature", "properties": { "OBJECTID": 4932, "state_lgd": "36", "state_name": "TELANGANA", "district_lgd": "700", "district_name": "NIRMAL", "district_name_source": "district_table", "subdistrict_lgd": "04346", "subdistrict_name": "MAMADA", "subdistrict_type": "", "name_corrupted": false, "remarks": "", "label_lon": 78.513144304105083, "label_lat": 19.088700440059611 }, "geometry": { "type": "Polygon", "coordinates": [ [ [ 78.50948, 19.21494 ], [ 78.5057, 19.20421 ], [ 78.49412, 19.20137 ], [ 78.48599, 19.19443 ], [ 78.48668, 19.18347 ], [ 78.50164, 19.18387 ], [ 78.50762, 19.17728 ], [ 78.5117, 19.16708 ], [ 78.51604, 19.16508 ], [ 78.51554, 19.15457 ], [ 78.52024, 19.14239 ], [ 78.52269, 19.14147 ], [ 78.53011, 19.1336 ], [ 78.54253, 19.13347 ], [ 78.55974, 19.12592 ], [ 78.56077, 19.12038 ], [ 78.57274, 19.10773 ], [ 78.60072, 19.09509 ], [ 78.59263, 19.08388 ], [ 78.59244, 19.07192 ], [ 78.58914, 19.06435 ], [ 78.58987, 19.06421 ], [ 78.58902, 19.0619 ], [ 78.59837, 19.05595 ], [ 78.60656, 19.04271 ], [ 78.60798, 19.03431 ], [ 78.61845, 19.01619 ], [ 78.61401, 19.0102 ], [ 78.61553, 19.00084 ], [ 78.61449, 18.99719 ], [ 78.61718, 18.99245 ], [ 78.61786, 18.9905 ], [ 78.61743, 18.98926 ], [ 78.60583, 18.98599 ], [ 78.59724, 18.99516 ], [ 78.59613, 18.99794 ], [ 78.59213, 19.00128 ], [ 78.58884, 19.00544 ], [ 78.588, 19.00509 ], [ 78.57967, 18.9993 ], [ 78.5765, 18.99506 ], [ 78.56659, 18.98812 ], [ 78.55686, 18.97809 ], [ 78.55424, 18.9731 ], [ 78.55149, 18.9542 ], [ 78.54894, 18.94734 ], [ 78.54678, 18.94587 ], [ 78.53558, 18.94619 ], [ 78.52825, 18.94888 ], [ 78.5243, 18.9524 ], [ 78.52179, 18.95628 ], [ 78.52066, 18.9598 ], [ 78.51752, 18.96225 ], [ 78.51627, 18.96552 ], [ 78.51069, 18.97123 ], [ 78.50826, 18.97249 ], [ 78.50646, 18.97939 ], [ 78.50651, 18.982 ], [ 78.51287, 18.98398 ], [ 78.51833, 18.98808 ], [ 78.51668, 18.99313 ], [ 78.51579, 19.00083 ], [ 78.51341, 19.00725 ], [ 78.5137, 19.00934 ], [ 78.51108, 19.0147 ], [ 78.51313, 19.01912 ], [ 78.5129, 19.02027 ], [ 78.50189, 19.03655 ], [ 78.485, 19.02937 ], [ 78.48409, 19.0478 ], [ 78.48173, 19.05252 ], [ 78.48167, 19.05508 ], [ 78.47995, 19.05599 ], [ 78.47743, 19.05529 ], [ 78.47858, 19.06067 ], [ 78.48409, 19.07189 ], [ 78.48581, 19.07047 ], [ 78.48892, 19.0707 ], [ 78.49371, 19.073 ], [ 78.4942, 19.07399 ], [ 78.49434, 19.07887 ], [ 78.49719, 19.09069 ], [ 78.49748, 19.10074 ], [ 78.4938, 19.11079 ], [ 78.49018, 19.10318 ], [ 78.47151, 19.09147 ], [ 78.466, 19.09308 ], [ 78.46218, 19.09316 ], [ 78.45055, 19.09731 ], [ 78.44954, 19.09736 ], [ 78.44584, 19.09365 ], [ 78.44311, 19.09301 ], [ 78.43698, 19.09401 ], [ 78.43187, 19.09381 ], [ 78.41305, 19.09793 ], [ 78.41011, 19.09902 ], [ 78.40808, 19.11104 ], [ 78.40472, 19.11288 ], [ 78.40799, 19.1233 ], [ 78.41557, 19.12634 ], [ 78.41992, 19.13121 ], [ 78.4245, 19.13309 ], [ 78.422, 19.13584 ], [ 78.41523, 19.14059 ], [ 78.41198, 19.14509 ], [ 78.41079, 19.15099 ], [ 78.40924, 19.15263 ], [ 78.40674, 19.15301 ], [ 78.40481, 19.16005 ], [ 78.4035, 19.17457 ], [ 78.40426, 19.17566 ], [ 78.40704, 19.17381 ], [ 78.41465, 19.1726 ], [ 78.4185, 19.17555 ], [ 78.4211, 19.17604 ], [ 78.4256, 19.17565 ], [ 78.42966, 19.17427 ], [ 78.431, 19.17288 ], [ 78.43135, 19.17451 ], [ 78.43379, 19.17635 ], [ 78.43622, 19.18471 ], [ 78.44846, 19.17906 ], [ 78.4494, 19.18025 ], [ 78.44975, 19.1841 ], [ 78.45438, 19.19028 ], [ 78.45662, 19.1956 ], [ 78.45504, 19.20243 ], [ 78.45497, 19.20635 ], [ 78.45721, 19.21308 ], [ 78.45835, 19.22271 ], [ 78.4567, 19.22701 ], [ 78.48377, 19.22685 ], [ 78.49869, 19.21878 ], [ 78.50044, 19.21825 ], [ 78.50105, 19.21899 ], [ 78.50948, 19.21494 ] ] ] } },
{ "type": "Feature", "properties": { "OBJECTID": 4933, "state_lgd": "36", "state_name": "TELANGANA", "district_lgd": "700", "district_name": "NIRMAL", "district_name_source": "district_table", "subdistrict_lgd": "04341", "subdistrict_name": "MUDHOL", "subdistrict_type": "", "name_corrupted": false, "remarks": "", "label_lon": 77.962766553365327, "label_lat": 18.982297210519725 }, "geometry": { "type": "Polygon", "coordinates": [ [ [ 78.00708, 19.03452 ], [ 78.01399, 19.03447 ], [ 78.01494, 19.03102 ], [ 78.019, 19.0259 ], [ 78.01983, 19.0232 ], [ 78.02617, 19.01672 ], [ 78.03353, 19.01355 ], [ 78.03877, 19.01555 ], [ 78.04453, 19.01966 ], [ 78.04766, 19.016 ], [ 78.0496, 19.01207 ], [ 78.03649, 19.00083 ], [ 78.03791, 18.99862 ], [ 78.03685, 18.99293 ], [ 78.0335, 18.98605 ], [ 78.03002, 18.96916 ], [ 78.03566, 18.96495 ], [ 78.03082, 18.95725 ], [ 78.03998, 18.95191 ], [ 78.04153, 18.9497 ], [ 78.04146, 18.94562 ], [ 78.04488, 18.94368 ], [ 78.04594, 18.94195 ], [ 78.0502, 18.93866 ], [ 78.04653, 18.9357 ], [ 78.04744, 18.93292 ], [ 78.04743, 18.9278 ], [ 78.04185, 18.91496 ], [ 78.04189, 18.90934 ], [ 78.03736, 18.9099 ], [ 78.03734, 18.9114 ], [ 78.036, 18.91132 ], [ 78.03527, 18.91257 ], [ 78.03564, 18.91486 ], [ 78.03475, 18.91534 ], [ 78.03394, 18.91456 ], [ 78.03273, 18.91483 ], [ 78.0333, 18.9126 ], [ 78.032, 18.91165 ], [ 78.02746, 18.91067 ], [ 78.02436, 18.91398 ], [ 78.02309, 18.91386 ], [ 78.0204, 18.91583 ], [ 78.01529, 18.9161 ], [ 78.01366, 18.91534 ], [ 78.012, 18.9168 ], [ 78.00611, 18.9168 ], [ 78.00395, 18.91659 ], [ 78.00092, 18.91432 ], [ 77.99303, 18.91513 ], [ 77.98994, 18.92109 ], [ 77.98985, 18.92447 ], [ 77.98104, 18.92584 ], [ 77.97739, 18.93206 ], [ 77.96578, 18.92965 ], [ 77.96058, 18.93565 ], [ 77.95723, 18.93727 ], [ 77.94262, 18.93998 ], [ 77.93033, 18.93947 ], [ 77.92881, 18.93562 ], [ 77.92908, 18.93365 ], [ 77.92663, 18.93323 ], [ 77.92504, 18.93442 ], [ 77.92317, 18.92872 ], [ 77.92157, 18.92742 ], [ 77.92012, 18.92982 ], [ 77.92121, 18.93307 ], [ 77.91923, 18.93646 ], [ 77.91964, 18.94068 ], [ 77.91762, 18.94472 ], [ 77.91389, 18.94481 ], [ 77.91269, 18.94632 ], [ 77.90847, 18.94815 ], [ 77.89828, 18.94293 ], [ 77.89396, 18.9387 ], [ 77.88859, 18.93796 ], [ 77.8863, 18.93654 ], [ 77.88108, 18.93881 ], [ 77.87931, 18.94196 ], [ 77.87645, 18.94434 ], [ 77.87661, 18.9456 ], [ 77.87476, 18.94484 ], [ 77.87514, 18.94564 ], [ 77.87431, 18.94717 ], [ 77.87556, 18.95888 ], [ 77.87957, 18.96887 ], [ 77.88159, 18.97963 ], [ 77.88141, 18.98122 ], [ 77.87719, 18.9845 ], [ 77.87649, 18.9857 ], [ 77.87696, 18.98745 ], [ 77.87816, 18.98905 ], [ 77.88026, 18.98972 ], [ 77.88146, 18.99176 ], [ 77.88308, 18.99185 ], [ 77.88371, 18.99279 ], [ 77.887, 18.99368 ], [ 77.88952, 18.99544 ], [ 77.88849, 18.99853 ], [ 77.8914, 19.00016 ], [ 77.88874, 19.00389 ], [ 77.89312, 19.0089 ], [ 77.89364, 19.0111 ], [ 77.89558, 19.01311 ], [ 77.89593, 19.01961 ], [ 77.89938, 19.02237 ], [ 77.90053, 19.02455 ], [ 77.90071, 19.0263 ], [ 77.89826, 19.03021 ], [ 77.89738, 19.03357 ], [ 77.89236, 19.03973 ], [ 77.89165, 19.04364 ], [ 77.88833, 19.0501 ], [ 77.88749, 19.05477 ], [ 77.89749, 19.05475 ], [ 77.90435, 19.05583 ], [ 77.91643, 19.05252 ], [ 77.9199, 19.05317 ], [ 77.92412, 19.05555 ], [ 77.92696, 19.04967 ], [ 77.92697, 19.04412 ], [ 77.93239, 19.04303 ], [ 77.94157, 19.03835 ], [ 77.9468, 19.0372 ], [ 77.94719, 19.03936 ], [ 77.94887, 19.04041 ], [ 77.95329, 19.03892 ], [ 77.96118, 19.03868 ], [ 77.96452, 19.03579 ], [ 77.96894, 19.03473 ], [ 77.97295, 19.03811 ], [ 77.97955, 19.03632 ], [ 77.98761, 19.03679 ], [ 77.99875, 19.03417 ], [ 78.00194, 19.03454 ], [ 78.00473, 19.03382 ], [ 78.00708, 19.03452 ] ] ] } },
{ "type": "Feature", "properties": { "OBJECTID": 4934, "state_lgd": "36", "state_name": "TELANGANA", "district_lgd": "700", "district_name": "NIRMAL", "district_name_source": "district_table", "subdistrict_lgd": "06270", "subdistrict_name": "NARSAPUR (G)", "subdistrict_type": "", "name_corrupted": false, "remarks": "", "label_lon": 78.160283483616112, "label_lat": 19.140280667672279 }, "geometry": { "type": "Polygon", "coordinates": [ [ [ 78.17782, 19.23659 ], [ 78.18449, 19.22936 ], [ 78.18299, 19.21643 ], [ 78.18719, 19.20833 ], [ 78.19071, 19.21374 ], [ 78.19222, 19.21419 ], [ 78.19528, 19.21258 ], [ 78.20147, 19.21423 ], [ 78.20425, 19.20969 ], [ 78.20458, 19.20522 ], [ 78.20889, 19.20526 ], [ 78.21065, 19.20618 ], [ 78.21153, 19.20541 ], [ 78.2123, 19.20613 ], [ 78.21407, 19.20361 ], [ 78.21477, 19.20053 ], [ 78.21162, 19.20169 ], [ 78.20812, 19.20003 ], [ 78.2029, 19.19927 ], [ 78.20244, 19.198 ], [ 78.20979, 19.19268 ], [ 78.20849, 19.19166 ], [ 78.18797, 19.19525 ], [ 78.18662, 19.19914 ], [ 78.18554, 19.19198 ], [ 78.1879, 19.18195 ], [ 78.18743, 19.17988 ], [ 78.18815, 19.17637 ], [ 78.18218, 19.16658 ], [ 78.18761, 19.16347 ], [ 78.19025, 19.16603 ], [ 78.1924, 19.16362 ], [ 78.19891, 19.15991 ], [ 78.19967, 19.1611 ], [ 78.20071, 19.16068 ], [ 78.20061, 19.15927 ], [ 78.20217, 19.15914 ], [ 78.20188, 19.15863 ], [ 78.20998, 19.15282 ], [ 78.21249, 19.15193 ], [ 78.21942, 19.15269 ], [ 78.21936, 19.15067 ], [ 78.22093, 19.15021 ], [ 78.22106, 19.14944 ], [ 78.21984, 19.14432 ], [ 78.21511, 19.14134 ], [ 78.21463, 19.14343 ], [ 78.21321, 19.14384 ], [ 78.21194, 19.14313 ], [ 78.21227, 19.13897 ], [ 78.20981, 19.13921 ], [ 78.20855, 19.13732 ], [ 78.20626, 19.13746 ], [ 78.2037, 19.13024 ], [ 78.19509, 19.11896 ], [ 78.19659, 19.11788 ], [ 78.19634, 19.11657 ], [ 78.20077, 19.11321 ], [ 78.20501, 19.11346 ], [ 78.20603, 19.11269 ], [ 78.20427, 19.11167 ], [ 78.20275, 19.10948 ], [ 78.2001, 19.09687 ], [ 78.20165, 19.09421 ], [ 78.20271, 19.08988 ], [ 78.20316, 19.08022 ], [ 78.19277, 19.07399 ], [ 78.19056, 19.06364 ], [ 78.18636, 19.05279 ], [ 78.18544, 19.05182 ], [ 78.18225, 19.05507 ], [ 78.17791, 19.05562 ], [ 78.17176, 19.05904 ], [ 78.16213, 19.05598 ], [ 78.16155, 19.05857 ], [ 78.15745, 19.06075 ], [ 78.15458, 19.0646 ], [ 78.15484, 19.06719 ], [ 78.15839, 19.07045 ], [ 78.15902, 19.07384 ], [ 78.15488, 19.08187 ], [ 78.15128, 19.08592 ], [ 78.1465, 19.08553 ], [ 78.14026, 19.08199 ], [ 78.13444, 19.07732 ], [ 78.13042, 19.07598 ], [ 78.12862, 19.07607 ], [ 78.12259, 19.07888 ], [ 78.11603, 19.08005 ], [ 78.11259, 19.08216 ], [ 78.10782, 19.08311 ], [ 78.10285, 19.08523 ], [ 78.09974, 19.08437 ], [ 78.09595, 19.08083 ], [ 78.09055, 19.07939 ], [ 78.08664, 19.08004 ], [ 78.08063, 19.08336 ], [ 78.07416, 19.08059 ], [ 78.07322, 19.08721 ], [ 78.07455, 19.09575 ], [ 78.07713, 19.09379 ], [ 78.0809, 19.09287 ], [ 78.08304, 19.091 ], [ 78.08608, 19.09042 ], [ 78.08846, 19.09164 ], [ 78.09129, 19.09161 ], [ 78.09522, 19.08983 ], [ 78.09954, 19.08628 ], [ 78.09975, 19.08844 ], [ 78.09809, 19.09181 ], [ 78.09856, 19.0945 ], [ 78.09942, 19.09632 ], [ 78.1048, 19.09858 ], [ 78.10862, 19.10154 ], [ 78.10749, 19.10389 ], [ 78.10867, 19.10652 ], [ 78.11048, 19.11701 ], [ 78.1152, 19.12848 ], [ 78.11871, 19.13973 ], [ 78.12065, 19.1414 ], [ 78.12023, 19.14415 ], [ 78.12327, 19.14462 ], [ 78.12384, 19.14546 ], [ 78.13061, 19.14588 ], [ 78.14501, 19.14566 ], [ 78.15125, 19.15033 ], [ 78.14871, 19.15901 ], [ 78.14979, 19.16138 ], [ 78.1377, 19.16356 ], [ 78.13373, 19.16504 ], [ 78.1333, 19.16853 ], [ 78.13111, 19.16814 ], [ 78.13024, 19.1692 ], [ 78.1242, 19.18067 ], [ 78.12131, 19.18122 ], [ 78.12072, 19.18427 ], [ 78.12327, 19.1873 ], [ 78.12728, 19.19627 ], [ 78.12684, 19.20535 ], [ 78.1331, 19.20556 ], [ 78.13975, 19.20752 ], [ 78.14081, 19.21242 ], [ 78.14347, 19.2157 ], [ 78.14478, 19.21916 ], [ 78.14529, 19.22486 ], [ 78.14461, 19.22939 ], [ 78.15099, 19.2295 ], [ 78.1554, 19.23438 ], [ 78.1584, 19.23578 ], [ 78.16495, 19.23455 ], [ 78.17532, 19.23758 ], [ 78.17671, 19.24052 ], [ 78.17782, 19.23659 ] ] ] } },
{ "type": "Feature", "properties": { "OBJECTID": 4935, "state_lgd": "36", "state_name": "TELANGANA", "district_lgd": "700", "district_name": "NIRMAL", "district_name_source": "district_table", "subdistrict_lgd": "04344", "subdistrict_name": "NIRMAL(RURAL)", "subdistrict_type": "", "name_corrupted": false, "remarks": "", "label_lon": 78.380630477887948, "label_lat": 19.119589606670324 }, "geometry": { "type": "MultiPolygon", "coordinates": [ [ [ [ 78.32228, 19.12677 ], [ 78.31996, 19.12035 ], [ 78.31998, 19.11098 ], [ 78.31772, 19.1027 ], [ 78.31787, 19.09992 ], [ 78.31939, 19.09682 ], [ 78.32266, 19.09782 ], [ 78.33301, 19.09279 ], [ 78.33832, 19.08454 ], [ 78.32922, 19.07732 ], [ 78.33648, 19.0674 ], [ 78.33723, 19.05934 ], [ 78.33603, 19.0538 ], [ 78.33804, 19.05073 ], [ 78.34369, 19.04717 ], [ 78.34553, 19.0436 ], [ 78.34123, 19.0403 ], [ 78.33955, 19.04159 ], [ 78.32519, 19.04671 ], [ 78.31458, 19.05689 ], [ 78.30989, 19.05564 ], [ 78.30702, 19.05391 ], [ 78.30221, 19.0466 ], [ 78.2993, 19.04669 ], [ 78.29438, 19.04827 ], [ 78.29287, 19.04718 ], [ 78.28837, 19.05062 ], [ 78.28748, 19.05293 ], [ 78.28748, 19.05455 ], [ 78.29109, 19.06177 ], [ 78.29194, 19.07043 ], [ 78.29006, 19.07843 ], [ 78.28952, 19.08612 ], [ 78.2848, 19.09632 ], [ 78.28206, 19.09868 ], [ 78.28159, 19.10036 ], [ 78.29013, 19.10553 ], [ 78.29332, 19.1053 ], [ 78.29526, 19.1064 ], [ 78.29702, 19.10912 ], [ 78.29419, 19.1193 ], [ 78.29376, 19.12455 ], [ 78.29623, 19.12515 ], [ 78.29959, 19.12447 ], [ 78.30222, 19.12489 ], [ 78.30568, 19.12598 ], [ 78.30705, 19.12849 ], [ 78.31107, 19.12746 ], [ 78.31903, 19.13099 ], [ 78.32526, 19.13602 ], [ 78.32398, 19.12977 ], [ 78.32449, 19.12876 ], [ 78.32228, 19.12677 ] ] ], [ [ [ 78.36781, 19.18133 ], [ 78.37107, 19.18212 ], [ 78.37617, 19.18197 ], [ 78.38074, 19.1794 ], [ 78.3836, 19.1798 ], [ 78.38852, 19.17602 ], [ 78.39431, 19.17678 ], [ 78.39827, 19.18019 ], [ 78.40176, 19.18013 ], [ 78.40446, 19.17838 ], [ 78.4035, 19.17457 ], [ 78.40373, 19.17036 ], [ 78.40481, 19.16005 ], [ 78.40674, 19.15301 ], [ 78.40924, 19.15263 ], [ 78.41079, 19.15099 ], [ 78.41198, 19.14509 ], [ 78.41523, 19.14059 ], [ 78.422, 19.13584 ], [ 78.4245, 19.13309 ], [ 78.41992, 19.13121 ], [ 78.41557, 19.12634 ], [ 78.40799, 19.1233 ], [ 78.40475, 19.11323 ], [ 78.40828, 19.11063 ], [ 78.40993, 19.09761 ], [ 78.41176, 19.09298 ], [ 78.41167, 19.0911 ], [ 78.4073, 19.08134 ], [ 78.39931, 19.07796 ], [ 78.39835, 19.07606 ], [ 78.39848, 19.06961 ], [ 78.40157, 19.0697 ], [ 78.40355, 19.06891 ], [ 78.4048, 19.06656 ], [ 78.4063, 19.05921 ], [ 78.40687, 19.04883 ], [ 78.406, 19.04718 ], [ 78.40135, 19.04683 ], [ 78.39823, 19.04469 ], [ 78.39422, 19.04594 ], [ 78.38993, 19.04621 ], [ 78.3807, 19.04525 ], [ 78.37759, 19.04592 ], [ 78.37292, 19.04426 ], [ 78.37111, 19.04451 ], [ 78.3701, 19.04907 ], [ 78.37163, 19.05345 ], [ 78.37148, 19.05653 ], [ 78.36392, 19.05869 ], [ 78.36035, 19.06138 ], [ 78.3565, 19.06581 ], [ 78.35677, 19.06841 ], [ 78.35574, 19.07146 ], [ 78.36059, 19.07488 ], [ 78.35481, 19.08341 ], [ 78.35159, 19.09422 ], [ 78.35843, 19.09556 ], [ 78.35676, 19.10262 ], [ 78.35697, 19.10832 ], [ 78.36274, 19.10824 ], [ 78.36575, 19.1121 ], [ 78.36604, 19.1157 ], [ 78.36038, 19.1203 ], [ 78.35985, 19.12226 ], [ 78.35724, 19.1221 ], [ 78.35809, 19.12566 ], [ 78.3563, 19.1323 ], [ 78.3631, 19.13342 ], [ 78.36574, 19.13279 ], [ 78.37186, 19.14461 ], [ 78.36669, 19.14556 ], [ 78.35764, 19.14569 ], [ 78.35445, 19.14524 ], [ 78.35105, 19.14291 ], [ 78.34684, 19.14709 ], [ 78.34126, 19.14811 ], [ 78.34041, 19.14885 ], [ 78.33997, 19.15162 ], [ 78.34002, 19.15651 ], [ 78.34283, 19.16564 ], [ 78.33907, 19.16669 ], [ 78.33888, 19.17261 ], [ 78.34085, 19.17823 ], [ 78.34649, 19.18426 ], [ 78.35062, 19.19497 ], [ 78.35354, 19.186 ], [ 78.36089, 19.18252 ], [ 78.36781, 19.18133 ] ] ] ] } },
{ "type": "Feature", "properties": { "OBJECTID": 4936, "state_lgd": "36", "state_name": "TELANGANA", "district_lgd": "700", "district_name": "NIRMAL", "district_name_source": "district_table", "subdistrict_lgd": "07034", "subdistrict_name": "NIRMAL(URBAN)", "subdistrict_type": "", "name_corrupted": false, "remarks": "", "label_lon": 78.343641013891769, "label_lat": 19.106276825425081 }, "geometry": { "type": "Polygon", "coordinates": [ [ [ 78.37186, 19.14461 ], [ 78.36574, 19.13279 ], [ 78.3631, 19.13342 ], [ 78.3563, 19.1323 ], [ 78.35809, 19.12566 ], [ 78.35724, 19.1221 ], [ 78.35985, 19.12226 ], [ 78.36038, 19.1203 ], [ 78.36604, 19.1157 ], [ 78.36575, 19.1121 ], [ 78.36274, 19.10824 ], [ 78.35697, 19.10832 ], [ 78.35676, 19.10262 ], [ 78.35843, 19.09556 ], [ 78.35159, 19.09422 ], [ 78.35481, 19.08341 ], [ 78.36059, 19.07488 ], [ 78.35574, 19.07146 ], [ 78.35677, 19.06841 ], [ 78.35605, 19.0653 ], [ 78.34983, 19.06393 ], [ 78.34464, 19.0644 ], [ 78.34092, 19.06144 ], [ 78.33715, 19.06067 ], [ 78.33685, 19.06607 ], [ 78.33561, 19.0694 ], [ 78.32922, 19.07732 ], [ 78.33832, 19.08454 ], [ 78.33301, 19.09279 ], [ 78.32266, 19.09782 ], [ 78.31939, 19.09682 ], [ 78.31787, 19.09992 ], [ 78.31772, 19.1027 ], [ 78.31998, 19.11098 ], [ 78.31996, 19.12035 ], [ 78.32158, 19.12555 ], [ 78.32449, 19.12876 ], [ 78.32726, 19.12827 ], [ 78.3353, 19.13291 ], [ 78.34459, 19.13504 ], [ 78.34922, 19.13934 ], [ 78.35105, 19.14291 ], [ 78.35445, 19.14524 ], [ 78.36058, 19.14588 ], [ 78.37186, 19.14461 ] ] ] } },
{ "type": "Feature", "properties": { "OBJECTID": 4937, "state_lgd": "36", "state_name": "TELANGANA", "district_lgd": "700", "district_name": "NIRMAL", "district_name_source": "district_table", "subdistrict_lgd": "07036", "subdistrict_name": "PEMBI", "subdistrict_type": "", "name_corrupted": false, "remarks": "", "label_lon": 78.614598263978891, "label_lat": 19.220012828885192 }, "geometry": { "type": "Polygon", "coordinates": [ [ [ 78.70652, 19.26578 ], [ 78.70611, 19.25753 ], [ 78.70858, 19.25508 ], [ 78.70906, 19.25223 ], [ 78.707, 19.24549 ], [ 78.70736, 19.23944 ], [ 78.70616, 19.23292 ], [ 78.70559, 19.21752 ], [ 78.70394, 19.21229 ], [ 78.70407, 19.19793 ], [ 78.70275, 19.19211 ], [ 78.69944, 19.18864 ], [ 78.69591, 19.18266 ], [ 78.69024, 19.18183 ], [ 78.68258, 19.18386 ], [ 78.67868, 19.18625 ], [ 78.67715, 19.1862 ], [ 78.67188, 19.1844 ], [ 78.67024, 19.18056 ], [ 78.66064, 19.17534 ], [ 78.65266, 19.16659 ], [ 78.64761, 19.15973 ], [ 78.6455, 19.15555 ], [ 78.64503, 19.14619 ], [ 78.64001, 19.14244 ], [ 78.63705, 19.13603 ], [ 78.63675, 19.13477 ], [ 78.63952, 19.13341 ], [ 78.65069, 19.1327 ], [ 78.65344, 19.11362 ], [ 78.65184, 19.10812 ], [ 78.65175, 19.10432 ], [ 78.65317, 19.09896 ], [ 78.64605, 19.10191 ], [ 78.63792, 19.10731 ], [ 78.63039, 19.11423 ], [ 78.62741, 19.11583 ], [ 78.62244, 19.11423 ], [ 78.62094, 19.11191 ], [ 78.61653, 19.11017 ], [ 78.61212, 19.11112 ], [ 78.60485, 19.11441 ], [ 78.59855, 19.115 ], [ 78.59759, 19.11736 ], [ 78.5976, 19.12048 ], [ 78.59938, 19.13136 ], [ 78.60791, 19.13317 ], [ 78.6081, 19.13417 ], [ 78.60658, 19.13622 ], [ 78.60615, 19.13916 ], [ 78.60734, 19.13975 ], [ 78.60637, 19.14166 ], [ 78.60657, 19.14333 ], [ 78.60578, 19.14323 ], [ 78.60595, 19.14475 ], [ 78.60612, 19.14554 ], [ 78.60778, 19.14585 ], [ 78.60874, 19.14768 ], [ 78.60732, 19.15089 ], [ 78.6089, 19.15431 ], [ 78.61251, 19.15661 ], [ 78.61399, 19.15932 ], [ 78.61422, 19.1645 ], [ 78.60714, 19.17735 ], [ 78.60205, 19.1814 ], [ 78.6003, 19.18808 ], [ 78.59633, 19.1956 ], [ 78.5891, 19.20259 ], [ 78.58687, 19.20701 ], [ 78.58495, 19.20042 ], [ 78.57536, 19.1931 ], [ 78.57331, 19.18721 ], [ 78.57098, 19.18401 ], [ 78.5686, 19.18287 ], [ 78.56183, 19.18199 ], [ 78.55742, 19.17953 ], [ 78.55528, 19.15673 ], [ 78.55125, 19.15715 ], [ 78.54367, 19.16055 ], [ 78.5352, 19.16704 ], [ 78.5325, 19.16852 ], [ 78.52983, 19.16878 ], [ 78.5315, 19.15702 ], [ 78.53438, 19.15353 ], [ 78.53459, 19.15201 ], [ 78.53316, 19.14672 ], [ 78.53357, 19.14057 ], [ 78.53011, 19.1336 ], [ 78.52269, 19.14147 ], [ 78.52024, 19.14239 ], [ 78.51554, 19.15457 ], [ 78.51604, 19.16508 ], [ 78.5117, 19.16708 ], [ 78.50762, 19.17728 ], [ 78.50164, 19.18387 ], [ 78.48668, 19.18347 ], [ 78.48599, 19.19443 ], [ 78.49412, 19.20137 ], [ 78.5057, 19.20421 ], [ 78.50948, 19.21494 ], [ 78.5191, 19.22637 ], [ 78.51793, 19.24564 ], [ 78.52189, 19.25082 ], [ 78.52571, 19.25517 ], [ 78.54739, 19.26218 ], [ 78.57036, 19.28665 ], [ 78.58454, 19.28953 ], [ 78.58776, 19.28821 ], [ 78.60116, 19.27701 ], [ 78.6103, 19.26532 ], [ 78.61543, 19.26123 ], [ 78.61791, 19.27038 ], [ 78.62116, 19.27427 ], [ 78.65108, 19.30028 ], [ 78.6742, 19.31633 ], [ 78.69073, 19.3089 ], [ 78.69989, 19.30375 ], [ 78.70605, 19.29911 ], [ 78.71431, 19.29048 ], [ 78.71934, 19.28395 ], [ 78.71849, 19.2792 ], [ 78.71654, 19.27756 ], [ 78.71317, 19.27652 ], [ 78.7111, 19.27414 ], [ 78.70972, 19.26967 ], [ 78.70652, 19.26578 ] ] ] } },
{ "type": "Feature", "properties": { "OBJECTID": 4938, "state_lgd": "36", "state_name": "TELANGANA", "district_lgd": "700", "district_name": "NIRMAL", "district_name_source": "district_table", "subdistrict_lgd": "04336", "subdistrict_name": "SARANGAPUR", "subdistrict_type": "", "name_corrupted": false, "remarks": "", "label_lon": 78.256449610646328, "label_lat": 19.21060464907011 }, "geometry": { "type": "Polygon", "coordinates": [ [ [ 78.20279, 19.30748 ], [ 78.2076, 19.30732 ], [ 78.21256, 19.31025 ], [ 78.21576, 19.31076 ], [ 78.2182, 19.31267 ], [ 78.22098, 19.31079 ], [ 78.23031, 19.30906 ], [ 78.23749, 19.30561 ], [ 78.24217, 19.30192 ], [ 78.24786, 19.29277 ], [ 78.24854, 19.29052 ], [ 78.25242, 19.29079 ], [ 78.26159, 19.28895 ], [ 78.27038, 19.28193 ], [ 78.27169, 19.27958 ], [ 78.27238, 19.27222 ], [ 78.27382, 19.26764 ], [ 78.27551, 19.26609 ], [ 78.28112, 19.2647 ], [ 78.28807, 19.26514 ], [ 78.29283, 19.26396 ], [ 78.29573, 19.26277 ], [ 78.29946, 19.25957 ], [ 78.30106, 19.2528 ], [ 78.30103, 19.24664 ], [ 78.30445, 19.24333 ], [ 78.30531, 19.24152 ], [ 78.304, 19.23592 ], [ 78.30749, 19.23453 ], [ 78.30931, 19.23166 ], [ 78.30814, 19.22971 ], [ 78.31002, 19.22325 ], [ 78.31342, 19.22151 ], [ 78.31783, 19.2154 ], [ 78.32078, 19.21373 ], [ 78.32441, 19.21287 ], [ 78.33013, 19.20708 ], [ 78.33819, 19.20796 ], [ 78.34007, 19.20581 ], [ 78.34167, 19.20581 ], [ 78.34433, 19.20754 ], [ 78.34724, 19.20743 ], [ 78.35118, 19.20504 ], [ 78.35339, 19.19905 ], [ 78.35443, 19.19867 ], [ 78.35693, 19.19799 ], [ 78.36019, 19.20053 ], [ 78.36303, 19.20005 ], [ 78.36518, 19.19529 ], [ 78.36572, 19.19194 ], [ 78.36426, 19.18818 ], [ 78.36524, 19.1865 ], [ 78.36837, 19.18447 ], [ 78.36939, 19.18247 ], [ 78.37107, 19.18212 ], [ 78.36781, 19.18133 ], [ 78.36244, 19.18214 ], [ 78.35461, 19.18529 ], [ 78.35291, 19.18706 ], [ 78.35062, 19.19497 ], [ 78.34649, 19.18426 ], [ 78.34163, 19.1794 ], [ 78.33905, 19.17366 ], [ 78.33907, 19.16669 ], [ 78.34283, 19.16564 ], [ 78.34002, 19.15651 ], [ 78.34041, 19.14885 ], [ 78.34684, 19.14709 ], [ 78.35105, 19.14291 ], [ 78.34922, 19.13934 ], [ 78.34459, 19.13504 ], [ 78.3353, 19.13291 ], [ 78.32583, 19.1281 ], [ 78.32398, 19.12977 ], [ 78.32526, 19.13602 ], [ 78.31903, 19.13099 ], [ 78.31107, 19.12746 ], [ 78.30705, 19.12849 ], [ 78.30568, 19.12598 ], [ 78.30222, 19.12489 ], [ 78.29959, 19.12447 ], [ 78.29623, 19.12515 ], [ 78.29376, 19.12455 ], [ 78.2936, 19.12799 ], [ 78.29482, 19.13336 ], [ 78.2938, 19.13795 ], [ 78.28548, 19.14461 ], [ 78.28499, 19.15115 ], [ 78.28274, 19.15294 ], [ 78.27928, 19.15093 ], [ 78.27378, 19.1461 ], [ 78.27123, 19.13964 ], [ 78.26523, 19.13567 ], [ 78.26255, 19.12912 ], [ 78.25683, 19.12593 ], [ 78.24828, 19.1181 ], [ 78.24576, 19.11844 ], [ 78.24238, 19.1207 ], [ 78.24149, 19.12543 ], [ 78.23322, 19.12626 ], [ 78.23578, 19.13081 ], [ 78.23486, 19.13717 ], [ 78.22456, 19.13845 ], [ 78.2208, 19.14053 ], [ 78.21931, 19.14231 ], [ 78.22106, 19.14944 ], [ 78.22093, 19.15021 ], [ 78.21936, 19.15067 ], [ 78.21942, 19.15269 ], [ 78.21147, 19.15208 ], [ 78.20188, 19.15863 ], [ 78.20217, 19.15914 ], [ 78.20061, 19.15927 ], [ 78.20071, 19.16068 ], [ 78.19967, 19.1611 ], [ 78.19891, 19.15991 ], [ 78.1924, 19.16362 ], [ 78.19025, 19.16603 ], [ 78.18761, 19.16347 ], [ 78.18218, 19.16658 ], [ 78.18815, 19.17637 ], [ 78.18743, 19.17988 ], [ 78.1879, 19.18195 ], [ 78.18554, 19.19198 ], [ 78.18662, 19.19914 ], [ 78.18797, 19.19525 ], [ 78.20849, 19.19166 ], [ 78.20979, 19.19268 ], [ 78.20244, 19.198 ], [ 78.2029, 19.19927 ], [ 78.20812, 19.20003 ], [ 78.21162, 19.20169 ], [ 78.21477, 19.20053 ], [ 78.21407, 19.20361 ], [ 78.2123, 19.20613 ], [ 78.21153, 19.20541 ], [ 78.21065, 19.20618 ], [ 78.20889, 19.20526 ], [ 78.20458, 19.20522 ], [ 78.20425, 19.20969 ], [ 78.20147, 19.21423 ], [ 78.19528, 19.21258 ], [ 78.19222, 19.21419 ], [ 78.19071, 19.21374 ], [ 78.18719, 19.20833 ], [ 78.18299, 19.21643 ], [ 78.18449, 19.22936 ], [ 78.17782, 19.23659 ], [ 78.17671, 19.24052 ], [ 78.17702, 19.24216 ], [ 78.18177, 19.24762 ], [ 78.17798, 19.25391 ], [ 78.17964, 19.25886 ], [ 78.17671, 19.26294 ], [ 78.17817, 19.2725 ], [ 78.17667, 19.27855 ], [ 78.17875, 19.27954 ], [ 78.17951, 19.28244 ], [ 78.18121, 19.28309 ], [ 78.18311, 19.28518 ], [ 78.18624, 19.29627 ], [ 78.1937, 19.31448 ], [ 78.19324, 19.31714 ], [ 78.19615, 19.31566 ], [ 78.19743, 19.30922 ], [ 78.20279, 19.30748 ] ] ] } },
{ "type": "Feature", "properties": { "OBJECTID": 4939, "state_lgd": "36", "state_name": "TELANGANA", "district_lgd": "700", "district_name": "NIRMAL", "district_name_source": "district_table", "subdistrict_lgd": "07035", "subdistrict_name": "SOAN", "subdistrict_type": "", "name_corrupted": false, "remarks": "", "label_lon": 78.338626534635083, "label_lat": 19.008117307294658 }, "geometry": { "type": "Polygon", "coordinates": [ [ [ 78.40687, 19.04883 ], [ 78.411, 19.04682 ], [ 78.41212, 19.04452 ], [ 78.41092, 19.04233 ], [ 78.41034, 19.03517 ], [ 78.40928, 19.03438 ], [ 78.40782, 19.02595 ], [ 78.41184, 19.02198 ], [ 78.41205, 19.01863 ], [ 78.41687, 19.01585 ], [ 78.41634, 19.01322 ], [ 78.41379, 19.01226 ], [ 78.41325, 19.01107 ], [ 78.40975, 19.00878 ], [ 78.41084, 19.0066 ], [ 78.40916, 19.00411 ], [ 78.40151, 19.00346 ], [ 78.38576, 18.9983 ], [ 78.37657, 18.99833 ], [ 78.37119, 18.99623 ], [ 78.36422, 18.98971 ], [ 78.35929, 18.98796 ], [ 78.35495, 18.98473 ], [ 78.34604, 18.97386 ], [ 78.34054, 18.96925 ], [ 78.33576, 18.96599 ], [ 78.32784, 18.96414 ], [ 78.32265, 18.96163 ], [ 78.31459, 18.95217 ], [ 78.3111, 18.95018 ], [ 78.30255, 18.94845 ], [ 78.29369, 18.94434 ], [ 78.28611, 18.94274 ], [ 78.2826, 18.94374 ], [ 78.27887, 18.94672 ], [ 78.27698, 18.95487 ], [ 78.27779, 18.96886 ], [ 78.27615, 18.97351 ], [ 78.27708, 18.97662 ], [ 78.28046, 18.98168 ], [ 78.2811, 18.98389 ], [ 78.28029, 18.98751 ], [ 78.27786, 18.99209 ], [ 78.28222, 18.99541 ], [ 78.28594, 19.00084 ], [ 78.28562, 19.00145 ], [ 78.28826, 19.00119 ], [ 78.29041, 19.00203 ], [ 78.29646, 19.00674 ], [ 78.29976, 19.01936 ], [ 78.3002, 19.02397 ], [ 78.30544, 19.0314 ], [ 78.30133, 19.03404 ], [ 78.30002, 19.03661 ], [ 78.29943, 19.04099 ], [ 78.30054, 19.04427 ], [ 78.30768, 19.05446 ], [ 78.31458, 19.05689 ], [ 78.32519, 19.04671 ], [ 78.33955, 19.04159 ], [ 78.34123, 19.0403 ], [ 78.34553, 19.0436 ], [ 78.34369, 19.04717 ], [ 78.33804, 19.05073 ], [ 78.33603, 19.0538 ], [ 78.33715, 19.06067 ], [ 78.34092, 19.06144 ], [ 78.34464, 19.0644 ], [ 78.34983, 19.06393 ], [ 78.3565, 19.06581 ], [ 78.36035, 19.06138 ], [ 78.36392, 19.05869 ], [ 78.37148, 19.05653 ], [ 78.37163, 19.05345 ], [ 78.3701, 19.04907 ], [ 78.37111, 19.04451 ], [ 78.37292, 19.04426 ], [ 78.37759, 19.04592 ], [ 78.3807, 19.04525 ], [ 78.38993, 19.04621 ], [ 78.39422, 19.04594 ], [ 78.39823, 19.04469 ], [ 78.40135, 19.04683 ], [ 78.406, 19.04718 ], [ 78.40687, 19.04883 ] ] ] } },
{ "type": "Feature", "properties": { "OBJECTID": 4940, "state_lgd": "36", "state_name": "TELANGANA", "district_lgd": "700", "district_name": "NIRMAL", "district_name_source": "district_table", "subdistrict_lgd": "04340", "subdistrict_name": "TANOOR", "subdistrict_type": "", "name_corrupted": false, "remarks": "", "label_lon": 77.843303767844574, "label_lat": 19.035796371671324 }, "geometry": { "type": "Polygon", "coordinates": [ [ [ 77.89697, 19.14407 ], [ 77.90091, 19.12572 ], [ 77.8966, 19.11262 ], [ 77.89536, 19.1029 ], [ 77.89244, 19.09682 ], [ 77.9078, 19.08454 ], [ 77.90739, 19.08098 ], [ 77.90686, 19.07934 ], [ 77.88823, 19.07548 ], [ 77.88212, 19.06904 ], [ 77.87911, 19.06991 ], [ 77.87593, 19.07263 ], [ 77.88264, 19.05597 ], [ 77.88749, 19.05477 ], [ 77.88833, 19.0501 ], [ 77.89165, 19.04364 ], [ 77.89236, 19.03973 ], [ 77.89738, 19.03357 ], [ 77.89826, 19.03021 ], [ 77.90071, 19.0263 ], [ 77.90053, 19.02455 ], [ 77.89938, 19.02237 ], [ 77.89593, 19.01961 ], [ 77.89558, 19.01311 ], [ 77.89364, 19.0111 ], [ 77.89312, 19.0089 ], [ 77.88874, 19.00389 ], [ 77.8914, 19.00016 ], [ 77.88849, 18.99853 ], [ 77.88952, 18.99544 ], [ 77.887, 18.99368 ], [ 77.88371, 18.99279 ], [ 77.88308, 18.99185 ], [ 77.88146, 18.99176 ], [ 77.88026, 18.98972 ], [ 77.87816, 18.98905 ], [ 77.87649, 18.9857 ], [ 77.87787, 18.98352 ], [ 77.88141, 18.98122 ], [ 77.88159, 18.97963 ], [ 77.87957, 18.96887 ], [ 77.87556, 18.95888 ], [ 77.87431, 18.94717 ], [ 77.87514, 18.94564 ], [ 77.87476, 18.94484 ], [ 77.87661, 18.9456 ], [ 77.87645, 18.94434 ], [ 77.87931, 18.94196 ], [ 77.88108, 18.93881 ], [ 77.88515, 18.93737 ], [ 77.88425, 18.93255 ], [ 77.88056, 18.92729 ], [ 77.87827, 18.92234 ], [ 77.87839, 18.91815 ], [ 77.87394, 18.90767 ], [ 77.87317, 18.90393 ], [ 77.86818, 18.90433 ], [ 77.86338, 18.90264 ], [ 77.85567, 18.90264 ], [ 77.84315, 18.90922 ], [ 77.84791, 18.9269 ], [ 77.85146, 18.92641 ], [ 77.85282, 18.9331 ], [ 77.85859, 18.94911 ], [ 77.84194, 18.94987 ], [ 77.83562, 18.94725 ], [ 77.83245, 18.94163 ], [ 77.81925, 18.94586 ], [ 77.81623, 18.94728 ], [ 77.81984, 18.95444 ], [ 77.81621, 18.95752 ], [ 77.81784, 18.96022 ], [ 77.82176, 18.97851 ], [ 77.80522, 18.98186 ], [ 77.79114, 18.98282 ], [ 77.78967, 18.97458 ], [ 77.78763, 18.97265 ], [ 77.7715, 18.97916 ], [ 77.77416, 18.99738 ], [ 77.77535, 19.00063 ], [ 77.77224, 19.00363 ], [ 77.77034, 19.00996 ], [ 77.76927, 19.01998 ], [ 77.76992, 19.0224 ], [ 77.76718, 19.02292 ], [ 77.76556, 19.0243 ], [ 77.76485, 19.02705 ], [ 77.76282, 19.02903 ], [ 77.76179, 19.033 ], [ 77.76225, 19.03795 ], [ 77.76495, 19.04714 ], [ 77.76539, 19.05544 ], [ 77.76458, 19.06156 ], [ 77.76481, 19.06265 ], [ 77.77523, 19.05602 ], [ 77.7891, 19.05567 ], [ 77.79331, 19.05257 ], [ 77.80035, 19.05112 ], [ 77.79979, 19.0581 ], [ 77.7986, 19.06145 ], [ 77.8001, 19.06685 ], [ 77.79677, 19.07091 ], [ 77.7968, 19.07259 ], [ 77.79786, 19.07516 ], [ 77.79876, 19.07473 ], [ 77.80167, 19.07618 ], [ 77.80281, 19.07975 ], [ 77.80458, 19.09181 ], [ 77.80316, 19.09443 ], [ 77.80312, 19.09617 ], [ 77.80453, 19.10056 ], [ 77.81095, 19.10517 ], [ 77.81289, 19.10467 ], [ 77.81727, 19.10553 ], [ 77.81814, 19.10498 ], [ 77.82242, 19.10052 ], [ 77.82358, 19.09773 ], [ 77.82641, 19.09664 ], [ 77.82768, 19.09178 ], [ 77.82912, 19.09034 ], [ 77.82953, 19.08707 ], [ 77.83127, 19.08608 ], [ 77.8423, 19.08801 ], [ 77.84902, 19.08679 ], [ 77.84909, 19.08849 ], [ 77.8504, 19.08856 ], [ 77.85108, 19.09203 ], [ 77.84621, 19.10131 ], [ 77.84713, 19.10862 ], [ 77.84837, 19.11013 ], [ 77.84767, 19.11601 ], [ 77.84156, 19.11811 ], [ 77.83791, 19.12722 ], [ 77.83688, 19.13401 ], [ 77.83406, 19.13431 ], [ 77.83566, 19.13808 ], [ 77.83795, 19.13765 ], [ 77.84323, 19.14158 ], [ 77.85219, 19.15412 ], [ 77.85248, 19.15602 ], [ 77.8611, 19.15588 ], [ 77.87011, 19.15416 ], [ 77.87282, 19.15709 ], [ 77.8706, 19.16553 ], [ 77.87461, 19.16295 ], [ 77.87895, 19.16339 ], [ 77.88227, 19.15673 ], [ 77.88451, 19.15452 ], [ 77.88957, 19.152 ], [ 77.89083, 19.14875 ], [ 77.89697, 19.14407 ] ] ] } }
]
}
