{
"type": "FeatureCollection",
"name": "714_JAGTIAL",
"crs": { "type": "name", "properties": { "name": "urn:ogc:def:crs:OGC:1.3:CRS84" } },
"xy_coordinate_resolution": 1e-05,
"features": [
{ "type": "Feature", "properties": { "OBJECTID": 4637, "state_lgd": "36", "state_name": "TELANGANA", "district_lgd": "714", "district_name": "JAGTIAL", "district_name_source": "district_table", "subdistrict_lgd": "07056", "subdistrict_name": "BEERPUR", "subdistrict_type": "", "name_corrupted": false, "remarks": "", "label_lon": 78.967190250085196, "label_lat": 19.027151489532375 }, "geometry": { "type": "Polygon", "coordinates": [ [ [ 78.96335, 19.0777 ], [ 78.97483, 19.07614 ], [ 78.9788, 19.07388 ], [ 78.98811, 19.07205 ], [ 79.00052, 19.07462 ], [ 79.00514, 19.07419 ], [ 79.0096, 19.07243 ], [ 79.01294, 19.07357 ], [ 79.01737, 19.073 ], [ 79.01869, 19.07544 ], [ 79.02196, 19.07575 ], [ 79.02495, 19.07443 ], [ 79.0209, 19.06973 ], [ 79.01562, 19.06959 ], [ 79.00916, 19.05757 ], [ 79.00831, 19.05293 ], [ 79.00589, 19.04946 ], [ 79.02051, 19.04481 ], [ 79.01542, 19.03893 ], [ 79.01436, 19.0327 ], [ 79.01508, 19.03172 ], [ 79.01823, 19.0313 ], [ 79.01832, 19.02386 ], [ 79.01747, 19.01856 ], [ 79.00603, 19.00083 ], [ 79.00458, 19.00037 ], [ 79.0095, 18.99976 ], [ 79.0117, 19.0008 ], [ 79.01706, 18.99997 ], [ 79.0189, 18.99736 ], [ 79.01875, 18.99561 ], [ 79.0129, 18.98338 ], [ 79.01252, 18.97896 ], [ 79.0095, 18.9704 ], [ 79.01071, 18.96502 ], [ 79.00226, 18.96537 ], [ 78.99698, 18.96698 ], [ 78.99554, 18.96923 ], [ 78.98563, 18.97702 ], [ 78.97506, 18.98115 ], [ 78.975, 18.98459 ], [ 78.97413, 18.98507 ], [ 78.97145, 18.984 ], [ 78.96306, 18.98944 ], [ 78.96128, 18.98845 ], [ 78.95736, 18.98984 ], [ 78.95417, 18.99592 ], [ 78.94601, 18.99774 ], [ 78.93945, 19.00369 ], [ 78.92188, 19.00587 ], [ 78.88956, 19.01159 ], [ 78.88843, 19.04168 ], [ 78.88984, 19.04316 ], [ 78.90288, 19.03373 ], [ 78.91085, 19.03052 ], [ 78.91387, 19.03069 ], [ 78.91566, 19.03308 ], [ 78.91759, 19.03418 ], [ 78.91867, 19.03778 ], [ 78.92047, 19.0406 ], [ 78.92246, 19.04197 ], [ 78.92481, 19.04836 ], [ 78.93138, 19.0571 ], [ 78.93577, 19.06146 ], [ 78.9399, 19.06303 ], [ 78.94115, 19.06564 ], [ 78.95121, 19.07615 ], [ 78.95343, 19.07713 ], [ 78.95756, 19.07622 ], [ 78.96335, 19.0777 ] ] ] } },
{ "type": "Feature", "properties": { "OBJECTID": 4638, "state_lgd": "36", "state_name": "TELANGANA", "district_lgd": "714", "district_name": "JAGTIAL", "district_name_source": "district_table", "subdistrict_lgd": "04415N001", "subdistrict_name": "BHEEMARAM", "subdistrict_type": "", "name_corrupted": false, "remarks": "", "label_lon": 78.782943737066745, "label_lat": 18.696294449696477 }, "geometry": { "type": "Polygon", "coordinates": [ [ [ 78.80626, 18.75089 ], [ 78.80587, 18.73753 ], [ 78.8088, 18.73745 ], [ 78.81091, 18.73637 ], [ 78.81359, 18.73345 ], [ 78.82134, 18.72839 ], [ 78.82462, 18.72803 ], [ 78.82705, 18.72475 ], [ 78.83185, 18.72511 ], [ 78.83435, 18.72388 ], [ 78.83686, 18.71916 ], [ 78.83628, 18.71725 ], [ 78.85111, 18.70804 ], [ 78.84971, 18.7059 ], [ 78.84606, 18.70567 ], [ 78.84239, 18.70279 ], [ 78.8444, 18.69378 ], [ 78.8443, 18.69027 ], [ 78.84897, 18.6863 ], [ 78.84708, 18.68187 ], [ 78.83771, 18.68459 ], [ 78.82338, 18.68568 ], [ 78.81596, 18.68161 ], [ 78.80878, 18.68001 ], [ 78.80663, 18.66888 ], [ 78.80932, 18.66482 ], [ 78.80203, 18.65658 ], [ 78.78488, 18.63352 ], [ 78.78716, 18.63084 ], [ 78.79156, 18.62082 ], [ 78.76934, 18.62039 ], [ 78.76055, 18.61888 ], [ 78.75468, 18.62671 ], [ 78.75404, 18.63377 ], [ 78.75015, 18.6401 ], [ 78.75068, 18.64393 ], [ 78.74996, 18.64567 ], [ 78.75254, 18.65454 ], [ 78.75201, 18.65819 ], [ 78.74983, 18.6601 ], [ 78.74402, 18.66013 ], [ 78.74368, 18.66166 ], [ 78.7448, 18.66556 ], [ 78.74402, 18.67048 ], [ 78.74472, 18.67298 ], [ 78.74976, 18.68089 ], [ 78.74843, 18.68369 ], [ 78.74866, 18.68782 ], [ 78.74779, 18.68946 ], [ 78.7478, 18.69963 ], [ 78.74351, 18.70201 ], [ 78.74204, 18.70402 ], [ 78.73699, 18.7056 ], [ 78.73473, 18.70524 ], [ 78.73073, 18.70736 ], [ 78.73093, 18.70866 ], [ 78.7381, 18.71529 ], [ 78.74147, 18.7225 ], [ 78.73905, 18.7258 ], [ 78.73173, 18.73218 ], [ 78.73378, 18.74475 ], [ 78.73308, 18.74772 ], [ 78.72987, 18.75085 ], [ 78.7304, 18.75362 ], [ 78.7314, 18.75446 ], [ 78.73441, 18.75389 ], [ 78.74016, 18.75022 ], [ 78.74506, 18.74861 ], [ 78.75275, 18.74937 ], [ 78.75778, 18.74774 ], [ 78.76138, 18.75056 ], [ 78.76746, 18.74593 ], [ 78.77287, 18.74023 ], [ 78.77537, 18.74056 ], [ 78.77761, 18.74154 ], [ 78.78717, 18.74952 ], [ 78.78751, 18.75256 ], [ 78.79186, 18.75683 ], [ 78.79159, 18.7595 ], [ 78.79229, 18.76066 ], [ 78.80037, 18.77028 ], [ 78.8027, 18.76429 ], [ 78.80818, 18.75669 ], [ 78.80771, 18.75322 ], [ 78.80626, 18.75089 ] ] ] } },
{ "type": "Feature", "properties": { "OBJECTID": 4639, "state_lgd": "36", "state_name": "TELANGANA", "district_lgd": "714", "district_name": "JAGTIAL", "district_name_source": "district_table", "subdistrict_lgd": "07057", "subdistrict_name": "BUGGARAM", "subdistrict_type": "", "name_corrupted": false, "remarks": "", "label_lon": 79.062779575925177, "label_lat": 18.870287205038878 }, "geometry": { "type": "Polygon", "coordinates": [ [ [ 79.06742, 18.89953 ], [ 79.06702, 18.89125 ], [ 79.07788, 18.89113 ], [ 79.08969, 18.89335 ], [ 79.0995, 18.89225 ], [ 79.10554, 18.89073 ], [ 79.113, 18.8861 ], [ 79.12565, 18.88202 ], [ 79.12969, 18.87981 ], [ 79.12763, 18.87643 ], [ 79.12883, 18.87522 ], [ 79.12664, 18.87226 ], [ 79.12582, 18.86548 ], [ 79.1226, 18.86531 ], [ 79.12253, 18.85852 ], [ 79.12331, 18.85578 ], [ 79.12271, 18.85417 ], [ 79.11577, 18.84673 ], [ 79.1097, 18.84828 ], [ 79.10339, 18.84732 ], [ 79.09899, 18.8531 ], [ 79.09189, 18.85333 ], [ 79.08927, 18.85588 ], [ 79.08595, 18.85584 ], [ 79.08362, 18.85143 ], [ 79.08584, 18.84886 ], [ 79.08605, 18.84682 ], [ 79.07734, 18.83721 ], [ 79.07424, 18.83534 ], [ 79.06593, 18.83679 ], [ 79.05105, 18.8424 ], [ 79.04873, 18.84543 ], [ 79.03884, 18.83895 ], [ 79.03632, 18.83347 ], [ 79.03452, 18.82525 ], [ 79.03167, 18.82247 ], [ 79.02778, 18.82232 ], [ 79.02206, 18.82386 ], [ 79.01349, 18.82897 ], [ 79.01677, 18.84865 ], [ 79.02519, 18.86247 ], [ 79.02598, 18.86749 ], [ 79.02441, 18.8697 ], [ 79.01813, 18.87441 ], [ 79.01579, 18.87937 ], [ 79.01317, 18.88128 ], [ 79.01354, 18.88668 ], [ 79.01146, 18.89408 ], [ 79.01462, 18.89672 ], [ 79.01946, 18.89894 ], [ 79.02643, 18.8999 ], [ 79.02995, 18.89967 ], [ 79.03245, 18.89858 ], [ 79.03407, 18.89982 ], [ 79.04122, 18.90976 ], [ 79.04356, 18.91914 ], [ 79.05348, 18.91769 ], [ 79.05967, 18.91533 ], [ 79.06584, 18.9115 ], [ 79.06742, 18.89953 ] ] ] } },
{ "type": "Feature", "properties": { "OBJECTID": 4640, "state_lgd": "36", "state_name": "TELANGANA", "district_lgd": "714", "district_name": "JAGTIAL", "district_name_source": "district_table", "subdistrict_lgd": "04397", "subdistrict_name": "DHARMAPURI", "subdistrict_type": "", "name_corrupted": false, "remarks": "", "label_lon": 79.062526683883306, "label_lat": 18.962954843455275 }, "geometry": { "type": "Polygon", "coordinates": [ [ [ 79.04682, 19.05816 ], [ 79.04925, 19.05871 ], [ 79.05764, 19.05348 ], [ 79.06593, 19.04954 ], [ 79.07525, 19.04076 ], [ 79.08122, 19.03199 ], [ 79.08302, 19.02583 ], [ 79.08548, 19.02319 ], [ 79.09057, 19.01023 ], [ 79.08953, 19.00084 ], [ 79.09225, 18.98932 ], [ 79.09596, 18.98183 ], [ 79.10134, 18.97474 ], [ 79.10417, 18.96823 ], [ 79.10308, 18.95789 ], [ 79.10429, 18.95198 ], [ 79.10679, 18.94702 ], [ 79.11305, 18.93985 ], [ 79.11829, 18.93589 ], [ 79.12411, 18.92973 ], [ 79.13051, 18.92179 ], [ 79.15241, 18.90432 ], [ 79.16079, 18.89384 ], [ 79.15611, 18.89134 ], [ 79.14746, 18.88141 ], [ 79.14411, 18.87906 ], [ 79.14075, 18.8783 ], [ 79.13856, 18.87909 ], [ 79.13232, 18.87862 ], [ 79.12565, 18.88202 ], [ 79.113, 18.8861 ], [ 79.10554, 18.89073 ], [ 79.09483, 18.89306 ], [ 79.08725, 18.89323 ], [ 79.07788, 18.89113 ], [ 79.06702, 18.89125 ], [ 79.06765, 18.89632 ], [ 79.06584, 18.9115 ], [ 79.05839, 18.91594 ], [ 79.0497, 18.91852 ], [ 79.04356, 18.91914 ], [ 79.04122, 18.90976 ], [ 79.03543, 18.90124 ], [ 79.03245, 18.89858 ], [ 79.02995, 18.89967 ], [ 79.02214, 18.89957 ], [ 79.01462, 18.89672 ], [ 79.01146, 18.89408 ], [ 79.01025, 18.89569 ], [ 78.99219, 18.9072 ], [ 78.99498, 18.91897 ], [ 79.00811, 18.92741 ], [ 79.01087, 18.93187 ], [ 79.01098, 18.95255 ], [ 79.01165, 18.95774 ], [ 79.0111, 18.96426 ], [ 79.00935, 18.96925 ], [ 79.01252, 18.97896 ], [ 79.0129, 18.98338 ], [ 79.01897, 18.99653 ], [ 79.01706, 18.99997 ], [ 79.0117, 19.0008 ], [ 79.0095, 18.99976 ], [ 79.00458, 19.00037 ], [ 79.00603, 19.00083 ], [ 79.01747, 19.01856 ], [ 79.01832, 19.02386 ], [ 79.01823, 19.0313 ], [ 79.01508, 19.03172 ], [ 79.01436, 19.0327 ], [ 79.01542, 19.03893 ], [ 79.02051, 19.04481 ], [ 79.00589, 19.04946 ], [ 79.00831, 19.05293 ], [ 79.00916, 19.05757 ], [ 79.01562, 19.06959 ], [ 79.0209, 19.06973 ], [ 79.02495, 19.07443 ], [ 79.02711, 19.07108 ], [ 79.03708, 19.06302 ], [ 79.04682, 19.05816 ] ] ] } },
{ "type": "Feature", "properties": { "OBJECTID": 4641, "state_lgd": "36", "state_name": "TELANGANA", "district_lgd": "714", "district_name": "JAGTIAL", "district_name_source": "district_table", "subdistrict_lgd": "07304", "subdistrict_name": "ENDAPALLI", "subdistrict_type": "", "name_corrupted": false, "remarks": "", "label_lon": 79.206188331467118, "label_lat": 18.77492071836593 }, "geometry": { "type": "Polygon", "coordinates": [ [ [ 79.16912, 18.81981 ], [ 79.17245, 18.82003 ], [ 79.18442, 18.81506 ], [ 79.17992, 18.80803 ], [ 79.1839, 18.80914 ], [ 79.19026, 18.80924 ], [ 79.19229, 18.80834 ], [ 79.19782, 18.80338 ], [ 79.20115, 18.8023 ], [ 79.20591, 18.80565 ], [ 79.20584, 18.80318 ], [ 79.20658, 18.80276 ], [ 79.20469, 18.79772 ], [ 79.20454, 18.79393 ], [ 79.205, 18.78982 ], [ 79.20633, 18.78957 ], [ 79.21745, 18.79152 ], [ 79.22228, 18.79127 ], [ 79.22809, 18.78964 ], [ 79.2325, 18.78964 ], [ 79.2363, 18.79117 ], [ 79.24174, 18.79067 ], [ 79.24414, 18.79194 ], [ 79.2486, 18.79192 ], [ 79.2518, 18.79348 ], [ 79.25425, 18.79371 ], [ 79.25701, 18.79713 ], [ 79.27598, 18.79279 ], [ 79.28197, 18.79507 ], [ 79.28792, 18.79534 ], [ 79.28865, 18.79653 ], [ 79.28829, 18.79783 ], [ 79.28972, 18.79964 ], [ 79.29385, 18.79842 ], [ 79.29609, 18.80126 ], [ 79.29568, 18.80579 ], [ 79.29798, 18.81158 ], [ 79.30175, 18.81673 ], [ 79.3075, 18.81539 ], [ 79.29669, 18.78053 ], [ 79.29134, 18.7773 ], [ 79.28987, 18.76339 ], [ 79.29399, 18.75125 ], [ 79.29483, 18.74476 ], [ 79.28154, 18.74319 ], [ 79.27552, 18.74684 ], [ 79.27827, 18.75108 ], [ 79.27225, 18.75229 ], [ 79.26473, 18.75781 ], [ 79.26187, 18.76251 ], [ 79.25715, 18.76466 ], [ 79.25333, 18.76361 ], [ 79.25269, 18.76172 ], [ 79.25021, 18.7597 ], [ 79.24601, 18.75982 ], [ 79.24309, 18.75768 ], [ 79.23629, 18.75494 ], [ 79.2305, 18.7497 ], [ 79.22799, 18.74896 ], [ 79.2176, 18.74895 ], [ 79.21599, 18.74937 ], [ 79.21505, 18.75121 ], [ 79.20978, 18.75241 ], [ 79.20238, 18.75284 ], [ 79.18797, 18.7521 ], [ 79.17563, 18.75329 ], [ 79.16293, 18.75566 ], [ 79.16005, 18.75087 ], [ 79.15028, 18.72565 ], [ 79.14218, 18.72535 ], [ 79.13835, 18.7333 ], [ 79.13481, 18.73532 ], [ 79.1312, 18.73447 ], [ 79.13256, 18.74435 ], [ 79.12609, 18.75083 ], [ 79.12921, 18.76979 ], [ 79.13012, 18.77065 ], [ 79.13152, 18.77551 ], [ 79.13487, 18.77742 ], [ 79.13572, 18.78347 ], [ 79.13744, 18.78826 ], [ 79.1403, 18.79072 ], [ 79.14733, 18.79398 ], [ 79.15142, 18.79681 ], [ 79.15307, 18.80178 ], [ 79.15374, 18.80918 ], [ 79.15497, 18.81085 ], [ 79.16238, 18.81579 ], [ 79.16708, 18.82203 ], [ 79.16912, 18.81981 ] ] ] } },
{ "type": "Feature", "properties": { "OBJECTID": 4642, "state_lgd": "36", "state_name": "TELANGANA", "district_lgd": "714", "district_name": "JAGTIAL", "district_name_source": "district_table", "subdistrict_lgd": "04412", "subdistrict_name": "GOLLAPALLI", "subdistrict_type": "", "name_corrupted": false, "remarks": "", "label_lon": 79.065516511087139, "label_lat": 18.795534594820992 }, "geometry": { "type": "Polygon", "coordinates": [ [ [ 79.1027, 18.84759 ], [ 79.1097, 18.84828 ], [ 79.11577, 18.84673 ], [ 79.11982, 18.85051 ], [ 79.12331, 18.85578 ], [ 79.13416, 18.85441 ], [ 79.13549, 18.85226 ], [ 79.13592, 18.83904 ], [ 79.13674, 18.8369 ], [ 79.13949, 18.83559 ], [ 79.13499, 18.83194 ], [ 79.13441, 18.82958 ], [ 79.13412, 18.81207 ], [ 79.15356, 18.80838 ], [ 79.15307, 18.80178 ], [ 79.15142, 18.79681 ], [ 79.14733, 18.79398 ], [ 79.1403, 18.79072 ], [ 79.13706, 18.78769 ], [ 79.13487, 18.77742 ], [ 79.13152, 18.77551 ], [ 79.13012, 18.77065 ], [ 79.12921, 18.76979 ], [ 79.12609, 18.75083 ], [ 79.10405, 18.75979 ], [ 79.10131, 18.75593 ], [ 79.10067, 18.75174 ], [ 79.09708, 18.75278 ], [ 79.08635, 18.75296 ], [ 79.07048, 18.75178 ], [ 79.07002, 18.75449 ], [ 79.06815, 18.75738 ], [ 79.06306, 18.75587 ], [ 79.05802, 18.75563 ], [ 79.05158, 18.7573 ], [ 79.04728, 18.75991 ], [ 79.04891, 18.75087 ], [ 79.04784, 18.74933 ], [ 79.04948, 18.74695 ], [ 79.04446, 18.74564 ], [ 79.04092, 18.74659 ], [ 79.03599, 18.74923 ], [ 79.03437, 18.75288 ], [ 79.0329, 18.75386 ], [ 79.02493, 18.75227 ], [ 79.02153, 18.75234 ], [ 79.01856, 18.75341 ], [ 79.01562, 18.75785 ], [ 79.01538, 18.76237 ], [ 79.01259, 18.76796 ], [ 79.00992, 18.7631 ], [ 79.0033, 18.75509 ], [ 78.99085, 18.74606 ], [ 78.98194, 18.74623 ], [ 78.97287, 18.74458 ], [ 78.96939, 18.74869 ], [ 78.96836, 18.75187 ], [ 78.95761, 18.76047 ], [ 78.95601, 18.76364 ], [ 78.95741, 18.76378 ], [ 78.9634, 18.76833 ], [ 78.97242, 18.76946 ], [ 78.97697, 18.77174 ], [ 78.98813, 18.77224 ], [ 78.9895, 18.77322 ], [ 78.98809, 18.7829 ], [ 78.99065, 18.79293 ], [ 78.99398, 18.79527 ], [ 78.99911, 18.79737 ], [ 79.00305, 18.80445 ], [ 79.0011, 18.81238 ], [ 78.9984, 18.8189 ], [ 78.99905, 18.82315 ], [ 79.00836, 18.82942 ], [ 79.01031, 18.83049 ], [ 79.01196, 18.83021 ], [ 79.02206, 18.82386 ], [ 79.02778, 18.82232 ], [ 79.03167, 18.82247 ], [ 79.03452, 18.82525 ], [ 79.03632, 18.83347 ], [ 79.03884, 18.83895 ], [ 79.04873, 18.84543 ], [ 79.05105, 18.8424 ], [ 79.06593, 18.83679 ], [ 79.07424, 18.83534 ], [ 79.07734, 18.83721 ], [ 79.08605, 18.84682 ], [ 79.08584, 18.84886 ], [ 79.08362, 18.85143 ], [ 79.08538, 18.8553 ], [ 79.08689, 18.85613 ], [ 79.08927, 18.85588 ], [ 79.09189, 18.85333 ], [ 79.09899, 18.8531 ], [ 79.1027, 18.84759 ] ] ] } },
{ "type": "Feature", "properties": { "OBJECTID": 4643, "state_lgd": "36", "state_name": "TELANGANA", "district_lgd": "714", "district_name": "JAGTIAL", "district_name_source": "district_table", "subdistrict_lgd": "04393", "subdistrict_name": "IBRAHIMPATNAM", "subdistrict_type": "", "name_corrupted": false, "remarks": "", "label_lon": 78.582963532337587, "label_lat": 18.921368049221002 }, "geometry": { "type": "Polygon", "coordinates": [ [ [ 78.60583, 18.98599 ], [ 78.61338, 18.98295 ], [ 78.63669, 18.97815 ], [ 78.63561, 18.97318 ], [ 78.6319, 18.96508 ], [ 78.6319, 18.96287 ], [ 78.64215, 18.95247 ], [ 78.64313, 18.93746 ], [ 78.63703, 18.92027 ], [ 78.63691, 18.91455 ], [ 78.63759, 18.90966 ], [ 78.64409, 18.89864 ], [ 78.64123, 18.89467 ], [ 78.64036, 18.88915 ], [ 78.63576, 18.88129 ], [ 78.63448, 18.87755 ], [ 78.63455, 18.87542 ], [ 78.63274, 18.8719 ], [ 78.62918, 18.86905 ], [ 78.6221, 18.86865 ], [ 78.61982, 18.87071 ], [ 78.61388, 18.87274 ], [ 78.60873, 18.88334 ], [ 78.60149, 18.88806 ], [ 78.59639, 18.89028 ], [ 78.59382, 18.88837 ], [ 78.58946, 18.88129 ], [ 78.58021, 18.87617 ], [ 78.58034, 18.8738 ], [ 78.57916, 18.8697 ], [ 78.58009, 18.8675 ], [ 78.58334, 18.86643 ], [ 78.58546, 18.85988 ], [ 78.59052, 18.85697 ], [ 78.59196, 18.85525 ], [ 78.59152, 18.84705 ], [ 78.57962, 18.84378 ], [ 78.57857, 18.84256 ], [ 78.57072, 18.84794 ], [ 78.56535, 18.85567 ], [ 78.56096, 18.85782 ], [ 78.56138, 18.84961 ], [ 78.56007, 18.847 ], [ 78.55321, 18.84122 ], [ 78.54828, 18.83455 ], [ 78.54144, 18.83947 ], [ 78.54009, 18.84574 ], [ 78.53735, 18.84422 ], [ 78.54336, 18.85982 ], [ 78.5412, 18.86103 ], [ 78.54176, 18.86347 ], [ 78.54049, 18.86451 ], [ 78.53886, 18.8756 ], [ 78.53612, 18.88449 ], [ 78.53274, 18.8856 ], [ 78.5264, 18.88965 ], [ 78.52093, 18.89 ], [ 78.51987, 18.88943 ], [ 78.51417, 18.89252 ], [ 78.51893, 18.90069 ], [ 78.51794, 18.90332 ], [ 78.51916, 18.90443 ], [ 78.52097, 18.92298 ], [ 78.52308, 18.92552 ], [ 78.525, 18.92994 ], [ 78.5268, 18.92893 ], [ 78.52803, 18.93035 ], [ 78.52596, 18.93246 ], [ 78.52593, 18.93897 ], [ 78.52839, 18.94292 ], [ 78.53262, 18.94333 ], [ 78.53663, 18.9423 ], [ 78.53697, 18.94602 ], [ 78.54608, 18.94581 ], [ 78.5483, 18.9465 ], [ 78.55149, 18.9542 ], [ 78.55396, 18.97182 ], [ 78.5562, 18.97714 ], [ 78.56659, 18.98812 ], [ 78.57501, 18.99388 ], [ 78.57967, 18.9993 ], [ 78.58845, 19.00536 ], [ 78.59613, 18.99794 ], [ 78.59724, 18.99516 ], [ 78.60583, 18.98599 ] ] ] } },
{ "type": "Feature", "properties": { "OBJECTID": 4644, "state_lgd": "36", "state_name": "TELANGANA", "district_lgd": "714", "district_name": "JAGTIAL", "district_name_source": "district_table", "subdistrict_lgd": "04414", "subdistrict_name": "JAGTIAL", "subdistrict_type": "", "name_corrupted": false, "remarks": "", "label_lon": 78.916792193452522, "label_lat": 18.797958073849212 }, "geometry": { "type": "Polygon", "coordinates": [ [ [ 78.9421, 18.84697 ], [ 78.94201, 18.83821 ], [ 78.94471, 18.83532 ], [ 78.94932, 18.82726 ], [ 78.95227, 18.82406 ], [ 78.95406, 18.81845 ], [ 78.95618, 18.81485 ], [ 78.95623, 18.81328 ], [ 78.95089, 18.8131 ], [ 78.94782, 18.81213 ], [ 78.94558, 18.8095 ], [ 78.94229, 18.80834 ], [ 78.94025, 18.80969 ], [ 78.93729, 18.80796 ], [ 78.93431, 18.80296 ], [ 78.93381, 18.7993 ], [ 78.94395, 18.80164 ], [ 78.95562, 18.80224 ], [ 78.95015, 18.78935 ], [ 78.94672, 18.78857 ], [ 78.9314, 18.78152 ], [ 78.93083, 18.78379 ], [ 78.92994, 18.78439 ], [ 78.92722, 18.78324 ], [ 78.92654, 18.78399 ], [ 78.92536, 18.78862 ], [ 78.92217, 18.78635 ], [ 78.91909, 18.78047 ], [ 78.92094, 18.77459 ], [ 78.91853, 18.7732 ], [ 78.91627, 18.77042 ], [ 78.91787, 18.76246 ], [ 78.91754, 18.76067 ], [ 78.91245, 18.75518 ], [ 78.90193, 18.76509 ], [ 78.89802, 18.76505 ], [ 78.89605, 18.76388 ], [ 78.89532, 18.76738 ], [ 78.89188, 18.76826 ], [ 78.89145, 18.77101 ], [ 78.88536, 18.76978 ], [ 78.87504, 18.77074 ], [ 78.87346, 18.77304 ], [ 78.8684, 18.77716 ], [ 78.86713, 18.78506 ], [ 78.87583, 18.78749 ], [ 78.8915, 18.80148 ], [ 78.89533, 18.80226 ], [ 78.89686, 18.80009 ], [ 78.89804, 18.79971 ], [ 78.9015, 18.80265 ], [ 78.90055, 18.80589 ], [ 78.90274, 18.80608 ], [ 78.90613, 18.80467 ], [ 78.90622, 18.80646 ], [ 78.91566, 18.81127 ], [ 78.91673, 18.81483 ], [ 78.91618, 18.82029 ], [ 78.91853, 18.82406 ], [ 78.92292, 18.82877 ], [ 78.92323, 18.83065 ], [ 78.92689, 18.83128 ], [ 78.92776, 18.83249 ], [ 78.92842, 18.83692 ], [ 78.92988, 18.83793 ], [ 78.93235, 18.83775 ], [ 78.93189, 18.84134 ], [ 78.93253, 18.84271 ], [ 78.93497, 18.84577 ], [ 78.93757, 18.84636 ], [ 78.93663, 18.85089 ], [ 78.94488, 18.85387 ], [ 78.94408, 18.84976 ], [ 78.9421, 18.84697 ] ] ] } },
{ "type": "Feature", "properties": { "OBJECTID": 4645, "state_lgd": "36", "state_name": "TELANGANA", "district_lgd": "714", "district_name": "JAGTIAL", "district_name_source": "district_table", "subdistrict_lgd": "07058", "subdistrict_name": "JAGTIAL RURAL", "subdistrict_type": "", "name_corrupted": false, "remarks": "", "label_lon": 78.969911630687875, "label_lat": 18.821420688715165 }, "geometry": { "type": "MultiPolygon", "coordinates": [ [ [ [ 78.90749, 18.85921 ], [ 78.90561, 18.8533 ], [ 78.90695, 18.85013 ], [ 78.9278, 18.84668 ], [ 78.93068, 18.84744 ], [ 78.93663, 18.85089 ], [ 78.93757, 18.84636 ], [ 78.93497, 18.84577 ], [ 78.93253, 18.84271 ], [ 78.93189, 18.84134 ], [ 78.93235, 18.83775 ], [ 78.92988, 18.83793 ], [ 78.92842, 18.83692 ], [ 78.92776, 18.83249 ], [ 78.92689, 18.83128 ], [ 78.92323, 18.83065 ], [ 78.92292, 18.82877 ], [ 78.91853, 18.82406 ], [ 78.91618, 18.82029 ], [ 78.91673, 18.81483 ], [ 78.91566, 18.81127 ], [ 78.90622, 18.80646 ], [ 78.90613, 18.80467 ], [ 78.90274, 18.80608 ], [ 78.90055, 18.80589 ], [ 78.9015, 18.80265 ], [ 78.89804, 18.79971 ], [ 78.89686, 18.80009 ], [ 78.89533, 18.80226 ], [ 78.8915, 18.80148 ], [ 78.87583, 18.78749 ], [ 78.86713, 18.78506 ], [ 78.8684, 18.77716 ], [ 78.87346, 18.77304 ], [ 78.87504, 18.77074 ], [ 78.88536, 18.76978 ], [ 78.89145, 18.77101 ], [ 78.89188, 18.76826 ], [ 78.89532, 18.76738 ], [ 78.89646, 18.76393 ], [ 78.893, 18.75896 ], [ 78.88014, 18.74934 ], [ 78.88057, 18.7473 ], [ 78.87932, 18.74564 ], [ 78.87896, 18.74199 ], [ 78.87758, 18.74025 ], [ 78.86956, 18.74811 ], [ 78.86778, 18.75084 ], [ 78.86955, 18.76117 ], [ 78.86227, 18.76885 ], [ 78.85469, 18.77449 ], [ 78.8464, 18.77806 ], [ 78.84286, 18.7787 ], [ 78.84185, 18.78154 ], [ 78.8381, 18.78519 ], [ 78.83162, 18.79637 ], [ 78.83134, 18.80667 ], [ 78.83266, 18.81031 ], [ 78.83244, 18.81394 ], [ 78.83511, 18.81883 ], [ 78.83679, 18.81997 ], [ 78.83657, 18.83164 ], [ 78.83762, 18.83381 ], [ 78.83809, 18.8423 ], [ 78.84563, 18.84258 ], [ 78.84922, 18.84413 ], [ 78.85311, 18.84083 ], [ 78.8602, 18.84033 ], [ 78.86473, 18.83697 ], [ 78.86869, 18.83562 ], [ 78.87219, 18.83566 ], [ 78.88669, 18.84812 ], [ 78.88956, 18.85232 ], [ 78.89811, 18.8589 ], [ 78.90128, 18.85829 ], [ 78.90334, 18.85929 ], [ 78.90749, 18.85921 ] ] ], [ [ [ 79.02576, 18.86428 ], [ 79.01677, 18.84865 ], [ 79.01349, 18.82897 ], [ 79.01031, 18.83049 ], [ 78.99905, 18.82315 ], [ 78.9984, 18.8189 ], [ 79.0011, 18.81238 ], [ 79.00305, 18.80445 ], [ 78.99911, 18.79737 ], [ 78.99398, 18.79527 ], [ 78.99065, 18.79293 ], [ 78.98809, 18.7829 ], [ 78.9895, 18.77322 ], [ 78.98813, 18.77224 ], [ 78.97697, 18.77174 ], [ 78.97242, 18.76946 ], [ 78.9634, 18.76833 ], [ 78.95741, 18.76378 ], [ 78.95246, 18.76436 ], [ 78.95139, 18.75858 ], [ 78.95162, 18.75557 ], [ 78.95255, 18.75258 ], [ 78.95528, 18.75056 ], [ 78.95488, 18.74671 ], [ 78.95197, 18.74314 ], [ 78.94618, 18.74091 ], [ 78.93707, 18.72792 ], [ 78.93379, 18.72599 ], [ 78.9288, 18.72767 ], [ 78.92247, 18.72806 ], [ 78.91598, 18.73504 ], [ 78.9123, 18.73523 ], [ 78.91129, 18.74788 ], [ 78.90806, 18.74953 ], [ 78.91754, 18.76067 ], [ 78.91787, 18.76246 ], [ 78.91627, 18.77042 ], [ 78.91853, 18.7732 ], [ 78.92094, 18.77459 ], [ 78.91909, 18.78047 ], [ 78.92217, 18.78635 ], [ 78.92536, 18.78862 ], [ 78.92654, 18.78399 ], [ 78.92722, 18.78324 ], [ 78.92994, 18.78439 ], [ 78.93083, 18.78379 ], [ 78.9314, 18.78152 ], [ 78.94672, 18.78857 ], [ 78.95015, 18.78935 ], [ 78.95562, 18.80224 ], [ 78.94395, 18.80164 ], [ 78.93381, 18.7993 ], [ 78.93431, 18.80296 ], [ 78.93729, 18.80796 ], [ 78.94025, 18.80969 ], [ 78.94229, 18.80834 ], [ 78.94558, 18.8095 ], [ 78.94782, 18.81213 ], [ 78.95089, 18.8131 ], [ 78.95623, 18.81328 ], [ 78.95618, 18.81485 ], [ 78.95406, 18.81845 ], [ 78.95227, 18.82406 ], [ 78.94932, 18.82726 ], [ 78.94471, 18.83532 ], [ 78.94201, 18.83821 ], [ 78.9421, 18.84697 ], [ 78.94408, 18.84976 ], [ 78.94488, 18.85387 ], [ 78.94612, 18.85491 ], [ 78.95009, 18.85486 ], [ 78.94879, 18.85959 ], [ 78.94182, 18.87405 ], [ 78.94513, 18.87668 ], [ 78.95578, 18.87991 ], [ 78.96555, 18.86297 ], [ 78.97056, 18.8601 ], [ 78.97225, 18.86398 ], [ 78.96666, 18.89596 ], [ 78.96745, 18.8968 ], [ 78.9749, 18.89832 ], [ 78.97873, 18.90134 ], [ 78.98742, 18.90598 ], [ 78.99219, 18.9072 ], [ 79.01101, 18.89478 ], [ 79.01354, 18.88668 ], [ 79.01317, 18.88128 ], [ 79.01579, 18.87937 ], [ 79.01813, 18.87441 ], [ 79.02441, 18.8697 ], [ 79.02595, 18.86756 ], [ 79.02576, 18.86428 ] ] ] ] } },
{ "type": "Feature", "properties": { "OBJECTID": 4646, "state_lgd": "36", "state_name": "TELANGANA", "district_lgd": "714", "district_name": "JAGTIAL", "district_name_source": "district_table", "subdistrict_lgd": "04418", "subdistrict_name": "KATHLAPUR", "subdistrict_type": "", "name_corrupted": false, "remarks": "", "label_lon": 78.692122310411705, "label_lat": 18.711358281268964 }, "geometry": { "type": "Polygon", "coordinates": [ [ [ 78.66271, 18.79257 ], [ 78.68573, 18.78791 ], [ 78.69191, 18.78932 ], [ 78.70228, 18.78927 ], [ 78.70296, 18.78827 ], [ 78.70327, 18.7832 ], [ 78.70445, 18.7806 ], [ 78.71345, 18.77866 ], [ 78.71871, 18.78036 ], [ 78.72471, 18.77947 ], [ 78.74111, 18.78206 ], [ 78.7507, 18.77634 ], [ 78.76357, 18.77644 ], [ 78.76247, 18.77551 ], [ 78.757, 18.76439 ], [ 78.75855, 18.76189 ], [ 78.76182, 18.75101 ], [ 78.75923, 18.74948 ], [ 78.75837, 18.74809 ], [ 78.75454, 18.74831 ], [ 78.75275, 18.74937 ], [ 78.74869, 18.74858 ], [ 78.74357, 18.74881 ], [ 78.73441, 18.75389 ], [ 78.7314, 18.75446 ], [ 78.7304, 18.75362 ], [ 78.72987, 18.75085 ], [ 78.73157, 18.74969 ], [ 78.73364, 18.7463 ], [ 78.73173, 18.73218 ], [ 78.73905, 18.7258 ], [ 78.74147, 18.7225 ], [ 78.7381, 18.71529 ], [ 78.73093, 18.70866 ], [ 78.73073, 18.70736 ], [ 78.73473, 18.70524 ], [ 78.73699, 18.7056 ], [ 78.74204, 18.70402 ], [ 78.74351, 18.70201 ], [ 78.7478, 18.69963 ], [ 78.74779, 18.68946 ], [ 78.74866, 18.68782 ], [ 78.74843, 18.68369 ], [ 78.74976, 18.68089 ], [ 78.74472, 18.67298 ], [ 78.74402, 18.67048 ], [ 78.7448, 18.66556 ], [ 78.74368, 18.66166 ], [ 78.74402, 18.66013 ], [ 78.74983, 18.6601 ], [ 78.75201, 18.65819 ], [ 78.75254, 18.65454 ], [ 78.74996, 18.64567 ], [ 78.75068, 18.64393 ], [ 78.75, 18.64078 ], [ 78.75404, 18.63377 ], [ 78.75447, 18.63049 ], [ 78.74865, 18.63135 ], [ 78.74535, 18.62984 ], [ 78.73059, 18.63037 ], [ 78.72712, 18.63199 ], [ 78.72551, 18.63165 ], [ 78.7235, 18.63293 ], [ 78.72233, 18.63219 ], [ 78.72115, 18.63249 ], [ 78.71738, 18.63475 ], [ 78.71535, 18.63747 ], [ 78.7091, 18.63915 ], [ 78.70612, 18.64107 ], [ 78.69667, 18.64184 ], [ 78.69005, 18.63286 ], [ 78.68815, 18.63397 ], [ 78.68801, 18.63304 ], [ 78.68456, 18.63436 ], [ 78.68337, 18.63185 ], [ 78.66989, 18.62333 ], [ 78.6643, 18.63354 ], [ 78.65278, 18.63867 ], [ 78.6379, 18.67224 ], [ 78.63709, 18.67328 ], [ 78.63384, 18.67258 ], [ 78.63308, 18.67337 ], [ 78.63164, 18.67792 ], [ 78.6357, 18.68975 ], [ 78.6372, 18.69051 ], [ 78.63992, 18.69747 ], [ 78.64081, 18.70185 ], [ 78.63998, 18.70711 ], [ 78.64098, 18.71402 ], [ 78.63955, 18.72036 ], [ 78.63718, 18.72333 ], [ 78.63339, 18.725 ], [ 78.63358, 18.72961 ], [ 78.63481, 18.73406 ], [ 78.63705, 18.73728 ], [ 78.63781, 18.74325 ], [ 78.64095, 18.74346 ], [ 78.64138, 18.74495 ], [ 78.63937, 18.74874 ], [ 78.63984, 18.751 ], [ 78.63743, 18.75318 ], [ 78.63297, 18.75672 ], [ 78.62202, 18.76185 ], [ 78.62032, 18.76373 ], [ 78.62431, 18.76232 ], [ 78.62777, 18.76397 ], [ 78.62923, 18.7675 ], [ 78.63053, 18.76792 ], [ 78.6378, 18.76669 ], [ 78.63916, 18.76775 ], [ 78.64071, 18.77176 ], [ 78.63997, 18.77406 ], [ 78.64072, 18.77849 ], [ 78.64356, 18.78172 ], [ 78.64356, 18.78591 ], [ 78.64517, 18.78974 ], [ 78.64474, 18.79287 ], [ 78.64936, 18.79692 ], [ 78.66271, 18.79257 ] ] ] } },
{ "type": "Feature", "properties": { "OBJECTID": 4647, "state_lgd": "36", "state_name": "TELANGANA", "district_lgd": "714", "district_name": "JAGTIAL", "district_name_source": "district_table", "subdistrict_lgd": "04420", "subdistrict_name": "KODMIAL", "subdistrict_type": "", "name_corrupted": false, "remarks": "", "label_lon": 78.887880190781061, "label_lat": 18.628957310841312 }, "geometry": { "type": "Polygon", "coordinates": [ [ [ 78.84708, 18.68187 ], [ 78.8694, 18.68112 ], [ 78.87423, 18.68146 ], [ 78.87726, 18.68346 ], [ 78.88039, 18.68064 ], [ 78.89812, 18.68253 ], [ 78.90705, 18.68141 ], [ 78.9158, 18.67746 ], [ 78.93137, 18.66445 ], [ 78.93892, 18.65556 ], [ 78.95081, 18.64922 ], [ 78.9704, 18.64723 ], [ 78.97731, 18.64978 ], [ 78.98206, 18.65988 ], [ 78.98296, 18.6602 ], [ 78.98635, 18.6559 ], [ 78.98598, 18.65508 ], [ 78.98841, 18.64995 ], [ 78.98734, 18.648 ], [ 78.98505, 18.64742 ], [ 78.9808, 18.64341 ], [ 78.98188, 18.64285 ], [ 78.98181, 18.64205 ], [ 78.9798, 18.63992 ], [ 78.97705, 18.62816 ], [ 78.97265, 18.62076 ], [ 78.97075, 18.61301 ], [ 78.96852, 18.61207 ], [ 78.96773, 18.60899 ], [ 78.97099, 18.60564 ], [ 78.97503, 18.59587 ], [ 78.98097, 18.59586 ], [ 78.98, 18.59198 ], [ 78.98299, 18.58349 ], [ 78.98874, 18.57746 ], [ 78.98949, 18.57622 ], [ 78.9884, 18.57562 ], [ 78.9894, 18.57388 ], [ 78.9832, 18.56854 ], [ 78.98088, 18.57086 ], [ 78.97673, 18.57308 ], [ 78.97575, 18.57466 ], [ 78.96907, 18.57611 ], [ 78.96772, 18.57746 ], [ 78.95709, 18.57671 ], [ 78.95327, 18.57913 ], [ 78.95373, 18.5802 ], [ 78.94855, 18.58066 ], [ 78.93915, 18.58379 ], [ 78.93062, 18.57169 ], [ 78.92881, 18.56618 ], [ 78.92661, 18.56598 ], [ 78.92422, 18.57013 ], [ 78.91939, 18.57251 ], [ 78.9163, 18.57534 ], [ 78.91253, 18.57231 ], [ 78.91077, 18.57011 ], [ 78.90717, 18.56079 ], [ 78.90446, 18.55117 ], [ 78.90283, 18.54999 ], [ 78.90084, 18.55247 ], [ 78.9014, 18.55401 ], [ 78.89994, 18.5546 ], [ 78.90039, 18.55787 ], [ 78.89712, 18.55933 ], [ 78.89897, 18.56288 ], [ 78.89724, 18.56477 ], [ 78.90011, 18.57111 ], [ 78.9015, 18.57773 ], [ 78.89331, 18.59707 ], [ 78.88613, 18.59663 ], [ 78.87997, 18.59094 ], [ 78.87368, 18.58675 ], [ 78.87154, 18.58731 ], [ 78.86278, 18.59254 ], [ 78.85519, 18.58736 ], [ 78.84209, 18.59096 ], [ 78.83396, 18.59495 ], [ 78.83176, 18.59634 ], [ 78.82458, 18.60467 ], [ 78.81523, 18.60575 ], [ 78.8124, 18.60465 ], [ 78.80059, 18.61219 ], [ 78.79156, 18.62082 ], [ 78.78716, 18.63084 ], [ 78.78488, 18.63352 ], [ 78.80203, 18.65658 ], [ 78.80932, 18.66482 ], [ 78.80663, 18.66888 ], [ 78.80878, 18.68001 ], [ 78.81596, 18.68161 ], [ 78.82338, 18.68568 ], [ 78.83771, 18.68459 ], [ 78.84708, 18.68187 ] ] ] } },
{ "type": "Feature", "properties": { "OBJECTID": 4648, "state_lgd": "36", "state_name": "TELANGANA", "district_lgd": "714", "district_name": "JAGTIAL", "district_name_source": "district_table", "subdistrict_lgd": "04416", "subdistrict_name": "KORATLA", "subdistrict_type": "", "name_corrupted": false, "remarks": "", "label_lon": 78.734926923167635, "label_lat": 18.839116664228516 }, "geometry": { "type": "Polygon", "coordinates": [ [ [ 78.72519, 18.88985 ], [ 78.73575, 18.87962 ], [ 78.7377, 18.88045 ], [ 78.74375, 18.88675 ], [ 78.75574, 18.89242 ], [ 78.75996, 18.89358 ], [ 78.76326, 18.89351 ], [ 78.76503, 18.89464 ], [ 78.76615, 18.89743 ], [ 78.76831, 18.89669 ], [ 78.77063, 18.89961 ], [ 78.77195, 18.9001 ], [ 78.77256, 18.89983 ], [ 78.77179, 18.89608 ], [ 78.77309, 18.8949 ], [ 78.77754, 18.89306 ], [ 78.78308, 18.89337 ], [ 78.78435, 18.88999 ], [ 78.78741, 18.88836 ], [ 78.78856, 18.88353 ], [ 78.78823, 18.87823 ], [ 78.78967, 18.87588 ], [ 78.79012, 18.87082 ], [ 78.79334, 18.86938 ], [ 78.79558, 18.86658 ], [ 78.79608, 18.86102 ], [ 78.79508, 18.85868 ], [ 78.79649, 18.85569 ], [ 78.79536, 18.85156 ], [ 78.80112, 18.84865 ], [ 78.79751, 18.84458 ], [ 78.79873, 18.83582 ], [ 78.79864, 18.83026 ], [ 78.79683, 18.82153 ], [ 78.79806, 18.82 ], [ 78.80512, 18.81862 ], [ 78.80586, 18.81702 ], [ 78.80435, 18.81359 ], [ 78.79587, 18.8039 ], [ 78.79412, 18.80123 ], [ 78.79356, 18.79796 ], [ 78.79248, 18.79771 ], [ 78.77943, 18.80398 ], [ 78.77134, 18.79939 ], [ 78.76371, 18.79698 ], [ 78.75446, 18.79186 ], [ 78.74871, 18.79025 ], [ 78.74111, 18.78206 ], [ 78.73753, 18.7813 ], [ 78.72471, 18.77947 ], [ 78.71871, 18.78036 ], [ 78.71345, 18.77866 ], [ 78.70445, 18.7806 ], [ 78.70327, 18.7832 ], [ 78.70296, 18.78827 ], [ 78.70228, 18.78927 ], [ 78.69191, 18.78932 ], [ 78.68573, 18.78791 ], [ 78.67609, 18.78981 ], [ 78.67577, 18.80698 ], [ 78.67659, 18.80969 ], [ 78.68072, 18.81574 ], [ 78.68106, 18.81958 ], [ 78.67822, 18.84175 ], [ 78.67522, 18.85089 ], [ 78.67136, 18.85486 ], [ 78.66625, 18.85654 ], [ 78.66669, 18.86819 ], [ 78.66891, 18.87347 ], [ 78.67203, 18.87739 ], [ 78.67503, 18.87882 ], [ 78.68564, 18.88143 ], [ 78.68976, 18.88072 ], [ 78.70587, 18.88285 ], [ 78.70857, 18.88191 ], [ 78.70793, 18.88565 ], [ 78.70881, 18.8929 ], [ 78.71244, 18.89944 ], [ 78.71769, 18.9042 ], [ 78.72271, 18.90191 ], [ 78.72519, 18.88985 ] ] ] } },
{ "type": "Feature", "properties": { "OBJECTID": 4649, "state_lgd": "36", "state_name": "TELANGANA", "district_lgd": "714", "district_name": "JAGTIAL", "district_name_source": "district_table", "subdistrict_lgd": "04394", "subdistrict_name": "MALLAPUR", "subdistrict_type": "", "name_corrupted": false, "remarks": "", "label_lon": 78.715217199496777, "label_lat": 18.962157806278597 }, "geometry": { "type": "Polygon", "coordinates": [ [ [ 78.80533, 19.04939 ], [ 78.81165, 19.04784 ], [ 78.81551, 19.04922 ], [ 78.81337, 19.04159 ], [ 78.81119, 19.01652 ], [ 78.80824, 19.00945 ], [ 78.79742, 19.00208 ], [ 78.79247, 18.99657 ], [ 78.79255, 18.985 ], [ 78.79353, 18.98082 ], [ 78.79312, 18.97164 ], [ 78.79162, 18.96719 ], [ 78.79348, 18.96021 ], [ 78.79131, 18.94906 ], [ 78.78021, 18.94665 ], [ 78.77762, 18.93859 ], [ 78.76722, 18.93084 ], [ 78.7568, 18.93201 ], [ 78.75251, 18.93422 ], [ 78.74866, 18.93429 ], [ 78.74661, 18.9322 ], [ 78.74533, 18.93211 ], [ 78.74293, 18.93426 ], [ 78.73717, 18.93412 ], [ 78.73142, 18.91986 ], [ 78.73141, 18.91736 ], [ 78.73304, 18.91308 ], [ 78.73865, 18.90761 ], [ 78.74115, 18.90618 ], [ 78.75834, 18.90246 ], [ 78.76375, 18.90031 ], [ 78.76607, 18.89864 ], [ 78.76503, 18.89464 ], [ 78.76326, 18.89351 ], [ 78.75996, 18.89358 ], [ 78.75574, 18.89242 ], [ 78.7487, 18.88946 ], [ 78.74375, 18.88675 ], [ 78.7377, 18.88045 ], [ 78.73575, 18.87962 ], [ 78.72694, 18.88741 ], [ 78.72519, 18.88985 ], [ 78.72271, 18.90191 ], [ 78.71769, 18.9042 ], [ 78.71244, 18.89944 ], [ 78.70881, 18.8929 ], [ 78.70793, 18.88565 ], [ 78.70857, 18.88191 ], [ 78.70587, 18.88285 ], [ 78.68976, 18.88072 ], [ 78.68564, 18.88143 ], [ 78.67503, 18.87882 ], [ 78.67203, 18.87739 ], [ 78.66839, 18.87185 ], [ 78.66617, 18.87233 ], [ 78.66438, 18.8741 ], [ 78.664, 18.87675 ], [ 78.6624, 18.87821 ], [ 78.65888, 18.87987 ], [ 78.65417, 18.88046 ], [ 78.64532, 18.89046 ], [ 78.64409, 18.89864 ], [ 78.63759, 18.90966 ], [ 78.63703, 18.92027 ], [ 78.64313, 18.93746 ], [ 78.64215, 18.95247 ], [ 78.6319, 18.96287 ], [ 78.6319, 18.96508 ], [ 78.63561, 18.97318 ], [ 78.63669, 18.97815 ], [ 78.64052, 18.98282 ], [ 78.64316, 18.98399 ], [ 78.65452, 18.99623 ], [ 78.66027, 19.00086 ], [ 78.66001, 19.00495 ], [ 78.66555, 19.01485 ], [ 78.6864, 19.03021 ], [ 78.69181, 19.03322 ], [ 78.701, 19.03606 ], [ 78.70942, 19.03252 ], [ 78.71668, 19.02774 ], [ 78.72368, 19.02541 ], [ 78.72688, 19.02308 ], [ 78.74024, 19.01708 ], [ 78.75664, 19.01134 ], [ 78.7623, 19.01146 ], [ 78.76729, 19.01542 ], [ 78.76955, 19.01412 ], [ 78.77019, 19.01452 ], [ 78.76944, 19.0201 ], [ 78.76833, 19.02123 ], [ 78.77083, 19.02993 ], [ 78.77247, 19.03243 ], [ 78.7788, 19.03768 ], [ 78.78879, 19.04344 ], [ 78.79061, 19.04325 ], [ 78.79845, 19.04811 ], [ 78.80533, 19.04939 ] ] ] } },
{ "type": "Feature", "properties": { "OBJECTID": 4650, "state_lgd": "36", "state_name": "TELANGANA", "district_lgd": "714", "district_name": "JAGTIAL", "district_name_source": "district_table", "subdistrict_lgd": "04413", "subdistrict_name": "MALLIAL", "subdistrict_type": "", "name_corrupted": false, "remarks": "", "label_lon": 78.929347150118545, "label_lat": 18.711889116375481 }, "geometry": { "type": "Polygon", "coordinates": [ [ [ 78.87758, 18.74025 ], [ 78.879, 18.7421 ], [ 78.87932, 18.74564 ], [ 78.88057, 18.7473 ], [ 78.87999, 18.74892 ], [ 78.88055, 18.74981 ], [ 78.893, 18.75896 ], [ 78.89646, 18.76393 ], [ 78.89802, 18.76505 ], [ 78.90104, 18.76525 ], [ 78.91245, 18.75518 ], [ 78.90806, 18.74953 ], [ 78.91129, 18.74788 ], [ 78.9123, 18.73523 ], [ 78.91598, 18.73504 ], [ 78.92247, 18.72806 ], [ 78.9288, 18.72767 ], [ 78.93379, 18.72599 ], [ 78.93707, 18.72792 ], [ 78.94618, 18.74091 ], [ 78.95197, 18.74314 ], [ 78.95488, 18.74671 ], [ 78.95528, 18.75056 ], [ 78.95255, 18.75258 ], [ 78.9514, 18.7572 ], [ 78.95193, 18.76368 ], [ 78.95324, 18.7646 ], [ 78.95601, 18.76364 ], [ 78.95761, 18.76047 ], [ 78.96836, 18.75187 ], [ 78.96939, 18.74869 ], [ 78.97228, 18.74468 ], [ 78.98194, 18.74623 ], [ 78.99085, 18.74606 ], [ 79.0033, 18.75509 ], [ 79.00992, 18.7631 ], [ 79.01259, 18.76796 ], [ 79.01538, 18.76237 ], [ 79.01562, 18.75785 ], [ 79.01856, 18.75341 ], [ 79.02153, 18.75234 ], [ 79.02493, 18.75227 ], [ 79.0329, 18.75386 ], [ 79.03437, 18.75288 ], [ 79.03599, 18.74923 ], [ 79.02077, 18.73873 ], [ 79.01321, 18.73235 ], [ 79.01105, 18.732 ], [ 79.01018, 18.72293 ], [ 79.00922, 18.72003 ], [ 79.01007, 18.7166 ], [ 79.00903, 18.71542 ], [ 79.00718, 18.71566 ], [ 79.00581, 18.71318 ], [ 79.00802, 18.70934 ], [ 79.00616, 18.70825 ], [ 79.00577, 18.70541 ], [ 79.00402, 18.70206 ], [ 79.00658, 18.6779 ], [ 79.00429, 18.67832 ], [ 78.99865, 18.67291 ], [ 78.99312, 18.67497 ], [ 78.98923, 18.67276 ], [ 78.98446, 18.66499 ], [ 78.98322, 18.66442 ], [ 78.98196, 18.6612 ], [ 78.98249, 18.66034 ], [ 78.97731, 18.64978 ], [ 78.9704, 18.64723 ], [ 78.95081, 18.64922 ], [ 78.94397, 18.65251 ], [ 78.93892, 18.65556 ], [ 78.93137, 18.66445 ], [ 78.9158, 18.67746 ], [ 78.90705, 18.68141 ], [ 78.89812, 18.68253 ], [ 78.88039, 18.68064 ], [ 78.87726, 18.68346 ], [ 78.87423, 18.68146 ], [ 78.8694, 18.68112 ], [ 78.84708, 18.68187 ], [ 78.84897, 18.6863 ], [ 78.8443, 18.69027 ], [ 78.8444, 18.69378 ], [ 78.84239, 18.70279 ], [ 78.84606, 18.70567 ], [ 78.84971, 18.7059 ], [ 78.85111, 18.70804 ], [ 78.83628, 18.71725 ], [ 78.83686, 18.71916 ], [ 78.83443, 18.72378 ], [ 78.83106, 18.72557 ], [ 78.83276, 18.73263 ], [ 78.84111, 18.73751 ], [ 78.83831, 18.74384 ], [ 78.84147, 18.74981 ], [ 78.84103, 18.7516 ], [ 78.84172, 18.75324 ], [ 78.85291, 18.77563 ], [ 78.86227, 18.76885 ], [ 78.86955, 18.76117 ], [ 78.86778, 18.75084 ], [ 78.86956, 18.74811 ], [ 78.87758, 18.74025 ] ] ] } },
{ "type": "Feature", "properties": { "OBJECTID": 4651, "state_lgd": "36", "state_name": "TELANGANA", "district_lgd": "714", "district_name": "JAGTIAL", "district_name_source": "district_table", "subdistrict_lgd": "04415", "subdistrict_name": "MEDIPALLI", "subdistrict_type": "", "name_corrupted": false, "remarks": "", "label_lon": 78.810426434373056, "label_lat": 18.800209010266027 }, "geometry": { "type": "Polygon", "coordinates": [ [ [ 78.8436, 18.87487 ], [ 78.8443, 18.87423 ], [ 78.84947, 18.87407 ], [ 78.85101, 18.86792 ], [ 78.85065, 18.86528 ], [ 78.85207, 18.86065 ], [ 78.85235, 18.85606 ], [ 78.85417, 18.85371 ], [ 78.8516, 18.85019 ], [ 78.84887, 18.84386 ], [ 78.84563, 18.84258 ], [ 78.83809, 18.8423 ], [ 78.83762, 18.83381 ], [ 78.83657, 18.83164 ], [ 78.83679, 18.81997 ], [ 78.83511, 18.81883 ], [ 78.83244, 18.81394 ], [ 78.83266, 18.81031 ], [ 78.83134, 18.80667 ], [ 78.83106, 18.80017 ], [ 78.83162, 18.79637 ], [ 78.83352, 18.79271 ], [ 78.83522, 18.79102 ], [ 78.8381, 18.78519 ], [ 78.84185, 18.78154 ], [ 78.84286, 18.7787 ], [ 78.85291, 18.77563 ], [ 78.84172, 18.75324 ], [ 78.84103, 18.7516 ], [ 78.84147, 18.74981 ], [ 78.83831, 18.74384 ], [ 78.84111, 18.73751 ], [ 78.83276, 18.73263 ], [ 78.83106, 18.72557 ], [ 78.83185, 18.72511 ], [ 78.82941, 18.72447 ], [ 78.82653, 18.72507 ], [ 78.82462, 18.72803 ], [ 78.82134, 18.72839 ], [ 78.81359, 18.73345 ], [ 78.81091, 18.73637 ], [ 78.8088, 18.73745 ], [ 78.80587, 18.73753 ], [ 78.80626, 18.75089 ], [ 78.80771, 18.75322 ], [ 78.80818, 18.75669 ], [ 78.8027, 18.76429 ], [ 78.80037, 18.77028 ], [ 78.79229, 18.76066 ], [ 78.79159, 18.7595 ], [ 78.79186, 18.75683 ], [ 78.78751, 18.75256 ], [ 78.78717, 18.74952 ], [ 78.77761, 18.74154 ], [ 78.77287, 18.74023 ], [ 78.76746, 18.74593 ], [ 78.76138, 18.75056 ], [ 78.76182, 18.75101 ], [ 78.76023, 18.75702 ], [ 78.757, 18.76439 ], [ 78.76247, 18.77551 ], [ 78.76357, 18.77644 ], [ 78.7507, 18.77634 ], [ 78.74111, 18.78206 ], [ 78.74871, 18.79025 ], [ 78.75446, 18.79186 ], [ 78.76371, 18.79698 ], [ 78.77134, 18.79939 ], [ 78.77943, 18.80398 ], [ 78.79248, 18.79771 ], [ 78.79356, 18.79796 ], [ 78.79412, 18.80123 ], [ 78.80435, 18.81359 ], [ 78.80586, 18.81702 ], [ 78.80512, 18.81862 ], [ 78.79806, 18.82 ], [ 78.79683, 18.82153 ], [ 78.79864, 18.83026 ], [ 78.79873, 18.83582 ], [ 78.79751, 18.84458 ], [ 78.80829, 18.85856 ], [ 78.80602, 18.86105 ], [ 78.80568, 18.86247 ], [ 78.8102, 18.86329 ], [ 78.81105, 18.86429 ], [ 78.81646, 18.87797 ], [ 78.82181, 18.88486 ], [ 78.82731, 18.88879 ], [ 78.82713, 18.89363 ], [ 78.8315, 18.89273 ], [ 78.84418, 18.88586 ], [ 78.8429, 18.88167 ], [ 78.844, 18.87807 ], [ 78.8436, 18.87487 ] ] ] } },
{ "type": "Feature", "properties": { "OBJECTID": 4652, "state_lgd": "36", "state_name": "TELANGANA", "district_lgd": "714", "district_name": "JAGTIAL", "district_name_source": "district_table", "subdistrict_lgd": "04417", "subdistrict_name": "METPALLI", "subdistrict_type": "", "name_corrupted": false, "remarks": "", "label_lon": 78.610791218633281, "label_lat": 18.808481931109743 }, "geometry": { "type": "Polygon", "coordinates": [ [ [ 78.65417, 18.88046 ], [ 78.65888, 18.87987 ], [ 78.6624, 18.87821 ], [ 78.664, 18.87675 ], [ 78.66438, 18.8741 ], [ 78.66617, 18.87233 ], [ 78.66839, 18.87185 ], [ 78.66669, 18.86819 ], [ 78.66625, 18.85654 ], [ 78.67136, 18.85486 ], [ 78.6747, 18.85183 ], [ 78.67822, 18.84175 ], [ 78.68106, 18.81958 ], [ 78.68072, 18.81574 ], [ 78.67659, 18.80969 ], [ 78.67577, 18.80698 ], [ 78.67609, 18.78981 ], [ 78.66271, 18.79257 ], [ 78.64936, 18.79692 ], [ 78.64474, 18.79287 ], [ 78.64517, 18.78974 ], [ 78.64356, 18.78591 ], [ 78.64356, 18.78172 ], [ 78.64072, 18.77849 ], [ 78.63997, 18.77406 ], [ 78.64071, 18.77176 ], [ 78.63916, 18.76775 ], [ 78.6378, 18.76669 ], [ 78.63053, 18.76792 ], [ 78.62923, 18.7675 ], [ 78.62777, 18.76397 ], [ 78.62431, 18.76232 ], [ 78.62032, 18.76373 ], [ 78.62202, 18.76185 ], [ 78.63297, 18.75672 ], [ 78.63984, 18.751 ], [ 78.63937, 18.74874 ], [ 78.64137, 18.74477 ], [ 78.64095, 18.74346 ], [ 78.63781, 18.74325 ], [ 78.63705, 18.73728 ], [ 78.63391, 18.73132 ], [ 78.63339, 18.725 ], [ 78.62864, 18.72782 ], [ 78.61747, 18.72978 ], [ 78.6174, 18.72875 ], [ 78.61471, 18.72998 ], [ 78.61294, 18.72825 ], [ 78.61125, 18.72859 ], [ 78.59064, 18.72563 ], [ 78.58169, 18.72304 ], [ 78.58049, 18.72632 ], [ 78.57675, 18.7299 ], [ 78.57122, 18.73847 ], [ 78.55833, 18.74025 ], [ 78.55277, 18.74274 ], [ 78.55139, 18.74748 ], [ 78.55163, 18.75088 ], [ 78.55364, 18.75353 ], [ 78.55652, 18.75427 ], [ 78.55746, 18.75602 ], [ 78.55431, 18.76509 ], [ 78.557, 18.76748 ], [ 78.55906, 18.77317 ], [ 78.5636, 18.77895 ], [ 78.5593, 18.78564 ], [ 78.55253, 18.79129 ], [ 78.5543, 18.80093 ], [ 78.55278, 18.80222 ], [ 78.55219, 18.80545 ], [ 78.54896, 18.80895 ], [ 78.55092, 18.81348 ], [ 78.54311, 18.81415 ], [ 78.54166, 18.81531 ], [ 78.5419, 18.81807 ], [ 78.54804, 18.83036 ], [ 78.54828, 18.83455 ], [ 78.55321, 18.84122 ], [ 78.56007, 18.847 ], [ 78.56138, 18.84961 ], [ 78.56096, 18.85782 ], [ 78.56535, 18.85567 ], [ 78.57072, 18.84794 ], [ 78.57857, 18.84256 ], [ 78.57962, 18.84378 ], [ 78.59152, 18.84705 ], [ 78.59196, 18.85525 ], [ 78.59052, 18.85697 ], [ 78.58546, 18.85988 ], [ 78.58334, 18.86643 ], [ 78.58009, 18.8675 ], [ 78.57916, 18.8697 ], [ 78.58034, 18.8738 ], [ 78.58021, 18.87617 ], [ 78.58946, 18.88129 ], [ 78.59382, 18.88837 ], [ 78.59639, 18.89028 ], [ 78.60149, 18.88806 ], [ 78.60873, 18.88334 ], [ 78.61388, 18.87274 ], [ 78.61982, 18.87071 ], [ 78.6221, 18.86865 ], [ 78.62918, 18.86905 ], [ 78.63274, 18.8719 ], [ 78.63455, 18.87542 ], [ 78.63448, 18.87755 ], [ 78.63576, 18.88129 ], [ 78.64036, 18.88915 ], [ 78.64123, 18.89467 ], [ 78.64409, 18.89864 ], [ 78.64532, 18.89046 ], [ 78.65417, 18.88046 ] ] ] } },
{ "type": "Feature", "properties": { "OBJECTID": 4653, "state_lgd": "36", "state_name": "TELANGANA", "district_lgd": "714", "district_name": "JAGTIAL", "district_name_source": "district_table", "subdistrict_lgd": "04421", "subdistrict_name": "PEGADAPALLI", "subdistrict_type": "", "name_corrupted": false, "remarks": "", "label_lon": 79.069771301099905, "label_lat": 18.703504439788375 }, "geometry": { "type": "Polygon", "coordinates": [ [ [ 79.05708, 18.75575 ], [ 79.06306, 18.75587 ], [ 79.06815, 18.75738 ], [ 79.07002, 18.75449 ], [ 79.07048, 18.75178 ], [ 79.08635, 18.75296 ], [ 79.09708, 18.75278 ], [ 79.10067, 18.75174 ], [ 79.10131, 18.75593 ], [ 79.10405, 18.75979 ], [ 79.11155, 18.7572 ], [ 79.12609, 18.75083 ], [ 79.12894, 18.74828 ], [ 79.13256, 18.74435 ], [ 79.1312, 18.73447 ], [ 79.13481, 18.73532 ], [ 79.13835, 18.7333 ], [ 79.14218, 18.72535 ], [ 79.13929, 18.72329 ], [ 79.13447, 18.71334 ], [ 79.13009, 18.7089 ], [ 79.1295, 18.71088 ], [ 79.12815, 18.71114 ], [ 79.12548, 18.70975 ], [ 79.12169, 18.70918 ], [ 79.12038, 18.7074 ], [ 79.11701, 18.70629 ], [ 79.11222, 18.71034 ], [ 79.11342, 18.7071 ], [ 79.11917, 18.69914 ], [ 79.12387, 18.69074 ], [ 79.1255, 18.68357 ], [ 79.1242, 18.6778 ], [ 79.11836, 18.66303 ], [ 79.11534, 18.66424 ], [ 79.11594, 18.65923 ], [ 79.1125, 18.65845 ], [ 79.1104, 18.66309 ], [ 79.10671, 18.66375 ], [ 79.1068, 18.65777 ], [ 79.10322, 18.64955 ], [ 79.09724, 18.64842 ], [ 79.09516, 18.65178 ], [ 79.09189, 18.65079 ], [ 79.08917, 18.64683 ], [ 79.08555, 18.64595 ], [ 79.07724, 18.65173 ], [ 79.07151, 18.65311 ], [ 79.06522, 18.65351 ], [ 79.06412, 18.65483 ], [ 79.06483, 18.65948 ], [ 79.06287, 18.6611 ], [ 79.06208, 18.66555 ], [ 79.06007, 18.66608 ], [ 79.05885, 18.66555 ], [ 79.05896, 18.66358 ], [ 79.0573, 18.65904 ], [ 79.05261, 18.65562 ], [ 79.04978, 18.6472 ], [ 79.04792, 18.64604 ], [ 79.04191, 18.64581 ], [ 79.03909, 18.6444 ], [ 79.03593, 18.64463 ], [ 79.03557, 18.64846 ], [ 79.03626, 18.65111 ], [ 79.03351, 18.65059 ], [ 79.02754, 18.65143 ], [ 79.02256, 18.6546 ], [ 79.01793, 18.65413 ], [ 79.01751, 18.66152 ], [ 79.01225, 18.67483 ], [ 79.01119, 18.67623 ], [ 79.00658, 18.6779 ], [ 79.00402, 18.70206 ], [ 79.00577, 18.70541 ], [ 79.00616, 18.70825 ], [ 79.00802, 18.70934 ], [ 79.00581, 18.71318 ], [ 79.00718, 18.71566 ], [ 79.00903, 18.71542 ], [ 79.01007, 18.7166 ], [ 79.00922, 18.72003 ], [ 79.01018, 18.72293 ], [ 79.01105, 18.732 ], [ 79.01321, 18.73235 ], [ 79.02077, 18.73873 ], [ 79.03599, 18.74923 ], [ 79.04092, 18.74659 ], [ 79.04446, 18.74564 ], [ 79.04948, 18.74695 ], [ 79.04784, 18.74933 ], [ 79.04891, 18.75087 ], [ 79.04728, 18.75991 ], [ 79.05158, 18.7573 ], [ 79.05708, 18.75575 ] ] ] } },
{ "type": "Feature", "properties": { "OBJECTID": 4654, "state_lgd": "36", "state_name": "TELANGANA", "district_lgd": "714", "district_name": "JAGTIAL", "district_name_source": "district_table", "subdistrict_lgd": "04395", "subdistrict_name": "RAIKAL", "subdistrict_type": "", "name_corrupted": false, "remarks": "", "label_lon": 78.842702132177266, "label_lat": 18.951652995580702 }, "geometry": { "type": "Polygon", "coordinates": [ [ [ 78.86228, 19.05923 ], [ 78.86645, 19.05927 ], [ 78.86942, 19.0561 ], [ 78.8724, 19.05535 ], [ 78.87385, 19.05585 ], [ 78.88984, 19.04316 ], [ 78.88843, 19.04168 ], [ 78.88956, 19.01159 ], [ 78.92188, 19.00587 ], [ 78.93766, 19.00406 ], [ 78.93962, 19.00305 ], [ 78.93912, 18.99689 ], [ 78.93755, 18.99491 ], [ 78.93317, 18.99318 ], [ 78.92618, 18.99279 ], [ 78.91769, 18.98539 ], [ 78.9168, 18.98141 ], [ 78.9121, 18.97603 ], [ 78.90569, 18.96326 ], [ 78.89958, 18.94862 ], [ 78.89866, 18.94219 ], [ 78.89439, 18.93036 ], [ 78.89424, 18.92698 ], [ 78.89722, 18.91756 ], [ 78.89666, 18.912 ], [ 78.88702, 18.88892 ], [ 78.88996, 18.88172 ], [ 78.89246, 18.87974 ], [ 78.89648, 18.87808 ], [ 78.8971, 18.87586 ], [ 78.89668, 18.87359 ], [ 78.8987, 18.87129 ], [ 78.89912, 18.86909 ], [ 78.90603, 18.86601 ], [ 78.90586, 18.8631 ], [ 78.90859, 18.85992 ], [ 78.90829, 18.8593 ], [ 78.90334, 18.85929 ], [ 78.90218, 18.85833 ], [ 78.89811, 18.8589 ], [ 78.88956, 18.85232 ], [ 78.88669, 18.84812 ], [ 78.87219, 18.83566 ], [ 78.86869, 18.83562 ], [ 78.86473, 18.83697 ], [ 78.8602, 18.84033 ], [ 78.85311, 18.84083 ], [ 78.84922, 18.84413 ], [ 78.8516, 18.85019 ], [ 78.85417, 18.85371 ], [ 78.85235, 18.85606 ], [ 78.85207, 18.86065 ], [ 78.85065, 18.86528 ], [ 78.85101, 18.86792 ], [ 78.84947, 18.87407 ], [ 78.8443, 18.87423 ], [ 78.84322, 18.87586 ], [ 78.844, 18.87807 ], [ 78.8429, 18.88167 ], [ 78.84418, 18.88586 ], [ 78.84313, 18.88668 ], [ 78.8315, 18.89273 ], [ 78.82713, 18.89363 ], [ 78.82731, 18.88879 ], [ 78.82181, 18.88486 ], [ 78.81646, 18.87797 ], [ 78.81105, 18.86429 ], [ 78.8102, 18.86329 ], [ 78.80568, 18.86247 ], [ 78.80602, 18.86105 ], [ 78.80829, 18.85856 ], [ 78.80112, 18.84865 ], [ 78.79536, 18.85156 ], [ 78.79649, 18.85569 ], [ 78.79508, 18.85868 ], [ 78.79608, 18.86102 ], [ 78.79558, 18.86658 ], [ 78.79334, 18.86938 ], [ 78.79012, 18.87082 ], [ 78.78967, 18.87588 ], [ 78.78823, 18.87823 ], [ 78.78856, 18.88353 ], [ 78.78741, 18.88836 ], [ 78.78435, 18.88999 ], [ 78.78308, 18.89337 ], [ 78.77754, 18.89306 ], [ 78.77309, 18.8949 ], [ 78.77179, 18.89608 ], [ 78.77256, 18.89983 ], [ 78.77195, 18.9001 ], [ 78.77063, 18.89961 ], [ 78.76831, 18.89669 ], [ 78.76615, 18.89743 ], [ 78.76607, 18.89864 ], [ 78.76375, 18.90031 ], [ 78.75834, 18.90246 ], [ 78.74115, 18.90618 ], [ 78.73591, 18.90987 ], [ 78.73304, 18.91308 ], [ 78.73141, 18.91736 ], [ 78.73142, 18.91986 ], [ 78.73717, 18.93412 ], [ 78.74293, 18.93426 ], [ 78.74533, 18.93211 ], [ 78.74661, 18.9322 ], [ 78.74866, 18.93429 ], [ 78.75251, 18.93422 ], [ 78.7568, 18.93201 ], [ 78.76722, 18.93084 ], [ 78.77762, 18.93859 ], [ 78.78021, 18.94665 ], [ 78.79131, 18.94906 ], [ 78.79348, 18.96021 ], [ 78.79162, 18.96719 ], [ 78.79312, 18.97164 ], [ 78.79353, 18.98082 ], [ 78.79255, 18.985 ], [ 78.79247, 18.99657 ], [ 78.79742, 19.00208 ], [ 78.80691, 19.00822 ], [ 78.80964, 19.01199 ], [ 78.81157, 19.01882 ], [ 78.81337, 19.04159 ], [ 78.81551, 19.04922 ], [ 78.8217, 19.04936 ], [ 78.82871, 19.06135 ], [ 78.83607, 19.0687 ], [ 78.84198, 19.06905 ], [ 78.84519, 19.07035 ], [ 78.86228, 19.05923 ] ] ] } },
{ "type": "Feature", "properties": { "OBJECTID": 4655, "state_lgd": "36", "state_name": "TELANGANA", "district_lgd": "714", "district_name": "JAGTIAL", "district_name_source": "district_table", "subdistrict_lgd": "04396", "subdistrict_name": "SARANGAPUR", "subdistrict_type": "", "name_corrupted": false, "remarks": "", "label_lon": 78.944887644236744, "label_lat": 18.926169932090144 }, "geometry": { "type": "Polygon", "coordinates": [ [ [ 78.95536, 18.9947 ], [ 78.95631, 18.9908 ], [ 78.95736, 18.98984 ], [ 78.96128, 18.98845 ], [ 78.96306, 18.98944 ], [ 78.97145, 18.984 ], [ 78.97413, 18.98507 ], [ 78.975, 18.98459 ], [ 78.97506, 18.98115 ], [ 78.98563, 18.97702 ], [ 78.99554, 18.96923 ], [ 78.99698, 18.96698 ], [ 79.00226, 18.96537 ], [ 79.01071, 18.96502 ], [ 79.01165, 18.95774 ], [ 79.01098, 18.95255 ], [ 79.01087, 18.93187 ], [ 79.00811, 18.92741 ], [ 78.99498, 18.91897 ], [ 78.99219, 18.9072 ], [ 78.98742, 18.90598 ], [ 78.97873, 18.90134 ], [ 78.9749, 18.89832 ], [ 78.96745, 18.8968 ], [ 78.96666, 18.89596 ], [ 78.97225, 18.86398 ], [ 78.97056, 18.8601 ], [ 78.96555, 18.86297 ], [ 78.95578, 18.87991 ], [ 78.94513, 18.87668 ], [ 78.94182, 18.87405 ], [ 78.94879, 18.85959 ], [ 78.95009, 18.85486 ], [ 78.94612, 18.85491 ], [ 78.9278, 18.84668 ], [ 78.90695, 18.85013 ], [ 78.90566, 18.85434 ], [ 78.90655, 18.85765 ], [ 78.90874, 18.86044 ], [ 78.90586, 18.8631 ], [ 78.90639, 18.86532 ], [ 78.90474, 18.86684 ], [ 78.89912, 18.86909 ], [ 78.8987, 18.87129 ], [ 78.89668, 18.87359 ], [ 78.8971, 18.87586 ], [ 78.89648, 18.87808 ], [ 78.89246, 18.87974 ], [ 78.88996, 18.88172 ], [ 78.88702, 18.88892 ], [ 78.89666, 18.912 ], [ 78.89722, 18.91756 ], [ 78.89412, 18.92863 ], [ 78.89866, 18.94219 ], [ 78.89958, 18.94862 ], [ 78.90648, 18.96498 ], [ 78.9121, 18.97603 ], [ 78.9168, 18.98141 ], [ 78.91769, 18.98539 ], [ 78.92618, 18.99279 ], [ 78.93317, 18.99318 ], [ 78.93755, 18.99491 ], [ 78.93912, 18.99689 ], [ 78.93945, 19.00369 ], [ 78.94424, 18.99869 ], [ 78.94911, 18.9967 ], [ 78.95417, 18.99592 ], [ 78.95536, 18.9947 ] ] ] } },
{ "type": "Feature", "properties": { "OBJECTID": 4656, "state_lgd": "36", "state_name": "TELANGANA", "district_lgd": "714", "district_name": "JAGTIAL", "district_name_source": "district_table", "subdistrict_lgd": "04398", "subdistrict_name": "VELGATUR", "subdistrict_type": "", "name_corrupted": false, "remarks": "", "label_lon": 79.203919861657468, "label_lat": 18.834074463688612 }, "geometry": { "type": "Polygon", "coordinates": [ [ [ 79.17011, 18.88459 ], [ 79.17673, 18.87612 ], [ 79.17666, 18.8744 ], [ 79.17774, 18.87263 ], [ 79.1821, 18.86873 ], [ 79.18853, 18.86672 ], [ 79.19575, 18.86652 ], [ 79.20298, 18.86463 ], [ 79.21405, 18.86412 ], [ 79.2314, 18.86145 ], [ 79.24267, 18.8569 ], [ 79.24906, 18.85322 ], [ 79.25572, 18.84564 ], [ 79.25847, 18.841 ], [ 79.27003, 18.82915 ], [ 79.28296, 18.8223 ], [ 79.29185, 18.82035 ], [ 79.30175, 18.81673 ], [ 79.29798, 18.81158 ], [ 79.29568, 18.80579 ], [ 79.29609, 18.80126 ], [ 79.29385, 18.79842 ], [ 79.28972, 18.79964 ], [ 79.28829, 18.79783 ], [ 79.28865, 18.79653 ], [ 79.28792, 18.79534 ], [ 79.28197, 18.79507 ], [ 79.27598, 18.79279 ], [ 79.25701, 18.79713 ], [ 79.25425, 18.79371 ], [ 79.2518, 18.79348 ], [ 79.2486, 18.79192 ], [ 79.24414, 18.79194 ], [ 79.24174, 18.79067 ], [ 79.2363, 18.79117 ], [ 79.2325, 18.78964 ], [ 79.22809, 18.78964 ], [ 79.22228, 18.79127 ], [ 79.21745, 18.79152 ], [ 79.20633, 18.78957 ], [ 79.205, 18.78982 ], [ 79.20454, 18.79393 ], [ 79.20469, 18.79772 ], [ 79.20658, 18.80276 ], [ 79.20584, 18.80318 ], [ 79.20591, 18.80565 ], [ 79.20115, 18.8023 ], [ 79.19782, 18.80338 ], [ 79.19229, 18.80834 ], [ 79.19026, 18.80924 ], [ 79.1839, 18.80914 ], [ 79.17992, 18.80803 ], [ 79.18442, 18.81506 ], [ 79.17245, 18.82003 ], [ 79.16875, 18.81995 ], [ 79.16708, 18.82203 ], [ 79.16238, 18.81579 ], [ 79.15497, 18.81085 ], [ 79.15356, 18.80838 ], [ 79.13412, 18.81207 ], [ 79.13441, 18.82958 ], [ 79.13499, 18.83194 ], [ 79.13949, 18.83559 ], [ 79.13674, 18.8369 ], [ 79.13592, 18.83904 ], [ 79.13549, 18.85226 ], [ 79.13416, 18.85441 ], [ 79.12331, 18.85578 ], [ 79.12253, 18.85852 ], [ 79.1226, 18.86531 ], [ 79.12582, 18.86548 ], [ 79.12664, 18.87226 ], [ 79.12883, 18.87522 ], [ 79.12763, 18.87643 ], [ 79.12799, 18.8775 ], [ 79.12969, 18.87981 ], [ 79.13362, 18.87853 ], [ 79.13856, 18.87909 ], [ 79.14193, 18.87835 ], [ 79.14411, 18.87906 ], [ 79.14746, 18.88141 ], [ 79.15611, 18.89134 ], [ 79.16079, 18.89384 ], [ 79.17011, 18.88459 ] ] ] } }
]
}
