{
"type": "FeatureCollection",
"name": "731_HANUMAKONDA",
"crs": { "type": "name", "properties": { "name": "urn:ogc:def:crs:OGC:1.3:CRS84" } },
"xy_coordinate_resolution": 1e-05,
"features": [
{ "type": "Feature", "properties": { "OBJECTID": 4607, "state_lgd": "36", "state_name": "TELANGANA", "district_lgd": "731", "district_name": "HANUMAKONDA", "district_name_source": "district_table", "subdistrict_lgd": "04694", "subdistrict_name": "ATMAKUR", "subdistrict_type": "", "name_corrupted": false, "remarks": "", "label_lon": 79.739114191713639, "label_lat": 18.063907409003445 }, "geometry": { "type": "Polygon", "coordinates": [ [ [ 79.82658, 18.117 ], [ 79.8241, 18.11255 ], [ 79.81976, 18.1131 ], [ 79.81585, 18.10029 ], [ 79.81595, 18.09553 ], [ 79.80933, 18.07635 ], [ 79.79501, 18.07619 ], [ 79.79044, 18.07825 ], [ 79.78823, 18.08171 ], [ 79.78538, 18.08259 ], [ 79.78456, 18.07864 ], [ 79.78561, 18.07346 ], [ 79.78916, 18.07141 ], [ 79.79138, 18.0682 ], [ 79.79245, 18.0638 ], [ 79.79211, 18.06184 ], [ 79.79027, 18.05974 ], [ 79.79201, 18.05904 ], [ 79.79115, 18.05802 ], [ 79.79224, 18.05833 ], [ 79.79225, 18.05713 ], [ 79.79374, 18.05678 ], [ 79.79256, 18.05611 ], [ 79.79199, 18.05204 ], [ 79.79359, 18.05111 ], [ 79.79364, 18.04722 ], [ 79.79211, 18.045 ], [ 79.78554, 18.04889 ], [ 79.77926, 18.04927 ], [ 79.77703, 18.0543 ], [ 79.76905, 18.05415 ], [ 79.76617, 18.05533 ], [ 79.7496, 18.05775 ], [ 79.74655, 18.05477 ], [ 79.74464, 18.05449 ], [ 79.74429, 18.05375 ], [ 79.74591, 18.05017 ], [ 79.74988, 18.04512 ], [ 79.74934, 18.04211 ], [ 79.74786, 18.04041 ], [ 79.74815, 18.03307 ], [ 79.74699, 18.03194 ], [ 79.74496, 18.02329 ], [ 79.73951, 18.01387 ], [ 79.73524, 18.00959 ], [ 79.73133, 18.00743 ], [ 79.73081, 18.00517 ], [ 79.71924, 18.00255 ], [ 79.71638, 18.0009 ], [ 79.71482, 17.99878 ], [ 79.71339, 17.99947 ], [ 79.71144, 17.99651 ], [ 79.70884, 17.99685 ], [ 79.70795, 17.99526 ], [ 79.70148, 17.99666 ], [ 79.70111, 17.99848 ], [ 79.69978, 17.99983 ], [ 79.69548, 18.00038 ], [ 79.68604, 18.00386 ], [ 79.68691, 18.00515 ], [ 79.68332, 18.00476 ], [ 79.68869, 18.01403 ], [ 79.68948, 18.01411 ], [ 79.68958, 18.01582 ], [ 79.68652, 18.02343 ], [ 79.68439, 18.03244 ], [ 79.68726, 18.0401 ], [ 79.6902, 18.04019 ], [ 79.69295, 18.04134 ], [ 79.69406, 18.04315 ], [ 79.69387, 18.04424 ], [ 79.69528, 18.04601 ], [ 79.69782, 18.04723 ], [ 79.69993, 18.05028 ], [ 79.70329, 18.06339 ], [ 79.70629, 18.06838 ], [ 79.70735, 18.07873 ], [ 79.701, 18.07928 ], [ 79.7017, 18.08104 ], [ 79.69627, 18.0817 ], [ 79.69473, 18.08418 ], [ 79.69428, 18.09003 ], [ 79.69259, 18.09187 ], [ 79.69096, 18.0925 ], [ 79.68746, 18.09217 ], [ 79.68709, 18.09017 ], [ 79.68477, 18.08953 ], [ 79.68302, 18.09003 ], [ 79.68166, 18.09166 ], [ 79.67886, 18.09793 ], [ 79.67591, 18.11373 ], [ 79.67269, 18.11731 ], [ 79.67341, 18.12023 ], [ 79.67801, 18.1152 ], [ 79.69039, 18.11573 ], [ 79.69907, 18.11303 ], [ 79.69566, 18.10706 ], [ 79.69849, 18.10325 ], [ 79.70709, 18.09965 ], [ 79.71077, 18.09889 ], [ 79.7135, 18.09935 ], [ 79.71877, 18.10438 ], [ 79.72121, 18.10227 ], [ 79.72321, 18.10271 ], [ 79.72669, 18.09995 ], [ 79.72496, 18.09734 ], [ 79.72942, 18.09515 ], [ 79.73313, 18.09683 ], [ 79.73457, 18.10087 ], [ 79.74036, 18.09931 ], [ 79.7408, 18.10028 ], [ 79.74346, 18.09992 ], [ 79.74742, 18.09593 ], [ 79.74722, 18.09214 ], [ 79.75938, 18.09039 ], [ 79.76052, 18.09098 ], [ 79.76086, 18.09256 ], [ 79.76182, 18.09243 ], [ 79.76314, 18.09429 ], [ 79.76399, 18.09416 ], [ 79.76407, 18.09606 ], [ 79.77259, 18.10532 ], [ 79.77689, 18.10868 ], [ 79.77955, 18.10397 ], [ 79.78207, 18.10279 ], [ 79.78332, 18.10107 ], [ 79.78767, 18.1011 ], [ 79.79587, 18.10323 ], [ 79.7989, 18.10267 ], [ 79.79961, 18.10876 ], [ 79.80396, 18.1211 ], [ 79.81968, 18.11883 ], [ 79.82658, 18.117 ] ] ] } },
{ "type": "Feature", "properties": { "OBJECTID": 4608, "state_lgd": "36", "state_name": "TELANGANA", "district_lgd": "731", "district_name": "HANUMAKONDA", "district_name_source": "district_table", "subdistrict_lgd": "04448", "subdistrict_name": "BHEEMADEVARAPALLE", "subdistrict_type": "", "name_corrupted": false, "remarks": "", "label_lon": 79.333625010156027, "label_lat": 18.081718525664051 }, "geometry": { "type": "Polygon", "coordinates": [ [ [ 79.39692, 18.14804 ], [ 79.39661, 18.14145 ], [ 79.39491, 18.13818 ], [ 79.39776, 18.13187 ], [ 79.3935, 18.1324 ], [ 79.38414, 18.13146 ], [ 79.38323, 18.12779 ], [ 79.38174, 18.12559 ], [ 79.37511, 18.12306 ], [ 79.37769, 18.11838 ], [ 79.38604, 18.11512 ], [ 79.4009, 18.11762 ], [ 79.39221, 18.10737 ], [ 79.39281, 18.09803 ], [ 79.39719, 18.09908 ], [ 79.41498, 18.0939 ], [ 79.41387, 18.09096 ], [ 79.40286, 18.07953 ], [ 79.40075, 18.07865 ], [ 79.40068, 18.07217 ], [ 79.3907, 18.06433 ], [ 79.38934, 18.05908 ], [ 79.38467, 18.04874 ], [ 79.37912, 18.04776 ], [ 79.37706, 18.0446 ], [ 79.36622, 18.04408 ], [ 79.36474, 18.04989 ], [ 79.35612, 18.0521 ], [ 79.35103, 18.04958 ], [ 79.34378, 18.0507 ], [ 79.33873, 18.04993 ], [ 79.32931, 18.03965 ], [ 79.33103, 18.03514 ], [ 79.32998, 18.02967 ], [ 79.33057, 18.02105 ], [ 79.32824, 18.02036 ], [ 79.31961, 18.02048 ], [ 79.31069, 18.02162 ], [ 79.3106, 18.02441 ], [ 79.30008, 18.02451 ], [ 79.29684, 18.01678 ], [ 79.29371, 18.01633 ], [ 79.29297, 18.0113 ], [ 79.28594, 18.00634 ], [ 79.28192, 18.00189 ], [ 79.26077, 18.00298 ], [ 79.26088, 18.01125 ], [ 79.25954, 18.02488 ], [ 79.26158, 18.03454 ], [ 79.26618, 18.03953 ], [ 79.27321, 18.05114 ], [ 79.27863, 18.06207 ], [ 79.28182, 18.06573 ], [ 79.27978, 18.06763 ], [ 79.28317, 18.07097 ], [ 79.29088, 18.0893 ], [ 79.29317, 18.1028 ], [ 79.29054, 18.12095 ], [ 79.29385, 18.12591 ], [ 79.29995, 18.12956 ], [ 79.31392, 18.13415 ], [ 79.31736, 18.13988 ], [ 79.32734, 18.14815 ], [ 79.33635, 18.14657 ], [ 79.3463, 18.14679 ], [ 79.35387, 18.13991 ], [ 79.3656, 18.13977 ], [ 79.37937, 18.1567 ], [ 79.38229, 18.15389 ], [ 79.3863, 18.15158 ], [ 79.39692, 18.14804 ] ] ] } },
{ "type": "Feature", "properties": { "OBJECTID": 4609, "state_lgd": "36", "state_name": "TELANGANA", "district_lgd": "731", "district_name": "HANUMAKONDA", "district_name_source": "district_table", "subdistrict_lgd": "07130", "subdistrict_name": "DAMERA", "subdistrict_type": "", "name_corrupted": false, "remarks": "", "label_lon": 79.655247226291166, "label_lat": 18.078822545398612 }, "geometry": { "type": "Polygon", "coordinates": [ [ [ 79.64812, 18.13552 ], [ 79.65088, 18.1357 ], [ 79.65445, 18.13789 ], [ 79.65823, 18.13597 ], [ 79.65846, 18.13005 ], [ 79.65991, 18.12903 ], [ 79.66014, 18.12752 ], [ 79.67341, 18.12023 ], [ 79.67269, 18.11731 ], [ 79.67602, 18.11341 ], [ 79.67922, 18.09677 ], [ 79.68302, 18.09003 ], [ 79.68477, 18.08953 ], [ 79.68688, 18.09006 ], [ 79.68746, 18.09217 ], [ 79.69218, 18.09207 ], [ 79.69428, 18.09003 ], [ 79.69473, 18.08418 ], [ 79.69627, 18.0817 ], [ 79.7017, 18.08104 ], [ 79.701, 18.07928 ], [ 79.70735, 18.07873 ], [ 79.70629, 18.06838 ], [ 79.70329, 18.06339 ], [ 79.69993, 18.05028 ], [ 79.69782, 18.04723 ], [ 79.69528, 18.04601 ], [ 79.69387, 18.04424 ], [ 79.69406, 18.04315 ], [ 79.69295, 18.04134 ], [ 79.6902, 18.04019 ], [ 79.68726, 18.0401 ], [ 79.68439, 18.03244 ], [ 79.68652, 18.02343 ], [ 79.68958, 18.01582 ], [ 79.68948, 18.01411 ], [ 79.68869, 18.01403 ], [ 79.6837, 18.00555 ], [ 79.67842, 18.00758 ], [ 79.67664, 18.01017 ], [ 79.67638, 18.01535 ], [ 79.67056, 18.02336 ], [ 79.67166, 18.02711 ], [ 79.67091, 18.02707 ], [ 79.6709, 18.02818 ], [ 79.666, 18.03281 ], [ 79.66662, 18.03389 ], [ 79.66175, 18.03707 ], [ 79.65099, 18.04224 ], [ 79.64605, 18.03892 ], [ 79.64266, 18.04287 ], [ 79.64187, 18.03818 ], [ 79.62942, 18.03834 ], [ 79.62084, 18.03971 ], [ 79.62061, 18.04293 ], [ 79.62217, 18.04617 ], [ 79.62075, 18.05246 ], [ 79.62267, 18.0586 ], [ 79.62195, 18.06337 ], [ 79.62331, 18.06813 ], [ 79.61772, 18.06866 ], [ 79.6204, 18.07342 ], [ 79.61615, 18.08164 ], [ 79.61238, 18.09237 ], [ 79.60701, 18.09572 ], [ 79.60326, 18.09634 ], [ 79.6052, 18.10706 ], [ 79.60495, 18.11701 ], [ 79.61416, 18.11517 ], [ 79.62198, 18.11671 ], [ 79.6239, 18.11867 ], [ 79.62698, 18.11882 ], [ 79.62732, 18.12459 ], [ 79.625, 18.12764 ], [ 79.62463, 18.1318 ], [ 79.62945, 18.13278 ], [ 79.63204, 18.13237 ], [ 79.6324, 18.13493 ], [ 79.63726, 18.13721 ], [ 79.63991, 18.13944 ], [ 79.64812, 18.13552 ] ] ] } },
{ "type": "Feature", "properties": { "OBJECTID": 4610, "state_lgd": "36", "state_name": "TELANGANA", "district_lgd": "731", "district_name": "HANUMAKONDA", "district_name_source": "district_table", "subdistrict_lgd": "04677", "subdistrict_name": "DHARMASAGAR", "subdistrict_type": "", "name_corrupted": false, "remarks": "", "label_lon": 79.410381292038537, "label_lat": 17.979178868475266 }, "geometry": { "type": "MultiPolygon", "coordinates": [ [ [ [ 79.48905, 17.91414 ], [ 79.49241, 17.90996 ], [ 79.49429, 17.90015 ], [ 79.49071, 17.89552 ], [ 79.4887, 17.891 ], [ 79.4875, 17.89151 ], [ 79.48683, 17.89043 ], [ 79.48854, 17.88958 ], [ 79.48748, 17.88769 ], [ 79.48292, 17.89049 ], [ 79.48319, 17.8915 ], [ 79.47798, 17.8928 ], [ 79.47187, 17.88359 ], [ 79.47003, 17.88275 ], [ 79.46401, 17.8752 ], [ 79.46408, 17.87285 ], [ 79.45842, 17.87442 ], [ 79.45534, 17.87703 ], [ 79.44909, 17.87896 ], [ 79.44993, 17.88479 ], [ 79.44915, 17.89216 ], [ 79.44764, 17.89632 ], [ 79.44918, 17.90263 ], [ 79.44863, 17.90873 ], [ 79.45639, 17.90986 ], [ 79.45791, 17.90845 ], [ 79.46125, 17.91074 ], [ 79.46391, 17.91063 ], [ 79.47254, 17.91722 ], [ 79.47937, 17.91423 ], [ 79.48693, 17.9178 ], [ 79.489, 17.91605 ], [ 79.48905, 17.91414 ] ] ], [ [ [ 79.44861, 18.06761 ], [ 79.44427, 18.05923 ], [ 79.44152, 18.05662 ], [ 79.44188, 18.05417 ], [ 79.43877, 18.05045 ], [ 79.43935, 18.04634 ], [ 79.43867, 18.04369 ], [ 79.43363, 18.04067 ], [ 79.43827, 18.03449 ], [ 79.44166, 18.03328 ], [ 79.44856, 18.03245 ], [ 79.45458, 18.02932 ], [ 79.45973, 18.02483 ], [ 79.46556, 18.0343 ], [ 79.4734, 18.04208 ], [ 79.47925, 18.03962 ], [ 79.48687, 18.03394 ], [ 79.48639, 18.02216 ], [ 79.4899, 18.01994 ], [ 79.48959, 18.01889 ], [ 79.49062, 18.01804 ], [ 79.49121, 18.00771 ], [ 79.47796, 18.00998 ], [ 79.4665, 18.00992 ], [ 79.46249, 18.00783 ], [ 79.45915, 18.00107 ], [ 79.45959, 17.99152 ], [ 79.45399, 17.97869 ], [ 79.44733, 17.96995 ], [ 79.44391, 17.9635 ], [ 79.4415, 17.96175 ], [ 79.43988, 17.95114 ], [ 79.43153, 17.94417 ], [ 79.4334, 17.93808 ], [ 79.43357, 17.92272 ], [ 79.4353, 17.92073 ], [ 79.43739, 17.914 ], [ 79.4314, 17.90628 ], [ 79.42265, 17.89895 ], [ 79.42012, 17.89596 ], [ 79.41792, 17.8979 ], [ 79.41481, 17.89701 ], [ 79.41168, 17.89953 ], [ 79.40989, 17.89978 ], [ 79.40855, 17.89883 ], [ 79.40427, 17.89847 ], [ 79.4032, 17.90025 ], [ 79.39988, 17.90283 ], [ 79.39736, 17.90279 ], [ 79.39549, 17.90741 ], [ 79.39439, 17.90804 ], [ 79.39038, 17.90051 ], [ 79.38881, 17.90089 ], [ 79.3818, 17.90416 ], [ 79.37219, 17.91004 ], [ 79.36868, 17.90987 ], [ 79.36343, 17.91429 ], [ 79.35361, 17.92076 ], [ 79.352, 17.92387 ], [ 79.35312, 17.93102 ], [ 79.3529, 17.93632 ], [ 79.35744, 17.93815 ], [ 79.35925, 17.94064 ], [ 79.36849, 17.95797 ], [ 79.37428, 17.97111 ], [ 79.37615, 17.97338 ], [ 79.36378, 17.97651 ], [ 79.34787, 17.98274 ], [ 79.34115, 17.98923 ], [ 79.35704, 18.00213 ], [ 79.36713, 18.01452 ], [ 79.38272, 18.03086 ], [ 79.40743, 18.04331 ], [ 79.41175, 18.04466 ], [ 79.41523, 18.0479 ], [ 79.41726, 18.04692 ], [ 79.42027, 18.05123 ], [ 79.4227, 18.05097 ], [ 79.42856, 18.0596 ], [ 79.43565, 18.06444 ], [ 79.43709, 18.06353 ], [ 79.4399, 18.06349 ], [ 79.44424, 18.06596 ], [ 79.44727, 18.06959 ], [ 79.44861, 18.06761 ] ] ] ] } },
{ "type": "Feature", "properties": { "OBJECTID": 4611, "state_lgd": "36", "state_name": "TELANGANA", "district_lgd": "731", "district_name": "HANUMAKONDA", "district_name_source": "district_table", "subdistrict_lgd": "04449", "subdistrict_name": "ELKATHURTHI", "subdistrict_type": "", "name_corrupted": false, "remarks": "", "label_lon": 79.452197942226903, "label_lat": 18.113981329165782 }, "geometry": { "type": "Polygon", "coordinates": [ [ [ 79.41918, 18.16919 ], [ 79.42541, 18.16398 ], [ 79.42767, 18.15725 ], [ 79.43117, 18.15683 ], [ 79.43767, 18.15926 ], [ 79.44749, 18.1589 ], [ 79.44721, 18.16364 ], [ 79.4609, 18.16396 ], [ 79.46673, 18.16738 ], [ 79.47075, 18.16679 ], [ 79.48138, 18.16301 ], [ 79.49816, 18.1531 ], [ 79.49483, 18.14913 ], [ 79.4938, 18.13955 ], [ 79.49423, 18.13842 ], [ 79.49989, 18.13453 ], [ 79.50346, 18.13631 ], [ 79.51162, 18.13589 ], [ 79.52456, 18.13226 ], [ 79.53292, 18.12892 ], [ 79.53513, 18.12944 ], [ 79.53374, 18.13039 ], [ 79.53336, 18.13227 ], [ 79.53437, 18.13692 ], [ 79.54503, 18.13615 ], [ 79.54971, 18.13043 ], [ 79.55206, 18.12924 ], [ 79.556, 18.12892 ], [ 79.55947, 18.12685 ], [ 79.56015, 18.1214 ], [ 79.56161, 18.1207 ], [ 79.55912, 18.11173 ], [ 79.55713, 18.10784 ], [ 79.55241, 18.10199 ], [ 79.55205, 18.09965 ], [ 79.54581, 18.10105 ], [ 79.54276, 18.10038 ], [ 79.53579, 18.10201 ], [ 79.53537, 18.10115 ], [ 79.5302, 18.10181 ], [ 79.52913, 18.10034 ], [ 79.52705, 18.10049 ], [ 79.52671, 18.09972 ], [ 79.51994, 18.09977 ], [ 79.51902, 18.10189 ], [ 79.51532, 18.1034 ], [ 79.51561, 18.10461 ], [ 79.51428, 18.10369 ], [ 79.50992, 18.10502 ], [ 79.50375, 18.09862 ], [ 79.5026, 18.0963 ], [ 79.49477, 18.09812 ], [ 79.48759, 18.0988 ], [ 79.48444, 18.10104 ], [ 79.48367, 18.10282 ], [ 79.47857, 18.10766 ], [ 79.47218, 18.10949 ], [ 79.46916, 18.11407 ], [ 79.46677, 18.11386 ], [ 79.46643, 18.113 ], [ 79.46803, 18.11027 ], [ 79.468, 18.10665 ], [ 79.46422, 18.10292 ], [ 79.46125, 18.1016 ], [ 79.46168, 18.09671 ], [ 79.45943, 18.08978 ], [ 79.45529, 18.08757 ], [ 79.45805, 18.08369 ], [ 79.45528, 18.0824 ], [ 79.45389, 18.07672 ], [ 79.45062, 18.07502 ], [ 79.44424, 18.06596 ], [ 79.4399, 18.06349 ], [ 79.43709, 18.06353 ], [ 79.43578, 18.06445 ], [ 79.43391, 18.06338 ], [ 79.42798, 18.05906 ], [ 79.4227, 18.05097 ], [ 79.42027, 18.05123 ], [ 79.41726, 18.04692 ], [ 79.41523, 18.0479 ], [ 79.41175, 18.04466 ], [ 79.40743, 18.04331 ], [ 79.38272, 18.03086 ], [ 79.37718, 18.04483 ], [ 79.37912, 18.04776 ], [ 79.38476, 18.04885 ], [ 79.38934, 18.05908 ], [ 79.3907, 18.06433 ], [ 79.40068, 18.07217 ], [ 79.40075, 18.07865 ], [ 79.40286, 18.07953 ], [ 79.41387, 18.09096 ], [ 79.41498, 18.0939 ], [ 79.39719, 18.09908 ], [ 79.39281, 18.09803 ], [ 79.39221, 18.10737 ], [ 79.4009, 18.11762 ], [ 79.38604, 18.11512 ], [ 79.37769, 18.11838 ], [ 79.37503, 18.12336 ], [ 79.38174, 18.12559 ], [ 79.38323, 18.12779 ], [ 79.38414, 18.13146 ], [ 79.3935, 18.1324 ], [ 79.39776, 18.13187 ], [ 79.39491, 18.13818 ], [ 79.39661, 18.14145 ], [ 79.39692, 18.14804 ], [ 79.40004, 18.15538 ], [ 79.40092, 18.16108 ], [ 79.39762, 18.16276 ], [ 79.39906, 18.1662 ], [ 79.40601, 18.16464 ], [ 79.4101, 18.16578 ], [ 79.41318, 18.16489 ], [ 79.41518, 18.16735 ], [ 79.41644, 18.16608 ], [ 79.41918, 18.16919 ] ] ] } },
{ "type": "Feature", "properties": { "OBJECTID": 4612, "state_lgd": "36", "state_name": "TELANGANA", "district_lgd": "731", "district_name": "HANUMAKONDA", "district_name_source": "district_table", "subdistrict_lgd": "04695", "subdistrict_name": "HANUMAKONDA", "subdistrict_type": "", "name_corrupted": false, "remarks": "", "label_lon": 79.550367832877143, "label_lat": 17.997326205952181 }, "geometry": { "type": "Polygon", "coordinates": [ [ [ 79.54728, 18.04928 ], [ 79.55356, 18.04875 ], [ 79.55833, 18.04703 ], [ 79.564, 18.04659 ], [ 79.5657, 18.04442 ], [ 79.56993, 18.0418 ], [ 79.57438, 18.04156 ], [ 79.57955, 18.03966 ], [ 79.58675, 18.04049 ], [ 79.59135, 18.04011 ], [ 79.59763, 18.03617 ], [ 79.59594, 18.03485 ], [ 79.59549, 18.03215 ], [ 79.59428, 18.03033 ], [ 79.59669, 18.02521 ], [ 79.59407, 18.02048 ], [ 79.59297, 18.01419 ], [ 79.59291, 18.0078 ], [ 79.59499, 18.00142 ], [ 79.59314, 17.99441 ], [ 79.58958, 17.99065 ], [ 79.58824, 17.98537 ], [ 79.58215, 17.98719 ], [ 79.58188, 17.98286 ], [ 79.58109, 17.98147 ], [ 79.58236, 17.9793 ], [ 79.5822, 17.97775 ], [ 79.58115, 17.9774 ], [ 79.58019, 17.97517 ], [ 79.57527, 17.97523 ], [ 79.57305, 17.96832 ], [ 79.57004, 17.96364 ], [ 79.56902, 17.95997 ], [ 79.55815, 17.96213 ], [ 79.55739, 17.96058 ], [ 79.55095, 17.95621 ], [ 79.54102, 17.95716 ], [ 79.53912, 17.9578 ], [ 79.53808, 17.95912 ], [ 79.52969, 17.96006 ], [ 79.5257, 17.95447 ], [ 79.52391, 17.95033 ], [ 79.51994, 17.9454 ], [ 79.51445, 17.94569 ], [ 79.50376, 17.94899 ], [ 79.50021, 17.95093 ], [ 79.50138, 17.95422 ], [ 79.50413, 17.9568 ], [ 79.50353, 17.95826 ], [ 79.50215, 17.95832 ], [ 79.50213, 17.95893 ], [ 79.50397, 17.96015 ], [ 79.50279, 17.9609 ], [ 79.5031, 17.96986 ], [ 79.50223, 17.97185 ], [ 79.50383, 17.97777 ], [ 79.50963, 17.98209 ], [ 79.51126, 17.98207 ], [ 79.51172, 17.98043 ], [ 79.51072, 17.9794 ], [ 79.51601, 17.97751 ], [ 79.51867, 17.98004 ], [ 79.51952, 17.98215 ], [ 79.51717, 17.98806 ], [ 79.5107, 17.99188 ], [ 79.50902, 18.00569 ], [ 79.50715, 18.00607 ], [ 79.50812, 18.00878 ], [ 79.50669, 18.00899 ], [ 79.50625, 18.00988 ], [ 79.50688, 18.01217 ], [ 79.51068, 18.01185 ], [ 79.51131, 18.01256 ], [ 79.51516, 18.01182 ], [ 79.52354, 18.01354 ], [ 79.52824, 18.01518 ], [ 79.52814, 18.01927 ], [ 79.53165, 18.0194 ], [ 79.53262, 18.02358 ], [ 79.53932, 18.02271 ], [ 79.54041, 18.02415 ], [ 79.54199, 18.02404 ], [ 79.54199, 18.0278 ], [ 79.54084, 18.02934 ], [ 79.54088, 18.03146 ], [ 79.54235, 18.0363 ], [ 79.54266, 18.04102 ], [ 79.54682, 18.04662 ], [ 79.54728, 18.04928 ] ] ] } },
{ "type": "Feature", "properties": { "OBJECTID": 4613, "state_lgd": "36", "state_name": "TELANGANA", "district_lgd": "731", "district_name": "HANUMAKONDA", "district_name_source": "district_table", "subdistrict_lgd": "04678", "subdistrict_name": "HASANPARTHY", "subdistrict_type": "", "name_corrupted": false, "remarks": "", "label_lon": 79.537508279275144, "label_lat": 18.071007940785108 }, "geometry": { "type": "Polygon", "coordinates": [ [ [ 79.596, 18.14275 ], [ 79.61324, 18.13754 ], [ 79.62198, 18.13737 ], [ 79.62346, 18.13283 ], [ 79.62463, 18.1318 ], [ 79.625, 18.12764 ], [ 79.62732, 18.12459 ], [ 79.62698, 18.11882 ], [ 79.6239, 18.11867 ], [ 79.62198, 18.11671 ], [ 79.61416, 18.11517 ], [ 79.60495, 18.11701 ], [ 79.6052, 18.10706 ], [ 79.60326, 18.09634 ], [ 79.60701, 18.09572 ], [ 79.61238, 18.09237 ], [ 79.61615, 18.08164 ], [ 79.6204, 18.07342 ], [ 79.61772, 18.06866 ], [ 79.62334, 18.0679 ], [ 79.62195, 18.06337 ], [ 79.62267, 18.0586 ], [ 79.62075, 18.05246 ], [ 79.62217, 18.04617 ], [ 79.62061, 18.04293 ], [ 79.62084, 18.03971 ], [ 79.61464, 18.03458 ], [ 79.60764, 18.03091 ], [ 79.60366, 18.03023 ], [ 79.60101, 18.03151 ], [ 79.5997, 18.03455 ], [ 79.59135, 18.04011 ], [ 79.58675, 18.04049 ], [ 79.58055, 18.03945 ], [ 79.57438, 18.04156 ], [ 79.56993, 18.0418 ], [ 79.5657, 18.04442 ], [ 79.564, 18.04659 ], [ 79.54728, 18.04928 ], [ 79.54682, 18.04662 ], [ 79.54266, 18.04102 ], [ 79.54235, 18.0363 ], [ 79.54088, 18.03146 ], [ 79.54084, 18.02934 ], [ 79.54199, 18.0278 ], [ 79.54199, 18.02404 ], [ 79.54041, 18.02415 ], [ 79.53932, 18.02271 ], [ 79.53262, 18.02358 ], [ 79.53165, 18.0194 ], [ 79.52814, 18.01927 ], [ 79.52824, 18.01518 ], [ 79.52354, 18.01354 ], [ 79.51516, 18.01182 ], [ 79.51131, 18.01256 ], [ 79.51068, 18.01185 ], [ 79.50688, 18.01217 ], [ 79.50625, 18.00988 ], [ 79.50669, 18.00899 ], [ 79.50812, 18.00878 ], [ 79.50715, 18.00607 ], [ 79.50902, 18.00569 ], [ 79.5107, 17.99188 ], [ 79.50634, 17.99492 ], [ 79.50115, 17.99568 ], [ 79.50056, 17.99808 ], [ 79.49896, 18.0 ], [ 79.49976, 18.00499 ], [ 79.49512, 18.00563 ], [ 79.49366, 18.00731 ], [ 79.49121, 18.00771 ], [ 79.49062, 18.01804 ], [ 79.48959, 18.01889 ], [ 79.4899, 18.01994 ], [ 79.48639, 18.02216 ], [ 79.48687, 18.03394 ], [ 79.48185, 18.03804 ], [ 79.47362, 18.04224 ], [ 79.46556, 18.0343 ], [ 79.45973, 18.02483 ], [ 79.45458, 18.02932 ], [ 79.44856, 18.03245 ], [ 79.43865, 18.03414 ], [ 79.43363, 18.04067 ], [ 79.43867, 18.04369 ], [ 79.43935, 18.04634 ], [ 79.43877, 18.05045 ], [ 79.44188, 18.05417 ], [ 79.44152, 18.05662 ], [ 79.44445, 18.0595 ], [ 79.44861, 18.06761 ], [ 79.44727, 18.06959 ], [ 79.45062, 18.07502 ], [ 79.45409, 18.07701 ], [ 79.45528, 18.0824 ], [ 79.45805, 18.08369 ], [ 79.45529, 18.08757 ], [ 79.45943, 18.08978 ], [ 79.46168, 18.09671 ], [ 79.46125, 18.1016 ], [ 79.46422, 18.10292 ], [ 79.468, 18.10665 ], [ 79.46803, 18.11027 ], [ 79.46643, 18.113 ], [ 79.46677, 18.11386 ], [ 79.46916, 18.11407 ], [ 79.47218, 18.10949 ], [ 79.47857, 18.10766 ], [ 79.48367, 18.10282 ], [ 79.48444, 18.10104 ], [ 79.48944, 18.09825 ], [ 79.49477, 18.09812 ], [ 79.5026, 18.0963 ], [ 79.50375, 18.09862 ], [ 79.50992, 18.10502 ], [ 79.51428, 18.10369 ], [ 79.51561, 18.10461 ], [ 79.51532, 18.1034 ], [ 79.51902, 18.10189 ], [ 79.51994, 18.09977 ], [ 79.52671, 18.09972 ], [ 79.52705, 18.10049 ], [ 79.52913, 18.10034 ], [ 79.5302, 18.10181 ], [ 79.53537, 18.10115 ], [ 79.53579, 18.10201 ], [ 79.54276, 18.10038 ], [ 79.54581, 18.10105 ], [ 79.55205, 18.09965 ], [ 79.55241, 18.10199 ], [ 79.55713, 18.10784 ], [ 79.55912, 18.11173 ], [ 79.56161, 18.1207 ], [ 79.56766, 18.11986 ], [ 79.56841, 18.12138 ], [ 79.57496, 18.12041 ], [ 79.57729, 18.12899 ], [ 79.5725, 18.13065 ], [ 79.57085, 18.13468 ], [ 79.58364, 18.14256 ], [ 79.596, 18.14275 ] ] ] } },
{ "type": "Feature", "properties": { "OBJECTID": 4614, "state_lgd": "36", "state_name": "TELANGANA", "district_lgd": "731", "district_name": "HANUMAKONDA", "district_name_source": "district_table", "subdistrict_lgd": "07131", "subdistrict_name": "INAVOLE", "subdistrict_type": "", "name_corrupted": false, "remarks": "", "label_lon": 79.547355071548154, "label_lat": 17.862689204926703 }, "geometry": { "type": "Polygon", "coordinates": [ [ [ 79.53093, 17.94026 ], [ 79.53642, 17.94081 ], [ 79.53811, 17.94217 ], [ 79.54803, 17.94291 ], [ 79.54955, 17.9378 ], [ 79.5508, 17.93734 ], [ 79.55559, 17.92658 ], [ 79.55808, 17.92386 ], [ 79.55905, 17.92128 ], [ 79.55907, 17.91769 ], [ 79.55996, 17.91674 ], [ 79.56645, 17.91298 ], [ 79.58391, 17.8995 ], [ 79.58803, 17.89767 ], [ 79.59362, 17.89738 ], [ 79.59355, 17.89077 ], [ 79.58981, 17.88309 ], [ 79.59378, 17.88075 ], [ 79.60428, 17.87709 ], [ 79.60738, 17.87221 ], [ 79.61416, 17.86872 ], [ 79.617, 17.86869 ], [ 79.61828, 17.86399 ], [ 79.61854, 17.85914 ], [ 79.61633, 17.8544 ], [ 79.6162, 17.852 ], [ 79.61453, 17.85003 ], [ 79.61647, 17.84739 ], [ 79.61678, 17.84565 ], [ 79.6209, 17.84132 ], [ 79.62158, 17.82879 ], [ 79.61362, 17.82109 ], [ 79.60004, 17.8225 ], [ 79.59677, 17.82359 ], [ 79.59408, 17.82317 ], [ 79.58628, 17.81564 ], [ 79.57775, 17.8112 ], [ 79.5742, 17.81337 ], [ 79.55916, 17.80783 ], [ 79.56007, 17.80598 ], [ 79.56409, 17.8026 ], [ 79.56465, 17.79541 ], [ 79.55288, 17.78677 ], [ 79.54867, 17.7868 ], [ 79.53582, 17.79034 ], [ 79.52522, 17.79056 ], [ 79.52185, 17.79386 ], [ 79.51424, 17.79495 ], [ 79.51344, 17.80442 ], [ 79.51515, 17.81297 ], [ 79.51458, 17.81885 ], [ 79.50848, 17.81822 ], [ 79.50166, 17.81976 ], [ 79.49506, 17.81856 ], [ 79.49336, 17.81877 ], [ 79.49094, 17.82112 ], [ 79.49331, 17.8306 ], [ 79.49282, 17.8414 ], [ 79.50041, 17.85377 ], [ 79.50229, 17.8539 ], [ 79.50234, 17.85579 ], [ 79.50514, 17.85969 ], [ 79.50275, 17.86546 ], [ 79.49743, 17.86705 ], [ 79.49588, 17.86836 ], [ 79.4928, 17.86858 ], [ 79.49158, 17.87319 ], [ 79.4918, 17.87819 ], [ 79.48732, 17.88461 ], [ 79.48748, 17.88769 ], [ 79.48854, 17.88958 ], [ 79.48683, 17.89043 ], [ 79.4875, 17.89151 ], [ 79.4887, 17.891 ], [ 79.49071, 17.89552 ], [ 79.49429, 17.90015 ], [ 79.49241, 17.90996 ], [ 79.48937, 17.91344 ], [ 79.489, 17.91605 ], [ 79.48693, 17.9178 ], [ 79.49155, 17.91786 ], [ 79.49719, 17.92011 ], [ 79.50149, 17.9235 ], [ 79.50396, 17.92297 ], [ 79.50985, 17.92648 ], [ 79.5117, 17.92548 ], [ 79.51752, 17.93081 ], [ 79.51863, 17.93841 ], [ 79.52268, 17.9443 ], [ 79.53093, 17.94026 ] ] ] } },
{ "type": "Feature", "properties": { "OBJECTID": 4615, "state_lgd": "36", "state_name": "TELANGANA", "district_lgd": "731", "district_name": "HANUMAKONDA", "district_name_source": "district_table", "subdistrict_lgd": "04447", "subdistrict_name": "KAMALAPUR", "subdistrict_type": "", "name_corrupted": false, "remarks": "", "label_lon": 79.541025354055051, "label_lat": 18.191448083419402 }, "geometry": { "type": "Polygon", "coordinates": [ [ [ 79.56309, 18.26283 ], [ 79.57187, 18.26138 ], [ 79.57795, 18.25754 ], [ 79.58209, 18.25656 ], [ 79.58591, 18.25966 ], [ 79.59385, 18.26086 ], [ 79.59739, 18.26278 ], [ 79.60679, 18.25928 ], [ 79.60031, 18.24542 ], [ 79.59135, 18.24003 ], [ 79.58832, 18.23618 ], [ 79.58665, 18.23124 ], [ 79.59104, 18.22579 ], [ 79.59171, 18.21957 ], [ 79.59668, 18.21707 ], [ 79.59803, 18.2149 ], [ 79.59698, 18.1982 ], [ 79.6127, 18.18848 ], [ 79.61085, 18.18401 ], [ 79.60787, 18.18499 ], [ 79.60978, 18.17634 ], [ 79.60476, 18.17315 ], [ 79.60266, 18.15918 ], [ 79.60126, 18.14146 ], [ 79.59573, 18.14279 ], [ 79.58364, 18.14256 ], [ 79.57085, 18.13468 ], [ 79.5725, 18.13065 ], [ 79.57729, 18.12899 ], [ 79.57496, 18.12041 ], [ 79.56841, 18.12138 ], [ 79.56766, 18.11986 ], [ 79.56015, 18.1214 ], [ 79.55934, 18.12702 ], [ 79.556, 18.12892 ], [ 79.55206, 18.12924 ], [ 79.54971, 18.13043 ], [ 79.54503, 18.13615 ], [ 79.53437, 18.13692 ], [ 79.53336, 18.13227 ], [ 79.53374, 18.13039 ], [ 79.53513, 18.12944 ], [ 79.53292, 18.12892 ], [ 79.52456, 18.13226 ], [ 79.51162, 18.13589 ], [ 79.50346, 18.13631 ], [ 79.49989, 18.13453 ], [ 79.49423, 18.13842 ], [ 79.4938, 18.13955 ], [ 79.49483, 18.14913 ], [ 79.49816, 18.1531 ], [ 79.49681, 18.15436 ], [ 79.48138, 18.16301 ], [ 79.47075, 18.16679 ], [ 79.46673, 18.16738 ], [ 79.46202, 18.16441 ], [ 79.46261, 18.1715 ], [ 79.46148, 18.17727 ], [ 79.46288, 18.18048 ], [ 79.46105, 18.18734 ], [ 79.46663, 18.18946 ], [ 79.46812, 18.1929 ], [ 79.47338, 18.19509 ], [ 79.47028, 18.19823 ], [ 79.46539, 18.20071 ], [ 79.46807, 18.21022 ], [ 79.47325, 18.21972 ], [ 79.47384, 18.22995 ], [ 79.48131, 18.23183 ], [ 79.48236, 18.22915 ], [ 79.48628, 18.23124 ], [ 79.49152, 18.2294 ], [ 79.49817, 18.23478 ], [ 79.50269, 18.2355 ], [ 79.51951, 18.24122 ], [ 79.53235, 18.23679 ], [ 79.53467, 18.2352 ], [ 79.54046, 18.23789 ], [ 79.55, 18.24726 ], [ 79.54989, 18.2504 ], [ 79.54872, 18.25264 ], [ 79.55049, 18.25881 ], [ 79.55003, 18.26255 ], [ 79.55211, 18.26536 ], [ 79.55189, 18.26782 ], [ 79.55749, 18.26477 ], [ 79.56309, 18.26283 ] ] ] } },
{ "type": "Feature", "properties": { "OBJECTID": 4616, "state_lgd": "36", "state_name": "TELANGANA", "district_lgd": "731", "district_name": "HANUMAKONDA", "district_name_source": "district_table", "subdistrict_lgd": "07133", "subdistrict_name": "KHAZIPET", "subdistrict_type": "", "name_corrupted": false, "remarks": "", "label_lon": 79.485487542092415, "label_lat": 17.954955198680192 }, "geometry": { "type": "Polygon", "coordinates": [ [ [ 79.4665, 18.00992 ], [ 79.47988, 18.00971 ], [ 79.49366, 18.00731 ], [ 79.49512, 18.00563 ], [ 79.49976, 18.00499 ], [ 79.49896, 18.0 ], [ 79.50056, 17.99808 ], [ 79.50115, 17.99568 ], [ 79.50634, 17.99492 ], [ 79.51755, 17.98744 ], [ 79.51952, 17.98215 ], [ 79.51867, 17.98004 ], [ 79.51601, 17.97751 ], [ 79.51072, 17.9794 ], [ 79.51172, 17.98043 ], [ 79.51126, 17.98207 ], [ 79.50963, 17.98209 ], [ 79.50383, 17.97777 ], [ 79.50223, 17.97185 ], [ 79.5031, 17.96986 ], [ 79.50279, 17.9609 ], [ 79.50397, 17.96015 ], [ 79.50213, 17.95893 ], [ 79.50215, 17.95832 ], [ 79.50353, 17.95826 ], [ 79.50413, 17.9568 ], [ 79.50138, 17.95422 ], [ 79.50021, 17.95093 ], [ 79.51119, 17.94646 ], [ 79.51994, 17.9454 ], [ 79.52391, 17.95033 ], [ 79.5257, 17.95447 ], [ 79.52969, 17.96006 ], [ 79.53808, 17.95912 ], [ 79.53912, 17.9578 ], [ 79.54102, 17.95716 ], [ 79.55095, 17.95621 ], [ 79.55739, 17.96058 ], [ 79.55815, 17.96213 ], [ 79.56902, 17.95997 ], [ 79.57086, 17.95667 ], [ 79.56911, 17.95346 ], [ 79.56715, 17.94141 ], [ 79.56617, 17.93936 ], [ 79.56886, 17.93494 ], [ 79.5694, 17.92959 ], [ 79.56495, 17.93141 ], [ 79.55958, 17.93213 ], [ 79.55417, 17.93004 ], [ 79.5508, 17.93734 ], [ 79.54955, 17.9378 ], [ 79.54803, 17.94291 ], [ 79.53811, 17.94217 ], [ 79.53642, 17.94081 ], [ 79.53208, 17.94003 ], [ 79.52965, 17.94053 ], [ 79.52889, 17.94167 ], [ 79.52669, 17.94188 ], [ 79.52268, 17.9443 ], [ 79.51863, 17.93841 ], [ 79.51752, 17.93081 ], [ 79.5117, 17.92548 ], [ 79.50985, 17.92648 ], [ 79.50396, 17.92297 ], [ 79.50149, 17.9235 ], [ 79.49719, 17.92011 ], [ 79.49155, 17.91786 ], [ 79.48597, 17.91752 ], [ 79.47937, 17.91423 ], [ 79.47254, 17.91722 ], [ 79.46391, 17.91063 ], [ 79.46125, 17.91074 ], [ 79.45791, 17.90845 ], [ 79.45639, 17.90986 ], [ 79.44863, 17.90873 ], [ 79.43736, 17.91321 ], [ 79.43657, 17.91775 ], [ 79.43357, 17.92272 ], [ 79.4334, 17.93808 ], [ 79.43153, 17.94417 ], [ 79.43988, 17.95114 ], [ 79.4415, 17.96175 ], [ 79.44391, 17.9635 ], [ 79.44733, 17.96995 ], [ 79.45399, 17.97869 ], [ 79.45959, 17.99152 ], [ 79.45915, 18.00107 ], [ 79.46224, 18.0074 ], [ 79.4665, 18.00992 ] ] ] } },
{ "type": "Feature", "properties": { "OBJECTID": 4617, "state_lgd": "36", "state_name": "TELANGANA", "district_lgd": "731", "district_name": "HANUMAKONDA", "district_name_source": "district_table", "subdistrict_lgd": "07129", "subdistrict_name": "NADIKUDA", "subdistrict_type": "", "name_corrupted": false, "remarks": "", "label_lon": 79.632104270609119, "label_lat": 18.202360529672376 }, "geometry": { "type": "Polygon", "coordinates": [ [ [ 79.63505, 18.27651 ], [ 79.65251, 18.25247 ], [ 79.65398, 18.24892 ], [ 79.65412, 18.24608 ], [ 79.65199, 18.24251 ], [ 79.6499, 18.24095 ], [ 79.6461, 18.2413 ], [ 79.64682, 18.23906 ], [ 79.65142, 18.23483 ], [ 79.6572, 18.23317 ], [ 79.66935, 18.23313 ], [ 79.66782, 18.22126 ], [ 79.66896, 18.21703 ], [ 79.66862, 18.21393 ], [ 79.67179, 18.20989 ], [ 79.67056, 18.20728 ], [ 79.67481, 18.20107 ], [ 79.68001, 18.20157 ], [ 79.6807, 18.20245 ], [ 79.68322, 18.20298 ], [ 79.68417, 18.20013 ], [ 79.68438, 18.19491 ], [ 79.68028, 18.19235 ], [ 79.67799, 18.18901 ], [ 79.67408, 18.18736 ], [ 79.66997, 18.1837 ], [ 79.66589, 18.18312 ], [ 79.65863, 18.18769 ], [ 79.65885, 18.17961 ], [ 79.65806, 18.17567 ], [ 79.65631, 18.17262 ], [ 79.6541, 18.17107 ], [ 79.64846, 18.17122 ], [ 79.64623, 18.16947 ], [ 79.6461, 18.16485 ], [ 79.64736, 18.16115 ], [ 79.64926, 18.16083 ], [ 79.65424, 18.16181 ], [ 79.66099, 18.1575 ], [ 79.66227, 18.1525 ], [ 79.66479, 18.15177 ], [ 79.66919, 18.14769 ], [ 79.66645, 18.14688 ], [ 79.66171, 18.13917 ], [ 79.65696, 18.1366 ], [ 79.65445, 18.13789 ], [ 79.64925, 18.13548 ], [ 79.6472, 18.13575 ], [ 79.63991, 18.13944 ], [ 79.63726, 18.13721 ], [ 79.6324, 18.13493 ], [ 79.63204, 18.13237 ], [ 79.62945, 18.13278 ], [ 79.62463, 18.1318 ], [ 79.62346, 18.13283 ], [ 79.62198, 18.13737 ], [ 79.61324, 18.13754 ], [ 79.60126, 18.14146 ], [ 79.60266, 18.15918 ], [ 79.60476, 18.17315 ], [ 79.60978, 18.17634 ], [ 79.60787, 18.18499 ], [ 79.61085, 18.18401 ], [ 79.6127, 18.18848 ], [ 79.59698, 18.1982 ], [ 79.59803, 18.2149 ], [ 79.59668, 18.21707 ], [ 79.59171, 18.21957 ], [ 79.59104, 18.22579 ], [ 79.58665, 18.23124 ], [ 79.58832, 18.23618 ], [ 79.59135, 18.24003 ], [ 79.60031, 18.24542 ], [ 79.60679, 18.25928 ], [ 79.60999, 18.26222 ], [ 79.62042, 18.2624 ], [ 79.62155, 18.26816 ], [ 79.62333, 18.26804 ], [ 79.6274, 18.27301 ], [ 79.62832, 18.28165 ], [ 79.63117, 18.28489 ], [ 79.63294, 18.28526 ], [ 79.63645, 18.28311 ], [ 79.6364, 18.28177 ], [ 79.63727, 18.28095 ], [ 79.63505, 18.27651 ] ] ] } },
{ "type": "Feature", "properties": { "OBJECTID": 4618, "state_lgd": "36", "state_name": "TELANGANA", "district_lgd": "731", "district_name": "HANUMAKONDA", "district_name_source": "district_table", "subdistrict_lgd": "04679", "subdistrict_name": "PARKAL", "subdistrict_type": "", "name_corrupted": false, "remarks": "", "label_lon": 79.690531371473483, "label_lat": 18.199731838149965 }, "geometry": { "type": "Polygon", "coordinates": [ [ [ 79.69532, 18.25092 ], [ 79.70636, 18.24601 ], [ 79.7108, 18.24093 ], [ 79.71486, 18.2335 ], [ 79.71406, 18.22772 ], [ 79.71636, 18.22375 ], [ 79.71671, 18.22091 ], [ 79.72289, 18.21977 ], [ 79.72203, 18.21071 ], [ 79.72248, 18.20945 ], [ 79.72889, 18.20669 ], [ 79.73582, 18.205 ], [ 79.73614, 18.20284 ], [ 79.73472, 18.2028 ], [ 79.73315, 18.20038 ], [ 79.72967, 18.1997 ], [ 79.72787, 18.19851 ], [ 79.7228, 18.20056 ], [ 79.72232, 18.19985 ], [ 79.72222, 18.19771 ], [ 79.7232, 18.19527 ], [ 79.72801, 18.19167 ], [ 79.72667, 18.18997 ], [ 79.72692, 18.18829 ], [ 79.72469, 18.1837 ], [ 79.72247, 18.182 ], [ 79.72384, 18.17746 ], [ 79.72262, 18.17374 ], [ 79.7195, 18.17254 ], [ 79.72151, 18.16747 ], [ 79.71958, 18.15747 ], [ 79.71814, 18.15587 ], [ 79.71423, 18.15452 ], [ 79.7095, 18.14941 ], [ 79.70941, 18.14514 ], [ 79.71285, 18.14198 ], [ 79.71363, 18.14006 ], [ 79.71299, 18.13659 ], [ 79.71113, 18.13588 ], [ 79.70596, 18.13748 ], [ 79.70105, 18.14035 ], [ 79.6848, 18.13666 ], [ 79.6848, 18.13921 ], [ 79.6841, 18.14003 ], [ 79.67937, 18.14137 ], [ 79.67767, 18.14149 ], [ 79.67608, 18.1397 ], [ 79.67081, 18.14016 ], [ 79.66529, 18.1451 ], [ 79.66645, 18.14688 ], [ 79.66919, 18.14769 ], [ 79.66479, 18.15177 ], [ 79.66227, 18.1525 ], [ 79.66099, 18.1575 ], [ 79.65387, 18.16191 ], [ 79.64979, 18.16089 ], [ 79.64736, 18.16115 ], [ 79.6461, 18.16485 ], [ 79.64605, 18.16856 ], [ 79.64692, 18.17015 ], [ 79.64846, 18.17122 ], [ 79.65452, 18.17116 ], [ 79.65755, 18.17467 ], [ 79.65903, 18.18094 ], [ 79.65863, 18.18769 ], [ 79.66589, 18.18312 ], [ 79.66997, 18.1837 ], [ 79.67408, 18.18736 ], [ 79.67799, 18.18901 ], [ 79.68028, 18.19235 ], [ 79.68438, 18.19491 ], [ 79.68417, 18.20013 ], [ 79.68322, 18.20298 ], [ 79.6807, 18.20245 ], [ 79.68001, 18.20157 ], [ 79.67481, 18.20107 ], [ 79.67056, 18.20728 ], [ 79.67179, 18.20989 ], [ 79.66862, 18.21393 ], [ 79.66896, 18.21703 ], [ 79.66782, 18.22126 ], [ 79.66935, 18.23313 ], [ 79.6572, 18.23317 ], [ 79.65142, 18.23483 ], [ 79.64682, 18.23906 ], [ 79.6461, 18.2413 ], [ 79.65024, 18.24108 ], [ 79.65199, 18.24251 ], [ 79.65412, 18.24608 ], [ 79.65398, 18.24892 ], [ 79.65251, 18.25247 ], [ 79.67069, 18.25532 ], [ 79.67942, 18.26244 ], [ 79.68271, 18.26636 ], [ 79.68545, 18.26659 ], [ 79.69113, 18.27315 ], [ 79.69707, 18.27773 ], [ 79.7044, 18.27158 ], [ 79.70167, 18.26704 ], [ 79.7002, 18.25793 ], [ 79.69597, 18.25456 ], [ 79.69532, 18.25092 ] ] ] } },
{ "type": "Feature", "properties": { "OBJECTID": 4619, "state_lgd": "36", "state_name": "TELANGANA", "district_lgd": "731", "district_name": "HANUMAKONDA", "district_name_source": "district_table", "subdistrict_lgd": "04691", "subdistrict_name": "SHAYAMPET", "subdistrict_type": "", "name_corrupted": false, "remarks": "", "label_lon": 79.754328367493684, "label_lat": 18.13845869060555 }, "geometry": { "type": "Polygon", "coordinates": [ [ [ 79.7438, 18.17747 ], [ 79.74733, 18.17866 ], [ 79.75071, 18.17539 ], [ 79.75373, 18.17427 ], [ 79.76335, 18.18217 ], [ 79.77976, 18.19005 ], [ 79.78863, 18.18999 ], [ 79.80346, 18.18309 ], [ 79.8037, 18.17946 ], [ 79.80304, 18.17731 ], [ 79.80629, 18.17076 ], [ 79.80796, 18.1624 ], [ 79.80908, 18.16197 ], [ 79.80922, 18.15671 ], [ 79.81746, 18.14466 ], [ 79.81827, 18.14063 ], [ 79.82781, 18.13657 ], [ 79.83418, 18.13754 ], [ 79.83522, 18.13629 ], [ 79.84095, 18.13469 ], [ 79.842, 18.13245 ], [ 79.83011, 18.12313 ], [ 79.82658, 18.117 ], [ 79.81968, 18.11883 ], [ 79.80396, 18.1211 ], [ 79.79961, 18.10876 ], [ 79.7989, 18.10267 ], [ 79.79587, 18.10323 ], [ 79.78767, 18.1011 ], [ 79.78332, 18.10107 ], [ 79.78207, 18.10279 ], [ 79.77955, 18.10397 ], [ 79.77689, 18.10868 ], [ 79.77259, 18.10532 ], [ 79.76407, 18.09606 ], [ 79.76399, 18.09416 ], [ 79.76314, 18.09429 ], [ 79.76182, 18.09243 ], [ 79.76086, 18.09256 ], [ 79.76052, 18.09098 ], [ 79.75938, 18.09039 ], [ 79.74722, 18.09214 ], [ 79.74742, 18.09593 ], [ 79.74346, 18.09992 ], [ 79.7408, 18.10028 ], [ 79.74036, 18.09931 ], [ 79.73457, 18.10087 ], [ 79.73313, 18.09683 ], [ 79.72942, 18.09515 ], [ 79.72496, 18.09734 ], [ 79.72669, 18.09995 ], [ 79.72321, 18.10271 ], [ 79.72121, 18.10227 ], [ 79.71877, 18.10438 ], [ 79.7135, 18.09935 ], [ 79.71077, 18.09889 ], [ 79.70709, 18.09965 ], [ 79.69849, 18.10325 ], [ 79.69566, 18.10706 ], [ 79.69907, 18.11303 ], [ 79.69039, 18.11573 ], [ 79.67801, 18.1152 ], [ 79.67333, 18.12032 ], [ 79.66245, 18.12589 ], [ 79.66014, 18.12752 ], [ 79.65991, 18.12903 ], [ 79.65846, 18.13005 ], [ 79.65855, 18.13569 ], [ 79.65696, 18.1366 ], [ 79.66171, 18.13917 ], [ 79.66529, 18.1451 ], [ 79.67081, 18.14016 ], [ 79.67608, 18.1397 ], [ 79.67785, 18.14152 ], [ 79.6841, 18.14003 ], [ 79.6848, 18.13921 ], [ 79.6848, 18.13666 ], [ 79.70105, 18.14035 ], [ 79.70645, 18.13727 ], [ 79.70813, 18.13729 ], [ 79.71085, 18.13592 ], [ 79.71237, 18.13623 ], [ 79.71335, 18.1376 ], [ 79.71363, 18.14006 ], [ 79.71285, 18.14198 ], [ 79.70941, 18.14514 ], [ 79.7095, 18.14941 ], [ 79.71423, 18.15452 ], [ 79.71814, 18.15587 ], [ 79.71958, 18.15747 ], [ 79.72151, 18.16747 ], [ 79.7195, 18.17254 ], [ 79.72262, 18.17374 ], [ 79.72384, 18.17746 ], [ 79.72247, 18.182 ], [ 79.72469, 18.1837 ], [ 79.72801, 18.19217 ], [ 79.73404, 18.18985 ], [ 79.73475, 18.18663 ], [ 79.74005, 18.18111 ], [ 79.74254, 18.18052 ], [ 79.7438, 18.17747 ] ] ] } },
{ "type": "Feature", "properties": { "OBJECTID": 4620, "state_lgd": "36", "state_name": "TELANGANA", "district_lgd": "731", "district_name": "HANUMAKONDA", "district_name_source": "district_table", "subdistrict_lgd": "07132", "subdistrict_name": "VELAIR", "subdistrict_type": "", "name_corrupted": false, "remarks": "", "label_lon": 79.320387508460854, "label_lat": 17.98874976777126 }, "geometry": { "type": "Polygon", "coordinates": [ [ [ 79.36484, 18.04981 ], [ 79.36622, 18.04408 ], [ 79.37706, 18.0446 ], [ 79.38272, 18.03086 ], [ 79.36713, 18.01452 ], [ 79.35704, 18.00213 ], [ 79.34115, 17.98923 ], [ 79.34787, 17.98274 ], [ 79.36378, 17.97651 ], [ 79.37615, 17.97338 ], [ 79.37428, 17.97111 ], [ 79.36849, 17.95797 ], [ 79.35925, 17.94064 ], [ 79.35744, 17.93815 ], [ 79.3529, 17.93632 ], [ 79.35312, 17.93102 ], [ 79.352, 17.92387 ], [ 79.34277, 17.92116 ], [ 79.33605, 17.93844 ], [ 79.31799, 17.94617 ], [ 79.30779, 17.94919 ], [ 79.30442, 17.94753 ], [ 79.29905, 17.9503 ], [ 79.28708, 17.95155 ], [ 79.28619, 17.95311 ], [ 79.27328, 17.95465 ], [ 79.26751, 17.95268 ], [ 79.27106, 17.9786 ], [ 79.26335, 17.98363 ], [ 79.2486, 17.98528 ], [ 79.23535, 17.98578 ], [ 79.22865, 17.98775 ], [ 79.23285, 17.99448 ], [ 79.2303, 18.0017 ], [ 79.23652, 18.00351 ], [ 79.24412, 18.00318 ], [ 79.24861, 18.00381 ], [ 79.2553, 18.00223 ], [ 79.26077, 18.00298 ], [ 79.28167, 18.00176 ], [ 79.28594, 18.00634 ], [ 79.29297, 18.0113 ], [ 79.29371, 18.01633 ], [ 79.29684, 18.01678 ], [ 79.30008, 18.02451 ], [ 79.3106, 18.02441 ], [ 79.31069, 18.02162 ], [ 79.31961, 18.02048 ], [ 79.32824, 18.02036 ], [ 79.33057, 18.02105 ], [ 79.32998, 18.02967 ], [ 79.33103, 18.03514 ], [ 79.32931, 18.03965 ], [ 79.33873, 18.04993 ], [ 79.34378, 18.0507 ], [ 79.35103, 18.04958 ], [ 79.35612, 18.0521 ], [ 79.36484, 18.04981 ] ] ] } }
]
}
