{
"type": "FeatureCollection",
"name": "038_HOSHIARPUR",
"crs": { "type": "name", "properties": { "name": "urn:ogc:def:crs:OGC:1.3:CRS84" } },
"xy_coordinate_resolution": 1e-05,
"features": [
{ "type": "Feature", "properties": { "OBJECTID": 2311, "state_lgd": "03", "state_name": "PUNJAB", "district_lgd": "038", "district_name": "HOSHIARPUR", "district_name_source": "district_table", "subdistrict_lgd": "00215", "subdistrict_name": "Mukerian", "subdistrict_type": "Tehsil", "name_corrupted": false, "remarks": "", "label_lon": 75.729954276355187, "label_lat": 31.946890419685605 }, "geometry": { "type": "Polygon", "coordinates": [ [ [ 75.5953, 32.069 ], [ 75.60003, 32.06867 ], [ 75.60017, 32.06665 ], [ 75.60155, 32.06554 ], [ 75.61249, 32.06837 ], [ 75.62155, 32.07219 ], [ 75.6307, 32.07419 ], [ 75.63397, 32.07239 ], [ 75.63429, 32.07124 ], [ 75.64622, 32.07274 ], [ 75.65432, 32.07732 ], [ 75.65714, 32.07751 ], [ 75.66292, 32.07573 ], [ 75.66324, 32.07401 ], [ 75.67143, 32.07194 ], [ 75.67425, 32.0704 ], [ 75.67478, 32.06938 ], [ 75.67412, 32.06711 ], [ 75.67767, 32.06333 ], [ 75.68467, 32.06133 ], [ 75.69291, 32.06043 ], [ 75.69739, 32.05885 ], [ 75.70332, 32.05515 ], [ 75.7062, 32.05136 ], [ 75.70897, 32.04401 ], [ 75.71206, 32.03999 ], [ 75.72386, 32.03259 ], [ 75.73068, 32.03571 ], [ 75.73772, 32.03715 ], [ 75.74295, 32.03945 ], [ 75.75084, 32.03768 ], [ 75.76498, 32.01991 ], [ 75.76965, 32.01598 ], [ 75.77979, 32.00465 ], [ 75.78706, 32.00055 ], [ 75.79053, 31.9997 ], [ 75.79966, 31.99375 ], [ 75.80347, 31.99288 ], [ 75.81125, 31.98794 ], [ 75.82409, 31.98341 ], [ 75.82918, 31.98353 ], [ 75.84175, 31.98194 ], [ 75.85106, 31.98201 ], [ 75.85698, 31.9738 ], [ 75.8588, 31.97292 ], [ 75.86679, 31.97209 ], [ 75.87426, 31.96946 ], [ 75.88303, 31.96889 ], [ 75.88268, 31.96582 ], [ 75.8925, 31.96178 ], [ 75.90371, 31.95272 ], [ 75.91041, 31.95011 ], [ 75.91156, 31.93987 ], [ 75.91555, 31.93101 ], [ 75.9237, 31.91981 ], [ 75.934, 31.90199 ], [ 75.93665, 31.89882 ], [ 75.93868, 31.89415 ], [ 75.93875, 31.89105 ], [ 75.94244, 31.88587 ], [ 75.94512, 31.88361 ], [ 75.9612, 31.85485 ], [ 75.96597, 31.83827 ], [ 75.97091, 31.83342 ], [ 75.97123, 31.82846 ], [ 75.97486, 31.82835 ], [ 75.97925, 31.8231 ], [ 75.98592, 31.81946 ], [ 75.98649, 31.81792 ], [ 75.9857, 31.81623 ], [ 75.98698, 31.81314 ], [ 75.98654, 31.81224 ], [ 75.9835, 31.81161 ], [ 75.98195, 31.814 ], [ 75.97857, 31.813 ], [ 75.97593, 31.8184 ], [ 75.97327, 31.81843 ], [ 75.96903, 31.82388 ], [ 75.96478, 31.82316 ], [ 75.9614, 31.81971 ], [ 75.9581, 31.81841 ], [ 75.95616, 31.81588 ], [ 75.95196, 31.81529 ], [ 75.9475, 31.81301 ], [ 75.94182, 31.81269 ], [ 75.93365, 31.81697 ], [ 75.93206, 31.82168 ], [ 75.92874, 31.82382 ], [ 75.92776, 31.82682 ], [ 75.92429, 31.82646 ], [ 75.92083, 31.82956 ], [ 75.91557, 31.82695 ], [ 75.91313, 31.8284 ], [ 75.91218, 31.83001 ], [ 75.90946, 31.83032 ], [ 75.90521, 31.83453 ], [ 75.89752, 31.83777 ], [ 75.89398, 31.83228 ], [ 75.89423, 31.82479 ], [ 75.89626, 31.82315 ], [ 75.89411, 31.82086 ], [ 75.89391, 31.81815 ], [ 75.89164, 31.81519 ], [ 75.88944, 31.81392 ], [ 75.88466, 31.81987 ], [ 75.88106, 31.81756 ], [ 75.87961, 31.8174 ], [ 75.87682, 31.81877 ], [ 75.87547, 31.81819 ], [ 75.87617, 31.8203 ], [ 75.87108, 31.8204 ], [ 75.86948, 31.82291 ], [ 75.86467, 31.8183 ], [ 75.86199, 31.81368 ], [ 75.85992, 31.81322 ], [ 75.85831, 31.81161 ], [ 75.85442, 31.8111 ], [ 75.85105, 31.80898 ], [ 75.84835, 31.80226 ], [ 75.84613, 31.80166 ], [ 75.84399, 31.79988 ], [ 75.84154, 31.80735 ], [ 75.83954, 31.80759 ], [ 75.83903, 31.81222 ], [ 75.83518, 31.81369 ], [ 75.83455, 31.8183 ], [ 75.83605, 31.82113 ], [ 75.84002, 31.82392 ], [ 75.84102, 31.82589 ], [ 75.84029, 31.82751 ], [ 75.84223, 31.82853 ], [ 75.83706, 31.83234 ], [ 75.83695, 31.83554 ], [ 75.84324, 31.83962 ], [ 75.84431, 31.84123 ], [ 75.84354, 31.84317 ], [ 75.84059, 31.84626 ], [ 75.83778, 31.8478 ], [ 75.82713, 31.85993 ], [ 75.82456, 31.86394 ], [ 75.82313, 31.86999 ], [ 75.82298, 31.87473 ], [ 75.81712, 31.8836 ], [ 75.81172, 31.88738 ], [ 75.80855, 31.88849 ], [ 75.80731, 31.8903 ], [ 75.80418, 31.89084 ], [ 75.7973, 31.89376 ], [ 75.79183, 31.89462 ], [ 75.7903, 31.89381 ], [ 75.78391, 31.89711 ], [ 75.78398, 31.89828 ], [ 75.78014, 31.89728 ], [ 75.77925, 31.89791 ], [ 75.77298, 31.89707 ], [ 75.77626, 31.90986 ], [ 75.77474, 31.91584 ], [ 75.7706, 31.91593 ], [ 75.76498, 31.91429 ], [ 75.76194, 31.91419 ], [ 75.76068, 31.91301 ], [ 75.75415, 31.9106 ], [ 75.75081, 31.91255 ], [ 75.7433, 31.908 ], [ 75.736, 31.90806 ], [ 75.73557, 31.90588 ], [ 75.73367, 31.90581 ], [ 75.73356, 31.90418 ], [ 75.73604, 31.90384 ], [ 75.73582, 31.902 ], [ 75.73192, 31.90163 ], [ 75.73159, 31.90038 ], [ 75.72823, 31.89898 ], [ 75.72825, 31.8996 ], [ 75.7238, 31.90089 ], [ 75.71646, 31.90126 ], [ 75.71353, 31.90049 ], [ 75.71258, 31.89806 ], [ 75.70646, 31.89909 ], [ 75.70586, 31.90176 ], [ 75.70211, 31.90225 ], [ 75.70136, 31.90366 ], [ 75.69901, 31.90487 ], [ 75.69758, 31.89724 ], [ 75.69124, 31.89758 ], [ 75.68779, 31.89553 ], [ 75.68941, 31.89514 ], [ 75.68926, 31.89432 ], [ 75.69123, 31.89423 ], [ 75.69141, 31.89273 ], [ 75.69341, 31.89252 ], [ 75.69424, 31.88711 ], [ 75.69385, 31.88454 ], [ 75.68632, 31.88314 ], [ 75.68507, 31.88175 ], [ 75.679, 31.88223 ], [ 75.67853, 31.88058 ], [ 75.66974, 31.88109 ], [ 75.6683, 31.87978 ], [ 75.66495, 31.87975 ], [ 75.66376, 31.87868 ], [ 75.65762, 31.87818 ], [ 75.65093, 31.88032 ], [ 75.64477, 31.8799 ], [ 75.64397, 31.88125 ], [ 75.64055, 31.88269 ], [ 75.64033, 31.88359 ], [ 75.63605, 31.88497 ], [ 75.63664, 31.88698 ], [ 75.62833, 31.88961 ], [ 75.62684, 31.88872 ], [ 75.62771, 31.88682 ], [ 75.63309, 31.88027 ], [ 75.63546, 31.87481 ], [ 75.63427, 31.87258 ], [ 75.62863, 31.87265 ], [ 75.62612, 31.87133 ], [ 75.62099, 31.87303 ], [ 75.6189, 31.87482 ], [ 75.6123, 31.87765 ], [ 75.60404, 31.87889 ], [ 75.60494, 31.8811 ], [ 75.5998, 31.88295 ], [ 75.59593, 31.883 ], [ 75.59369, 31.88411 ], [ 75.59554, 31.89101 ], [ 75.59441, 31.89073 ], [ 75.59202, 31.89316 ], [ 75.59184, 31.89695 ], [ 75.57967, 31.89409 ], [ 75.57801, 31.89138 ], [ 75.57567, 31.8911 ], [ 75.57511, 31.88878 ], [ 75.57401, 31.88783 ], [ 75.57683, 31.88433 ], [ 75.57647, 31.87989 ], [ 75.57384, 31.87961 ], [ 75.57421, 31.87549 ], [ 75.57182, 31.87674 ], [ 75.56891, 31.87534 ], [ 75.56753, 31.87734 ], [ 75.56512, 31.88817 ], [ 75.55935, 31.88776 ], [ 75.55672, 31.89934 ], [ 75.54818, 31.9097 ], [ 75.54002, 31.92592 ], [ 75.537, 31.94194 ], [ 75.53102, 31.94142 ], [ 75.5314, 31.94749 ], [ 75.53388, 31.96033 ], [ 75.53759, 31.96764 ], [ 75.54163, 31.96725 ], [ 75.54261, 31.97067 ], [ 75.54155, 31.97257 ], [ 75.54293, 31.9766 ], [ 75.54652, 31.98001 ], [ 75.54348, 31.98257 ], [ 75.5497, 31.9879 ], [ 75.55073, 31.98708 ], [ 75.55715, 31.99948 ], [ 75.55578, 32.00139 ], [ 75.54703, 32.00771 ], [ 75.54321, 32.01492 ], [ 75.5418, 32.02052 ], [ 75.54258, 32.02117 ], [ 75.54164, 32.02498 ], [ 75.53851, 32.02613 ], [ 75.53803, 32.02881 ], [ 75.53489, 32.03046 ], [ 75.55445, 32.03216 ], [ 75.55564, 32.03447 ], [ 75.55911, 32.03491 ], [ 75.5628, 32.03773 ], [ 75.56547, 32.04078 ], [ 75.56768, 32.04499 ], [ 75.56985, 32.05722 ], [ 75.57375, 32.0677 ], [ 75.58297, 32.07783 ], [ 75.59218, 32.08109 ], [ 75.59582, 32.08574 ], [ 75.59691, 32.08209 ], [ 75.59459, 32.0784 ], [ 75.59579, 32.07443 ], [ 75.59474, 32.07025 ], [ 75.5953, 32.069 ] ] ] } },
{ "type": "Feature", "properties": { "OBJECTID": 2312, "state_lgd": "03", "state_name": "PUNJAB", "district_lgd": "038", "district_name": "HOSHIARPUR", "district_name_source": "district_table", "subdistrict_lgd": "00216", "subdistrict_name": "Hoshiarpur", "subdistrict_type": "Tehsil", "name_corrupted": false, "remarks": "", "label_lon": 75.894050423405119, "label_lat": 31.568432051893677 }, "geometry": { "type": "Polygon", "coordinates": [ [ [ 75.91244, 31.82965 ], [ 75.91313, 31.8284 ], [ 75.91612, 31.82676 ], [ 75.92007, 31.82956 ], [ 75.92194, 31.82896 ], [ 75.92429, 31.82646 ], [ 75.92776, 31.82682 ], [ 75.92874, 31.82382 ], [ 75.93206, 31.82168 ], [ 75.93365, 31.81697 ], [ 75.93668, 31.81541 ], [ 75.94728, 31.7992 ], [ 75.95016, 31.79263 ], [ 75.95307, 31.78957 ], [ 75.95312, 31.78329 ], [ 75.96022, 31.78113 ], [ 75.96323, 31.77388 ], [ 75.96341, 31.76879 ], [ 75.96624, 31.76654 ], [ 75.96855, 31.75995 ], [ 75.97066, 31.75649 ], [ 75.97235, 31.75096 ], [ 75.97112, 31.74918 ], [ 75.97172, 31.7478 ], [ 75.97415, 31.74594 ], [ 75.97515, 31.74373 ], [ 75.97542, 31.74251 ], [ 75.97248, 31.74145 ], [ 75.97265, 31.73856 ], [ 75.97342, 31.73865 ], [ 75.97445, 31.73488 ], [ 75.97842, 31.73366 ], [ 75.97844, 31.73196 ], [ 75.97947, 31.73098 ], [ 75.97946, 31.72602 ], [ 75.98322, 31.72147 ], [ 75.98305, 31.71881 ], [ 75.98872, 31.7127 ], [ 75.98804, 31.71082 ], [ 75.98895, 31.70767 ], [ 75.99296, 31.7034 ], [ 75.99165, 31.70143 ], [ 75.99289, 31.69945 ], [ 75.9931, 31.69685 ], [ 75.99473, 31.69428 ], [ 75.99699, 31.69296 ], [ 75.99836, 31.68956 ], [ 76.00078, 31.68853 ], [ 76.00143, 31.68337 ], [ 76.00214, 31.68307 ], [ 76.00354, 31.67869 ], [ 76.00574, 31.676 ], [ 76.00673, 31.66314 ], [ 76.00893, 31.65871 ], [ 76.00884, 31.65721 ], [ 76.00988, 31.6555 ], [ 76.00966, 31.65335 ], [ 76.01339, 31.65165 ], [ 76.01469, 31.65185 ], [ 76.01965, 31.64886 ], [ 76.01756, 31.64759 ], [ 76.01738, 31.64661 ], [ 76.01931, 31.64256 ], [ 76.02156, 31.64153 ], [ 76.02227, 31.63961 ], [ 76.01793, 31.63313 ], [ 76.01928, 31.6305 ], [ 76.02451, 31.62457 ], [ 76.02659, 31.62462 ], [ 76.02862, 31.62288 ], [ 76.02928, 31.61895 ], [ 76.03261, 31.61747 ], [ 76.03668, 31.61325 ], [ 76.03789, 31.60952 ], [ 76.04135, 31.61068 ], [ 76.04168, 31.60931 ], [ 76.04279, 31.60917 ], [ 76.04383, 31.60709 ], [ 76.04547, 31.60603 ], [ 76.04635, 31.60349 ], [ 76.04965, 31.60257 ], [ 76.05341, 31.6057 ], [ 76.05456, 31.60614 ], [ 76.05585, 31.6055 ], [ 76.0569, 31.60275 ], [ 76.05822, 31.60177 ], [ 76.05738, 31.60091 ], [ 76.05832, 31.60033 ], [ 76.05752, 31.59746 ], [ 76.05866, 31.59697 ], [ 76.05881, 31.59594 ], [ 76.05729, 31.59406 ], [ 76.05378, 31.59322 ], [ 76.05392, 31.59226 ], [ 76.05655, 31.59092 ], [ 76.05802, 31.58885 ], [ 76.05629, 31.58533 ], [ 76.05821, 31.58411 ], [ 76.05971, 31.58132 ], [ 76.06456, 31.57963 ], [ 76.06668, 31.57322 ], [ 76.06788, 31.57299 ], [ 76.06958, 31.57036 ], [ 76.07252, 31.56974 ], [ 76.07331, 31.56393 ], [ 76.07436, 31.5624 ], [ 76.07738, 31.56076 ], [ 76.07915, 31.55783 ], [ 76.07937, 31.5557 ], [ 76.08196, 31.55186 ], [ 76.08367, 31.55119 ], [ 76.08515, 31.54852 ], [ 76.08923, 31.54762 ], [ 76.08966, 31.5451 ], [ 76.0919, 31.54415 ], [ 76.09218, 31.54071 ], [ 76.09861, 31.53725 ], [ 76.09942, 31.53504 ], [ 76.09831, 31.53432 ], [ 76.09807, 31.53265 ], [ 76.09978, 31.53087 ], [ 76.10266, 31.52506 ], [ 76.10191, 31.52239 ], [ 76.10369, 31.52058 ], [ 76.1035, 31.51916 ], [ 76.10673, 31.51194 ], [ 76.10639, 31.51015 ], [ 76.10271, 31.50946 ], [ 76.10017, 31.50717 ], [ 76.09876, 31.50705 ], [ 76.09545, 31.504 ], [ 76.09462, 31.50199 ], [ 76.09057, 31.50142 ], [ 76.08616, 31.49951 ], [ 76.07959, 31.49953 ], [ 76.07543, 31.49752 ], [ 76.0735, 31.49824 ], [ 76.07179, 31.49779 ], [ 76.0706, 31.49485 ], [ 76.07212, 31.49108 ], [ 76.07012, 31.48862 ], [ 76.06807, 31.48834 ], [ 76.06634, 31.48564 ], [ 76.06063, 31.4827 ], [ 76.05157, 31.48041 ], [ 76.04673, 31.4803 ], [ 76.04174, 31.47345 ], [ 76.0401, 31.47332 ], [ 76.04062, 31.47155 ], [ 76.04, 31.47089 ], [ 76.03346, 31.46724 ], [ 76.03175, 31.46503 ], [ 76.03259, 31.46431 ], [ 76.03258, 31.46108 ], [ 76.03064, 31.45342 ], [ 76.02858, 31.45058 ], [ 76.0285, 31.44674 ], [ 76.02627, 31.44684 ], [ 76.02117, 31.44205 ], [ 76.0222, 31.43653 ], [ 76.02325, 31.43683 ], [ 76.02436, 31.43534 ], [ 76.02516, 31.43174 ], [ 76.02423, 31.43252 ], [ 76.0182, 31.43097 ], [ 76.01768, 31.43003 ], [ 76.01858, 31.42969 ], [ 76.01363, 31.42817 ], [ 76.01096, 31.42518 ], [ 76.01285, 31.42005 ], [ 76.01394, 31.42005 ], [ 76.01448, 31.41812 ], [ 76.01644, 31.41821 ], [ 76.01726, 31.41647 ], [ 76.01673, 31.4161 ], [ 76.01393, 31.41515 ], [ 76.01248, 31.41371 ], [ 76.0094, 31.41371 ], [ 76.0082, 31.41701 ], [ 76.00718, 31.41801 ], [ 76.00568, 31.41788 ], [ 76.0054, 31.41941 ], [ 76.0004, 31.4196 ], [ 75.99617, 31.42287 ], [ 75.99523, 31.4225 ], [ 75.99349, 31.42158 ], [ 75.99385, 31.4206 ], [ 75.99269, 31.42044 ], [ 75.9925, 31.41666 ], [ 75.99185, 31.41457 ], [ 75.99086, 31.41402 ], [ 75.99279, 31.40698 ], [ 75.99241, 31.40178 ], [ 75.98745, 31.40156 ], [ 75.98098, 31.41081 ], [ 75.97913, 31.41116 ], [ 75.97674, 31.40929 ], [ 75.97278, 31.40885 ], [ 75.97253, 31.40674 ], [ 75.96127, 31.40557 ], [ 75.96186, 31.39594 ], [ 75.96046, 31.39559 ], [ 75.9584, 31.39235 ], [ 75.95838, 31.3886 ], [ 75.95673, 31.38849 ], [ 75.9564, 31.38756 ], [ 75.95134, 31.38701 ], [ 75.94981, 31.38321 ], [ 75.94487, 31.38354 ], [ 75.94119, 31.38228 ], [ 75.93317, 31.38182 ], [ 75.92998, 31.37921 ], [ 75.92703, 31.37477 ], [ 75.92154, 31.37017 ], [ 75.91881, 31.36908 ], [ 75.91013, 31.369 ], [ 75.90631, 31.3735 ], [ 75.90454, 31.37415 ], [ 75.89484, 31.37435 ], [ 75.89475, 31.37152 ], [ 75.8911, 31.36943 ], [ 75.88995, 31.36651 ], [ 75.88645, 31.36608 ], [ 75.8863, 31.36498 ], [ 75.88266, 31.36413 ], [ 75.87751, 31.36379 ], [ 75.8769, 31.35481 ], [ 75.85916, 31.35198 ], [ 75.85823, 31.34985 ], [ 75.85687, 31.34986 ], [ 75.85624, 31.35266 ], [ 75.85484, 31.35463 ], [ 75.85381, 31.36265 ], [ 75.84975, 31.37279 ], [ 75.84112, 31.37108 ], [ 75.8388, 31.36959 ], [ 75.83632, 31.37278 ], [ 75.82973, 31.36978 ], [ 75.83365, 31.36235 ], [ 75.83263, 31.36212 ], [ 75.83242, 31.36059 ], [ 75.82385, 31.35899 ], [ 75.82431, 31.35747 ], [ 75.82176, 31.35695 ], [ 75.82145, 31.35786 ], [ 75.81998, 31.35782 ], [ 75.81949, 31.35875 ], [ 75.81731, 31.35939 ], [ 75.81654, 31.36187 ], [ 75.81234, 31.36063 ], [ 75.8111, 31.36559 ], [ 75.80875, 31.37043 ], [ 75.80453, 31.36968 ], [ 75.80311, 31.37222 ], [ 75.80149, 31.37311 ], [ 75.80156, 31.37399 ], [ 75.79473, 31.37182 ], [ 75.79438, 31.37009 ], [ 75.78604, 31.36874 ], [ 75.7811, 31.3822 ], [ 75.78609, 31.38225 ], [ 75.80359, 31.38875 ], [ 75.80369, 31.3897 ], [ 75.80572, 31.39154 ], [ 75.80531, 31.39239 ], [ 75.80621, 31.39258 ], [ 75.80539, 31.39591 ], [ 75.80688, 31.39651 ], [ 75.80562, 31.3989 ], [ 75.82046, 31.40456 ], [ 75.81901, 31.40713 ], [ 75.81769, 31.41279 ], [ 75.81616, 31.41261 ], [ 75.8123, 31.42073 ], [ 75.81509, 31.42215 ], [ 75.81658, 31.42596 ], [ 75.81558, 31.43097 ], [ 75.81364, 31.43072 ], [ 75.8119, 31.43413 ], [ 75.80966, 31.43483 ], [ 75.80951, 31.43551 ], [ 75.80569, 31.4352 ], [ 75.79947, 31.4538 ], [ 75.79669, 31.45373 ], [ 75.7953, 31.4502 ], [ 75.78981, 31.44871 ], [ 75.78677, 31.45195 ], [ 75.78354, 31.45753 ], [ 75.78764, 31.45977 ], [ 75.78588, 31.4628 ], [ 75.78219, 31.46227 ], [ 75.7786, 31.47157 ], [ 75.77221, 31.47137 ], [ 75.76951, 31.47218 ], [ 75.76744, 31.47487 ], [ 75.76666, 31.47452 ], [ 75.76517, 31.47552 ], [ 75.76449, 31.47708 ], [ 75.75936, 31.47567 ], [ 75.75605, 31.48107 ], [ 75.75457, 31.47999 ], [ 75.75289, 31.48515 ], [ 75.74758, 31.48497 ], [ 75.74635, 31.48645 ], [ 75.74399, 31.48703 ], [ 75.74354, 31.49085 ], [ 75.74054, 31.49279 ], [ 75.73845, 31.49537 ], [ 75.73606, 31.49487 ], [ 75.73437, 31.49934 ], [ 75.73682, 31.49937 ], [ 75.73684, 31.50094 ], [ 75.73817, 31.5024 ], [ 75.73327, 31.50469 ], [ 75.73474, 31.50656 ], [ 75.73354, 31.51238 ], [ 75.73437, 31.51363 ], [ 75.73319, 31.51711 ], [ 75.72698, 31.51594 ], [ 75.72309, 31.52202 ], [ 75.71714, 31.51994 ], [ 75.71549, 31.52497 ], [ 75.71299, 31.52708 ], [ 75.71255, 31.52926 ], [ 75.70867, 31.52996 ], [ 75.70263, 31.52908 ], [ 75.70122, 31.53236 ], [ 75.70179, 31.53359 ], [ 75.6993, 31.53938 ], [ 75.70569, 31.54188 ], [ 75.70357, 31.5558 ], [ 75.69532, 31.55419 ], [ 75.69401, 31.55807 ], [ 75.69133, 31.56165 ], [ 75.69025, 31.56657 ], [ 75.6884, 31.56673 ], [ 75.68895, 31.57004 ], [ 75.68457, 31.5714 ], [ 75.68157, 31.57431 ], [ 75.67982, 31.57954 ], [ 75.68222, 31.58287 ], [ 75.68069, 31.58968 ], [ 75.68173, 31.59021 ], [ 75.68145, 31.59206 ], [ 75.68537, 31.59308 ], [ 75.68556, 31.59425 ], [ 75.69069, 31.59559 ], [ 75.69068, 31.59449 ], [ 75.69192, 31.59466 ], [ 75.69494, 31.58747 ], [ 75.69695, 31.58745 ], [ 75.69671, 31.58652 ], [ 75.70086, 31.58507 ], [ 75.70208, 31.58596 ], [ 75.71194, 31.58545 ], [ 75.71308, 31.58573 ], [ 75.71295, 31.59149 ], [ 75.71178, 31.59391 ], [ 75.71231, 31.59454 ], [ 75.71405, 31.59469 ], [ 75.71402, 31.59306 ], [ 75.71704, 31.5939 ], [ 75.71893, 31.59305 ], [ 75.72131, 31.59448 ], [ 75.72564, 31.59535 ], [ 75.72462, 31.59129 ], [ 75.72524, 31.58674 ], [ 75.72786, 31.58723 ], [ 75.73028, 31.58909 ], [ 75.7339, 31.59004 ], [ 75.73328, 31.59133 ], [ 75.73435, 31.59258 ], [ 75.73499, 31.59764 ], [ 75.73756, 31.5985 ], [ 75.74631, 31.59908 ], [ 75.74582, 31.60024 ], [ 75.74715, 31.60341 ], [ 75.74531, 31.60374 ], [ 75.74455, 31.60669 ], [ 75.73918, 31.60525 ], [ 75.73742, 31.60747 ], [ 75.73677, 31.61036 ], [ 75.74024, 31.61331 ], [ 75.7409, 31.61591 ], [ 75.74763, 31.61724 ], [ 75.75, 31.6195 ], [ 75.75333, 31.6212 ], [ 75.7586, 31.62165 ], [ 75.7617, 31.6194 ], [ 75.76867, 31.61953 ], [ 75.77232, 31.62019 ], [ 75.77473, 31.6219 ], [ 75.76852, 31.63181 ], [ 75.7633, 31.63138 ], [ 75.76118, 31.63298 ], [ 75.75416, 31.63412 ], [ 75.75092, 31.63609 ], [ 75.74495, 31.63641 ], [ 75.74266, 31.63561 ], [ 75.74153, 31.63452 ], [ 75.74143, 31.63295 ], [ 75.74014, 31.63288 ], [ 75.7376, 31.62942 ], [ 75.73617, 31.6289 ], [ 75.72401, 31.63003 ], [ 75.71936, 31.62867 ], [ 75.71883, 31.63074 ], [ 75.71777, 31.63151 ], [ 75.71761, 31.64028 ], [ 75.70387, 31.64149 ], [ 75.70166, 31.65371 ], [ 75.70713, 31.65478 ], [ 75.71133, 31.65452 ], [ 75.71088, 31.6597 ], [ 75.71686, 31.66053 ], [ 75.71518, 31.66679 ], [ 75.71808, 31.66735 ], [ 75.71717, 31.67511 ], [ 75.72293, 31.67652 ], [ 75.72388, 31.67831 ], [ 75.72733, 31.67929 ], [ 75.72888, 31.67679 ], [ 75.73268, 31.67607 ], [ 75.73273, 31.66893 ], [ 75.73409, 31.66772 ], [ 75.73263, 31.66335 ], [ 75.72727, 31.66141 ], [ 75.72826, 31.65918 ], [ 75.73009, 31.65783 ], [ 75.73082, 31.65095 ], [ 75.73639, 31.65161 ], [ 75.73669, 31.65338 ], [ 75.74135, 31.65431 ], [ 75.74225, 31.65122 ], [ 75.7445, 31.65064 ], [ 75.74653, 31.64814 ], [ 75.74769, 31.64812 ], [ 75.74857, 31.64844 ], [ 75.74911, 31.65004 ], [ 75.76466, 31.65393 ], [ 75.76345, 31.65908 ], [ 75.76488, 31.65942 ], [ 75.76383, 31.66188 ], [ 75.76298, 31.66165 ], [ 75.75779, 31.67148 ], [ 75.75, 31.6715 ], [ 75.74693, 31.67508 ], [ 75.75008, 31.6804 ], [ 75.75052, 31.68424 ], [ 75.75818, 31.68344 ], [ 75.7701, 31.6851 ], [ 75.77054, 31.6896 ], [ 75.77212, 31.68965 ], [ 75.7722, 31.69054 ], [ 75.7771, 31.69254 ], [ 75.77589, 31.69577 ], [ 75.77598, 31.69931 ], [ 75.7749, 31.69931 ], [ 75.77485, 31.70151 ], [ 75.78093, 31.70289 ], [ 75.78222, 31.70078 ], [ 75.78496, 31.70101 ], [ 75.78548, 31.70126 ], [ 75.78468, 31.70263 ], [ 75.78571, 31.70352 ], [ 75.79306, 31.70715 ], [ 75.79554, 31.70733 ], [ 75.79751, 31.70405 ], [ 75.80355, 31.70803 ], [ 75.80371, 31.71024 ], [ 75.79874, 31.71755 ], [ 75.79883, 31.71947 ], [ 75.79491, 31.72772 ], [ 75.79461, 31.73131 ], [ 75.79784, 31.73204 ], [ 75.79834, 31.73328 ], [ 75.80122, 31.73467 ], [ 75.81355, 31.73594 ], [ 75.82327, 31.73598 ], [ 75.82475, 31.73529 ], [ 75.82547, 31.73378 ], [ 75.84409, 31.7339 ], [ 75.84414, 31.7362 ], [ 75.84649, 31.73794 ], [ 75.85438, 31.73919 ], [ 75.85692, 31.73872 ], [ 75.86553, 31.74165 ], [ 75.86877, 31.74478 ], [ 75.87365, 31.74616 ], [ 75.87677, 31.7462 ], [ 75.8805, 31.74787 ], [ 75.884, 31.74742 ], [ 75.8873, 31.74897 ], [ 75.88867, 31.75236 ], [ 75.88634, 31.75657 ], [ 75.88757, 31.75933 ], [ 75.88751, 31.76133 ], [ 75.88878, 31.76215 ], [ 75.89013, 31.76152 ], [ 75.89204, 31.76372 ], [ 75.89171, 31.76549 ], [ 75.89458, 31.76813 ], [ 75.89507, 31.77246 ], [ 75.89351, 31.77549 ], [ 75.89629, 31.77869 ], [ 75.89799, 31.78212 ], [ 75.8966, 31.78357 ], [ 75.89859, 31.7863 ], [ 75.89778, 31.78692 ], [ 75.90029, 31.78786 ], [ 75.90012, 31.78896 ], [ 75.89838, 31.7902 ], [ 75.89399, 31.79066 ], [ 75.89293, 31.79206 ], [ 75.89738, 31.80259 ], [ 75.89689, 31.80567 ], [ 75.89788, 31.80811 ], [ 75.89766, 31.81169 ], [ 75.90194, 31.81192 ], [ 75.90239, 31.81344 ], [ 75.90385, 31.81461 ], [ 75.90401, 31.81673 ], [ 75.90497, 31.81721 ], [ 75.90543, 31.81895 ], [ 75.90667, 31.81796 ], [ 75.90847, 31.81811 ], [ 75.90793, 31.81907 ], [ 75.9089, 31.81982 ], [ 75.90791, 31.82098 ], [ 75.90933, 31.82195 ], [ 75.90923, 31.82426 ], [ 75.91244, 31.82965 ] ] ] } },
{ "type": "Feature", "properties": { "OBJECTID": 2314, "state_lgd": "03", "state_name": "PUNJAB", "district_lgd": "038", "district_name": "HOSHIARPUR", "district_name_source": "district_table", "subdistrict_lgd": "00214", "subdistrict_name": "Dasua", "subdistrict_type": "Tehsil", "name_corrupted": false, "remarks": "", "label_lon": 75.717210346282812, "label_lat": 31.800839359690386 }, "geometry": { "type": "Polygon", "coordinates": [ [ [ 75.87556, 31.81825 ], [ 75.87682, 31.81877 ], [ 75.87961, 31.8174 ], [ 75.88106, 31.81756 ], [ 75.88466, 31.81987 ], [ 75.88944, 31.81392 ], [ 75.89164, 31.81519 ], [ 75.89391, 31.81815 ], [ 75.89411, 31.82086 ], [ 75.89626, 31.82315 ], [ 75.89423, 31.82479 ], [ 75.89398, 31.83228 ], [ 75.89752, 31.83777 ], [ 75.90521, 31.83453 ], [ 75.90946, 31.83032 ], [ 75.91218, 31.83001 ], [ 75.91244, 31.82965 ], [ 75.90923, 31.82426 ], [ 75.90933, 31.82195 ], [ 75.90791, 31.82098 ], [ 75.9089, 31.81982 ], [ 75.90793, 31.81907 ], [ 75.90847, 31.81811 ], [ 75.90667, 31.81796 ], [ 75.90543, 31.81895 ], [ 75.90497, 31.81721 ], [ 75.90401, 31.81673 ], [ 75.90385, 31.81461 ], [ 75.90239, 31.81344 ], [ 75.90194, 31.81192 ], [ 75.89766, 31.81169 ], [ 75.89788, 31.80811 ], [ 75.89689, 31.80567 ], [ 75.89738, 31.80259 ], [ 75.89293, 31.79206 ], [ 75.89399, 31.79066 ], [ 75.89838, 31.7902 ], [ 75.90012, 31.78896 ], [ 75.90029, 31.78786 ], [ 75.89778, 31.78692 ], [ 75.89859, 31.7863 ], [ 75.8966, 31.78357 ], [ 75.89799, 31.78212 ], [ 75.89629, 31.77869 ], [ 75.89351, 31.77549 ], [ 75.89507, 31.77246 ], [ 75.89458, 31.76813 ], [ 75.89171, 31.76549 ], [ 75.89204, 31.76372 ], [ 75.89013, 31.76152 ], [ 75.88878, 31.76215 ], [ 75.88751, 31.76133 ], [ 75.88757, 31.75933 ], [ 75.88634, 31.75657 ], [ 75.88867, 31.75236 ], [ 75.8873, 31.74897 ], [ 75.884, 31.74742 ], [ 75.8805, 31.74787 ], [ 75.87677, 31.7462 ], [ 75.87365, 31.74616 ], [ 75.86877, 31.74478 ], [ 75.86553, 31.74165 ], [ 75.85692, 31.73872 ], [ 75.85438, 31.73919 ], [ 75.84649, 31.73794 ], [ 75.84414, 31.7362 ], [ 75.84409, 31.7339 ], [ 75.82547, 31.73378 ], [ 75.82475, 31.73529 ], [ 75.82327, 31.73598 ], [ 75.81355, 31.73594 ], [ 75.80122, 31.73467 ], [ 75.79834, 31.73328 ], [ 75.79784, 31.73204 ], [ 75.79461, 31.73131 ], [ 75.79491, 31.72772 ], [ 75.79883, 31.71947 ], [ 75.79874, 31.71755 ], [ 75.80371, 31.71024 ], [ 75.80355, 31.70803 ], [ 75.79751, 31.70405 ], [ 75.79554, 31.70733 ], [ 75.79306, 31.70715 ], [ 75.78571, 31.70352 ], [ 75.78468, 31.70263 ], [ 75.78548, 31.70126 ], [ 75.78496, 31.70101 ], [ 75.78222, 31.70078 ], [ 75.78093, 31.70289 ], [ 75.77485, 31.70151 ], [ 75.7749, 31.69931 ], [ 75.77598, 31.69931 ], [ 75.77589, 31.69577 ], [ 75.7771, 31.69254 ], [ 75.7722, 31.69054 ], [ 75.77212, 31.68965 ], [ 75.77054, 31.6896 ], [ 75.7701, 31.6851 ], [ 75.76198, 31.68375 ], [ 75.75366, 31.68361 ], [ 75.75332, 31.68519 ], [ 75.75144, 31.68626 ], [ 75.75162, 31.68724 ], [ 75.75024, 31.68823 ], [ 75.75077, 31.68916 ], [ 75.74869, 31.68962 ], [ 75.74793, 31.69074 ], [ 75.75027, 31.69504 ], [ 75.75523, 31.69755 ], [ 75.75495, 31.70465 ], [ 75.75302, 31.70496 ], [ 75.75206, 31.70633 ], [ 75.74508, 31.70582 ], [ 75.74447, 31.70142 ], [ 75.73538, 31.70034 ], [ 75.73238, 31.70045 ], [ 75.73158, 31.70162 ], [ 75.73055, 31.69985 ], [ 75.72562, 31.69926 ], [ 75.72622, 31.69697 ], [ 75.72538, 31.69684 ], [ 75.72488, 31.69425 ], [ 75.72228, 31.69394 ], [ 75.72252, 31.69184 ], [ 75.72565, 31.68844 ], [ 75.72802, 31.69004 ], [ 75.73209, 31.68358 ], [ 75.73692, 31.68397 ], [ 75.74449, 31.68596 ], [ 75.75052, 31.68424 ], [ 75.75008, 31.6804 ], [ 75.74693, 31.67508 ], [ 75.74999, 31.67149 ], [ 75.74452, 31.67141 ], [ 75.7439, 31.67077 ], [ 75.74521, 31.66861 ], [ 75.74471, 31.66833 ], [ 75.73523, 31.66697 ], [ 75.7329, 31.66824 ], [ 75.73268, 31.67607 ], [ 75.72888, 31.67679 ], [ 75.72767, 31.67926 ], [ 75.72388, 31.67831 ], [ 75.72293, 31.67652 ], [ 75.71717, 31.67511 ], [ 75.71586, 31.67837 ], [ 75.71048, 31.67795 ], [ 75.70884, 31.68311 ], [ 75.7071, 31.68544 ], [ 75.70815, 31.69328 ], [ 75.70957, 31.69339 ], [ 75.70867, 31.69786 ], [ 75.70402, 31.69783 ], [ 75.70398, 31.69987 ], [ 75.69948, 31.701 ], [ 75.69816, 31.70014 ], [ 75.69807, 31.69878 ], [ 75.69614, 31.69823 ], [ 75.69486, 31.69518 ], [ 75.69181, 31.69486 ], [ 75.6916, 31.69581 ], [ 75.68031, 31.70454 ], [ 75.68085, 31.70611 ], [ 75.68005, 31.70971 ], [ 75.6812, 31.7102 ], [ 75.68004, 31.71107 ], [ 75.68112, 31.71218 ], [ 75.68677, 31.71429 ], [ 75.68489, 31.72204 ], [ 75.68558, 31.72204 ], [ 75.68643, 31.72372 ], [ 75.69689, 31.72687 ], [ 75.69702, 31.72817 ], [ 75.68944, 31.73081 ], [ 75.6885, 31.72969 ], [ 75.68603, 31.72917 ], [ 75.67692, 31.72971 ], [ 75.67992, 31.74422 ], [ 75.68988, 31.74595 ], [ 75.69003, 31.74448 ], [ 75.69141, 31.74448 ], [ 75.69161, 31.7434 ], [ 75.69724, 31.74168 ], [ 75.69812, 31.74323 ], [ 75.6983, 31.74784 ], [ 75.69472, 31.75389 ], [ 75.70565, 31.75302 ], [ 75.70703, 31.75703 ], [ 75.71236, 31.75748 ], [ 75.71232, 31.75924 ], [ 75.71113, 31.7611 ], [ 75.70641, 31.76084 ], [ 75.70624, 31.76232 ], [ 75.70333, 31.76218 ], [ 75.70191, 31.76388 ], [ 75.6966, 31.76316 ], [ 75.69656, 31.76226 ], [ 75.69434, 31.76128 ], [ 75.69257, 31.76395 ], [ 75.68938, 31.76377 ], [ 75.68992, 31.76635 ], [ 75.67589, 31.7639 ], [ 75.67446, 31.76306 ], [ 75.67437, 31.76374 ], [ 75.6695, 31.76187 ], [ 75.67087, 31.75679 ], [ 75.67136, 31.74874 ], [ 75.67009, 31.74868 ], [ 75.66775, 31.756 ], [ 75.66605, 31.75557 ], [ 75.66477, 31.74767 ], [ 75.66154, 31.74631 ], [ 75.66035, 31.75102 ], [ 75.65879, 31.75268 ], [ 75.65737, 31.75668 ], [ 75.65835, 31.75784 ], [ 75.6572, 31.75785 ], [ 75.65708, 31.75702 ], [ 75.65264, 31.75686 ], [ 75.65254, 31.75627 ], [ 75.64852, 31.75743 ], [ 75.64847, 31.75877 ], [ 75.64653, 31.75885 ], [ 75.64758, 31.76131 ], [ 75.65189, 31.76128 ], [ 75.65254, 31.76234 ], [ 75.65573, 31.76204 ], [ 75.65685, 31.76377 ], [ 75.65713, 31.76748 ], [ 75.65883, 31.76748 ], [ 75.65906, 31.77011 ], [ 75.66133, 31.77058 ], [ 75.66084, 31.77171 ], [ 75.65766, 31.77325 ], [ 75.65721, 31.77733 ], [ 75.65611, 31.77748 ], [ 75.65566, 31.77901 ], [ 75.65179, 31.77828 ], [ 75.64972, 31.77234 ], [ 75.64917, 31.77163 ], [ 75.64717, 31.77174 ], [ 75.64622, 31.76931 ], [ 75.64548, 31.76919 ], [ 75.64135, 31.77127 ], [ 75.63558, 31.77233 ], [ 75.63678, 31.77594 ], [ 75.63697, 31.78196 ], [ 75.63623, 31.78231 ], [ 75.62973, 31.78243 ], [ 75.62972, 31.78146 ], [ 75.62372, 31.78127 ], [ 75.62317, 31.78014 ], [ 75.62084, 31.78021 ], [ 75.62053, 31.77903 ], [ 75.61984, 31.77911 ], [ 75.61923, 31.77517 ], [ 75.61835, 31.77513 ], [ 75.61813, 31.77404 ], [ 75.61945, 31.77308 ], [ 75.62454, 31.77297 ], [ 75.62567, 31.76814 ], [ 75.62233, 31.768 ], [ 75.62253, 31.76563 ], [ 75.61956, 31.76479 ], [ 75.61037, 31.76459 ], [ 75.61143, 31.75239 ], [ 75.6109, 31.7502 ], [ 75.61267, 31.74658 ], [ 75.6115, 31.7454 ], [ 75.61668, 31.74598 ], [ 75.6171, 31.74401 ], [ 75.61567, 31.74196 ], [ 75.61547, 31.73848 ], [ 75.61409, 31.73832 ], [ 75.61391, 31.73563 ], [ 75.61926, 31.73609 ], [ 75.61868, 31.73209 ], [ 75.62064, 31.73206 ], [ 75.61723, 31.73007 ], [ 75.61335, 31.72627 ], [ 75.61128, 31.7192 ], [ 75.60859, 31.71691 ], [ 75.609, 31.71355 ], [ 75.60716, 31.71125 ], [ 75.60368, 31.71166 ], [ 75.603, 31.712 ], [ 75.60327, 31.71347 ], [ 75.59986, 31.71478 ], [ 75.59791, 31.71116 ], [ 75.59862, 31.71031 ], [ 75.59753, 31.70821 ], [ 75.59096, 31.70884 ], [ 75.59033, 31.70834 ], [ 75.58464, 31.70947 ], [ 75.58547, 31.71055 ], [ 75.58774, 31.7096 ], [ 75.58706, 31.71117 ], [ 75.58875, 31.71254 ], [ 75.58743, 31.71408 ], [ 75.5899, 31.71415 ], [ 75.59015, 31.71473 ], [ 75.58758, 31.71654 ], [ 75.58332, 31.71641 ], [ 75.58307, 31.71797 ], [ 75.58217, 31.71836 ], [ 75.5758, 31.71839 ], [ 75.57575, 31.72425 ], [ 75.57127, 31.72499 ], [ 75.5717, 31.72657 ], [ 75.56882, 31.72824 ], [ 75.56891, 31.72971 ], [ 75.56825, 31.72932 ], [ 75.56361, 31.73094 ], [ 75.56371, 31.73196 ], [ 75.55962, 31.73062 ], [ 75.55277, 31.73247 ], [ 75.55513, 31.73663 ], [ 75.55187, 31.7385 ], [ 75.54666, 31.7459 ], [ 75.54144, 31.74967 ], [ 75.5427, 31.75045 ], [ 75.53743, 31.75064 ], [ 75.53837, 31.75391 ], [ 75.53769, 31.75829 ], [ 75.53837, 31.75937 ], [ 75.53857, 31.76491 ], [ 75.54076, 31.76499 ], [ 75.53375, 31.77359 ], [ 75.52946, 31.78228 ], [ 75.5332, 31.77928 ], [ 75.5366, 31.7779 ], [ 75.54356, 31.77656 ], [ 75.55244, 31.7766 ], [ 75.55907, 31.7822 ], [ 75.56196, 31.78919 ], [ 75.56168, 31.79106 ], [ 75.56387, 31.79477 ], [ 75.55903, 31.79886 ], [ 75.55919, 31.79942 ], [ 75.56622, 31.80007 ], [ 75.56756, 31.80095 ], [ 75.56893, 31.80697 ], [ 75.56738, 31.81236 ], [ 75.56857, 31.81422 ], [ 75.568, 31.81492 ], [ 75.56472, 31.81448 ], [ 75.5634, 31.81991 ], [ 75.56149, 31.82295 ], [ 75.56158, 31.82486 ], [ 75.56288, 31.82635 ], [ 75.5624, 31.8275 ], [ 75.55789, 31.82707 ], [ 75.55774, 31.82643 ], [ 75.55492, 31.82591 ], [ 75.55107, 31.82604 ], [ 75.5507, 31.83667 ], [ 75.55142, 31.83987 ], [ 75.55006, 31.8397 ], [ 75.54781, 31.84871 ], [ 75.55364, 31.84957 ], [ 75.55374, 31.85068 ], [ 75.56242, 31.85103 ], [ 75.56452, 31.85418 ], [ 75.56954, 31.85483 ], [ 75.56891, 31.87534 ], [ 75.57182, 31.87674 ], [ 75.57421, 31.87549 ], [ 75.57367, 31.87924 ], [ 75.57647, 31.87989 ], [ 75.57711, 31.88314 ], [ 75.57401, 31.88783 ], [ 75.57511, 31.88878 ], [ 75.57567, 31.8911 ], [ 75.57801, 31.89138 ], [ 75.57967, 31.89409 ], [ 75.59184, 31.89695 ], [ 75.59202, 31.89316 ], [ 75.59441, 31.89073 ], [ 75.59554, 31.89101 ], [ 75.59369, 31.88411 ], [ 75.59593, 31.883 ], [ 75.5998, 31.88295 ], [ 75.60494, 31.8811 ], [ 75.60404, 31.87889 ], [ 75.6123, 31.87765 ], [ 75.6189, 31.87482 ], [ 75.62099, 31.87303 ], [ 75.62612, 31.87133 ], [ 75.62863, 31.87265 ], [ 75.63427, 31.87258 ], [ 75.63546, 31.87481 ], [ 75.63309, 31.88027 ], [ 75.62771, 31.88682 ], [ 75.62684, 31.88872 ], [ 75.62833, 31.88961 ], [ 75.63664, 31.88698 ], [ 75.63605, 31.88497 ], [ 75.64033, 31.88359 ], [ 75.64055, 31.88269 ], [ 75.64397, 31.88125 ], [ 75.64477, 31.8799 ], [ 75.65093, 31.88032 ], [ 75.65762, 31.87818 ], [ 75.66376, 31.87868 ], [ 75.66495, 31.87975 ], [ 75.6683, 31.87978 ], [ 75.66974, 31.88109 ], [ 75.67853, 31.88058 ], [ 75.679, 31.88223 ], [ 75.68507, 31.88175 ], [ 75.68632, 31.88314 ], [ 75.69385, 31.88454 ], [ 75.69424, 31.88711 ], [ 75.69341, 31.89252 ], [ 75.69141, 31.89273 ], [ 75.69123, 31.89423 ], [ 75.68926, 31.89432 ], [ 75.68941, 31.89514 ], [ 75.68779, 31.89553 ], [ 75.69124, 31.89758 ], [ 75.69758, 31.89724 ], [ 75.69901, 31.90487 ], [ 75.70136, 31.90366 ], [ 75.70211, 31.90225 ], [ 75.70586, 31.90176 ], [ 75.70646, 31.89909 ], [ 75.71258, 31.89806 ], [ 75.71353, 31.90049 ], [ 75.71646, 31.90126 ], [ 75.7238, 31.90089 ], [ 75.72825, 31.8996 ], [ 75.72823, 31.89898 ], [ 75.73159, 31.90038 ], [ 75.73192, 31.90163 ], [ 75.73582, 31.902 ], [ 75.73604, 31.90384 ], [ 75.73356, 31.90418 ], [ 75.73367, 31.90581 ], [ 75.73557, 31.90588 ], [ 75.736, 31.90806 ], [ 75.7433, 31.908 ], [ 75.75081, 31.91255 ], [ 75.75452, 31.91065 ], [ 75.76068, 31.91301 ], [ 75.76165, 31.91411 ], [ 75.7706, 31.91593 ], [ 75.77474, 31.91584 ], [ 75.77626, 31.90986 ], [ 75.77298, 31.89707 ], [ 75.77925, 31.89791 ], [ 75.78014, 31.89728 ], [ 75.78398, 31.89828 ], [ 75.78391, 31.89711 ], [ 75.7903, 31.89381 ], [ 75.79183, 31.89462 ], [ 75.7973, 31.89376 ], [ 75.80418, 31.89084 ], [ 75.80731, 31.8903 ], [ 75.80855, 31.88849 ], [ 75.81172, 31.88738 ], [ 75.81712, 31.8836 ], [ 75.82298, 31.87473 ], [ 75.82313, 31.86999 ], [ 75.82456, 31.86394 ], [ 75.82713, 31.85993 ], [ 75.83778, 31.8478 ], [ 75.84059, 31.84626 ], [ 75.84354, 31.84317 ], [ 75.84431, 31.84123 ], [ 75.84324, 31.83962 ], [ 75.83695, 31.83554 ], [ 75.83706, 31.83234 ], [ 75.84223, 31.82853 ], [ 75.84029, 31.82751 ], [ 75.84102, 31.82589 ], [ 75.84002, 31.82392 ], [ 75.83605, 31.82113 ], [ 75.83455, 31.8183 ], [ 75.83518, 31.81369 ], [ 75.83903, 31.81222 ], [ 75.83954, 31.80759 ], [ 75.84154, 31.80735 ], [ 75.84399, 31.79988 ], [ 75.84613, 31.80166 ], [ 75.84835, 31.80226 ], [ 75.85105, 31.80898 ], [ 75.85442, 31.8111 ], [ 75.85831, 31.81161 ], [ 75.85992, 31.81322 ], [ 75.86199, 31.81368 ], [ 75.86467, 31.8183 ], [ 75.86948, 31.82291 ], [ 75.87108, 31.8204 ], [ 75.87617, 31.8203 ], [ 75.87556, 31.81825 ] ] ] } },
{ "type": "Feature", "properties": { "OBJECTID": 2370, "state_lgd": "03", "state_name": "PUNJAB", "district_lgd": "038", "district_name": "HOSHIARPUR", "district_name_source": "district_table", "subdistrict_lgd": "00217", "subdistrict_name": "Garhshankar", "subdistrict_type": "Tehsil", "name_corrupted": false, "remarks": "", "label_lon": 76.09344491677949, "label_lat": 31.311312003753859 }, "geometry": { "type": "Polygon", "coordinates": [ [ [ 76.10639, 31.51015 ], [ 76.11003, 31.50687 ], [ 76.11294, 31.50012 ], [ 76.12069, 31.49766 ], [ 76.11916, 31.49316 ], [ 76.12075, 31.4893 ], [ 76.11933, 31.48564 ], [ 76.11732, 31.48422 ], [ 76.11705, 31.48301 ], [ 76.11911, 31.48031 ], [ 76.1209, 31.48015 ], [ 76.12165, 31.47733 ], [ 76.1277, 31.47453 ], [ 76.12871, 31.47178 ], [ 76.13069, 31.47104 ], [ 76.13101, 31.47027 ], [ 76.12967, 31.46741 ], [ 76.13028, 31.46505 ], [ 76.13226, 31.46224 ], [ 76.13468, 31.46141 ], [ 76.13419, 31.46058 ], [ 76.13545, 31.45867 ], [ 76.13405, 31.45701 ], [ 76.13445, 31.45358 ], [ 76.13313, 31.45189 ], [ 76.13899, 31.4487 ], [ 76.13948, 31.44565 ], [ 76.14038, 31.44475 ], [ 76.14043, 31.44158 ], [ 76.14495, 31.43679 ], [ 76.14532, 31.43413 ], [ 76.15231, 31.43362 ], [ 76.1534, 31.43206 ], [ 76.15672, 31.43076 ], [ 76.15701, 31.42883 ], [ 76.16254, 31.42117 ], [ 76.16013, 31.41539 ], [ 76.16148, 31.41511 ], [ 76.1626, 31.41371 ], [ 76.167, 31.41232 ], [ 76.16831, 31.41044 ], [ 76.1677, 31.4067 ], [ 76.16654, 31.40575 ], [ 76.16979, 31.39895 ], [ 76.16857, 31.39625 ], [ 76.16474, 31.39349 ], [ 76.1626, 31.38989 ], [ 76.1601, 31.38748 ], [ 76.15402, 31.3829 ], [ 76.15011, 31.38193 ], [ 76.14728, 31.3803 ], [ 76.14725, 31.37826 ], [ 76.14811, 31.37691 ], [ 76.14734, 31.3732 ], [ 76.1473, 31.36463 ], [ 76.14863, 31.36093 ], [ 76.14689, 31.35898 ], [ 76.14898, 31.35742 ], [ 76.14936, 31.35326 ], [ 76.15212, 31.35272 ], [ 76.15331, 31.34954 ], [ 76.1577, 31.34706 ], [ 76.159, 31.34369 ], [ 76.16195, 31.34392 ], [ 76.1761, 31.34197 ], [ 76.17882, 31.34047 ], [ 76.18138, 31.33365 ], [ 76.18041, 31.32243 ], [ 76.18079, 31.31045 ], [ 76.17982, 31.30653 ], [ 76.18432, 31.30565 ], [ 76.1863, 31.30209 ], [ 76.19099, 31.29999 ], [ 76.20414, 31.30023 ], [ 76.21397, 31.29939 ], [ 76.22501, 31.30397 ], [ 76.23599, 31.3068 ], [ 76.23914, 31.30885 ], [ 76.25099, 31.30767 ], [ 76.25671, 31.31034 ], [ 76.26481, 31.31 ], [ 76.26803, 31.31048 ], [ 76.26934, 31.31192 ], [ 76.27081, 31.30237 ], [ 76.27266, 31.30263 ], [ 76.27437, 31.30056 ], [ 76.27555, 31.30041 ], [ 76.27845, 31.30279 ], [ 76.28429, 31.3047 ], [ 76.28691, 31.30735 ], [ 76.28974, 31.30538 ], [ 76.2866, 31.29943 ], [ 76.28808, 31.2953 ], [ 76.29293, 31.29511 ], [ 76.2943, 31.29171 ], [ 76.29615, 31.29085 ], [ 76.30537, 31.29438 ], [ 76.30967, 31.29105 ], [ 76.31008, 31.29057 ], [ 76.30697, 31.28678 ], [ 76.30787, 31.27775 ], [ 76.31087, 31.2746 ], [ 76.32072, 31.26837 ], [ 76.32268, 31.26806 ], [ 76.32405, 31.26869 ], [ 76.32828, 31.26646 ], [ 76.33004, 31.26284 ], [ 76.33015, 31.25994 ], [ 76.33309, 31.25767 ], [ 76.3357, 31.25335 ], [ 76.34139, 31.24978 ], [ 76.33982, 31.24549 ], [ 76.34296, 31.2447 ], [ 76.34413, 31.24307 ], [ 76.34936, 31.24138 ], [ 76.34924, 31.23801 ], [ 76.34792, 31.23583 ], [ 76.34213, 31.23097 ], [ 76.33934, 31.23184 ], [ 76.33479, 31.22913 ], [ 76.33177, 31.22868 ], [ 76.33014, 31.2254 ], [ 76.31819, 31.21418 ], [ 76.29476, 31.22037 ], [ 76.28136, 31.22863 ], [ 76.28034, 31.23204 ], [ 76.27725, 31.23521 ], [ 76.257, 31.23648 ], [ 76.2512, 31.23963 ], [ 76.24425, 31.24507 ], [ 76.2391, 31.24445 ], [ 76.24068, 31.23424 ], [ 76.24062, 31.22545 ], [ 76.23719, 31.22486 ], [ 76.23459, 31.21709 ], [ 76.23011, 31.21319 ], [ 76.22649, 31.19859 ], [ 76.22885, 31.1983 ], [ 76.22994, 31.19988 ], [ 76.23478, 31.20084 ], [ 76.23671, 31.20682 ], [ 76.23768, 31.20387 ], [ 76.24491, 31.19862 ], [ 76.24602, 31.19641 ], [ 76.23891, 31.18941 ], [ 76.23819, 31.18676 ], [ 76.23436, 31.18576 ], [ 76.22422, 31.18488 ], [ 76.22141, 31.18788 ], [ 76.21211, 31.18536 ], [ 76.20889, 31.1913 ], [ 76.20054, 31.1881 ], [ 76.1951, 31.18419 ], [ 76.19722, 31.18192 ], [ 76.19581, 31.17998 ], [ 76.19682, 31.17618 ], [ 76.20513, 31.16784 ], [ 76.20588, 31.16311 ], [ 76.20763, 31.15941 ], [ 76.20093, 31.15607 ], [ 76.20266, 31.15295 ], [ 76.20582, 31.14973 ], [ 76.20544, 31.1487 ], [ 76.20696, 31.14595 ], [ 76.20662, 31.14427 ], [ 76.20978, 31.13766 ], [ 76.20757, 31.1364 ], [ 76.18771, 31.13274 ], [ 76.18095, 31.13567 ], [ 76.17025, 31.13424 ], [ 76.16584, 31.1396 ], [ 76.16009, 31.14106 ], [ 76.15605, 31.14078 ], [ 76.15506, 31.14341 ], [ 76.15745, 31.14464 ], [ 76.15751, 31.14562 ], [ 76.15583, 31.15258 ], [ 76.14429, 31.15206 ], [ 76.1444, 31.15028 ], [ 76.13726, 31.14681 ], [ 76.1355, 31.15379 ], [ 76.13293, 31.15644 ], [ 76.13307, 31.15912 ], [ 76.13138, 31.16235 ], [ 76.12984, 31.16931 ], [ 76.12401, 31.16689 ], [ 76.11715, 31.16668 ], [ 76.11419, 31.16827 ], [ 76.11157, 31.17091 ], [ 76.10649, 31.17307 ], [ 76.10568, 31.17765 ], [ 76.10204, 31.17749 ], [ 76.10197, 31.17856 ], [ 76.09926, 31.17954 ], [ 76.09901, 31.18089 ], [ 76.09382, 31.18623 ], [ 76.09338, 31.18701 ], [ 76.09448, 31.18856 ], [ 76.09409, 31.19238 ], [ 76.09142, 31.19721 ], [ 76.08855, 31.19745 ], [ 76.08766, 31.19852 ], [ 76.08536, 31.20328 ], [ 76.08531, 31.20444 ], [ 76.08669, 31.20452 ], [ 76.08777, 31.2068 ], [ 76.08865, 31.21451 ], [ 76.08754, 31.21489 ], [ 76.08661, 31.22431 ], [ 76.07989, 31.22602 ], [ 76.07766, 31.22818 ], [ 76.0657, 31.22587 ], [ 76.06388, 31.22496 ], [ 76.06387, 31.22058 ], [ 76.06538, 31.21879 ], [ 76.06178, 31.21877 ], [ 76.06148, 31.21805 ], [ 76.06261, 31.21737 ], [ 76.06203, 31.21682 ], [ 76.05174, 31.21633 ], [ 76.04948, 31.21331 ], [ 76.04489, 31.2186 ], [ 76.04768, 31.21979 ], [ 76.04975, 31.22285 ], [ 76.05472, 31.22456 ], [ 76.05466, 31.22629 ], [ 76.04015, 31.23509 ], [ 76.03329, 31.23821 ], [ 76.0279, 31.24257 ], [ 76.02668, 31.24563 ], [ 76.02634, 31.24978 ], [ 76.02901, 31.25057 ], [ 76.02531, 31.25908 ], [ 76.02214, 31.25819 ], [ 76.02218, 31.2564 ], [ 76.01268, 31.24986 ], [ 76.00738, 31.24439 ], [ 76.0054, 31.24506 ], [ 76.00271, 31.24444 ], [ 76.0, 31.24815 ], [ 75.99953, 31.25 ], [ 75.99729, 31.25132 ], [ 75.99339, 31.25982 ], [ 75.99122, 31.26103 ], [ 75.98658, 31.25978 ], [ 75.9863, 31.25775 ], [ 75.98263, 31.25727 ], [ 75.97047, 31.25226 ], [ 75.96637, 31.25774 ], [ 75.95388, 31.25326 ], [ 75.95606, 31.25599 ], [ 75.95449, 31.26129 ], [ 75.95084, 31.26498 ], [ 75.94756, 31.2654 ], [ 75.94446, 31.26783 ], [ 75.94383, 31.26984 ], [ 75.94091, 31.27276 ], [ 75.94229, 31.27326 ], [ 75.94212, 31.27382 ], [ 75.93985, 31.27476 ], [ 75.93968, 31.27392 ], [ 75.93379, 31.27415 ], [ 75.93415, 31.27187 ], [ 75.93259, 31.27251 ], [ 75.93153, 31.27192 ], [ 75.93245, 31.26886 ], [ 75.93058, 31.26837 ], [ 75.93008, 31.26937 ], [ 75.9246, 31.27236 ], [ 75.9241, 31.27357 ], [ 75.92563, 31.27325 ], [ 75.92421, 31.27451 ], [ 75.92469, 31.27546 ], [ 75.92265, 31.27548 ], [ 75.92133, 31.27772 ], [ 75.92027, 31.27718 ], [ 75.9185, 31.27761 ], [ 75.91863, 31.27858 ], [ 75.91587, 31.27901 ], [ 75.91718, 31.28088 ], [ 75.91814, 31.2806 ], [ 75.9156, 31.2845 ], [ 75.91458, 31.28445 ], [ 75.91404, 31.28258 ], [ 75.91153, 31.2811 ], [ 75.91046, 31.27868 ], [ 75.90036, 31.28023 ], [ 75.8948, 31.27631 ], [ 75.88958, 31.27541 ], [ 75.88671, 31.27994 ], [ 75.8874, 31.28454 ], [ 75.8833, 31.28762 ], [ 75.88169, 31.29071 ], [ 75.87912, 31.29098 ], [ 75.87754, 31.29015 ], [ 75.87745, 31.28739 ], [ 75.87556, 31.28422 ], [ 75.87292, 31.28494 ], [ 75.86452, 31.28193 ], [ 75.86601, 31.28586 ], [ 75.86441, 31.28832 ], [ 75.86408, 31.29036 ], [ 75.85601, 31.28878 ], [ 75.85348, 31.29245 ], [ 75.85294, 31.29612 ], [ 75.86316, 31.30537 ], [ 75.86754, 31.31158 ], [ 75.86636, 31.31803 ], [ 75.86875, 31.32067 ], [ 75.87138, 31.32183 ], [ 75.87105, 31.32476 ], [ 75.87343, 31.32476 ], [ 75.87383, 31.32686 ], [ 75.87716, 31.32738 ], [ 75.87761, 31.32635 ], [ 75.87572, 31.32491 ], [ 75.87733, 31.32197 ], [ 75.88034, 31.3224 ], [ 75.87951, 31.3258 ], [ 75.88161, 31.32694 ], [ 75.8804, 31.32841 ], [ 75.88497, 31.33196 ], [ 75.885, 31.33411 ], [ 75.88806, 31.33402 ], [ 75.896, 31.33561 ], [ 75.89849, 31.33564 ], [ 75.89935, 31.33479 ], [ 75.90054, 31.33593 ], [ 75.90468, 31.33668 ], [ 75.9059, 31.34496 ], [ 75.89902, 31.34131 ], [ 75.89112, 31.34059 ], [ 75.89109, 31.34462 ], [ 75.89022, 31.34436 ], [ 75.88861, 31.34592 ], [ 75.88266, 31.34727 ], [ 75.87948, 31.35474 ], [ 75.8769, 31.35481 ], [ 75.87751, 31.36379 ], [ 75.88266, 31.36413 ], [ 75.8863, 31.36498 ], [ 75.88645, 31.36608 ], [ 75.88995, 31.36651 ], [ 75.8911, 31.36943 ], [ 75.89475, 31.37152 ], [ 75.89484, 31.37435 ], [ 75.90454, 31.37415 ], [ 75.90631, 31.3735 ], [ 75.91013, 31.369 ], [ 75.91881, 31.36908 ], [ 75.92154, 31.37017 ], [ 75.92703, 31.37477 ], [ 75.92998, 31.37921 ], [ 75.93317, 31.38182 ], [ 75.94119, 31.38228 ], [ 75.94487, 31.38354 ], [ 75.94981, 31.38321 ], [ 75.95134, 31.38701 ], [ 75.9564, 31.38756 ], [ 75.95673, 31.38849 ], [ 75.95838, 31.3886 ], [ 75.9584, 31.39235 ], [ 75.96046, 31.39559 ], [ 75.96186, 31.39594 ], [ 75.96127, 31.40557 ], [ 75.97253, 31.40674 ], [ 75.97278, 31.40885 ], [ 75.97674, 31.40929 ], [ 75.97913, 31.41116 ], [ 75.98098, 31.41081 ], [ 75.98745, 31.40156 ], [ 75.99241, 31.40178 ], [ 75.99279, 31.40698 ], [ 75.99086, 31.41402 ], [ 75.99185, 31.41457 ], [ 75.9925, 31.41666 ], [ 75.99269, 31.42044 ], [ 75.99385, 31.4206 ], [ 75.99349, 31.42158 ], [ 75.99617, 31.42287 ], [ 76.0004, 31.4196 ], [ 76.0054, 31.41941 ], [ 76.00568, 31.41788 ], [ 76.00718, 31.41801 ], [ 76.0082, 31.41701 ], [ 76.0094, 31.41371 ], [ 76.01248, 31.41371 ], [ 76.01393, 31.41515 ], [ 76.01673, 31.4161 ], [ 76.01726, 31.41647 ], [ 76.01644, 31.41821 ], [ 76.01448, 31.41812 ], [ 76.01394, 31.42005 ], [ 76.01285, 31.42005 ], [ 76.01096, 31.42518 ], [ 76.01363, 31.42817 ], [ 76.01858, 31.42969 ], [ 76.01768, 31.43003 ], [ 76.0182, 31.43097 ], [ 76.02423, 31.43252 ], [ 76.02516, 31.43174 ], [ 76.02436, 31.43534 ], [ 76.02325, 31.43683 ], [ 76.0222, 31.43653 ], [ 76.02117, 31.44205 ], [ 76.02627, 31.44684 ], [ 76.0285, 31.44674 ], [ 76.02858, 31.45058 ], [ 76.03064, 31.45342 ], [ 76.03258, 31.46108 ], [ 76.03259, 31.46431 ], [ 76.03175, 31.46503 ], [ 76.03346, 31.46724 ], [ 76.04, 31.47089 ], [ 76.04062, 31.47155 ], [ 76.0401, 31.47332 ], [ 76.04174, 31.47345 ], [ 76.04673, 31.4803 ], [ 76.05157, 31.48041 ], [ 76.06063, 31.4827 ], [ 76.06634, 31.48564 ], [ 76.06807, 31.48834 ], [ 76.07012, 31.48862 ], [ 76.07212, 31.49108 ], [ 76.0706, 31.49485 ], [ 76.07179, 31.49779 ], [ 76.0735, 31.49824 ], [ 76.07543, 31.49752 ], [ 76.07959, 31.49953 ], [ 76.08616, 31.49951 ], [ 76.09057, 31.50142 ], [ 76.09462, 31.50199 ], [ 76.09545, 31.504 ], [ 76.09876, 31.50705 ], [ 76.10017, 31.50717 ], [ 76.10271, 31.50946 ], [ 76.10639, 31.51015 ] ] ] } },
{ "type": "Feature", "properties": { "OBJECTID": 2383, "state_lgd": "03", "state_name": "PUNJAB", "district_lgd": "038", "district_name": "HOSHIARPUR", "district_name_source": "district_table", "subdistrict_lgd": "07227", "subdistrict_name": "Tanda", "subdistrict_type": "Tehsil", "name_corrupted": false, "remarks": "", "label_lon": 75.620500876719859, "label_lat": 31.674035732897291 }, "geometry": { "type": "MultiPolygon", "coordinates": [ [ [ [ 75.74399, 31.67118 ], [ 75.75779, 31.67148 ], [ 75.76298, 31.66165 ], [ 75.76383, 31.66188 ], [ 75.76488, 31.65942 ], [ 75.76345, 31.65908 ], [ 75.76466, 31.65393 ], [ 75.74911, 31.65004 ], [ 75.74857, 31.64844 ], [ 75.74769, 31.64812 ], [ 75.74653, 31.64814 ], [ 75.7445, 31.65064 ], [ 75.74225, 31.65122 ], [ 75.74135, 31.65431 ], [ 75.73669, 31.65338 ], [ 75.73639, 31.65161 ], [ 75.73082, 31.65095 ], [ 75.73009, 31.65783 ], [ 75.72826, 31.65918 ], [ 75.72727, 31.66141 ], [ 75.73263, 31.66335 ], [ 75.73406, 31.66709 ], [ 75.74471, 31.66833 ], [ 75.74521, 31.66861 ], [ 75.74399, 31.67118 ] ] ], [ [ [ 75.63695, 31.78148 ], [ 75.63669, 31.77474 ], [ 75.63558, 31.77233 ], [ 75.64135, 31.77127 ], [ 75.64548, 31.76919 ], [ 75.64622, 31.76931 ], [ 75.64717, 31.77174 ], [ 75.64917, 31.77163 ], [ 75.64972, 31.77234 ], [ 75.65179, 31.77828 ], [ 75.65566, 31.77901 ], [ 75.65611, 31.77748 ], [ 75.65721, 31.77733 ], [ 75.65766, 31.77325 ], [ 75.66084, 31.77171 ], [ 75.66133, 31.77058 ], [ 75.65906, 31.77011 ], [ 75.65883, 31.76748 ], [ 75.65713, 31.76748 ], [ 75.65685, 31.76377 ], [ 75.65573, 31.76204 ], [ 75.65254, 31.76234 ], [ 75.65189, 31.76128 ], [ 75.64758, 31.76131 ], [ 75.64647, 31.75921 ], [ 75.64858, 31.7587 ], [ 75.6486, 31.75739 ], [ 75.65254, 31.75627 ], [ 75.65264, 31.75686 ], [ 75.65708, 31.75702 ], [ 75.6572, 31.75785 ], [ 75.65835, 31.75784 ], [ 75.65737, 31.75668 ], [ 75.65879, 31.75268 ], [ 75.66035, 31.75102 ], [ 75.66154, 31.74631 ], [ 75.66477, 31.74767 ], [ 75.66605, 31.75557 ], [ 75.66775, 31.756 ], [ 75.67009, 31.74868 ], [ 75.67136, 31.74874 ], [ 75.67087, 31.75679 ], [ 75.6695, 31.76187 ], [ 75.67437, 31.76374 ], [ 75.67446, 31.76306 ], [ 75.67589, 31.7639 ], [ 75.68992, 31.76635 ], [ 75.68938, 31.76377 ], [ 75.69257, 31.76395 ], [ 75.69434, 31.76128 ], [ 75.69656, 31.76226 ], [ 75.6966, 31.76316 ], [ 75.70209, 31.76386 ], [ 75.70333, 31.76218 ], [ 75.70624, 31.76232 ], [ 75.70641, 31.76084 ], [ 75.71113, 31.7611 ], [ 75.71232, 31.75924 ], [ 75.71199, 31.75696 ], [ 75.70703, 31.75703 ], [ 75.70565, 31.75302 ], [ 75.69472, 31.75389 ], [ 75.6983, 31.74784 ], [ 75.69812, 31.74323 ], [ 75.69724, 31.74168 ], [ 75.69161, 31.7434 ], [ 75.69141, 31.74448 ], [ 75.69003, 31.74448 ], [ 75.68988, 31.74595 ], [ 75.67992, 31.74422 ], [ 75.67692, 31.72971 ], [ 75.68603, 31.72917 ], [ 75.6885, 31.72969 ], [ 75.68944, 31.73081 ], [ 75.69689, 31.72839 ], [ 75.69689, 31.72687 ], [ 75.68643, 31.72372 ], [ 75.68558, 31.72204 ], [ 75.68489, 31.72204 ], [ 75.68677, 31.71429 ], [ 75.68112, 31.71218 ], [ 75.68004, 31.71107 ], [ 75.6812, 31.7102 ], [ 75.68005, 31.70971 ], [ 75.68085, 31.70611 ], [ 75.68031, 31.70454 ], [ 75.6916, 31.69581 ], [ 75.69181, 31.69486 ], [ 75.69486, 31.69518 ], [ 75.69614, 31.69823 ], [ 75.69807, 31.69878 ], [ 75.69816, 31.70014 ], [ 75.69948, 31.701 ], [ 75.70398, 31.69987 ], [ 75.70402, 31.69783 ], [ 75.70867, 31.69786 ], [ 75.70957, 31.69339 ], [ 75.70815, 31.69328 ], [ 75.70711, 31.68537 ], [ 75.70884, 31.68311 ], [ 75.71048, 31.67795 ], [ 75.71586, 31.67837 ], [ 75.71717, 31.67511 ], [ 75.71808, 31.66735 ], [ 75.71518, 31.66679 ], [ 75.71686, 31.66053 ], [ 75.71088, 31.6597 ], [ 75.71133, 31.65452 ], [ 75.70713, 31.65478 ], [ 75.70166, 31.65371 ], [ 75.70387, 31.64149 ], [ 75.71761, 31.64028 ], [ 75.71777, 31.63151 ], [ 75.71883, 31.63074 ], [ 75.71936, 31.62867 ], [ 75.72401, 31.63003 ], [ 75.73617, 31.6289 ], [ 75.7376, 31.62942 ], [ 75.74014, 31.63288 ], [ 75.74143, 31.63295 ], [ 75.74153, 31.63452 ], [ 75.74266, 31.63561 ], [ 75.74495, 31.63641 ], [ 75.75092, 31.63609 ], [ 75.75416, 31.63412 ], [ 75.76118, 31.63298 ], [ 75.7633, 31.63138 ], [ 75.76852, 31.63181 ], [ 75.77473, 31.6219 ], [ 75.77232, 31.62019 ], [ 75.76867, 31.61953 ], [ 75.7617, 31.6194 ], [ 75.7586, 31.62165 ], [ 75.75333, 31.6212 ], [ 75.75, 31.6195 ], [ 75.74763, 31.61724 ], [ 75.7409, 31.61591 ], [ 75.74024, 31.61331 ], [ 75.73677, 31.61036 ], [ 75.73742, 31.60747 ], [ 75.73918, 31.60525 ], [ 75.74455, 31.60669 ], [ 75.74531, 31.60374 ], [ 75.74715, 31.60341 ], [ 75.74582, 31.60024 ], [ 75.74631, 31.59908 ], [ 75.73756, 31.5985 ], [ 75.73499, 31.59764 ], [ 75.73435, 31.59258 ], [ 75.73328, 31.59133 ], [ 75.7339, 31.59004 ], [ 75.72524, 31.58674 ], [ 75.72462, 31.59129 ], [ 75.72564, 31.59535 ], [ 75.72131, 31.59448 ], [ 75.71893, 31.59305 ], [ 75.71704, 31.5939 ], [ 75.71402, 31.59306 ], [ 75.71405, 31.59469 ], [ 75.71317, 31.59481 ], [ 75.71178, 31.59391 ], [ 75.71295, 31.59149 ], [ 75.71308, 31.58573 ], [ 75.70208, 31.58596 ], [ 75.70086, 31.58507 ], [ 75.69671, 31.58652 ], [ 75.69695, 31.58745 ], [ 75.69494, 31.58747 ], [ 75.69192, 31.59466 ], [ 75.69068, 31.59449 ], [ 75.69069, 31.59559 ], [ 75.68556, 31.59425 ], [ 75.68537, 31.59308 ], [ 75.68145, 31.59206 ], [ 75.67956, 31.59212 ], [ 75.67924, 31.59316 ], [ 75.6732, 31.59512 ], [ 75.67176, 31.59641 ], [ 75.67097, 31.59923 ], [ 75.67226, 31.60023 ], [ 75.67241, 31.60359 ], [ 75.67136, 31.60596 ], [ 75.66969, 31.60626 ], [ 75.66876, 31.60821 ], [ 75.66115, 31.6051 ], [ 75.65018, 31.60719 ], [ 75.65002, 31.61097 ], [ 75.64741, 31.61122 ], [ 75.64655, 31.61214 ], [ 75.64692, 31.61386 ], [ 75.64499, 31.61414 ], [ 75.64494, 31.61521 ], [ 75.64301, 31.61553 ], [ 75.64268, 31.61663 ], [ 75.64072, 31.61657 ], [ 75.64057, 31.61792 ], [ 75.63954, 31.61812 ], [ 75.6388, 31.61798 ], [ 75.63797, 31.61488 ], [ 75.63916, 31.61361 ], [ 75.63914, 31.61032 ], [ 75.6323, 31.61222 ], [ 75.63006, 31.60712 ], [ 75.62842, 31.60607 ], [ 75.6282, 31.60492 ], [ 75.62472, 31.60367 ], [ 75.62382, 31.60361 ], [ 75.6236, 31.60465 ], [ 75.62154, 31.60559 ], [ 75.62034, 31.60404 ], [ 75.61809, 31.60492 ], [ 75.6171, 31.60651 ], [ 75.61087, 31.60815 ], [ 75.60997, 31.6101 ], [ 75.60394, 31.6113 ], [ 75.59781, 31.60968 ], [ 75.59788, 31.60658 ], [ 75.59381, 31.6031 ], [ 75.59364, 31.60464 ], [ 75.58458, 31.60514 ], [ 75.57873, 31.60718 ], [ 75.57611, 31.60659 ], [ 75.57352, 31.6175 ], [ 75.56997, 31.6166 ], [ 75.56987, 31.61544 ], [ 75.57131, 31.61439 ], [ 75.57073, 31.61238 ], [ 75.57128, 31.6097 ], [ 75.56718, 31.61079 ], [ 75.56846, 31.61299 ], [ 75.56823, 31.6175 ], [ 75.56947, 31.61957 ], [ 75.56882, 31.62167 ], [ 75.57233, 31.63537 ], [ 75.56335, 31.63912 ], [ 75.55987, 31.63866 ], [ 75.55698, 31.64004 ], [ 75.55569, 31.63984 ], [ 75.55554, 31.6354 ], [ 75.55091, 31.63393 ], [ 75.5469, 31.63856 ], [ 75.548, 31.63937 ], [ 75.54205, 31.64636 ], [ 75.54188, 31.64703 ], [ 75.54286, 31.64762 ], [ 75.53992, 31.64862 ], [ 75.53275, 31.6487 ], [ 75.53209, 31.64865 ], [ 75.5305, 31.64316 ], [ 75.53185, 31.64221 ], [ 75.53095, 31.64053 ], [ 75.5315, 31.6403 ], [ 75.52895, 31.63689 ], [ 75.53225, 31.6351 ], [ 75.53156, 31.63361 ], [ 75.52783, 31.63348 ], [ 75.52695, 31.63424 ], [ 75.52478, 31.63283 ], [ 75.52339, 31.63747 ], [ 75.52001, 31.64038 ], [ 75.51368, 31.63915 ], [ 75.51116, 31.63996 ], [ 75.51058, 31.64241 ], [ 75.50818, 31.64335 ], [ 75.505, 31.64201 ], [ 75.50198, 31.64383 ], [ 75.49803, 31.64222 ], [ 75.48619, 31.64992 ], [ 75.47601, 31.65157 ], [ 75.47432, 31.65016 ], [ 75.47139, 31.6539 ], [ 75.48422, 31.66956 ], [ 75.48027, 31.67169 ], [ 75.48185, 31.6738 ], [ 75.48371, 31.67462 ], [ 75.484, 31.67706 ], [ 75.49075, 31.68037 ], [ 75.4939, 31.68957 ], [ 75.4931, 31.69424 ], [ 75.49472, 31.69871 ], [ 75.50499, 31.70708 ], [ 75.50975, 31.70915 ], [ 75.51345, 31.71279 ], [ 75.52717, 31.73086 ], [ 75.5306, 31.73449 ], [ 75.53481, 31.73671 ], [ 75.53549, 31.73796 ], [ 75.53496, 31.7391 ], [ 75.54144, 31.74967 ], [ 75.54666, 31.7459 ], [ 75.55187, 31.7385 ], [ 75.55513, 31.73663 ], [ 75.55277, 31.73247 ], [ 75.55962, 31.73062 ], [ 75.56371, 31.73196 ], [ 75.56361, 31.73094 ], [ 75.56825, 31.72932 ], [ 75.56891, 31.72971 ], [ 75.56882, 31.72824 ], [ 75.5717, 31.72657 ], [ 75.57127, 31.72499 ], [ 75.57575, 31.72425 ], [ 75.5758, 31.71839 ], [ 75.58217, 31.71836 ], [ 75.58307, 31.71797 ], [ 75.58332, 31.71641 ], [ 75.58758, 31.71654 ], [ 75.59015, 31.71473 ], [ 75.5899, 31.71415 ], [ 75.58743, 31.71408 ], [ 75.58875, 31.71254 ], [ 75.58706, 31.71117 ], [ 75.58774, 31.7096 ], [ 75.58547, 31.71055 ], [ 75.58484, 31.70921 ], [ 75.59753, 31.70821 ], [ 75.59862, 31.71031 ], [ 75.59791, 31.71116 ], [ 75.59986, 31.71478 ], [ 75.60327, 31.71347 ], [ 75.603, 31.712 ], [ 75.60368, 31.71166 ], [ 75.60716, 31.71125 ], [ 75.609, 31.71355 ], [ 75.60859, 31.71691 ], [ 75.61128, 31.7192 ], [ 75.61335, 31.72627 ], [ 75.61723, 31.73007 ], [ 75.62064, 31.73206 ], [ 75.61868, 31.73209 ], [ 75.61926, 31.73609 ], [ 75.61391, 31.73563 ], [ 75.61409, 31.73832 ], [ 75.61547, 31.73848 ], [ 75.61567, 31.74196 ], [ 75.6171, 31.74401 ], [ 75.61668, 31.74598 ], [ 75.6115, 31.7454 ], [ 75.61267, 31.74658 ], [ 75.6109, 31.7502 ], [ 75.61143, 31.75239 ], [ 75.61042, 31.7649 ], [ 75.61956, 31.76479 ], [ 75.62253, 31.76563 ], [ 75.62233, 31.768 ], [ 75.62567, 31.76814 ], [ 75.62454, 31.77297 ], [ 75.61945, 31.77308 ], [ 75.61813, 31.77404 ], [ 75.61835, 31.77513 ], [ 75.61923, 31.77517 ], [ 75.61984, 31.77911 ], [ 75.62053, 31.77903 ], [ 75.62084, 31.78021 ], [ 75.62317, 31.78014 ], [ 75.62372, 31.78127 ], [ 75.62972, 31.78146 ], [ 75.6303, 31.78249 ], [ 75.63493, 31.78203 ], [ 75.63499, 31.78276 ], [ 75.63695, 31.78148 ] ] ], [ [ [ 75.75206, 31.70633 ], [ 75.75495, 31.70465 ], [ 75.75523, 31.69755 ], [ 75.75027, 31.69504 ], [ 75.74793, 31.69074 ], [ 75.74869, 31.68962 ], [ 75.75077, 31.68916 ], [ 75.75024, 31.68823 ], [ 75.75162, 31.68724 ], [ 75.75144, 31.68626 ], [ 75.75332, 31.68519 ], [ 75.75366, 31.68361 ], [ 75.74449, 31.68596 ], [ 75.73692, 31.68397 ], [ 75.73209, 31.68358 ], [ 75.72802, 31.69004 ], [ 75.72565, 31.68844 ], [ 75.72252, 31.69184 ], [ 75.72228, 31.69394 ], [ 75.72488, 31.69425 ], [ 75.72538, 31.69684 ], [ 75.72622, 31.69697 ], [ 75.72562, 31.69926 ], [ 75.73055, 31.69985 ], [ 75.73158, 31.70162 ], [ 75.73238, 31.70045 ], [ 75.73538, 31.70034 ], [ 75.74447, 31.70142 ], [ 75.74508, 31.70582 ], [ 75.75206, 31.70633 ] ] ] ] } }
]
}
