{
"type": "FeatureCollection",
"name": "041_LUDHIANA",
"crs": { "type": "name", "properties": { "name": "urn:ogc:def:crs:OGC:1.3:CRS84" } },
"xy_coordinate_resolution": 1e-05,
"features": [
{ "type": "Feature", "properties": { "OBJECTID": 2333, "state_lgd": "03", "state_name": "PUNJAB", "district_lgd": "041", "district_name": "LUDHIANA", "district_name_source": "district_table", "subdistrict_lgd": "00225", "subdistrict_name": "Khanna", "subdistrict_type": "Tehsil", "name_corrupted": false, "remarks": "", "label_lon": 76.167035009089091, "label_lat": 30.702130227305137 }, "geometry": { "type": "Polygon", "coordinates": [ [ [ 76.15028, 30.75362 ], [ 76.15504, 30.75279 ], [ 76.15552, 30.75351 ], [ 76.15959, 30.75365 ], [ 76.16335, 30.75643 ], [ 76.16558, 30.75995 ], [ 76.16745, 30.76084 ], [ 76.17056, 30.75215 ], [ 76.17602, 30.74327 ], [ 76.17041, 30.73774 ], [ 76.1664, 30.73587 ], [ 76.16872, 30.73073 ], [ 76.17354, 30.73218 ], [ 76.17872, 30.7277 ], [ 76.18751, 30.73168 ], [ 76.19357, 30.73205 ], [ 76.19683, 30.7335 ], [ 76.20016, 30.73125 ], [ 76.2041, 30.73171 ], [ 76.20853, 30.73468 ], [ 76.21316, 30.73937 ], [ 76.22659, 30.74251 ], [ 76.23416, 30.74824 ], [ 76.23519, 30.75007 ], [ 76.24065, 30.75122 ], [ 76.24751, 30.76063 ], [ 76.24854, 30.76494 ], [ 76.24741, 30.76955 ], [ 76.2412, 30.77768 ], [ 76.24153, 30.77974 ], [ 76.24713, 30.78336 ], [ 76.24868, 30.7833 ], [ 76.24864, 30.779 ], [ 76.2522, 30.77394 ], [ 76.25572, 30.76649 ], [ 76.26163, 30.75998 ], [ 76.26658, 30.75 ], [ 76.26688, 30.74837 ], [ 76.26384, 30.74435 ], [ 76.26625, 30.74001 ], [ 76.27368, 30.73709 ], [ 76.27675, 30.73227 ], [ 76.27798, 30.72823 ], [ 76.28288, 30.7243 ], [ 76.28532, 30.72018 ], [ 76.29113, 30.71394 ], [ 76.29781, 30.71713 ], [ 76.30591, 30.70417 ], [ 76.30802, 30.70539 ], [ 76.30958, 30.70332 ], [ 76.31602, 30.70511 ], [ 76.31946, 30.7034 ], [ 76.32268, 30.69737 ], [ 76.32148, 30.69699 ], [ 76.32334, 30.69327 ], [ 76.31981, 30.68792 ], [ 76.31218, 30.68736 ], [ 76.30834, 30.68477 ], [ 76.30329, 30.6784 ], [ 76.28132, 30.68153 ], [ 76.27505, 30.67551 ], [ 76.27165, 30.67848 ], [ 76.2662, 30.67543 ], [ 76.26401, 30.67731 ], [ 76.26174, 30.676 ], [ 76.25535, 30.68076 ], [ 76.25315, 30.67921 ], [ 76.24909, 30.67962 ], [ 76.24729, 30.67888 ], [ 76.24307, 30.67954 ], [ 76.23727, 30.68294 ], [ 76.23687, 30.68788 ], [ 76.23598, 30.68991 ], [ 76.23135, 30.68875 ], [ 76.23009, 30.68997 ], [ 76.22378, 30.6881 ], [ 76.21773, 30.68363 ], [ 76.21807, 30.67895 ], [ 76.2056, 30.67411 ], [ 76.19822, 30.67514 ], [ 76.18796, 30.66766 ], [ 76.18253, 30.67152 ], [ 76.18218, 30.676 ], [ 76.18072, 30.67935 ], [ 76.17678, 30.68027 ], [ 76.17368, 30.67923 ], [ 76.17115, 30.67549 ], [ 76.1716, 30.66679 ], [ 76.16916, 30.66183 ], [ 76.15204, 30.65508 ], [ 76.15281, 30.63979 ], [ 76.145, 30.63767 ], [ 76.1278, 30.62951 ], [ 76.12767, 30.62801 ], [ 76.12521, 30.62742 ], [ 76.12793, 30.62277 ], [ 76.12382, 30.62153 ], [ 76.12044, 30.61748 ], [ 76.11649, 30.6149 ], [ 76.12525, 30.60278 ], [ 76.12067, 30.60072 ], [ 76.11908, 30.60163 ], [ 76.11316, 30.60211 ], [ 76.11055, 30.60081 ], [ 76.10887, 30.60095 ], [ 76.10712, 30.60166 ], [ 76.10669, 30.60212 ], [ 76.10744, 30.60303 ], [ 76.10492, 30.6052 ], [ 76.10207, 30.6039 ], [ 76.09934, 30.60821 ], [ 76.09847, 30.60852 ], [ 76.09747, 30.60705 ], [ 76.09278, 30.61196 ], [ 76.08729, 30.60637 ], [ 76.08772, 30.6057 ], [ 76.08657, 30.6054 ], [ 76.08518, 30.60704 ], [ 76.08522, 30.60884 ], [ 76.08349, 30.61048 ], [ 76.08359, 30.61169 ], [ 76.08437, 30.61194 ], [ 76.08374, 30.61574 ], [ 76.08861, 30.61491 ], [ 76.08777, 30.61705 ], [ 76.08709, 30.61674 ], [ 76.08646, 30.61751 ], [ 76.0879, 30.61907 ], [ 76.08736, 30.61976 ], [ 76.08845, 30.62041 ], [ 76.08785, 30.62106 ], [ 76.08858, 30.62172 ], [ 76.08679, 30.62393 ], [ 76.08876, 30.62572 ], [ 76.08342, 30.6258 ], [ 76.08127, 30.62842 ], [ 76.07666, 30.62672 ], [ 76.0747, 30.62868 ], [ 76.07198, 30.62878 ], [ 76.0632, 30.63167 ], [ 76.0613, 30.6373 ], [ 76.06324, 30.6373 ], [ 76.06893, 30.64056 ], [ 76.07343, 30.64137 ], [ 76.07377, 30.64607 ], [ 76.07051, 30.64899 ], [ 76.069, 30.6545 ], [ 76.06775, 30.65611 ], [ 76.07196, 30.66535 ], [ 76.07573, 30.66961 ], [ 76.0751, 30.67119 ], [ 76.09074, 30.6731 ], [ 76.09783, 30.6824 ], [ 76.10076, 30.68405 ], [ 76.10804, 30.69424 ], [ 76.10801, 30.69658 ], [ 76.1016, 30.69833 ], [ 76.10451, 30.70217 ], [ 76.10453, 30.70351 ], [ 76.10606, 30.70577 ], [ 76.09459, 30.70845 ], [ 76.09653, 30.71166 ], [ 76.09586, 30.72312 ], [ 76.09664, 30.72601 ], [ 76.11169, 30.73708 ], [ 76.10517, 30.74131 ], [ 76.10288, 30.74135 ], [ 76.09976, 30.73991 ], [ 76.0978, 30.73697 ], [ 76.08402, 30.73233 ], [ 76.08294, 30.73082 ], [ 76.07152, 30.74123 ], [ 76.0718, 30.74383 ], [ 76.07632, 30.75 ], [ 76.07599, 30.75083 ], [ 76.07839, 30.75258 ], [ 76.07764, 30.75346 ], [ 76.07887, 30.75454 ], [ 76.07747, 30.75893 ], [ 76.07744, 30.76803 ], [ 76.07802, 30.76951 ], [ 76.07178, 30.77153 ], [ 76.06484, 30.77136 ], [ 76.06718, 30.77943 ], [ 76.07306, 30.78939 ], [ 76.0686, 30.79164 ], [ 76.06437, 30.79578 ], [ 76.06219, 30.8022 ], [ 76.06757, 30.80368 ], [ 76.06778, 30.80496 ], [ 76.07041, 30.80538 ], [ 76.07174, 30.80898 ], [ 76.07284, 30.8099 ], [ 76.08173, 30.8074 ], [ 76.08374, 30.80579 ], [ 76.08811, 30.80965 ], [ 76.10119, 30.80436 ], [ 76.09854, 30.80073 ], [ 76.10096, 30.79769 ], [ 76.08925, 30.79286 ], [ 76.08563, 30.78932 ], [ 76.08796, 30.78741 ], [ 76.0898, 30.78415 ], [ 76.09003, 30.77731 ], [ 76.09468, 30.77166 ], [ 76.10254, 30.77146 ], [ 76.10727, 30.76779 ], [ 76.1008, 30.76227 ], [ 76.10159, 30.76105 ], [ 76.09801, 30.75735 ], [ 76.10035, 30.75718 ], [ 76.10309, 30.75545 ], [ 76.11303, 30.76309 ], [ 76.11495, 30.76138 ], [ 76.11882, 30.76155 ], [ 76.12219, 30.75532 ], [ 76.12292, 30.75209 ], [ 76.12868, 30.74784 ], [ 76.13112, 30.7447 ], [ 76.1383, 30.74671 ], [ 76.14524, 30.75196 ], [ 76.15028, 30.75362 ] ] ] } },
{ "type": "Feature", "properties": { "OBJECTID": 2345, "state_lgd": "03", "state_name": "PUNJAB", "district_lgd": "041", "district_name": "LUDHIANA", "district_name_source": "district_table", "subdistrict_lgd": "00224", "subdistrict_name": "Samrala", "subdistrict_type": "Tehsil", "name_corrupted": false, "remarks": "", "label_lon": 76.209906421294363, "label_lat": 30.870446532090305 }, "geometry": { "type": "Polygon", "coordinates": [ [ [ 76.30562, 30.98783 ], [ 76.3118, 30.98843 ], [ 76.31366, 30.98525 ], [ 76.31346, 30.98339 ], [ 76.31533, 30.97941 ], [ 76.31617, 30.97382 ], [ 76.31611, 30.96303 ], [ 76.31764, 30.95065 ], [ 76.32352, 30.93229 ], [ 76.32371, 30.93011 ], [ 76.32272, 30.93012 ], [ 76.32155, 30.92727 ], [ 76.31276, 30.92472 ], [ 76.31513, 30.92026 ], [ 76.31974, 30.91429 ], [ 76.31887, 30.91065 ], [ 76.31871, 30.89835 ], [ 76.31952, 30.87713 ], [ 76.31348, 30.87437 ], [ 76.30119, 30.8718 ], [ 76.30126, 30.87122 ], [ 76.29833, 30.86987 ], [ 76.29769, 30.86686 ], [ 76.29883, 30.86424 ], [ 76.30236, 30.85925 ], [ 76.30527, 30.85203 ], [ 76.31109, 30.8423 ], [ 76.30087, 30.83693 ], [ 76.29403, 30.83587 ], [ 76.29022, 30.83337 ], [ 76.29143, 30.83176 ], [ 76.28251, 30.83112 ], [ 76.28128, 30.83025 ], [ 76.28008, 30.82583 ], [ 76.28015, 30.82018 ], [ 76.28906, 30.80814 ], [ 76.2756, 30.80097 ], [ 76.26913, 30.79919 ], [ 76.26805, 30.79833 ], [ 76.26851, 30.79764 ], [ 76.26778, 30.79668 ], [ 76.26979, 30.79418 ], [ 76.26917, 30.79303 ], [ 76.26261, 30.78933 ], [ 76.26315, 30.78851 ], [ 76.26187, 30.7867 ], [ 76.2656, 30.78346 ], [ 76.26958, 30.77783 ], [ 76.27236, 30.77574 ], [ 76.28973, 30.78241 ], [ 76.30076, 30.76703 ], [ 76.30493, 30.76799 ], [ 76.31095, 30.7562 ], [ 76.30136, 30.75434 ], [ 76.30058, 30.7527 ], [ 76.28855, 30.74715 ], [ 76.28094, 30.74628 ], [ 76.28398, 30.73794 ], [ 76.27572, 30.73406 ], [ 76.27368, 30.73709 ], [ 76.26625, 30.74001 ], [ 76.26508, 30.7416 ], [ 76.26392, 30.74495 ], [ 76.26688, 30.74837 ], [ 76.26658, 30.75 ], [ 76.26163, 30.75998 ], [ 76.25572, 30.76649 ], [ 76.2522, 30.77394 ], [ 76.24864, 30.779 ], [ 76.24868, 30.7833 ], [ 76.24713, 30.78336 ], [ 76.24191, 30.78029 ], [ 76.2412, 30.77768 ], [ 76.24741, 30.76955 ], [ 76.2485, 30.76398 ], [ 76.24751, 30.76063 ], [ 76.24065, 30.75122 ], [ 76.23519, 30.75007 ], [ 76.23416, 30.74824 ], [ 76.22659, 30.74251 ], [ 76.21316, 30.73937 ], [ 76.20853, 30.73468 ], [ 76.2041, 30.73171 ], [ 76.20016, 30.73125 ], [ 76.19683, 30.7335 ], [ 76.19357, 30.73205 ], [ 76.18751, 30.73168 ], [ 76.17872, 30.7277 ], [ 76.17354, 30.73218 ], [ 76.16872, 30.73073 ], [ 76.16642, 30.73504 ], [ 76.1664, 30.73587 ], [ 76.17041, 30.73774 ], [ 76.17602, 30.74327 ], [ 76.17056, 30.75215 ], [ 76.16745, 30.76084 ], [ 76.16558, 30.75995 ], [ 76.16335, 30.75643 ], [ 76.15959, 30.75365 ], [ 76.15552, 30.75351 ], [ 76.15504, 30.75279 ], [ 76.14915, 30.75371 ], [ 76.14471, 30.75164 ], [ 76.14333, 30.7499 ], [ 76.1383, 30.74671 ], [ 76.13112, 30.7447 ], [ 76.12868, 30.74784 ], [ 76.12292, 30.75209 ], [ 76.12219, 30.75532 ], [ 76.11882, 30.76155 ], [ 76.11495, 30.76138 ], [ 76.11303, 30.76309 ], [ 76.10309, 30.75545 ], [ 76.10035, 30.75718 ], [ 76.09801, 30.75735 ], [ 76.10159, 30.76105 ], [ 76.1008, 30.76227 ], [ 76.10727, 30.76779 ], [ 76.10254, 30.77146 ], [ 76.09468, 30.77166 ], [ 76.09003, 30.77731 ], [ 76.0898, 30.78415 ], [ 76.08796, 30.78741 ], [ 76.08563, 30.78932 ], [ 76.08925, 30.79286 ], [ 76.10096, 30.79769 ], [ 76.09854, 30.80073 ], [ 76.10119, 30.80436 ], [ 76.08811, 30.80965 ], [ 76.08374, 30.80579 ], [ 76.08173, 30.8074 ], [ 76.07284, 30.8099 ], [ 76.07455, 30.81304 ], [ 76.07463, 30.81575 ], [ 76.07701, 30.81817 ], [ 76.08107, 30.81618 ], [ 76.09065, 30.81673 ], [ 76.0892, 30.82465 ], [ 76.086, 30.83051 ], [ 76.08529, 30.83612 ], [ 76.08795, 30.84112 ], [ 76.08933, 30.84881 ], [ 76.09089, 30.85007 ], [ 76.09069, 30.85214 ], [ 76.10173, 30.85392 ], [ 76.10183, 30.85887 ], [ 76.10125, 30.85951 ], [ 76.10285, 30.86473 ], [ 76.10546, 30.86809 ], [ 76.10476, 30.87107 ], [ 76.10731, 30.87193 ], [ 76.1068, 30.87528 ], [ 76.11114, 30.87536 ], [ 76.11434, 30.87707 ], [ 76.11494, 30.87875 ], [ 76.11334, 30.88001 ], [ 76.1136, 30.88116 ], [ 76.11833, 30.89002 ], [ 76.1241, 30.88892 ], [ 76.13148, 30.8891 ], [ 76.13151, 30.89499 ], [ 76.13524, 30.8962 ], [ 76.13886, 30.90947 ], [ 76.14187, 30.91335 ], [ 76.14794, 30.92539 ], [ 76.15371, 30.93167 ], [ 76.14324, 30.93382 ], [ 76.13776, 30.93805 ], [ 76.1296, 30.9396 ], [ 76.12996, 30.94111 ], [ 76.13117, 30.94171 ], [ 76.1312, 30.94355 ], [ 76.12643, 30.94886 ], [ 76.12842, 30.95226 ], [ 76.12747, 30.95517 ], [ 76.1281, 30.95746 ], [ 76.13102, 30.9596 ], [ 76.13187, 30.96118 ], [ 76.1365, 30.9635 ], [ 76.146, 30.96406 ], [ 76.15183, 30.96758 ], [ 76.14482, 30.98006 ], [ 76.14311, 30.98578 ], [ 76.15139, 30.98689 ], [ 76.15783, 30.98868 ], [ 76.15955, 30.98682 ], [ 76.16877, 30.98941 ], [ 76.16662, 30.99322 ], [ 76.1748, 30.99585 ], [ 76.17598, 30.99598 ], [ 76.1795, 30.99171 ], [ 76.17966, 30.9924 ], [ 76.18053, 30.99204 ], [ 76.18291, 30.99462 ], [ 76.1879, 30.99602 ], [ 76.18613, 31.00173 ], [ 76.18401, 31.00521 ], [ 76.20458, 31.00004 ], [ 76.20438, 31.00331 ], [ 76.21335, 31.00441 ], [ 76.21303, 31.00679 ], [ 76.2102, 31.01041 ], [ 76.21003, 31.01157 ], [ 76.21093, 31.01192 ], [ 76.2178, 31.01241 ], [ 76.21993, 31.01158 ], [ 76.21988, 31.00841 ], [ 76.22192, 31.00762 ], [ 76.22295, 31.00332 ], [ 76.22453, 31.00264 ], [ 76.22527, 31.00538 ], [ 76.22708, 31.00442 ], [ 76.22767, 31.00521 ], [ 76.23326, 31.00505 ], [ 76.23411, 31.00588 ], [ 76.24098, 31.00232 ], [ 76.2563, 31.01031 ], [ 76.26391, 31.00305 ], [ 76.26414, 31.00554 ], [ 76.27383, 31.01294 ], [ 76.27373, 31.01414 ], [ 76.27473, 31.01541 ], [ 76.27705, 31.01501 ], [ 76.28226, 31.01026 ], [ 76.28313, 31.0108 ], [ 76.28793, 31.00909 ], [ 76.28755, 31.0067 ], [ 76.28943, 31.00457 ], [ 76.2866, 31.0032 ], [ 76.28444, 31.00299 ], [ 76.28095, 31.00397 ], [ 76.27617, 31.00231 ], [ 76.27676, 31.00012 ], [ 76.28458, 31.00244 ], [ 76.28679, 31.00236 ], [ 76.28943, 31.0 ], [ 76.29272, 30.99915 ], [ 76.29293, 30.99841 ], [ 76.29175, 30.99804 ], [ 76.29664, 30.98835 ], [ 76.30263, 30.98865 ], [ 76.30562, 30.98783 ] ] ] } },
{ "type": "Feature", "properties": { "OBJECTID": 2352, "state_lgd": "03", "state_name": "PUNJAB", "district_lgd": "041", "district_name": "LUDHIANA", "district_name_source": "district_table", "subdistrict_lgd": "00227", "subdistrict_name": "Ludhiana (East)", "subdistrict_type": "Tehsil", "name_corrupted": false, "remarks": "", "label_lon": 75.946595799432231, "label_lat": 30.882880916964442 }, "geometry": { "type": "Polygon", "coordinates": [ [ [ 75.95809, 31.01806 ], [ 75.96644, 31.01641 ], [ 75.96962, 31.01455 ], [ 75.96917, 31.01164 ], [ 75.97092, 31.00399 ], [ 75.98783, 31.00512 ], [ 75.98776, 31.00388 ], [ 75.98962, 31.00533 ], [ 75.99108, 31.00936 ], [ 75.99838, 31.00715 ], [ 76.00481, 31.00635 ], [ 76.00426, 31.00386 ], [ 76.02426, 31.00116 ], [ 76.02677, 30.99676 ], [ 76.04648, 30.99867 ], [ 76.04773, 30.99871 ], [ 76.0478, 30.99785 ], [ 76.05401, 31.0 ], [ 76.06266, 31.00018 ], [ 76.06563, 31.0 ], [ 76.07073, 30.99558 ], [ 76.0748, 30.99801 ], [ 76.08163, 30.99707 ], [ 76.08414, 30.99776 ], [ 76.08523, 30.99632 ], [ 76.08818, 30.99504 ], [ 76.10336, 30.99832 ], [ 76.10417, 30.9962 ], [ 76.11538, 30.99342 ], [ 76.12071, 30.99298 ], [ 76.12253, 30.993 ], [ 76.12243, 30.99675 ], [ 76.13618, 30.9975 ], [ 76.14255, 30.98705 ], [ 76.14482, 30.98006 ], [ 76.15183, 30.96758 ], [ 76.146, 30.96406 ], [ 76.1365, 30.9635 ], [ 76.13187, 30.96118 ], [ 76.13102, 30.9596 ], [ 76.1281, 30.95746 ], [ 76.12747, 30.95517 ], [ 76.12842, 30.95226 ], [ 76.12643, 30.94886 ], [ 76.1312, 30.94355 ], [ 76.13117, 30.94171 ], [ 76.12996, 30.94111 ], [ 76.1296, 30.9396 ], [ 76.13776, 30.93805 ], [ 76.14324, 30.93382 ], [ 76.15371, 30.93167 ], [ 76.14794, 30.92539 ], [ 76.14187, 30.91335 ], [ 76.13886, 30.90947 ], [ 76.13524, 30.8962 ], [ 76.13151, 30.89499 ], [ 76.13148, 30.8891 ], [ 76.1241, 30.88892 ], [ 76.11833, 30.89002 ], [ 76.1136, 30.88116 ], [ 76.11334, 30.88001 ], [ 76.11494, 30.87875 ], [ 76.11434, 30.87707 ], [ 76.11114, 30.87536 ], [ 76.1068, 30.87528 ], [ 76.10731, 30.87193 ], [ 76.10476, 30.87107 ], [ 76.10546, 30.86809 ], [ 76.10285, 30.86473 ], [ 76.10125, 30.85951 ], [ 76.10183, 30.85887 ], [ 76.10173, 30.85392 ], [ 76.09069, 30.85214 ], [ 76.09089, 30.85007 ], [ 76.08933, 30.84881 ], [ 76.08795, 30.84112 ], [ 76.08529, 30.83612 ], [ 76.086, 30.83051 ], [ 76.0892, 30.82465 ], [ 76.09065, 30.81673 ], [ 76.08107, 30.81618 ], [ 76.07701, 30.81817 ], [ 76.07795, 30.82355 ], [ 76.07039, 30.83994 ], [ 76.06253, 30.83861 ], [ 76.05377, 30.84217 ], [ 76.05317, 30.8469 ], [ 76.05394, 30.85088 ], [ 76.05059, 30.85113 ], [ 76.04826, 30.85067 ], [ 76.04447, 30.84753 ], [ 76.03745, 30.8444 ], [ 76.03443, 30.84015 ], [ 76.02775, 30.83491 ], [ 76.02523, 30.83126 ], [ 76.02425, 30.8275 ], [ 76.01878, 30.8211 ], [ 76.00576, 30.81863 ], [ 75.99889, 30.81472 ], [ 75.99802, 30.80952 ], [ 75.99427, 30.80725 ], [ 75.99246, 30.80468 ], [ 75.98879, 30.8027 ], [ 75.9867, 30.80058 ], [ 75.9863, 30.79825 ], [ 75.98037, 30.8001 ], [ 75.97754, 30.80478 ], [ 75.97818, 30.80528 ], [ 75.97662, 30.80846 ], [ 75.97095, 30.80687 ], [ 75.97081, 30.80761 ], [ 75.96323, 30.80636 ], [ 75.95569, 30.80614 ], [ 75.9528, 30.80808 ], [ 75.95121, 30.80722 ], [ 75.95048, 30.80565 ], [ 75.94898, 30.80479 ], [ 75.94946, 30.80437 ], [ 75.94403, 30.80023 ], [ 75.94881, 30.79392 ], [ 75.95174, 30.79154 ], [ 75.94834, 30.78631 ], [ 75.93972, 30.78633 ], [ 75.94041, 30.78468 ], [ 75.94307, 30.7841 ], [ 75.94597, 30.78211 ], [ 75.93954, 30.77321 ], [ 75.93882, 30.77244 ], [ 75.93757, 30.77283 ], [ 75.93573, 30.76826 ], [ 75.9316, 30.76821 ], [ 75.9274, 30.76685 ], [ 75.92434, 30.75853 ], [ 75.92555, 30.75797 ], [ 75.92417, 30.75281 ], [ 75.92319, 30.75252 ], [ 75.92154, 30.75006 ], [ 75.92155, 30.74951 ], [ 75.92584, 30.74874 ], [ 75.92087, 30.74513 ], [ 75.9207, 30.74408 ], [ 75.92403, 30.73799 ], [ 75.92232, 30.73714 ], [ 75.92231, 30.73533 ], [ 75.92556, 30.73211 ], [ 75.93249, 30.72075 ], [ 75.92779, 30.71849 ], [ 75.92323, 30.71787 ], [ 75.92269, 30.71443 ], [ 75.91682, 30.71474 ], [ 75.91672, 30.71051 ], [ 75.91769, 30.71044 ], [ 75.91784, 30.7092 ], [ 75.9147, 30.70783 ], [ 75.90335, 30.70616 ], [ 75.89506, 30.69835 ], [ 75.89452, 30.6941 ], [ 75.88187, 30.69404 ], [ 75.87107, 30.6915 ], [ 75.86285, 30.69098 ], [ 75.85974, 30.68718 ], [ 75.86682, 30.67816 ], [ 75.86115, 30.67347 ], [ 75.85931, 30.67052 ], [ 75.8557, 30.66923 ], [ 75.8539, 30.66938 ], [ 75.84635, 30.6755 ], [ 75.8443, 30.67813 ], [ 75.84385, 30.68039 ], [ 75.83786, 30.67992 ], [ 75.83657, 30.68615 ], [ 75.83379, 30.69232 ], [ 75.8312, 30.69128 ], [ 75.82388, 30.6904 ], [ 75.82175, 30.69058 ], [ 75.81907, 30.69261 ], [ 75.81835, 30.69672 ], [ 75.82202, 30.70194 ], [ 75.82517, 30.70464 ], [ 75.83203, 30.7075 ], [ 75.83899, 30.71468 ], [ 75.83691, 30.71588 ], [ 75.83597, 30.71956 ], [ 75.8326, 30.72568 ], [ 75.8294, 30.72854 ], [ 75.826, 30.72881 ], [ 75.82189, 30.72673 ], [ 75.82006, 30.72733 ], [ 75.81873, 30.72886 ], [ 75.8101, 30.72853 ], [ 75.8079, 30.72771 ], [ 75.80607, 30.72795 ], [ 75.80319, 30.72645 ], [ 75.8028, 30.71795 ], [ 75.80371, 30.71347 ], [ 75.80155, 30.70757 ], [ 75.7945, 30.70836 ], [ 75.78547, 30.70704 ], [ 75.7798, 30.71149 ], [ 75.77966, 30.71247 ], [ 75.7745, 30.71522 ], [ 75.77024, 30.71613 ], [ 75.76513, 30.71597 ], [ 75.76905, 30.72517 ], [ 75.76719, 30.72703 ], [ 75.7596, 30.73015 ], [ 75.75957, 30.73425 ], [ 75.76064, 30.73421 ], [ 75.7613, 30.73623 ], [ 75.76829, 30.73066 ], [ 75.76976, 30.73209 ], [ 75.77401, 30.72987 ], [ 75.77949, 30.7341 ], [ 75.78211, 30.73542 ], [ 75.78267, 30.73486 ], [ 75.78637, 30.73827 ], [ 75.78961, 30.73592 ], [ 75.79058, 30.73703 ], [ 75.79281, 30.73539 ], [ 75.79454, 30.73702 ], [ 75.78769, 30.74243 ], [ 75.78603, 30.74187 ], [ 75.78357, 30.74842 ], [ 75.78397, 30.75288 ], [ 75.78261, 30.75677 ], [ 75.79367, 30.75918 ], [ 75.79391, 30.76033 ], [ 75.79307, 30.76047 ], [ 75.79142, 30.7637 ], [ 75.79019, 30.7717 ], [ 75.7793, 30.76991 ], [ 75.77829, 30.7721 ], [ 75.77799, 30.77665 ], [ 75.781, 30.77798 ], [ 75.78033, 30.77888 ], [ 75.7841, 30.78225 ], [ 75.78941, 30.78544 ], [ 75.78988, 30.78588 ], [ 75.78875, 30.78747 ], [ 75.79263, 30.79028 ], [ 75.79414, 30.78833 ], [ 75.79774, 30.79107 ], [ 75.80652, 30.78976 ], [ 75.81119, 30.79502 ], [ 75.81228, 30.80149 ], [ 75.81406, 30.80149 ], [ 75.8124, 30.81209 ], [ 75.81441, 30.81216 ], [ 75.81578, 30.80894 ], [ 75.81901, 30.80975 ], [ 75.82377, 30.8121 ], [ 75.8245, 30.81135 ], [ 75.83061, 30.81727 ], [ 75.83317, 30.81632 ], [ 75.83959, 30.8093 ], [ 75.83809, 30.80708 ], [ 75.83823, 30.80214 ], [ 75.8402, 30.79899 ], [ 75.84209, 30.7985 ], [ 75.84148, 30.79603 ], [ 75.83822, 30.79136 ], [ 75.83717, 30.78297 ], [ 75.83765, 30.78133 ], [ 75.84647, 30.77681 ], [ 75.85274, 30.78464 ], [ 75.85958, 30.79053 ], [ 75.87007, 30.78276 ], [ 75.87448, 30.78365 ], [ 75.87791, 30.78659 ], [ 75.88476, 30.78995 ], [ 75.8837, 30.79538 ], [ 75.88279, 30.79545 ], [ 75.88073, 30.79806 ], [ 75.87955, 30.80077 ], [ 75.87727, 30.8017 ], [ 75.87356, 30.80554 ], [ 75.87298, 30.81501 ], [ 75.88392, 30.81304 ], [ 75.8876, 30.79221 ], [ 75.8896, 30.79294 ], [ 75.8911, 30.79199 ], [ 75.89216, 30.79351 ], [ 75.90598, 30.78767 ], [ 75.90984, 30.78719 ], [ 75.91324, 30.79277 ], [ 75.91576, 30.80066 ], [ 75.91771, 30.80398 ], [ 75.91684, 30.80515 ], [ 75.91712, 30.80657 ], [ 75.92066, 30.811 ], [ 75.92208, 30.81155 ], [ 75.92211, 30.81249 ], [ 75.93173, 30.81201 ], [ 75.93383, 30.81973 ], [ 75.92451, 30.82655 ], [ 75.92344, 30.82569 ], [ 75.91729, 30.82482 ], [ 75.91775, 30.82415 ], [ 75.91685, 30.82323 ], [ 75.91126, 30.82173 ], [ 75.90928, 30.82435 ], [ 75.91154, 30.82554 ], [ 75.912, 30.82466 ], [ 75.91298, 30.82512 ], [ 75.90985, 30.83129 ], [ 75.91078, 30.83175 ], [ 75.90972, 30.83384 ], [ 75.91394, 30.8361 ], [ 75.91435, 30.83552 ], [ 75.91734, 30.83613 ], [ 75.91871, 30.83786 ], [ 75.92105, 30.83786 ], [ 75.92142, 30.8367 ], [ 75.92208, 30.83705 ], [ 75.9265, 30.83402 ], [ 75.93062, 30.83821 ], [ 75.92964, 30.83893 ], [ 75.92983, 30.841 ], [ 75.92789, 30.84321 ], [ 75.92708, 30.8428 ], [ 75.92131, 30.8448 ], [ 75.91901, 30.8448 ], [ 75.91778, 30.84645 ], [ 75.9115, 30.84636 ], [ 75.90701, 30.84185 ], [ 75.90376, 30.84195 ], [ 75.89554, 30.8346 ], [ 75.87945, 30.84842 ], [ 75.87175, 30.84401 ], [ 75.86919, 30.84869 ], [ 75.84448, 30.87042 ], [ 75.84124, 30.86121 ], [ 75.82897, 30.86704 ], [ 75.82809, 30.8656 ], [ 75.82639, 30.86574 ], [ 75.82253, 30.86807 ], [ 75.81788, 30.8681 ], [ 75.81392, 30.87252 ], [ 75.80968, 30.86902 ], [ 75.80178, 30.87444 ], [ 75.7944, 30.87345 ], [ 75.7848, 30.88212 ], [ 75.77085, 30.88228 ], [ 75.76964, 30.8815 ], [ 75.76688, 30.88819 ], [ 75.76656, 30.89439 ], [ 75.76513, 30.90107 ], [ 75.7653, 30.90485 ], [ 75.7693, 30.90962 ], [ 75.77637, 30.91356 ], [ 75.78497, 30.91444 ], [ 75.79373, 30.92329 ], [ 75.79636, 30.92436 ], [ 75.79724, 30.92339 ], [ 75.7993, 30.92428 ], [ 75.79922, 30.92709 ], [ 75.80094, 30.92778 ], [ 75.8031, 30.93122 ], [ 75.80622, 30.93112 ], [ 75.80618, 30.93246 ], [ 75.80775, 30.9335 ], [ 75.8088, 30.93267 ], [ 75.8101, 30.93347 ], [ 75.81982, 30.94457 ], [ 75.81544, 30.94899 ], [ 75.8186, 30.95235 ], [ 75.82097, 30.95321 ], [ 75.82376, 30.95249 ], [ 75.82776, 30.95327 ], [ 75.83719, 30.95276 ], [ 75.83802, 30.95595 ], [ 75.84301, 30.95423 ], [ 75.85168, 30.95341 ], [ 75.85722, 30.95306 ], [ 75.86018, 30.95437 ], [ 75.85978, 30.95714 ], [ 75.8564, 30.96121 ], [ 75.85356, 30.96739 ], [ 75.84249, 30.96863 ], [ 75.83751, 30.96735 ], [ 75.83077, 30.97082 ], [ 75.8288, 30.97786 ], [ 75.82638, 30.97736 ], [ 75.82529, 30.97838 ], [ 75.82726, 30.97933 ], [ 75.82454, 30.98869 ], [ 75.82324, 30.99887 ], [ 75.82916, 30.99883 ], [ 75.82993, 31.00025 ], [ 75.8445, 31.00153 ], [ 75.8446, 31.0001 ], [ 75.85619, 31.00091 ], [ 75.85644, 31.0043 ], [ 75.86494, 31.00419 ], [ 75.86721, 31.00815 ], [ 75.88075, 31.00926 ], [ 75.88455, 31.00893 ], [ 75.88472, 31.00792 ], [ 75.89155, 31.00811 ], [ 75.89155, 31.00725 ], [ 75.89289, 31.0071 ], [ 75.89288, 31.00638 ], [ 75.89546, 31.00442 ], [ 75.89851, 31.00478 ], [ 75.89773, 31.00817 ], [ 75.90568, 31.01602 ], [ 75.90567, 31.01677 ], [ 75.91007, 31.01655 ], [ 75.9102, 31.01571 ], [ 75.91176, 31.01599 ], [ 75.91241, 31.01748 ], [ 75.91517, 31.01733 ], [ 75.91589, 31.0152 ], [ 75.92116, 31.01161 ], [ 75.93344, 31.01194 ], [ 75.93402, 31.00934 ], [ 75.95257, 31.01028 ], [ 75.95809, 31.01806 ] ] ] } },
{ "type": "Feature", "properties": { "OBJECTID": 2353, "state_lgd": "03", "state_name": "PUNJAB", "district_lgd": "041", "district_name": "LUDHIANA", "district_name_source": "district_table", "subdistrict_lgd": "00230", "subdistrict_name": "Jagraon", "subdistrict_type": "Tehsil", "name_corrupted": false, "remarks": "", "label_lon": 75.489818478056051, "label_lat": 30.824833770333647 }, "geometry": { "type": "Polygon", "coordinates": [ [ [ 75.40197, 30.99337 ], [ 75.40372, 30.99013 ], [ 75.4049, 30.982 ], [ 75.40889, 30.98005 ], [ 75.41404, 30.98514 ], [ 75.41712, 30.98683 ], [ 75.41952, 30.9863 ], [ 75.42045, 30.98696 ], [ 75.428, 30.98292 ], [ 75.43184, 30.98177 ], [ 75.43446, 30.98259 ], [ 75.43622, 30.98141 ], [ 75.43802, 30.98139 ], [ 75.44123, 30.98359 ], [ 75.44363, 30.98197 ], [ 75.44495, 30.98229 ], [ 75.44511, 30.98162 ], [ 75.44848, 30.98409 ], [ 75.4557, 30.98362 ], [ 75.45906, 30.98098 ], [ 75.4593, 30.97716 ], [ 75.46247, 30.97763 ], [ 75.46237, 30.97634 ], [ 75.46435, 30.97639 ], [ 75.46449, 30.97831 ], [ 75.46813, 30.97714 ], [ 75.46913, 30.97798 ], [ 75.46933, 30.97974 ], [ 75.47114, 30.98066 ], [ 75.47279, 30.98034 ], [ 75.47325, 30.98195 ], [ 75.47407, 30.98196 ], [ 75.47512, 30.98091 ], [ 75.47493, 30.98012 ], [ 75.47661, 30.97998 ], [ 75.47621, 30.97797 ], [ 75.47972, 30.97412 ], [ 75.48224, 30.96979 ], [ 75.4883, 30.97273 ], [ 75.49276, 30.97023 ], [ 75.49903, 30.96996 ], [ 75.50097, 30.97236 ], [ 75.50619, 30.97308 ], [ 75.50641, 30.97633 ], [ 75.51013, 30.97524 ], [ 75.51657, 30.97612 ], [ 75.52345, 30.97475 ], [ 75.53246, 30.97171 ], [ 75.53645, 30.96852 ], [ 75.53709, 30.96609 ], [ 75.53732, 30.96762 ], [ 75.54308, 30.96816 ], [ 75.54302, 30.97589 ], [ 75.57565, 30.97753 ], [ 75.58502, 30.97021 ], [ 75.59343, 30.97095 ], [ 75.59434, 30.96856 ], [ 75.60627, 30.96947 ], [ 75.6101, 30.97506 ], [ 75.61827, 30.97618 ], [ 75.64257, 30.97708 ], [ 75.64177, 30.97976 ], [ 75.65129, 30.98036 ], [ 75.65138, 30.97327 ], [ 75.65514, 30.97057 ], [ 75.65488, 30.96918 ], [ 75.6591, 30.96752 ], [ 75.66478, 30.96766 ], [ 75.67298, 30.96236 ], [ 75.66496, 30.9568 ], [ 75.65766, 30.95401 ], [ 75.65965, 30.9504 ], [ 75.65999, 30.94797 ], [ 75.65935, 30.94657 ], [ 75.65924, 30.93894 ], [ 75.65626, 30.93187 ], [ 75.65188, 30.91403 ], [ 75.64593, 30.91294 ], [ 75.64356, 30.91093 ], [ 75.64404, 30.91013 ], [ 75.63569, 30.90455 ], [ 75.63807, 30.89833 ], [ 75.63565, 30.89287 ], [ 75.63531, 30.88761 ], [ 75.63089, 30.88509 ], [ 75.62679, 30.88521 ], [ 75.62172, 30.8816 ], [ 75.61933, 30.87892 ], [ 75.6224, 30.87645 ], [ 75.62221, 30.87312 ], [ 75.63254, 30.87319 ], [ 75.63263, 30.87061 ], [ 75.63496, 30.87037 ], [ 75.63814, 30.87057 ], [ 75.63893, 30.87147 ], [ 75.63774, 30.86779 ], [ 75.63847, 30.86625 ], [ 75.63712, 30.86076 ], [ 75.63532, 30.85885 ], [ 75.62773, 30.86032 ], [ 75.62277, 30.85838 ], [ 75.61432, 30.84849 ], [ 75.61321, 30.84278 ], [ 75.60449, 30.84302 ], [ 75.6024, 30.84234 ], [ 75.60079, 30.83929 ], [ 75.59336, 30.83393 ], [ 75.59281, 30.83097 ], [ 75.59328, 30.82626 ], [ 75.59668, 30.82658 ], [ 75.6054, 30.82465 ], [ 75.60602, 30.82575 ], [ 75.60688, 30.82575 ], [ 75.61017, 30.82287 ], [ 75.60714, 30.81793 ], [ 75.60299, 30.81473 ], [ 75.606, 30.81102 ], [ 75.60724, 30.80803 ], [ 75.60847, 30.80729 ], [ 75.61798, 30.8112 ], [ 75.62123, 30.81125 ], [ 75.62418, 30.81227 ], [ 75.62458, 30.81451 ], [ 75.62654, 30.81437 ], [ 75.62633, 30.816 ], [ 75.62771, 30.81699 ], [ 75.63119, 30.81582 ], [ 75.63054, 30.81301 ], [ 75.63165, 30.81137 ], [ 75.63651, 30.81051 ], [ 75.63842, 30.80912 ], [ 75.64037, 30.80609 ], [ 75.64578, 30.80321 ], [ 75.64915, 30.80025 ], [ 75.65166, 30.80014 ], [ 75.65014, 30.79907 ], [ 75.64964, 30.79171 ], [ 75.65198, 30.78516 ], [ 75.64334, 30.78597 ], [ 75.63459, 30.78477 ], [ 75.62738, 30.78504 ], [ 75.62295, 30.78671 ], [ 75.61968, 30.7869 ], [ 75.61786, 30.78577 ], [ 75.61567, 30.77898 ], [ 75.61311, 30.77569 ], [ 75.61073, 30.77759 ], [ 75.60893, 30.77689 ], [ 75.59578, 30.78371 ], [ 75.59166, 30.78309 ], [ 75.58928, 30.78146 ], [ 75.58603, 30.78092 ], [ 75.57991, 30.77445 ], [ 75.58404, 30.77052 ], [ 75.58069, 30.76896 ], [ 75.5786, 30.76548 ], [ 75.57387, 30.76092 ], [ 75.57302, 30.75951 ], [ 75.57381, 30.75846 ], [ 75.57253, 30.75673 ], [ 75.57162, 30.75134 ], [ 75.56677, 30.74653 ], [ 75.56294, 30.74167 ], [ 75.5626, 30.73957 ], [ 75.55714, 30.73367 ], [ 75.55914, 30.73117 ], [ 75.55787, 30.72661 ], [ 75.55515, 30.7242 ], [ 75.54994, 30.72155 ], [ 75.55049, 30.71819 ], [ 75.54803, 30.70092 ], [ 75.54548, 30.69799 ], [ 75.54561, 30.69518 ], [ 75.53712, 30.69248 ], [ 75.52714, 30.69635 ], [ 75.52394, 30.69572 ], [ 75.52373, 30.6887 ], [ 75.52098, 30.6857 ], [ 75.51954, 30.68215 ], [ 75.5211, 30.68111 ], [ 75.52052, 30.68058 ], [ 75.52251, 30.67869 ], [ 75.52276, 30.67729 ], [ 75.5218, 30.67494 ], [ 75.51534, 30.67205 ], [ 75.51399, 30.67017 ], [ 75.51133, 30.67191 ], [ 75.51038, 30.6707 ], [ 75.50781, 30.67051 ], [ 75.50352, 30.67186 ], [ 75.50086, 30.67364 ], [ 75.49959, 30.67662 ], [ 75.49387, 30.6794 ], [ 75.49023, 30.68009 ], [ 75.48478, 30.67852 ], [ 75.48143, 30.67663 ], [ 75.48212, 30.67266 ], [ 75.47736, 30.66836 ], [ 75.47077, 30.66534 ], [ 75.46879, 30.66287 ], [ 75.46498, 30.66206 ], [ 75.46325, 30.65973 ], [ 75.45923, 30.66017 ], [ 75.45676, 30.65749 ], [ 75.45224, 30.65622 ], [ 75.4521, 30.65536 ], [ 75.45357, 30.654 ], [ 75.45658, 30.65357 ], [ 75.45785, 30.65249 ], [ 75.45694, 30.65019 ], [ 75.45345, 30.65066 ], [ 75.45166, 30.64912 ], [ 75.4561, 30.64417 ], [ 75.45674, 30.6398 ], [ 75.45884, 30.63858 ], [ 75.46961, 30.63744 ], [ 75.46381, 30.63209 ], [ 75.46078, 30.62792 ], [ 75.46342, 30.62094 ], [ 75.46652, 30.61671 ], [ 75.46004, 30.61085 ], [ 75.46254, 30.60943 ], [ 75.4643, 30.60579 ], [ 75.46425, 30.59939 ], [ 75.46109, 30.59831 ], [ 75.45667, 30.6006 ], [ 75.45403, 30.601 ], [ 75.45069, 30.59652 ], [ 75.44869, 30.59672 ], [ 75.44495, 30.59174 ], [ 75.44219, 30.59403 ], [ 75.43691, 30.59067 ], [ 75.43393, 30.593 ], [ 75.43196, 30.58455 ], [ 75.43094, 30.58388 ], [ 75.42188, 30.58523 ], [ 75.41653, 30.58349 ], [ 75.40923, 30.58387 ], [ 75.40643, 30.58487 ], [ 75.39735, 30.59383 ], [ 75.40167, 30.60639 ], [ 75.40248, 30.61292 ], [ 75.40197, 30.61733 ], [ 75.40111, 30.61778 ], [ 75.40121, 30.6187 ], [ 75.39606, 30.62095 ], [ 75.3948, 30.62262 ], [ 75.3969, 30.62411 ], [ 75.39562, 30.625 ], [ 75.39282, 30.62491 ], [ 75.38787, 30.62703 ], [ 75.38746, 30.62584 ], [ 75.38001, 30.62508 ], [ 75.37655, 30.62376 ], [ 75.37451, 30.62641 ], [ 75.37642, 30.62863 ], [ 75.37624, 30.63158 ], [ 75.37772, 30.637 ], [ 75.37895, 30.63819 ], [ 75.37874, 30.63965 ], [ 75.37372, 30.64094 ], [ 75.37301, 30.64174 ], [ 75.37352, 30.64447 ], [ 75.37209, 30.64663 ], [ 75.37035, 30.6469 ], [ 75.36974, 30.64871 ], [ 75.37607, 30.65753 ], [ 75.38112, 30.66287 ], [ 75.38201, 30.66907 ], [ 75.38124, 30.66921 ], [ 75.37925, 30.67265 ], [ 75.37844, 30.67265 ], [ 75.3764, 30.67882 ], [ 75.37543, 30.67887 ], [ 75.37109, 30.6835 ], [ 75.36833, 30.68483 ], [ 75.36734, 30.68763 ], [ 75.36943, 30.69168 ], [ 75.36836, 30.69367 ], [ 75.36963, 30.69941 ], [ 75.36866, 30.70117 ], [ 75.36923, 30.70294 ], [ 75.36861, 30.7032 ], [ 75.36846, 30.70691 ], [ 75.37058, 30.71092 ], [ 75.37293, 30.70881 ], [ 75.37821, 30.70881 ], [ 75.3836, 30.71247 ], [ 75.38476, 30.71418 ], [ 75.38517, 30.71777 ], [ 75.38619, 30.71806 ], [ 75.38506, 30.7236 ], [ 75.38186, 30.72435 ], [ 75.37789, 30.72394 ], [ 75.37748, 30.72597 ], [ 75.37571, 30.72824 ], [ 75.3761, 30.73032 ], [ 75.37235, 30.73435 ], [ 75.3731, 30.73723 ], [ 75.37752, 30.7394 ], [ 75.37583, 30.7429 ], [ 75.37705, 30.74412 ], [ 75.37549, 30.746 ], [ 75.37544, 30.74916 ], [ 75.37837, 30.75077 ], [ 75.3775, 30.75183 ], [ 75.37993, 30.75402 ], [ 75.38175, 30.75991 ], [ 75.38433, 30.76487 ], [ 75.38528, 30.76765 ], [ 75.3853, 30.77097 ], [ 75.39054, 30.784 ], [ 75.39059, 30.78803 ], [ 75.3934, 30.80186 ], [ 75.39494, 30.80732 ], [ 75.39605, 30.80873 ], [ 75.3923, 30.81191 ], [ 75.38105, 30.81492 ], [ 75.37633, 30.81862 ], [ 75.37496, 30.82143 ], [ 75.37041, 30.82637 ], [ 75.36746, 30.83189 ], [ 75.36834, 30.83536 ], [ 75.36759, 30.83601 ], [ 75.36748, 30.84176 ], [ 75.36935, 30.84457 ], [ 75.36821, 30.84529 ], [ 75.37062, 30.84684 ], [ 75.37287, 30.8501 ], [ 75.37555, 30.85851 ], [ 75.38048, 30.85963 ], [ 75.38346, 30.86123 ], [ 75.39033, 30.86635 ], [ 75.39542, 30.8715 ], [ 75.39916, 30.873 ], [ 75.39861, 30.88215 ], [ 75.40006, 30.88504 ], [ 75.40633, 30.89159 ], [ 75.40473, 30.89593 ], [ 75.39621, 30.90136 ], [ 75.39712, 30.9028 ], [ 75.39642, 30.90288 ], [ 75.39649, 30.90412 ], [ 75.39409, 30.90419 ], [ 75.39329, 30.90975 ], [ 75.37805, 30.91243 ], [ 75.38066, 30.91981 ], [ 75.38253, 30.92974 ], [ 75.37528, 30.93169 ], [ 75.37367, 30.9288 ], [ 75.36955, 30.92972 ], [ 75.37159, 30.93428 ], [ 75.37141, 30.93757 ], [ 75.3704, 30.93753 ], [ 75.37059, 30.93958 ], [ 75.37221, 30.93955 ], [ 75.37228, 30.9413 ], [ 75.36834, 30.94134 ], [ 75.36627, 30.94044 ], [ 75.3658, 30.95225 ], [ 75.36423, 30.95743 ], [ 75.36123, 30.95904 ], [ 75.36236, 30.96279 ], [ 75.36087, 30.96343 ], [ 75.36103, 30.96449 ], [ 75.36269, 30.9639 ], [ 75.36767, 30.97181 ], [ 75.36309, 30.97839 ], [ 75.35616, 30.98442 ], [ 75.35747, 30.98762 ], [ 75.35679, 30.99377 ], [ 75.36735, 30.99128 ], [ 75.37162, 30.99815 ], [ 75.37484, 30.99851 ], [ 75.37554, 30.99486 ], [ 75.38374, 30.98982 ], [ 75.3889, 30.99342 ], [ 75.39464, 30.99613 ], [ 75.39601, 30.99534 ], [ 75.39764, 30.99666 ], [ 75.39833, 30.99598 ], [ 75.39915, 30.99636 ], [ 75.40197, 30.99337 ] ] ] } },
{ "type": "Feature", "properties": { "OBJECTID": 2356, "state_lgd": "03", "state_name": "PUNJAB", "district_lgd": "041", "district_name": "LUDHIANA", "district_name_source": "district_table", "subdistrict_lgd": "00228", "subdistrict_name": "Ludhiana (West)", "subdistrict_type": "Tehsil", "name_corrupted": false, "remarks": "", "label_lon": 75.748583973924752, "label_lat": 30.853112660823069 }, "geometry": { "type": "Polygon", "coordinates": [ [ [ 75.82324, 30.99887 ], [ 75.82454, 30.98869 ], [ 75.82726, 30.97933 ], [ 75.82529, 30.97838 ], [ 75.82638, 30.97736 ], [ 75.8288, 30.97786 ], [ 75.83077, 30.97082 ], [ 75.83751, 30.96735 ], [ 75.84249, 30.96863 ], [ 75.85356, 30.96739 ], [ 75.8564, 30.96121 ], [ 75.85978, 30.95714 ], [ 75.86024, 30.95449 ], [ 75.85722, 30.95306 ], [ 75.85277, 30.95333 ], [ 75.84301, 30.95423 ], [ 75.83802, 30.95595 ], [ 75.83719, 30.95276 ], [ 75.82776, 30.95327 ], [ 75.82376, 30.95249 ], [ 75.82097, 30.95321 ], [ 75.8186, 30.95235 ], [ 75.81544, 30.94899 ], [ 75.81982, 30.94457 ], [ 75.8101, 30.93347 ], [ 75.8088, 30.93267 ], [ 75.80775, 30.9335 ], [ 75.80618, 30.93246 ], [ 75.80622, 30.93112 ], [ 75.8031, 30.93122 ], [ 75.80094, 30.92778 ], [ 75.79922, 30.92709 ], [ 75.7993, 30.92428 ], [ 75.79724, 30.92339 ], [ 75.79636, 30.92436 ], [ 75.79373, 30.92329 ], [ 75.78497, 30.91444 ], [ 75.77637, 30.91356 ], [ 75.7693, 30.90962 ], [ 75.7657, 30.90569 ], [ 75.76513, 30.90107 ], [ 75.76656, 30.89439 ], [ 75.76688, 30.88819 ], [ 75.76964, 30.8815 ], [ 75.77085, 30.88228 ], [ 75.7848, 30.88212 ], [ 75.7944, 30.87345 ], [ 75.80178, 30.87444 ], [ 75.80968, 30.86902 ], [ 75.81392, 30.87252 ], [ 75.81788, 30.8681 ], [ 75.82253, 30.86807 ], [ 75.82639, 30.86574 ], [ 75.82809, 30.8656 ], [ 75.82897, 30.86704 ], [ 75.84124, 30.86121 ], [ 75.84448, 30.87042 ], [ 75.86919, 30.84869 ], [ 75.87175, 30.84401 ], [ 75.87945, 30.84842 ], [ 75.89554, 30.8346 ], [ 75.90376, 30.84195 ], [ 75.90701, 30.84185 ], [ 75.9115, 30.84636 ], [ 75.91778, 30.84645 ], [ 75.91901, 30.8448 ], [ 75.92131, 30.8448 ], [ 75.92708, 30.8428 ], [ 75.92789, 30.84321 ], [ 75.92983, 30.841 ], [ 75.92964, 30.83893 ], [ 75.93062, 30.83821 ], [ 75.9265, 30.83402 ], [ 75.92208, 30.83705 ], [ 75.92142, 30.8367 ], [ 75.92105, 30.83786 ], [ 75.91871, 30.83786 ], [ 75.91734, 30.83613 ], [ 75.91435, 30.83552 ], [ 75.91394, 30.8361 ], [ 75.90972, 30.83384 ], [ 75.91078, 30.83175 ], [ 75.90985, 30.83129 ], [ 75.91298, 30.82512 ], [ 75.912, 30.82466 ], [ 75.91154, 30.82554 ], [ 75.90922, 30.82418 ], [ 75.91126, 30.82173 ], [ 75.91685, 30.82323 ], [ 75.91775, 30.82415 ], [ 75.91729, 30.82482 ], [ 75.92344, 30.82569 ], [ 75.92451, 30.82655 ], [ 75.93383, 30.81973 ], [ 75.93366, 30.8178 ], [ 75.93173, 30.81201 ], [ 75.92211, 30.81249 ], [ 75.92208, 30.81155 ], [ 75.91964, 30.80983 ], [ 75.9169, 30.8061 ], [ 75.91771, 30.80398 ], [ 75.91576, 30.80066 ], [ 75.91324, 30.79277 ], [ 75.90984, 30.78719 ], [ 75.90598, 30.78767 ], [ 75.89216, 30.79351 ], [ 75.8911, 30.79199 ], [ 75.8896, 30.79294 ], [ 75.8876, 30.79221 ], [ 75.88392, 30.81304 ], [ 75.87298, 30.81501 ], [ 75.87356, 30.80554 ], [ 75.87727, 30.8017 ], [ 75.87955, 30.80077 ], [ 75.88073, 30.79806 ], [ 75.88279, 30.79545 ], [ 75.8837, 30.79538 ], [ 75.88476, 30.78995 ], [ 75.87791, 30.78659 ], [ 75.87448, 30.78365 ], [ 75.87007, 30.78276 ], [ 75.85958, 30.79053 ], [ 75.85274, 30.78464 ], [ 75.84647, 30.77681 ], [ 75.83765, 30.78133 ], [ 75.83717, 30.78297 ], [ 75.83822, 30.79136 ], [ 75.84148, 30.79603 ], [ 75.84209, 30.7985 ], [ 75.8402, 30.79899 ], [ 75.83823, 30.80214 ], [ 75.83809, 30.80708 ], [ 75.83959, 30.8093 ], [ 75.83317, 30.81632 ], [ 75.83061, 30.81727 ], [ 75.8245, 30.81135 ], [ 75.82377, 30.8121 ], [ 75.81901, 30.80975 ], [ 75.81578, 30.80894 ], [ 75.81441, 30.81216 ], [ 75.8124, 30.81209 ], [ 75.81406, 30.80149 ], [ 75.81228, 30.80149 ], [ 75.81119, 30.79502 ], [ 75.80652, 30.78976 ], [ 75.79774, 30.79107 ], [ 75.79414, 30.78833 ], [ 75.79263, 30.79028 ], [ 75.78875, 30.78747 ], [ 75.78988, 30.78588 ], [ 75.78941, 30.78544 ], [ 75.7841, 30.78225 ], [ 75.78033, 30.77888 ], [ 75.781, 30.77798 ], [ 75.77799, 30.77665 ], [ 75.77829, 30.7721 ], [ 75.7793, 30.76991 ], [ 75.79019, 30.7717 ], [ 75.79142, 30.7637 ], [ 75.79307, 30.76047 ], [ 75.79391, 30.76033 ], [ 75.79367, 30.75918 ], [ 75.78261, 30.75677 ], [ 75.78397, 30.75288 ], [ 75.78357, 30.74842 ], [ 75.78603, 30.74187 ], [ 75.78769, 30.74243 ], [ 75.79454, 30.73702 ], [ 75.79281, 30.73539 ], [ 75.79058, 30.73703 ], [ 75.78961, 30.73592 ], [ 75.78637, 30.73827 ], [ 75.78267, 30.73486 ], [ 75.78211, 30.73542 ], [ 75.77949, 30.7341 ], [ 75.77401, 30.72987 ], [ 75.76976, 30.73209 ], [ 75.76829, 30.73066 ], [ 75.7613, 30.73623 ], [ 75.76064, 30.73421 ], [ 75.75957, 30.73425 ], [ 75.7596, 30.73015 ], [ 75.76719, 30.72703 ], [ 75.76905, 30.72517 ], [ 75.76513, 30.71597 ], [ 75.77024, 30.71613 ], [ 75.7745, 30.71522 ], [ 75.77966, 30.71247 ], [ 75.7798, 30.71149 ], [ 75.78547, 30.70704 ], [ 75.7945, 30.70836 ], [ 75.80155, 30.70757 ], [ 75.80371, 30.71347 ], [ 75.8028, 30.71795 ], [ 75.80319, 30.72645 ], [ 75.80607, 30.72795 ], [ 75.81873, 30.72886 ], [ 75.82006, 30.72733 ], [ 75.82189, 30.72673 ], [ 75.8266, 30.7288 ], [ 75.8294, 30.72854 ], [ 75.83214, 30.72629 ], [ 75.83597, 30.71956 ], [ 75.83691, 30.71588 ], [ 75.83899, 30.71468 ], [ 75.83203, 30.7075 ], [ 75.82517, 30.70464 ], [ 75.8232, 30.70304 ], [ 75.81835, 30.69672 ], [ 75.81907, 30.69261 ], [ 75.82175, 30.69058 ], [ 75.81933, 30.68839 ], [ 75.81623, 30.68695 ], [ 75.82134, 30.6808 ], [ 75.82228, 30.67797 ], [ 75.81657, 30.67379 ], [ 75.81773, 30.67154 ], [ 75.81676, 30.67038 ], [ 75.81786, 30.66863 ], [ 75.81719, 30.66595 ], [ 75.81519, 30.66411 ], [ 75.8123, 30.66561 ], [ 75.80794, 30.664 ], [ 75.80295, 30.66411 ], [ 75.79107, 30.6602 ], [ 75.7879, 30.65873 ], [ 75.78588, 30.65675 ], [ 75.78224, 30.65855 ], [ 75.78091, 30.6607 ], [ 75.78163, 30.66167 ], [ 75.78099, 30.66265 ], [ 75.782, 30.67037 ], [ 75.77899, 30.67209 ], [ 75.77034, 30.67312 ], [ 75.76531, 30.67099 ], [ 75.76316, 30.66517 ], [ 75.75046, 30.66487 ], [ 75.74715, 30.6655 ], [ 75.74654, 30.66845 ], [ 75.74041, 30.66885 ], [ 75.73783, 30.67338 ], [ 75.73611, 30.67373 ], [ 75.73353, 30.68226 ], [ 75.7338, 30.68614 ], [ 75.73603, 30.68724 ], [ 75.73735, 30.6858 ], [ 75.75, 30.69223 ], [ 75.75412, 30.69297 ], [ 75.75978, 30.6953 ], [ 75.75787, 30.70359 ], [ 75.75596, 30.70794 ], [ 75.75519, 30.71296 ], [ 75.75143, 30.71402 ], [ 75.74603, 30.7143 ], [ 75.73802, 30.7177 ], [ 75.7379, 30.71931 ], [ 75.73481, 30.72366 ], [ 75.73128, 30.72617 ], [ 75.73642, 30.73184 ], [ 75.7296, 30.74429 ], [ 75.71539, 30.74157 ], [ 75.70423, 30.73693 ], [ 75.69898, 30.73856 ], [ 75.69779, 30.73792 ], [ 75.69522, 30.73836 ], [ 75.6921, 30.73652 ], [ 75.69136, 30.74342 ], [ 75.68916, 30.7484 ], [ 75.68768, 30.74986 ], [ 75.6884, 30.75086 ], [ 75.68805, 30.75175 ], [ 75.69496, 30.7568 ], [ 75.69637, 30.75923 ], [ 75.69565, 30.76116 ], [ 75.69048, 30.76463 ], [ 75.68732, 30.76479 ], [ 75.68544, 30.7658 ], [ 75.68064, 30.76645 ], [ 75.67951, 30.7656 ], [ 75.67824, 30.76596 ], [ 75.67213, 30.76273 ], [ 75.66977, 30.76318 ], [ 75.66638, 30.76564 ], [ 75.66769, 30.76721 ], [ 75.66536, 30.77151 ], [ 75.66458, 30.77572 ], [ 75.66877, 30.77966 ], [ 75.67012, 30.78381 ], [ 75.67339, 30.78736 ], [ 75.67143, 30.79095 ], [ 75.67386, 30.80528 ], [ 75.67287, 30.81128 ], [ 75.67343, 30.81394 ], [ 75.67162, 30.81841 ], [ 75.66859, 30.82206 ], [ 75.6578, 30.81116 ], [ 75.65166, 30.80014 ], [ 75.64915, 30.80025 ], [ 75.64578, 30.80321 ], [ 75.64037, 30.80609 ], [ 75.63734, 30.81003 ], [ 75.63165, 30.81137 ], [ 75.63054, 30.81301 ], [ 75.63119, 30.81582 ], [ 75.62771, 30.81699 ], [ 75.62633, 30.816 ], [ 75.62654, 30.81437 ], [ 75.62458, 30.81451 ], [ 75.62418, 30.81227 ], [ 75.62123, 30.81125 ], [ 75.61798, 30.8112 ], [ 75.60847, 30.80729 ], [ 75.60724, 30.80803 ], [ 75.606, 30.81102 ], [ 75.60299, 30.81473 ], [ 75.60714, 30.81793 ], [ 75.61017, 30.82287 ], [ 75.60688, 30.82575 ], [ 75.60602, 30.82575 ], [ 75.6054, 30.82465 ], [ 75.59668, 30.82658 ], [ 75.59328, 30.82626 ], [ 75.59281, 30.83097 ], [ 75.59336, 30.83393 ], [ 75.60079, 30.83929 ], [ 75.6024, 30.84234 ], [ 75.60449, 30.84302 ], [ 75.61321, 30.84278 ], [ 75.61432, 30.84849 ], [ 75.62277, 30.85838 ], [ 75.62773, 30.86032 ], [ 75.63532, 30.85885 ], [ 75.63768, 30.86207 ], [ 75.63847, 30.86625 ], [ 75.63774, 30.86779 ], [ 75.63893, 30.87147 ], [ 75.63814, 30.87057 ], [ 75.63496, 30.87037 ], [ 75.63263, 30.87061 ], [ 75.63254, 30.87319 ], [ 75.62221, 30.87312 ], [ 75.6224, 30.87645 ], [ 75.61933, 30.87892 ], [ 75.62172, 30.8816 ], [ 75.62679, 30.88521 ], [ 75.63089, 30.88509 ], [ 75.63531, 30.88761 ], [ 75.63565, 30.89287 ], [ 75.63807, 30.89833 ], [ 75.63569, 30.90455 ], [ 75.64404, 30.91013 ], [ 75.64356, 30.91093 ], [ 75.64593, 30.91294 ], [ 75.65188, 30.91403 ], [ 75.65626, 30.93187 ], [ 75.65924, 30.93894 ], [ 75.65935, 30.94657 ], [ 75.65999, 30.94797 ], [ 75.65965, 30.9504 ], [ 75.65766, 30.95401 ], [ 75.66496, 30.9568 ], [ 75.67298, 30.96236 ], [ 75.66478, 30.96766 ], [ 75.6591, 30.96752 ], [ 75.65488, 30.96918 ], [ 75.65514, 30.97057 ], [ 75.65138, 30.97327 ], [ 75.65129, 30.98036 ], [ 75.67209, 30.98653 ], [ 75.67382, 30.98747 ], [ 75.67697, 30.99143 ], [ 75.68785, 30.99197 ], [ 75.68877, 30.99454 ], [ 75.70357, 30.99558 ], [ 75.70162, 30.99822 ], [ 75.703, 30.99887 ], [ 75.71654, 31.00038 ], [ 75.71532, 31.00436 ], [ 75.73524, 31.00522 ], [ 75.73468, 31.01064 ], [ 75.7396, 31.01103 ], [ 75.74439, 31.01242 ], [ 75.76397, 31.01305 ], [ 75.76231, 31.00905 ], [ 75.77039, 31.00945 ], [ 75.77122, 31.00713 ], [ 75.77256, 31.00687 ], [ 75.77127, 31.00303 ], [ 75.77758, 31.00317 ], [ 75.77701, 31.00107 ], [ 75.77866, 31.00072 ], [ 75.78175, 30.99781 ], [ 75.78617, 30.99678 ], [ 75.79044, 30.99433 ], [ 75.79863, 30.99415 ], [ 75.81751, 30.99629 ], [ 75.8204, 30.99829 ], [ 75.82324, 30.99887 ] ] ] } },
{ "type": "Feature", "properties": { "OBJECTID": 2368, "state_lgd": "03", "state_name": "PUNJAB", "district_lgd": "041", "district_name": "LUDHIANA", "district_name_source": "district_table", "subdistrict_lgd": "00226", "subdistrict_name": "Payal", "subdistrict_type": "Tehsil", "name_corrupted": false, "remarks": "", "label_lon": 75.999825952528766, "label_lat": 30.693568820276131 }, "geometry": { "type": "Polygon", "coordinates": [ [ [ 76.07701, 30.81817 ], [ 76.07463, 30.81575 ], [ 76.07455, 30.81304 ], [ 76.07174, 30.80898 ], [ 76.07041, 30.80538 ], [ 76.06778, 30.80496 ], [ 76.06757, 30.80368 ], [ 76.06219, 30.8022 ], [ 76.06437, 30.79578 ], [ 76.0686, 30.79164 ], [ 76.07306, 30.78939 ], [ 76.06718, 30.77943 ], [ 76.06484, 30.77136 ], [ 76.07178, 30.77153 ], [ 76.07802, 30.76951 ], [ 76.07744, 30.76803 ], [ 76.07747, 30.75893 ], [ 76.07887, 30.75454 ], [ 76.07764, 30.75346 ], [ 76.07839, 30.75258 ], [ 76.07599, 30.75083 ], [ 76.07632, 30.75 ], [ 76.0718, 30.74383 ], [ 76.07127, 30.74171 ], [ 76.08294, 30.73082 ], [ 76.08402, 30.73233 ], [ 76.0978, 30.73697 ], [ 76.09976, 30.73991 ], [ 76.10288, 30.74135 ], [ 76.10517, 30.74131 ], [ 76.11169, 30.73708 ], [ 76.09664, 30.72601 ], [ 76.09586, 30.72312 ], [ 76.09653, 30.71166 ], [ 76.09459, 30.70845 ], [ 76.10606, 30.70577 ], [ 76.10453, 30.70351 ], [ 76.10451, 30.70217 ], [ 76.1016, 30.69833 ], [ 76.10801, 30.69658 ], [ 76.1083, 30.69519 ], [ 76.10076, 30.68405 ], [ 76.09783, 30.6824 ], [ 76.09122, 30.67344 ], [ 76.08681, 30.67225 ], [ 76.0751, 30.67119 ], [ 76.07573, 30.66961 ], [ 76.07196, 30.66535 ], [ 76.06775, 30.65611 ], [ 76.069, 30.6545 ], [ 76.07051, 30.64899 ], [ 76.07377, 30.64607 ], [ 76.07343, 30.64137 ], [ 76.06893, 30.64056 ], [ 76.06324, 30.6373 ], [ 76.0613, 30.6373 ], [ 76.0632, 30.63167 ], [ 76.07198, 30.62878 ], [ 76.0747, 30.62868 ], [ 76.07666, 30.62672 ], [ 76.08127, 30.62842 ], [ 76.08342, 30.6258 ], [ 76.08876, 30.62572 ], [ 76.08679, 30.62393 ], [ 76.08858, 30.62172 ], [ 76.08785, 30.62106 ], [ 76.08845, 30.62041 ], [ 76.08736, 30.61976 ], [ 76.0879, 30.61907 ], [ 76.08646, 30.61751 ], [ 76.08709, 30.61674 ], [ 76.08777, 30.61705 ], [ 76.08861, 30.61491 ], [ 76.08374, 30.61574 ], [ 76.08437, 30.61194 ], [ 76.08359, 30.61169 ], [ 76.08349, 30.61048 ], [ 76.08522, 30.60884 ], [ 76.08518, 30.60704 ], [ 76.08657, 30.6054 ], [ 76.08772, 30.6057 ], [ 76.08729, 30.60637 ], [ 76.09278, 30.61196 ], [ 76.09747, 30.60705 ], [ 76.09847, 30.60852 ], [ 76.09934, 30.60821 ], [ 76.10207, 30.6039 ], [ 76.10492, 30.6052 ], [ 76.10744, 30.60303 ], [ 76.10669, 30.60212 ], [ 76.10712, 30.60166 ], [ 76.10988, 30.60069 ], [ 76.11316, 30.60211 ], [ 76.11987, 30.60141 ], [ 76.12548, 30.59696 ], [ 76.12047, 30.5935 ], [ 76.11722, 30.59303 ], [ 76.11555, 30.59098 ], [ 76.1141, 30.59103 ], [ 76.11021, 30.58736 ], [ 76.11149, 30.58288 ], [ 76.11458, 30.57977 ], [ 76.10964, 30.57777 ], [ 76.10804, 30.57604 ], [ 76.10728, 30.56515 ], [ 76.10888, 30.56478 ], [ 76.10774, 30.56208 ], [ 76.10416, 30.56213 ], [ 76.09801, 30.56045 ], [ 76.09646, 30.56402 ], [ 76.09393, 30.56486 ], [ 76.08965, 30.56799 ], [ 76.08687, 30.56593 ], [ 76.08656, 30.56426 ], [ 76.08449, 30.56195 ], [ 76.08262, 30.56461 ], [ 76.07994, 30.56474 ], [ 76.0786, 30.56573 ], [ 76.07585, 30.56361 ], [ 76.07005, 30.56392 ], [ 76.06537, 30.56914 ], [ 76.06663, 30.57466 ], [ 76.06925, 30.57695 ], [ 76.06907, 30.58052 ], [ 76.06779, 30.58235 ], [ 76.06604, 30.58344 ], [ 76.05787, 30.57854 ], [ 76.05405, 30.58092 ], [ 76.05359, 30.58324 ], [ 76.04958, 30.58383 ], [ 76.0433, 30.58754 ], [ 76.03537, 30.58893 ], [ 76.03218, 30.60078 ], [ 76.03413, 30.60325 ], [ 76.03318, 30.60389 ], [ 76.03375, 30.60641 ], [ 76.03257, 30.60927 ], [ 76.02958, 30.61049 ], [ 76.02953, 30.61394 ], [ 76.02787, 30.61531 ], [ 76.02175, 30.61479 ], [ 76.01008, 30.61574 ], [ 76.00451, 30.6065 ], [ 76.00046, 30.6033 ], [ 75.99208, 30.6008 ], [ 75.98689, 30.59832 ], [ 75.9828, 30.59865 ], [ 75.97908, 30.59542 ], [ 75.97193, 30.59245 ], [ 75.96099, 30.59039 ], [ 75.95653, 30.58346 ], [ 75.95538, 30.57781 ], [ 75.95307, 30.57453 ], [ 75.94861, 30.5725 ], [ 75.94774, 30.57043 ], [ 75.93537, 30.56819 ], [ 75.92985, 30.57454 ], [ 75.9254, 30.57789 ], [ 75.92684, 30.58426 ], [ 75.92503, 30.58558 ], [ 75.92579, 30.58608 ], [ 75.92433, 30.58871 ], [ 75.92317, 30.58838 ], [ 75.92091, 30.59193 ], [ 75.92928, 30.59725 ], [ 75.92299, 30.60669 ], [ 75.92347, 30.6087 ], [ 75.91968, 30.60979 ], [ 75.91716, 30.60858 ], [ 75.9152, 30.61085 ], [ 75.9113, 30.6102 ], [ 75.90999, 30.61189 ], [ 75.9087, 30.61158 ], [ 75.90357, 30.60684 ], [ 75.90278, 30.60371 ], [ 75.89485, 30.60575 ], [ 75.89173, 30.6058 ], [ 75.88941, 30.60721 ], [ 75.88786, 30.60701 ], [ 75.88668, 30.60944 ], [ 75.88818, 30.62041 ], [ 75.87418, 30.62709 ], [ 75.87235, 30.62888 ], [ 75.87246, 30.63924 ], [ 75.88005, 30.6406 ], [ 75.88019, 30.64199 ], [ 75.88467, 30.64343 ], [ 75.88665, 30.64521 ], [ 75.889, 30.64485 ], [ 75.89805, 30.64748 ], [ 75.89717, 30.64848 ], [ 75.89767, 30.64941 ], [ 75.89706, 30.65004 ], [ 75.89776, 30.65046 ], [ 75.89502, 30.65486 ], [ 75.89574, 30.6557 ], [ 75.89481, 30.65895 ], [ 75.89543, 30.65957 ], [ 75.88821, 30.66339 ], [ 75.88505, 30.66277 ], [ 75.88158, 30.66634 ], [ 75.88087, 30.67563 ], [ 75.87612, 30.67682 ], [ 75.86761, 30.67717 ], [ 75.85974, 30.68718 ], [ 75.86374, 30.6915 ], [ 75.87107, 30.6915 ], [ 75.88187, 30.69404 ], [ 75.89452, 30.6941 ], [ 75.89506, 30.69835 ], [ 75.90335, 30.70616 ], [ 75.9147, 30.70783 ], [ 75.91784, 30.7092 ], [ 75.91769, 30.71044 ], [ 75.91672, 30.71051 ], [ 75.91682, 30.71474 ], [ 75.92269, 30.71443 ], [ 75.92323, 30.71787 ], [ 75.92779, 30.71849 ], [ 75.93249, 30.72075 ], [ 75.92556, 30.73211 ], [ 75.92231, 30.73533 ], [ 75.92232, 30.73714 ], [ 75.92403, 30.73799 ], [ 75.9207, 30.74408 ], [ 75.92087, 30.74513 ], [ 75.92584, 30.74874 ], [ 75.92155, 30.74951 ], [ 75.92154, 30.75006 ], [ 75.92319, 30.75252 ], [ 75.92417, 30.75281 ], [ 75.92555, 30.75797 ], [ 75.92434, 30.75853 ], [ 75.9274, 30.76685 ], [ 75.9316, 30.76821 ], [ 75.93573, 30.76826 ], [ 75.93757, 30.77283 ], [ 75.93882, 30.77244 ], [ 75.93954, 30.77321 ], [ 75.94597, 30.78211 ], [ 75.94307, 30.7841 ], [ 75.94041, 30.78468 ], [ 75.93972, 30.78633 ], [ 75.94834, 30.78631 ], [ 75.95174, 30.79154 ], [ 75.94881, 30.79392 ], [ 75.94403, 30.80023 ], [ 75.94946, 30.80437 ], [ 75.94898, 30.80479 ], [ 75.95048, 30.80565 ], [ 75.95121, 30.80722 ], [ 75.9528, 30.80808 ], [ 75.95569, 30.80614 ], [ 75.96323, 30.80636 ], [ 75.97081, 30.80761 ], [ 75.97095, 30.80687 ], [ 75.97662, 30.80846 ], [ 75.97818, 30.80528 ], [ 75.97754, 30.80478 ], [ 75.98037, 30.8001 ], [ 75.9863, 30.79825 ], [ 75.9867, 30.80058 ], [ 75.98879, 30.8027 ], [ 75.99246, 30.80468 ], [ 75.99427, 30.80725 ], [ 75.99802, 30.80952 ], [ 75.99889, 30.81472 ], [ 76.00576, 30.81863 ], [ 76.01878, 30.8211 ], [ 76.02425, 30.8275 ], [ 76.02523, 30.83126 ], [ 76.02775, 30.83491 ], [ 76.03443, 30.84015 ], [ 76.03745, 30.8444 ], [ 76.04447, 30.84753 ], [ 76.04826, 30.85067 ], [ 76.05059, 30.85113 ], [ 76.05394, 30.85088 ], [ 76.05317, 30.8469 ], [ 76.05377, 30.84217 ], [ 76.06253, 30.83861 ], [ 76.07039, 30.83994 ], [ 76.07795, 30.82355 ], [ 76.07701, 30.81817 ] ] ] } },
{ "type": "Feature", "properties": { "OBJECTID": 2388, "state_lgd": "03", "state_name": "PUNJAB", "district_lgd": "041", "district_name": "LUDHIANA", "district_name_source": "district_table", "subdistrict_lgd": "00229", "subdistrict_name": "Raikot", "subdistrict_type": "Tehsil", "name_corrupted": false, "remarks": "", "label_lon": 75.618802117331001, "label_lat": 30.67167438725885 }, "geometry": { "type": "Polygon", "coordinates": [ [ [ 75.76316, 30.66517 ], [ 75.76324, 30.66074 ], [ 75.76521, 30.65797 ], [ 75.77293, 30.65958 ], [ 75.77331, 30.65292 ], [ 75.7748, 30.64844 ], [ 75.7806, 30.64118 ], [ 75.78601, 30.63741 ], [ 75.79663, 30.63232 ], [ 75.79739, 30.63006 ], [ 75.79564, 30.62831 ], [ 75.78904, 30.62347 ], [ 75.78242, 30.62445 ], [ 75.78027, 30.62822 ], [ 75.77495, 30.62965 ], [ 75.77097, 30.63187 ], [ 75.76996, 30.63166 ], [ 75.76433, 30.63578 ], [ 75.76071, 30.63743 ], [ 75.75449, 30.63262 ], [ 75.75208, 30.63187 ], [ 75.73829, 30.63169 ], [ 75.73355, 30.6202 ], [ 75.72767, 30.61788 ], [ 75.72806, 30.61657 ], [ 75.72055, 30.61173 ], [ 75.71609, 30.6112 ], [ 75.71146, 30.60915 ], [ 75.70307, 30.60319 ], [ 75.6981, 30.6058 ], [ 75.69374, 30.60512 ], [ 75.6856, 30.60655 ], [ 75.68289, 30.60605 ], [ 75.67954, 30.60248 ], [ 75.67833, 30.59871 ], [ 75.67405, 30.59588 ], [ 75.66848, 30.59405 ], [ 75.65277, 30.59099 ], [ 75.63801, 30.59432 ], [ 75.63152, 30.59738 ], [ 75.62679, 30.60086 ], [ 75.60949, 30.5949 ], [ 75.60947, 30.59372 ], [ 75.60787, 30.59344 ], [ 75.60641, 30.59452 ], [ 75.60384, 30.59415 ], [ 75.59571, 30.58678 ], [ 75.58958, 30.58315 ], [ 75.5856, 30.57528 ], [ 75.58384, 30.57394 ], [ 75.57988, 30.57355 ], [ 75.58, 30.57131 ], [ 75.57887, 30.57092 ], [ 75.57894, 30.56961 ], [ 75.56586, 30.57203 ], [ 75.56274, 30.57361 ], [ 75.56032, 30.57637 ], [ 75.55367, 30.57993 ], [ 75.54884, 30.58027 ], [ 75.54096, 30.57843 ], [ 75.53703, 30.56728 ], [ 75.5337, 30.56826 ], [ 75.53228, 30.56773 ], [ 75.52835, 30.57095 ], [ 75.52832, 30.57636 ], [ 75.52678, 30.57922 ], [ 75.52882, 30.58516 ], [ 75.52534, 30.58576 ], [ 75.52417, 30.58503 ], [ 75.52254, 30.58528 ], [ 75.51868, 30.58719 ], [ 75.51661, 30.58496 ], [ 75.51312, 30.58409 ], [ 75.50974, 30.58002 ], [ 75.50964, 30.57602 ], [ 75.50668, 30.57238 ], [ 75.50495, 30.57413 ], [ 75.50224, 30.57352 ], [ 75.49912, 30.57462 ], [ 75.48751, 30.58274 ], [ 75.49093, 30.58725 ], [ 75.49668, 30.5974 ], [ 75.49527, 30.59831 ], [ 75.49005, 30.59844 ], [ 75.48933, 30.59956 ], [ 75.48417, 30.602 ], [ 75.47661, 30.6013 ], [ 75.47543, 30.60251 ], [ 75.46968, 30.60504 ], [ 75.4643, 30.60579 ], [ 75.46254, 30.60943 ], [ 75.46004, 30.61085 ], [ 75.46652, 30.61671 ], [ 75.46342, 30.62094 ], [ 75.46078, 30.62792 ], [ 75.46381, 30.63209 ], [ 75.46961, 30.63744 ], [ 75.45739, 30.63919 ], [ 75.45653, 30.64019 ], [ 75.4561, 30.64417 ], [ 75.45167, 30.64865 ], [ 75.4518, 30.64977 ], [ 75.45345, 30.65066 ], [ 75.45694, 30.65019 ], [ 75.45791, 30.65196 ], [ 75.4572, 30.6533 ], [ 75.4527, 30.65463 ], [ 75.45198, 30.65567 ], [ 75.45243, 30.65642 ], [ 75.45676, 30.65749 ], [ 75.45951, 30.66027 ], [ 75.46354, 30.65986 ], [ 75.46498, 30.66206 ], [ 75.46879, 30.66287 ], [ 75.47077, 30.66534 ], [ 75.47736, 30.66836 ], [ 75.48212, 30.67266 ], [ 75.48143, 30.67663 ], [ 75.48478, 30.67852 ], [ 75.4905, 30.68014 ], [ 75.49387, 30.6794 ], [ 75.49959, 30.67662 ], [ 75.50086, 30.67364 ], [ 75.50218, 30.67255 ], [ 75.50781, 30.67051 ], [ 75.51038, 30.6707 ], [ 75.51133, 30.67191 ], [ 75.51399, 30.67017 ], [ 75.51534, 30.67205 ], [ 75.5218, 30.67494 ], [ 75.52276, 30.67729 ], [ 75.52251, 30.67869 ], [ 75.52079, 30.68005 ], [ 75.5211, 30.68111 ], [ 75.51954, 30.68215 ], [ 75.52098, 30.6857 ], [ 75.52373, 30.6887 ], [ 75.52394, 30.69572 ], [ 75.52714, 30.69635 ], [ 75.53712, 30.69248 ], [ 75.54561, 30.69518 ], [ 75.54548, 30.69799 ], [ 75.54803, 30.70092 ], [ 75.55049, 30.71819 ], [ 75.54994, 30.72155 ], [ 75.55515, 30.7242 ], [ 75.55787, 30.72661 ], [ 75.55914, 30.73117 ], [ 75.55714, 30.73367 ], [ 75.5626, 30.73957 ], [ 75.56294, 30.74167 ], [ 75.56677, 30.74653 ], [ 75.57162, 30.75134 ], [ 75.57253, 30.75673 ], [ 75.57381, 30.75846 ], [ 75.57302, 30.75951 ], [ 75.57387, 30.76092 ], [ 75.5786, 30.76548 ], [ 75.58069, 30.76896 ], [ 75.58404, 30.77052 ], [ 75.57991, 30.77445 ], [ 75.58603, 30.78092 ], [ 75.58928, 30.78146 ], [ 75.59166, 30.78309 ], [ 75.59578, 30.78371 ], [ 75.60893, 30.77689 ], [ 75.61073, 30.77759 ], [ 75.61311, 30.77569 ], [ 75.61567, 30.77898 ], [ 75.61786, 30.78577 ], [ 75.61968, 30.7869 ], [ 75.62295, 30.78671 ], [ 75.62738, 30.78504 ], [ 75.63459, 30.78477 ], [ 75.64334, 30.78597 ], [ 75.65198, 30.78516 ], [ 75.65104, 30.78878 ], [ 75.64978, 30.78982 ], [ 75.65014, 30.79907 ], [ 75.65166, 30.80014 ], [ 75.6578, 30.81116 ], [ 75.66859, 30.82206 ], [ 75.67162, 30.81841 ], [ 75.67343, 30.81394 ], [ 75.67287, 30.81128 ], [ 75.67386, 30.80528 ], [ 75.67143, 30.79095 ], [ 75.67339, 30.78736 ], [ 75.67012, 30.78381 ], [ 75.66877, 30.77966 ], [ 75.66458, 30.77572 ], [ 75.66536, 30.77151 ], [ 75.66769, 30.76721 ], [ 75.66638, 30.76564 ], [ 75.66977, 30.76318 ], [ 75.67213, 30.76273 ], [ 75.67824, 30.76596 ], [ 75.67951, 30.7656 ], [ 75.68064, 30.76645 ], [ 75.68544, 30.7658 ], [ 75.68732, 30.76479 ], [ 75.69048, 30.76463 ], [ 75.69565, 30.76116 ], [ 75.69637, 30.75923 ], [ 75.69496, 30.7568 ], [ 75.68805, 30.75175 ], [ 75.6884, 30.75086 ], [ 75.68768, 30.74986 ], [ 75.68916, 30.7484 ], [ 75.69136, 30.74342 ], [ 75.6921, 30.73652 ], [ 75.69522, 30.73836 ], [ 75.69779, 30.73792 ], [ 75.69898, 30.73856 ], [ 75.70423, 30.73693 ], [ 75.71539, 30.74157 ], [ 75.7296, 30.74429 ], [ 75.73642, 30.73184 ], [ 75.73128, 30.72617 ], [ 75.73481, 30.72366 ], [ 75.7379, 30.71931 ], [ 75.73802, 30.7177 ], [ 75.74603, 30.7143 ], [ 75.75143, 30.71402 ], [ 75.75519, 30.71296 ], [ 75.75596, 30.70794 ], [ 75.75787, 30.70359 ], [ 75.75978, 30.6953 ], [ 75.75412, 30.69297 ], [ 75.75, 30.69223 ], [ 75.73735, 30.6858 ], [ 75.73603, 30.68724 ], [ 75.7338, 30.68614 ], [ 75.73353, 30.68226 ], [ 75.73611, 30.67373 ], [ 75.73783, 30.67338 ], [ 75.74041, 30.66885 ], [ 75.74654, 30.66845 ], [ 75.74715, 30.6655 ], [ 75.75046, 30.66487 ], [ 75.76316, 30.66517 ] ] ] } }
]
}
