{
"type": "FeatureCollection",
"name": "046_BATHINDA",
"crs": { "type": "name", "properties": { "name": "urn:ogc:def:crs:OGC:1.3:CRS84" } },
"xy_coordinate_resolution": 1e-05,
"features": [
{ "type": "Feature", "properties": { "OBJECTID": 2317, "state_lgd": "03", "state_name": "PUNJAB", "district_lgd": "046", "district_name": "BATHINDA", "district_name_source": "district_table", "subdistrict_lgd": "00245", "subdistrict_name": "Bathinda", "subdistrict_type": "Tehsil", "name_corrupted": false, "remarks": "", "label_lon": 74.916754456510475, "label_lat": 30.21320940874396 }, "geometry": { "type": "Polygon", "coordinates": [ [ [ 75.1531, 30.37382 ], [ 75.16932, 30.37239 ], [ 75.17149, 30.36833 ], [ 75.17379, 30.36073 ], [ 75.17656, 30.35568 ], [ 75.16238, 30.34176 ], [ 75.16693, 30.3389 ], [ 75.16866, 30.33941 ], [ 75.17426, 30.33704 ], [ 75.17785, 30.33639 ], [ 75.17974, 30.33477 ], [ 75.17153, 30.32955 ], [ 75.17099, 30.32904 ], [ 75.17154, 30.32848 ], [ 75.16904, 30.32637 ], [ 75.16604, 30.3261 ], [ 75.16219, 30.32224 ], [ 75.15661, 30.31913 ], [ 75.14116, 30.32669 ], [ 75.14038, 30.32847 ], [ 75.14392, 30.33561 ], [ 75.14123, 30.33753 ], [ 75.12694, 30.33934 ], [ 75.11843, 30.3422 ], [ 75.11638, 30.34104 ], [ 75.11296, 30.33357 ], [ 75.11647, 30.33231 ], [ 75.1156, 30.33018 ], [ 75.11767, 30.33008 ], [ 75.11833, 30.33122 ], [ 75.12378, 30.33028 ], [ 75.12677, 30.32877 ], [ 75.12686, 30.32778 ], [ 75.12228, 30.32246 ], [ 75.12763, 30.3204 ], [ 75.13009, 30.32153 ], [ 75.13531, 30.3211 ], [ 75.13465, 30.31862 ], [ 75.13316, 30.31681 ], [ 75.13882, 30.31469 ], [ 75.13714, 30.3139 ], [ 75.13609, 30.31134 ], [ 75.13384, 30.3108 ], [ 75.13297, 30.31148 ], [ 75.13146, 30.31045 ], [ 75.13128, 30.30605 ], [ 75.1295, 30.30566 ], [ 75.12818, 30.30633 ], [ 75.12792, 30.30041 ], [ 75.13441, 30.30261 ], [ 75.13958, 30.3022 ], [ 75.13961, 30.301 ], [ 75.13798, 30.29903 ], [ 75.13868, 30.29826 ], [ 75.13696, 30.29788 ], [ 75.13788, 30.29612 ], [ 75.13515, 30.2916 ], [ 75.14048, 30.28913 ], [ 75.14089, 30.29034 ], [ 75.14271, 30.28982 ], [ 75.1461, 30.28773 ], [ 75.1485, 30.28864 ], [ 75.14455, 30.29099 ], [ 75.14521, 30.29205 ], [ 75.15145, 30.28874 ], [ 75.15119, 30.28818 ], [ 75.15219, 30.2877 ], [ 75.15178, 30.28702 ], [ 75.14693, 30.28233 ], [ 75.14654, 30.28043 ], [ 75.14861, 30.27864 ], [ 75.14646, 30.27683 ], [ 75.15049, 30.27479 ], [ 75.15195, 30.27126 ], [ 75.15498, 30.2681 ], [ 75.15721, 30.26736 ], [ 75.1587, 30.26415 ], [ 75.15688, 30.26114 ], [ 75.1589, 30.26013 ], [ 75.16486, 30.2605 ], [ 75.16781, 30.26457 ], [ 75.16693, 30.26806 ], [ 75.16849, 30.26988 ], [ 75.17157, 30.26947 ], [ 75.17372, 30.27135 ], [ 75.17448, 30.271 ], [ 75.17545, 30.27194 ], [ 75.17512, 30.27399 ], [ 75.1768, 30.2727 ], [ 75.18091, 30.27461 ], [ 75.18454, 30.27383 ], [ 75.18561, 30.27242 ], [ 75.18781, 30.27176 ], [ 75.19137, 30.27298 ], [ 75.19468, 30.27105 ], [ 75.19548, 30.27212 ], [ 75.20032, 30.27135 ], [ 75.20635, 30.27465 ], [ 75.20945, 30.2739 ], [ 75.21072, 30.27524 ], [ 75.21534, 30.2724 ], [ 75.21587, 30.27514 ], [ 75.21444, 30.27459 ], [ 75.21394, 30.27562 ], [ 75.21599, 30.27594 ], [ 75.2172, 30.27726 ], [ 75.21943, 30.27333 ], [ 75.21866, 30.27193 ], [ 75.22033, 30.27061 ], [ 75.22231, 30.27102 ], [ 75.22308, 30.27031 ], [ 75.22139, 30.26516 ], [ 75.22187, 30.26143 ], [ 75.21863, 30.26057 ], [ 75.21751, 30.25602 ], [ 75.21117, 30.2531 ], [ 75.20875, 30.24919 ], [ 75.20734, 30.24834 ], [ 75.20246, 30.24643 ], [ 75.19874, 30.24351 ], [ 75.1956, 30.24328 ], [ 75.19505, 30.24207 ], [ 75.19633, 30.24097 ], [ 75.19291, 30.23611 ], [ 75.19139, 30.23606 ], [ 75.18907, 30.2394 ], [ 75.18665, 30.23978 ], [ 75.18075, 30.2367 ], [ 75.18236, 30.23419 ], [ 75.18695, 30.23191 ], [ 75.18606, 30.23085 ], [ 75.187, 30.23005 ], [ 75.18342, 30.2223 ], [ 75.17901, 30.21935 ], [ 75.17575, 30.21943 ], [ 75.17888, 30.21182 ], [ 75.17652, 30.20885 ], [ 75.17672, 30.20673 ], [ 75.16667, 30.20591 ], [ 75.16023, 30.2039 ], [ 75.1539, 30.20046 ], [ 75.15563, 30.19847 ], [ 75.14769, 30.18998 ], [ 75.14598, 30.1868 ], [ 75.14312, 30.18529 ], [ 75.14145, 30.18369 ], [ 75.14166, 30.18293 ], [ 75.13988, 30.18309 ], [ 75.13906, 30.18134 ], [ 75.13731, 30.18123 ], [ 75.1366, 30.17977 ], [ 75.13426, 30.18111 ], [ 75.13288, 30.1804 ], [ 75.1349, 30.17913 ], [ 75.13179, 30.17496 ], [ 75.13169, 30.17385 ], [ 75.133, 30.17406 ], [ 75.13403, 30.17259 ], [ 75.13377, 30.16752 ], [ 75.12917, 30.1656 ], [ 75.11918, 30.16587 ], [ 75.11318, 30.16346 ], [ 75.11034, 30.16189 ], [ 75.10738, 30.15844 ], [ 75.10478, 30.15716 ], [ 75.10298, 30.15649 ], [ 75.10099, 30.15712 ], [ 75.09839, 30.15675 ], [ 75.09803, 30.15525 ], [ 75.10086, 30.15428 ], [ 75.10059, 30.15315 ], [ 75.0977, 30.154 ], [ 75.09278, 30.15308 ], [ 75.09055, 30.15506 ], [ 75.08572, 30.1549 ], [ 75.08578, 30.15598 ], [ 75.08177, 30.15619 ], [ 75.08219, 30.15757 ], [ 75.08545, 30.16034 ], [ 75.08513, 30.16209 ], [ 75.08362, 30.16317 ], [ 75.08415, 30.16467 ], [ 75.08298, 30.16432 ], [ 75.08256, 30.16543 ], [ 75.08051, 30.16584 ], [ 75.0791, 30.16402 ], [ 75.07742, 30.16386 ], [ 75.076, 30.16191 ], [ 75.07825, 30.15787 ], [ 75.07601, 30.15656 ], [ 75.07496, 30.15673 ], [ 75.07299, 30.15242 ], [ 75.06896, 30.15037 ], [ 75.07643, 30.14683 ], [ 75.08958, 30.14309 ], [ 75.09714, 30.13721 ], [ 75.10326, 30.1358 ], [ 75.10239, 30.13416 ], [ 75.10809, 30.12722 ], [ 75.10772, 30.12645 ], [ 75.10599, 30.12615 ], [ 75.10571, 30.12521 ], [ 75.11086, 30.12172 ], [ 75.10894, 30.11676 ], [ 75.11128, 30.11641 ], [ 75.11083, 30.11499 ], [ 75.11213, 30.11336 ], [ 75.11167, 30.11042 ], [ 75.11825, 30.1035 ], [ 75.12156, 30.10279 ], [ 75.12036, 30.10081 ], [ 75.11741, 30.10262 ], [ 75.11228, 30.10272 ], [ 75.11356, 30.10004 ], [ 75.1131, 30.09812 ], [ 75.11218, 30.09766 ], [ 75.11646, 30.09337 ], [ 75.11487, 30.09109 ], [ 75.11268, 30.09016 ], [ 75.10901, 30.09433 ], [ 75.10852, 30.09401 ], [ 75.10906, 30.09258 ], [ 75.1081, 30.09151 ], [ 75.10674, 30.09093 ], [ 75.1067, 30.09194 ], [ 75.10148, 30.0886 ], [ 75.09734, 30.08785 ], [ 75.0965, 30.08822 ], [ 75.10015, 30.09416 ], [ 75.09462, 30.09524 ], [ 75.09396, 30.09383 ], [ 75.09204, 30.09407 ], [ 75.09251, 30.09519 ], [ 75.09171, 30.0958 ], [ 75.08467, 30.09595 ], [ 75.07978, 30.09886 ], [ 75.07306, 30.09974 ], [ 75.0707, 30.10265 ], [ 75.0691, 30.10175 ], [ 75.06655, 30.10431 ], [ 75.06856, 30.10559 ], [ 75.06771, 30.10723 ], [ 75.06267, 30.1039 ], [ 75.06053, 30.10475 ], [ 75.05732, 30.11046 ], [ 75.0552, 30.1088 ], [ 75.05232, 30.10902 ], [ 75.04881, 30.1075 ], [ 75.04907, 30.10659 ], [ 75.04782, 30.10751 ], [ 75.04586, 30.10629 ], [ 75.04302, 30.10411 ], [ 75.04296, 30.10104 ], [ 75.04415, 30.09946 ], [ 75.04327, 30.09804 ], [ 75.04233, 30.09723 ], [ 75.04152, 30.09812 ], [ 75.0367, 30.09583 ], [ 75.0392, 30.09392 ], [ 75.03805, 30.09305 ], [ 75.04023, 30.09056 ], [ 75.04012, 30.08978 ], [ 75.04476, 30.08628 ], [ 75.03691, 30.07821 ], [ 75.03483, 30.07462 ], [ 75.03095, 30.07314 ], [ 75.02016, 30.07496 ], [ 75.01766, 30.06866 ], [ 75.01596, 30.07106 ], [ 75.01654, 30.07261 ], [ 75.01383, 30.07352 ], [ 75.01445, 30.07487 ], [ 75.0084, 30.07888 ], [ 75.00554, 30.07896 ], [ 75.00105, 30.08087 ], [ 74.99783, 30.08052 ], [ 74.98943, 30.08441 ], [ 74.98727, 30.08403 ], [ 74.98545, 30.08526 ], [ 74.98092, 30.0859 ], [ 74.97888, 30.08529 ], [ 74.97264, 30.08753 ], [ 74.97042, 30.08999 ], [ 74.96849, 30.08929 ], [ 74.96685, 30.08737 ], [ 74.96759, 30.08641 ], [ 74.96686, 30.08406 ], [ 74.96309, 30.08318 ], [ 74.95539, 30.08715 ], [ 74.95522, 30.08853 ], [ 74.9509, 30.09025 ], [ 74.95033, 30.0916 ], [ 74.94701, 30.09357 ], [ 74.94334, 30.09227 ], [ 74.93818, 30.09379 ], [ 74.93558, 30.09077 ], [ 74.93241, 30.09263 ], [ 74.93075, 30.09256 ], [ 74.91882, 30.08593 ], [ 74.91411, 30.08679 ], [ 74.91212, 30.08596 ], [ 74.90721, 30.08598 ], [ 74.89867, 30.08919 ], [ 74.89758, 30.08727 ], [ 74.89431, 30.08876 ], [ 74.89213, 30.08819 ], [ 74.89113, 30.08689 ], [ 74.8863, 30.08723 ], [ 74.88362, 30.08559 ], [ 74.88424, 30.08498 ], [ 74.88194, 30.08301 ], [ 74.87806, 30.08185 ], [ 74.87497, 30.07814 ], [ 74.87758, 30.07767 ], [ 74.88036, 30.07513 ], [ 74.87271, 30.06642 ], [ 74.87396, 30.06255 ], [ 74.87549, 30.06216 ], [ 74.87634, 30.06054 ], [ 74.87789, 30.06209 ], [ 74.88086, 30.05964 ], [ 74.86967, 30.04954 ], [ 74.86633, 30.05265 ], [ 74.86735, 30.05545 ], [ 74.85967, 30.05807 ], [ 74.85933, 30.05171 ], [ 74.85784, 30.05187 ], [ 74.85781, 30.05083 ], [ 74.855, 30.0518 ], [ 74.85378, 30.04958 ], [ 74.85155, 30.04987 ], [ 74.85206, 30.04818 ], [ 74.85008, 30.04633 ], [ 74.84718, 30.04991 ], [ 74.84586, 30.05762 ], [ 74.84618, 30.06057 ], [ 74.84063, 30.05985 ], [ 74.8338, 30.06131 ], [ 74.82246, 30.04203 ], [ 74.81509, 30.03426 ], [ 74.80917, 30.02502 ], [ 74.80414, 30.01959 ], [ 74.79965, 30.01698 ], [ 74.79917, 30.01565 ], [ 74.80187, 30.01425 ], [ 74.80385, 30.01561 ], [ 74.80501, 30.01578 ], [ 74.80602, 30.01447 ], [ 74.80718, 30.01526 ], [ 74.80902, 30.01248 ], [ 74.80821, 30.01171 ], [ 74.80786, 30.00587 ], [ 74.80626, 30.00397 ], [ 74.8076, 30.00296 ], [ 74.80915, 30.00443 ], [ 74.8114, 30.00227 ], [ 74.81141, 29.9924 ], [ 74.80607, 29.99205 ], [ 74.79186, 29.98183 ], [ 74.78161, 29.97337 ], [ 74.77845, 29.97167 ], [ 74.77535, 29.97334 ], [ 74.77108, 29.97172 ], [ 74.77009, 29.97263 ], [ 74.7665, 29.97229 ], [ 74.76128, 29.97331 ], [ 74.75857, 29.97244 ], [ 74.75834, 29.97004 ], [ 74.75395, 29.96964 ], [ 74.75316, 29.96731 ], [ 74.74041, 29.96844 ], [ 74.73898, 29.9679 ], [ 74.73298, 29.96242 ], [ 74.73099, 29.96146 ], [ 74.72821, 29.96168 ], [ 74.72129, 29.96557 ], [ 74.70683, 29.97054 ], [ 74.70668, 29.97948 ], [ 74.70128, 29.98416 ], [ 74.70083, 29.98709 ], [ 74.71179, 30.00266 ], [ 74.71708, 30.01394 ], [ 74.7112, 30.0176 ], [ 74.70457, 30.02609 ], [ 74.69419, 30.03369 ], [ 74.69702, 30.03726 ], [ 74.69351, 30.04418 ], [ 74.69414, 30.0492 ], [ 74.70071, 30.06173 ], [ 74.70483, 30.06511 ], [ 74.69049, 30.07237 ], [ 74.68569, 30.0736 ], [ 74.68281, 30.07206 ], [ 74.67659, 30.08119 ], [ 74.67377, 30.08991 ], [ 74.67688, 30.09262 ], [ 74.67977, 30.0991 ], [ 74.68396, 30.10401 ], [ 74.68432, 30.10992 ], [ 74.68196, 30.1132 ], [ 74.6778, 30.11195 ], [ 74.67055, 30.10777 ], [ 74.6488, 30.11048 ], [ 74.64279, 30.11549 ], [ 74.63697, 30.12297 ], [ 74.63002, 30.12943 ], [ 74.62974, 30.13055 ], [ 74.63308, 30.13566 ], [ 74.63947, 30.14173 ], [ 74.64045, 30.14353 ], [ 74.63928, 30.14906 ], [ 74.63994, 30.15042 ], [ 74.64664, 30.15484 ], [ 74.64791, 30.15728 ], [ 74.65468, 30.16246 ], [ 74.66728, 30.16548 ], [ 74.6688, 30.16549 ], [ 74.67029, 30.1642 ], [ 74.67347, 30.16658 ], [ 74.68459, 30.16688 ], [ 74.68677, 30.16796 ], [ 74.68807, 30.1643 ], [ 74.69065, 30.16177 ], [ 74.69707, 30.15927 ], [ 74.69921, 30.16012 ], [ 74.70288, 30.16009 ], [ 74.70834, 30.16309 ], [ 74.71023, 30.16507 ], [ 74.71396, 30.16582 ], [ 74.72677, 30.17229 ], [ 74.72956, 30.1754 ], [ 74.73503, 30.17535 ], [ 74.73449, 30.17897 ], [ 74.73699, 30.18128 ], [ 74.7374, 30.18324 ], [ 74.7359, 30.18859 ], [ 74.73407, 30.19164 ], [ 74.73453, 30.19235 ], [ 74.72506, 30.19709 ], [ 74.71469, 30.19668 ], [ 74.71286, 30.19592 ], [ 74.71196, 30.19664 ], [ 74.71554, 30.20413 ], [ 74.71629, 30.20873 ], [ 74.71302, 30.2134 ], [ 74.71676, 30.21707 ], [ 74.71852, 30.22039 ], [ 74.71961, 30.22065 ], [ 74.71855, 30.2218 ], [ 74.71837, 30.22554 ], [ 74.72545, 30.22988 ], [ 74.72164, 30.23315 ], [ 74.72074, 30.235 ], [ 74.72146, 30.24258 ], [ 74.71822, 30.24474 ], [ 74.7181, 30.24832 ], [ 74.72106, 30.25552 ], [ 74.72035, 30.25588 ], [ 74.72034, 30.25724 ], [ 74.72156, 30.25884 ], [ 74.72244, 30.25842 ], [ 74.73468, 30.27405 ], [ 74.73537, 30.27659 ], [ 74.73438, 30.2788 ], [ 74.73959, 30.27983 ], [ 74.74248, 30.27827 ], [ 74.75208, 30.28715 ], [ 74.74792, 30.28908 ], [ 74.7437, 30.29278 ], [ 74.73817, 30.29999 ], [ 74.73353, 30.30393 ], [ 74.72808, 30.30573 ], [ 74.72738, 30.30371 ], [ 74.72414, 30.30872 ], [ 74.73376, 30.31308 ], [ 74.73992, 30.3176 ], [ 74.74629, 30.3208 ], [ 74.75379, 30.31978 ], [ 74.76234, 30.32045 ], [ 74.77515, 30.32728 ], [ 74.78541, 30.33661 ], [ 74.77703, 30.33764 ], [ 74.77688, 30.33915 ], [ 74.77467, 30.33987 ], [ 74.77385, 30.33918 ], [ 74.76758, 30.33971 ], [ 74.75702, 30.34165 ], [ 74.75204, 30.3435 ], [ 74.74914, 30.3431 ], [ 74.73507, 30.34815 ], [ 74.71411, 30.35251 ], [ 74.70772, 30.35463 ], [ 74.69892, 30.35425 ], [ 74.69911, 30.35604 ], [ 74.71057, 30.35905 ], [ 74.72392, 30.36589 ], [ 74.73251, 30.36007 ], [ 74.74835, 30.35262 ], [ 74.76752, 30.34523 ], [ 74.77978, 30.33915 ], [ 74.78161, 30.3412 ], [ 74.78403, 30.33912 ], [ 74.78865, 30.33933 ], [ 74.79006, 30.34079 ], [ 74.79118, 30.33989 ], [ 74.79222, 30.33667 ], [ 74.79282, 30.33703 ], [ 74.79334, 30.34634 ], [ 74.79655, 30.35603 ], [ 74.80514, 30.3671 ], [ 74.81086, 30.37827 ], [ 74.81452, 30.3824 ], [ 74.81838, 30.3893 ], [ 74.8217, 30.3928 ], [ 74.83154, 30.38827 ], [ 74.83791, 30.38783 ], [ 74.84752, 30.38092 ], [ 74.85325, 30.37509 ], [ 74.8603, 30.3805 ], [ 74.8712, 30.38603 ], [ 74.87433, 30.38944 ], [ 74.87567, 30.38927 ], [ 74.89105, 30.38058 ], [ 74.9034, 30.37865 ], [ 74.91057, 30.37576 ], [ 74.91534, 30.3722 ], [ 74.91792, 30.37171 ], [ 74.91622, 30.37024 ], [ 74.92117, 30.36627 ], [ 74.93057, 30.36856 ], [ 74.93732, 30.3756 ], [ 74.94066, 30.38104 ], [ 74.94433, 30.38428 ], [ 74.94576, 30.38461 ], [ 74.94918, 30.38279 ], [ 74.95459, 30.3865 ], [ 74.96167, 30.38882 ], [ 74.9635, 30.3908 ], [ 74.96428, 30.39345 ], [ 74.96757, 30.3952 ], [ 74.96972, 30.39841 ], [ 74.97057, 30.40455 ], [ 74.97568, 30.40347 ], [ 74.97578, 30.40003 ], [ 74.98208, 30.39957 ], [ 74.98359, 30.39854 ], [ 74.98601, 30.40235 ], [ 74.98758, 30.40225 ], [ 74.99054, 30.40397 ], [ 74.9956, 30.40461 ], [ 74.99906, 30.39967 ], [ 74.99985, 30.40031 ], [ 75.00376, 30.39584 ], [ 75.00447, 30.39282 ], [ 75.0128, 30.38573 ], [ 75.0197, 30.38306 ], [ 75.0227, 30.38052 ], [ 75.02478, 30.38081 ], [ 75.02705, 30.3824 ], [ 75.02745, 30.38094 ], [ 75.0287, 30.38175 ], [ 75.03164, 30.3817 ], [ 75.03402, 30.38001 ], [ 75.03499, 30.38044 ], [ 75.03677, 30.37932 ], [ 75.04313, 30.37892 ], [ 75.0525, 30.38864 ], [ 75.06579, 30.3996 ], [ 75.06848, 30.40301 ], [ 75.08843, 30.41725 ], [ 75.09589, 30.41269 ], [ 75.10039, 30.41315 ], [ 75.10283, 30.41143 ], [ 75.10727, 30.41074 ], [ 75.10786, 30.40901 ], [ 75.11073, 30.40997 ], [ 75.11168, 30.40568 ], [ 75.11504, 30.40102 ], [ 75.13113, 30.39273 ], [ 75.1457, 30.37668 ], [ 75.1474, 30.37537 ], [ 75.1531, 30.37382 ] ] ] } },
{ "type": "Feature", "properties": { "OBJECTID": 2322, "state_lgd": "03", "state_name": "PUNJAB", "district_lgd": "046", "district_name": "BATHINDA", "district_name_source": "district_table", "subdistrict_lgd": "06117", "subdistrict_name": "Maur", "subdistrict_type": "Tehsil", "name_corrupted": false, "remarks": "", "label_lon": 75.224752395607169, "label_lat": 30.12068336012608 }, "geometry": { "type": "Polygon", "coordinates": [ [ [ 75.37044, 30.19944 ], [ 75.36662, 30.19657 ], [ 75.36718, 30.19572 ], [ 75.36647, 30.19428 ], [ 75.36328, 30.19108 ], [ 75.35957, 30.18936 ], [ 75.35846, 30.18691 ], [ 75.35733, 30.18706 ], [ 75.35747, 30.18142 ], [ 75.3594, 30.17915 ], [ 75.364, 30.17602 ], [ 75.35811, 30.16967 ], [ 75.35813, 30.16886 ], [ 75.35613, 30.16826 ], [ 75.35687, 30.16731 ], [ 75.35563, 30.16566 ], [ 75.35918, 30.16409 ], [ 75.35883, 30.16297 ], [ 75.3569, 30.16137 ], [ 75.35259, 30.1615 ], [ 75.35117, 30.16266 ], [ 75.34842, 30.16046 ], [ 75.34584, 30.16069 ], [ 75.34453, 30.15949 ], [ 75.34551, 30.15595 ], [ 75.3448, 30.15548 ], [ 75.34505, 30.15433 ], [ 75.34337, 30.15023 ], [ 75.34467, 30.14881 ], [ 75.34367, 30.14622 ], [ 75.34636, 30.14417 ], [ 75.35332, 30.14209 ], [ 75.35019, 30.1391 ], [ 75.34882, 30.13567 ], [ 75.34645, 30.13451 ], [ 75.34665, 30.13381 ], [ 75.34485, 30.1324 ], [ 75.34441, 30.13091 ], [ 75.34341, 30.13066 ], [ 75.34034, 30.13258 ], [ 75.32864, 30.12317 ], [ 75.32585, 30.12228 ], [ 75.3232, 30.12284 ], [ 75.32112, 30.11849 ], [ 75.31981, 30.1173 ], [ 75.3173, 30.11718 ], [ 75.31585, 30.11625 ], [ 75.31375, 30.11224 ], [ 75.3121, 30.11218 ], [ 75.30974, 30.11398 ], [ 75.30626, 30.11148 ], [ 75.30004, 30.10965 ], [ 75.29883, 30.11139 ], [ 75.29699, 30.11178 ], [ 75.29494, 30.10767 ], [ 75.29081, 30.10489 ], [ 75.29156, 30.10326 ], [ 75.29407, 30.10259 ], [ 75.29981, 30.09812 ], [ 75.30007, 30.0935 ], [ 75.30309, 30.09077 ], [ 75.30403, 30.08886 ], [ 75.30505, 30.0815 ], [ 75.30643, 30.07735 ], [ 75.30892, 30.07612 ], [ 75.31241, 30.0762 ], [ 75.31365, 30.07531 ], [ 75.31716, 30.07568 ], [ 75.32143, 30.07287 ], [ 75.32216, 30.07055 ], [ 75.3259, 30.06977 ], [ 75.3261, 30.06836 ], [ 75.32436, 30.06446 ], [ 75.3216, 30.06155 ], [ 75.32018, 30.06134 ], [ 75.31727, 30.06262 ], [ 75.31707, 30.06536 ], [ 75.31269, 30.06565 ], [ 75.31016, 30.06792 ], [ 75.30727, 30.0679 ], [ 75.30533, 30.0691 ], [ 75.29357, 30.0708 ], [ 75.29336, 30.0677 ], [ 75.29248, 30.06695 ], [ 75.28619, 30.06761 ], [ 75.28343, 30.0668 ], [ 75.27842, 30.06363 ], [ 75.2751, 30.05955 ], [ 75.27558, 30.05736 ], [ 75.27195, 30.05318 ], [ 75.27265, 30.05163 ], [ 75.27042, 30.04944 ], [ 75.27026, 30.04838 ], [ 75.26703, 30.04855 ], [ 75.26483, 30.05004 ], [ 75.25834, 30.04374 ], [ 75.25516, 30.04269 ], [ 75.25173, 30.03858 ], [ 75.24963, 30.03836 ], [ 75.24937, 30.03624 ], [ 75.25074, 30.03261 ], [ 75.25795, 30.02609 ], [ 75.25843, 30.02023 ], [ 75.26022, 30.01603 ], [ 75.27662, 30.01415 ], [ 75.28154, 30.0114 ], [ 75.28442, 30.01341 ], [ 75.28769, 30.0174 ], [ 75.28773, 30.02087 ], [ 75.28899, 30.02241 ], [ 75.29019, 30.02267 ], [ 75.29417, 30.01968 ], [ 75.29442, 30.02066 ], [ 75.30115, 30.02065 ], [ 75.30085, 30.01963 ], [ 75.29849, 30.01938 ], [ 75.28805, 30.00655 ], [ 75.28338, 30.00332 ], [ 75.28143, 30.00378 ], [ 75.27612, 29.99874 ], [ 75.27434, 29.99594 ], [ 75.27382, 29.99321 ], [ 75.27178, 29.98984 ], [ 75.27843, 29.98548 ], [ 75.28109, 29.97931 ], [ 75.27566, 29.97644 ], [ 75.27308, 29.974 ], [ 75.26507, 29.97748 ], [ 75.26028, 29.9783 ], [ 75.25073, 29.98288 ], [ 75.24979, 29.98191 ], [ 75.24907, 29.97561 ], [ 75.24681, 29.96999 ], [ 75.23755, 29.95976 ], [ 75.23118, 29.96425 ], [ 75.22092, 29.96911 ], [ 75.21665, 29.96764 ], [ 75.20798, 29.97483 ], [ 75.20763, 29.97941 ], [ 75.20579, 29.98021 ], [ 75.19846, 29.9801 ], [ 75.19505, 29.9809 ], [ 75.19481, 29.98039 ], [ 75.1902, 29.98316 ], [ 75.18771, 29.98703 ], [ 75.1898, 29.98932 ], [ 75.18797, 29.9934 ], [ 75.18458, 29.99594 ], [ 75.18336, 29.9984 ], [ 75.18218, 29.99873 ], [ 75.18161, 30.00083 ], [ 75.17986, 30.00245 ], [ 75.17991, 30.0041 ], [ 75.17218, 30.01469 ], [ 75.1677, 30.01617 ], [ 75.16499, 30.01862 ], [ 75.16082, 30.01903 ], [ 75.1538, 30.02622 ], [ 75.15058, 30.0233 ], [ 75.14981, 30.02368 ], [ 75.14937, 30.02513 ], [ 75.14783, 30.02629 ], [ 75.14844, 30.035 ], [ 75.14077, 30.04079 ], [ 75.13632, 30.04253 ], [ 75.13524, 30.04165 ], [ 75.13102, 30.04302 ], [ 75.1264, 30.04071 ], [ 75.12581, 30.03861 ], [ 75.12671, 30.03783 ], [ 75.12633, 30.03665 ], [ 75.12458, 30.03612 ], [ 75.12348, 30.0373 ], [ 75.12171, 30.03706 ], [ 75.12137, 30.03834 ], [ 75.11858, 30.04082 ], [ 75.11882, 30.04199 ], [ 75.11685, 30.04428 ], [ 75.11476, 30.04547 ], [ 75.11434, 30.04684 ], [ 75.11056, 30.04996 ], [ 75.1085, 30.04811 ], [ 75.10579, 30.04882 ], [ 75.10065, 30.04747 ], [ 75.10071, 30.04424 ], [ 75.09622, 30.03644 ], [ 75.09061, 30.03971 ], [ 75.08205, 30.0502 ], [ 75.08123, 30.05378 ], [ 75.08021, 30.0538 ], [ 75.07856, 30.05609 ], [ 75.07603, 30.05781 ], [ 75.07822, 30.05962 ], [ 75.08209, 30.06796 ], [ 75.08612, 30.07018 ], [ 75.08975, 30.07104 ], [ 75.08739, 30.0759 ], [ 75.08612, 30.08107 ], [ 75.08353, 30.08459 ], [ 75.07864, 30.08565 ], [ 75.07669, 30.08794 ], [ 75.06779, 30.08158 ], [ 75.06533, 30.08362 ], [ 75.06467, 30.08212 ], [ 75.05425, 30.09081 ], [ 75.05218, 30.0905 ], [ 75.0488, 30.08758 ], [ 75.04476, 30.08628 ], [ 75.04012, 30.08978 ], [ 75.04023, 30.09056 ], [ 75.03805, 30.09305 ], [ 75.0392, 30.09392 ], [ 75.0367, 30.09583 ], [ 75.04152, 30.09812 ], [ 75.04233, 30.09723 ], [ 75.04327, 30.09804 ], [ 75.04415, 30.09946 ], [ 75.04296, 30.10104 ], [ 75.04302, 30.10411 ], [ 75.04586, 30.10629 ], [ 75.04782, 30.10751 ], [ 75.04907, 30.10659 ], [ 75.04881, 30.1075 ], [ 75.05232, 30.10902 ], [ 75.0552, 30.1088 ], [ 75.05732, 30.11046 ], [ 75.06053, 30.10475 ], [ 75.06267, 30.1039 ], [ 75.06771, 30.10723 ], [ 75.06856, 30.10559 ], [ 75.06655, 30.10431 ], [ 75.0691, 30.10175 ], [ 75.0707, 30.10265 ], [ 75.07306, 30.09974 ], [ 75.07978, 30.09886 ], [ 75.08467, 30.09595 ], [ 75.09171, 30.0958 ], [ 75.09251, 30.09519 ], [ 75.09204, 30.09407 ], [ 75.09396, 30.09383 ], [ 75.09462, 30.09524 ], [ 75.10015, 30.09416 ], [ 75.0965, 30.08822 ], [ 75.09734, 30.08785 ], [ 75.10148, 30.0886 ], [ 75.1067, 30.09194 ], [ 75.10674, 30.09093 ], [ 75.1081, 30.09151 ], [ 75.10906, 30.09258 ], [ 75.10852, 30.09401 ], [ 75.10901, 30.09433 ], [ 75.11215, 30.09053 ], [ 75.1141, 30.09054 ], [ 75.11646, 30.09337 ], [ 75.11218, 30.09766 ], [ 75.1131, 30.09812 ], [ 75.11356, 30.10004 ], [ 75.11228, 30.10272 ], [ 75.11741, 30.10262 ], [ 75.12036, 30.10081 ], [ 75.12156, 30.10279 ], [ 75.11825, 30.1035 ], [ 75.11167, 30.11042 ], [ 75.11213, 30.11336 ], [ 75.11083, 30.11499 ], [ 75.11128, 30.11641 ], [ 75.10894, 30.11676 ], [ 75.11086, 30.12172 ], [ 75.10571, 30.12521 ], [ 75.10599, 30.12615 ], [ 75.10772, 30.12645 ], [ 75.10809, 30.12722 ], [ 75.10239, 30.13416 ], [ 75.10326, 30.1358 ], [ 75.09714, 30.13721 ], [ 75.08958, 30.14309 ], [ 75.07643, 30.14683 ], [ 75.06896, 30.15037 ], [ 75.07299, 30.15242 ], [ 75.07496, 30.15673 ], [ 75.07601, 30.15656 ], [ 75.07825, 30.15787 ], [ 75.0759, 30.1612 ], [ 75.07742, 30.16386 ], [ 75.0791, 30.16402 ], [ 75.08051, 30.16584 ], [ 75.08256, 30.16543 ], [ 75.08298, 30.16432 ], [ 75.08415, 30.16467 ], [ 75.08362, 30.16317 ], [ 75.08513, 30.16209 ], [ 75.08537, 30.15983 ], [ 75.08219, 30.15757 ], [ 75.08177, 30.15619 ], [ 75.08578, 30.15598 ], [ 75.08572, 30.1549 ], [ 75.09055, 30.15506 ], [ 75.09278, 30.15308 ], [ 75.0977, 30.154 ], [ 75.10059, 30.15315 ], [ 75.10086, 30.15428 ], [ 75.09803, 30.15525 ], [ 75.09839, 30.15675 ], [ 75.10099, 30.15712 ], [ 75.10298, 30.15649 ], [ 75.10478, 30.15716 ], [ 75.10738, 30.15844 ], [ 75.11034, 30.16189 ], [ 75.11318, 30.16346 ], [ 75.11918, 30.16587 ], [ 75.12917, 30.1656 ], [ 75.13377, 30.16752 ], [ 75.13403, 30.17259 ], [ 75.133, 30.17406 ], [ 75.13169, 30.17385 ], [ 75.13179, 30.17496 ], [ 75.1349, 30.17913 ], [ 75.13288, 30.1804 ], [ 75.13426, 30.18111 ], [ 75.1366, 30.17977 ], [ 75.13731, 30.18123 ], [ 75.13906, 30.18134 ], [ 75.13988, 30.18309 ], [ 75.14166, 30.18293 ], [ 75.14145, 30.18369 ], [ 75.14312, 30.18529 ], [ 75.14598, 30.1868 ], [ 75.14769, 30.18998 ], [ 75.15563, 30.19847 ], [ 75.1539, 30.20046 ], [ 75.16023, 30.2039 ], [ 75.16667, 30.20591 ], [ 75.17524, 30.20676 ], [ 75.17914, 30.20626 ], [ 75.18293, 30.20857 ], [ 75.1913, 30.21028 ], [ 75.1949, 30.20949 ], [ 75.19473, 30.21153 ], [ 75.20291, 30.21551 ], [ 75.20652, 30.21973 ], [ 75.21838, 30.22666 ], [ 75.21951, 30.22618 ], [ 75.22057, 30.22692 ], [ 75.22546, 30.22588 ], [ 75.22714, 30.22715 ], [ 75.23024, 30.22637 ], [ 75.23541, 30.23009 ], [ 75.23798, 30.23 ], [ 75.23988, 30.23185 ], [ 75.24382, 30.22885 ], [ 75.24582, 30.22853 ], [ 75.24907, 30.23185 ], [ 75.2542, 30.2337 ], [ 75.256, 30.23426 ], [ 75.25803, 30.23361 ], [ 75.26271, 30.23388 ], [ 75.26584, 30.23194 ], [ 75.26492, 30.22994 ], [ 75.27684, 30.2252 ], [ 75.28227, 30.22212 ], [ 75.28471, 30.22236 ], [ 75.28721, 30.22428 ], [ 75.29046, 30.22213 ], [ 75.29662, 30.2211 ], [ 75.2977, 30.21914 ], [ 75.30288, 30.21984 ], [ 75.30551, 30.2219 ], [ 75.30676, 30.22163 ], [ 75.31111, 30.22668 ], [ 75.31653, 30.23065 ], [ 75.31692, 30.23242 ], [ 75.31802, 30.23329 ], [ 75.31776, 30.2348 ], [ 75.31476, 30.23633 ], [ 75.30924, 30.23726 ], [ 75.30956, 30.24332 ], [ 75.3072, 30.24296 ], [ 75.30396, 30.24584 ], [ 75.30192, 30.24565 ], [ 75.30051, 30.2489 ], [ 75.30287, 30.25336 ], [ 75.30129, 30.25592 ], [ 75.30429, 30.25717 ], [ 75.30377, 30.25848 ], [ 75.30141, 30.25843 ], [ 75.30137, 30.2597 ], [ 75.29862, 30.26053 ], [ 75.29806, 30.26202 ], [ 75.29948, 30.26325 ], [ 75.30093, 30.26296 ], [ 75.30243, 30.26569 ], [ 75.30575, 30.26843 ], [ 75.30635, 30.26852 ], [ 75.31199, 30.26154 ], [ 75.31592, 30.26061 ], [ 75.31589, 30.25848 ], [ 75.32161, 30.25567 ], [ 75.32178, 30.2534 ], [ 75.32002, 30.25256 ], [ 75.31901, 30.25098 ], [ 75.31844, 30.24757 ], [ 75.31977, 30.24169 ], [ 75.32206, 30.23753 ], [ 75.3276, 30.23924 ], [ 75.33005, 30.24223 ], [ 75.33214, 30.24091 ], [ 75.33459, 30.23755 ], [ 75.33485, 30.22781 ], [ 75.33182, 30.22684 ], [ 75.33114, 30.22531 ], [ 75.3314, 30.22464 ], [ 75.33228, 30.22535 ], [ 75.33437, 30.22387 ], [ 75.33437, 30.22517 ], [ 75.33624, 30.2279 ], [ 75.34227, 30.23208 ], [ 75.34645, 30.23634 ], [ 75.34673, 30.23802 ], [ 75.3455, 30.23987 ], [ 75.35149, 30.24438 ], [ 75.35358, 30.24391 ], [ 75.3465, 30.26242 ], [ 75.34648, 30.26586 ], [ 75.34864, 30.26967 ], [ 75.35077, 30.27163 ], [ 75.35047, 30.27495 ], [ 75.34946, 30.27608 ], [ 75.34642, 30.27668 ], [ 75.34039, 30.27341 ], [ 75.33932, 30.27511 ], [ 75.34425, 30.27783 ], [ 75.34817, 30.2823 ], [ 75.35505, 30.28706 ], [ 75.3588, 30.28472 ], [ 75.35963, 30.28537 ], [ 75.36135, 30.28377 ], [ 75.36159, 30.2847 ], [ 75.36401, 30.28209 ], [ 75.3613, 30.2677 ], [ 75.36468, 30.26371 ], [ 75.3684, 30.26353 ], [ 75.37131, 30.26116 ], [ 75.36497, 30.25789 ], [ 75.36541, 30.25621 ], [ 75.36736, 30.25601 ], [ 75.36793, 30.2549 ], [ 75.36869, 30.2475 ], [ 75.36622, 30.24498 ], [ 75.36442, 30.24555 ], [ 75.36361, 30.24484 ], [ 75.36319, 30.24414 ], [ 75.36429, 30.24281 ], [ 75.36381, 30.24109 ], [ 75.37619, 30.2372 ], [ 75.37691, 30.23213 ], [ 75.37644, 30.22928 ], [ 75.37707, 30.22827 ], [ 75.37615, 30.22732 ], [ 75.37666, 30.2242 ], [ 75.375, 30.21999 ], [ 75.37246, 30.21812 ], [ 75.37318, 30.21781 ], [ 75.36992, 30.21408 ], [ 75.37255, 30.21177 ], [ 75.3705, 30.2092 ], [ 75.36966, 30.20968 ], [ 75.36905, 30.20863 ], [ 75.36705, 30.20941 ], [ 75.36681, 30.20805 ], [ 75.36242, 30.20811 ], [ 75.3599, 30.20566 ], [ 75.36567, 30.20312 ], [ 75.36666, 30.20541 ], [ 75.37008, 30.20534 ], [ 75.36966, 30.20362 ], [ 75.37105, 30.2024 ], [ 75.36929, 30.20125 ], [ 75.3693, 30.20022 ], [ 75.37044, 30.19944 ] ] ] } },
{ "type": "Feature", "properties": { "OBJECTID": 2323, "state_lgd": "03", "state_name": "PUNJAB", "district_lgd": "046", "district_name": "BATHINDA", "district_name_source": "district_table", "subdistrict_lgd": "00244", "subdistrict_name": "Rampura Phul", "subdistrict_type": "Tehsil", "name_corrupted": false, "remarks": "", "label_lon": 75.199289116958795, "label_lat": 30.392481387912799 }, "geometry": { "type": "Polygon", "coordinates": [ [ [ 75.16367, 30.57978 ], [ 75.16591, 30.57838 ], [ 75.17305, 30.55865 ], [ 75.17879, 30.5529 ], [ 75.17994, 30.55024 ], [ 75.18308, 30.53303 ], [ 75.18044, 30.52114 ], [ 75.1809, 30.51103 ], [ 75.1817, 30.51013 ], [ 75.18751, 30.50884 ], [ 75.19254, 30.5087 ], [ 75.19447, 30.51018 ], [ 75.19455, 30.51188 ], [ 75.19545, 30.51213 ], [ 75.19925, 30.50978 ], [ 75.20141, 30.50706 ], [ 75.20317, 30.50693 ], [ 75.20458, 30.50925 ], [ 75.2058, 30.50871 ], [ 75.20705, 30.50952 ], [ 75.20713, 30.51085 ], [ 75.20574, 30.51334 ], [ 75.21202, 30.51636 ], [ 75.21832, 30.50989 ], [ 75.22116, 30.508 ], [ 75.22764, 30.50763 ], [ 75.23127, 30.50861 ], [ 75.23332, 30.51184 ], [ 75.23733, 30.50999 ], [ 75.23876, 30.51038 ], [ 75.24009, 30.51136 ], [ 75.24043, 30.51358 ], [ 75.2456, 30.51484 ], [ 75.25, 30.51773 ], [ 75.25231, 30.51572 ], [ 75.2553, 30.51617 ], [ 75.25771, 30.51979 ], [ 75.26198, 30.52086 ], [ 75.26558, 30.52041 ], [ 75.26904, 30.51658 ], [ 75.27429, 30.51411 ], [ 75.28287, 30.50796 ], [ 75.28117, 30.50037 ], [ 75.27989, 30.49945 ], [ 75.27955, 30.49597 ], [ 75.2777, 30.49125 ], [ 75.27007, 30.48239 ], [ 75.25965, 30.47306 ], [ 75.25771, 30.46842 ], [ 75.25365, 30.46375 ], [ 75.25822, 30.45992 ], [ 75.25935, 30.45721 ], [ 75.26408, 30.45167 ], [ 75.26773, 30.44524 ], [ 75.26197, 30.44388 ], [ 75.26323, 30.44085 ], [ 75.26225, 30.4397 ], [ 75.265, 30.43641 ], [ 75.27389, 30.44006 ], [ 75.28306, 30.44179 ], [ 75.2904, 30.42858 ], [ 75.29979, 30.42443 ], [ 75.3054, 30.41801 ], [ 75.29927, 30.4078 ], [ 75.30238, 30.40281 ], [ 75.30052, 30.39759 ], [ 75.30338, 30.39663 ], [ 75.3031, 30.39331 ], [ 75.30497, 30.3905 ], [ 75.30481, 30.38772 ], [ 75.30684, 30.38708 ], [ 75.30488, 30.37999 ], [ 75.30552, 30.37884 ], [ 75.30696, 30.37851 ], [ 75.31298, 30.38068 ], [ 75.32188, 30.37582 ], [ 75.32435, 30.37835 ], [ 75.32642, 30.37906 ], [ 75.32797, 30.37791 ], [ 75.33154, 30.37724 ], [ 75.33346, 30.37799 ], [ 75.33338, 30.37551 ], [ 75.33161, 30.37238 ], [ 75.33234, 30.37196 ], [ 75.33234, 30.37046 ], [ 75.32711, 30.36289 ], [ 75.32713, 30.35775 ], [ 75.3258, 30.35758 ], [ 75.32494, 30.35626 ], [ 75.32612, 30.35468 ], [ 75.32527, 30.35457 ], [ 75.32566, 30.35213 ], [ 75.32463, 30.3508 ], [ 75.32728, 30.35148 ], [ 75.33266, 30.34901 ], [ 75.33508, 30.34744 ], [ 75.33744, 30.34398 ], [ 75.33964, 30.34298 ], [ 75.34069, 30.34375 ], [ 75.34179, 30.3431 ], [ 75.34355, 30.34439 ], [ 75.34435, 30.34408 ], [ 75.34524, 30.34251 ], [ 75.34449, 30.3414 ], [ 75.3454, 30.34046 ], [ 75.34486, 30.33987 ], [ 75.34521, 30.33713 ], [ 75.34394, 30.33569 ], [ 75.34393, 30.3343 ], [ 75.34024, 30.33442 ], [ 75.33274, 30.33264 ], [ 75.33119, 30.33382 ], [ 75.32825, 30.33424 ], [ 75.32399, 30.33624 ], [ 75.32063, 30.33541 ], [ 75.31476, 30.33236 ], [ 75.31385, 30.32737 ], [ 75.3187, 30.32451 ], [ 75.31829, 30.32328 ], [ 75.32099, 30.32047 ], [ 75.3218, 30.3167 ], [ 75.32185, 30.31457 ], [ 75.3191, 30.31054 ], [ 75.32057, 30.30864 ], [ 75.31845, 30.30851 ], [ 75.31758, 30.30501 ], [ 75.31911, 30.30372 ], [ 75.31853, 30.30273 ], [ 75.32175, 30.30228 ], [ 75.32375, 30.30466 ], [ 75.32747, 30.30478 ], [ 75.32778, 30.30628 ], [ 75.32874, 30.30622 ], [ 75.32848, 30.30511 ], [ 75.32924, 30.3051 ], [ 75.33356, 30.30649 ], [ 75.34648, 30.3002 ], [ 75.34312, 30.29549 ], [ 75.33971, 30.29246 ], [ 75.34082, 30.29161 ], [ 75.34131, 30.28998 ], [ 75.34039, 30.28812 ], [ 75.34196, 30.28546 ], [ 75.34617, 30.28499 ], [ 75.34898, 30.28277 ], [ 75.34442, 30.27875 ], [ 75.34425, 30.27783 ], [ 75.33932, 30.27511 ], [ 75.34039, 30.27341 ], [ 75.34642, 30.27668 ], [ 75.34946, 30.27608 ], [ 75.35047, 30.27495 ], [ 75.35077, 30.27163 ], [ 75.34864, 30.26967 ], [ 75.34648, 30.26586 ], [ 75.3465, 30.26242 ], [ 75.35358, 30.24391 ], [ 75.35149, 30.24438 ], [ 75.3455, 30.23987 ], [ 75.34673, 30.23802 ], [ 75.34645, 30.23634 ], [ 75.34227, 30.23208 ], [ 75.33624, 30.2279 ], [ 75.33437, 30.22517 ], [ 75.33437, 30.22387 ], [ 75.33228, 30.22535 ], [ 75.3314, 30.22464 ], [ 75.33114, 30.22531 ], [ 75.33182, 30.22684 ], [ 75.33485, 30.22781 ], [ 75.33459, 30.23755 ], [ 75.33214, 30.24091 ], [ 75.33005, 30.24223 ], [ 75.3276, 30.23924 ], [ 75.32206, 30.23753 ], [ 75.31977, 30.24169 ], [ 75.31844, 30.24757 ], [ 75.31901, 30.25098 ], [ 75.32002, 30.25256 ], [ 75.32178, 30.2534 ], [ 75.32161, 30.25567 ], [ 75.31589, 30.25848 ], [ 75.31592, 30.26061 ], [ 75.31199, 30.26154 ], [ 75.30635, 30.26852 ], [ 75.30243, 30.26569 ], [ 75.30093, 30.26296 ], [ 75.29948, 30.26325 ], [ 75.29806, 30.26202 ], [ 75.29862, 30.26053 ], [ 75.30137, 30.2597 ], [ 75.30141, 30.25843 ], [ 75.30377, 30.25848 ], [ 75.30429, 30.25717 ], [ 75.30129, 30.25592 ], [ 75.30287, 30.25336 ], [ 75.30051, 30.2489 ], [ 75.30192, 30.24565 ], [ 75.30396, 30.24584 ], [ 75.3072, 30.24296 ], [ 75.30956, 30.24332 ], [ 75.30924, 30.23726 ], [ 75.31476, 30.23633 ], [ 75.31776, 30.2348 ], [ 75.31802, 30.23329 ], [ 75.31692, 30.23242 ], [ 75.31653, 30.23065 ], [ 75.31111, 30.22668 ], [ 75.30676, 30.22163 ], [ 75.30551, 30.2219 ], [ 75.30288, 30.21984 ], [ 75.29902, 30.21904 ], [ 75.2977, 30.21914 ], [ 75.29662, 30.2211 ], [ 75.29046, 30.22213 ], [ 75.28721, 30.22428 ], [ 75.28471, 30.22236 ], [ 75.28227, 30.22212 ], [ 75.27684, 30.2252 ], [ 75.26492, 30.22994 ], [ 75.26584, 30.23194 ], [ 75.26385, 30.23345 ], [ 75.256, 30.23426 ], [ 75.24907, 30.23185 ], [ 75.24582, 30.22853 ], [ 75.24382, 30.22885 ], [ 75.23988, 30.23185 ], [ 75.23798, 30.23 ], [ 75.23541, 30.23009 ], [ 75.23024, 30.22637 ], [ 75.22714, 30.22715 ], [ 75.22546, 30.22588 ], [ 75.22057, 30.22692 ], [ 75.21951, 30.22618 ], [ 75.21838, 30.22666 ], [ 75.20652, 30.21973 ], [ 75.20291, 30.21551 ], [ 75.19473, 30.21153 ], [ 75.1949, 30.20949 ], [ 75.19162, 30.21028 ], [ 75.18713, 30.20966 ], [ 75.18293, 30.20857 ], [ 75.17957, 30.20634 ], [ 75.17672, 30.20673 ], [ 75.17652, 30.20885 ], [ 75.17888, 30.21182 ], [ 75.17575, 30.21943 ], [ 75.17901, 30.21935 ], [ 75.18342, 30.2223 ], [ 75.187, 30.23005 ], [ 75.18606, 30.23085 ], [ 75.18695, 30.23191 ], [ 75.18236, 30.23419 ], [ 75.18075, 30.2367 ], [ 75.18665, 30.23978 ], [ 75.18907, 30.2394 ], [ 75.19139, 30.23606 ], [ 75.19291, 30.23611 ], [ 75.19633, 30.24097 ], [ 75.19505, 30.24207 ], [ 75.1956, 30.24328 ], [ 75.19874, 30.24351 ], [ 75.20246, 30.24643 ], [ 75.20734, 30.24834 ], [ 75.20875, 30.24919 ], [ 75.21117, 30.2531 ], [ 75.21751, 30.25602 ], [ 75.21863, 30.26057 ], [ 75.22187, 30.26143 ], [ 75.22139, 30.26516 ], [ 75.22308, 30.27031 ], [ 75.22231, 30.27102 ], [ 75.22033, 30.27061 ], [ 75.21866, 30.27193 ], [ 75.21943, 30.27333 ], [ 75.2172, 30.27726 ], [ 75.21599, 30.27594 ], [ 75.21394, 30.27562 ], [ 75.21444, 30.27459 ], [ 75.21587, 30.27514 ], [ 75.21534, 30.2724 ], [ 75.21072, 30.27524 ], [ 75.20945, 30.2739 ], [ 75.20635, 30.27465 ], [ 75.20032, 30.27135 ], [ 75.19548, 30.27212 ], [ 75.19468, 30.27105 ], [ 75.19137, 30.27298 ], [ 75.18781, 30.27176 ], [ 75.18561, 30.27242 ], [ 75.18454, 30.27383 ], [ 75.18091, 30.27461 ], [ 75.1768, 30.2727 ], [ 75.17512, 30.27399 ], [ 75.17545, 30.27194 ], [ 75.17448, 30.271 ], [ 75.17372, 30.27135 ], [ 75.17157, 30.26947 ], [ 75.16849, 30.26988 ], [ 75.16693, 30.26806 ], [ 75.16781, 30.26457 ], [ 75.16486, 30.2605 ], [ 75.16052, 30.2599 ], [ 75.1581, 30.26043 ], [ 75.15688, 30.26114 ], [ 75.1587, 30.26415 ], [ 75.15721, 30.26736 ], [ 75.15498, 30.2681 ], [ 75.15195, 30.27126 ], [ 75.15049, 30.27479 ], [ 75.14646, 30.27683 ], [ 75.14861, 30.27864 ], [ 75.14654, 30.28043 ], [ 75.14693, 30.28233 ], [ 75.15178, 30.28702 ], [ 75.15219, 30.2877 ], [ 75.15119, 30.28818 ], [ 75.15145, 30.28874 ], [ 75.14521, 30.29205 ], [ 75.14455, 30.29099 ], [ 75.1485, 30.28864 ], [ 75.1461, 30.28773 ], [ 75.14271, 30.28982 ], [ 75.14089, 30.29034 ], [ 75.14048, 30.28913 ], [ 75.13515, 30.2916 ], [ 75.13788, 30.29612 ], [ 75.13696, 30.29788 ], [ 75.13868, 30.29826 ], [ 75.13798, 30.29903 ], [ 75.13961, 30.301 ], [ 75.13958, 30.3022 ], [ 75.13441, 30.30261 ], [ 75.12792, 30.30041 ], [ 75.12818, 30.30633 ], [ 75.1295, 30.30566 ], [ 75.13128, 30.30605 ], [ 75.13146, 30.31045 ], [ 75.13297, 30.31148 ], [ 75.13384, 30.3108 ], [ 75.13609, 30.31134 ], [ 75.13714, 30.3139 ], [ 75.13864, 30.31412 ], [ 75.13764, 30.31558 ], [ 75.13316, 30.31681 ], [ 75.13465, 30.31862 ], [ 75.13531, 30.3211 ], [ 75.13009, 30.32153 ], [ 75.12763, 30.3204 ], [ 75.12228, 30.32246 ], [ 75.12721, 30.32835 ], [ 75.12378, 30.33028 ], [ 75.11833, 30.33122 ], [ 75.11767, 30.33008 ], [ 75.1156, 30.33018 ], [ 75.11647, 30.33231 ], [ 75.11296, 30.33357 ], [ 75.11638, 30.34104 ], [ 75.11843, 30.3422 ], [ 75.12694, 30.33934 ], [ 75.14123, 30.33753 ], [ 75.1439, 30.33593 ], [ 75.14038, 30.32847 ], [ 75.14116, 30.32669 ], [ 75.15661, 30.31913 ], [ 75.16219, 30.32224 ], [ 75.16604, 30.3261 ], [ 75.16904, 30.32637 ], [ 75.17154, 30.32848 ], [ 75.17099, 30.32904 ], [ 75.17153, 30.32955 ], [ 75.17767, 30.33289 ], [ 75.17977, 30.33531 ], [ 75.16866, 30.33941 ], [ 75.16693, 30.3389 ], [ 75.16238, 30.34176 ], [ 75.17656, 30.35568 ], [ 75.17379, 30.36073 ], [ 75.17149, 30.36833 ], [ 75.16932, 30.37239 ], [ 75.1531, 30.37382 ], [ 75.1474, 30.37537 ], [ 75.13113, 30.39273 ], [ 75.11416, 30.40178 ], [ 75.11168, 30.40568 ], [ 75.11073, 30.40997 ], [ 75.10786, 30.40901 ], [ 75.10727, 30.41074 ], [ 75.10283, 30.41143 ], [ 75.10039, 30.41315 ], [ 75.09589, 30.41269 ], [ 75.08909, 30.41725 ], [ 75.08619, 30.41593 ], [ 75.0697, 30.40398 ], [ 75.06579, 30.3996 ], [ 75.0525, 30.38864 ], [ 75.05142, 30.39335 ], [ 75.05231, 30.40931 ], [ 75.04768, 30.41439 ], [ 75.03282, 30.42754 ], [ 75.02206, 30.42627 ], [ 75.025, 30.43203 ], [ 75.02513, 30.43488 ], [ 75.02724, 30.43874 ], [ 75.02071, 30.4419 ], [ 75.02463, 30.44648 ], [ 75.03008, 30.45573 ], [ 75.0369, 30.4595 ], [ 75.04073, 30.4592 ], [ 75.04981, 30.45526 ], [ 75.05133, 30.45712 ], [ 75.05409, 30.45834 ], [ 75.05295, 30.46045 ], [ 75.05107, 30.45933 ], [ 75.04828, 30.46204 ], [ 75.04223, 30.46561 ], [ 75.04331, 30.46991 ], [ 75.04258, 30.47326 ], [ 75.03045, 30.47427 ], [ 75.02778, 30.4807 ], [ 75.02023, 30.49089 ], [ 75.02839, 30.49726 ], [ 75.03211, 30.50245 ], [ 75.03242, 30.50427 ], [ 75.03651, 30.50477 ], [ 75.04013, 30.50322 ], [ 75.04188, 30.50422 ], [ 75.04251, 30.50307 ], [ 75.04205, 30.50165 ], [ 75.04291, 30.50113 ], [ 75.04947, 30.50143 ], [ 75.05155, 30.50346 ], [ 75.05504, 30.50162 ], [ 75.05861, 30.50394 ], [ 75.06115, 30.50315 ], [ 75.06197, 30.50147 ], [ 75.07001, 30.51169 ], [ 75.0779, 30.52511 ], [ 75.08467, 30.53194 ], [ 75.09289, 30.52666 ], [ 75.10524, 30.52124 ], [ 75.10887, 30.52093 ], [ 75.12199, 30.52444 ], [ 75.12819, 30.5223 ], [ 75.12962, 30.52349 ], [ 75.13103, 30.52653 ], [ 75.13137, 30.53387 ], [ 75.13001, 30.54035 ], [ 75.12643, 30.54588 ], [ 75.12512, 30.55181 ], [ 75.12064, 30.56085 ], [ 75.12336, 30.56642 ], [ 75.13036, 30.57228 ], [ 75.13399, 30.57456 ], [ 75.1384, 30.57591 ], [ 75.14562, 30.58238 ], [ 75.15078, 30.57814 ], [ 75.1543, 30.57674 ], [ 75.15727, 30.57668 ], [ 75.16074, 30.57936 ], [ 75.16367, 30.57978 ] ] ] } },
{ "type": "Feature", "properties": { "OBJECTID": 2324, "state_lgd": "03", "state_name": "PUNJAB", "district_lgd": "046", "district_name": "BATHINDA", "district_name_source": "district_table", "subdistrict_lgd": "00246", "subdistrict_name": "Talwandi Sabo", "subdistrict_type": "Tehsil", "name_corrupted": false, "remarks": "", "label_lon": 75.027184971018883, "label_lat": 29.969681246453856 }, "geometry": { "type": "Polygon", "coordinates": [ [ [ 75.04476, 30.08628 ], [ 75.0488, 30.08758 ], [ 75.05218, 30.0905 ], [ 75.05425, 30.09081 ], [ 75.06467, 30.08212 ], [ 75.06533, 30.08362 ], [ 75.06779, 30.08158 ], [ 75.07669, 30.08794 ], [ 75.07864, 30.08565 ], [ 75.08353, 30.08459 ], [ 75.08612, 30.08107 ], [ 75.08739, 30.0759 ], [ 75.08975, 30.07104 ], [ 75.08612, 30.07018 ], [ 75.08209, 30.06796 ], [ 75.07822, 30.05962 ], [ 75.07603, 30.05781 ], [ 75.07856, 30.05609 ], [ 75.08021, 30.0538 ], [ 75.08123, 30.05378 ], [ 75.08205, 30.0502 ], [ 75.08633, 30.04558 ], [ 75.08862, 30.04158 ], [ 75.09201, 30.03864 ], [ 75.09622, 30.03644 ], [ 75.10071, 30.04424 ], [ 75.10065, 30.04747 ], [ 75.10579, 30.04882 ], [ 75.1085, 30.04811 ], [ 75.11078, 30.04996 ], [ 75.11882, 30.04199 ], [ 75.11858, 30.04082 ], [ 75.12137, 30.03834 ], [ 75.12171, 30.03706 ], [ 75.12348, 30.0373 ], [ 75.12458, 30.03612 ], [ 75.12633, 30.03665 ], [ 75.12671, 30.03783 ], [ 75.12581, 30.03861 ], [ 75.1264, 30.04071 ], [ 75.13102, 30.04302 ], [ 75.13524, 30.04165 ], [ 75.13632, 30.04253 ], [ 75.14077, 30.04079 ], [ 75.14844, 30.035 ], [ 75.14783, 30.02629 ], [ 75.14937, 30.02513 ], [ 75.14981, 30.02368 ], [ 75.15058, 30.0233 ], [ 75.1538, 30.02622 ], [ 75.16082, 30.01903 ], [ 75.16499, 30.01862 ], [ 75.1677, 30.01617 ], [ 75.17218, 30.01469 ], [ 75.17991, 30.0041 ], [ 75.17986, 30.00245 ], [ 75.18161, 30.00083 ], [ 75.18218, 29.99873 ], [ 75.18336, 29.9984 ], [ 75.18458, 29.99594 ], [ 75.18797, 29.9934 ], [ 75.1898, 29.98932 ], [ 75.18771, 29.98703 ], [ 75.18932, 29.98425 ], [ 75.19481, 29.98039 ], [ 75.19333, 29.978 ], [ 75.18856, 29.97369 ], [ 75.18277, 29.97019 ], [ 75.18241, 29.96004 ], [ 75.18097, 29.9529 ], [ 75.18332, 29.95207 ], [ 75.17813, 29.94587 ], [ 75.18347, 29.94146 ], [ 75.18069, 29.94154 ], [ 75.17766, 29.93657 ], [ 75.17332, 29.93173 ], [ 75.17166, 29.92806 ], [ 75.17585, 29.92328 ], [ 75.18252, 29.91942 ], [ 75.18478, 29.91606 ], [ 75.18567, 29.91279 ], [ 75.18573, 29.90183 ], [ 75.18813, 29.88939 ], [ 75.2049, 29.88827 ], [ 75.21747, 29.88304 ], [ 75.21784, 29.8626 ], [ 75.21291, 29.85812 ], [ 75.20581, 29.85972 ], [ 75.20499, 29.85847 ], [ 75.19315, 29.85346 ], [ 75.19041, 29.85056 ], [ 75.19104, 29.84137 ], [ 75.18439, 29.8341 ], [ 75.17593, 29.82809 ], [ 75.17007, 29.82818 ], [ 75.16926, 29.82701 ], [ 75.1673, 29.82707 ], [ 75.16467, 29.82502 ], [ 75.16254, 29.81657 ], [ 75.16023, 29.81284 ], [ 75.16065, 29.80637 ], [ 75.1591, 29.80132 ], [ 75.16665, 29.78821 ], [ 75.16692, 29.78517 ], [ 75.16299, 29.78089 ], [ 75.15407, 29.77635 ], [ 75.15099, 29.77552 ], [ 75.14649, 29.78182 ], [ 75.14247, 29.78373 ], [ 75.14055, 29.78558 ], [ 75.13685, 29.80595 ], [ 75.13511, 29.80729 ], [ 75.13178, 29.80791 ], [ 75.12668, 29.80688 ], [ 75.12548, 29.80571 ], [ 75.11826, 29.8027 ], [ 75.1045, 29.8048 ], [ 75.10059, 29.80708 ], [ 75.10034, 29.8194 ], [ 75.10154, 29.82155 ], [ 75.10489, 29.8244 ], [ 75.11739, 29.83 ], [ 75.1189, 29.83158 ], [ 75.11431, 29.83896 ], [ 75.11139, 29.84191 ], [ 75.1069, 29.84114 ], [ 75.10316, 29.84175 ], [ 75.10127, 29.84467 ], [ 75.09989, 29.84434 ], [ 75.0901, 29.85401 ], [ 75.08976, 29.85863 ], [ 75.09341, 29.85797 ], [ 75.09976, 29.8639 ], [ 75.10686, 29.868 ], [ 75.11474, 29.87865 ], [ 75.11196, 29.88647 ], [ 75.11169, 29.89099 ], [ 75.11043, 29.89271 ], [ 75.11039, 29.90191 ], [ 75.1093, 29.90409 ], [ 75.10733, 29.90405 ], [ 75.09904, 29.91108 ], [ 75.09878, 29.91278 ], [ 75.0888, 29.91719 ], [ 75.08763, 29.91617 ], [ 75.08644, 29.91655 ], [ 75.08683, 29.91506 ], [ 75.08211, 29.90727 ], [ 75.08049, 29.9008 ], [ 75.07533, 29.89634 ], [ 75.07607, 29.89085 ], [ 75.07485, 29.88905 ], [ 75.07449, 29.88225 ], [ 75.06999, 29.87705 ], [ 75.06529, 29.87879 ], [ 75.05613, 29.87809 ], [ 75.05187, 29.88407 ], [ 75.04699, 29.88507 ], [ 75.03293, 29.87981 ], [ 75.02255, 29.86625 ], [ 75.00526, 29.86895 ], [ 74.99813, 29.86623 ], [ 74.99464, 29.86769 ], [ 74.99099, 29.86782 ], [ 74.97721, 29.88834 ], [ 74.97691, 29.8894 ], [ 74.97884, 29.89174 ], [ 74.97886, 29.89431 ], [ 74.97047, 29.89773 ], [ 74.9529, 29.90188 ], [ 74.94802, 29.90723 ], [ 74.94419, 29.91609 ], [ 74.94334, 29.91727 ], [ 74.94174, 29.91766 ], [ 74.9364, 29.92645 ], [ 74.93706, 29.92699 ], [ 74.93582, 29.93068 ], [ 74.92698, 29.94586 ], [ 74.92671, 29.95049 ], [ 74.9229, 29.95211 ], [ 74.91901, 29.94707 ], [ 74.91294, 29.94344 ], [ 74.90705, 29.9406 ], [ 74.89784, 29.9395 ], [ 74.89554, 29.94073 ], [ 74.90073, 29.94546 ], [ 74.90295, 29.95047 ], [ 74.90298, 29.95348 ], [ 74.89838, 29.95802 ], [ 74.89215, 29.96216 ], [ 74.88796, 29.96672 ], [ 74.88427, 29.96308 ], [ 74.87792, 29.95971 ], [ 74.87579, 29.95761 ], [ 74.87057, 29.95998 ], [ 74.86477, 29.96016 ], [ 74.85541, 29.95649 ], [ 74.85059, 29.96197 ], [ 74.84772, 29.96249 ], [ 74.84348, 29.9646 ], [ 74.84115, 29.96884 ], [ 74.83848, 29.97115 ], [ 74.83374, 29.97166 ], [ 74.8285, 29.97333 ], [ 74.8241, 29.97137 ], [ 74.82106, 29.97103 ], [ 74.82636, 29.97722 ], [ 74.82433, 29.98577 ], [ 74.82211, 29.98844 ], [ 74.81786, 29.9911 ], [ 74.81141, 29.9924 ], [ 74.8114, 30.00227 ], [ 74.80915, 30.00443 ], [ 74.8076, 30.00296 ], [ 74.80626, 30.00397 ], [ 74.80786, 30.00587 ], [ 74.80821, 30.01171 ], [ 74.80904, 30.01236 ], [ 74.80718, 30.01526 ], [ 74.80602, 30.01447 ], [ 74.80501, 30.01578 ], [ 74.80385, 30.01561 ], [ 74.80187, 30.01425 ], [ 74.79917, 30.01565 ], [ 74.79965, 30.01698 ], [ 74.80414, 30.01959 ], [ 74.80917, 30.02502 ], [ 74.81509, 30.03426 ], [ 74.82246, 30.04203 ], [ 74.8338, 30.06131 ], [ 74.84063, 30.05985 ], [ 74.84618, 30.06057 ], [ 74.84586, 30.05762 ], [ 74.84718, 30.04991 ], [ 74.85008, 30.04633 ], [ 74.85206, 30.04818 ], [ 74.85155, 30.04987 ], [ 74.85378, 30.04958 ], [ 74.855, 30.0518 ], [ 74.85781, 30.05083 ], [ 74.85784, 30.05187 ], [ 74.85933, 30.05171 ], [ 74.85967, 30.05807 ], [ 74.86735, 30.05545 ], [ 74.86633, 30.05265 ], [ 74.86967, 30.04954 ], [ 74.87061, 30.05026 ], [ 74.88086, 30.05964 ], [ 74.87789, 30.06209 ], [ 74.87634, 30.06054 ], [ 74.87549, 30.06216 ], [ 74.87396, 30.06255 ], [ 74.87271, 30.06642 ], [ 74.88036, 30.07513 ], [ 74.87758, 30.07767 ], [ 74.87497, 30.07814 ], [ 74.87806, 30.08185 ], [ 74.88194, 30.08301 ], [ 74.88424, 30.08498 ], [ 74.88362, 30.08559 ], [ 74.8863, 30.08723 ], [ 74.89113, 30.08689 ], [ 74.89213, 30.08819 ], [ 74.89431, 30.08876 ], [ 74.89758, 30.08727 ], [ 74.89867, 30.08919 ], [ 74.90721, 30.08598 ], [ 74.91212, 30.08596 ], [ 74.91411, 30.08679 ], [ 74.91882, 30.08593 ], [ 74.93075, 30.09256 ], [ 74.93241, 30.09263 ], [ 74.93558, 30.09077 ], [ 74.93818, 30.09379 ], [ 74.94334, 30.09227 ], [ 74.94701, 30.09357 ], [ 74.95033, 30.0916 ], [ 74.9509, 30.09025 ], [ 74.95522, 30.08853 ], [ 74.95539, 30.08715 ], [ 74.96309, 30.08318 ], [ 74.96686, 30.08406 ], [ 74.96759, 30.08641 ], [ 74.96685, 30.08737 ], [ 74.96849, 30.08929 ], [ 74.97042, 30.08999 ], [ 74.97264, 30.08753 ], [ 74.97888, 30.08529 ], [ 74.98092, 30.0859 ], [ 74.98545, 30.08526 ], [ 74.98727, 30.08403 ], [ 74.98943, 30.08441 ], [ 74.99783, 30.08052 ], [ 75.00105, 30.08087 ], [ 75.00554, 30.07896 ], [ 75.0084, 30.07888 ], [ 75.01445, 30.07487 ], [ 75.01383, 30.07352 ], [ 75.01654, 30.07261 ], [ 75.01596, 30.07106 ], [ 75.01766, 30.06866 ], [ 75.02016, 30.07496 ], [ 75.03095, 30.07314 ], [ 75.03483, 30.07462 ], [ 75.03691, 30.07821 ], [ 75.04476, 30.08628 ] ] ] } }
]
}
