{
"type": "FeatureCollection",
"name": "053_SANGRUR",
"crs": { "type": "name", "properties": { "name": "urn:ogc:def:crs:OGC:1.3:CRS84" } },
"xy_coordinate_resolution": 1e-05,
"features": [
{ "type": "Feature", "properties": { "OBJECTID": 2305, "state_lgd": "03", "state_name": "PUNJAB", "district_lgd": "053", "district_name": "SANGRUR", "district_name_source": "district_table", "subdistrict_lgd": "06483", "subdistrict_name": "Bhawanigarh", "subdistrict_type": "Tehsil", "name_corrupted": false, "remarks": "", "label_lon": 76.04149599230162, "label_lat": 30.249708365815355 }, "geometry": { "type": "Polygon", "coordinates": [ [ [ 75.9858, 30.36313 ], [ 75.98633, 30.35578 ], [ 75.98466, 30.3477 ], [ 75.98737, 30.3446 ], [ 75.98655, 30.34082 ], [ 75.98851, 30.33735 ], [ 75.99389, 30.33856 ], [ 76.00324, 30.33387 ], [ 76.00695, 30.3353 ], [ 76.00859, 30.33416 ], [ 76.00834, 30.332 ], [ 76.00935, 30.33105 ], [ 76.01463, 30.32981 ], [ 76.01545, 30.32845 ], [ 76.01715, 30.3283 ], [ 76.02042, 30.32885 ], [ 76.02245, 30.33195 ], [ 76.02875, 30.3326 ], [ 76.0301, 30.33528 ], [ 76.03322, 30.33765 ], [ 76.04255, 30.3347 ], [ 76.04783, 30.33894 ], [ 76.05741, 30.3321 ], [ 76.05969, 30.32935 ], [ 76.05915, 30.32671 ], [ 76.06149, 30.32489 ], [ 76.06321, 30.32124 ], [ 76.06803, 30.31684 ], [ 76.07199, 30.31624 ], [ 76.07676, 30.31387 ], [ 76.07778, 30.31452 ], [ 76.08117, 30.31159 ], [ 76.08681, 30.31011 ], [ 76.08804, 30.30991 ], [ 76.09112, 30.31367 ], [ 76.09709, 30.31663 ], [ 76.09794, 30.31593 ], [ 76.10423, 30.31855 ], [ 76.10687, 30.31831 ], [ 76.11141, 30.32149 ], [ 76.12303, 30.31797 ], [ 76.13363, 30.31149 ], [ 76.13828, 30.3125 ], [ 76.1496, 30.3208 ], [ 76.15183, 30.32505 ], [ 76.15546, 30.3241 ], [ 76.15623, 30.32511 ], [ 76.1601, 30.32639 ], [ 76.16452, 30.33065 ], [ 76.16689, 30.33161 ], [ 76.16783, 30.32541 ], [ 76.17554, 30.31292 ], [ 76.17814, 30.31229 ], [ 76.17962, 30.3084 ], [ 76.18736, 30.30001 ], [ 76.19322, 30.29672 ], [ 76.19787, 30.29574 ], [ 76.20349, 30.28423 ], [ 76.20081, 30.27779 ], [ 76.1976, 30.27407 ], [ 76.19541, 30.27285 ], [ 76.19114, 30.27211 ], [ 76.18994, 30.27358 ], [ 76.18767, 30.27367 ], [ 76.18716, 30.27474 ], [ 76.18616, 30.27398 ], [ 76.18378, 30.27511 ], [ 76.18271, 30.27485 ], [ 76.17693, 30.26578 ], [ 76.17691, 30.26316 ], [ 76.17904, 30.26255 ], [ 76.17798, 30.26094 ], [ 76.17941, 30.25809 ], [ 76.18302, 30.25695 ], [ 76.17398, 30.25077 ], [ 76.17597, 30.24913 ], [ 76.16624, 30.2399 ], [ 76.16497, 30.24078 ], [ 76.16285, 30.24624 ], [ 76.16007, 30.24615 ], [ 76.15355, 30.24796 ], [ 76.1432, 30.2422 ], [ 76.1435, 30.24011 ], [ 76.13868, 30.23767 ], [ 76.13965, 30.23717 ], [ 76.13795, 30.23324 ], [ 76.13209, 30.24015 ], [ 76.1268, 30.23538 ], [ 76.12269, 30.23749 ], [ 76.11985, 30.23519 ], [ 76.11844, 30.23237 ], [ 76.11513, 30.22929 ], [ 76.11312, 30.23034 ], [ 76.11231, 30.22982 ], [ 76.11407, 30.22694 ], [ 76.11272, 30.22535 ], [ 76.11438, 30.22356 ], [ 76.10671, 30.2203 ], [ 76.09553, 30.21865 ], [ 76.09515, 30.22136 ], [ 76.08467, 30.22165 ], [ 76.08423, 30.22024 ], [ 76.0812, 30.22011 ], [ 76.08079, 30.22474 ], [ 76.07773, 30.22499 ], [ 76.07532, 30.22192 ], [ 76.07359, 30.22201 ], [ 76.07084, 30.22021 ], [ 76.07049, 30.21658 ], [ 76.06931, 30.21596 ], [ 76.06834, 30.21694 ], [ 76.06194, 30.20968 ], [ 76.06353, 30.20793 ], [ 76.06394, 30.20838 ], [ 76.06846, 30.20622 ], [ 76.06423, 30.2042 ], [ 76.06642, 30.20331 ], [ 76.06051, 30.19789 ], [ 76.06038, 30.19544 ], [ 76.05747, 30.19214 ], [ 76.05677, 30.19278 ], [ 76.05283, 30.18849 ], [ 76.04932, 30.18669 ], [ 76.0509, 30.18431 ], [ 76.05366, 30.18247 ], [ 76.05417, 30.1793 ], [ 76.05659, 30.17554 ], [ 76.05502, 30.16976 ], [ 76.05224, 30.16917 ], [ 76.04862, 30.17067 ], [ 76.04489, 30.16914 ], [ 76.04274, 30.16656 ], [ 76.04279, 30.16387 ], [ 76.04139, 30.16172 ], [ 76.04134, 30.15887 ], [ 76.03945, 30.1569 ], [ 76.04376, 30.15326 ], [ 76.05342, 30.15564 ], [ 76.05516, 30.15695 ], [ 76.06422, 30.15163 ], [ 76.06267, 30.1487 ], [ 76.06229, 30.1443 ], [ 76.06079, 30.13953 ], [ 76.05304, 30.13158 ], [ 76.05151, 30.12958 ], [ 76.052, 30.12892 ], [ 76.05141, 30.12787 ], [ 76.04733, 30.1317 ], [ 76.04874, 30.13366 ], [ 76.0488, 30.13531 ], [ 76.03927, 30.14105 ], [ 76.0372, 30.13935 ], [ 76.03412, 30.14112 ], [ 76.01795, 30.15313 ], [ 76.01284, 30.1492 ], [ 76.01121, 30.14664 ], [ 76.01193, 30.14282 ], [ 76.00169, 30.14032 ], [ 75.99756, 30.14344 ], [ 75.99638, 30.1474 ], [ 75.99698, 30.14816 ], [ 75.99499, 30.15044 ], [ 75.98012, 30.16462 ], [ 75.97745, 30.16158 ], [ 75.97381, 30.15529 ], [ 75.9709, 30.14826 ], [ 75.97149, 30.14523 ], [ 75.9678, 30.14173 ], [ 75.9656, 30.14308 ], [ 75.95884, 30.14256 ], [ 75.95798, 30.14372 ], [ 75.95464, 30.14297 ], [ 75.9518, 30.14439 ], [ 75.95067, 30.14337 ], [ 75.942, 30.1466 ], [ 75.93298, 30.15145 ], [ 75.931, 30.15346 ], [ 75.9299, 30.16247 ], [ 75.92999, 30.16538 ], [ 75.93084, 30.16637 ], [ 75.93013, 30.16763 ], [ 75.93106, 30.16869 ], [ 75.93048, 30.16925 ], [ 75.93107, 30.17017 ], [ 75.9304, 30.17597 ], [ 75.9288, 30.17407 ], [ 75.92472, 30.17387 ], [ 75.92011, 30.17668 ], [ 75.91633, 30.1829 ], [ 75.91497, 30.1837 ], [ 75.91992, 30.18847 ], [ 75.9216, 30.18668 ], [ 75.92749, 30.18611 ], [ 75.92968, 30.19009 ], [ 75.93011, 30.19182 ], [ 75.92879, 30.19434 ], [ 75.92916, 30.19593 ], [ 75.92727, 30.19614 ], [ 75.92547, 30.20072 ], [ 75.92866, 30.2039 ], [ 75.93106, 30.20395 ], [ 75.932, 30.207 ], [ 75.93071, 30.20877 ], [ 75.92659, 30.20931 ], [ 75.92439, 30.21205 ], [ 75.92507, 30.21275 ], [ 75.92495, 30.21446 ], [ 75.92643, 30.21586 ], [ 75.92589, 30.21741 ], [ 75.92417, 30.21806 ], [ 75.92576, 30.22149 ], [ 75.92874, 30.22261 ], [ 75.92918, 30.22572 ], [ 75.93189, 30.22497 ], [ 75.93375, 30.22749 ], [ 75.93375, 30.22862 ], [ 75.93948, 30.22877 ], [ 75.94146, 30.23076 ], [ 75.94116, 30.23349 ], [ 75.94321, 30.23639 ], [ 75.94321, 30.23778 ], [ 75.94672, 30.23815 ], [ 75.94568, 30.2395 ], [ 75.94644, 30.24427 ], [ 75.94832, 30.24481 ], [ 75.94833, 30.2462 ], [ 75.95243, 30.24777 ], [ 75.95473, 30.25301 ], [ 75.95856, 30.25522 ], [ 75.96253, 30.2593 ], [ 75.96361, 30.26678 ], [ 75.97389, 30.27847 ], [ 75.98055, 30.29162 ], [ 75.98149, 30.29692 ], [ 75.97945, 30.29854 ], [ 75.97584, 30.30108 ], [ 75.96909, 30.30357 ], [ 75.96468, 30.30424 ], [ 75.96279, 30.30336 ], [ 75.95862, 30.30793 ], [ 75.95837, 30.30912 ], [ 75.96379, 30.31759 ], [ 75.96371, 30.32101 ], [ 75.96135, 30.32447 ], [ 75.96187, 30.32857 ], [ 75.96096, 30.33137 ], [ 75.97034, 30.33575 ], [ 75.9707, 30.33748 ], [ 75.97215, 30.33827 ], [ 75.97583, 30.33887 ], [ 75.97792, 30.34055 ], [ 75.97666, 30.34248 ], [ 75.97669, 30.34387 ], [ 75.9744, 30.34679 ], [ 75.96818, 30.35183 ], [ 75.97058, 30.35421 ], [ 75.96898, 30.35956 ], [ 75.96573, 30.36348 ], [ 75.96677, 30.3645 ], [ 75.96569, 30.36543 ], [ 75.97035, 30.36785 ], [ 75.97435, 30.36696 ], [ 75.98004, 30.36717 ], [ 75.98114, 30.36567 ], [ 75.98082, 30.363 ], [ 75.98378, 30.36087 ], [ 75.98483, 30.3629 ], [ 75.9858, 30.36313 ] ], [ [ 76.02517, 30.16264 ], [ 76.02619, 30.16106 ], [ 76.02736, 30.16107 ], [ 76.03262, 30.16294 ], [ 76.03661, 30.16635 ], [ 76.03312, 30.17301 ], [ 76.02299, 30.18271 ], [ 76.01942, 30.18442 ], [ 76.0153, 30.18466 ], [ 76.01029, 30.18142 ], [ 76.0078, 30.17883 ], [ 76.00709, 30.17898 ], [ 76.00676, 30.17661 ], [ 76.00847, 30.17114 ], [ 76.01506, 30.16802 ], [ 76.01622, 30.16591 ], [ 76.01947, 30.16458 ], [ 76.02175, 30.16223 ], [ 76.02517, 30.16264 ] ] ] } },
{ "type": "Feature", "properties": { "OBJECTID": 2306, "state_lgd": "03", "state_name": "PUNJAB", "district_lgd": "053", "district_name": "SANGRUR", "district_name_source": "district_table", "subdistrict_lgd": "00273", "subdistrict_name": "Lehra", "subdistrict_type": "Tehsil", "name_corrupted": false, "remarks": "", "label_lon": 75.807868316061473, "label_lat": 29.931859056236267 }, "geometry": { "type": "Polygon", "coordinates": [ [ [ 75.92238, 29.97103 ], [ 75.92651, 29.96783 ], [ 75.92866, 29.9626 ], [ 75.92728, 29.95817 ], [ 75.92117, 29.95547 ], [ 75.92263, 29.95346 ], [ 75.92777, 29.95161 ], [ 75.92702, 29.9488 ], [ 75.92889, 29.94547 ], [ 75.93648, 29.94732 ], [ 75.93908, 29.94662 ], [ 75.94465, 29.94879 ], [ 75.95306, 29.95357 ], [ 75.96102, 29.94712 ], [ 75.96268, 29.94667 ], [ 75.96451, 29.94848 ], [ 75.96859, 29.9456 ], [ 75.97061, 29.94556 ], [ 75.97249, 29.94348 ], [ 75.97733, 29.94126 ], [ 75.98014, 29.94171 ], [ 75.9829, 29.94625 ], [ 75.98467, 29.94698 ], [ 75.98435, 29.94785 ], [ 75.99074, 29.95237 ], [ 75.99484, 29.9549 ], [ 75.99712, 29.95448 ], [ 75.99764, 29.95285 ], [ 75.9952, 29.95042 ], [ 75.9959, 29.94837 ], [ 75.99369, 29.94797 ], [ 75.98973, 29.94568 ], [ 75.99055, 29.94408 ], [ 75.98713, 29.94107 ], [ 75.98856, 29.9401 ], [ 75.98847, 29.93873 ], [ 75.98783, 29.93754 ], [ 75.98477, 29.93624 ], [ 75.98546, 29.9328 ], [ 75.985, 29.93032 ], [ 75.98579, 29.92951 ], [ 75.98567, 29.92667 ], [ 75.98664, 29.9259 ], [ 75.98612, 29.92519 ], [ 75.98989, 29.92262 ], [ 75.98857, 29.92111 ], [ 75.9885, 29.91898 ], [ 75.9866, 29.91463 ], [ 75.98723, 29.91241 ], [ 75.98562, 29.91127 ], [ 75.98306, 29.90714 ], [ 75.98327, 29.90475 ], [ 75.9849, 29.90343 ], [ 75.98209, 29.90246 ], [ 75.98213, 29.90379 ], [ 75.98059, 29.90477 ], [ 75.97931, 29.90432 ], [ 75.97766, 29.90712 ], [ 75.97426, 29.90788 ], [ 75.9733, 29.91014 ], [ 75.97412, 29.91284 ], [ 75.97149, 29.91495 ], [ 75.97064, 29.91664 ], [ 75.96834, 29.9153 ], [ 75.96793, 29.916 ], [ 75.97144, 29.92012 ], [ 75.97044, 29.92109 ], [ 75.9714, 29.92216 ], [ 75.97078, 29.92425 ], [ 75.96935, 29.92523 ], [ 75.97199, 29.92843 ], [ 75.96999, 29.93193 ], [ 75.96771, 29.93047 ], [ 75.96755, 29.92826 ], [ 75.9661, 29.92813 ], [ 75.96813, 29.92599 ], [ 75.96768, 29.92075 ], [ 75.96473, 29.92177 ], [ 75.96384, 29.92079 ], [ 75.96344, 29.91704 ], [ 75.96624, 29.91374 ], [ 75.96719, 29.91388 ], [ 75.96628, 29.91255 ], [ 75.96316, 29.91476 ], [ 75.96227, 29.91346 ], [ 75.9588, 29.91379 ], [ 75.95778, 29.91493 ], [ 75.95904, 29.91738 ], [ 75.95246, 29.92094 ], [ 75.94741, 29.92113 ], [ 75.9394, 29.91854 ], [ 75.93388, 29.91462 ], [ 75.93032, 29.90986 ], [ 75.92695, 29.91254 ], [ 75.91876, 29.91621 ], [ 75.91658, 29.91613 ], [ 75.91212, 29.91767 ], [ 75.91086, 29.91561 ], [ 75.90085, 29.90651 ], [ 75.89393, 29.89798 ], [ 75.89025, 29.8954 ], [ 75.88358, 29.89356 ], [ 75.8832, 29.89025 ], [ 75.88016, 29.8891 ], [ 75.87877, 29.89004 ], [ 75.86916, 29.88881 ], [ 75.86388, 29.89244 ], [ 75.86239, 29.8882 ], [ 75.86435, 29.88858 ], [ 75.87038, 29.88572 ], [ 75.87222, 29.8866 ], [ 75.87345, 29.88327 ], [ 75.87448, 29.88318 ], [ 75.87366, 29.87986 ], [ 75.87602, 29.87879 ], [ 75.87587, 29.87534 ], [ 75.8771, 29.86943 ], [ 75.87823, 29.86818 ], [ 75.87741, 29.86644 ], [ 75.87307, 29.86086 ], [ 75.87311, 29.85996 ], [ 75.86991, 29.85836 ], [ 75.86935, 29.856 ], [ 75.86477, 29.85226 ], [ 75.86242, 29.85443 ], [ 75.86289, 29.85704 ], [ 75.86108, 29.85915 ], [ 75.85938, 29.85868 ], [ 75.85785, 29.85691 ], [ 75.85699, 29.85704 ], [ 75.85641, 29.85922 ], [ 75.85239, 29.86359 ], [ 75.84933, 29.86351 ], [ 75.84668, 29.86569 ], [ 75.84026, 29.86821 ], [ 75.83387, 29.8637 ], [ 75.82664, 29.8607 ], [ 75.82263, 29.85673 ], [ 75.81943, 29.85261 ], [ 75.81708, 29.84672 ], [ 75.81769, 29.84518 ], [ 75.81664, 29.84303 ], [ 75.81735, 29.84162 ], [ 75.8169, 29.83991 ], [ 75.81834, 29.83903 ], [ 75.82209, 29.83363 ], [ 75.83321, 29.82525 ], [ 75.82585, 29.81451 ], [ 75.82451, 29.81378 ], [ 75.82271, 29.8081 ], [ 75.81583, 29.80416 ], [ 75.81149, 29.80553 ], [ 75.80498, 29.80484 ], [ 75.8004, 29.80726 ], [ 75.78982, 29.81056 ], [ 75.78858, 29.81137 ], [ 75.78707, 29.81606 ], [ 75.78297, 29.8208 ], [ 75.77943, 29.82229 ], [ 75.77199, 29.81831 ], [ 75.76754, 29.81379 ], [ 75.76307, 29.8114 ], [ 75.7587, 29.80624 ], [ 75.75617, 29.805 ], [ 75.75063, 29.8076 ], [ 75.74869, 29.80688 ], [ 75.74689, 29.80732 ], [ 75.74218, 29.8101 ], [ 75.73782, 29.81404 ], [ 75.74483, 29.82203 ], [ 75.74565, 29.82468 ], [ 75.7505, 29.82427 ], [ 75.75712, 29.82792 ], [ 75.76482, 29.82774 ], [ 75.77329, 29.83485 ], [ 75.77276, 29.8411 ], [ 75.77204, 29.8415 ], [ 75.772, 29.84681 ], [ 75.77509, 29.85012 ], [ 75.77563, 29.85322 ], [ 75.76133, 29.85999 ], [ 75.75816, 29.85959 ], [ 75.75753, 29.86143 ], [ 75.75861, 29.86521 ], [ 75.75814, 29.86737 ], [ 75.76253, 29.87256 ], [ 75.76016, 29.87591 ], [ 75.76041, 29.8785 ], [ 75.75924, 29.88492 ], [ 75.75976, 29.88664 ], [ 75.75877, 29.88748 ], [ 75.76037, 29.88949 ], [ 75.76022, 29.89152 ], [ 75.7613, 29.89363 ], [ 75.76837, 29.89809 ], [ 75.76556, 29.90732 ], [ 75.76629, 29.91731 ], [ 75.76425, 29.91907 ], [ 75.7592, 29.91693 ], [ 75.758, 29.91545 ], [ 75.75687, 29.91547 ], [ 75.7544, 29.91748 ], [ 75.74419, 29.92187 ], [ 75.73805, 29.92549 ], [ 75.73506, 29.92869 ], [ 75.73241, 29.93484 ], [ 75.71838, 29.93343 ], [ 75.70862, 29.93454 ], [ 75.7078, 29.92196 ], [ 75.7055, 29.91863 ], [ 75.68379, 29.90953 ], [ 75.6783, 29.90987 ], [ 75.6754, 29.909 ], [ 75.67097, 29.91108 ], [ 75.67065, 29.9135 ], [ 75.67292, 29.91612 ], [ 75.67278, 29.91823 ], [ 75.66902, 29.92052 ], [ 75.6684, 29.92223 ], [ 75.66909, 29.92381 ], [ 75.66807, 29.92457 ], [ 75.66939, 29.92604 ], [ 75.66385, 29.93106 ], [ 75.66223, 29.93217 ], [ 75.65789, 29.9328 ], [ 75.65697, 29.93107 ], [ 75.65465, 29.93047 ], [ 75.65188, 29.93533 ], [ 75.64929, 29.93811 ], [ 75.64565, 29.93811 ], [ 75.64108, 29.93687 ], [ 75.64277, 29.94148 ], [ 75.6429, 29.94472 ], [ 75.64391, 29.94591 ], [ 75.64431, 29.95141 ], [ 75.64768, 29.95764 ], [ 75.64714, 29.96177 ], [ 75.64844, 29.9686 ], [ 75.64839, 29.97339 ], [ 75.65229, 29.98016 ], [ 75.64735, 29.98352 ], [ 75.66409, 29.99898 ], [ 75.66567, 29.99985 ], [ 75.67285, 29.99995 ], [ 75.67944, 30.00428 ], [ 75.67913, 30.00607 ], [ 75.68496, 30.00926 ], [ 75.69372, 30.00537 ], [ 75.69726, 30.0054 ], [ 75.70105, 30.00434 ], [ 75.70246, 30.00542 ], [ 75.7055, 30.00356 ], [ 75.70453, 29.99275 ], [ 75.70929, 29.99059 ], [ 75.71189, 29.99788 ], [ 75.71582, 30.00375 ], [ 75.72398, 30.00574 ], [ 75.72789, 29.99812 ], [ 75.75046, 29.98139 ], [ 75.75424, 29.9764 ], [ 75.75914, 29.97577 ], [ 75.76779, 29.97629 ], [ 75.77098, 29.97537 ], [ 75.77417, 29.97812 ], [ 75.77423, 29.98086 ], [ 75.7854, 29.98296 ], [ 75.78824, 29.98864 ], [ 75.79095, 29.9915 ], [ 75.79104, 29.99403 ], [ 75.79408, 29.9996 ], [ 75.79484, 29.99972 ], [ 75.79889, 29.99534 ], [ 75.80122, 29.99504 ], [ 75.80271, 29.99295 ], [ 75.81636, 29.98914 ], [ 75.82205, 29.99565 ], [ 75.82467, 29.99996 ], [ 75.82478, 30.00234 ], [ 75.82671, 30.00415 ], [ 75.82525, 30.00529 ], [ 75.8271, 30.0077 ], [ 75.82603, 30.00904 ], [ 75.82708, 30.01112 ], [ 75.83133, 30.01145 ], [ 75.83154, 30.01016 ], [ 75.83399, 30.01059 ], [ 75.83411, 30.00856 ], [ 75.83509, 30.00856 ], [ 75.83575, 30.00963 ], [ 75.83888, 30.00895 ], [ 75.84081, 30.01127 ], [ 75.845, 30.00221 ], [ 75.84827, 30.00246 ], [ 75.85249, 30.00609 ], [ 75.85196, 30.00724 ], [ 75.85294, 30.00859 ], [ 75.85524, 30.00981 ], [ 75.85536, 30.00831 ], [ 75.85872, 30.01056 ], [ 75.86035, 30.02311 ], [ 75.86707, 30.02682 ], [ 75.86945, 30.02946 ], [ 75.86946, 30.0315 ], [ 75.87244, 30.03132 ], [ 75.8738, 30.03296 ], [ 75.87377, 30.03499 ], [ 75.8777, 30.03589 ], [ 75.87855, 30.03719 ], [ 75.88036, 30.03588 ], [ 75.8763, 30.03098 ], [ 75.87727, 30.02967 ], [ 75.87739, 30.02642 ], [ 75.88397, 30.02426 ], [ 75.88285, 30.02067 ], [ 75.88318, 30.01927 ], [ 75.8887, 30.0163 ], [ 75.89426, 30.01089 ], [ 75.89494, 30.01157 ], [ 75.90184, 30.00417 ], [ 75.90044, 30.00308 ], [ 75.90098, 29.99985 ], [ 75.90032, 29.9977 ], [ 75.89452, 29.98974 ], [ 75.89677, 29.98643 ], [ 75.89309, 29.98156 ], [ 75.89536, 29.97975 ], [ 75.89792, 29.97967 ], [ 75.89838, 29.97694 ], [ 75.90274, 29.97107 ], [ 75.90575, 29.97373 ], [ 75.90689, 29.97737 ], [ 75.90912, 29.9801 ], [ 75.91823, 29.9772 ], [ 75.91741, 29.97307 ], [ 75.92238, 29.97103 ] ] ] } },
{ "type": "Feature", "properties": { "OBJECTID": 2307, "state_lgd": "03", "state_name": "PUNJAB", "district_lgd": "053", "district_name": "SANGRUR", "district_name_source": "district_table", "subdistrict_lgd": "00274", "subdistrict_name": "Moonak", "subdistrict_type": "Tehsil", "name_corrupted": false, "remarks": "", "label_lon": 75.960967632329528, "label_lat": 29.817917081199155 }, "geometry": { "type": "Polygon", "coordinates": [ [ [ 75.93032, 29.90986 ], [ 75.92929, 29.90815 ], [ 75.93311, 29.90622 ], [ 75.933, 29.90476 ], [ 75.93453, 29.90162 ], [ 75.93775, 29.8991 ], [ 75.94502, 29.89565 ], [ 75.94936, 29.89498 ], [ 75.95507, 29.89007 ], [ 75.95678, 29.89098 ], [ 75.95925, 29.89096 ], [ 75.9603, 29.88944 ], [ 75.96305, 29.89266 ], [ 75.96742, 29.89039 ], [ 75.97028, 29.89301 ], [ 75.97411, 29.895 ], [ 75.97687, 29.89923 ], [ 75.97655, 29.90089 ], [ 75.97931, 29.90432 ], [ 75.98059, 29.90477 ], [ 75.98213, 29.90379 ], [ 75.98209, 29.90246 ], [ 75.9849, 29.90343 ], [ 75.99669, 29.89684 ], [ 76.0, 29.89651 ], [ 76.00229, 29.89494 ], [ 76.00771, 29.89313 ], [ 76.01196, 29.89036 ], [ 76.01126, 29.8879 ], [ 76.01168, 29.88481 ], [ 76.01561, 29.87761 ], [ 76.01419, 29.87364 ], [ 76.02083, 29.86859 ], [ 76.02266, 29.86952 ], [ 76.02786, 29.87587 ], [ 76.03207, 29.87695 ], [ 76.0324, 29.88224 ], [ 76.03795, 29.88048 ], [ 76.03844, 29.87931 ], [ 76.03732, 29.87639 ], [ 76.03929, 29.8729 ], [ 76.04356, 29.87606 ], [ 76.0455, 29.87437 ], [ 76.04615, 29.87104 ], [ 76.0481, 29.86933 ], [ 76.049, 29.86938 ], [ 76.05041, 29.87153 ], [ 76.05425, 29.87085 ], [ 76.05607, 29.8696 ], [ 76.05277, 29.86293 ], [ 76.0528, 29.85984 ], [ 76.05988, 29.84657 ], [ 76.06495, 29.84172 ], [ 76.0693, 29.84192 ], [ 76.0723, 29.84346 ], [ 76.07428, 29.84104 ], [ 76.07531, 29.84141 ], [ 76.08415, 29.84657 ], [ 76.08681, 29.84749 ], [ 76.0895, 29.84708 ], [ 76.08967, 29.85062 ], [ 76.09035, 29.85111 ], [ 76.09288, 29.84903 ], [ 76.09985, 29.84716 ], [ 76.10087, 29.85022 ], [ 76.10394, 29.85465 ], [ 76.10871, 29.85872 ], [ 76.11162, 29.85966 ], [ 76.11778, 29.85969 ], [ 76.12246, 29.85757 ], [ 76.11909, 29.855 ], [ 76.12013, 29.85307 ], [ 76.11805, 29.84851 ], [ 76.12024, 29.84326 ], [ 76.11923, 29.83492 ], [ 76.11754, 29.83464 ], [ 76.11715, 29.83372 ], [ 76.1179, 29.83179 ], [ 76.11, 29.82251 ], [ 76.11051, 29.81856 ], [ 76.10538, 29.81196 ], [ 76.10202, 29.81058 ], [ 76.09808, 29.81061 ], [ 76.09608, 29.80919 ], [ 76.08953, 29.80113 ], [ 76.085, 29.80073 ], [ 76.08296, 29.78796 ], [ 76.08472, 29.78452 ], [ 76.08265, 29.78116 ], [ 76.07678, 29.77489 ], [ 76.074, 29.77602 ], [ 76.07255, 29.77858 ], [ 76.06965, 29.77509 ], [ 76.0671, 29.77397 ], [ 76.06634, 29.7713 ], [ 76.06211, 29.76813 ], [ 76.06024, 29.76464 ], [ 76.05682, 29.76535 ], [ 76.0544, 29.75772 ], [ 76.04949, 29.75186 ], [ 76.04963, 29.7481 ], [ 76.04385, 29.74268 ], [ 76.03701, 29.74351 ], [ 76.03474, 29.74453 ], [ 76.03088, 29.74765 ], [ 76.03068, 29.75472 ], [ 76.02611, 29.75615 ], [ 76.02509, 29.75473 ], [ 76.02406, 29.74898 ], [ 76.01938, 29.74767 ], [ 76.01749, 29.74567 ], [ 76.01677, 29.743 ], [ 76.00711, 29.74074 ], [ 76.00051, 29.74031 ], [ 75.99897, 29.74102 ], [ 75.99645, 29.73906 ], [ 75.9949, 29.73926 ], [ 75.98889, 29.73393 ], [ 75.98441, 29.72711 ], [ 75.97535, 29.72864 ], [ 75.97478, 29.73007 ], [ 75.97346, 29.7304 ], [ 75.9699, 29.73044 ], [ 75.96757, 29.72941 ], [ 75.95752, 29.73061 ], [ 75.95485, 29.73193 ], [ 75.9527, 29.73116 ], [ 75.95073, 29.73193 ], [ 75.94734, 29.72938 ], [ 75.94113, 29.73154 ], [ 75.93869, 29.73066 ], [ 75.92936, 29.73554 ], [ 75.92239, 29.73766 ], [ 75.91992, 29.7397 ], [ 75.91944, 29.74133 ], [ 75.91497, 29.74302 ], [ 75.91528, 29.74707 ], [ 75.91461, 29.74796 ], [ 75.90631, 29.75333 ], [ 75.9027, 29.75162 ], [ 75.90469, 29.75 ], [ 75.90448, 29.74892 ], [ 75.9008, 29.74888 ], [ 75.90073, 29.74781 ], [ 75.89889, 29.74789 ], [ 75.89884, 29.74624 ], [ 75.88595, 29.74538 ], [ 75.8845, 29.74951 ], [ 75.88238, 29.751 ], [ 75.87025, 29.7493 ], [ 75.86925, 29.75197 ], [ 75.87036, 29.75754 ], [ 75.86822, 29.76038 ], [ 75.86674, 29.76653 ], [ 75.85971, 29.768 ], [ 75.85832, 29.7708 ], [ 75.85339, 29.77136 ], [ 75.85141, 29.7727 ], [ 75.85356, 29.77638 ], [ 75.85291, 29.77804 ], [ 75.84583, 29.78227 ], [ 75.84368, 29.78984 ], [ 75.84049, 29.78865 ], [ 75.83701, 29.79425 ], [ 75.83799, 29.7971 ], [ 75.83544, 29.80319 ], [ 75.83493, 29.80879 ], [ 75.83527, 29.81045 ], [ 75.83776, 29.81302 ], [ 75.83484, 29.81446 ], [ 75.83411, 29.81335 ], [ 75.83278, 29.81342 ], [ 75.8303, 29.81178 ], [ 75.82801, 29.81378 ], [ 75.82596, 29.81423 ], [ 75.82649, 29.81625 ], [ 75.83061, 29.82109 ], [ 75.83321, 29.82559 ], [ 75.82209, 29.83363 ], [ 75.81834, 29.83903 ], [ 75.8169, 29.83991 ], [ 75.81735, 29.84162 ], [ 75.81664, 29.84303 ], [ 75.81769, 29.84518 ], [ 75.81702, 29.84638 ], [ 75.81795, 29.84917 ], [ 75.82034, 29.85406 ], [ 75.82664, 29.8607 ], [ 75.83387, 29.8637 ], [ 75.84026, 29.86821 ], [ 75.84668, 29.86569 ], [ 75.84933, 29.86351 ], [ 75.85239, 29.86359 ], [ 75.85641, 29.85922 ], [ 75.85699, 29.85704 ], [ 75.85785, 29.85691 ], [ 75.85938, 29.85868 ], [ 75.86108, 29.85915 ], [ 75.86289, 29.85704 ], [ 75.86242, 29.85443 ], [ 75.86477, 29.85226 ], [ 75.86935, 29.856 ], [ 75.86991, 29.85836 ], [ 75.87311, 29.85996 ], [ 75.87307, 29.86086 ], [ 75.87823, 29.86818 ], [ 75.8771, 29.86943 ], [ 75.87587, 29.87534 ], [ 75.87602, 29.87879 ], [ 75.87366, 29.87986 ], [ 75.87467, 29.88213 ], [ 75.87448, 29.88318 ], [ 75.87345, 29.88327 ], [ 75.87308, 29.8857 ], [ 75.87222, 29.8866 ], [ 75.87114, 29.88568 ], [ 75.869, 29.88611 ], [ 75.86729, 29.88766 ], [ 75.86435, 29.88858 ], [ 75.86239, 29.8882 ], [ 75.86358, 29.89226 ], [ 75.86751, 29.89052 ], [ 75.86803, 29.88924 ], [ 75.86916, 29.88881 ], [ 75.87877, 29.89004 ], [ 75.88016, 29.8891 ], [ 75.8832, 29.89025 ], [ 75.88358, 29.89356 ], [ 75.89025, 29.8954 ], [ 75.89393, 29.89798 ], [ 75.90085, 29.90651 ], [ 75.91086, 29.91561 ], [ 75.91212, 29.91767 ], [ 75.91658, 29.91613 ], [ 75.91876, 29.91621 ], [ 75.92695, 29.91254 ], [ 75.93032, 29.90986 ] ] ] } },
{ "type": "Feature", "properties": { "OBJECTID": 2310, "state_lgd": "03", "state_name": "PUNJAB", "district_lgd": "053", "district_name": "SANGRUR", "district_name_source": "district_table", "subdistrict_lgd": "06486", "subdistrict_name": "Dirba", "subdistrict_type": "Tehsil", "name_corrupted": false, "remarks": "", "label_lon": 75.994905025392896, "label_lat": 30.058604498774532 }, "geometry": { "type": "MultiPolygon", "coordinates": [ [ [ [ 76.06554, 30.02864 ], [ 76.06316, 30.03145 ], [ 76.06572, 30.03237 ], [ 76.06733, 30.02955 ], [ 76.06554, 30.02864 ] ] ], [ [ [ 76.06042, 30.05609 ], [ 76.0625, 30.05583 ], [ 76.0614, 30.05389 ], [ 76.06239, 30.05078 ], [ 76.06131, 30.04926 ], [ 76.05902, 30.05161 ], [ 76.05635, 30.05254 ], [ 76.05688, 30.05664 ], [ 76.05892, 30.05734 ], [ 76.05948, 30.05691 ], [ 76.05901, 30.05598 ], [ 76.05987, 30.05546 ], [ 76.06042, 30.05609 ] ] ], [ [ [ 75.99756, 30.14344 ], [ 76.00214, 30.14028 ], [ 76.00579, 30.14183 ], [ 76.01177, 30.14271 ], [ 76.01121, 30.14664 ], [ 76.01284, 30.1492 ], [ 76.01795, 30.15313 ], [ 76.03412, 30.14112 ], [ 76.0372, 30.13935 ], [ 76.03927, 30.14105 ], [ 76.0488, 30.13531 ], [ 76.04874, 30.13366 ], [ 76.04733, 30.1317 ], [ 76.05141, 30.12787 ], [ 76.052, 30.12892 ], [ 76.05151, 30.12958 ], [ 76.05304, 30.13158 ], [ 76.06079, 30.13953 ], [ 76.06229, 30.1443 ], [ 76.06477, 30.14339 ], [ 76.06904, 30.1438 ], [ 76.07054, 30.14041 ], [ 76.07567, 30.13745 ], [ 76.07838, 30.13689 ], [ 76.08026, 30.13132 ], [ 76.0742, 30.13139 ], [ 76.07419, 30.12911 ], [ 76.07199, 30.12614 ], [ 76.07177, 30.12433 ], [ 76.07375, 30.12177 ], [ 76.08144, 30.12239 ], [ 76.08358, 30.11973 ], [ 76.08061, 30.11553 ], [ 76.07775, 30.115 ], [ 76.07732, 30.11331 ], [ 76.07801, 30.11178 ], [ 76.07915, 30.11064 ], [ 76.09329, 30.11635 ], [ 76.09674, 30.11629 ], [ 76.09815, 30.11334 ], [ 76.10366, 30.10736 ], [ 76.1048, 30.10418 ], [ 76.10359, 30.10222 ], [ 76.10084, 30.10062 ], [ 76.09866, 30.09241 ], [ 76.09494, 30.08941 ], [ 76.08914, 30.0801 ], [ 76.08897, 30.07893 ], [ 76.09152, 30.07429 ], [ 76.0811, 30.06376 ], [ 76.08384, 30.06137 ], [ 76.08733, 30.05457 ], [ 76.08036, 30.05562 ], [ 76.07084, 30.05979 ], [ 76.06591, 30.05505 ], [ 76.06457, 30.05645 ], [ 76.06651, 30.06115 ], [ 76.0644, 30.06252 ], [ 76.06219, 30.06305 ], [ 76.05689, 30.06655 ], [ 76.05531, 30.06529 ], [ 76.05135, 30.06427 ], [ 76.0524, 30.06097 ], [ 76.04358, 30.05238 ], [ 76.05069, 30.05023 ], [ 76.05173, 30.04891 ], [ 76.0506, 30.04763 ], [ 76.04758, 30.04915 ], [ 76.04283, 30.0478 ], [ 76.04149, 30.04813 ], [ 76.03952, 30.04246 ], [ 76.04194, 30.04197 ], [ 76.03759, 30.03793 ], [ 76.03829, 30.03558 ], [ 76.04405, 30.0318 ], [ 76.04203, 30.02744 ], [ 76.03727, 30.02124 ], [ 76.03416, 30.01864 ], [ 76.02863, 30.02032 ], [ 76.02746, 30.01805 ], [ 76.02863, 30.01676 ], [ 76.02672, 30.01288 ], [ 76.03209, 30.01166 ], [ 76.03205, 30.01058 ], [ 76.01547, 30.00048 ], [ 76.01104, 29.99077 ], [ 76.00788, 29.98757 ], [ 76.00682, 29.98334 ], [ 76.00819, 29.98176 ], [ 76.02164, 29.97648 ], [ 76.02721, 29.97189 ], [ 76.02067, 29.96624 ], [ 76.02515, 29.96312 ], [ 76.02597, 29.9633 ], [ 76.02636, 29.9598 ], [ 76.02576, 29.95894 ], [ 76.022, 29.95798 ], [ 76.01869, 29.95503 ], [ 76.01484, 29.95328 ], [ 76.01189, 29.94927 ], [ 76.00765, 29.94755 ], [ 76.00353, 29.94476 ], [ 76.00098, 29.94508 ], [ 75.9959, 29.94837 ], [ 75.9952, 29.95042 ], [ 75.99781, 29.9535 ], [ 75.99639, 29.9551 ], [ 75.99484, 29.9549 ], [ 75.98435, 29.94785 ], [ 75.98467, 29.94698 ], [ 75.9829, 29.94625 ], [ 75.98014, 29.94171 ], [ 75.97733, 29.94126 ], [ 75.97249, 29.94348 ], [ 75.97061, 29.94556 ], [ 75.96859, 29.9456 ], [ 75.96451, 29.94848 ], [ 75.96268, 29.94667 ], [ 75.96102, 29.94712 ], [ 75.95306, 29.95357 ], [ 75.94465, 29.94879 ], [ 75.93908, 29.94662 ], [ 75.93648, 29.94732 ], [ 75.92889, 29.94547 ], [ 75.92702, 29.9488 ], [ 75.92777, 29.95161 ], [ 75.92263, 29.95346 ], [ 75.92117, 29.95547 ], [ 75.92728, 29.95817 ], [ 75.92866, 29.9626 ], [ 75.92651, 29.96783 ], [ 75.92238, 29.97103 ], [ 75.9268, 29.97354 ], [ 75.92823, 29.97305 ], [ 75.92996, 29.9736 ], [ 75.93064, 29.97662 ], [ 75.93161, 29.97745 ], [ 75.93434, 29.97583 ], [ 75.9411, 29.98035 ], [ 75.93846, 29.98291 ], [ 75.93955, 29.98423 ], [ 75.93936, 29.98776 ], [ 75.93841, 29.98896 ], [ 75.93917, 29.99191 ], [ 75.93019, 29.99997 ], [ 75.93063, 30.00215 ], [ 75.92993, 30.00553 ], [ 75.93076, 30.00772 ], [ 75.92968, 30.00968 ], [ 75.93051, 30.01863 ], [ 75.93441, 30.02377 ], [ 75.93337, 30.02458 ], [ 75.93436, 30.02573 ], [ 75.93431, 30.02834 ], [ 75.93252, 30.0293 ], [ 75.93699, 30.03321 ], [ 75.93635, 30.03483 ], [ 75.93771, 30.03664 ], [ 75.93739, 30.03825 ], [ 75.93457, 30.0414 ], [ 75.93364, 30.04078 ], [ 75.92973, 30.04411 ], [ 75.92453, 30.05012 ], [ 75.9205, 30.05117 ], [ 75.91033, 30.05855 ], [ 75.90542, 30.06083 ], [ 75.91208, 30.06823 ], [ 75.917, 30.07143 ], [ 75.92567, 30.08356 ], [ 75.91659, 30.09037 ], [ 75.92231, 30.09861 ], [ 75.92447, 30.10559 ], [ 75.93483, 30.10858 ], [ 75.93851, 30.1133 ], [ 75.9438, 30.12615 ], [ 75.94926, 30.13611 ], [ 75.94952, 30.13697 ], [ 75.94835, 30.13839 ], [ 75.9518, 30.14439 ], [ 75.95464, 30.14297 ], [ 75.95798, 30.14372 ], [ 75.95884, 30.14256 ], [ 75.9656, 30.14308 ], [ 75.9678, 30.14173 ], [ 75.97149, 30.14523 ], [ 75.9709, 30.14826 ], [ 75.97381, 30.15529 ], [ 75.97745, 30.16158 ], [ 75.98012, 30.16462 ], [ 75.99499, 30.15044 ], [ 75.99698, 30.14816 ], [ 75.99638, 30.1474 ], [ 75.99756, 30.14344 ] ] ] ] } },
{ "type": "Feature", "properties": { "OBJECTID": 2392, "state_lgd": "03", "state_name": "PUNJAB", "district_lgd": "053", "district_name": "SANGRUR", "district_name_source": "district_table", "subdistrict_lgd": "00270", "subdistrict_name": "Dhuri", "subdistrict_type": "Tehsil", "name_corrupted": false, "remarks": "", "label_lon": 75.8049004093413, "label_lat": 30.394638576506257 }, "geometry": { "type": "Polygon", "coordinates": [ [ [ 75.71361, 30.54065 ], [ 75.71664, 30.54033 ], [ 75.72104, 30.54175 ], [ 75.72368, 30.53967 ], [ 75.72569, 30.53948 ], [ 75.73192, 30.535 ], [ 75.72988, 30.53338 ], [ 75.73116, 30.53215 ], [ 75.72888, 30.5298 ], [ 75.72997, 30.52933 ], [ 75.72984, 30.52832 ], [ 75.72682, 30.5235 ], [ 75.72652, 30.52001 ], [ 75.72734, 30.51893 ], [ 75.72674, 30.51843 ], [ 75.73036, 30.51361 ], [ 75.73611, 30.51283 ], [ 75.74209, 30.51628 ], [ 75.74489, 30.51249 ], [ 75.74843, 30.51338 ], [ 75.75353, 30.5119 ], [ 75.75611, 30.51233 ], [ 75.75785, 30.51367 ], [ 75.76069, 30.5118 ], [ 75.76171, 30.51239 ], [ 75.76228, 30.51128 ], [ 75.76586, 30.51081 ], [ 75.76785, 30.50916 ], [ 75.76963, 30.50945 ], [ 75.7701, 30.50802 ], [ 75.77169, 30.50826 ], [ 75.77707, 30.50324 ], [ 75.77997, 30.50377 ], [ 75.78264, 30.50048 ], [ 75.78181, 30.5 ], [ 75.79099, 30.49899 ], [ 75.79607, 30.49509 ], [ 75.79819, 30.49529 ], [ 75.8014, 30.49344 ], [ 75.8046, 30.48702 ], [ 75.79915, 30.4844 ], [ 75.80255, 30.4722 ], [ 75.80214, 30.46611 ], [ 75.80083, 30.46355 ], [ 75.80292, 30.4626 ], [ 75.80364, 30.46143 ], [ 75.80289, 30.4591 ], [ 75.80621, 30.45544 ], [ 75.80356, 30.449 ], [ 75.80416, 30.44631 ], [ 75.80488, 30.44637 ], [ 75.80452, 30.44427 ], [ 75.80723, 30.44194 ], [ 75.81108, 30.43573 ], [ 75.81192, 30.43729 ], [ 75.81878, 30.43222 ], [ 75.82792, 30.43355 ], [ 75.82783, 30.43539 ], [ 75.82883, 30.43616 ], [ 75.84412, 30.44446 ], [ 75.84683, 30.44724 ], [ 75.84968, 30.4487 ], [ 75.85302, 30.44534 ], [ 75.85369, 30.44364 ], [ 75.86113, 30.43895 ], [ 75.86934, 30.44006 ], [ 75.87396, 30.442 ], [ 75.87508, 30.44505 ], [ 75.88215, 30.4544 ], [ 75.88193, 30.45583 ], [ 75.88362, 30.45695 ], [ 75.88846, 30.45691 ], [ 75.8937, 30.45445 ], [ 75.89878, 30.45408 ], [ 75.90134, 30.45271 ], [ 75.90547, 30.45352 ], [ 75.90553, 30.45794 ], [ 75.9062, 30.45912 ], [ 75.90955, 30.46084 ], [ 75.91323, 30.46424 ], [ 75.91282, 30.46677 ], [ 75.91583, 30.47263 ], [ 75.91981, 30.4723 ], [ 75.92091, 30.47291 ], [ 75.92223, 30.47643 ], [ 75.92183, 30.47786 ], [ 75.92783, 30.48594 ], [ 75.93615, 30.47807 ], [ 75.94398, 30.47314 ], [ 75.94036, 30.47287 ], [ 75.93158, 30.46854 ], [ 75.92631, 30.46726 ], [ 75.92026, 30.46346 ], [ 75.92701, 30.45068 ], [ 75.92783, 30.44624 ], [ 75.93256, 30.44482 ], [ 75.93727, 30.44495 ], [ 75.94269, 30.448 ], [ 75.95335, 30.458 ], [ 75.95507, 30.45844 ], [ 75.95819, 30.45667 ], [ 75.96069, 30.46002 ], [ 75.96177, 30.45936 ], [ 75.96538, 30.46147 ], [ 75.9685, 30.45881 ], [ 75.97001, 30.45852 ], [ 75.96969, 30.45795 ], [ 75.97068, 30.45725 ], [ 75.96999, 30.45565 ], [ 75.97417, 30.45022 ], [ 75.97654, 30.45072 ], [ 75.97932, 30.44836 ], [ 75.98541, 30.44559 ], [ 75.98487, 30.44429 ], [ 75.9897, 30.43971 ], [ 75.99197, 30.4355 ], [ 76.00104, 30.43186 ], [ 76.00492, 30.43201 ], [ 76.00183, 30.42781 ], [ 76.00157, 30.42426 ], [ 75.99485, 30.41992 ], [ 75.99191, 30.41626 ], [ 75.98829, 30.41438 ], [ 75.99083, 30.40404 ], [ 75.99558, 30.39891 ], [ 75.9905, 30.39526 ], [ 75.99239, 30.39359 ], [ 75.99132, 30.39176 ], [ 75.99509, 30.38955 ], [ 75.99614, 30.38979 ], [ 76.00337, 30.38147 ], [ 76.01072, 30.3804 ], [ 76.01414, 30.38176 ], [ 76.01357, 30.37611 ], [ 76.0126, 30.37438 ], [ 76.00905, 30.37201 ], [ 76.00729, 30.36864 ], [ 76.00703, 30.36535 ], [ 76.0101, 30.3651 ], [ 76.01073, 30.3642 ], [ 75.99677, 30.36486 ], [ 75.99231, 30.37197 ], [ 75.99035, 30.36895 ], [ 75.98929, 30.36873 ], [ 75.9858, 30.36313 ], [ 75.98483, 30.3629 ], [ 75.98412, 30.36088 ], [ 75.98067, 30.36322 ], [ 75.98114, 30.36567 ], [ 75.98043, 30.3671 ], [ 75.97435, 30.36696 ], [ 75.97035, 30.36785 ], [ 75.96586, 30.3657 ], [ 75.96677, 30.3645 ], [ 75.96573, 30.36348 ], [ 75.96898, 30.35956 ], [ 75.97058, 30.35421 ], [ 75.96818, 30.35183 ], [ 75.9744, 30.34679 ], [ 75.97669, 30.34387 ], [ 75.97666, 30.34248 ], [ 75.97792, 30.34055 ], [ 75.97583, 30.33887 ], [ 75.97215, 30.33827 ], [ 75.9707, 30.33748 ], [ 75.97034, 30.33575 ], [ 75.96096, 30.33137 ], [ 75.96187, 30.32857 ], [ 75.96135, 30.32447 ], [ 75.96371, 30.32101 ], [ 75.96379, 30.31759 ], [ 75.95799, 30.30874 ], [ 75.95494, 30.31129 ], [ 75.95252, 30.30959 ], [ 75.95376, 30.30631 ], [ 75.95022, 30.30482 ], [ 75.95019, 30.30343 ], [ 75.9492, 30.30256 ], [ 75.94665, 30.30239 ], [ 75.94425, 30.30454 ], [ 75.94275, 30.30463 ], [ 75.93329, 30.29885 ], [ 75.92902, 30.29868 ], [ 75.92368, 30.30259 ], [ 75.90935, 30.30994 ], [ 75.90954, 30.3117 ], [ 75.90749, 30.31403 ], [ 75.91017, 30.31677 ], [ 75.90429, 30.32683 ], [ 75.90492, 30.32996 ], [ 75.903, 30.33774 ], [ 75.90296, 30.33889 ], [ 75.90727, 30.34302 ], [ 75.90773, 30.34409 ], [ 75.90698, 30.34482 ], [ 75.89569, 30.34218 ], [ 75.87721, 30.3392 ], [ 75.8735, 30.33493 ], [ 75.87191, 30.32897 ], [ 75.8695, 30.32525 ], [ 75.87003, 30.32391 ], [ 75.86903, 30.32092 ], [ 75.86672, 30.3176 ], [ 75.86606, 30.315 ], [ 75.86309, 30.31361 ], [ 75.85994, 30.31086 ], [ 75.85258, 30.30853 ], [ 75.8482, 30.30844 ], [ 75.84591, 30.30953 ], [ 75.83531, 30.30045 ], [ 75.83221, 30.29536 ], [ 75.83078, 30.29492 ], [ 75.8264, 30.29735 ], [ 75.82258, 30.29707 ], [ 75.81911, 30.30075 ], [ 75.81675, 30.30018 ], [ 75.81333, 30.30207 ], [ 75.81123, 30.30108 ], [ 75.80868, 30.30195 ], [ 75.8063, 30.30354 ], [ 75.8074, 30.3052 ], [ 75.80401, 30.30699 ], [ 75.79895, 30.3081 ], [ 75.79495, 30.30572 ], [ 75.7914, 30.30177 ], [ 75.78956, 30.30219 ], [ 75.78383, 30.29896 ], [ 75.78336, 30.29697 ], [ 75.78105, 30.29402 ], [ 75.77268, 30.29153 ], [ 75.76633, 30.29121 ], [ 75.76092, 30.28615 ], [ 75.75777, 30.28651 ], [ 75.75568, 30.28544 ], [ 75.75084, 30.28818 ], [ 75.7485, 30.28753 ], [ 75.74433, 30.28537 ], [ 75.74209, 30.28176 ], [ 75.73192, 30.27434 ], [ 75.72659, 30.27864 ], [ 75.71631, 30.28327 ], [ 75.70848, 30.28382 ], [ 75.70583, 30.28496 ], [ 75.70489, 30.28303 ], [ 75.70092, 30.28402 ], [ 75.69221, 30.28411 ], [ 75.6908, 30.28488 ], [ 75.69007, 30.28414 ], [ 75.68146, 30.28684 ], [ 75.67891, 30.28667 ], [ 75.67197, 30.28967 ], [ 75.66507, 30.29525 ], [ 75.66017, 30.30551 ], [ 75.65677, 30.30956 ], [ 75.65551, 30.31005 ], [ 75.65601, 30.31091 ], [ 75.65537, 30.31202 ], [ 75.65821, 30.31646 ], [ 75.65348, 30.32512 ], [ 75.65359, 30.32651 ], [ 75.65193, 30.3296 ], [ 75.65002, 30.33098 ], [ 75.65388, 30.33562 ], [ 75.65399, 30.33722 ], [ 75.65626, 30.3379 ], [ 75.65852, 30.33752 ], [ 75.66284, 30.33448 ], [ 75.66755, 30.33473 ], [ 75.67399, 30.3409 ], [ 75.68191, 30.34574 ], [ 75.68028, 30.34753 ], [ 75.68367, 30.35038 ], [ 75.68396, 30.35143 ], [ 75.68245, 30.35319 ], [ 75.67888, 30.35448 ], [ 75.67697, 30.35665 ], [ 75.67741, 30.35956 ], [ 75.6763, 30.36051 ], [ 75.67599, 30.36388 ], [ 75.67768, 30.36669 ], [ 75.67659, 30.36836 ], [ 75.67749, 30.36944 ], [ 75.67535, 30.37234 ], [ 75.67756, 30.37567 ], [ 75.67729, 30.3789 ], [ 75.67365, 30.3809 ], [ 75.67396, 30.38221 ], [ 75.67326, 30.38263 ], [ 75.66884, 30.38389 ], [ 75.66592, 30.38791 ], [ 75.66676, 30.39003 ], [ 75.66641, 30.39369 ], [ 75.66705, 30.39397 ], [ 75.66649, 30.39606 ], [ 75.66446, 30.39841 ], [ 75.67038, 30.40306 ], [ 75.66779, 30.40767 ], [ 75.66473, 30.41054 ], [ 75.66497, 30.41186 ], [ 75.66927, 30.41681 ], [ 75.66995, 30.42009 ], [ 75.66702, 30.42123 ], [ 75.66592, 30.42444 ], [ 75.66064, 30.42849 ], [ 75.65533, 30.42836 ], [ 75.65237, 30.43544 ], [ 75.64932, 30.43605 ], [ 75.64973, 30.43807 ], [ 75.64638, 30.44069 ], [ 75.65363, 30.44805 ], [ 75.65435, 30.44832 ], [ 75.65829, 30.44408 ], [ 75.6646, 30.44788 ], [ 75.66896, 30.45228 ], [ 75.67277, 30.45887 ], [ 75.67295, 30.47065 ], [ 75.67536, 30.4725 ], [ 75.66784, 30.47405 ], [ 75.66478, 30.47321 ], [ 75.66318, 30.4756 ], [ 75.66331, 30.47701 ], [ 75.65802, 30.48081 ], [ 75.65738, 30.48494 ], [ 75.65975, 30.489 ], [ 75.65936, 30.49038 ], [ 75.66042, 30.49124 ], [ 75.65875, 30.49565 ], [ 75.6619, 30.49767 ], [ 75.66584, 30.49829 ], [ 75.66817, 30.49783 ], [ 75.67099, 30.49903 ], [ 75.67105, 30.5003 ], [ 75.67304, 30.50148 ], [ 75.6756, 30.50504 ], [ 75.67692, 30.50501 ], [ 75.67858, 30.50676 ], [ 75.68027, 30.51041 ], [ 75.67704, 30.52114 ], [ 75.68244, 30.52214 ], [ 75.68305, 30.52492 ], [ 75.68623, 30.5275 ], [ 75.68561, 30.52882 ], [ 75.68938, 30.53298 ], [ 75.69093, 30.53661 ], [ 75.69303, 30.53791 ], [ 75.69412, 30.53706 ], [ 75.69503, 30.53767 ], [ 75.69566, 30.53704 ], [ 75.69907, 30.5374 ], [ 75.70036, 30.53913 ], [ 75.70157, 30.53929 ], [ 75.70141, 30.54108 ], [ 75.70981, 30.54517 ], [ 75.71361, 30.54065 ] ] ] } },
{ "type": "Feature", "properties": { "OBJECTID": 2394, "state_lgd": "03", "state_name": "PUNJAB", "district_lgd": "053", "district_name": "SANGRUR", "district_name_source": "district_table", "subdistrict_lgd": "00271", "subdistrict_name": "Sangrur", "subdistrict_type": "Tehsil", "name_corrupted": false, "remarks": "", "label_lon": 75.784026987220784, "label_lat": 30.228176641961589 }, "geometry": { "type": "MultiPolygon", "coordinates": [ [ [ [ 76.02245, 30.18313 ], [ 76.03312, 30.17301 ], [ 76.03661, 30.16635 ], [ 76.03609, 30.16528 ], [ 76.03196, 30.16256 ], [ 76.02647, 30.16088 ], [ 76.02517, 30.16264 ], [ 76.02175, 30.16223 ], [ 76.01947, 30.16458 ], [ 76.01622, 30.16591 ], [ 76.01506, 30.16802 ], [ 76.00847, 30.17114 ], [ 76.00669, 30.17746 ], [ 76.00709, 30.17898 ], [ 76.0078, 30.17883 ], [ 76.01029, 30.18142 ], [ 76.01565, 30.18472 ], [ 76.01942, 30.18442 ], [ 76.02245, 30.18313 ] ] ], [ [ [ 75.90935, 30.30994 ], [ 75.92368, 30.30259 ], [ 75.92959, 30.29851 ], [ 75.9347, 30.29925 ], [ 75.94275, 30.30463 ], [ 75.94425, 30.30454 ], [ 75.94665, 30.30239 ], [ 75.9492, 30.30256 ], [ 75.95019, 30.30343 ], [ 75.95022, 30.30482 ], [ 75.95376, 30.30631 ], [ 75.95252, 30.30959 ], [ 75.95494, 30.31129 ], [ 75.9576, 30.30874 ], [ 75.95837, 30.30912 ], [ 75.95862, 30.30793 ], [ 75.96279, 30.30336 ], [ 75.96468, 30.30424 ], [ 75.96909, 30.30357 ], [ 75.97584, 30.30108 ], [ 75.97945, 30.29854 ], [ 75.98149, 30.29692 ], [ 75.98055, 30.29162 ], [ 75.97389, 30.27847 ], [ 75.96361, 30.26678 ], [ 75.96253, 30.2593 ], [ 75.95856, 30.25522 ], [ 75.95473, 30.25301 ], [ 75.95243, 30.24777 ], [ 75.94833, 30.2462 ], [ 75.94832, 30.24481 ], [ 75.94644, 30.24427 ], [ 75.94568, 30.2395 ], [ 75.94672, 30.23815 ], [ 75.94321, 30.23778 ], [ 75.94321, 30.23639 ], [ 75.94116, 30.23349 ], [ 75.94146, 30.23076 ], [ 75.93948, 30.22877 ], [ 75.93375, 30.22862 ], [ 75.93375, 30.22749 ], [ 75.93189, 30.22497 ], [ 75.92918, 30.22572 ], [ 75.92874, 30.22261 ], [ 75.92576, 30.22149 ], [ 75.92417, 30.21806 ], [ 75.92589, 30.21741 ], [ 75.92643, 30.21586 ], [ 75.92495, 30.21446 ], [ 75.92507, 30.21275 ], [ 75.92439, 30.21205 ], [ 75.92659, 30.20931 ], [ 75.93114, 30.20851 ], [ 75.93211, 30.20593 ], [ 75.93106, 30.20395 ], [ 75.92866, 30.2039 ], [ 75.92547, 30.20072 ], [ 75.92727, 30.19614 ], [ 75.92916, 30.19593 ], [ 75.92879, 30.19434 ], [ 75.93011, 30.19182 ], [ 75.92852, 30.18721 ], [ 75.92749, 30.18611 ], [ 75.9216, 30.18668 ], [ 75.91992, 30.18847 ], [ 75.91581, 30.18406 ], [ 75.91128, 30.18107 ], [ 75.91015, 30.1816 ], [ 75.89828, 30.17384 ], [ 75.89661, 30.17345 ], [ 75.89406, 30.17424 ], [ 75.89067, 30.17325 ], [ 75.89097, 30.17108 ], [ 75.88626, 30.16503 ], [ 75.88411, 30.16373 ], [ 75.87535, 30.1617 ], [ 75.8751, 30.15722 ], [ 75.87442, 30.15683 ], [ 75.86586, 30.15698 ], [ 75.85855, 30.15619 ], [ 75.85188, 30.15281 ], [ 75.85161, 30.14944 ], [ 75.85026, 30.14885 ], [ 75.84888, 30.15032 ], [ 75.84683, 30.14935 ], [ 75.84575, 30.15104 ], [ 75.84463, 30.15627 ], [ 75.84072, 30.16083 ], [ 75.83235, 30.1673 ], [ 75.83163, 30.17147 ], [ 75.82854, 30.17338 ], [ 75.83123, 30.1855 ], [ 75.82868, 30.18814 ], [ 75.82308, 30.18768 ], [ 75.82018, 30.18147 ], [ 75.81791, 30.18209 ], [ 75.81634, 30.18159 ], [ 75.81512, 30.17912 ], [ 75.81308, 30.17924 ], [ 75.81256, 30.17854 ], [ 75.81388, 30.17701 ], [ 75.81302, 30.17524 ], [ 75.8117, 30.17569 ], [ 75.80634, 30.17338 ], [ 75.80714, 30.16888 ], [ 75.80657, 30.16831 ], [ 75.80313, 30.1693 ], [ 75.79896, 30.16918 ], [ 75.7979, 30.17237 ], [ 75.79706, 30.1735 ], [ 75.79601, 30.17274 ], [ 75.79452, 30.17342 ], [ 75.79474, 30.17453 ], [ 75.79029, 30.18083 ], [ 75.78579, 30.18006 ], [ 75.78359, 30.18163 ], [ 75.77911, 30.18192 ], [ 75.77483, 30.1839 ], [ 75.77035, 30.18617 ], [ 75.76255, 30.1924 ], [ 75.76054, 30.19199 ], [ 75.75974, 30.19368 ], [ 75.75667, 30.19595 ], [ 75.75447, 30.19886 ], [ 75.75106, 30.19991 ], [ 75.75032, 30.19944 ], [ 75.74455, 30.20197 ], [ 75.74447, 30.20334 ], [ 75.743, 30.203 ], [ 75.74301, 30.20168 ], [ 75.74172, 30.20001 ], [ 75.73737, 30.1985 ], [ 75.73754, 30.19703 ], [ 75.73651, 30.19749 ], [ 75.73413, 30.19444 ], [ 75.72754, 30.19286 ], [ 75.73399, 30.18715 ], [ 75.73695, 30.18609 ], [ 75.73943, 30.18405 ], [ 75.73881, 30.17821 ], [ 75.73933, 30.17827 ], [ 75.73946, 30.17656 ], [ 75.73572, 30.17511 ], [ 75.7406, 30.17065 ], [ 75.73721, 30.16785 ], [ 75.73145, 30.16465 ], [ 75.72315, 30.17087 ], [ 75.71789, 30.17271 ], [ 75.71282, 30.17651 ], [ 75.70493, 30.18071 ], [ 75.70139, 30.17871 ], [ 75.70574, 30.17144 ], [ 75.7023, 30.17044 ], [ 75.69868, 30.16756 ], [ 75.69375, 30.16772 ], [ 75.69229, 30.16703 ], [ 75.68949, 30.16025 ], [ 75.68486, 30.15845 ], [ 75.68448, 30.1567 ], [ 75.67919, 30.15211 ], [ 75.67838, 30.14858 ], [ 75.67537, 30.1493 ], [ 75.67415, 30.14582 ], [ 75.672, 30.14657 ], [ 75.67169, 30.14909 ], [ 75.66979, 30.14909 ], [ 75.66769, 30.15063 ], [ 75.66661, 30.14835 ], [ 75.66461, 30.14747 ], [ 75.65812, 30.14797 ], [ 75.65461, 30.14314 ], [ 75.65363, 30.13979 ], [ 75.64955, 30.14061 ], [ 75.64026, 30.14423 ], [ 75.63938, 30.14547 ], [ 75.63329, 30.14839 ], [ 75.63232, 30.14962 ], [ 75.62903, 30.14706 ], [ 75.62544, 30.14267 ], [ 75.61498, 30.14047 ], [ 75.60972, 30.13854 ], [ 75.60557, 30.13594 ], [ 75.59386, 30.14067 ], [ 75.59162, 30.13918 ], [ 75.58959, 30.14049 ], [ 75.58719, 30.14073 ], [ 75.58611, 30.14203 ], [ 75.58205, 30.14386 ], [ 75.57706, 30.144 ], [ 75.57833, 30.14897 ], [ 75.57443, 30.15152 ], [ 75.57479, 30.15438 ], [ 75.57604, 30.15602 ], [ 75.5618, 30.17028 ], [ 75.56268, 30.17175 ], [ 75.55953, 30.17645 ], [ 75.55791, 30.17737 ], [ 75.55562, 30.17719 ], [ 75.55675, 30.18008 ], [ 75.55897, 30.18181 ], [ 75.55635, 30.18332 ], [ 75.55982, 30.18704 ], [ 75.55841, 30.18767 ], [ 75.55877, 30.18924 ], [ 75.55648, 30.19009 ], [ 75.55695, 30.19304 ], [ 75.55535, 30.19423 ], [ 75.5573, 30.19573 ], [ 75.55707, 30.19666 ], [ 75.55791, 30.19702 ], [ 75.5574, 30.1978 ], [ 75.55864, 30.19833 ], [ 75.55769, 30.20075 ], [ 75.55806, 30.20187 ], [ 75.56193, 30.20126 ], [ 75.5633, 30.20247 ], [ 75.56836, 30.20244 ], [ 75.56801, 30.20296 ], [ 75.57249, 30.20534 ], [ 75.57093, 30.20697 ], [ 75.57598, 30.20892 ], [ 75.58067, 30.21268 ], [ 75.58051, 30.21567 ], [ 75.58271, 30.21522 ], [ 75.58367, 30.21605 ], [ 75.58523, 30.21589 ], [ 75.58504, 30.21946 ], [ 75.58068, 30.22213 ], [ 75.58019, 30.22391 ], [ 75.58344, 30.22789 ], [ 75.58696, 30.22753 ], [ 75.58626, 30.22657 ], [ 75.58952, 30.22536 ], [ 75.59228, 30.22237 ], [ 75.5961, 30.22189 ], [ 75.60983, 30.21724 ], [ 75.61098, 30.21771 ], [ 75.6132, 30.2171 ], [ 75.61834, 30.21814 ], [ 75.61909, 30.22081 ], [ 75.6316, 30.22882 ], [ 75.6339, 30.2284 ], [ 75.64244, 30.2318 ], [ 75.64521, 30.23456 ], [ 75.64651, 30.23448 ], [ 75.64877, 30.23809 ], [ 75.65078, 30.23712 ], [ 75.65414, 30.23768 ], [ 75.65935, 30.23634 ], [ 75.66357, 30.23701 ], [ 75.6702, 30.2363 ], [ 75.67535, 30.23692 ], [ 75.67532, 30.23809 ], [ 75.68101, 30.23999 ], [ 75.68225, 30.23765 ], [ 75.68621, 30.23516 ], [ 75.69173, 30.23015 ], [ 75.69219, 30.23119 ], [ 75.69151, 30.23288 ], [ 75.6887, 30.2371 ], [ 75.6872, 30.23688 ], [ 75.68797, 30.23997 ], [ 75.69169, 30.23941 ], [ 75.69011, 30.24071 ], [ 75.69251, 30.24326 ], [ 75.69499, 30.24185 ], [ 75.69786, 30.24189 ], [ 75.69809, 30.24362 ], [ 75.69701, 30.24413 ], [ 75.69912, 30.24565 ], [ 75.69866, 30.24738 ], [ 75.7, 30.2487 ], [ 75.6994, 30.25103 ], [ 75.70044, 30.25307 ], [ 75.70447, 30.25255 ], [ 75.70666, 30.25436 ], [ 75.71201, 30.25547 ], [ 75.71585, 30.2592 ], [ 75.71876, 30.26019 ], [ 75.71851, 30.26147 ], [ 75.72092, 30.26495 ], [ 75.7192, 30.26697 ], [ 75.71913, 30.26828 ], [ 75.72069, 30.27149 ], [ 75.72391, 30.2742 ], [ 75.72904, 30.27237 ], [ 75.73, 30.27285 ], [ 75.73042, 30.27461 ], [ 75.73114, 30.2751 ], [ 75.73192, 30.27434 ], [ 75.74209, 30.28176 ], [ 75.74433, 30.28537 ], [ 75.75026, 30.28822 ], [ 75.75568, 30.28544 ], [ 75.75777, 30.28651 ], [ 75.76092, 30.28615 ], [ 75.76633, 30.29121 ], [ 75.77268, 30.29153 ], [ 75.78105, 30.29402 ], [ 75.78336, 30.29697 ], [ 75.78383, 30.29896 ], [ 75.78956, 30.30219 ], [ 75.7914, 30.30177 ], [ 75.79495, 30.30572 ], [ 75.79895, 30.3081 ], [ 75.80613, 30.30597 ], [ 75.8074, 30.3052 ], [ 75.80642, 30.30334 ], [ 75.81088, 30.30111 ], [ 75.81333, 30.30207 ], [ 75.81675, 30.30018 ], [ 75.81911, 30.30075 ], [ 75.82287, 30.29692 ], [ 75.8264, 30.29735 ], [ 75.8302, 30.29492 ], [ 75.83221, 30.29536 ], [ 75.83531, 30.30045 ], [ 75.84591, 30.30953 ], [ 75.8482, 30.30844 ], [ 75.85258, 30.30853 ], [ 75.85994, 30.31086 ], [ 75.86309, 30.31361 ], [ 75.86606, 30.315 ], [ 75.86672, 30.3176 ], [ 75.86903, 30.32092 ], [ 75.87003, 30.32391 ], [ 75.8695, 30.32525 ], [ 75.87191, 30.32897 ], [ 75.8735, 30.33493 ], [ 75.87721, 30.3392 ], [ 75.90746, 30.3447 ], [ 75.90727, 30.34302 ], [ 75.90296, 30.33889 ], [ 75.903, 30.33774 ], [ 75.90492, 30.32996 ], [ 75.90429, 30.32683 ], [ 75.91017, 30.31677 ], [ 75.90749, 30.31403 ], [ 75.90954, 30.3117 ], [ 75.90935, 30.30994 ] ] ] ] } },
{ "type": "Feature", "properties": { "OBJECTID": 2401, "state_lgd": "03", "state_name": "PUNJAB", "district_lgd": "053", "district_name": "SANGRUR", "district_name_source": "district_table", "subdistrict_lgd": "00272", "subdistrict_name": "Sunam", "subdistrict_type": "Tehsil", "name_corrupted": false, "remarks": "", "label_lon": 75.789563477742149, "label_lat": 30.086218866810722 }, "geometry": { "type": "MultiPolygon", "coordinates": [ [ [ [ 75.75032, 30.19944 ], [ 75.75106, 30.19991 ], [ 75.75447, 30.19886 ], [ 75.75667, 30.19595 ], [ 75.75974, 30.19368 ], [ 75.76054, 30.19199 ], [ 75.76255, 30.1924 ], [ 75.77035, 30.18617 ], [ 75.77483, 30.1839 ], [ 75.77911, 30.18192 ], [ 75.78359, 30.18163 ], [ 75.78579, 30.18006 ], [ 75.79029, 30.18083 ], [ 75.79474, 30.17453 ], [ 75.79452, 30.17342 ], [ 75.79601, 30.17274 ], [ 75.79706, 30.1735 ], [ 75.7979, 30.17237 ], [ 75.79896, 30.16918 ], [ 75.80313, 30.1693 ], [ 75.80595, 30.16802 ], [ 75.80714, 30.16888 ], [ 75.80634, 30.17338 ], [ 75.8117, 30.17569 ], [ 75.81302, 30.17524 ], [ 75.81388, 30.17701 ], [ 75.81256, 30.17854 ], [ 75.81308, 30.17924 ], [ 75.81512, 30.17912 ], [ 75.81634, 30.18159 ], [ 75.81791, 30.18209 ], [ 75.82018, 30.18147 ], [ 75.82308, 30.18768 ], [ 75.82868, 30.18814 ], [ 75.83123, 30.1855 ], [ 75.82854, 30.17338 ], [ 75.83163, 30.17147 ], [ 75.83235, 30.1673 ], [ 75.84072, 30.16083 ], [ 75.84463, 30.15627 ], [ 75.84575, 30.15104 ], [ 75.84683, 30.14935 ], [ 75.84888, 30.15032 ], [ 75.85026, 30.14885 ], [ 75.85161, 30.14944 ], [ 75.85188, 30.15281 ], [ 75.85855, 30.15619 ], [ 75.86586, 30.15698 ], [ 75.87442, 30.15683 ], [ 75.8751, 30.15722 ], [ 75.87535, 30.1617 ], [ 75.88411, 30.16373 ], [ 75.88626, 30.16503 ], [ 75.89097, 30.17108 ], [ 75.89067, 30.17325 ], [ 75.89406, 30.17424 ], [ 75.89661, 30.17345 ], [ 75.89828, 30.17384 ], [ 75.91015, 30.1816 ], [ 75.91128, 30.18107 ], [ 75.91497, 30.1837 ], [ 75.91633, 30.1829 ], [ 75.92011, 30.17668 ], [ 75.92472, 30.17387 ], [ 75.9288, 30.17407 ], [ 75.9304, 30.17597 ], [ 75.93107, 30.17017 ], [ 75.93048, 30.16925 ], [ 75.93106, 30.16869 ], [ 75.93013, 30.16763 ], [ 75.93084, 30.16637 ], [ 75.92999, 30.16538 ], [ 75.9299, 30.16247 ], [ 75.931, 30.15346 ], [ 75.93298, 30.15145 ], [ 75.93909, 30.14796 ], [ 75.95067, 30.14337 ], [ 75.94835, 30.13839 ], [ 75.94952, 30.13697 ], [ 75.93719, 30.11143 ], [ 75.93483, 30.10858 ], [ 75.92447, 30.10559 ], [ 75.92231, 30.09861 ], [ 75.91659, 30.09037 ], [ 75.92567, 30.08356 ], [ 75.917, 30.07143 ], [ 75.91208, 30.06823 ], [ 75.90542, 30.06083 ], [ 75.91033, 30.05855 ], [ 75.9205, 30.05117 ], [ 75.92453, 30.05012 ], [ 75.92973, 30.04411 ], [ 75.93364, 30.04078 ], [ 75.93457, 30.0414 ], [ 75.93739, 30.03825 ], [ 75.93771, 30.03664 ], [ 75.93635, 30.03483 ], [ 75.93699, 30.03321 ], [ 75.93252, 30.0293 ], [ 75.93431, 30.02834 ], [ 75.93436, 30.02573 ], [ 75.93337, 30.02458 ], [ 75.93441, 30.02377 ], [ 75.93051, 30.01863 ], [ 75.92968, 30.00968 ], [ 75.93076, 30.00772 ], [ 75.92993, 30.00553 ], [ 75.93063, 30.00215 ], [ 75.93019, 29.99997 ], [ 75.93917, 29.99191 ], [ 75.93841, 29.98896 ], [ 75.93936, 29.98776 ], [ 75.93955, 29.98423 ], [ 75.93846, 29.98291 ], [ 75.9411, 29.98035 ], [ 75.93434, 29.97583 ], [ 75.93161, 29.97745 ], [ 75.93064, 29.97662 ], [ 75.92996, 29.9736 ], [ 75.92823, 29.97305 ], [ 75.9268, 29.97354 ], [ 75.92238, 29.97103 ], [ 75.91741, 29.97307 ], [ 75.91823, 29.9772 ], [ 75.90912, 29.9801 ], [ 75.90689, 29.97737 ], [ 75.90575, 29.97373 ], [ 75.90274, 29.97107 ], [ 75.89838, 29.97694 ], [ 75.89792, 29.97967 ], [ 75.89536, 29.97975 ], [ 75.89309, 29.98156 ], [ 75.89677, 29.98643 ], [ 75.89452, 29.98974 ], [ 75.90032, 29.9977 ], [ 75.90098, 29.99985 ], [ 75.90044, 30.00308 ], [ 75.90184, 30.00417 ], [ 75.89494, 30.01157 ], [ 75.89426, 30.01089 ], [ 75.8887, 30.0163 ], [ 75.88318, 30.01927 ], [ 75.88285, 30.02067 ], [ 75.88397, 30.02426 ], [ 75.87739, 30.02642 ], [ 75.87727, 30.02967 ], [ 75.8763, 30.03098 ], [ 75.88036, 30.03588 ], [ 75.87855, 30.03719 ], [ 75.8777, 30.03589 ], [ 75.87377, 30.03499 ], [ 75.8738, 30.03296 ], [ 75.87244, 30.03132 ], [ 75.86946, 30.0315 ], [ 75.86945, 30.02946 ], [ 75.86707, 30.02682 ], [ 75.86035, 30.02311 ], [ 75.85872, 30.01056 ], [ 75.85536, 30.00831 ], [ 75.85524, 30.00981 ], [ 75.85294, 30.00859 ], [ 75.85196, 30.00724 ], [ 75.85249, 30.00609 ], [ 75.84827, 30.00246 ], [ 75.845, 30.00221 ], [ 75.84081, 30.01127 ], [ 75.83888, 30.00895 ], [ 75.83575, 30.00963 ], [ 75.83509, 30.00856 ], [ 75.83411, 30.00856 ], [ 75.83399, 30.01059 ], [ 75.83154, 30.01016 ], [ 75.83133, 30.01145 ], [ 75.82708, 30.01112 ], [ 75.82603, 30.00904 ], [ 75.8271, 30.0077 ], [ 75.82525, 30.00529 ], [ 75.82671, 30.00415 ], [ 75.82478, 30.00234 ], [ 75.82467, 29.99996 ], [ 75.82205, 29.99565 ], [ 75.81636, 29.98914 ], [ 75.80271, 29.99295 ], [ 75.80122, 29.99504 ], [ 75.79889, 29.99534 ], [ 75.79484, 29.99972 ], [ 75.79408, 29.9996 ], [ 75.79104, 29.99403 ], [ 75.79095, 29.9915 ], [ 75.78824, 29.98864 ], [ 75.7854, 29.98296 ], [ 75.77423, 29.98086 ], [ 75.77417, 29.97812 ], [ 75.77098, 29.97537 ], [ 75.76779, 29.97629 ], [ 75.75914, 29.97577 ], [ 75.75424, 29.9764 ], [ 75.75046, 29.98139 ], [ 75.72789, 29.99812 ], [ 75.72398, 30.00574 ], [ 75.71582, 30.00375 ], [ 75.71189, 29.99788 ], [ 75.70929, 29.99059 ], [ 75.70453, 29.99275 ], [ 75.7055, 30.00356 ], [ 75.70246, 30.00542 ], [ 75.70105, 30.00434 ], [ 75.69726, 30.0054 ], [ 75.69372, 30.00537 ], [ 75.68827, 30.00734 ], [ 75.6877, 30.00829 ], [ 75.69003, 30.01406 ], [ 75.68647, 30.01629 ], [ 75.68774, 30.0235 ], [ 75.68229, 30.02572 ], [ 75.68132, 30.02458 ], [ 75.67383, 30.03198 ], [ 75.67758, 30.03528 ], [ 75.67762, 30.03661 ], [ 75.67982, 30.03739 ], [ 75.67963, 30.03812 ], [ 75.67229, 30.04013 ], [ 75.67063, 30.03465 ], [ 75.65803, 30.0364 ], [ 75.65359, 30.03171 ], [ 75.65247, 30.02815 ], [ 75.64974, 30.0239 ], [ 75.64771, 30.02348 ], [ 75.64162, 30.02488 ], [ 75.64083, 30.02734 ], [ 75.63839, 30.02953 ], [ 75.64021, 30.03174 ], [ 75.64217, 30.03775 ], [ 75.64239, 30.04156 ], [ 75.6362, 30.0446 ], [ 75.63627, 30.04569 ], [ 75.6353, 30.04661 ], [ 75.63575, 30.04906 ], [ 75.6377, 30.0525 ], [ 75.63883, 30.06282 ], [ 75.64034, 30.06552 ], [ 75.63276, 30.06994 ], [ 75.6368, 30.07338 ], [ 75.62234, 30.08473 ], [ 75.62429, 30.08778 ], [ 75.63457, 30.09327 ], [ 75.6416, 30.10156 ], [ 75.64436, 30.10313 ], [ 75.64586, 30.10249 ], [ 75.64704, 30.10303 ], [ 75.65487, 30.11479 ], [ 75.64909, 30.11487 ], [ 75.64718, 30.11246 ], [ 75.64061, 30.11574 ], [ 75.63735, 30.11489 ], [ 75.63604, 30.11631 ], [ 75.6346, 30.11583 ], [ 75.63531, 30.11695 ], [ 75.63332, 30.11954 ], [ 75.63418, 30.1205 ], [ 75.62832, 30.12476 ], [ 75.6286, 30.12572 ], [ 75.63034, 30.1262 ], [ 75.63028, 30.12699 ], [ 75.62863, 30.12772 ], [ 75.62798, 30.12896 ], [ 75.62579, 30.12917 ], [ 75.62472, 30.13119 ], [ 75.62404, 30.1343 ], [ 75.62658, 30.13453 ], [ 75.62769, 30.13551 ], [ 75.62673, 30.1375 ], [ 75.62558, 30.13796 ], [ 75.6271, 30.14008 ], [ 75.62544, 30.14267 ], [ 75.62903, 30.14706 ], [ 75.63232, 30.14962 ], [ 75.63329, 30.14839 ], [ 75.63938, 30.14547 ], [ 75.64026, 30.14423 ], [ 75.64955, 30.14061 ], [ 75.65363, 30.13979 ], [ 75.65414, 30.14223 ], [ 75.65761, 30.14761 ], [ 75.66586, 30.14784 ], [ 75.6672, 30.15066 ], [ 75.66979, 30.14909 ], [ 75.67169, 30.14909 ], [ 75.672, 30.14657 ], [ 75.67415, 30.14582 ], [ 75.67537, 30.1493 ], [ 75.67838, 30.14858 ], [ 75.67919, 30.15211 ], [ 75.68448, 30.1567 ], [ 75.68486, 30.15845 ], [ 75.68949, 30.16025 ], [ 75.69229, 30.16703 ], [ 75.69375, 30.16772 ], [ 75.69868, 30.16756 ], [ 75.7023, 30.17044 ], [ 75.70574, 30.17144 ], [ 75.70139, 30.17871 ], [ 75.70493, 30.18071 ], [ 75.71282, 30.17651 ], [ 75.71789, 30.17271 ], [ 75.72315, 30.17087 ], [ 75.73145, 30.16465 ], [ 75.73378, 30.16549 ], [ 75.7406, 30.17065 ], [ 75.73572, 30.17511 ], [ 75.73946, 30.17656 ], [ 75.73933, 30.17827 ], [ 75.73881, 30.17821 ], [ 75.73943, 30.18405 ], [ 75.73695, 30.18609 ], [ 75.73399, 30.18715 ], [ 75.72754, 30.19286 ], [ 75.73413, 30.19444 ], [ 75.73651, 30.19749 ], [ 75.73754, 30.19703 ], [ 75.73737, 30.1985 ], [ 75.73862, 30.19946 ], [ 75.74041, 30.19921 ], [ 75.74172, 30.20001 ], [ 75.74301, 30.20168 ], [ 75.743, 30.203 ], [ 75.74379, 30.20325 ], [ 75.74447, 30.20334 ], [ 75.74455, 30.20197 ], [ 75.75032, 30.19944 ] ] ], [ [ [ 76.05262, 30.16917 ], [ 76.05502, 30.16976 ], [ 76.05643, 30.16821 ], [ 76.05652, 30.16587 ], [ 76.05815, 30.16372 ], [ 76.06346, 30.16111 ], [ 76.0665, 30.15873 ], [ 76.06827, 30.15533 ], [ 76.07322, 30.15265 ], [ 76.07368, 30.1519 ], [ 76.07298, 30.14982 ], [ 76.06908, 30.1469 ], [ 76.06267, 30.1487 ], [ 76.06412, 30.15182 ], [ 76.05989, 30.15365 ], [ 76.05516, 30.15695 ], [ 76.05342, 30.15564 ], [ 76.04376, 30.15326 ], [ 76.03956, 30.15647 ], [ 76.04134, 30.15887 ], [ 76.04139, 30.16172 ], [ 76.04279, 30.16387 ], [ 76.04274, 30.16656 ], [ 76.04489, 30.16914 ], [ 76.04862, 30.17067 ], [ 76.05262, 30.16917 ] ] ] ] } }
]
}
