{"type":"FeatureCollection","name":"IMPHAL WEST, MANIPUR - Sub-district boundaries","crs_note":"RFC 7946 WGS84 lon/lat (EPSG:4326); source CRS was LCC_WGS84","features":[{"type":"Feature","properties":{"OBJECTID":6003,"state_lgd":"14","state_name":"MANIPUR","district_lgd":"277","district_name":"IMPHAL WEST","district_name_source":"district_table","subdistrict_lgd":"1879","subdistrict_name":"LAMSANG","subdistrict_type":"","name_corrupted":false,"remarks":""},"geometry":{"type":"Polygon","coordinates":[[[93.880057,24.987569],[93.881045,24.986988],[93.882928,24.986115],[93.883471,24.985867],[93.883726,24.985867],[93.884173,24.986027],[93.884444,24.986115],[93.8847,24.986115],[93.885306,24.985984],[93.886204,24.986188],[93.886694,24.985741],[93.886927,24.985685],[93.887674,24.985741],[93.887767,24.985741],[93.88884,24.985018],[93.889245,24.984876],[93.889851,24.984677],[93.890122,24.984497],[93.890367,24.984334],[93.891078,24.98386],[93.8917,24.983747],[93.892446,24.983633],[93.892866,24.983406],[93.893691,24.982824],[93.894359,24.982697],[93.896064,24.982699],[93.897215,24.9826],[93.898288,24.982273],[93.898668,24.982221],[93.898771,24.982206],[93.899454,24.98231],[93.900025,24.982101],[93.900796,24.981294],[93.900968,24.980304],[93.901167,24.979367],[93.901053,24.978273],[93.901367,24.977569],[93.901795,24.977179],[93.902509,24.977126],[93.903223,24.976736],[93.903937,24.976241],[93.903962,24.976232],[93.904823,24.975928],[93.905537,24.975928],[93.906194,24.976318],[93.906508,24.976527],[93.906851,24.976292],[93.906851,24.975876],[93.906793,24.975094],[93.906853,24.974438],[93.906879,24.974157],[93.906936,24.97374],[93.90745,24.973505],[93.907833,24.973524],[93.907992,24.973531],[93.908707,24.973896],[93.909506,24.973948],[93.909906,24.973557],[93.91082,24.973062],[93.912019,24.972827],[93.91299,24.973088],[93.913819,24.972905],[93.913905,24.972752],[93.91411,24.972389],[93.914109,24.971504],[93.914109,24.970904],[93.913795,24.970488],[93.913109,24.970228],[93.91171,24.969655],[93.910253,24.96916],[93.909168,24.969265],[93.908254,24.969577],[93.907569,24.969525],[93.906997,24.969421],[93.906455,24.969057],[93.906312,24.968692],[93.906512,24.968406],[93.906769,24.968067],[93.907511,24.967598],[93.908339,24.967181],[93.908699,24.96693],[93.908825,24.966843],[93.909196,24.9664],[93.909167,24.965879],[93.909053,24.965254],[93.908824,24.964733],[93.908281,24.964212],[93.907567,24.964134],[93.906654,24.964447],[93.90548,24.964715],[93.905397,24.964734],[93.90494,24.96476],[93.904683,24.964473],[93.904597,24.964109],[93.90464,24.96402],[93.904745,24.9638],[93.904973,24.962654],[93.905001,24.96156],[93.904887,24.961065],[93.904659,24.960909],[93.904059,24.960935],[93.903428,24.961112],[93.903316,24.961143],[93.902888,24.961248],[93.90246,24.961404],[93.902088,24.961248],[93.901946,24.960492],[93.90186,24.958982],[93.901828,24.958754],[93.901774,24.958357],[93.901517,24.957992],[93.901003,24.957992],[93.900306,24.958247],[93.900146,24.958305],[93.899632,24.958123],[93.899322,24.957919],[93.898918,24.957654],[93.898718,24.957289],[93.89829,24.956925],[93.89749,24.957107],[93.897316,24.957251],[93.89689,24.957602],[93.895691,24.957628],[93.894691,24.956951],[93.893835,24.956274],[93.893006,24.95591],[93.891789,24.955391],[93.891038,24.954542],[93.890449,24.953824],[93.890265,24.953395],[93.890374,24.952967],[93.890439,24.952817],[93.890627,24.952384],[93.890963,24.951639],[93.891236,24.950922],[93.891236,24.950285],[93.890993,24.949676],[93.890478,24.949044],[93.889839,24.948046],[93.88978,24.947658],[93.889809,24.947396],[93.89025,24.94676],[93.890735,24.946029],[93.890765,24.9456],[93.890626,24.945171],[93.890111,24.944386],[93.889066,24.94346],[93.887497,24.9423],[93.886843,24.941727],[93.886754,24.941353],[93.886676,24.941035],[93.886571,24.940608],[93.886586,24.939782],[93.88669,24.93924],[93.887492,24.938522],[93.888447,24.938121],[93.889466,24.937863],[93.891051,24.937461],[93.891888,24.937299],[93.89263,24.937199],[93.893007,24.937312],[93.893447,24.937506],[93.893858,24.937976],[93.894522,24.938567],[93.895309,24.939149],[93.895928,24.939298],[93.89617,24.93919],[93.896522,24.938982],[93.8967,24.938607],[93.8967,24.937781],[93.896764,24.937366],[93.897259,24.936703],[93.897502,24.936314],[93.897501,24.935655],[93.897323,24.935168],[93.89608,24.933782],[93.895521,24.932762],[93.895521,24.932387],[93.895549,24.932304],[93.895625,24.932085],[93.895882,24.93185],[93.89661,24.931656],[93.896665,24.931661],[93.897788,24.931769],[93.899496,24.932549],[93.901209,24.933299],[93.90263,24.933754],[93.903783,24.933754],[93.904323,24.933578],[93.90458,24.933303],[93.90463,24.933009],[93.904491,24.932142],[93.90452,24.931244],[93.904697,24.930836],[93.904778,24.930648],[93.905322,24.930098],[93.906579,24.929474],[93.908109,24.929086],[93.908257,24.929086],[93.908426,24.929172],[93.908515,24.929393],[93.908515,24.929763],[93.908079,24.930499],[93.907243,24.931627],[93.907124,24.931921],[93.907124,24.93235],[93.907214,24.932557],[93.907441,24.933528],[93.907531,24.9343],[93.90758,24.935171],[93.90767,24.93532],[93.907942,24.9355],[93.909016,24.935802],[93.909105,24.935929],[93.909105,24.936231],[93.908561,24.937102],[93.908561,24.937405],[93.908819,24.937793],[93.909304,24.938321],[93.909304,24.938678],[93.908547,24.939549],[93.908423,24.940032],[93.908577,24.940601],[93.909092,24.94158],[93.909196,24.942244],[93.909196,24.942867],[93.909211,24.943697],[93.909498,24.944099],[93.909652,24.944347],[93.909593,24.945105],[93.909637,24.945421],[93.909865,24.94585],[93.910499,24.946653],[93.911073,24.946996],[93.912331,24.947592],[93.912648,24.947813],[93.912816,24.948129],[93.913049,24.949032],[93.913277,24.949569],[93.913748,24.950137],[93.914174,24.950715],[93.914263,24.95123],[93.914446,24.951753],[93.914942,24.952376],[93.915442,24.952746],[93.91567,24.953175],[93.91567,24.953712],[93.91567,24.954267],[93.915853,24.954569],[93.916438,24.954903],[93.917225,24.955418],[93.91777,24.955874],[93.918027,24.956356],[93.918109,24.956932],[93.918181,24.957444],[93.918528,24.959281],[93.918573,24.959891],[93.918875,24.960383],[93.919569,24.960644],[93.920024,24.960779],[93.920208,24.961073],[93.920237,24.961362],[93.919812,24.962134],[93.919663,24.962495],[93.919827,24.962811],[93.920144,24.963059],[93.920694,24.96342],[93.921357,24.963957],[93.921977,24.964981],[93.922913,24.966227],[93.923443,24.966877],[93.924231,24.968158],[93.924503,24.968614],[93.924672,24.968641],[93.92487,24.968587],[93.925275,24.968208],[93.925518,24.967684],[93.925651,24.966894],[93.925968,24.965928],[93.92613,24.965314],[93.926136,24.965292],[93.926136,24.964781],[93.926349,24.964425],[93.92668,24.964352],[93.927284,24.964465],[93.927874,24.964907],[93.927885,24.964916],[93.928874,24.965706],[93.929934,24.966617],[93.931103,24.967628],[93.931554,24.967804],[93.931722,24.967804],[93.931906,24.967709],[93.931826,24.967334],[93.931053,24.965376],[93.930389,24.964423],[93.930178,24.963951],[93.929775,24.963051],[93.92915,24.962032],[93.928744,24.961287],[93.927169,24.960182],[93.927001,24.960042],[93.926986,24.959793],[93.927183,24.959351],[93.927515,24.958674],[93.927515,24.958535],[93.927515,24.958398],[93.927213,24.957803],[93.926881,24.957112],[93.926791,24.956697],[93.926608,24.956214],[93.926048,24.955853],[93.925231,24.955203],[93.925003,24.954874],[93.925062,24.954224],[93.924973,24.953922],[93.924503,24.953163],[93.924076,24.952062],[93.923318,24.95078],[93.923303,24.950433],[93.923412,24.950031],[93.924199,24.948929],[93.924303,24.948428],[93.924258,24.948085],[93.923911,24.947422],[93.922579,24.945861],[93.922292,24.945251],[93.922204,24.945068],[93.921687,24.943983],[93.921687,24.943098],[93.921474,24.942489],[93.921142,24.941744],[93.921171,24.941261],[93.921414,24.940625],[93.921826,24.940075],[93.922047,24.939781],[93.922047,24.939446],[93.921988,24.939198],[93.921827,24.939011],[93.921334,24.93844],[93.92123,24.938151],[93.92123,24.937862],[93.921423,24.937212],[93.921472,24.936919],[93.921576,24.936215],[93.921744,24.935845],[93.921966,24.935682],[93.922407,24.935361],[93.922828,24.93482],[93.922922,24.934458],[93.923055,24.933908],[93.922886,24.932856],[93.922634,24.932125],[93.922149,24.931333],[93.921965,24.931033],[93.921876,24.930771],[93.921935,24.930162],[93.922241,24.929134],[93.922375,24.928685],[93.922449,24.928243],[93.922493,24.927304],[93.922721,24.926929],[93.922884,24.926862],[93.923251,24.926862],[93.923944,24.926983],[93.924325,24.926983],[93.924523,24.926929],[93.924523,24.926586],[93.924324,24.926035],[93.924141,24.925593],[93.924186,24.925453],[93.924339,24.925372],[93.924552,24.925372],[93.924824,24.925733],[93.925126,24.925922],[93.925354,24.925868],[93.925488,24.925674],[93.925473,24.925579],[93.9252,24.925137],[93.924656,24.924667],[93.924185,24.924185],[93.923898,24.923702],[93.923749,24.922925],[93.923506,24.922402],[93.923234,24.922154],[93.921858,24.921445],[93.921269,24.92103],[93.921085,24.920687],[93.9211,24.920407],[93.92113,24.920037],[93.921085,24.919802],[93.920674,24.919234],[93.920659,24.918823],[93.920872,24.918101],[93.921144,24.917442],[93.921114,24.91704],[93.920965,24.916386],[93.920752,24.915072],[93.920692,24.91481],[93.920465,24.914716],[93.919786,24.914562],[93.919253,24.914471],[93.918029,24.91426],[93.917346,24.914012],[93.917183,24.913805],[93.91724,24.913308],[93.917242,24.913294],[93.918147,24.912188],[93.918617,24.911525],[93.918697,24.911177],[93.918694,24.911172],[93.91869,24.911158],[93.918686,24.911148],[93.918685,24.911145],[93.918685,24.911145],[93.918547,24.910772],[93.918547,24.910772],[93.918507,24.910768],[93.918495,24.910767],[93.918409,24.91076],[93.917512,24.910685],[93.916338,24.910265],[93.914242,24.91056],[93.912285,24.910707],[93.909983,24.910603],[93.909763,24.910551],[93.909059,24.910385],[93.908948,24.910359],[93.907312,24.909973],[93.905331,24.909553],[93.902914,24.909281],[93.900979,24.908945],[93.899391,24.908903],[93.898805,24.908835],[93.898513,24.908802],[93.898358,24.908784],[93.897572,24.908693],[93.897111,24.908483],[93.89695,24.908126],[93.89695,24.907685],[93.897203,24.907307],[93.89771,24.906824],[93.898009,24.905962],[93.898239,24.903883],[93.898745,24.902013],[93.898791,24.900837],[93.898814,24.899828],[93.899044,24.89861],[93.899486,24.897921],[93.899854,24.896891],[93.900337,24.89645],[93.901419,24.89582],[93.902501,24.895126],[93.903307,24.894076],[93.904181,24.892984],[93.905245,24.891773],[93.905245,24.89168],[93.905185,24.890813],[93.905121,24.890714],[93.905012,24.890674],[93.904873,24.890773],[93.904052,24.891567],[93.90374,24.891622],[93.903493,24.891536],[93.903384,24.891324],[93.903384,24.891039],[93.903691,24.890629],[93.904024,24.890148],[93.904094,24.890047],[93.904596,24.889324],[93.904809,24.888687],[93.904779,24.888417],[93.90467,24.888191],[93.904343,24.888033],[93.903344,24.887871],[93.902884,24.887406],[93.902725,24.886923],[93.902725,24.886693],[93.90276,24.886494],[93.902898,24.886354],[93.903254,24.886155],[93.90411,24.885817],[93.904576,24.885447],[93.90504,24.884467],[93.905134,24.884241],[93.905308,24.884142],[93.906223,24.883659],[93.906441,24.883474],[93.906624,24.883135],[93.906594,24.882891],[93.906282,24.88244],[93.90618,24.882328],[93.906154,24.882299],[93.905837,24.881948],[93.905837,24.881763],[93.905867,24.881712],[93.905896,24.881664],[93.905059,24.880558],[93.903996,24.88026],[93.902988,24.880161],[93.902171,24.880434],[93.9013,24.880957],[93.900374,24.881901],[93.899148,24.883443],[93.898031,24.884611],[93.897323,24.885481],[93.897078,24.885382],[93.896833,24.885009],[93.896451,24.884263],[93.896508,24.883217],[93.896453,24.882745],[93.896153,24.879986],[93.895772,24.877475],[93.895172,24.874989],[93.894409,24.872503],[93.893101,24.870117],[93.891576,24.867556],[93.89019,24.865169],[93.889264,24.864051],[93.887221,24.861615],[93.886803,24.861067],[93.88668,24.860906],[93.885532,24.859402],[93.883925,24.857065],[93.882564,24.855052],[93.880793,24.852516],[93.879486,24.850403],[93.878449,24.848141],[93.877523,24.846923],[93.876325,24.84481],[93.875208,24.843119],[93.875072,24.842448],[93.875399,24.841827],[93.875699,24.840608],[93.875726,24.838819],[93.87559,24.837203],[93.875943,24.834319],[93.875877,24.834019],[93.875789,24.833626],[93.875589,24.832728],[93.875181,24.831361],[93.874037,24.829297],[93.872975,24.827582],[93.872186,24.82532],[93.872023,24.823828],[93.87205,24.821392],[93.872349,24.81938],[93.872295,24.818336],[93.872376,24.817267],[93.872676,24.815825],[93.872758,24.814781],[93.873357,24.813836],[93.873738,24.81314],[93.873956,24.81232],[93.874092,24.811151],[93.874092,24.809386],[93.874609,24.807149],[93.874936,24.805334],[93.87578,24.803892],[93.876651,24.802474],[93.877181,24.80138],[93.877417,24.800949],[93.876821,24.800639],[93.876059,24.800241],[93.874986,24.80054],[93.87123,24.801186],[93.868889,24.801931],[93.86633,24.802229],[93.863772,24.80208],[93.860179,24.801384],[93.85713,24.801035],[93.856922,24.801009],[93.85657,24.800966],[93.853918,24.800637],[93.851251,24.800189],[93.847876,24.800337],[93.844936,24.800287],[93.841316,24.800485],[93.837287,24.800683],[93.832333,24.801178],[93.829666,24.801376],[93.827161,24.801425],[93.824712,24.801623],[93.820356,24.802168],[93.817525,24.802565],[93.815838,24.802365],[93.813388,24.801718],[93.81132,24.800723],[93.809469,24.800722],[93.807673,24.80087],[93.805332,24.80077],[93.802066,24.80047],[93.798963,24.800518],[93.796676,24.800467],[93.795701,24.800265],[93.79559,24.800242],[93.793791,24.799869],[93.791124,24.799668],[93.788457,24.799567],[93.786769,24.799516],[93.785953,24.799218],[93.784809,24.800062],[93.782934,24.8009],[93.782846,24.80094],[93.782918,24.802917],[93.782868,24.80303],[93.782716,24.803373],[93.782631,24.803566],[93.781869,24.804288],[93.781676,24.804577],[93.781824,24.804952],[93.782397,24.805656],[93.782866,24.806239],[93.782895,24.806803],[93.782989,24.807119],[93.78335,24.807426],[93.783651,24.807426],[93.784349,24.807179],[93.784893,24.807066],[93.7856,24.807107],[93.785892,24.807482],[93.786751,24.809297],[93.787037,24.809875],[93.78719,24.810263],[93.786933,24.810566],[93.786052,24.811328],[93.785809,24.811657],[93.785764,24.812181],[93.785823,24.81312],[93.785535,24.814059],[93.785535,24.81442],[93.785866,24.81488],[93.78733,24.815721],[93.787858,24.816398],[93.788387,24.817229],[93.788416,24.817644],[93.78798,24.818457],[93.788039,24.818858],[93.788267,24.819107],[93.788959,24.819468],[93.789349,24.819843],[93.789636,24.820548],[93.790228,24.82225],[93.791073,24.823189],[93.791676,24.823921],[93.792506,24.824558],[93.795142,24.825665],[93.796279,24.826397],[93.797594,24.827449],[93.798108,24.828059],[93.798498,24.829832],[93.798557,24.8301],[93.798754,24.830488],[93.799323,24.830885],[93.800476,24.831277],[93.801242,24.831536],[93.802557,24.832241],[93.80364,24.832332],[93.804501,24.832473],[93.80544,24.832735],[93.806226,24.833245],[93.80724,24.834681],[93.807739,24.835219],[93.807932,24.835404],[93.808614,24.835806],[93.808673,24.83586],[93.808673,24.835986],[93.80852,24.836496],[93.80852,24.836677],[93.808717,24.837323],[93.808944,24.838207],[93.80932,24.838663],[93.809488,24.839119],[93.809804,24.839783],[93.809611,24.840135],[93.8097,24.840356],[93.809699,24.841449],[93.809682,24.841965],[93.809666,24.842429],[93.809639,24.843245],[93.809609,24.843688],[93.809771,24.844834],[93.809771,24.845317],[93.809622,24.845967],[93.809682,24.846242],[93.810364,24.847141],[93.810364,24.847543],[93.81021,24.84854],[93.810451,24.849642],[93.810693,24.850251],[93.810421,24.851371],[93.809287,24.852973],[93.809287,24.853347],[93.80942,24.854151],[93.809553,24.855379],[93.80934,24.856123],[93.809295,24.856358],[93.809404,24.856539],[93.810309,24.857203],[93.810808,24.858209],[93.810521,24.858503],[93.80957,24.859152],[93.808828,24.860077],[93.807827,24.861611],[93.807347,24.86325],[93.806861,24.864143],[93.806752,24.864793],[93.80692,24.86529],[93.807207,24.865777],[93.807795,24.866703],[93.808098,24.867505],[93.808259,24.86793],[93.808521,24.868622],[93.808986,24.869416],[93.809295,24.869942],[93.809831,24.870852],[93.810483,24.872013],[93.810691,24.87222],[93.811206,24.872306],[93.813022,24.872343],[93.814803,24.872218],[93.815065,24.872241],[93.815773,24.872304],[93.816391,24.872566],[93.817177,24.873257],[93.817993,24.874128],[93.818221,24.874625],[93.818255,24.875979],[93.817769,24.878105],[93.817694,24.879559],[93.817896,24.880376],[93.818217,24.881342],[93.818653,24.881798],[93.81938,24.882078],[93.819894,24.882367],[93.820364,24.882945],[93.82074,24.883929],[93.820848,24.884354],[93.820635,24.885225],[93.820579,24.885717],[93.820526,24.886177],[93.820679,24.887089],[93.820961,24.887261],[93.821372,24.887301],[93.821975,24.887563],[93.822306,24.887952],[93.822395,24.888796],[93.822593,24.889013],[93.822717,24.889265],[93.822703,24.889319],[93.822608,24.88969],[93.822503,24.890204],[93.82276,24.890936],[93.822909,24.891071],[93.823216,24.891071],[93.824107,24.890756],[93.824512,24.890783],[93.824784,24.890923],[93.825099,24.891234],[93.825497,24.891627],[93.825739,24.891957],[93.825783,24.892693],[93.826129,24.893853],[93.826416,24.894088],[93.827114,24.894422],[93.827371,24.894616],[93.827371,24.894806],[93.827113,24.895857],[93.826959,24.897085],[93.827458,24.89862],[93.82779,24.899261],[93.828195,24.899758],[93.828195,24.899952],[93.827804,24.900656],[93.827798,24.900691],[93.827695,24.901346],[93.827709,24.901717],[93.827952,24.902186],[93.82812,24.902656],[93.828288,24.903152],[93.828688,24.903808],[93.828965,24.904263],[93.829599,24.90541],[93.830068,24.906421],[93.830657,24.906917],[93.831038,24.907495],[93.831567,24.908245],[93.831597,24.908534],[93.831235,24.909581],[93.830487,24.910402],[93.830442,24.91076],[93.830398,24.911106],[93.830398,24.91131],[93.830398,24.91177],[93.83058,24.913454],[93.830684,24.914036],[93.831154,24.915083],[93.831243,24.91574],[93.831272,24.915959],[93.8314,24.916131],[93.831757,24.916609],[93.832979,24.917797],[93.833375,24.918736],[93.833721,24.919426],[93.833978,24.920478],[93.834186,24.920961],[93.834908,24.922094],[93.835378,24.922591],[93.836224,24.923341],[93.836664,24.924609],[93.836892,24.924844],[93.83808,24.925282],[93.838941,24.925409],[93.839985,24.925463],[93.841817,24.926195],[93.842331,24.926624],[93.843163,24.927509],[93.843965,24.927996],[93.844415,24.929017],[93.844692,24.929197],[93.845702,24.929378],[93.845989,24.929586],[93.846355,24.930498],[93.846488,24.93141],[93.846003,24.931725],[93.845473,24.932127],[93.84528,24.932335],[93.844918,24.933197],[93.84372,24.935846],[93.843388,24.936663],[93.843343,24.937272],[93.843343,24.937918],[93.843234,24.938238],[93.843833,24.939137],[93.844233,24.93999],[93.844466,24.940884],[93.844515,24.941741],[93.844436,24.942793],[93.844435,24.943344],[93.844202,24.944152],[93.844202,24.944608],[93.844474,24.945194],[93.845375,24.94607],[93.846484,24.946915],[93.847464,24.9477],[93.847677,24.948183],[93.847677,24.948684],[93.847419,24.94933],[93.846829,24.951144],[93.846947,24.952028],[93.847022,24.952593],[93.847448,24.954444],[93.847853,24.955121],[93.848933,24.955839],[93.849749,24.956173],[93.852037,24.956751],[93.853492,24.956973],[93.855988,24.957524],[93.858241,24.957727],[93.859449,24.957931],[93.860404,24.958238],[93.861706,24.958874],[93.862899,24.959714],[93.863642,24.960491],[93.864083,24.961303],[93.864454,24.962689],[93.864607,24.96305],[93.864969,24.963185],[93.86503,24.963202],[93.865835,24.96342],[93.866093,24.963669],[93.866093,24.963976],[93.865835,24.964404],[93.865623,24.96498],[93.865454,24.965438],[93.86535,24.966652],[93.865453,24.967704],[93.865661,24.968367],[93.866587,24.969889],[93.866978,24.970606],[93.867265,24.971753],[93.867404,24.973107],[93.867656,24.973622],[93.868142,24.974367],[93.868775,24.97605],[93.869077,24.976673],[93.8703,24.977896],[93.870875,24.978709],[93.871286,24.978971],[93.872242,24.97958],[93.872649,24.979845],[93.873284,24.981317],[93.873332,24.982216],[93.873341,24.982385],[93.873198,24.983661],[93.873198,24.985042],[93.873226,24.985823],[93.873398,24.986396],[93.874426,24.987386],[93.874854,24.987646],[93.875283,24.987698],[93.87614,24.987516],[93.876562,24.987561],[93.876713,24.987577],[93.876899,24.987597],[93.876966,24.987605],[93.877111,24.98762],[93.877939,24.987959],[93.878568,24.988402],[93.879367,24.988089],[93.880057,24.987569]]]}},{"type":"Feature","properties":{"OBJECTID":6006,"state_lgd":"14","state_name":"MANIPUR","district_lgd":"277","district_name":"IMPHAL WEST","district_name_source":"district_table","subdistrict_lgd":"1882","subdistrict_name":"WANGOI","subdistrict_type":"","name_corrupted":false,"remarks":""},"geometry":{"type":"Polygon","coordinates":[[[93.933023,24.767165],[93.932947,24.766702],[93.933444,24.766555],[93.933918,24.766495],[93.934371,24.766436],[93.936018,24.765947],[93.93648,24.765366],[93.935771,24.761834],[93.93562,24.761158],[93.935529,24.760702],[93.934982,24.758252],[93.934815,24.757438],[93.93447,24.755925],[93.934152,24.754448],[93.933683,24.752888],[93.93365,24.752791],[93.933581,24.752583],[93.933575,24.752565],[93.933512,24.752376],[93.933455,24.752205],[93.933381,24.751804],[93.933351,24.751338],[93.933351,24.750798],[93.933352,24.750798],[93.933446,24.750428],[93.933446,24.750427],[93.933542,24.750004],[93.93392,24.748344],[93.93402,24.748068],[93.934045,24.748001],[93.934091,24.747812],[93.93412,24.747695],[93.934156,24.747548],[93.93474,24.745165],[93.93493,24.744384],[93.935576,24.741615],[93.936193,24.739352],[93.936493,24.737862],[93.936932,24.736147],[93.937149,24.7353],[93.937489,24.733969],[93.938074,24.731548],[93.938311,24.730579],[93.939161,24.727172],[93.939806,24.724499],[93.940107,24.723385],[93.940512,24.721832],[93.940546,24.721701],[93.940973,24.720601],[93.941099,24.720255],[93.940523,24.719659],[93.9403,24.718883],[93.940191,24.718331],[93.940021,24.717864],[93.93951,24.717299],[93.939127,24.717022],[93.938844,24.716818],[93.937977,24.716238],[93.937265,24.715729],[93.936444,24.715503],[93.935422,24.715263],[93.934648,24.714938],[93.933759,24.714522],[93.93249,24.714183],[93.931143,24.713914],[93.930075,24.713731],[93.929022,24.71342],[93.92862,24.71324],[93.928326,24.713109],[93.927737,24.712218],[93.927257,24.711114],[93.926733,24.709822],[93.926408,24.709058],[93.926098,24.708323],[93.925757,24.707488],[93.925803,24.706187],[93.92579,24.705657],[93.925527,24.705318],[93.925062,24.704795],[93.92452,24.704455],[93.92387,24.704045],[93.923632,24.703988],[93.922926,24.703819],[93.922121,24.703749],[93.921997,24.70375],[93.921829,24.703753],[93.921146,24.703763],[93.920558,24.70382],[93.919962,24.70406],[93.919049,24.704498],[93.917981,24.705065],[93.917115,24.705461],[93.916635,24.705602],[93.915969,24.705419],[93.91552,24.704966],[93.915109,24.704268],[93.915087,24.704231],[93.914359,24.703354],[93.913991,24.702821],[93.913789,24.702199],[93.913263,24.701039],[93.912969,24.700402],[93.912504,24.699992],[93.911792,24.69978],[93.911026,24.699723],[93.91012,24.699874],[93.910005,24.699893],[93.90838,24.700346],[93.907281,24.700714],[93.906554,24.700813],[93.905378,24.700417],[93.904673,24.700154],[93.904433,24.700064],[93.90417,24.699752],[93.904031,24.699427],[93.904109,24.699023],[93.904202,24.698655],[93.904604,24.698061],[93.90513,24.697269],[93.905579,24.696646],[93.905981,24.695995],[93.906461,24.695231],[93.90694,24.694261],[93.907311,24.693257],[93.907327,24.692917],[93.907265,24.692564],[93.907017,24.692026],[93.906723,24.691347],[93.906319,24.69073],[93.905901,24.689754],[93.905374,24.688594],[93.904987,24.687434],[93.904802,24.686961],[93.904647,24.685801],[93.904786,24.685079],[93.905065,24.684556],[93.90556,24.683919],[93.906174,24.683572],[93.906778,24.683275],[93.907613,24.682851],[93.908181,24.682615],[93.908182,24.682615],[93.90832,24.682558],[93.90832,24.682558],[93.908667,24.682404],[93.908839,24.682326],[93.90886,24.682316],[93.909207,24.682157],[93.909423,24.681945],[93.909423,24.681662],[93.9093,24.681351],[93.909021,24.680997],[93.908557,24.68053],[93.90819,24.68011],[93.907648,24.679742],[93.90706,24.679657],[93.906425,24.679657],[93.905884,24.679572],[93.905435,24.679205],[93.904878,24.678512],[93.904429,24.677748],[93.904166,24.677012],[93.904115,24.676593],[93.904239,24.676041],[93.90461,24.675249],[93.904981,24.674853],[93.905337,24.674598],[93.905863,24.674527],[93.906405,24.674428],[93.907132,24.674555],[93.907999,24.674626],[93.908169,24.67464],[93.908571,24.674626],[93.908927,24.674484],[93.909438,24.6743],[93.910041,24.674031],[93.910613,24.673876],[93.911085,24.673768],[93.911642,24.673683],[93.912168,24.673627],[93.912741,24.67374],[93.913561,24.673909],[93.914211,24.673994],[93.914629,24.673923],[93.914953,24.67381],[93.915572,24.673329],[93.916176,24.672933],[93.916779,24.672579],[93.91732,24.672112],[93.917413,24.671843],[93.917398,24.67156],[93.91732,24.671136],[93.917075,24.670717],[93.916812,24.670321],[93.916363,24.669571],[93.915744,24.668779],[93.915188,24.667909],[93.914739,24.66723],[93.914321,24.66648],[93.914259,24.665801],[93.914445,24.665278],[93.914971,24.664782],[93.915837,24.664457],[93.916642,24.664287],[93.917508,24.664258],[93.918529,24.6644],[93.919427,24.664541],[93.919913,24.664615],[93.920501,24.664714],[93.921661,24.664855],[93.922543,24.664911],[93.923162,24.66484],[93.923827,24.664755],[93.925018,24.66426],[93.925668,24.663948],[93.926318,24.66358],[93.92703,24.663368],[93.927633,24.663254],[93.928244,24.663256],[93.928631,24.663482],[93.929653,24.664316],[93.930643,24.664981],[93.931541,24.665235],[93.931959,24.665291],[93.932423,24.66515],[93.932825,24.664895],[93.933242,24.664428],[93.933753,24.663933],[93.934263,24.66331],[93.934418,24.66273],[93.934389,24.662227],[93.934388,24.661463],[93.934388,24.660798],[93.934388,24.66019],[93.934392,24.659909],[93.934403,24.659171],[93.934557,24.658619],[93.934586,24.658244],[93.934648,24.657565],[93.93474,24.657013],[93.934678,24.656405],[93.934415,24.65591],[93.934059,24.65533],[93.933765,24.654807],[93.933642,24.654514],[93.933642,24.653934],[93.933797,24.65351],[93.934106,24.652958],[93.934183,24.652618],[93.93426,24.651939],[93.934306,24.651303],[93.934414,24.650794],[93.934507,24.650447],[93.934769,24.649726],[93.934862,24.64916],[93.9348,24.648707],[93.934691,24.648382],[93.93432,24.648241],[93.934042,24.648241],[93.933608,24.648312],[93.933021,24.648609],[93.932278,24.648977],[93.931881,24.649237],[93.931412,24.649543],[93.930732,24.650152],[93.930135,24.65084],[93.92947,24.651675],[93.928774,24.652396],[93.928094,24.653061],[93.927336,24.653401],[93.926887,24.653472],[93.926516,24.653387],[93.926036,24.653105],[93.925262,24.652214],[93.925137,24.652049],[93.924587,24.65133],[93.923892,24.650418],[93.923875,24.650396],[93.923039,24.649067],[93.922219,24.647794],[93.921431,24.646656],[93.921029,24.645977],[93.920595,24.645185],[93.919976,24.644054],[93.919622,24.643282],[93.919528,24.642405],[93.919389,24.641146],[93.919399,24.641049],[93.919485,24.640221],[93.918884,24.63985],[93.918777,24.639752],[93.918449,24.639452],[93.917532,24.63904],[93.916661,24.638793],[93.915835,24.638601],[93.914843,24.638327],[93.914242,24.638162],[93.913697,24.638031],[93.91245,24.63777],[93.911008,24.637455],[93.909986,24.637139],[93.90886,24.636714],[93.908153,24.636041],[93.908021,24.635906],[93.907613,24.635492],[93.907207,24.635121],[93.906862,24.63481],[93.906502,24.634467],[93.905871,24.634],[93.90533,24.633781],[93.904444,24.633369],[93.903257,24.632874],[93.902265,24.632284],[93.902136,24.632222],[93.901926,24.632121],[93.901906,24.632112],[93.901749,24.632036],[93.901665,24.631996],[93.901314,24.631756],[93.901184,24.631666],[93.900793,24.631378],[93.900403,24.630966],[93.900147,24.630444],[93.900067,24.630142],[93.900057,24.630036],[93.900042,24.629863],[93.900038,24.629817],[93.900018,24.629603],[93.899977,24.629139],[93.900006,24.628219],[93.900066,24.627519],[93.900096,24.626599],[93.900156,24.625802],[93.900216,24.624964],[93.900319,24.624299],[93.900439,24.623681],[93.900619,24.622829],[93.900739,24.622335],[93.900814,24.621923],[93.900874,24.621593],[93.900813,24.621133],[93.900678,24.620501],[93.900302,24.619842],[93.899791,24.619307],[93.89904,24.618881],[93.898094,24.618565],[93.8973,24.618395],[93.897133,24.618359],[93.895601,24.61803],[93.894354,24.617755],[93.893483,24.617536],[93.892447,24.617316],[93.891431,24.617048],[93.89047,24.616897],[93.888915,24.616354],[93.888622,24.615781],[93.888845,24.614725],[93.888899,24.614664],[93.889037,24.614508],[93.88965,24.614106],[93.89038,24.613849],[93.891047,24.613605],[93.891343,24.613515],[93.891704,24.613276],[93.891871,24.613136],[93.892133,24.612743],[93.89234,24.612278],[93.892582,24.611741],[93.892676,24.611493],[93.892829,24.611149],[93.893007,24.610865],[93.893142,24.610645],[93.893219,24.610517],[93.893486,24.610201],[93.893575,24.610084],[93.894063,24.609651],[93.894611,24.609285],[93.894761,24.609215],[93.895076,24.609068],[93.895643,24.608924],[93.896009,24.608865],[93.896705,24.60877],[93.897184,24.608639],[93.897875,24.608323],[93.898151,24.608152],[93.89859,24.607961],[93.898754,24.60789],[93.89906,24.607854],[93.899959,24.608111],[93.900472,24.608359],[93.901163,24.608621],[93.901766,24.609095],[93.90223,24.609568],[93.903025,24.610498],[93.903904,24.611451],[93.90426,24.611866],[93.904265,24.611875],[93.904783,24.6128],[93.905065,24.613283],[93.905529,24.613748],[93.905964,24.614123],[93.906408,24.614344],[93.90666,24.614416],[93.907149,24.614402],[93.907732,24.61428],[93.908452,24.613991],[93.909247,24.613661],[93.910087,24.613372],[93.910526,24.613169],[93.910837,24.612998],[93.911054,24.612799],[93.9114,24.612379],[93.911602,24.612031],[93.911716,24.611806],[93.911918,24.611408],[93.912031,24.610948],[93.912096,24.610402],[93.91209,24.610077],[93.912066,24.609169],[93.912061,24.608768],[93.911967,24.607964],[93.911912,24.607594],[93.911784,24.606912],[93.911625,24.606389],[93.911309,24.60545],[93.911087,24.604759],[93.910874,24.604051],[93.910785,24.603663],[93.910647,24.602855],[93.910607,24.602254],[93.910573,24.601577],[93.910592,24.60118],[93.910597,24.600756],[93.910666,24.600155],[93.910809,24.599654],[93.910918,24.599356],[93.911071,24.5989],[93.911194,24.598494],[93.911243,24.598196],[93.911214,24.597925],[93.911213,24.597727],[93.911021,24.597144],[93.910823,24.596779],[93.910705,24.596562],[93.910458,24.596047],[93.910295,24.59565],[93.910225,24.595339],[93.910225,24.595005],[93.910265,24.594743],[93.910423,24.594355],[93.910763,24.59393],[93.91105,24.593583],[93.911163,24.593285],[93.911168,24.593063],[93.911128,24.592942],[93.911044,24.592716],[93.910723,24.59245],[93.910314,24.592359],[93.909761,24.592296],[93.908862,24.59231],[93.908617,24.59233],[93.908067,24.592373],[93.907386,24.592392],[93.907016,24.592437],[93.90633,24.592478],[93.905668,24.592428],[93.905308,24.592342],[93.904972,24.592081],[93.904863,24.59195],[93.90475,24.591435],[93.904784,24.59093],[93.904794,24.590842],[93.904843,24.590406],[93.904917,24.589778],[93.905006,24.589503],[93.905179,24.58897],[93.90542,24.588438],[93.905662,24.588049],[93.905866,24.587817],[93.906151,24.587494],[93.906694,24.587029],[93.907118,24.586668],[93.907528,24.58637],[93.907903,24.586018],[93.908411,24.585593],[93.908727,24.585386],[93.909394,24.584826],[93.909828,24.584487],[93.909981,24.58432],[93.910465,24.583841],[93.910835,24.583327],[93.910998,24.583087],[93.911264,24.582591],[93.911422,24.581954],[93.911496,24.581381],[93.91154,24.580848],[93.91151,24.580027],[93.911461,24.57935],[93.911426,24.5786],[93.911406,24.577955],[93.911421,24.577571],[93.91143,24.576975],[93.91147,24.576492],[93.911514,24.575991],[93.911524,24.575436],[93.911548,24.574998],[93.911573,24.574736],[93.911598,24.574533],[93.911657,24.573946],[93.911676,24.573549],[93.911449,24.57322],[93.911163,24.572543],[93.910728,24.571802],[93.910442,24.571437],[93.910195,24.571175],[93.909849,24.570719],[93.909617,24.570331],[93.909459,24.56997],[93.909415,24.569667],[93.909415,24.5695],[93.909424,24.568959],[93.909518,24.568403],[93.909493,24.567939],[93.90933,24.567582],[93.909103,24.567347],[93.908861,24.56723],[93.908111,24.567059],[93.907405,24.566878],[93.906729,24.566625],[93.906594,24.566516],[93.906191,24.566188],[93.905835,24.565646],[93.905761,24.565181],[93.905757,24.56508],[93.905717,24.564211],[93.905786,24.56357],[93.90583,24.563245],[93.905741,24.562513],[93.905598,24.562206],[93.905282,24.561926],[93.905084,24.561751],[93.903579,24.560983],[93.902977,24.56064],[93.902182,24.560379],[93.901472,24.560111],[93.901274,24.560036],[93.900593,24.559508],[93.900393,24.559178],[93.899995,24.558524],[93.899832,24.558104],[93.899353,24.557355],[93.899273,24.557264],[93.899186,24.557165],[93.898435,24.556732],[93.897759,24.556502],[93.897379,24.556439],[93.896703,24.556339],[93.896071,24.556308],[93.895705,24.556325],[93.895405,24.556339],[93.894882,24.556425],[93.894418,24.556425],[93.894038,24.556425],[93.893539,24.556389],[93.892656,24.556182],[93.892157,24.555992],[93.891797,24.55583],[93.890884,24.555356],[93.889704,24.554742],[93.889272,24.554536],[93.888984,24.554399],[93.888058,24.553983],[93.887799,24.553866],[93.886778,24.553523],[93.885998,24.553275],[93.885322,24.553045],[93.884843,24.552968],[93.88432,24.553],[93.88356,24.553068],[93.882913,24.553045],[93.882281,24.55295],[93.88204,24.552957],[93.881296,24.556998],[93.880823,24.558244],[93.880288,24.559005],[93.878453,24.55998],[93.877327,24.560251],[93.875195,24.561172],[93.872767,24.562202],[93.871286,24.562852],[93.869687,24.564261],[93.866667,24.565615],[93.866356,24.565671],[93.862758,24.566319],[93.86033,24.566373],[93.863823,24.57521],[93.868323,24.587891],[93.868856,24.591413],[93.870277,24.595857],[93.871403,24.597375],[93.871416,24.597408],[93.871592,24.59786],[93.870892,24.597825],[93.870681,24.597815],[93.870182,24.597896],[93.869458,24.598234],[93.868453,24.598761],[93.868083,24.598842],[93.867699,24.598842],[93.867034,24.598734],[93.86628,24.598517],[93.865748,24.598125],[93.864891,24.597192],[93.864239,24.596436],[93.863429,24.595651],[93.86319,24.595287],[93.863057,24.594583],[93.863113,24.593482],[93.863557,24.592157],[93.863675,24.591832],[93.863675,24.591575],[93.863572,24.59117],[93.863128,24.590169],[93.862671,24.589162],[93.862538,24.588486],[93.86242,24.586971],[93.862287,24.586498],[93.862095,24.586187],[93.861658,24.585816],[93.8612,24.585478],[93.861052,24.585262],[93.861038,24.585153],[93.861171,24.584748],[93.861378,24.584355],[93.861821,24.58372],[93.862442,24.582759],[93.862603,24.582129],[93.862588,24.580966],[93.862514,24.580763],[93.862396,24.580627],[93.862189,24.580451],[93.861761,24.580194],[93.861243,24.579856],[93.861007,24.579586],[93.860918,24.579383],[93.860904,24.578314],[93.8608,24.578044],[93.860638,24.577854],[93.860431,24.57776],[93.859671,24.577552],[93.859124,24.577362],[93.858755,24.577105],[93.858474,24.576808],[93.858031,24.576091],[93.857706,24.575658],[93.857396,24.575387],[93.857056,24.575184],[93.856376,24.574819],[93.855667,24.574386],[93.854992,24.573932],[93.853972,24.573377],[93.852938,24.572958],[93.852449,24.572699],[93.852332,24.572766],[93.851147,24.573416],[93.850436,24.574608],[93.850909,24.575908],[93.85156,24.577859],[93.852211,24.579866],[93.852033,24.581763],[93.851381,24.582684],[93.850256,24.584093],[93.847886,24.585393],[93.845872,24.586368],[93.84137,24.58783],[93.836452,24.589725],[93.831535,24.591349],[93.829757,24.593408],[93.829164,24.594546],[93.829105,24.595792],[93.829341,24.597147],[93.829696,24.598014],[93.830286,24.598883],[93.831115,24.600129],[93.832003,24.601809],[93.832536,24.602526],[93.832747,24.602809],[93.834667,24.605387],[93.835733,24.607338],[93.836029,24.608639],[93.835792,24.609235],[93.835021,24.610427],[93.832828,24.612106],[93.831702,24.613135],[93.829332,24.613947],[93.827714,24.613766],[93.827031,24.613689],[93.826429,24.613621],[93.822993,24.613999],[93.820563,24.614865],[93.818311,24.615406],[93.817245,24.615731],[93.816652,24.615406],[93.815408,24.614809],[93.814461,24.614104],[93.813691,24.613833],[93.812684,24.613291],[93.812151,24.612965],[93.811203,24.613507],[93.810136,24.614373],[93.809483,24.615294],[93.808002,24.616651],[93.806994,24.617355],[93.806223,24.618004],[93.805452,24.619955],[93.80462,24.623748],[93.8046,24.623977],[93.804501,24.625103],[93.804856,24.626241],[93.806336,24.628084],[93.80752,24.629494],[93.809356,24.63112],[93.811666,24.63356],[93.812968,24.636107],[93.813222,24.636936],[93.813662,24.63837],[93.813911,24.639179],[93.814032,24.639575],[93.814327,24.64223],[93.813793,24.643097],[93.812489,24.643855],[93.81083,24.644342],[93.808814,24.646455],[93.806679,24.647917],[93.804426,24.649433],[93.804011,24.650246],[93.803713,24.653335],[93.803357,24.654418],[93.802941,24.655719],[93.802262,24.656704],[93.802251,24.656719],[93.802249,24.656722],[93.801933,24.657181],[93.800628,24.65886],[93.799917,24.659674],[93.799264,24.660757],[93.799382,24.661624],[93.800092,24.662708],[93.800685,24.663522],[93.800682,24.66699],[93.8008,24.668345],[93.800853,24.668891],[93.800899,24.669376],[93.800977,24.670187],[93.800981,24.670203],[93.801687,24.672518],[93.802041,24.674035],[93.803937,24.676312],[93.806485,24.678048],[93.80761,24.678861],[93.808855,24.679187],[93.810455,24.679459],[93.812589,24.679514],[93.815256,24.680599],[93.81822,24.681196],[93.819583,24.682118],[93.820709,24.682227],[93.822073,24.681794],[93.823318,24.681252],[93.824269,24.680548],[93.824981,24.679086],[93.825752,24.678056],[93.825893,24.677974],[93.826404,24.677677],[93.827116,24.677894],[93.827464,24.678464],[93.827945,24.679249],[93.828834,24.680442],[93.829781,24.681797],[93.830314,24.683206],[93.831084,24.685049],[93.831558,24.685699],[93.832033,24.685157],[93.83405,24.68131],[93.834396,24.680411],[93.834821,24.679306],[93.835237,24.676921],[93.836899,24.670852],[93.838441,24.668468],[93.839449,24.66771],[93.84093,24.667385],[93.84176,24.667331],[93.843066,24.666741],[93.845734,24.665712],[93.853262,24.662571],[93.856462,24.661379],[93.862449,24.659754],[93.864768,24.659243],[93.865191,24.659974],[93.866345,24.661582],[93.868066,24.662369],[93.869746,24.663306],[93.871795,24.663831],[93.873967,24.665067],[93.87544,24.665742],[93.875794,24.666187],[93.876501,24.666968],[93.876707,24.667291],[93.876839,24.667601],[93.876909,24.668147],[93.877027,24.668537],[93.877307,24.66913],[93.877469,24.669561],[93.877602,24.670275],[93.877735,24.671398],[93.877941,24.672071],[93.87825,24.672744],[93.878707,24.673458],[93.879178,24.67397],[93.879768,24.674441],[93.881417,24.675772],[93.882404,24.676566],[93.883258,24.677321],[93.883523,24.67763],[93.883656,24.677891],[93.883707,24.679698],[93.883707,24.679935],[93.883633,24.680527],[93.883486,24.681354],[93.883469,24.681433],[93.883388,24.681799],[93.883206,24.68262],[93.882912,24.683563],[93.882882,24.684129],[93.882956,24.684762],[93.883147,24.685408],[93.883339,24.685799],[93.883925,24.686558],[93.88447,24.687488],[93.88462,24.688004],[93.884662,24.688148],[93.884676,24.688457],[93.884662,24.688713],[93.884514,24.68909],[93.884161,24.689777],[93.883852,24.690451],[93.883557,24.691598],[93.883454,24.692554],[93.883675,24.694911],[93.884672,24.695503],[93.886234,24.696311],[93.886632,24.696553],[93.886853,24.696782],[93.887221,24.6972],[93.887369,24.697833],[93.887342,24.698228],[93.887136,24.699009],[93.886473,24.701191],[93.886473,24.701192],[93.884418,24.700999],[93.881823,24.701042],[93.87916,24.70149],[93.876551,24.701788],[93.875299,24.702339],[93.875894,24.702756],[93.876233,24.703093],[93.876498,24.703443],[93.876705,24.703806],[93.877029,24.704493],[93.877294,24.704911],[93.877751,24.705391],[93.87809,24.705746],[93.878369,24.706173],[93.87862,24.707169],[93.878811,24.708476],[93.878811,24.708839],[93.878737,24.709109],[93.87859,24.709472],[93.87831,24.710065],[93.878251,24.710361],[93.878251,24.710523],[93.878278,24.710865],[93.878292,24.710938],[93.878573,24.712373],[93.87877,24.713047],[93.87824,24.713251],[93.876446,24.713847],[93.87362,24.714195],[93.871609,24.71484],[93.870522,24.715287],[93.870468,24.716132],[93.871066,24.718566],[93.870902,24.719261],[93.871337,24.721795],[93.871283,24.723832],[93.871232,24.725738],[93.870906,24.728619],[93.870471,24.730506],[93.870091,24.732146],[93.869819,24.734729],[93.86922,24.737411],[93.868785,24.738951],[93.868405,24.739448],[93.8671,24.739994],[93.866502,24.739895],[93.865361,24.739796],[93.864847,24.739615],[93.864596,24.739527],[93.862947,24.740969],[93.862031,24.741596],[93.859817,24.742084],[93.85852,24.741805],[93.857833,24.743618],[93.857603,24.747036],[93.85787,24.749074],[93.857899,24.749296],[93.85792,24.749457],[93.858517,24.750001],[93.858571,24.750051],[93.858921,24.750263],[93.859319,24.750446],[93.859855,24.750764],[93.859844,24.75107],[93.861041,24.752015],[93.862783,24.752263],[93.86447,24.752611],[93.866537,24.753507],[93.867952,24.754203],[93.869966,24.754551],[93.871816,24.754799],[93.873013,24.755645],[93.874482,24.75639],[93.876659,24.756391],[93.87889,24.756391],[93.881448,24.75654],[93.884441,24.756738],[93.88689,24.757236],[93.888577,24.75813],[93.89074,24.759741],[93.892115,24.760765],[93.896415,24.76499],[93.898919,24.768669],[93.901151,24.77185],[93.902239,24.773143],[93.903546,24.773938],[93.905287,24.774534],[93.907205,24.775504],[93.908293,24.775778],[93.909491,24.775877],[93.910296,24.775768],[93.910328,24.775377],[93.910445,24.773988],[93.910691,24.771302],[93.911072,24.768767],[93.912187,24.765609],[93.912948,24.763869],[93.914689,24.76183],[93.917056,24.759816],[93.917872,24.759691],[93.920103,24.759541],[93.9216,24.759292],[93.922933,24.759342],[93.923641,24.759615],[93.924376,24.760311],[93.925573,24.761529],[93.926662,24.762697],[93.928622,24.764486],[93.931671,24.766474],[93.933023,24.767165]]]}},{"type":"Feature","properties":{"OBJECTID":6009,"state_lgd":"14","state_name":"MANIPUR","district_lgd":"277","district_name":"IMPHAL WEST","district_name_source":"district_table","subdistrict_lgd":"1880","subdistrict_name":"PATSOI","subdistrict_type":"","name_corrupted":false,"remarks":""},"geometry":{"type":"Polygon","coordinates":[[[93.874986,24.80054],[93.876059,24.800241],[93.876821,24.800639],[93.877417,24.800949],[93.877577,24.800685],[93.878502,24.799193],[93.879727,24.797552],[93.881524,24.795563],[93.882695,24.794395],[93.883593,24.793749],[93.884573,24.793301],[93.885471,24.793053],[93.886748,24.792433],[93.890069,24.790419],[93.892519,24.789027],[93.893717,24.788405],[93.89437,24.78843],[93.895459,24.788455],[93.896845,24.788431],[93.897988,24.788605],[93.898968,24.789152],[93.899839,24.789749],[93.900302,24.790345],[93.90071,24.790992],[93.901119,24.791986],[93.901364,24.79293],[93.90131,24.793975],[93.90131,24.795218],[93.901746,24.79559],[93.902807,24.796013],[93.904005,24.796236],[93.905012,24.796485],[93.906074,24.796211],[93.9067,24.795614],[93.90689,24.794894],[93.907162,24.793924],[93.907489,24.792159],[93.907733,24.79099],[93.908223,24.788852],[93.908957,24.786565],[93.909495,24.783758],[93.90993,24.782664],[93.910283,24.780178],[93.910278,24.779834],[93.910277,24.779754],[93.910265,24.778957],[93.910258,24.778555],[93.910228,24.776573],[93.910296,24.775768],[93.909491,24.775877],[93.908293,24.775778],[93.907205,24.775504],[93.905287,24.774534],[93.903546,24.773938],[93.902239,24.773143],[93.901151,24.77185],[93.898919,24.768669],[93.896415,24.76499],[93.892115,24.760765],[93.89074,24.759741],[93.888577,24.75813],[93.88689,24.757236],[93.884441,24.756738],[93.881448,24.75654],[93.87889,24.756391],[93.876659,24.756391],[93.874482,24.75639],[93.873013,24.755645],[93.871816,24.754799],[93.869966,24.754551],[93.867952,24.754203],[93.866537,24.753507],[93.86447,24.752611],[93.862783,24.752263],[93.861041,24.752015],[93.859844,24.75107],[93.859855,24.750764],[93.859319,24.750446],[93.858921,24.750263],[93.858571,24.750051],[93.858517,24.750001],[93.85792,24.749457],[93.857899,24.749296],[93.85787,24.749074],[93.857603,24.747036],[93.857833,24.743618],[93.85852,24.741805],[93.859817,24.742084],[93.862031,24.741596],[93.862947,24.740969],[93.864596,24.739527],[93.863241,24.73905],[93.86161,24.737808],[93.859599,24.736516],[93.858458,24.735672],[93.854791,24.733995],[93.853378,24.732951],[93.852392,24.732385],[93.851476,24.731858],[93.849302,24.730516],[93.84778,24.730119],[93.845661,24.729373],[93.843759,24.728677],[93.841204,24.727782],[93.840498,24.727633],[93.838243,24.72712],[93.837984,24.726802],[93.83723,24.725612],[93.836314,24.724206],[93.835075,24.722622],[93.834849,24.722333],[93.83418,24.7216],[93.833796,24.721749],[93.832954,24.721748],[93.832112,24.721816],[93.831502,24.722036],[93.830837,24.722481],[93.830187,24.722791],[93.829655,24.723048],[93.828991,24.723317],[93.828651,24.723452],[93.828414,24.723709],[93.82834,24.724033],[93.828414,24.724424],[93.828724,24.725315],[93.828738,24.725761],[93.828666,24.726508],[93.828769,24.727332],[93.828813,24.727629],[93.82899,24.728034],[93.829005,24.728277],[93.828975,24.728466],[93.828798,24.728709],[93.828369,24.729181],[93.828014,24.729613],[93.827689,24.729964],[93.826965,24.730342],[93.826256,24.730747],[93.826005,24.730814],[93.825281,24.730827],[93.824975,24.730916],[93.824355,24.731321],[93.824118,24.731361],[93.823291,24.731361],[93.823129,24.731401],[93.822685,24.731752],[93.821858,24.732427],[93.821547,24.732548],[93.820883,24.732629],[93.820661,24.732656],[93.820321,24.732804],[93.820129,24.732872],[93.819775,24.732885],[93.819525,24.732923],[93.818698,24.733301],[93.818417,24.733301],[93.81793,24.733219],[93.817368,24.733219],[93.816984,24.733219],[93.816763,24.733273],[93.816275,24.733516],[93.815802,24.733651],[93.81539,24.733866],[93.814755,24.734311],[93.814444,24.734419],[93.813942,24.734513],[93.81372,24.734581],[93.813115,24.734851],[93.812849,24.734904],[93.812405,24.734823],[93.811977,24.734675],[93.811526,24.734591],[93.811113,24.734482],[93.810935,24.734361],[93.810714,24.733915],[93.810507,24.73374],[93.810345,24.733726],[93.810108,24.733793],[93.809709,24.73405],[93.809074,24.734387],[93.808365,24.734603],[93.807951,24.734778],[93.807094,24.735291],[93.805821,24.735868],[93.804968,24.736215],[93.804328,24.736572],[93.8036,24.737047],[93.803111,24.737424],[93.802464,24.738006],[93.801432,24.738839],[93.800933,24.739097],[93.800271,24.739414],[93.799773,24.739622],[93.799241,24.739761],[93.799002,24.73985],[93.798296,24.740197],[93.797916,24.740266],[93.797754,24.740236],[93.797558,24.740097],[93.797358,24.739884],[93.797157,24.73967],[93.796994,24.739561],[93.796604,24.739412],[93.795917,24.739194],[93.795196,24.73897],[93.795195,24.73897],[93.794729,24.738826],[93.794338,24.738786],[93.793958,24.738826],[93.793556,24.738955],[93.793024,24.739232],[93.792492,24.73951],[93.791542,24.740045],[93.791043,24.740104],[93.790793,24.740074],[93.790468,24.739935],[93.789654,24.739468],[93.789328,24.739319],[93.788976,24.739215],[93.788623,24.739111],[93.788265,24.738991],[93.787538,24.738544],[93.78718,24.738395],[93.786698,24.738266],[93.786199,24.738157],[93.785906,24.738008],[93.785597,24.737765],[93.785288,24.737521],[93.785103,24.737432],[93.784897,24.737432],[93.784268,24.737471],[93.783432,24.7375],[93.783204,24.73754],[93.782773,24.737677],[93.782341,24.737817],[93.781792,24.737995],[93.781322,24.738092],[93.780399,24.738141],[93.779921,24.73823],[93.779237,24.738428],[93.778977,24.738457],[93.778673,24.738408],[93.777968,24.738139],[93.777621,24.737901],[93.777404,24.737712],[93.777095,24.73736],[93.776786,24.737007],[93.776129,24.73633],[93.77562,24.735883],[93.775135,24.735527],[93.774351,24.734949],[93.773009,24.73403],[93.772437,24.73357],[93.772412,24.733579],[93.771757,24.733628],[93.771562,24.733642],[93.770801,24.733872],[93.770469,24.734155],[93.77007,24.734532],[93.769889,24.73476],[93.769866,24.735122],[93.769955,24.735244],[93.770147,24.735325],[93.770457,24.735379],[93.770561,24.735429],[93.770767,24.735528],[93.771033,24.735758],[93.771313,24.736284],[93.771428,24.736646],[93.77153,24.736965],[93.771589,24.73724],[93.771773,24.738083],[93.771794,24.73818],[93.772059,24.739517],[93.772192,24.740016],[93.77231,24.740151],[93.772531,24.740179],[93.772723,24.740125],[93.773241,24.739801],[93.773477,24.739801],[93.773713,24.739869],[93.774068,24.740153],[93.774643,24.740626],[93.775293,24.741072],[93.775485,24.741166],[93.775662,24.741126],[93.775958,24.740897],[93.776224,24.740681],[93.776505,24.74064],[93.7768,24.740708],[93.776963,24.740857],[93.777051,24.741086],[93.777051,24.74141],[93.776974,24.741671],[93.776826,24.742198],[93.776856,24.742319],[93.776959,24.742576],[93.777077,24.742833],[93.777091,24.743251],[93.776987,24.744075],[93.776854,24.744736],[93.776661,24.745222],[93.776676,24.745384],[93.776809,24.74556],[93.777621,24.746073],[93.778061,24.746511],[93.778445,24.746997],[93.778533,24.747294],[93.778548,24.747632],[93.778562,24.748563],[93.77862,24.748874],[93.778812,24.749184],[93.778999,24.749323],[93.779285,24.749536],[93.779359,24.749657],[93.779358,24.749792],[93.779287,24.750001],[93.779284,24.750008],[93.779275,24.750021],[93.779275,24.750022],[93.778913,24.750494],[93.778865,24.750748],[93.778868,24.750757],[93.778873,24.750773],[93.778915,24.750909],[93.779246,24.751044],[93.780106,24.751086],[93.780304,24.751185],[93.780333,24.751379],[93.780229,24.751722],[93.779561,24.752466],[93.779225,24.753161],[93.779284,24.753536],[93.779511,24.753893],[93.779694,24.753893],[93.780312,24.753699],[93.781295,24.7537],[93.781626,24.75384],[93.781962,24.754337],[93.782382,24.755262],[93.782396,24.756174],[93.782514,24.756693],[93.783039,24.75727],[93.783181,24.757425],[93.783828,24.757949],[93.784114,24.758518],[93.784114,24.758821],[93.783782,24.759263],[93.783268,24.759912],[93.783371,24.760242],[93.783702,24.760472],[93.784078,24.760929],[93.784142,24.761633],[93.784126,24.762585],[93.784383,24.763195],[93.784575,24.76333],[93.784862,24.763317],[93.785648,24.76274],[93.785876,24.762532],[93.786133,24.762532],[93.786346,24.762713],[93.786612,24.763187],[93.786869,24.763589],[93.787007,24.763743],[93.78722,24.76381],[93.787353,24.763824],[93.787353,24.763919],[93.787353,24.764348],[93.787353,24.764655],[93.787456,24.764709],[93.787926,24.764641],[93.788485,24.764375],[93.788712,24.764502],[93.788742,24.764764],[93.788291,24.765522],[93.788063,24.766009],[93.788093,24.766172],[93.788592,24.766407],[93.788879,24.766506],[93.788908,24.766782],[93.788606,24.767319],[93.788497,24.767526],[93.788665,24.768036],[93.788892,24.768122],[93.789061,24.768082],[93.789679,24.766823],[93.789798,24.766534],[93.790474,24.765979],[93.791569,24.765082],[93.792009,24.764752],[93.792143,24.764752],[93.79243,24.764879],[93.792612,24.76547],[93.792626,24.76659],[93.792581,24.766784],[93.792191,24.766915],[93.791177,24.767076],[93.790782,24.767343],[93.790781,24.767532],[93.790781,24.767893],[93.791023,24.768155],[93.791221,24.768598],[93.79122,24.768819],[93.791008,24.76922],[93.791007,24.769591],[93.791279,24.770047],[93.791343,24.770354],[93.791293,24.770561],[93.790829,24.770737],[93.790586,24.77075],[93.789919,24.770529],[93.789469,24.770529],[93.789073,24.770722],[93.788999,24.770944],[93.789092,24.771548],[93.789162,24.771995],[93.789072,24.773196],[93.789071,24.773625],[93.789718,24.774551],[93.790537,24.775586],[93.790943,24.776099],[93.791419,24.776702],[93.791457,24.77675],[93.791971,24.777608],[93.79198,24.77817],[93.791985,24.778479],[93.791846,24.779057],[93.791499,24.780122],[93.791331,24.780248],[93.790861,24.780216],[93.790332,24.780329],[93.790243,24.780509],[93.790301,24.782234],[93.790044,24.782455],[93.789139,24.782775],[93.788798,24.782914],[93.7886,24.783108],[93.788312,24.784061],[93.787812,24.784656],[93.786952,24.784999],[93.786784,24.785112],[93.786784,24.785247],[93.787268,24.78569],[93.787386,24.785843],[93.787208,24.786118],[93.787149,24.786457],[93.787464,24.787188],[93.787464,24.787491],[93.787053,24.788971],[93.787022,24.790411],[93.786719,24.792],[93.786417,24.792483],[93.786104,24.792891],[93.785798,24.793291],[93.785328,24.793904],[93.785239,24.794292],[93.785144,24.795316],[93.785025,24.796476],[93.784539,24.797736],[93.783891,24.798286],[93.782783,24.798782],[93.782649,24.799057],[93.782619,24.799404],[93.782841,24.800777],[93.782846,24.80094],[93.782934,24.8009],[93.784809,24.800062],[93.785953,24.799218],[93.786769,24.799516],[93.788457,24.799567],[93.791124,24.799668],[93.793791,24.799869],[93.79559,24.800242],[93.795701,24.800265],[93.796676,24.800467],[93.798963,24.800518],[93.802066,24.80047],[93.805332,24.80077],[93.807673,24.80087],[93.809469,24.800722],[93.81132,24.800723],[93.813388,24.801718],[93.815838,24.802365],[93.817525,24.802565],[93.820356,24.802168],[93.824712,24.801623],[93.827161,24.801425],[93.829666,24.801376],[93.832333,24.801178],[93.837287,24.800683],[93.841316,24.800485],[93.844936,24.800287],[93.847876,24.800337],[93.851251,24.800189],[93.853918,24.800637],[93.85657,24.800966],[93.856922,24.801009],[93.85713,24.801035],[93.860179,24.801384],[93.863772,24.80208],[93.86633,24.802229],[93.868889,24.801931],[93.87123,24.801186],[93.874986,24.80054]]]}},{"type":"Feature","properties":{"OBJECTID":6010,"state_lgd":"14","state_name":"MANIPUR","district_lgd":"277","district_name":"IMPHAL WEST","district_name_source":"district_table","subdistrict_lgd":"1881","subdistrict_name":"LAMPHEL","subdistrict_type":"","name_corrupted":false,"remarks":""},"geometry":{"type":"Polygon","coordinates":[[[93.917864,24.882989],[93.917862,24.882983],[93.917851,24.88295],[93.917829,24.882883],[93.917668,24.882085],[93.917829,24.881686],[93.917883,24.881626],[93.917967,24.88153],[93.918015,24.881477],[93.91822,24.881245],[93.918818,24.880888],[93.919048,24.880279],[93.919048,24.879775],[93.918749,24.879355],[93.918219,24.879187],[93.917483,24.879418],[93.916839,24.879461],[93.916562,24.879167],[93.91647,24.878852],[93.91647,24.87839],[93.916585,24.877739],[93.916602,24.877633],[93.916815,24.876332],[93.916745,24.875597],[93.916469,24.875114],[93.915572,24.874715],[93.914605,24.874337],[93.914145,24.873875],[93.91396,24.87314],[93.913743,24.872631],[93.913277,24.871903],[93.913259,24.871875],[93.912592,24.871476],[93.911718,24.871266],[93.91036,24.870888],[93.909232,24.870259],[93.908196,24.869251],[93.907181,24.86797],[93.907115,24.867886],[93.906723,24.867172],[93.906493,24.865954],[93.906125,24.865135],[93.905526,24.864379],[93.904629,24.863917],[93.903432,24.863476],[93.902006,24.86291],[93.901154,24.862448],[93.900349,24.86144],[93.899198,24.85976],[93.899014,24.859256],[93.899168,24.858768],[93.89972,24.858348],[93.900342,24.858222],[93.901331,24.858033],[93.902067,24.857528],[93.902711,24.856772],[93.90301,24.856226],[93.903332,24.854966],[93.903608,24.854126],[93.90393,24.853979],[93.904505,24.854],[93.905702,24.85421],[93.908187,24.854944],[93.91273,24.856622],[93.913973,24.857188],[93.91609,24.858133],[93.917268,24.858491],[93.918023,24.85872],[93.919725,24.859203],[93.920646,24.859329],[93.921819,24.859223],[93.92244,24.859181],[93.923038,24.858845],[93.923222,24.858383],[93.923199,24.857732],[93.922762,24.857018],[93.922255,24.856703],[93.920921,24.856053],[93.919264,24.854982],[93.918504,24.854226],[93.918113,24.853533],[93.917998,24.85305],[93.918159,24.852357],[93.918573,24.851706],[93.919056,24.851244],[93.919723,24.850866],[93.920689,24.850424],[93.921971,24.849941],[93.923052,24.84929],[93.924156,24.84889],[93.925306,24.848932],[93.926503,24.848869],[93.927906,24.848805],[93.928826,24.848532],[93.929171,24.848049],[93.929398,24.847347],[93.929542,24.847084],[93.929697,24.8468],[93.930134,24.846003],[93.930616,24.845372],[93.931766,24.84428],[93.932134,24.844007],[93.932525,24.844028],[93.933147,24.84451],[93.93363,24.845014],[93.934297,24.845329],[93.934461,24.845352],[93.934896,24.845413],[93.935747,24.845076],[93.937127,24.844383],[93.937609,24.843732],[93.937839,24.842367],[93.937815,24.840981],[93.937723,24.839574],[93.937883,24.838691],[93.938527,24.837599],[93.939212,24.836752],[93.940477,24.835597],[93.94227,24.834567],[93.944018,24.833495],[93.944809,24.833277],[93.945076,24.832789],[93.945209,24.832626],[93.945604,24.831768],[93.945738,24.83134],[93.945812,24.831037],[93.945797,24.830622],[93.945618,24.829381],[93.945499,24.828875],[93.94533,24.827923],[93.944889,24.82544],[93.943278,24.8256],[93.941899,24.82578],[93.941156,24.825864],[93.940959,24.825822],[93.940818,24.825783],[93.940656,24.825739],[93.94055,24.825615],[93.940246,24.824475],[93.939967,24.822594],[93.939942,24.822426],[93.939535,24.820662],[93.939094,24.818018],[93.938652,24.816266],[93.938197,24.814563],[93.938693,24.814399],[93.939257,24.814329],[93.939486,24.814301],[93.940272,24.814126],[93.940917,24.813934],[93.941476,24.813759],[93.942209,24.813487],[93.942889,24.813153],[93.943128,24.813056],[93.94317,24.813038],[93.943172,24.813037],[93.943203,24.813025],[93.943354,24.812921],[93.943371,24.81291],[93.94342,24.812875],[93.943459,24.812846],[93.943516,24.812805],[93.943599,24.812745],[93.94381,24.812592],[93.943895,24.81253],[93.943947,24.812492],[93.944203,24.812307],[93.94425,24.811713],[93.944367,24.810265],[93.944243,24.809867],[93.944227,24.809856],[93.944158,24.809806],[93.944041,24.809721],[93.944025,24.80971],[93.943913,24.809656],[93.943669,24.809538],[93.943451,24.809453],[93.943372,24.809398],[93.943372,24.809254],[93.943481,24.809073],[93.943822,24.808942],[93.944974,24.808928],[93.945236,24.808842],[93.945686,24.808504],[93.946141,24.807885],[93.946496,24.806937],[93.946481,24.806129],[93.946263,24.805633],[93.945204,24.80413],[93.944615,24.803602],[93.944116,24.803435],[93.943201,24.803476],[93.943062,24.803436],[93.943033,24.803336],[93.943062,24.803178],[93.943339,24.802582],[93.943579,24.802073],[93.94404,24.801034],[93.94449,24.800095],[93.944453,24.799621],[93.944252,24.799048],[93.944049,24.798492],[93.9439,24.797644],[93.943603,24.797229],[93.942955,24.7968],[93.942663,24.796487],[93.941984,24.79586],[93.941867,24.795762],[93.941323,24.795226],[93.941229,24.794941],[93.941263,24.79463],[93.941967,24.794158],[93.943033,24.793523],[93.943186,24.793311],[93.943186,24.793126],[93.942983,24.792814],[93.942706,24.792183],[93.942706,24.79193],[93.942799,24.791772],[93.943235,24.791371],[93.943333,24.791225],[93.943375,24.791084],[93.943358,24.790918],[93.943243,24.790593],[93.943208,24.790527],[93.94285,24.789858],[93.942472,24.789136],[93.941754,24.787218],[93.940808,24.785297],[93.940091,24.783896],[93.939897,24.783368],[93.939929,24.782973],[93.93998,24.782749],[93.940319,24.78219],[93.939405,24.781872],[93.938665,24.781762],[93.938423,24.781762],[93.93803,24.781804],[93.937727,24.781887],[93.937425,24.781997],[93.937232,24.781424],[93.936965,24.781112],[93.936327,24.780729],[93.935892,24.780557],[93.935783,24.780431],[93.935441,24.779822],[93.935238,24.779267],[93.935149,24.778599],[93.935148,24.777281],[93.93495,24.776179],[93.934312,24.774943],[93.93406,24.774528],[93.933708,24.77395],[93.933575,24.773656],[93.933525,24.772492],[93.933381,24.771715],[93.933163,24.770921],[93.933054,24.770127],[93.933108,24.76861],[93.933107,24.767676],[93.933095,24.767599],[93.933023,24.767165],[93.931671,24.766474],[93.928622,24.764486],[93.926662,24.762697],[93.925573,24.761529],[93.924376,24.760311],[93.923641,24.759615],[93.922933,24.759342],[93.9216,24.759292],[93.920103,24.759541],[93.917872,24.759691],[93.917056,24.759816],[93.914689,24.76183],[93.912948,24.763869],[93.912187,24.765609],[93.911072,24.768767],[93.910691,24.771302],[93.910445,24.773988],[93.910328,24.775377],[93.910296,24.775768],[93.910228,24.776573],[93.910258,24.778555],[93.910265,24.778957],[93.910277,24.779754],[93.910278,24.779834],[93.910283,24.780178],[93.90993,24.782664],[93.909495,24.783758],[93.908957,24.786565],[93.908223,24.788852],[93.907733,24.79099],[93.907489,24.792159],[93.907162,24.793924],[93.90689,24.794894],[93.9067,24.795614],[93.906074,24.796211],[93.905012,24.796485],[93.904005,24.796236],[93.902807,24.796013],[93.901746,24.79559],[93.90131,24.795218],[93.90131,24.793975],[93.901364,24.79293],[93.901119,24.791986],[93.90071,24.790992],[93.900302,24.790345],[93.899839,24.789749],[93.898968,24.789152],[93.897988,24.788605],[93.896845,24.788431],[93.895459,24.788455],[93.89437,24.78843],[93.893717,24.788405],[93.892519,24.789027],[93.890069,24.790419],[93.886748,24.792433],[93.885471,24.793053],[93.884573,24.793301],[93.883593,24.793749],[93.882695,24.794395],[93.881524,24.795563],[93.879727,24.797552],[93.878502,24.799193],[93.877577,24.800685],[93.877417,24.800949],[93.877181,24.80138],[93.876651,24.802474],[93.87578,24.803892],[93.874936,24.805334],[93.874609,24.807149],[93.874092,24.809386],[93.874092,24.811151],[93.873956,24.81232],[93.873738,24.81314],[93.873357,24.813836],[93.872758,24.814781],[93.872676,24.815825],[93.872376,24.817267],[93.872295,24.818336],[93.872349,24.81938],[93.87205,24.821392],[93.872023,24.823828],[93.872186,24.82532],[93.872975,24.827582],[93.874037,24.829297],[93.875181,24.831361],[93.875589,24.832728],[93.875789,24.833626],[93.875877,24.834019],[93.875943,24.834319],[93.87559,24.837203],[93.875726,24.838819],[93.875699,24.840608],[93.875399,24.841827],[93.875072,24.842448],[93.875208,24.843119],[93.876325,24.84481],[93.877523,24.846923],[93.878449,24.848141],[93.879486,24.850403],[93.880793,24.852516],[93.882564,24.855052],[93.883925,24.857065],[93.885532,24.859402],[93.88668,24.860906],[93.886803,24.861067],[93.887221,24.861615],[93.889264,24.864051],[93.89019,24.865169],[93.891576,24.867556],[93.893101,24.870117],[93.894409,24.872503],[93.895172,24.874989],[93.895772,24.877475],[93.896153,24.879986],[93.896453,24.882745],[93.896508,24.883217],[93.896451,24.884263],[93.896833,24.885009],[93.897078,24.885382],[93.897323,24.885481],[93.898031,24.884611],[93.899148,24.883443],[93.900374,24.881901],[93.9013,24.880957],[93.902171,24.880434],[93.902988,24.880161],[93.903996,24.88026],[93.905059,24.880558],[93.905896,24.881664],[93.906114,24.881637],[93.90647,24.881709],[93.90694,24.88202],[93.908088,24.883424],[93.90893,24.884074],[93.909959,24.884665],[93.910147,24.884935],[93.910444,24.885644],[93.91091,24.88661],[93.911128,24.886781],[93.91142,24.886881],[93.911672,24.886822],[93.911904,24.886623],[93.912928,24.885219],[93.913661,24.884862],[93.915214,24.884397],[93.916145,24.884198],[93.916719,24.884167],[93.917233,24.884266],[93.917236,24.884267],[93.917543,24.883955],[93.917566,24.883931],[93.91802,24.883468],[93.917865,24.882994],[93.917864,24.882989]]]}}]}