{"type":"FeatureCollection","name":"KAKCHING, MANIPUR - Sub-district boundaries","crs_note":"RFC 7946 WGS84 lon/lat (EPSG:4326); source CRS was LCC_WGS84","features":[{"type":"Feature","properties":{"OBJECTID":5993,"state_lgd":"14","state_name":"MANIPUR","district_lgd":"651","district_name":"KAKCHING","district_name_source":"district_table","subdistrict_lgd":"1878","subdistrict_name":"KAKCHING","subdistrict_type":"","name_corrupted":false,"remarks":""},"geometry":{"type":"Polygon","coordinates":[[[93.909657,24.549877],[93.915189,24.548574],[93.921747,24.547488],[93.924663,24.54709],[93.924923,24.547054],[93.92552,24.546972],[93.926146,24.546887],[93.927393,24.546716],[93.927797,24.546661],[93.932099,24.54546],[93.932549,24.545343],[93.93716,24.544146],[93.940445,24.543293],[93.941747,24.542955],[93.94258,24.542541],[93.944103,24.541785],[93.946131,24.540777],[93.946782,24.540453],[93.947585,24.540054],[93.952299,24.536599],[93.952324,24.536581],[93.956905,24.534265],[93.957574,24.53385],[93.958196,24.533464],[93.966699,24.528185],[93.97105,24.52654],[93.973018,24.525795],[93.975057,24.525392],[93.97571,24.525263],[93.979446,24.524525],[93.984325,24.523268],[93.988285,24.521383],[93.993691,24.519147],[93.996772,24.517574],[93.996773,24.517574],[93.996779,24.51757],[94.0,24.515774],[94.000128,24.515689],[94.000571,24.515502],[94.00098,24.515378],[94.001423,24.515222],[94.001763,24.515129],[94.002274,24.515036],[94.002547,24.514756],[94.00299,24.514476],[94.003739,24.514414],[94.004046,24.514352],[94.004251,24.513947],[94.004557,24.513822],[94.004932,24.513792],[94.005341,24.513698],[94.006226,24.513387],[94.006976,24.513482],[94.007555,24.513482],[94.008066,24.513046],[94.008373,24.512828],[94.008986,24.512423],[94.009497,24.512237],[94.00994,24.512299],[94.010416,24.512424],[94.010825,24.512487],[94.011165,24.512394],[94.011506,24.512176],[94.011745,24.511896],[94.011847,24.511584],[94.01212,24.511553],[94.012358,24.511584],[94.012665,24.511585],[94.012971,24.511523],[94.013517,24.511024],[94.014164,24.510432],[94.014573,24.510028],[94.014812,24.509591],[94.014923,24.509268],[94.014561,24.509047],[94.014099,24.508623],[94.014023,24.508165],[94.014257,24.507504],[94.014433,24.507007],[94.014448,24.506966],[94.01495,24.505908],[94.015722,24.504744],[94.015871,24.504431],[94.016073,24.504005],[94.016224,24.503686],[94.016224,24.503122],[94.016032,24.502593],[94.015647,24.502063],[94.014574,24.500827],[94.014546,24.500795],[94.014538,24.500786],[94.014534,24.500781],[94.01432,24.500409],[94.014092,24.500011],[94.014087,24.500002],[94.014087,24.500001],[94.013855,24.499532],[94.013469,24.49867],[94.013234,24.498145],[94.013158,24.498012],[94.012887,24.497537],[94.012806,24.497396],[94.012446,24.496854],[94.012512,24.496668],[94.012575,24.496493],[94.013335,24.4961],[94.014055,24.496101],[94.015337,24.496675],[94.016654,24.497155],[94.017606,24.497399],[94.017936,24.497278],[94.018198,24.497007],[94.018628,24.495712],[94.018757,24.495324],[94.019221,24.495053],[94.019517,24.495053],[94.019842,24.495171],[94.020173,24.495623],[94.020404,24.495925],[94.020567,24.496016],[94.020799,24.495835],[94.020829,24.495745],[94.020823,24.495724],[94.020765,24.495506],[94.020568,24.495262],[94.020306,24.494964],[94.020272,24.494359],[94.020307,24.49421],[94.020505,24.493939],[94.020801,24.493759],[94.020668,24.493397],[94.020965,24.492134],[94.021227,24.491651],[94.021592,24.491168],[94.021656,24.49111],[94.021592,24.491019],[94.021593,24.490477],[94.021721,24.490085],[94.021756,24.489724],[94.021658,24.489484],[94.021495,24.489362],[94.021199,24.489155],[94.019981,24.488459],[94.019848,24.488341],[94.019784,24.48807],[94.019982,24.487709],[94.020313,24.487466],[94.020442,24.486924],[94.020413,24.486233],[94.02028,24.485543],[94.020217,24.484279],[94.02002,24.484008],[94.019458,24.483195],[94.019064,24.483014],[94.018798,24.482783],[94.018438,24.482571],[94.018078,24.48272],[94.017683,24.483053],[94.017549,24.48308],[94.017421,24.483053],[94.017027,24.482809],[94.016761,24.482358],[94.01686,24.48206],[94.017127,24.481608],[94.016861,24.481035],[94.01624,24.480705],[94.015648,24.480551],[94.01512,24.480433],[94.014958,24.480189],[94.015057,24.479801],[94.015318,24.479409],[94.015417,24.479048],[94.015418,24.478777],[94.015912,24.477906],[94.016736,24.477482],[94.017525,24.477212],[94.017752,24.477154],[94.017851,24.476824],[94.017787,24.476643],[94.017753,24.475948],[94.017985,24.475619],[94.018346,24.474355],[94.018381,24.473963],[94.018347,24.473362],[94.018017,24.472594],[94.018053,24.471389],[94.017955,24.47073],[94.017527,24.469646],[94.017562,24.469073],[94.018318,24.467236],[94.019307,24.46438],[94.019801,24.462877],[94.019733,24.461866],[94.019967,24.460182],[94.020722,24.458648],[94.020984,24.457984],[94.020985,24.457411],[94.020986,24.456662],[94.021282,24.455488],[94.022072,24.455037],[94.023093,24.454677],[94.023813,24.454678],[94.024602,24.455039],[94.024799,24.455459],[94.02608,24.456905],[94.026374,24.458291],[94.027157,24.459704],[94.027749,24.460215],[94.028567,24.460396],[94.02915,24.460187],[94.029209,24.460202],[94.029662,24.460261],[94.031137,24.460343],[94.031862,24.460429],[94.032976,24.460692],[94.033316,24.46081],[94.033817,24.460971],[94.033869,24.46053],[94.034283,24.460025],[94.034408,24.45976],[94.034518,24.459495],[94.035098,24.45894],[94.036104,24.458764],[94.036578,24.458297],[94.036755,24.458365],[94.036953,24.458465],[94.037184,24.458627],[94.037253,24.45869],[94.037312,24.458772],[94.037362,24.458848],[94.037421,24.458966],[94.037554,24.459305],[94.037568,24.459372],[94.037617,24.459765],[94.037632,24.459882],[94.037662,24.460045],[94.037691,24.460203],[94.037726,24.460307],[94.03776,24.460388],[94.03779,24.460442],[94.037834,24.460501],[94.037878,24.460537],[94.037942,24.460573],[94.037987,24.460591],[94.038061,24.4606],[94.03814,24.4606],[94.038238,24.460596],[94.038317,24.460582],[94.038401,24.460546],[94.03846,24.46051],[94.038519,24.460452],[94.038598,24.460348],[94.038668,24.460244],[94.038712,24.460149],[94.038831,24.459775],[94.038842,24.459742],[94.038974,24.459378],[94.039023,24.459292],[94.039048,24.45926],[94.039092,24.459229],[94.039152,24.459202],[94.039216,24.459184],[94.03927,24.459175],[94.039339,24.45917],[94.039398,24.459175],[94.039462,24.459184],[94.039512,24.459202],[94.039546,24.459224],[94.039581,24.459256],[94.03961,24.459292],[94.039635,24.459333],[94.039664,24.459405],[94.039684,24.459468],[94.039698,24.459902],[94.039659,24.460353],[94.039651,24.460477],[94.039645,24.460559],[94.039639,24.460656],[94.039644,24.460741],[94.039653,24.460804],[94.039678,24.460863],[94.039713,24.460922],[94.039747,24.460981],[94.039796,24.461039],[94.039851,24.461084],[94.039915,24.461121],[94.039969,24.461143],[94.040031,24.461158],[94.040196,24.461198],[94.040251,24.461204],[94.040269,24.461207],[94.04027,24.461207],[94.040492,24.461207],[94.04097,24.461144],[94.041305,24.461149],[94.041695,24.461203],[94.041887,24.461257],[94.041961,24.46128],[94.042129,24.461366],[94.042168,24.461393],[94.042198,24.461424],[94.042213,24.461465],[94.042217,24.461524],[94.042212,24.46156],[94.042198,24.4616],[94.042173,24.461659],[94.042143,24.461718],[94.042109,24.461772],[94.042069,24.461831],[94.04203,24.461867],[94.041961,24.461916],[94.041887,24.461966],[94.041818,24.462007],[94.041709,24.462061],[94.041531,24.462142],[94.041433,24.462187],[94.041319,24.462232],[94.041226,24.462263],[94.041013,24.462327],[94.040806,24.46239],[94.040747,24.462412],[94.040693,24.462444],[94.040634,24.462484],[94.040584,24.462529],[94.04053,24.462584],[94.040461,24.462669],[94.040426,24.462719],[94.040392,24.462782],[94.040372,24.462827],[94.040362,24.462868],[94.040362,24.462927],[94.040367,24.462972],[94.040387,24.463026],[94.040421,24.463076],[94.040461,24.463116],[94.040613,24.463247],[94.040663,24.463279],[94.041126,24.463496],[94.041392,24.463595],[94.041688,24.463681],[94.041846,24.463722],[94.041905,24.463731],[94.042208,24.463751],[94.042605,24.463777],[94.043444,24.463782],[94.043617,24.463782],[94.043967,24.4638],[94.04406,24.463818],[94.044129,24.463841],[94.044184,24.463872],[94.044346,24.463994],[94.044499,24.464112],[94.044681,24.464234],[94.044938,24.464446],[94.045169,24.464636],[94.045416,24.464884],[94.045593,24.465083],[94.045825,24.46534],[94.045928,24.465435],[94.04616,24.465602],[94.046318,24.465697],[94.046397,24.465738],[94.046495,24.465774],[94.046564,24.465792],[94.046629,24.465797],[94.04687,24.465788],[94.046964,24.465779],[94.047329,24.465666],[94.048148,24.4654],[94.048207,24.465387],[94.048306,24.465369],[94.04835,24.465364],[94.048572,24.465364],[94.048641,24.465369],[94.04872,24.465387],[94.049055,24.465518],[94.049267,24.465617],[94.049662,24.465821],[94.049967,24.465993],[94.050332,24.4662],[94.05083,24.466467],[94.051082,24.466598],[94.051303,24.466734],[94.051456,24.466828],[94.05152,24.466869],[94.051619,24.46691],[94.051727,24.466937],[94.051841,24.466964],[94.051925,24.466973],[94.052009,24.466973],[94.052083,24.466955],[94.052142,24.466928],[94.052255,24.466847],[94.052359,24.466748],[94.052408,24.466684],[94.052448,24.466626],[94.052472,24.466567],[94.052522,24.466409],[94.052547,24.466301],[94.052561,24.46622],[94.052566,24.466147],[94.052567,24.465696],[94.052567,24.465633],[94.052606,24.465227],[94.052621,24.465132],[94.0527,24.464789],[94.05272,24.464712],[94.052809,24.464419],[94.052987,24.463981],[94.053096,24.463575],[94.05319,24.463155],[94.053313,24.462744],[94.053325,24.462715],[94.051099,24.460668],[94.050143,24.459583],[94.048868,24.458289],[94.047548,24.457413],[94.045453,24.456661],[94.04345,24.4552],[94.042858,24.454366],[94.042357,24.454115],[94.041856,24.454323],[94.041492,24.45474],[94.040984,24.455],[94.040866,24.454874],[94.040807,24.45481],[94.040728,24.454707],[94.04059,24.454454],[94.040378,24.454007],[94.040077,24.453385],[94.039821,24.452855],[94.039733,24.452675],[94.039689,24.452458],[94.039645,24.452268],[94.03963,24.451993],[94.03963,24.451704],[94.039655,24.451571],[94.039685,24.451415],[94.039789,24.451099],[94.039961,24.45086],[94.040119,24.450657],[94.040282,24.450395],[94.040159,24.450314],[94.040041,24.450215],[94.039912,24.450119],[94.039888,24.450102],[94.039755,24.44998],[94.039617,24.449853],[94.039499,24.449745],[94.039292,24.449555],[94.039129,24.449388],[94.03879,24.449077],[94.03873,24.449022],[94.038552,24.448868],[94.03839,24.448719],[94.038025,24.448403],[94.037497,24.447932],[94.036122,24.448189],[94.034527,24.448522],[94.034026,24.448438],[94.033525,24.448229],[94.033371,24.447343],[94.033344,24.447186],[94.033162,24.446936],[94.03257,24.446894],[94.031978,24.446977],[94.031204,24.447268],[94.031203,24.447268],[94.030793,24.447101],[94.030794,24.446184],[94.030614,24.444182],[94.030386,24.443848],[94.030113,24.443973],[94.029931,24.444223],[94.029611,24.444932],[94.029611,24.445265],[94.029383,24.445807],[94.029064,24.446266],[94.028654,24.446558],[94.028244,24.446641],[94.028243,24.446641],[94.026604,24.446306],[94.026149,24.446264],[94.025875,24.446305],[94.025146,24.446889],[94.024736,24.447014],[94.024417,24.446888],[94.02419,24.446596],[94.023963,24.445512],[94.023827,24.445178],[94.023417,24.444969],[94.02287,24.444927],[94.022597,24.444885],[94.022097,24.444176],[94.021733,24.444176],[94.021732,24.444176],[94.021368,24.444008],[94.021141,24.443716],[94.020913,24.443132],[94.02096,24.442382],[94.021188,24.441548],[94.02128,24.440839],[94.02128,24.440338],[94.021007,24.439754],[94.020922,24.43857],[94.020422,24.437944],[94.020058,24.437736],[94.019967,24.437152],[94.019558,24.436567],[94.019012,24.436025],[94.017737,24.435482],[94.0171,24.435022],[94.016462,24.43498],[94.016296,24.434987],[94.01552,24.435019],[94.015038,24.435039],[94.015038,24.435089],[94.015023,24.435143],[94.014998,24.435197],[94.014969,24.435242],[94.014924,24.435278],[94.01485,24.435319],[94.014781,24.43535],[94.014717,24.435364],[94.014604,24.435373],[94.014204,24.435422],[94.014155,24.435436],[94.014091,24.435458],[94.014007,24.435503],[94.013923,24.435562],[94.013771,24.435751],[94.01377,24.435751],[94.013745,24.435787],[94.013731,24.435824],[94.013632,24.436323],[94.013632,24.436325],[94.013617,24.436392],[94.013607,24.436433],[94.013587,24.436474],[94.013518,24.436573],[94.013478,24.436622],[94.013434,24.436668],[94.01337,24.436722],[94.013222,24.436807],[94.01302,24.436906],[94.012955,24.436938],[94.012916,24.436965],[94.012867,24.43701],[94.012832,24.437046],[94.012788,24.437105],[94.012674,24.437285],[94.01261,24.437362],[94.012556,24.437407],[94.012506,24.437439],[94.012432,24.437461],[94.012358,24.437479],[94.012289,24.437479],[94.01223,24.43747],[94.012228,24.437469],[94.012186,24.437452],[94.01212,24.437417],[94.012116,24.437416],[94.011983,24.437312],[94.011855,24.437217],[94.011752,24.437167],[94.011688,24.437145],[94.011614,24.437122],[94.011574,24.437117],[94.011535,24.437117],[94.011495,24.437126],[94.011456,24.437154],[94.011431,24.437185],[94.011402,24.437235],[94.011382,24.437298],[94.011308,24.437623],[94.011194,24.43802],[94.011174,24.438155],[94.011169,24.438223],[94.011169,24.438277],[94.011174,24.438331],[94.011194,24.438377],[94.011195,24.438379],[94.011225,24.438433],[94.01128,24.438492],[94.011282,24.438494],[94.011317,24.438512],[94.011376,24.438526],[94.011465,24.438539],[94.011568,24.438544],[94.011686,24.43854],[94.011687,24.43854],[94.011859,24.438517],[94.011906,24.438511],[94.01214,24.438481],[94.012224,24.438481],[94.012323,24.438486],[94.012377,24.438495],[94.012446,24.438513],[94.01252,24.43854],[94.012584,24.438567],[94.012624,24.438594],[94.012663,24.438635],[94.012683,24.438662],[94.012702,24.438712],[94.012717,24.438771],[94.012717,24.438825],[94.012702,24.438915],[94.012425,24.439759],[94.01239,24.43984],[94.012301,24.440021],[94.012272,24.440066],[94.012218,24.440129],[94.012159,24.440183],[94.012109,24.440224],[94.012065,24.440246],[94.012005,24.440255],[94.011951,24.440251],[94.011897,24.440237],[94.011843,24.440214],[94.011774,24.440178],[94.011705,24.440129],[94.011517,24.43997],[94.011478,24.439934],[94.011444,24.439903],[94.011389,24.439866],[94.011271,24.439803],[94.011158,24.439753],[94.011094,24.439726],[94.011035,24.439708],[94.010976,24.439695],[94.010906,24.43969],[94.010862,24.439695],[94.010808,24.439708],[94.010768,24.439726],[94.010724,24.439753],[94.01069,24.439789],[94.010659,24.439825],[94.010655,24.43983],[94.01065,24.439837],[94.01065,24.439838],[94.01058,24.43995],[94.01058,24.439951],[94.010571,24.439965],[94.010546,24.440028],[94.010527,24.440096],[94.010522,24.440173],[94.010521,24.44024],[94.010526,24.440308],[94.010527,24.44031],[94.010531,24.440349],[94.010545,24.440383],[94.010546,24.440385],[94.010649,24.440561],[94.010718,24.440656],[94.010772,24.440719],[94.010841,24.440787],[94.01091,24.44085],[94.010984,24.440909],[94.011063,24.440959],[94.011216,24.44104],[94.011448,24.441153],[94.011541,24.441207],[94.011724,24.441316],[94.011783,24.441356],[94.011827,24.441388],[94.011881,24.441433],[94.012098,24.441664],[94.012182,24.441745],[94.01227,24.441808],[94.012576,24.442007],[94.012635,24.442052],[94.012675,24.442093],[94.012704,24.442134],[94.012724,24.442174],[94.012739,24.442219],[94.012739,24.442228],[94.012738,24.442274],[94.012729,24.44231],[94.012704,24.442364],[94.012669,24.442418],[94.012635,24.442459],[94.012353,24.442702],[94.012259,24.442767],[94.011826,24.443067],[94.011648,24.443234],[94.011589,24.443297],[94.011588,24.443299],[94.011564,24.443329],[94.01155,24.443364],[94.011549,24.443365],[94.011547,24.443382],[94.011544,24.443401],[94.011542,24.443425],[94.011539,24.443446],[94.011539,24.443448],[94.011544,24.443487],[94.011563,24.443526],[94.011563,24.443528],[94.011565,24.443529],[94.011598,24.443564],[94.011684,24.443629],[94.011687,24.443631],[94.012175,24.443925],[94.012322,24.44402],[94.012382,24.444065],[94.012441,24.444115],[94.01249,24.444165],[94.012544,24.444224],[94.012583,24.444314],[94.012588,24.444368],[94.012583,24.444445],[94.012524,24.444679],[94.01247,24.444828],[94.01241,24.444801],[94.012351,24.444774],[94.012277,24.444747],[94.012233,24.444733],[94.012105,24.444711],[94.012011,24.444697],[94.011917,24.444661],[94.011848,24.444625],[94.011632,24.444494],[94.011336,24.444308],[94.011242,24.444259],[94.011129,24.4442],[94.011025,24.444155],[94.010912,24.444123],[94.010828,24.444109],[94.01073,24.4441],[94.010651,24.444096],[94.010572,24.4441],[94.010463,24.444123],[94.010355,24.444154],[94.010271,24.444181],[94.010192,24.444217],[94.009852,24.44442],[94.009422,24.4447],[94.009269,24.44479],[94.00921,24.444817],[94.009141,24.444839],[94.009092,24.444848],[94.009028,24.444848],[94.008973,24.444844],[94.008934,24.44483],[94.008806,24.444771],[94.008727,24.444744],[94.008653,24.444722],[94.007943,24.444604],[94.007716,24.444558],[94.007632,24.44454],[94.007499,24.444526],[94.007288,24.444517],[94.007287,24.444517],[94.007036,24.444531],[94.006449,24.444607],[94.006277,24.444629],[94.006129,24.444643],[94.006128,24.444643],[94.006005,24.444647],[94.005769,24.444629],[94.005586,24.444588],[94.005527,24.444565],[94.005525,24.444564],[94.005488,24.444538],[94.00545,24.444504],[94.005448,24.444502],[94.005446,24.4445],[94.005446,24.444499],[94.005378,24.444403],[94.005377,24.444403],[94.005374,24.444398],[94.005123,24.443929],[94.00498,24.443689],[94.004838,24.443504],[94.004783,24.443454],[94.004729,24.443414],[94.004655,24.443373],[94.004552,24.443346],[94.004462,24.443341],[94.004371,24.443372],[94.004369,24.443373],[94.004305,24.4434],[94.004256,24.443427],[94.004254,24.443428],[94.004183,24.443489],[94.004182,24.44349],[94.00392,24.443905],[94.003826,24.444049],[94.003629,24.444347],[94.00351,24.44451],[94.003382,24.444668],[94.003342,24.444713],[94.003303,24.444744],[94.003239,24.444789],[94.002923,24.444992],[94.002676,24.445136],[94.002454,24.445267],[94.002336,24.445339],[94.002065,24.445515],[94.001912,24.445632],[94.001862,24.445677],[94.001818,24.445732],[94.001541,24.446147],[94.001383,24.446368],[94.001329,24.446444],[94.00122,24.446562],[94.001166,24.44662],[94.001072,24.446701],[94.000969,24.446774],[94.00089,24.446828],[94.00085,24.44685],[94.000801,24.446868],[94.000707,24.4469],[94.000485,24.446979],[94.000431,24.446999],[94.0,24.447166],[93.999829,24.447201],[93.999755,24.44721],[93.999662,24.447207],[93.999661,24.447207],[93.999657,24.447207],[93.999605,24.447205],[93.999459,24.447197],[93.99939,24.447188],[93.999346,24.447169],[93.999344,24.447168],[93.999297,24.447138],[93.999211,24.447068],[93.999208,24.447065],[93.999148,24.446998],[93.999114,24.446948],[93.999113,24.446946],[93.999095,24.446907],[93.999085,24.446869],[93.999084,24.446867],[93.999065,24.446736],[93.999006,24.446524],[93.998976,24.446442],[93.998947,24.446397],[93.998858,24.446316],[93.998755,24.446244],[93.998691,24.446216],[93.998597,24.446185],[93.998533,24.446176],[93.998474,24.446171],[93.998425,24.446171],[93.998424,24.446171],[93.998385,24.446175],[93.998293,24.446207],[93.998291,24.446207],[93.99829,24.446208],[93.998252,24.446225],[93.99821,24.446251],[93.998207,24.446252],[93.998128,24.446306],[93.998079,24.446342],[93.997957,24.446446],[93.997955,24.446447],[93.997954,24.446448],[93.997815,24.446565],[93.997729,24.446644],[93.996986,24.446594],[93.996984,24.446594],[93.996967,24.446599],[93.996778,24.44655],[93.996777,24.44655],[93.996039,24.446279],[93.995028,24.446125],[93.995027,24.446125],[93.994353,24.446126],[93.993866,24.445817],[93.993192,24.445664],[93.992874,24.445921],[93.992855,24.446093],[93.993118,24.446435],[93.993118,24.446607],[93.992668,24.446676],[93.991657,24.446574],[93.990926,24.446574],[93.990739,24.446712],[93.990552,24.446866],[93.99059,24.447106],[93.99089,24.447295],[93.991414,24.44738],[93.992201,24.447311],[93.993399,24.447173],[93.994167,24.447309],[93.994167,24.447618],[93.993962,24.447995],[93.99355,24.448184],[93.993213,24.448802],[93.993157,24.449128],[93.992989,24.449454],[93.99312,24.449763],[93.993495,24.4499],[93.994151,24.449779],[93.9946,24.449573],[93.994956,24.449144],[93.99518,24.448732],[93.995517,24.448526],[93.995929,24.448354],[93.996116,24.448405],[93.996154,24.448594],[93.996154,24.448954],[93.996379,24.449331],[93.996735,24.44952],[93.996777,24.449483],[93.996969,24.449313],[93.997242,24.448949],[93.997761,24.448374],[93.998439,24.448126],[93.99844,24.448126],[93.999155,24.448274],[93.999845,24.448387],[93.999919,24.448379],[93.999937,24.448377],[93.999998,24.448371],[93.999999,24.448371],[94.0,24.44837],[94.000597,24.44832],[94.00111,24.448072],[94.001956,24.447092],[94.002545,24.446719],[94.00321,24.445849],[94.004357,24.445408],[94.0049,24.445588],[94.005398,24.446114],[94.005699,24.446694],[94.005427,24.447095],[94.004899,24.447233],[94.003631,24.447522],[94.002878,24.448251],[94.002499,24.449218],[94.002302,24.450655],[94.001998,24.451394],[94.001258,24.451821],[94.000911,24.452471],[94.00082,24.452774],[94.000925,24.453134],[94.000985,24.453396],[94.00094,24.453631],[94.000654,24.454036],[94.000589,24.454128],[94.000501,24.454253],[94.000078,24.454777],[94.000024,24.454965],[94.000003,24.45504],[94.000026,24.45508],[94.000153,24.455302],[94.000425,24.455413],[94.000847,24.455289],[94.001228,24.455122],[94.001334,24.455075],[94.0021,24.454738],[94.002583,24.454766],[94.002915,24.454959],[94.003096,24.455319],[94.003201,24.45583],[94.002615,24.456931],[94.002615,24.457235],[94.002841,24.457442],[94.003399,24.457774],[94.003987,24.458369],[94.004409,24.458881],[94.004514,24.459267],[94.004423,24.459475],[94.003925,24.459516],[94.003216,24.459501],[94.00296,24.459515],[94.002959,24.459515],[94.002567,24.46004],[94.002068,24.46055],[94.001389,24.460826],[94.000376,24.461149],[93.999998,24.461417],[93.999519,24.461633],[93.998747,24.461827],[93.998113,24.46189],[93.997569,24.461908],[93.997183,24.462084],[93.996775,24.462298],[93.996685,24.462281],[93.996404,24.462539],[93.996161,24.463002],[93.996161,24.463311],[93.995899,24.4635],[93.995206,24.463552],[93.994569,24.46357],[93.994363,24.463982],[93.994213,24.464273],[93.994308,24.464736],[93.994701,24.464839],[93.995263,24.464839],[93.996032,24.465027],[93.996163,24.465301],[93.996051,24.465593],[93.995695,24.465971],[93.995396,24.466383],[93.99519,24.466829],[93.994909,24.467327],[93.994666,24.467653],[93.994329,24.467739],[93.993805,24.467688],[93.993804,24.467688],[93.993299,24.46774],[93.992999,24.467946],[93.992644,24.468426],[93.992363,24.468615],[93.992362,24.468615],[93.991969,24.468598],[93.991388,24.46829],[93.990732,24.467759],[93.99045,24.467656],[93.990001,24.467656],[93.989626,24.467674],[93.989195,24.467468],[93.988708,24.467005],[93.988483,24.466799],[93.987883,24.466646],[93.987703,24.466553],[93.987152,24.466269],[93.986683,24.465771],[93.986476,24.465223],[93.986495,24.464742],[93.986476,24.464519],[93.986307,24.464365],[93.985967,24.464177],[93.985545,24.463817],[93.985282,24.463449],[93.985263,24.463028],[93.985253,24.462642],[93.985169,24.462445],[93.984662,24.461982],[93.984306,24.461365],[93.984079,24.460853],[93.983968,24.460602],[93.983818,24.460319],[93.983621,24.460225],[93.983284,24.460319],[93.983171,24.460559],[93.983064,24.460945],[93.983059,24.460963],[93.982666,24.461212],[93.982113,24.461332],[93.981533,24.461839],[93.981112,24.462319],[93.980889,24.462421],[93.980607,24.462455],[93.980148,24.462387],[93.979623,24.462473],[93.979361,24.462705],[93.978912,24.4631],[93.978715,24.463323],[93.978481,24.463529],[93.978416,24.463718],[93.9785,24.463932],[93.978838,24.464206],[93.978922,24.464309],[93.97895,24.464455],[93.978913,24.464712],[93.978753,24.465084],[93.97858,24.46538],[93.977957,24.46662],[93.977812,24.467019],[93.977812,24.467458],[93.977836,24.467643],[93.978103,24.468072],[93.978643,24.468841],[93.978803,24.469137],[93.97886,24.469361],[93.978935,24.469636],[93.978907,24.469808],[93.97871,24.470066],[93.978429,24.470427],[93.977961,24.470839],[93.977651,24.471148],[93.977492,24.471329],[93.977445,24.471492],[93.977455,24.471647],[93.977549,24.471922],[93.97815,24.472763],[93.978341,24.472987],[93.978402,24.473159],[93.978365,24.473554],[93.978112,24.473936],[93.9777,24.474242],[93.977616,24.474414],[93.977677,24.474667],[93.978044,24.475118],[93.978539,24.475674],[93.97856,24.475697],[93.978865,24.476041],[93.979375,24.476418],[93.979657,24.476701],[93.979695,24.476899],[93.979592,24.477096],[93.979235,24.47726],[93.97911,24.477314],[93.978794,24.477449],[93.978541,24.477587],[93.978353,24.477776],[93.978297,24.47793],[93.978279,24.478291],[93.978138,24.478575],[93.977906,24.478796],[93.977578,24.479054],[93.977409,24.479217],[93.977306,24.479527],[93.977457,24.479956],[93.977598,24.480334],[93.977504,24.480669],[93.977223,24.480901],[93.977195,24.481081],[93.977345,24.481476],[93.977393,24.481871],[93.977299,24.482086],[93.976924,24.482361],[93.976624,24.482482],[93.976614,24.482576],[93.97669,24.482902],[93.977385,24.483735],[93.977602,24.483929],[93.977789,24.483997],[93.978013,24.484151],[93.978278,24.484266],[93.9786,24.484317],[93.978601,24.484317],[93.979048,24.484317],[93.979384,24.484227],[93.979971,24.48397],[93.980621,24.483534],[93.980796,24.483419],[93.981069,24.483341],[93.981341,24.483264],[93.982419,24.483174],[93.982607,24.483142],[93.982992,24.483077],[93.983188,24.483045],[93.983381,24.483223],[93.983447,24.483425],[93.983428,24.483721],[93.983438,24.48388],[93.983475,24.484077],[93.983616,24.484348],[93.983769,24.48473],[93.983849,24.48507],[93.983835,24.485289],[93.98369,24.485508],[93.983141,24.485972],[93.982836,24.486303],[93.982813,24.486328],[93.98263,24.486526],[93.982427,24.486912],[93.982211,24.487213],[93.982109,24.487745],[93.982024,24.488166],[93.981809,24.488381],[93.981808,24.488381],[93.98134,24.488407],[93.981339,24.488407],[93.980917,24.488253],[93.980476,24.487824],[93.980194,24.487412],[93.980006,24.487343],[93.979518,24.487386],[93.979199,24.487404],[93.978636,24.487232],[93.978085,24.486937],[93.977453,24.486597],[93.977146,24.486523],[93.976442,24.486506],[93.975617,24.486515],[93.975147,24.486567],[93.974913,24.486747],[93.974425,24.486954],[93.973768,24.487031],[93.973055,24.486929],[93.972661,24.486671],[93.972294,24.486113],[93.972153,24.485572],[93.972144,24.485126],[93.971984,24.484928],[93.971763,24.484831],[93.971453,24.484793],[93.971209,24.484819],[93.970975,24.484999],[93.970239,24.485729],[93.969599,24.486459],[93.969308,24.487021],[93.969056,24.487231],[93.968549,24.48749],[93.968179,24.48763],[93.96812,24.487653],[93.967753,24.487962],[93.967744,24.488271],[93.968035,24.488941],[93.968176,24.489576],[93.96813,24.490246],[93.967867,24.490701],[93.967284,24.49106],[93.967211,24.491105],[93.966038,24.491544],[93.965496,24.491811],[93.965139,24.49212],[93.965206,24.492661],[93.965309,24.493442],[93.966098,24.494764],[93.9664,24.495949],[93.967039,24.497477],[93.967771,24.498421],[93.968879,24.498816],[93.970324,24.498746],[93.970812,24.49921],[93.970907,24.499862],[93.971355,24.500006],[93.971407,24.500022],[93.971407,24.500023],[93.971407,24.500024],[93.971417,24.500118],[93.97144,24.500355],[93.971262,24.500782],[93.970854,24.500779],[93.97051,24.501801],[93.969729,24.502507],[93.968673,24.502686],[93.967908,24.502181],[93.966836,24.502062],[93.966316,24.502568],[93.965325,24.503104],[93.964285,24.503387],[93.964284,24.503388],[93.963,24.503106],[93.96261,24.502317],[93.961943,24.50167],[93.962621,24.500803],[93.962628,24.500795],[93.962641,24.500779],[93.962052,24.500027],[93.962043,24.500015],[93.962033,24.500006],[93.962032,24.500006],[93.961677,24.499706],[93.961677,24.499422],[93.961789,24.499147],[93.961667,24.499018],[93.96116,24.499001],[93.960315,24.498864],[93.960127,24.498581],[93.960451,24.498021],[93.960863,24.497643],[93.961501,24.497144],[93.961707,24.496714],[93.961632,24.496336],[93.961238,24.496027],[93.960934,24.495848],[93.960864,24.495781],[93.960857,24.495743],[93.960858,24.495743],[93.960877,24.495708],[93.961224,24.49555],[93.961226,24.495549],[93.961864,24.495293],[93.962401,24.495029],[93.962568,24.494903],[93.962758,24.494703],[93.962926,24.494101],[93.962738,24.49331],[93.962606,24.492795],[93.96268,24.492674],[93.962981,24.492176],[93.963194,24.491839],[93.963319,24.491643],[93.963694,24.491385],[93.963686,24.491181],[93.96361,24.490563],[93.963666,24.490116],[93.963628,24.489652],[93.963309,24.489205],[93.962902,24.488905],[93.962839,24.488372],[93.962858,24.487551],[93.96312,24.486765],[93.963327,24.486486],[93.963691,24.486192],[93.963934,24.485887],[93.964061,24.485429],[93.964095,24.48508],[93.964076,24.484362],[93.963925,24.483683],[93.963727,24.483056],[93.963682,24.482819],[93.963826,24.482391],[93.964143,24.481962],[93.964232,24.481723],[93.964292,24.481344],[93.96428,24.481062],[93.964298,24.480744],[93.964223,24.480374],[93.964026,24.480031],[93.963791,24.479782],[93.963557,24.479553],[93.963491,24.479407],[93.963482,24.479235],[93.963529,24.478866],[93.963594,24.47847],[93.963594,24.478135],[93.963481,24.47768],[93.963086,24.477319],[93.962532,24.47707],[93.961406,24.477088],[93.960702,24.477406],[93.960167,24.477553],[93.959651,24.47751],[93.959219,24.477183],[93.958962,24.476889],[93.958682,24.476589],[93.958374,24.476137],[93.958233,24.475692],[93.958141,24.47554],[93.958053,24.475396],[93.957848,24.475056],[93.957763,24.474644],[93.957313,24.473844],[93.956581,24.473398],[93.955999,24.472797],[93.955773,24.472281],[93.955904,24.47204],[93.956505,24.471868],[93.957481,24.471885],[93.958589,24.472331],[93.959321,24.472864],[93.959509,24.473293],[93.959435,24.473757],[93.959491,24.474462],[93.959736,24.474668],[93.96028,24.474651],[93.960993,24.474135],[93.961669,24.473739],[93.962345,24.473567],[93.962964,24.473326],[93.96318,24.473086],[93.963405,24.472519],[93.96378,24.472123],[93.964381,24.471711],[93.964493,24.471436],[93.964794,24.471298],[93.965357,24.471246],[93.965807,24.471108],[93.966089,24.470885],[93.965957,24.470593],[93.965018,24.469527],[93.964191,24.4686],[93.963515,24.467964],[93.963026,24.467604],[93.962294,24.467604],[93.961712,24.467501],[93.961055,24.466952],[93.961073,24.466436],[93.961073,24.466033],[93.961073,24.465501],[93.961073,24.465473],[93.961052,24.465182],[93.961043,24.464829],[93.961127,24.464486],[93.961333,24.46421],[93.961343,24.464047],[93.961183,24.463832],[93.961077,24.463365],[93.961115,24.463036],[93.961211,24.462825],[93.961544,24.462039],[93.962036,24.461273],[93.962168,24.460783],[93.962252,24.460216],[93.962232,24.459571],[93.962053,24.458652],[93.961978,24.458463],[93.961049,24.457982],[93.96046,24.457471],[93.960293,24.457055],[93.959985,24.456286],[93.959808,24.455095],[93.960164,24.454218],[93.96159,24.453547],[93.962829,24.453237],[93.962884,24.45183],[93.962583,24.450868],[93.960818,24.45025],[93.958753,24.450182],[93.95789,24.449873],[93.957401,24.448774],[93.956575,24.447743],[93.955973,24.446987],[93.955517,24.446363],[93.954984,24.446295],[93.954659,24.446262],[93.954506,24.446246],[93.953944,24.44635],[93.953475,24.446544],[93.952859,24.446712],[93.952337,24.446802],[93.952336,24.446802],[93.951903,24.446852],[93.951902,24.446852],[93.951281,24.44715],[93.950606,24.447408],[93.949526,24.447833],[93.948013,24.448371],[93.946958,24.448746],[93.946184,24.448949],[93.946183,24.448949],[93.945681,24.448963],[93.945257,24.448873],[93.944793,24.448499],[93.944793,24.448498],[93.944765,24.448481],[93.944438,24.448268],[93.944238,24.447885],[93.943393,24.446871],[93.942829,24.446081],[93.941947,24.445205],[93.941045,24.444088],[93.940651,24.443573],[93.939881,24.443246],[93.939243,24.442628],[93.939262,24.442215],[93.939775,24.44181],[93.939937,24.441682],[93.940502,24.44145],[93.940856,24.441304],[93.941569,24.441321],[93.94217,24.441527],[93.942902,24.442317],[93.94386,24.443898],[93.94418,24.444293],[93.944518,24.44431],[93.944818,24.443949],[93.945043,24.443347],[93.945005,24.442883],[93.945136,24.442402],[93.945587,24.442161],[93.946037,24.442144],[93.94657,24.442456],[93.947021,24.442696],[93.947678,24.442696],[93.948748,24.442455],[93.949667,24.442076],[93.95022,24.441869],[93.950971,24.441852],[93.951628,24.442281],[93.952191,24.442453],[93.952811,24.442229],[93.953036,24.441868],[93.953335,24.44118],[93.953823,24.440046],[93.954104,24.439719],[93.955023,24.439306],[93.955395,24.438951],[93.955455,24.438893],[93.956112,24.438618],[93.956461,24.438343],[93.956517,24.43793],[93.956273,24.437604],[93.955972,24.437174],[93.955578,24.436693],[93.955071,24.43647],[93.95507,24.43647],[93.954451,24.436453],[93.953663,24.436024],[93.953024,24.435371],[93.952555,24.435217],[93.951636,24.435389],[93.950772,24.435544],[93.949185,24.435667],[93.948377,24.435614],[93.9465,24.435597],[93.945374,24.435409],[93.944623,24.435065],[93.944379,24.43467],[93.944585,24.434378],[93.945092,24.434103],[93.946312,24.43381],[93.947419,24.433827],[93.948207,24.433723],[93.948744,24.433557],[93.948807,24.433112],[93.948732,24.43276],[93.948244,24.432279],[93.94815,24.43197],[93.948356,24.431471],[93.948506,24.43099],[93.948525,24.430812],[93.948516,24.43074],[93.948389,24.430698],[93.948296,24.430684],[93.947896,24.430662],[93.947284,24.430767],[93.946629,24.431335],[93.945991,24.431885],[93.945635,24.431954],[93.945297,24.431748],[93.944959,24.431404],[93.944471,24.431284],[93.944246,24.43149],[93.944247,24.432247],[93.944228,24.432969],[93.943909,24.433192],[93.943233,24.433055],[93.94267,24.432711],[93.942483,24.432883],[93.942426,24.433296],[93.942033,24.43376],[93.94162,24.433846],[93.941094,24.433812],[93.940513,24.433554],[93.940193,24.433211],[93.940174,24.432592],[93.940234,24.432],[93.940195,24.431946],[93.940194,24.431946],[93.940121,24.431952],[93.939835,24.432157],[93.939483,24.432293],[93.93833,24.432756],[93.938183,24.43277],[93.938182,24.43277],[93.938049,24.432762],[93.937603,24.432679],[93.937069,24.432593],[93.936556,24.432451],[93.935984,24.432615],[93.935621,24.43281],[93.934946,24.433077],[93.934486,24.433193],[93.933982,24.43311],[93.933698,24.432897],[93.933643,24.432506],[93.933731,24.432024],[93.933907,24.431237],[93.934043,24.430769],[93.934301,24.430121],[93.93455,24.429648],[93.936117,24.429175],[93.936999,24.428943],[93.93718,24.428651],[93.937171,24.42835],[93.937048,24.428136],[93.936157,24.427645],[93.935913,24.427483],[93.935811,24.427208],[93.935909,24.426961],[93.936032,24.426764],[93.936155,24.426567],[93.936438,24.426254],[93.93732,24.425824],[93.937756,24.425424],[93.937963,24.425063],[93.938338,24.424728],[93.93907,24.42459],[93.939811,24.424478],[93.940533,24.424735],[93.94126,24.42497],[93.941861,24.424987],[93.942583,24.424823],[93.943231,24.424574],[93.944112,24.424591],[93.944113,24.424591],[93.944994,24.424333],[93.945359,24.424307],[93.945801,24.424479],[93.946448,24.424547],[93.947264,24.424392],[93.948146,24.423986],[93.948765,24.423926],[93.949469,24.42396],[93.949712,24.423894],[93.949718,24.423833],[93.949736,24.423655],[93.948997,24.423509],[93.948465,24.42347],[93.947695,24.423239],[93.947329,24.422972],[93.946963,24.422852],[93.946541,24.422913],[93.945959,24.423093],[93.94473,24.423274],[93.944108,24.423329],[93.943182,24.42317],[93.942621,24.423075],[93.942226,24.422967],[93.94161,24.42269],[93.940992,24.422325],[93.940682,24.421947],[93.94066,24.421912],[93.940586,24.421795],[93.940419,24.421534],[93.940212,24.42113],[93.940212,24.420692],[93.940221,24.420142],[93.940165,24.419867],[93.939517,24.419059],[93.939179,24.418587],[93.938673,24.418134],[93.938157,24.417739],[93.93781,24.417593],[93.937809,24.417593],[93.937359,24.417619],[93.93689,24.417954],[93.936477,24.418496],[93.935999,24.419046],[93.93569,24.419364],[93.935352,24.419476],[93.934658,24.419519],[93.93423,24.419459],[93.933817,24.419459],[93.933189,24.419639],[93.932607,24.419605],[93.932344,24.419605],[93.932213,24.419399],[93.932213,24.418815],[93.932335,24.418291],[93.932503,24.417775],[93.932555,24.417164],[93.932498,24.416502],[93.932376,24.415866],[93.932198,24.415299],[93.931963,24.415067],[93.931315,24.41505],[93.930952,24.415106],[93.930951,24.415106],[93.930503,24.414625],[93.930715,24.414404],[93.930809,24.41402],[93.930784,24.413788],[93.930759,24.413555],[93.930616,24.413009],[93.930423,24.412729],[93.930231,24.412449],[93.929841,24.411976],[93.929393,24.411461],[93.929174,24.411041],[93.929102,24.410901],[93.928988,24.410369],[93.929037,24.409999],[93.929165,24.409656],[93.929165,24.409493],[93.928943,24.409213],[93.928524,24.408757],[93.928218,24.408198],[93.927957,24.407783],[93.927572,24.407385],[93.927266,24.407038],[93.926961,24.40669],[93.926639,24.406568],[93.926039,24.406534],[93.926013,24.406845],[93.926343,24.407342],[93.926729,24.407923],[93.927032,24.408606],[93.927334,24.409289],[93.927345,24.409312],[93.926566,24.41035],[93.925853,24.411003],[93.925703,24.411622],[93.925779,24.412619],[93.925479,24.413684],[93.925291,24.414131],[93.926042,24.414165],[93.926642,24.414131],[93.927018,24.414646],[93.926905,24.415368],[93.926343,24.415643],[93.92638,24.416125],[93.926681,24.416331],[93.926493,24.416881],[93.926418,24.417259],[93.925593,24.417603],[93.925142,24.417672],[93.92488,24.418085],[93.924167,24.418875],[93.923679,24.419563],[93.92368,24.419872],[93.924543,24.420216],[93.925331,24.420834],[93.925331,24.421281],[93.924543,24.421694],[93.923455,24.421763],[93.922742,24.421798],[93.922292,24.422073],[93.921729,24.422279],[93.921091,24.421936],[93.920602,24.421351],[93.920415,24.420595],[93.920865,24.419976],[93.921165,24.419254],[93.920864,24.418086],[93.920826,24.417364],[93.920038,24.416711],[93.919475,24.416299],[93.9194,24.415645],[93.91985,24.414855],[93.920713,24.413411],[93.92135,24.412826],[93.922176,24.412001],[93.922476,24.411554],[93.922438,24.411107],[93.922063,24.410832],[93.921049,24.410661],[93.920486,24.41018],[93.920186,24.409114],[93.91996,24.408633],[93.919548,24.408599],[93.919097,24.408908],[93.918535,24.409355],[93.918235,24.409905],[93.917897,24.410421],[93.917296,24.41018],[93.916583,24.409218],[93.916433,24.408221],[93.916583,24.407774],[93.91647,24.407534],[93.916207,24.407465],[93.915532,24.40774],[93.915157,24.40829],[93.914669,24.40884],[93.914669,24.409734],[93.914369,24.410594],[93.913806,24.410972],[93.912793,24.411178],[93.912305,24.410903],[93.91208,24.410388],[93.91253,24.409632],[93.912643,24.409116],[93.912619,24.409044],[93.912403,24.408954],[93.911924,24.408993],[93.911309,24.409036],[93.911004,24.409006],[93.91069,24.408817],[93.910573,24.408512],[93.910643,24.408211],[93.910868,24.40788],[93.91107,24.407634],[93.911161,24.407373],[93.911138,24.407248],[93.91087,24.406973],[93.909885,24.406509],[93.909166,24.406284],[93.908828,24.406121],[93.908622,24.40588],[93.908556,24.405657],[93.908659,24.40539],[93.908819,24.405149],[93.909204,24.404883],[93.910001,24.40459],[93.910752,24.404504],[93.911447,24.404598],[93.911935,24.404684],[93.912151,24.404848],[93.912151,24.405166],[93.912123,24.405647],[93.912263,24.405845],[93.912498,24.405931],[93.912817,24.405767],[93.912958,24.405544],[93.913185,24.405399],[93.913533,24.405477],[93.913795,24.405494],[93.914086,24.405348],[93.91433,24.405141],[93.914546,24.404823],[93.914612,24.404496],[93.914565,24.404187],[93.914386,24.403645],[93.914331,24.403437],[93.914317,24.403387],[93.914264,24.403189],[93.914133,24.40294],[93.913889,24.402785],[93.913382,24.402622],[93.912894,24.402545],[93.912893,24.402545],[93.912077,24.40251],[93.91158,24.402433],[93.911045,24.402296],[93.910707,24.402107],[93.910585,24.401917],[93.910613,24.401754],[93.910988,24.401548],[93.911182,24.401402],[93.911313,24.401222],[93.911407,24.400758],[93.911397,24.400491],[93.911435,24.400121],[93.911622,24.399528],[93.911977,24.399014],[93.912315,24.39867],[93.912503,24.39824],[93.912503,24.397792],[93.91251,24.397536],[93.912521,24.397122],[93.912498,24.397029],[93.912465,24.396898],[93.911939,24.396382],[93.911263,24.395746],[93.910719,24.395076],[93.910381,24.394181],[93.910287,24.39339],[93.910343,24.392737],[93.91053,24.392204],[93.910525,24.391714],[93.910908,24.391333],[93.911291,24.390952],[93.912169,24.390789],[93.912761,24.390763],[93.912762,24.390763],[93.913355,24.390737],[93.913676,24.390713],[93.914033,24.390519],[93.914314,24.390158],[93.914333,24.389642],[93.914333,24.389126],[93.913957,24.388472],[93.913413,24.387974],[93.913206,24.387613],[93.91315,24.38732],[93.913281,24.386925],[93.913525,24.386804],[93.914163,24.386392],[93.914555,24.386024],[93.914889,24.385666],[93.914839,24.385102],[93.914651,24.384654],[93.914613,24.384207],[93.914436,24.384018],[93.914248,24.38376],[93.914192,24.383433],[93.914417,24.383055],[93.914417,24.382676],[93.914116,24.382419],[93.914022,24.382178],[93.913966,24.381834],[93.914041,24.381387],[93.914379,24.38106],[93.915054,24.380802],[93.915617,24.38044],[93.91543,24.380251],[93.914885,24.38008],[93.914979,24.379512],[93.915547,24.378426],[93.915922,24.377859],[93.91626,24.37705],[93.91626,24.37662],[93.916229,24.376173],[93.916228,24.376173],[93.916062,24.376326],[93.915894,24.376479],[93.915616,24.376837],[93.915282,24.377501],[93.915171,24.378213],[93.915004,24.378598],[93.914837,24.378981],[93.914559,24.379543],[93.914336,24.3799],[93.913943,24.380514],[93.913631,24.380857],[93.91332,24.381199],[93.913091,24.381559],[93.912823,24.381857],[93.912565,24.382339],[93.912307,24.382777],[93.910249,24.384395],[93.909236,24.385204],[93.907734,24.385445],[93.906767,24.385396],[93.906659,24.385368],[93.906602,24.385334],[93.907052,24.384664],[93.907207,24.384381],[93.907361,24.384097],[93.907853,24.383414],[93.908373,24.382989],[93.909091,24.382667],[93.909484,24.382319],[93.909695,24.382048],[93.909878,24.381868],[93.910061,24.381687],[93.910236,24.381449],[93.910412,24.381211],[93.910868,24.380044],[93.911225,24.379441],[93.911394,24.378478],[93.9116,24.377755],[93.911637,24.37717],[93.911637,24.376034],[93.911676,24.375399],[93.911398,24.375577],[93.911119,24.375756],[93.910729,24.376318],[93.91073,24.376879],[93.910674,24.377339],[93.910451,24.377492],[93.910228,24.377645],[93.909894,24.377645],[93.909727,24.377901],[93.909727,24.378258],[93.909783,24.378615],[93.909839,24.378973],[93.909616,24.37933],[93.909198,24.379483],[93.908781,24.379637],[93.908446,24.379662],[93.908112,24.379688],[93.907778,24.379662],[93.907444,24.379637],[93.906831,24.379586],[93.906163,24.379433],[93.905689,24.379433],[93.905216,24.379433],[93.904436,24.379076],[93.904046,24.378999],[93.903656,24.378923],[93.903099,24.378923],[93.902654,24.378923],[93.902548,24.378288],[93.902604,24.37754],[93.902598,24.376757],[93.902429,24.375897],[93.902044,24.375432],[93.901987,24.375071],[93.902194,24.374692],[93.902635,24.374503],[93.903039,24.374331],[93.903199,24.374159],[93.903218,24.373866],[93.903142,24.373505],[93.903025,24.373389],[93.902879,24.373247],[93.902481,24.372849],[93.90235,24.372557],[93.90235,24.37235],[93.902472,24.372118],[93.902829,24.371903],[93.90326,24.371722],[93.903608,24.37143],[93.903758,24.371197],[93.903767,24.370896],[93.903692,24.370707],[93.903542,24.370518],[93.903345,24.370457],[93.903344,24.370457],[93.90295,24.370526],[93.902697,24.370569],[93.901814,24.370879],[93.90111,24.370991],[93.900415,24.370879],[93.900067,24.37063],[93.899964,24.370234],[93.899898,24.369813],[93.899896,24.369791],[93.899852,24.369405],[93.899927,24.369018],[93.900096,24.368811],[93.900434,24.368617],[93.900814,24.368432],[93.90133,24.368346],[93.901832,24.368297],[93.902462,24.368211],[93.902805,24.368111],[93.903049,24.367961],[93.903223,24.367715],[93.903299,24.367569],[93.903331,24.367509],[93.903378,24.367375],[93.903406,24.367108],[93.903373,24.367005],[93.903176,24.366893],[93.902513,24.366885],[93.901992,24.366803],[93.90146,24.366764],[93.901146,24.366686],[93.90086,24.366565],[93.90047,24.366514],[93.900076,24.366545],[93.899879,24.366657],[93.899644,24.366794],[93.899071,24.366863],[93.89907,24.366863],[93.898544,24.366829],[93.898018,24.366674],[93.897492,24.366287],[93.8972,24.365934],[93.896993,24.365236],[93.896815,24.364694],[93.896777,24.364358],[93.896843,24.363979],[93.897068,24.363592],[93.897341,24.363359],[93.897707,24.363187],[93.898355,24.363213],[93.898356,24.363213],[93.898684,24.363153],[93.898943,24.363001],[93.899197,24.362769],[93.899225,24.362657],[93.899235,24.361985],[93.899216,24.361089],[93.899253,24.360537],[93.899394,24.359805],[93.899549,24.359409],[93.899758,24.359345],[93.899855,24.35923],[93.899827,24.359128],[93.899799,24.359026],[93.899716,24.358847],[93.899758,24.35872],[93.899897,24.358618],[93.900312,24.358601],[93.900726,24.358585],[93.900727,24.358585],[93.900866,24.358575],[93.901103,24.358559],[93.901715,24.358508],[93.902133,24.358469],[93.902453,24.35838],[93.902774,24.358291],[93.90299,24.358163],[93.903205,24.358035],[93.903526,24.357742],[93.9035,24.357281],[93.903406,24.35698],[93.903209,24.356876],[93.902927,24.356988],[93.902513,24.35735],[93.902325,24.357548],[93.902043,24.357712],[93.901611,24.357798],[93.90161,24.357798],[93.901272,24.357695],[93.900934,24.35754],[93.900933,24.35754],[93.900652,24.357643],[93.900426,24.357859],[93.900182,24.358143],[93.8999,24.358281],[93.899899,24.358281],[93.899608,24.358255],[93.899467,24.358109],[93.899448,24.357833],[93.89941,24.356558],[93.899429,24.355834],[93.899307,24.35555],[93.898611,24.354818],[93.898263,24.354456],[93.89799,24.354361],[93.897689,24.354413],[93.897389,24.354594],[93.897093,24.355075],[93.896745,24.355282],[93.896144,24.355307],[93.89572,24.355196],[93.895655,24.355066],[93.895655,24.354498],[93.895617,24.354067],[93.895438,24.35361],[93.895278,24.353274],[93.895307,24.352783],[93.895147,24.352301],[93.894789,24.351905],[93.894169,24.351646],[93.89358,24.351522],[93.893251,24.351342],[93.89326,24.351083],[93.893589,24.350799],[93.893824,24.350394],[93.893824,24.349395],[93.893946,24.348533],[93.894124,24.347233],[93.894651,24.346371],[93.894678,24.346199],[93.894763,24.345665],[93.894723,24.344823],[93.894707,24.344476],[93.894876,24.34277],[93.895103,24.341597],[93.894727,24.340288],[93.894614,24.338703],[93.894802,24.337048],[93.895704,24.335188],[93.896028,24.334447],[93.896274,24.334325],[93.89652,24.334202],[93.896687,24.334083],[93.896913,24.333924],[93.897138,24.333764],[93.897476,24.333441],[93.897953,24.333209],[93.898459,24.332939],[93.898951,24.332719],[93.899429,24.332427],[93.899626,24.332176],[93.899823,24.331925],[93.90009,24.33166],[93.90038,24.331372],[93.900568,24.331203],[93.901032,24.330874],[93.901074,24.330842],[93.901091,24.330399],[93.901091,24.330066],[93.900978,24.329815],[93.900483,24.329792],[93.899962,24.329911],[93.899961,24.329911],[93.899466,24.32984],[93.898814,24.32972],[93.898293,24.329386],[93.898485,24.32895],[93.898915,24.328161],[93.898502,24.327506],[93.899253,24.3263],[93.899329,24.32561],[93.89899,24.325369],[93.898192,24.32532],[93.897167,24.324949],[93.896952,24.324504],[93.896922,24.323991],[93.897524,24.323336],[93.897523,24.322681],[93.896922,24.321578],[93.895869,24.321199],[93.894909,24.320945],[93.894177,24.320752],[93.893162,24.320338],[93.892786,24.319683],[93.892523,24.318925],[93.892184,24.318787],[93.891508,24.318581],[93.89068,24.318167],[93.890492,24.317719],[93.890756,24.317202],[93.891395,24.317168],[93.891357,24.316788],[93.890726,24.31629],[93.890369,24.315911],[93.890368,24.315549],[93.890876,24.314635],[93.891308,24.313842],[93.891289,24.313515],[93.890951,24.312964],[93.890443,24.312757],[93.890519,24.312033],[93.890988,24.311447],[93.891815,24.310895],[93.892661,24.310999],[93.893526,24.311429],[93.894202,24.311291],[93.894559,24.310878],[93.895006,24.310423],[93.895567,24.30993],[93.896001,24.30976],[93.896659,24.30976],[93.897108,24.31001],[93.897405,24.31082],[93.897815,24.311667],[93.8982,24.311991],[93.898681,24.311991],[93.898842,24.31177],[93.899075,24.311098],[93.898926,24.310746],[93.898703,24.310361],[93.898456,24.310055],[93.898209,24.309749],[93.897974,24.309539],[93.897739,24.309329],[93.897219,24.308751],[93.896837,24.308325],[93.896577,24.307962],[93.896305,24.307531],[93.896212,24.30731],[93.89612,24.307089],[93.896705,24.307106],[93.896769,24.306252],[93.898567,24.305899],[93.897572,24.303191],[93.897443,24.302691],[93.897925,24.301602],[93.900813,24.298541],[93.90098,24.298289],[93.900932,24.298141],[93.900257,24.296935],[93.900177,24.296523],[93.900402,24.296008],[93.901332,24.294948],[93.901461,24.29458],[93.901204,24.294418],[93.900289,24.294624],[93.899343,24.295007],[93.898973,24.295115],[93.898972,24.295115],[93.898722,24.294952],[93.898316,24.294637],[93.896566,24.29511],[93.893806,24.295346],[93.89326,24.295662],[93.893052,24.295911],[93.892739,24.296044],[93.892551,24.296035],[93.89227,24.296016],[93.892176,24.296006],[93.89189,24.296092],[93.891608,24.296188],[93.891467,24.296236],[93.891217,24.296255],[93.890842,24.29614],[93.890466,24.295853],[93.890154,24.295643],[93.889872,24.295643],[93.889591,24.295643],[93.889174,24.295586],[93.888736,24.295376],[93.88834,24.295108],[93.888048,24.295012],[93.887798,24.294769],[93.887715,24.294687],[93.887464,24.294496],[93.887256,24.29442],[93.887006,24.294458],[93.886902,24.294496],[93.886777,24.294582],[93.886651,24.294668],[93.886422,24.29484],[93.886318,24.294955],[93.886151,24.295204],[93.88613,24.29549],[93.886136,24.295667],[93.886141,24.295844],[93.886146,24.296021],[93.886151,24.296198],[93.885797,24.296618],[93.885588,24.296695],[93.88538,24.296771],[93.884796,24.296905],[93.884233,24.297001],[93.883791,24.297024],[93.882956,24.296848],[93.88245,24.296084],[93.881358,24.29529],[93.880716,24.294201],[93.880928,24.293113],[93.880957,24.292965],[93.881776,24.292508],[93.883525,24.292037],[93.884199,24.291728],[93.884279,24.291331],[93.88407,24.291102],[93.883862,24.290875],[93.883252,24.290213],[93.882904,24.289637],[93.882936,24.289255],[93.883273,24.288916],[93.883915,24.28874],[93.884733,24.288637],[93.885135,24.288166],[93.885135,24.287636],[93.884926,24.286488],[93.884541,24.284752],[93.884316,24.283913],[93.884525,24.283516],[93.885375,24.282853],[93.886131,24.282179],[93.886137,24.282174],[93.88657,24.28135],[93.886698,24.280923],[93.886698,24.280585],[93.886442,24.280217],[93.8858,24.279761],[93.884885,24.279672],[93.884548,24.279349],[93.884468,24.278775],[93.884789,24.27851],[93.885222,24.278422],[93.885735,24.278186],[93.885719,24.277804],[93.885575,24.277215],[93.885382,24.276538],[93.88543,24.276185],[93.885655,24.275905],[93.886088,24.275699],[93.886554,24.275905],[93.886875,24.276494],[93.887115,24.276817],[93.887532,24.276714],[93.887853,24.276317],[93.888142,24.275964],[93.888527,24.275979],[93.888528,24.275979],[93.888865,24.276523],[93.889121,24.277377],[93.889539,24.27823],[93.889699,24.278112],[93.890036,24.2777],[93.890309,24.277597],[93.891176,24.278186],[93.891577,24.278392],[93.89193,24.278274],[93.891946,24.277788],[93.89112,24.276602],[93.890237,24.275565],[93.890045,24.275042],[93.890317,24.274549],[93.891015,24.274409],[93.891016,24.274409],[93.892243,24.274637],[93.893318,24.274917],[93.893768,24.274843],[93.893872,24.274659],[93.89384,24.274402],[93.893182,24.273592],[93.891583,24.272966],[93.890219,24.272259],[93.887957,24.27195],[93.886239,24.271538],[93.88502,24.271803],[93.884362,24.271524],[93.884209,24.271124],[93.884546,24.270182],[93.88498,24.269299],[93.885542,24.268695],[93.885543,24.268695],[93.886216,24.268695],[93.886217,24.268695],[93.886987,24.269283],[93.887725,24.269489],[93.888912,24.269077],[93.890099,24.268989],[93.890902,24.268253],[93.891672,24.2679],[93.891415,24.267576],[93.890196,24.267341],[93.889329,24.266781],[93.888366,24.265575],[93.88826,24.265295],[93.888345,24.264843],[93.888533,24.264573],[93.889239,24.264352],[93.889849,24.264337],[93.890362,24.264161],[93.890363,24.264161],[93.891165,24.264146],[93.892031,24.264219],[93.892304,24.26419],[93.892464,24.263925],[93.892432,24.263734],[93.891357,24.26313],[93.89033,24.262203],[93.89017,24.261583],[93.890151,24.26104],[93.890571,24.260128],[93.890799,24.259426],[93.891213,24.259128],[93.891388,24.258949],[93.891562,24.258771],[93.891695,24.258559],[93.891828,24.258347],[93.891924,24.25818],[93.89202,24.258013],[93.892161,24.257839],[93.892301,24.257665],[93.892498,24.257557],[93.892695,24.257448],[93.892931,24.257354],[93.893167,24.257259],[93.893707,24.258055],[93.893931,24.258378],[93.893932,24.258378],[93.894268,24.258305],[93.894397,24.257908],[93.89466,24.256785],[93.894955,24.256554],[93.895122,24.256247],[93.89526,24.256112],[93.895398,24.255976],[93.895399,24.255976],[93.895686,24.255757],[93.895974,24.255539],[93.896169,24.25538],[93.896363,24.255222],[93.896698,24.254771],[93.89688,24.254347],[93.897013,24.253993],[93.897146,24.25364],[93.898012,24.253301],[93.89936,24.253036],[93.900386,24.253065],[93.900387,24.253065],[93.901012,24.253492],[93.901558,24.254198],[93.901991,24.254566],[93.902392,24.254537],[93.902569,24.254367],[93.902713,24.254227],[93.902839,24.254008],[93.902693,24.253782],[93.902527,24.253361],[93.902297,24.252979],[93.902089,24.252616],[93.901776,24.252329],[93.901234,24.2521],[93.900776,24.252004],[93.90013,24.252023],[93.899609,24.252196],[93.899213,24.252215],[93.898734,24.252253],[93.898733,24.252253],[93.898621,24.251726],[93.89889,24.250843],[93.898852,24.250817],[93.898744,24.250741],[93.898368,24.25063],[93.897618,24.25027],[93.897631,24.250229],[93.897652,24.250164],[93.897661,24.250136],[93.897664,24.250127],[93.897668,24.250113],[93.897672,24.250103],[93.897683,24.25005],[93.897694,24.250002],[93.897694,24.250001],[93.897695,24.249999],[93.897757,24.249812],[93.89776,24.2498],[93.897811,24.249694],[93.89783,24.249652],[93.897875,24.249558],[93.897879,24.24955],[93.897879,24.249549],[93.897884,24.249539],[93.897886,24.249534],[93.897888,24.24953],[93.897898,24.249506],[93.897907,24.249484],[93.897909,24.24948],[93.897945,24.249394],[93.897975,24.249324],[93.898006,24.24925],[93.898238,24.248812],[93.898361,24.248554],[93.898459,24.248329],[93.898553,24.248135],[93.898666,24.247877],[93.898755,24.247638],[93.898823,24.247462],[93.898828,24.247447],[93.898878,24.247295],[93.898922,24.247169],[93.898956,24.247038],[93.899025,24.246807],[93.899084,24.246586],[93.899143,24.246383],[93.899222,24.246117],[93.899266,24.245864],[93.899335,24.245579],[93.899424,24.245209],[93.899448,24.245002],[93.899493,24.244758],[93.899527,24.244568],[93.899542,24.244379],[93.899571,24.244252],[93.89963,24.244058],[93.899699,24.243914],[93.899793,24.243724],[93.899975,24.243467],[93.900118,24.243331],[93.900226,24.243223],[93.900467,24.24302],[93.900777,24.242731],[93.901053,24.242541],[93.901338,24.242288],[93.901644,24.242017],[93.901988,24.241728],[93.902141,24.24157],[93.902225,24.241467],[93.902343,24.241358],[93.902421,24.241268],[93.902559,24.241123],[93.902658,24.240974],[93.902815,24.240767],[93.902909,24.240609],[93.903007,24.240446],[93.903042,24.240366],[93.90313,24.240166],[93.903194,24.239972],[93.903278,24.239796],[93.903342,24.239652],[93.903396,24.239512],[93.903465,24.239313],[93.903494,24.239151],[93.903563,24.23888],[93.903607,24.238573],[93.903622,24.238392],[93.903652,24.238221],[93.903652,24.238026],[93.903661,24.23785],[93.903637,24.237506],[93.902933,24.237485],[93.902714,24.237507],[93.902573,24.237133],[93.902386,24.236799],[93.901934,24.236808],[93.901933,24.236808],[93.901288,24.237106],[93.900634,24.23744],[93.900265,24.237548],[93.8999,24.23749],[93.899428,24.237187],[93.899186,24.236551],[93.899186,24.235914],[93.899255,24.235246],[93.899285,24.234736],[93.89926,24.234046],[93.899235,24.233802],[93.899028,24.233274],[93.898812,24.232876],[93.898482,24.232303],[93.897984,24.231405],[93.897576,24.230529],[93.897241,24.229789],[93.897,24.229274],[93.896947,24.229181],[93.896787,24.228898],[93.896709,24.22876],[93.896389,24.228259],[93.895985,24.227762],[93.895656,24.227554],[93.895365,24.227482],[93.894912,24.227455],[93.894307,24.227555],[93.893814,24.227631],[93.893578,24.227595],[93.893165,24.227365],[93.892909,24.227026],[93.892805,24.226521],[93.892909,24.226101],[93.893268,24.22555],[93.893686,24.225058],[93.89408,24.224354],[93.894656,24.223316],[93.894749,24.222833],[93.894838,24.222115],[93.894848,24.221695],[93.894951,24.221086],[93.895015,24.220607],[93.895029,24.220034],[93.895,24.21965],[93.894887,24.218842],[93.894631,24.218138],[93.894286,24.217379],[93.894084,24.217005],[93.893764,24.216531],[93.893154,24.215538],[93.892464,24.21454],[93.891977,24.213723],[93.891623,24.213303],[93.891199,24.212847],[93.890766,24.212459],[93.890461,24.212075],[93.890308,24.211773],[93.890293,24.211538],[93.890421,24.211141],[93.890564,24.210789],[93.890781,24.210342],[93.89116,24.209967],[93.891681,24.209516],[93.892036,24.209281],[93.892941,24.208893],[93.893532,24.208586],[93.894231,24.208242],[93.894782,24.207935],[93.895215,24.207782],[93.895998,24.207538],[93.896657,24.20738],[93.897277,24.207244],[93.89775,24.207109],[93.898439,24.206919],[93.899084,24.206734],[93.899492,24.206544],[93.899792,24.20626],[93.900053,24.205971],[93.900309,24.205614],[93.900481,24.205204],[93.900589,24.204951],[93.900678,24.204743],[93.900688,24.204653],[93.900673,24.204545],[93.900491,24.204007],[93.900235,24.203371],[93.899501,24.202378],[93.898822,24.201598],[93.898428,24.201146],[93.89788,24.200509],[93.897744,24.200351],[93.897468,24.199855],[93.897363,24.199419],[93.897276,24.199421],[93.896932,24.199484],[93.896809,24.199534],[93.896745,24.199624],[93.896597,24.199859],[93.896509,24.199999],[93.896386,24.200126],[93.896139,24.20032],[93.895839,24.200523],[93.895569,24.200762],[93.89514,24.201092],[93.894816,24.201367],[93.894496,24.201634],[93.894333,24.201746],[93.894181,24.201864],[93.894068,24.201927],[93.893895,24.202017],[93.89362,24.202108],[93.893398,24.202184],[93.893187,24.20223],[93.892867,24.202284],[93.892591,24.202333],[93.892114,24.202397],[93.891774,24.202464],[93.891435,24.202541],[93.891139,24.202631],[93.890937,24.20269],[93.890785,24.202758],[93.890559,24.202862],[93.890308,24.202966],[93.890071,24.203092],[93.88982,24.203282],[93.889584,24.203458],[93.889372,24.20367],[93.889082,24.203859],[93.888939,24.203945],[93.888742,24.203923],[93.888398,24.203887],[93.888255,24.203855],[93.888078,24.203823],[93.887861,24.203792],[93.887645,24.203769],[93.887458,24.203715],[93.88734,24.20367],[93.887207,24.203589],[93.887084,24.203512],[93.886941,24.203345],[93.886779,24.203038],[93.886611,24.202781],[93.886488,24.202505],[93.886412,24.202349],[93.88639,24.202302],[93.886355,24.202222],[93.886326,24.202153],[93.886316,24.202136],[93.886304,24.202115],[93.886242,24.202009],[93.885863,24.202266],[93.885612,24.202501],[93.88542,24.202704],[93.885292,24.202776],[93.885149,24.20288],[93.885056,24.202894],[93.884997,24.202894],[93.884913,24.202894],[93.884904,24.202893],[93.884771,24.20288],[93.88473,24.202838],[93.884705,24.202812],[93.884657,24.202763],[93.884564,24.202677],[93.884436,24.202528],[93.884308,24.20237],[93.884185,24.202266],[93.884057,24.202135],[93.883993,24.202077],[93.883929,24.202022],[93.883771,24.201946],[93.883673,24.201887],[93.883579,24.201833],[93.883353,24.201747],[93.883112,24.201657],[93.882999,24.201603],[93.882846,24.20153],[93.88259,24.201445],[93.882221,24.201282],[93.881931,24.201156],[93.881808,24.201101],[93.88166,24.201052],[93.881493,24.20098],[93.881325,24.200903],[93.881212,24.200853],[93.881084,24.20079],[93.880917,24.200659],[93.880759,24.200546],[93.880543,24.20037],[93.880425,24.200271],[93.880247,24.200153],[93.88007,24.200041],[93.879898,24.199914],[93.879662,24.199756],[93.879509,24.199675],[93.879258,24.199562],[93.879096,24.199508],[93.878943,24.19944],[93.878805,24.199359],[93.878717,24.199296],[93.878589,24.199219],[93.878466,24.199169],[93.878367,24.199156],[93.87822,24.199133],[93.878048,24.19912],[93.877826,24.199102],[93.877191,24.19912],[93.876965,24.199138],[93.876817,24.199147],[93.876684,24.199174],[93.876438,24.199278],[93.876015,24.199467],[93.875301,24.199806],[93.874996,24.199946],[93.874784,24.200099],[93.874529,24.200361],[93.87413,24.200767],[93.873943,24.201074],[93.87378,24.201386],[93.873692,24.201589],[93.873633,24.201914],[93.873618,24.202257],[93.873608,24.202492],[93.873603,24.202605],[93.873583,24.202781],[93.873529,24.202916],[93.873411,24.203205],[93.873155,24.203598],[93.872958,24.203963],[93.872845,24.204126],[93.872633,24.204501],[93.872586,24.204579],[93.872456,24.204794],[93.872087,24.205336],[93.871885,24.205706],[93.871708,24.206017],[93.871619,24.206211],[93.87156,24.206351],[93.871531,24.206518],[93.871522,24.206549],[93.871482,24.206694],[93.871462,24.206857],[93.871442,24.207065],[93.871437,24.207299],[93.871422,24.20743],[93.871393,24.20753],[93.871334,24.207602],[93.871221,24.207751],[93.870927,24.208024],[93.870891,24.208058],[93.870344,24.208559],[93.870207,24.208735],[93.870206,24.208735],[93.869773,24.208532],[93.868941,24.208243],[93.868444,24.208116],[93.86808,24.208062],[93.867322,24.208008],[93.866948,24.207949],[93.866491,24.207895],[93.866067,24.207949],[93.865555,24.208048],[93.865058,24.20813],[93.863789,24.208282],[93.863843,24.208314],[93.864561,24.208816],[93.864822,24.209014],[93.865097,24.209299],[93.865245,24.209452],[93.865846,24.210008],[93.866215,24.210409],[93.866613,24.210874],[93.866732,24.211073],[93.866845,24.211263],[93.86712,24.211673],[93.867379,24.212004],[93.867445,24.212089],[93.867681,24.212343],[93.867844,24.212518],[93.868597,24.21343],[93.868744,24.213773],[93.868828,24.214007],[93.868828,24.21426],[93.868803,24.214536],[93.868705,24.214861],[93.868459,24.21538],[93.868282,24.215858],[93.868006,24.216382],[93.867838,24.216736],[93.867666,24.2171],[93.867474,24.217587],[93.867484,24.217989],[93.867528,24.218291],[93.867676,24.218666],[93.867897,24.219032],[93.868252,24.219357],[93.868498,24.21961],[93.868852,24.219786],[93.869285,24.219993],[93.869753,24.22007],[93.870191,24.220183],[93.870585,24.220183],[93.871737,24.220269],[93.872421,24.22031],[93.873021,24.220269],[93.873637,24.220346],[93.874114,24.220422],[93.874784,24.220495],[93.875635,24.220594],[93.876044,24.220671],[93.876382,24.220812],[93.876551,24.220883],[93.87722,24.221262],[93.877781,24.221587],[93.878411,24.222075],[93.878781,24.222441],[93.879327,24.2231],[93.879475,24.223438],[93.879844,24.224467],[93.879996,24.224941],[93.88012,24.225646],[93.880159,24.226535],[93.88009,24.227013],[93.879888,24.227903],[93.879681,24.228332],[93.879421,24.228634],[93.879091,24.228896],[93.878529,24.229262],[93.878106,24.229438],[93.877574,24.229623],[93.876905,24.229776],[93.875891,24.230052],[93.875374,24.230173],[93.874768,24.230349],[93.874035,24.230535],[93.873498,24.230607],[93.872666,24.230683],[93.871859,24.230819],[93.871066,24.230932],[93.870407,24.231022],[93.869353,24.231098],[93.868344,24.231171],[93.86766,24.231184],[93.866828,24.23118],[93.865897,24.231243],[93.865267,24.231283],[93.864037,24.231355],[93.863382,24.231468],[93.862668,24.231572],[93.862097,24.231621],[93.86156,24.231707],[93.861176,24.231847],[93.860866,24.231973],[93.860551,24.232222],[93.860206,24.232574],[93.860059,24.232799],[93.859729,24.233201],[93.859222,24.233914],[93.859151,24.234141],[93.859143,24.234167],[93.859197,24.234415],[93.859305,24.234655],[93.859482,24.23493],[93.859714,24.235169],[93.860044,24.235481],[93.860427,24.235806],[93.860752,24.236172],[93.860974,24.236497],[93.861121,24.236876],[93.861244,24.237327],[93.861328,24.237652],[93.861358,24.237901],[93.861604,24.238519],[93.861781,24.238745],[93.861973,24.23893],[93.862175,24.239056],[93.862677,24.239264],[93.86313,24.239377],[93.863189,24.239395],[93.863706,24.239553],[93.864306,24.239644],[93.864705,24.239815],[93.865005,24.240032],[93.865375,24.240384],[93.865744,24.240795],[93.866182,24.241224],[93.866782,24.241937],[93.867014,24.24219],[93.867152,24.242515],[93.867383,24.243129],[93.867452,24.243467],[93.867437,24.243896],[93.867398,24.244194],[93.867314,24.244474],[93.867191,24.244709],[93.866974,24.245061],[93.866698,24.245287],[93.866319,24.245458],[93.865911,24.245548],[93.865404,24.245612],[93.864941,24.245625],[93.864296,24.245648],[93.863803,24.245697],[93.86338,24.24581],[93.863094,24.245986],[93.862888,24.246126],[93.862612,24.246401],[93.862356,24.246767],[93.862203,24.247105],[93.862149,24.247543],[93.862203,24.248017],[93.862479,24.248609],[93.862858,24.249299],[93.86335,24.24995],[93.863393,24.250001],[93.863433,24.25005],[93.863434,24.250051],[93.864058,24.250807],[93.864088,24.250844],[93.864776,24.251353],[93.864973,24.25217],[93.865054,24.252744],[93.865095,24.25315],[93.865061,24.253499],[93.865027,24.253705],[93.864925,24.253973],[93.864771,24.254196],[93.864444,24.254626],[93.864118,24.255056],[93.863194,24.255892],[93.862731,24.256627],[93.862636,24.257095],[93.862541,24.257563],[93.862473,24.258068],[93.862405,24.258573],[93.862389,24.258857],[93.862387,24.258885],[93.862384,24.258934],[93.862364,24.259296],[93.862395,24.259591],[93.862396,24.259606],[93.862403,24.259676],[93.862405,24.259688],[93.862405,24.259695],[93.862425,24.259886],[93.862568,24.260447],[93.862711,24.260784],[93.862822,24.260975],[93.862847,24.261017],[93.862983,24.261251],[93.863293,24.261851],[93.863646,24.262112],[93.863884,24.262274],[93.863952,24.262436],[93.864,24.262655],[93.864047,24.263122],[93.864142,24.263704],[93.864264,24.264471],[93.864407,24.265063],[93.864576,24.265537],[93.864801,24.266098],[93.864977,24.266503],[93.865065,24.266657],[93.86522,24.266933],[93.865682,24.267432],[93.866253,24.267843],[93.86662,24.268033],[93.867069,24.268267],[93.867762,24.268591],[93.868401,24.268927],[93.868945,24.269401],[93.869297,24.269711],[93.869499,24.269889],[93.869953,24.270289],[93.871054,24.271348],[93.871965,24.272183],[93.872427,24.272682],[93.872672,24.273131],[93.872781,24.273629],[93.872821,24.27429],[93.872822,24.274863],[93.872849,24.275274],[93.873026,24.275848],[93.873366,24.276446],[93.873665,24.277032],[93.87376,24.277368],[93.873787,24.277742],[93.873828,24.278029],[93.874059,24.27839],[93.874548,24.278677],[93.874983,24.278752],[93.875405,24.278752],[93.875921,24.278665],[93.876453,24.278644],[93.876498,24.278643],[93.876519,24.278642],[93.876574,24.27864],[93.876753,24.278689],[93.876754,24.278689],[93.876797,24.278702],[93.876806,24.278704],[93.877228,24.278821],[93.877687,24.278952],[93.878108,24.279154],[93.878441,24.279425],[93.87875,24.2797],[93.878973,24.280002],[93.879106,24.280245],[93.879218,24.28055],[93.87934,24.280896],[93.879401,24.281198],[93.879439,24.281476],[93.87948,24.281887],[93.87947,24.282012],[93.879446,24.282093],[93.879419,24.282171],[93.879365,24.282274],[93.879278,24.282371],[93.878932,24.282714],[93.878442,24.283113],[93.877606,24.283786],[93.877267,24.284042],[93.876675,24.28449],[93.876385,24.284725],[93.876024,24.285017],[93.875805,24.285194],[93.875499,24.28545],[93.875174,24.285621],[93.874853,24.28579],[93.874115,24.286179],[93.874108,24.286183],[93.873884,24.286376],[93.872851,24.287192],[93.872225,24.287597],[93.870633,24.288681],[93.870089,24.28903],[93.86943,24.289323],[93.868539,24.289697],[93.867571,24.290236],[93.867367,24.290451],[93.867228,24.290694],[93.86718,24.290893],[93.86719,24.291111],[93.867268,24.29127],[93.867462,24.291445],[93.867839,24.291685],[93.868574,24.292074],[93.869002,24.292337],[93.869773,24.292923],[93.870411,24.293709],[93.870802,24.29432],[93.871279,24.295292],[93.871493,24.29575],[93.871521,24.295827],[93.87164,24.296149],[93.871738,24.296632],[93.871732,24.296797],[93.871538,24.297177],[93.871178,24.297694],[93.870508,24.29852],[93.870229,24.298908],[93.869834,24.299578],[93.869338,24.300516],[93.86925,24.300751],[93.869026,24.301542],[93.868904,24.302227],[93.868842,24.302944],[93.868747,24.303798],[93.868653,24.304517],[93.868578,24.305165],[93.86851,24.3061],[93.868442,24.306966],[93.868321,24.307613],[93.868157,24.307987],[93.86779,24.308841],[93.867226,24.309962],[93.866845,24.310623],[93.866396,24.31134],[93.865961,24.312082],[93.865601,24.312854],[93.865397,24.313197],[93.865145,24.313434],[93.864934,24.313577],[93.864608,24.313652],[93.864302,24.313696],[93.863751,24.313658],[93.863241,24.313596],[93.862371,24.31339],[93.861424,24.313165],[93.860241,24.312909],[93.859147,24.312678],[93.858453,24.312516],[93.8574,24.312358],[93.856706,24.31219],[93.855918,24.311885],[93.855489,24.311779],[93.855265,24.311803],[93.854938,24.311978],[93.8547,24.312221],[93.854517,24.312495],[93.854367,24.312763],[93.854238,24.313068],[93.854163,24.313318],[93.854088,24.313579],[93.854109,24.313791],[93.854177,24.314022],[93.854292,24.314184],[93.854605,24.314371],[93.855101,24.314645],[93.855441,24.314789],[93.856764,24.315371],[93.857369,24.315633],[93.857512,24.315795],[93.857525,24.315932],[93.857525,24.316069],[93.857478,24.316274],[93.857308,24.316673],[93.857042,24.317203],[93.856474,24.318289],[93.856155,24.318956],[93.85593,24.319561],[93.855733,24.320221],[93.855658,24.320657],[93.855636,24.321282],[93.855602,24.321407],[93.855559,24.321697],[93.855548,24.321774],[93.85548,24.322105],[93.855323,24.322715],[93.855227,24.323209],[93.855115,24.32395],[93.854962,24.324887],[93.8549,24.325317],[93.854826,24.32565],[93.85468,24.326015],[93.854584,24.326256],[93.854322,24.326879],[93.854077,24.327428],[93.853948,24.327792],[93.853939,24.327985],[93.853983,24.328172],[93.854064,24.328427],[93.854183,24.328542],[93.854357,24.328645],[93.854554,24.328683],[93.854747,24.328683],[93.855093,24.328645],[93.85544,24.328353],[93.855753,24.327954],[93.856191,24.327152],[93.856681,24.32636],[93.857205,24.325656],[93.858005,24.325019],[93.858413,24.324854],[93.858433,24.324852],[93.858957,24.324808],[93.85954,24.324996],[93.859751,24.325246],[93.859836,24.325607],[93.859876,24.325956],[93.859897,24.32633],[93.859952,24.326799],[93.859986,24.327067],[93.860034,24.327404],[93.860074,24.327616],[93.860061,24.328052],[93.860061,24.328613],[93.860087,24.328808],[93.860291,24.329257],[93.860631,24.329762],[93.860787,24.329924],[93.86129,24.330491],[93.861786,24.330983],[93.862253,24.331396],[93.862865,24.331895],[93.863823,24.332767],[93.863859,24.332807],[93.86449,24.333509],[93.864612,24.333659],[93.864646,24.333796],[93.864674,24.333983],[93.864653,24.334158],[93.864599,24.334363],[93.86449,24.334619],[93.864361,24.334837],[93.864252,24.334968],[93.864014,24.335123],[93.863674,24.335317],[93.86302,24.335637],[93.861979,24.336154],[93.861361,24.33649],[93.860096,24.337238],[93.859075,24.337923],[93.858218,24.338458],[93.857715,24.33882],[93.857259,24.339231],[93.856668,24.339661],[93.856413,24.339822],[93.856094,24.340024],[93.855584,24.340394],[93.855264,24.34064],[93.854916,24.340863],[93.854284,24.341249],[93.85393,24.341411],[93.853427,24.341505],[93.852876,24.34161],[93.852434,24.341866],[93.852182,24.342121],[93.852039,24.342364],[93.851985,24.342639],[93.851973,24.342771],[93.851951,24.343019],[93.852012,24.34343],[93.852116,24.343797],[93.852279,24.344134],[93.852606,24.344607],[93.852864,24.34495],[93.853177,24.345224],[93.853469,24.345474],[93.853768,24.345654],[93.85411,24.345858],[93.854217,24.345922],[93.85468,24.346153],[93.855428,24.346454],[93.856101,24.346759],[93.856482,24.346984],[93.8574,24.347464],[93.857998,24.34775],[93.858434,24.348062],[93.859608,24.348996],[93.86039,24.349569],[93.860682,24.349837],[93.860852,24.350049],[93.861077,24.350361],[93.861389,24.350673],[93.861769,24.351014],[93.862483,24.351588],[93.862864,24.351881],[93.863081,24.352105],[93.863326,24.352435],[93.86355,24.352809],[93.863713,24.353227],[93.863822,24.353588],[93.863877,24.353937],[93.863899,24.354216],[93.863824,24.354509],[93.863715,24.354777],[93.863559,24.355051],[93.863231,24.355364],[93.862972,24.355578],[93.862574,24.355765],[93.862163,24.355881],[93.861554,24.355947],[93.860765,24.355903],[93.859779,24.355797],[93.858725,24.35566],[93.857984,24.355541],[93.85746,24.355417],[93.85729,24.355359],[93.8569,24.355227],[93.856342,24.354853],[93.855873,24.354329],[93.85539,24.353718],[93.854679,24.352657],[93.854281,24.352096],[93.854019,24.351877],[93.853761,24.351806],[93.853359,24.351768],[93.85303,24.351771],[93.852463,24.35183],[93.852069,24.351947],[93.851856,24.352068],[93.851498,24.352271],[93.851097,24.352557],[93.850777,24.352937],[93.850376,24.353598],[93.850158,24.354009],[93.849995,24.354383],[93.849845,24.354813],[93.849824,24.355044],[93.849865,24.355386],[93.849967,24.355648],[93.850273,24.356003],[93.850729,24.356434],[93.85123,24.356776],[93.852262,24.357392],[93.852351,24.357445],[93.852355,24.357447],[93.852474,24.357518],[93.853004,24.358023],[93.853366,24.358423],[93.853732,24.358827],[93.854058,24.359357],[93.854276,24.359758],[93.854398,24.360219],[93.85437,24.360661],[93.854204,24.361067],[93.854132,24.36124],[93.853921,24.361579],[93.853697,24.361938],[93.853438,24.362287],[93.852828,24.362749],[93.852731,24.362823],[93.852102,24.363247],[93.851418,24.363708],[93.850989,24.364025],[93.850709,24.36429],[93.850497,24.364491],[93.84996,24.365008],[93.849361,24.365687],[93.849191,24.36593],[93.848851,24.366585],[93.848613,24.367114],[93.848361,24.367687],[93.848121,24.368205],[93.847856,24.36884],[93.847733,24.369351],[93.847638,24.369806],[93.847577,24.370093],[93.847508,24.370348],[93.847379,24.370703],[93.847148,24.371414],[93.847032,24.371822],[93.846984,24.372003],[93.846954,24.372311],[93.846897,24.372966],[93.846856,24.37357],[93.846828,24.374044],[93.846781,24.374349],[93.846746,24.374602],[93.846709,24.374923],[93.846699,24.375156],[93.846713,24.375445],[93.846784,24.375928],[93.846825,24.376068],[93.846876,24.376171],[93.846961,24.376264],[93.847121,24.376355],[93.847393,24.376433],[93.84775,24.37647],[93.8481,24.376495],[93.84857,24.376489],[93.849247,24.37652],[93.849533,24.376557],[93.84991,24.376685],[93.850305,24.376887],[93.850784,24.377165],[93.851213,24.377411],[93.851601,24.37767],[93.851849,24.377837],[93.85206,24.378065],[93.852091,24.378118],[93.852172,24.378258],[93.852284,24.378632],[93.852359,24.378972],[93.852362,24.379205],[93.852362,24.379315],[93.852292,24.37956],[93.85205,24.380099],[93.851713,24.380663],[93.851428,24.380974],[93.850965,24.381354],[93.850102,24.382002],[93.849337,24.382616],[93.848929,24.382996],[93.848063,24.383807],[93.847587,24.384237],[93.847328,24.384511],[93.847199,24.384648],[93.846923,24.385062],[93.846741,24.385394],[93.846673,24.385655],[93.846622,24.385976],[93.846598,24.386198],[93.846596,24.386249],[93.846585,24.3865],[93.846572,24.386785],[93.846587,24.386994],[93.846605,24.387252],[93.846639,24.38747],[93.846714,24.38785],[93.846792,24.388134],[93.846928,24.388414],[93.847132,24.388969],[93.84722,24.389243],[93.847235,24.389319],[93.847288,24.389592],[93.847343,24.38986],[93.847365,24.390005],[93.847338,24.390279],[93.847269,24.390603],[93.847133,24.391033],[93.846878,24.391625],[93.846673,24.392067],[93.84651,24.392553],[93.846394,24.393027],[93.846272,24.393513],[93.846231,24.39368],[93.846217,24.393904],[93.846156,24.394509],[93.846135,24.39477],[93.846108,24.395119],[93.846128,24.39545],[93.846169,24.395643],[93.846217,24.395811],[93.846244,24.395875],[93.846312,24.396035],[93.846332,24.396075],[93.846387,24.396187],[93.846523,24.396412],[93.846673,24.396649],[93.847006,24.397378],[93.847156,24.397758],[93.847204,24.398061],[93.847211,24.398304],[93.847183,24.398516],[93.847115,24.398678],[93.84702,24.398865],[93.846923,24.398962],[93.846816,24.39907],[93.846548,24.39921],[93.846516,24.399226],[93.845924,24.399464],[93.845632,24.399581],[93.844748,24.399998],[93.844731,24.400006],[93.8437,24.400533],[93.843149,24.400876],[93.842747,24.40115],[93.842606,24.401258],[93.84238,24.40143],[93.842081,24.401725],[93.842026,24.401779],[93.841726,24.40219],[93.841417,24.402608],[93.841337,24.402748],[93.841138,24.4031],[93.841022,24.40343],[93.84094,24.403717],[93.84089,24.403967],[93.840874,24.40405],[93.840865,24.404091],[93.840791,24.404483],[93.840777,24.404558],[93.840736,24.404894],[93.840702,24.405169],[93.840675,24.405437],[93.840695,24.405792],[93.840674,24.406128],[93.840647,24.40655],[93.840613,24.406918],[93.840538,24.407329],[93.840476,24.407771],[93.840401,24.407996],[93.840272,24.408382],[93.840143,24.408706],[93.839905,24.409244],[93.839734,24.409749],[93.839712,24.409912],[93.839694,24.410041],[93.839714,24.41039],[93.839782,24.410727],[93.839877,24.411057],[93.839959,24.411282],[93.840054,24.411519],[93.840149,24.411662],[93.840353,24.411893],[93.840632,24.41208],[93.841006,24.412242],[93.841462,24.41236],[93.841897,24.412435],[93.842285,24.412483],[93.842904,24.412577],[93.843585,24.412596],[93.84431,24.412534],[93.844381,24.412528],[93.844898,24.412534],[93.845471,24.41266],[93.845573,24.412682],[93.845708,24.412712],[93.84665,24.413014],[93.846671,24.413023],[93.847025,24.413173],[93.84756,24.413551],[93.847904,24.413862],[93.848186,24.414199],[93.848315,24.414429],[93.848347,24.414544],[93.848347,24.414545],[93.848357,24.414672],[93.848347,24.414927],[93.848347,24.414928],[93.84832,24.415199],[93.848299,24.415392],[93.848269,24.415532],[93.848206,24.415709],[93.848173,24.4158],[93.848034,24.416141],[93.847891,24.416474],[93.847819,24.416593],[93.84772,24.416705],[93.847642,24.416792],[93.84764,24.416794],[93.847363,24.417023],[93.84707,24.417226],[93.846671,24.417512],[93.84626,24.417765],[93.84593,24.417936],[93.845559,24.418107],[93.845079,24.418322],[93.844657,24.418537],[93.844344,24.41873],[93.844041,24.418958],[93.843775,24.419188],[93.843488,24.419473],[93.843253,24.419725],[93.843056,24.419987],[93.842825,24.420273],[93.842331,24.420837],[93.841966,24.421291],[93.841751,24.421615],[93.841513,24.422017],[93.841265,24.422388],[93.84088,24.422914],[93.840574,24.423341],[93.840343,24.423634],[93.840111,24.423952],[93.839878,24.424273],[93.839633,24.42461],[93.839452,24.42489],[93.839316,24.425149],[93.83918,24.42541],[93.839057,24.425652],[93.838911,24.425895],[93.83883,24.426078],[93.838768,24.426321],[93.838755,24.426558],[93.838775,24.426776],[93.838843,24.426995],[93.838953,24.427238],[93.839225,24.427705],[93.839483,24.428185],[93.839565,24.428596],[93.839633,24.428839],[93.839918,24.429276],[93.840374,24.429594],[93.840881,24.429866],[93.841364,24.430246],[93.842044,24.431057],[93.842636,24.431923],[93.843031,24.432534],[93.843521,24.433362],[93.843599,24.43348],[93.843916,24.433966],[93.844317,24.434521],[93.844684,24.434914],[93.84497,24.435107],[93.845263,24.435132],[93.845644,24.435057],[93.84616,24.434797],[93.84665,24.434386],[93.847017,24.434],[93.847494,24.433719],[93.847656,24.4337],[93.848018,24.433657],[93.848549,24.433763],[93.849011,24.434],[93.849556,24.434374],[93.850005,24.434829],[93.850222,24.435278],[93.850277,24.435702],[93.850287,24.436137],[93.8503,24.436698],[93.850323,24.437058],[93.850384,24.437289],[93.8505,24.437523],[93.850701,24.437904],[93.851017,24.438428],[93.851159,24.438684],[93.851217,24.438896],[93.851312,24.439217],[93.851371,24.439458],[93.851453,24.43976],[93.851535,24.43995],[93.851678,24.440156],[93.852035,24.440514],[93.852634,24.441063],[93.853294,24.441539],[93.8544,24.442331],[93.855053,24.442873],[93.855502,24.443309],[93.855681,24.443504],[93.855786,24.443663],[93.855834,24.443794],[93.855861,24.443965],[93.855864,24.444177],[93.855847,24.444404],[93.855823,24.444523],[93.855687,24.444877],[93.855415,24.445475],[93.855197,24.445985],[93.854923,24.446585],[93.854511,24.447527],[93.854224,24.448215],[93.854163,24.448361],[93.854163,24.44848],[93.8542,24.448756],[93.85426,24.449203],[93.854335,24.449688],[93.85447,24.450111],[93.8546,24.45041],[93.854756,24.450714],[93.85496,24.451011],[93.855248,24.45141],[93.855279,24.451452],[93.855686,24.451925],[93.856219,24.452443],[93.856383,24.452602],[93.856844,24.452978],[93.857129,24.453187],[93.857766,24.453585],[93.858201,24.453881],[93.858649,24.454145],[93.859236,24.454472],[93.859595,24.454698],[93.859972,24.455031],[93.860074,24.455189],[93.860108,24.455317],[93.860108,24.45545],[93.860037,24.455622],[93.85984,24.455824],[93.859503,24.456065],[93.859208,24.456183],[93.858553,24.456357],[93.858053,24.456442],[93.857592,24.456485],[93.85694,24.456516],[93.856616,24.456504],[93.856462,24.456498],[93.856366,24.456494],[93.856006,24.456475],[93.855759,24.456417],[93.85529,24.456312],[93.854859,24.456234],[93.854588,24.456228],[93.854543,24.456227],[93.854326,24.45628],[93.85414,24.456404],[93.854035,24.45656],[93.853981,24.456746],[93.853979,24.456772],[93.853964,24.456939],[93.853984,24.457073],[93.854018,24.457179],[93.854303,24.457459],[93.854605,24.457674],[93.855617,24.45858],[93.85563,24.458591],[93.855981,24.458916],[93.856347,24.459277],[93.856643,24.45947],[93.856969,24.459678],[93.857373,24.459945],[93.857652,24.460241],[93.857886,24.460468],[93.858161,24.46072],[93.858416,24.460863],[93.858732,24.460997],[93.859112,24.461172],[93.859597,24.461383],[93.859927,24.461561],[93.86027,24.461754],[93.860616,24.462009],[93.860866,24.462202],[93.861165,24.46247],[93.86124,24.462619],[93.861311,24.462949],[93.86133,24.463252],[93.861327,24.463426],[93.861286,24.46365],[93.861242,24.463877],[93.861184,24.464191],[93.861167,24.464359],[93.861153,24.464565],[93.86118,24.464829],[93.861243,24.465063],[93.861366,24.46529],[93.861596,24.465498],[93.861939,24.465756],[93.862303,24.46599],[93.862788,24.466279],[93.863197,24.466487],[93.863543,24.466645],[93.864127,24.466823],[93.864612,24.466891],[93.865547,24.466891],[93.866294,24.466857],[93.867269,24.466826],[93.867702,24.466834],[93.867924,24.466838],[93.868362,24.466943],[93.868525,24.467009],[93.868773,24.467111],[93.869133,24.467378],[93.869443,24.467679],[93.869816,24.468108],[93.870475,24.46873],[93.871127,24.469327],[93.871378,24.469594],[93.871597,24.469876],[93.871991,24.470342],[93.872405,24.47097],[93.872595,24.471324],[93.872663,24.471585],[93.872677,24.471983],[93.87265,24.472306],[93.87258,24.472563],[93.872458,24.472887],[93.872268,24.473409],[93.872071,24.473987],[93.871941,24.474388],[93.871915,24.474471],[93.871725,24.475378],[93.871709,24.475677],[93.871697,24.475913],[93.871718,24.47646],[93.871806,24.477035],[93.871968,24.477726],[93.872111,24.478062],[93.872376,24.478497],[93.872781,24.479005],[93.873216,24.479502],[93.873623,24.479993],[93.873929,24.480291],[93.874235,24.480596],[93.874647,24.480968],[93.874946,24.481297],[93.875129,24.481521],[93.875238,24.48172],[93.875401,24.482068],[93.875537,24.482323],[93.875761,24.482603],[93.876175,24.483143],[93.876461,24.483442],[93.876834,24.483802],[93.877098,24.48405],[93.877349,24.484255],[93.878769,24.485094],[93.879539,24.485524],[93.880073,24.485822],[93.880358,24.486054],[93.880928,24.486651],[93.881275,24.48708],[93.881573,24.487621],[93.881893,24.488261],[93.882189,24.489045],[93.882514,24.490288],[93.882582,24.490723],[93.882555,24.491407],[93.882515,24.491581],[93.882121,24.49219],[93.881564,24.492849],[93.88079,24.493794],[93.880301,24.494266],[93.879785,24.494639],[93.879011,24.495012],[93.878179,24.495398],[93.876849,24.495982],[93.875667,24.496579],[93.875124,24.496964],[93.874581,24.49766],[93.874445,24.498207],[93.874486,24.498655],[93.874595,24.499065],[93.874947,24.499898],[93.874986,24.5],[93.875005,24.500051],[93.875006,24.500052],[93.87501,24.500057],[93.875088,24.500134],[93.87535,24.500644],[93.875427,24.5007],[93.875527,24.500772],[93.875534,24.500794],[93.875544,24.500826],[93.875579,24.500936],[93.875737,24.501321],[93.875991,24.501938],[93.876403,24.502941],[93.877104,24.504047],[93.877464,24.504476],[93.878278,24.505443],[93.879473,24.506293],[93.880431,24.506767],[93.881437,24.507245],[93.882503,24.5078],[93.882986,24.508062],[93.883262,24.508243],[93.883435,24.508527],[93.883435,24.508748],[93.883287,24.509005],[93.882927,24.509222],[93.882675,24.509299],[93.882142,24.50943],[93.881472,24.509552],[93.880623,24.509732],[93.879538,24.509917],[93.878788,24.510098],[93.878157,24.5103],[93.877978,24.510357],[93.877534,24.5105],[93.876257,24.510951],[93.875852,24.511263],[93.875398,24.511822],[93.875132,24.512224],[93.874974,24.512535],[93.874924,24.512919],[93.875048,24.513465],[93.875201,24.51375],[93.875393,24.514034],[93.875882,24.514653],[93.876636,24.515483],[93.876982,24.516025],[93.87711,24.516427],[93.877194,24.516815],[93.877204,24.517379],[93.87713,24.517772],[93.877056,24.518065],[93.876878,24.518666],[93.876597,24.519212],[93.876444,24.519478],[93.876113,24.519934],[93.875709,24.520354],[93.875304,24.520593],[93.874796,24.52067],[93.874367,24.520674],[93.873794,24.520629],[93.873335,24.520557],[93.872733,24.52034],[93.872191,24.520078],[93.871747,24.519988],[93.87152,24.520042],[93.871194,24.52025],[93.871033,24.520398],[93.870909,24.520511],[93.870824,24.520588],[93.870458,24.521021],[93.870419,24.521067],[93.870217,24.521234],[93.870033,24.521445],[93.869997,24.521487],[93.869969,24.521519],[93.869928,24.521567],[93.869852,24.521654],[93.869358,24.522087],[93.86924,24.522263],[93.868825,24.523089],[93.868569,24.523459],[93.868312,24.524105],[93.868268,24.524389],[93.868238,24.524705],[93.868283,24.525054],[93.868287,24.525089],[93.868426,24.525527],[93.868451,24.525579],[93.868593,24.525874],[93.868879,24.526434],[93.869333,24.527292],[93.869669,24.528],[93.869989,24.528547],[93.870144,24.528942],[93.870207,24.529103],[93.870285,24.529305],[93.870305,24.529517],[93.870276,24.529734],[93.870172,24.53005],[93.870063,24.530194],[93.869871,24.530429],[93.869614,24.530677],[93.869042,24.5313],[93.868859,24.531585],[93.868558,24.532108],[93.868371,24.532591],[93.868267,24.533097],[93.868267,24.533517],[93.868331,24.533941],[93.868519,24.534523],[93.86876,24.535115],[93.868884,24.535376],[93.869091,24.535878],[93.869392,24.5366],[93.869515,24.536956],[93.869579,24.537241],[93.869604,24.537846],[93.869609,24.53864],[93.869609,24.539272],[93.869609,24.539364],[93.869612,24.539591],[93.869614,24.539818],[93.869776,24.540586],[93.86985,24.540775],[93.870023,24.541164],[93.87027,24.54162],[93.870615,24.542252],[93.870793,24.542513],[93.871104,24.543069],[93.871311,24.543606],[93.87135,24.544075],[93.87137,24.544355],[93.87138,24.544802],[93.871306,24.545357],[93.871143,24.545949],[93.871089,24.546233],[93.871049,24.546603],[93.87101,24.547095],[93.871054,24.547583],[93.871089,24.547781],[93.871177,24.548296],[93.871207,24.548549],[93.871315,24.548932],[93.871406,24.549183],[93.871478,24.549384],[93.871553,24.54956],[93.871572,24.549605],[93.871714,24.549955],[93.871764,24.550079],[93.871853,24.550275],[93.872036,24.550679],[93.872154,24.550959],[93.872376,24.551203],[93.872535,24.551345],[93.872584,24.551388],[93.872711,24.551494],[93.872806,24.551573],[93.873254,24.551854],[93.873304,24.551885],[93.873595,24.552051],[93.873872,24.55221],[93.874592,24.552652],[93.874742,24.552762],[93.874786,24.552794],[93.874972,24.552931],[93.875411,24.553253],[93.875535,24.553321],[93.87569,24.553407],[93.875964,24.55356],[93.876586,24.553957],[93.877178,24.55407],[93.877701,24.554061],[93.878457,24.553939],[93.879212,24.553731],[93.880613,24.553251],[93.880821,24.55318],[93.881472,24.552995],[93.881936,24.552959],[93.88204,24.552957],[93.882281,24.55295],[93.882913,24.553045],[93.88356,24.553068],[93.88432,24.553],[93.884843,24.552968],[93.885322,24.553045],[93.885998,24.553275],[93.886778,24.553523],[93.887799,24.553866],[93.888058,24.553983],[93.888984,24.554399],[93.889272,24.554536],[93.896864,24.552944],[93.904205,24.551252],[93.906497,24.550818],[93.909657,24.549877]]]}}]}