{
"type": "FeatureCollection",
"name": "497_NANDURBAR",
"crs": { "type": "name", "properties": { "name": "urn:ogc:def:crs:OGC:1.3:CRS84" } },
"xy_coordinate_resolution": 1e-05,
"features": [
{ "type": "Feature", "properties": { "OBJECTID": 3647, "state_lgd": "27", "state_name": "MAHARASHTRA", "district_lgd": "497", "district_name": "NANDURBAR", "district_name_source": "district_table", "subdistrict_lgd": "3950", "subdistrict_name": "AKKALKUWA", "subdistrict_type": "", "name_corrupted": false, "remarks": "", "label_lon": 73.95505923835762, "label_lat": 21.697784540525497 }, "geometry": { "type": "MultiPolygon", "coordinates": [ [ [ [ 74.09253, 21.5751 ], [ 74.09328, 21.56526 ], [ 74.09057, 21.56751 ], [ 74.08651, 21.57398 ], [ 74.08518, 21.57706 ], [ 74.08447, 21.58178 ], [ 74.08924, 21.58285 ], [ 74.09132, 21.57985 ], [ 74.09253, 21.5751 ] ] ], [ [ [ 74.11092, 21.59825 ], [ 74.11358, 21.59588 ], [ 74.11481, 21.58994 ], [ 74.11856, 21.58894 ], [ 74.12062, 21.59112 ], [ 74.12075, 21.58809 ], [ 74.1187, 21.5838 ], [ 74.11956, 21.58242 ], [ 74.11819, 21.5791 ], [ 74.11745, 21.57252 ], [ 74.11795, 21.57106 ], [ 74.11678, 21.56835 ], [ 74.11422, 21.56808 ], [ 74.1138, 21.57068 ], [ 74.11185, 21.57204 ], [ 74.1109, 21.57351 ], [ 74.1112, 21.57452 ], [ 74.10819, 21.57595 ], [ 74.10739, 21.58215 ], [ 74.10632, 21.5848 ], [ 74.10483, 21.58833 ], [ 74.10334, 21.58837 ], [ 74.10138, 21.59205 ], [ 74.10333, 21.59283 ], [ 74.10643, 21.59611 ], [ 74.10782, 21.59909 ], [ 74.10867, 21.59938 ], [ 74.11092, 21.59825 ] ] ], [ [ [ 74.03136, 21.86723 ], [ 74.03338, 21.864 ], [ 74.03869, 21.85859 ], [ 74.04332, 21.85547 ], [ 74.0461, 21.85497 ], [ 74.05028, 21.84692 ], [ 74.04861, 21.84246 ], [ 74.05412, 21.83478 ], [ 74.05672, 21.8322 ], [ 74.05779, 21.83222 ], [ 74.06046, 21.82822 ], [ 74.06031, 21.82656 ], [ 74.06321, 21.82456 ], [ 74.06491, 21.82487 ], [ 74.06746, 21.82275 ], [ 74.0678, 21.81858 ], [ 74.06882, 21.81707 ], [ 74.07024, 21.81588 ], [ 74.07126, 21.81603 ], [ 74.07487, 21.81197 ], [ 74.07756, 21.79909 ], [ 74.08079, 21.79507 ], [ 74.08368, 21.7929 ], [ 74.0828, 21.78941 ], [ 74.08403, 21.78818 ], [ 74.08637, 21.78168 ], [ 74.08585, 21.77927 ], [ 74.0868, 21.77526 ], [ 74.08808, 21.77448 ], [ 74.08768, 21.77226 ], [ 74.08595, 21.77141 ], [ 74.08776, 21.76808 ], [ 74.08743, 21.76253 ], [ 74.09031, 21.76051 ], [ 74.09259, 21.75273 ], [ 74.09918, 21.73997 ], [ 74.09931, 21.73521 ], [ 74.10278, 21.72985 ], [ 74.10263, 21.72524 ], [ 74.10545, 21.71324 ], [ 74.1047, 21.71213 ], [ 74.10588, 21.70898 ], [ 74.10806, 21.70808 ], [ 74.10916, 21.70577 ], [ 74.10874, 21.70472 ], [ 74.11319, 21.70145 ], [ 74.11266, 21.69365 ], [ 74.11397, 21.69349 ], [ 74.11632, 21.69019 ], [ 74.12051, 21.6876 ], [ 74.12136, 21.68601 ], [ 74.12193, 21.68283 ], [ 74.11994, 21.68186 ], [ 74.12072, 21.68092 ], [ 74.11885, 21.68121 ], [ 74.11804, 21.67959 ], [ 74.11871, 21.67929 ], [ 74.11615, 21.67874 ], [ 74.11374, 21.67707 ], [ 74.11285, 21.67227 ], [ 74.10929, 21.66687 ], [ 74.10749, 21.66559 ], [ 74.11289, 21.66068 ], [ 74.11396, 21.65615 ], [ 74.11625, 21.65452 ], [ 74.1175, 21.65082 ], [ 74.11942, 21.65027 ], [ 74.12164, 21.64544 ], [ 74.12226, 21.63924 ], [ 74.11543, 21.63516 ], [ 74.11642, 21.63003 ], [ 74.11738, 21.62968 ], [ 74.11994, 21.63197 ], [ 74.12242, 21.63202 ], [ 74.12388, 21.62957 ], [ 74.12344, 21.62788 ], [ 74.11751, 21.62706 ], [ 74.11713, 21.62203 ], [ 74.11539, 21.61965 ], [ 74.10974, 21.61942 ], [ 74.11004, 21.61714 ], [ 74.10827, 21.61249 ], [ 74.10671, 21.61274 ], [ 74.10403, 21.62596 ], [ 74.09148, 21.62638 ], [ 74.09116, 21.62468 ], [ 74.09705, 21.62117 ], [ 74.09812, 21.61348 ], [ 74.10013, 21.60839 ], [ 74.09503, 21.60691 ], [ 74.09268, 21.61099 ], [ 74.0921, 21.61065 ], [ 74.09169, 21.6115 ], [ 74.09232, 21.61177 ], [ 74.09121, 21.61731 ], [ 74.08945, 21.62229 ], [ 74.08656, 21.62611 ], [ 74.08398, 21.63528 ], [ 74.08996, 21.63571 ], [ 74.09545, 21.64506 ], [ 74.09651, 21.64923 ], [ 74.09507, 21.65537 ], [ 74.09203, 21.66017 ], [ 74.09183, 21.66593 ], [ 74.08609, 21.67426 ], [ 74.08822, 21.67869 ], [ 74.08694, 21.68223 ], [ 74.08522, 21.67933 ], [ 74.0819, 21.67771 ], [ 74.07855, 21.67422 ], [ 74.07393, 21.67573 ], [ 74.0628, 21.67172 ], [ 74.05519, 21.673 ], [ 74.05348, 21.67245 ], [ 74.04805, 21.66821 ], [ 74.04742, 21.66285 ], [ 74.04548, 21.65753 ], [ 74.0466, 21.65241 ], [ 74.04881, 21.64912 ], [ 74.05175, 21.64683 ], [ 74.05119, 21.6438 ], [ 74.05285, 21.64009 ], [ 74.0533, 21.63404 ], [ 74.04867, 21.63158 ], [ 74.04222, 21.62973 ], [ 74.03739, 21.62591 ], [ 74.03511, 21.62584 ], [ 74.03583, 21.62228 ], [ 74.03776, 21.61953 ], [ 74.03675, 21.61666 ], [ 74.03736, 21.61642 ], [ 74.03809, 21.60941 ], [ 74.03861, 21.60887 ], [ 74.04305, 21.61012 ], [ 74.04487, 21.59989 ], [ 74.04813, 21.60084 ], [ 74.04899, 21.60186 ], [ 74.05563, 21.59995 ], [ 74.05901, 21.58899 ], [ 74.0601, 21.58755 ], [ 74.06132, 21.58 ], [ 74.06426, 21.57916 ], [ 74.06757, 21.57961 ], [ 74.06913, 21.57476 ], [ 74.07042, 21.57498 ], [ 74.07238, 21.57122 ], [ 74.06521, 21.57103 ], [ 74.06211, 21.5702 ], [ 74.06155, 21.56882 ], [ 74.05842, 21.56617 ], [ 74.05831, 21.55872 ], [ 74.05403, 21.55791 ], [ 74.05378, 21.54751 ], [ 74.05118, 21.54668 ], [ 74.04935, 21.54823 ], [ 74.04974, 21.54645 ], [ 74.04866, 21.54635 ], [ 74.04881, 21.54469 ], [ 74.04694, 21.54468 ], [ 74.04748, 21.54738 ], [ 74.04454, 21.54816 ], [ 74.04456, 21.54624 ], [ 74.04358, 21.54617 ], [ 74.04361, 21.54248 ], [ 74.03644, 21.54557 ], [ 74.03831, 21.54579 ], [ 74.03746, 21.55063 ], [ 74.03501, 21.55034 ], [ 74.03537, 21.54873 ], [ 74.03442, 21.54846 ], [ 74.03498, 21.54553 ], [ 74.03091, 21.54515 ], [ 74.02903, 21.54696 ], [ 74.02044, 21.54996 ], [ 74.0103, 21.5492 ], [ 74.00831, 21.5517 ], [ 74.00584, 21.55276 ], [ 74.00345, 21.5453 ], [ 74.00032, 21.54565 ], [ 74.00232, 21.54155 ], [ 73.99742, 21.53901 ], [ 73.99581, 21.53871 ], [ 73.99633, 21.5402 ], [ 73.99565, 21.54111 ], [ 73.99361, 21.54154 ], [ 73.99319, 21.5433 ], [ 73.98281, 21.54073 ], [ 73.98108, 21.54361 ], [ 73.97419, 21.54328 ], [ 73.97493, 21.53424 ], [ 73.97565, 21.53273 ], [ 73.97904, 21.53079 ], [ 73.98127, 21.52781 ], [ 73.98137, 21.52582 ], [ 73.9826, 21.52367 ], [ 73.98227, 21.5226 ], [ 73.97743, 21.52168 ], [ 73.97626, 21.52316 ], [ 73.97417, 21.52348 ], [ 73.96752, 21.52295 ], [ 73.96744, 21.52211 ], [ 73.9663, 21.52207 ], [ 73.96457, 21.52611 ], [ 73.96281, 21.52769 ], [ 73.96035, 21.54164 ], [ 73.95508, 21.54083 ], [ 73.95445, 21.54065 ], [ 73.95532, 21.53556 ], [ 73.95418, 21.5337 ], [ 73.95564, 21.53094 ], [ 73.95594, 21.52529 ], [ 73.95552, 21.52435 ], [ 73.95421, 21.5241 ], [ 73.95521, 21.52035 ], [ 73.95212, 21.51909 ], [ 73.95129, 21.51516 ], [ 73.95175, 21.51269 ], [ 73.94929, 21.51274 ], [ 73.94899, 21.51427 ], [ 73.94657, 21.51434 ], [ 73.94593, 21.51679 ], [ 73.94175, 21.51629 ], [ 73.9403, 21.51423 ], [ 73.93817, 21.51404 ], [ 73.93551, 21.51244 ], [ 73.93206, 21.51226 ], [ 73.9321, 21.51419 ], [ 73.92954, 21.51847 ], [ 73.92926, 21.5237 ], [ 73.92739, 21.5251 ], [ 73.92159, 21.52508 ], [ 73.92175, 21.52116 ], [ 73.91682, 21.51959 ], [ 73.91514, 21.51962 ], [ 73.91198, 21.52273 ], [ 73.90635, 21.52478 ], [ 73.90423, 21.52451 ], [ 73.90532, 21.51576 ], [ 73.87983, 21.5052 ], [ 73.87847, 21.5049 ], [ 73.87706, 21.51216 ], [ 73.87429, 21.51201 ], [ 73.87201, 21.51073 ], [ 73.86857, 21.51085 ], [ 73.8686, 21.51274 ], [ 73.8643, 21.51257 ], [ 73.86632, 21.50703 ], [ 73.87264, 21.5064 ], [ 73.87184, 21.5048 ], [ 73.86912, 21.50108 ], [ 73.86436, 21.50094 ], [ 73.86383, 21.49817 ], [ 73.86001, 21.49976 ], [ 73.85356, 21.49747 ], [ 73.85145, 21.49919 ], [ 73.84606, 21.5094 ], [ 73.83843, 21.51556 ], [ 73.83686, 21.51867 ], [ 73.8349, 21.52058 ], [ 73.83479, 21.52851 ], [ 73.83347, 21.53104 ], [ 73.83296, 21.53706 ], [ 73.82914, 21.54559 ], [ 73.82788, 21.5452 ], [ 73.82723, 21.54585 ], [ 73.82807, 21.54783 ], [ 73.82674, 21.55233 ], [ 73.8278, 21.55444 ], [ 73.82529, 21.55513 ], [ 73.82228, 21.56179 ], [ 73.82334, 21.56439 ], [ 73.82047, 21.57012 ], [ 73.81904, 21.57432 ], [ 73.81906, 21.57669 ], [ 73.81712, 21.58113 ], [ 73.8173, 21.58338 ], [ 73.81645, 21.58574 ], [ 73.81748, 21.58802 ], [ 73.81543, 21.58888 ], [ 73.8158, 21.59064 ], [ 73.81474, 21.59381 ], [ 73.81551, 21.59721 ], [ 73.81413, 21.60109 ], [ 73.81209, 21.6029 ], [ 73.80992, 21.60283 ], [ 73.80593, 21.60417 ], [ 73.80017, 21.60368 ], [ 73.79667, 21.60574 ], [ 73.78996, 21.61229 ], [ 73.78772, 21.6165 ], [ 73.78137, 21.61859 ], [ 73.78268, 21.62208 ], [ 73.78078, 21.62595 ], [ 73.78051, 21.62859 ], [ 73.78502, 21.62901 ], [ 73.78611, 21.63248 ], [ 73.78805, 21.6341 ], [ 73.80158, 21.63714 ], [ 73.8041, 21.63833 ], [ 73.80471, 21.63952 ], [ 73.81232, 21.64008 ], [ 73.81373, 21.64126 ], [ 73.81426, 21.64417 ], [ 73.81589, 21.64246 ], [ 73.81759, 21.64197 ], [ 73.82173, 21.64342 ], [ 73.8248, 21.63978 ], [ 73.82806, 21.64062 ], [ 73.82973, 21.64252 ], [ 73.83038, 21.64237 ], [ 73.8321, 21.63835 ], [ 73.83504, 21.63959 ], [ 73.83603, 21.63918 ], [ 73.83466, 21.63435 ], [ 73.83859, 21.63308 ], [ 73.84034, 21.63509 ], [ 73.84335, 21.63662 ], [ 73.84594, 21.63974 ], [ 73.8482, 21.63868 ], [ 73.84977, 21.63913 ], [ 73.85121, 21.64264 ], [ 73.85098, 21.64568 ], [ 73.85167, 21.64648 ], [ 73.86004, 21.64233 ], [ 73.86715, 21.64604 ], [ 73.8742, 21.64756 ], [ 73.88378, 21.65334 ], [ 73.88801, 21.65325 ], [ 73.88863, 21.66077 ], [ 73.89092, 21.66552 ], [ 73.89146, 21.66855 ], [ 73.89377, 21.67183 ], [ 73.89459, 21.67598 ], [ 73.89161, 21.68106 ], [ 73.89246, 21.68493 ], [ 73.89128, 21.68712 ], [ 73.89182, 21.69215 ], [ 73.89047, 21.69529 ], [ 73.8903, 21.69797 ], [ 73.88714, 21.70072 ], [ 73.88389, 21.70523 ], [ 73.88632, 21.70667 ], [ 73.88061, 21.71559 ], [ 73.86761, 21.71834 ], [ 73.86368, 21.7225 ], [ 73.85836, 21.7265 ], [ 73.85593, 21.73244 ], [ 73.85327, 21.73538 ], [ 73.85037, 21.73722 ], [ 73.84681, 21.73728 ], [ 73.8424, 21.74197 ], [ 73.83751, 21.74553 ], [ 73.83482, 21.74999 ], [ 73.83519, 21.751 ], [ 73.83366, 21.75493 ], [ 73.828, 21.75647 ], [ 73.82487, 21.75955 ], [ 73.82374, 21.7626 ], [ 73.82494, 21.76523 ], [ 73.82804, 21.76829 ], [ 73.83361, 21.77165 ], [ 73.8347, 21.77405 ], [ 73.83414, 21.7762 ], [ 73.82957, 21.77755 ], [ 73.82945, 21.78594 ], [ 73.83089, 21.78712 ], [ 73.8371, 21.78732 ], [ 73.83816, 21.78875 ], [ 73.83752, 21.79012 ], [ 73.8345, 21.7921 ], [ 73.83104, 21.79265 ], [ 73.82806, 21.79178 ], [ 73.82734, 21.79248 ], [ 73.82647, 21.7952 ], [ 73.82696, 21.79792 ], [ 73.83246, 21.79965 ], [ 73.83294, 21.80095 ], [ 73.83205, 21.80219 ], [ 73.82806, 21.80407 ], [ 73.82743, 21.80991 ], [ 73.82239, 21.8113 ], [ 73.81485, 21.81002 ], [ 73.80784, 21.80981 ], [ 73.80632, 21.8123 ], [ 73.8043, 21.8197 ], [ 73.80161, 21.82175 ], [ 73.79815, 21.82231 ], [ 73.79595, 21.82473 ], [ 73.79963, 21.82746 ], [ 73.80268, 21.83164 ], [ 73.80922, 21.83781 ], [ 73.81944, 21.84137 ], [ 73.84232, 21.844 ], [ 73.85524, 21.84341 ], [ 73.86662, 21.8409 ], [ 73.87161, 21.84151 ], [ 73.87744, 21.84501 ], [ 73.8851, 21.85332 ], [ 73.888, 21.85521 ], [ 73.89407, 21.8571 ], [ 73.90058, 21.85795 ], [ 73.90783, 21.85706 ], [ 73.92096, 21.86103 ], [ 73.93059, 21.86539 ], [ 73.93901, 21.86993 ], [ 73.9451, 21.8743 ], [ 73.95201, 21.87712 ], [ 73.96539, 21.88432 ], [ 74.00438, 21.90061 ], [ 74.00663, 21.89906 ], [ 74.00718, 21.89113 ], [ 74.01845, 21.88275 ], [ 74.02007, 21.88038 ], [ 74.02315, 21.8787 ], [ 74.02567, 21.87606 ], [ 74.0239, 21.87529 ], [ 74.02872, 21.87077 ], [ 74.03096, 21.86574 ], [ 74.03136, 21.86723 ] ] ] ] } },
{ "type": "Feature", "properties": { "OBJECTID": 3696, "state_lgd": "27", "state_name": "MAHARASHTRA", "district_lgd": "497", "district_name": "NANDURBAR", "district_name_source": "district_table", "subdistrict_lgd": "3951", "subdistrict_name": "AKRANI", "subdistrict_type": "", "name_corrupted": false, "remarks": "", "label_lon": 74.285465630167153, "label_lat": 21.837843325033717 }, "geometry": { "type": "Polygon", "coordinates": [ [ [ 74.43165, 22.03026 ], [ 74.43744, 22.02679 ], [ 74.43925, 22.02467 ], [ 74.4435, 22.02323 ], [ 74.44327, 22.02202 ], [ 74.43963, 22.02209 ], [ 74.43874, 22.02084 ], [ 74.44387, 22.01663 ], [ 74.44363, 22.01117 ], [ 74.44801, 22.00919 ], [ 74.44895, 22.00819 ], [ 74.44916, 22.00596 ], [ 74.45142, 22.0059 ], [ 74.45218, 22.00465 ], [ 74.45071, 22.0024 ], [ 74.44741, 22.00063 ], [ 74.44536, 22.0005 ], [ 74.44356, 22.00296 ], [ 74.44234, 22.00318 ], [ 74.43798, 22.00007 ], [ 74.43386, 22.00037 ], [ 74.43233, 21.9994 ], [ 74.43309, 21.99764 ], [ 74.43657, 21.99797 ], [ 74.43815, 21.99734 ], [ 74.43978, 21.99472 ], [ 74.43882, 21.99089 ], [ 74.44146, 21.99004 ], [ 74.43883, 21.98717 ], [ 74.43833, 21.98216 ], [ 74.43939, 21.97672 ], [ 74.44469, 21.97548 ], [ 74.44451, 21.97039 ], [ 74.44725, 21.96855 ], [ 74.44995, 21.96385 ], [ 74.45338, 21.96194 ], [ 74.46109, 21.96145 ], [ 74.4622, 21.96226 ], [ 74.46385, 21.96607 ], [ 74.4676, 21.96558 ], [ 74.46972, 21.9671 ], [ 74.47137, 21.96364 ], [ 74.46872, 21.96108 ], [ 74.4691, 21.95964 ], [ 74.47384, 21.96104 ], [ 74.47733, 21.95941 ], [ 74.48159, 21.95917 ], [ 74.48243, 21.95795 ], [ 74.48113, 21.9554 ], [ 74.48203, 21.95475 ], [ 74.48745, 21.9565 ], [ 74.48873, 21.95617 ], [ 74.49047, 21.95123 ], [ 74.48449, 21.94741 ], [ 74.48467, 21.94581 ], [ 74.48701, 21.94393 ], [ 74.48908, 21.94341 ], [ 74.49031, 21.94373 ], [ 74.49316, 21.94661 ], [ 74.49522, 21.94681 ], [ 74.4964, 21.94567 ], [ 74.49712, 21.94174 ], [ 74.5, 21.9393 ], [ 74.50488, 21.93882 ], [ 74.50839, 21.93734 ], [ 74.51256, 21.93189 ], [ 74.51119, 21.9239 ], [ 74.50923, 21.92064 ], [ 74.51266, 21.9156 ], [ 74.51681, 21.91581 ], [ 74.52085, 21.91275 ], [ 74.5236, 21.91183 ], [ 74.52421, 21.91058 ], [ 74.52435, 21.90649 ], [ 74.52236, 21.90244 ], [ 74.5228, 21.89909 ], [ 74.51364, 21.88997 ], [ 74.51389, 21.86266 ], [ 74.51001, 21.82927 ], [ 74.50661, 21.81638 ], [ 74.50021, 21.80652 ], [ 74.49974, 21.79239 ], [ 74.49821, 21.79009 ], [ 74.50207, 21.78107 ], [ 74.49734, 21.77997 ], [ 74.47608, 21.78652 ], [ 74.46657, 21.76881 ], [ 74.47304, 21.75953 ], [ 74.4712, 21.74252 ], [ 74.47194, 21.73934 ], [ 74.48255, 21.733 ], [ 74.47034, 21.73035 ], [ 74.47023, 21.72257 ], [ 74.46774, 21.72147 ], [ 74.46935, 21.71964 ], [ 74.46763, 21.71965 ], [ 74.46756, 21.71885 ], [ 74.46482, 21.71707 ], [ 74.45394, 21.71112 ], [ 74.45361, 21.71257 ], [ 74.45079, 21.7151 ], [ 74.44717, 21.72255 ], [ 74.44785, 21.72662 ], [ 74.44657, 21.73003 ], [ 74.43352, 21.72491 ], [ 74.43369, 21.72315 ], [ 74.42997, 21.72002 ], [ 74.42385, 21.71887 ], [ 74.42292, 21.71889 ], [ 74.42264, 21.72037 ], [ 74.4202, 21.72201 ], [ 74.40406, 21.72584 ], [ 74.39996, 21.72824 ], [ 74.38839, 21.7272 ], [ 74.38403, 21.72377 ], [ 74.38396, 21.71945 ], [ 74.37943, 21.71164 ], [ 74.37898, 21.70879 ], [ 74.3738, 21.70205 ], [ 74.37415, 21.69904 ], [ 74.37005, 21.69592 ], [ 74.36477, 21.69635 ], [ 74.35953, 21.69943 ], [ 74.35279, 21.69666 ], [ 74.34829, 21.69584 ], [ 74.34118, 21.69604 ], [ 74.33667, 21.6946 ], [ 74.33192, 21.69679 ], [ 74.31893, 21.69677 ], [ 74.31666, 21.69788 ], [ 74.31272, 21.70306 ], [ 74.30892, 21.69904 ], [ 74.30599, 21.69292 ], [ 74.30355, 21.69142 ], [ 74.29388, 21.6895 ], [ 74.27953, 21.691 ], [ 74.27442, 21.69068 ], [ 74.27339, 21.69081 ], [ 74.27149, 21.69525 ], [ 74.2691, 21.6966 ], [ 74.26584, 21.70063 ], [ 74.26535, 21.70265 ], [ 74.2664, 21.70689 ], [ 74.2537, 21.70717 ], [ 74.25237, 21.70689 ], [ 74.25076, 21.70339 ], [ 74.24643, 21.7003 ], [ 74.23945, 21.69979 ], [ 74.23541, 21.69765 ], [ 74.23237, 21.69463 ], [ 74.23098, 21.69449 ], [ 74.2302, 21.69265 ], [ 74.22809, 21.69156 ], [ 74.22544, 21.69203 ], [ 74.22503, 21.69104 ], [ 74.22212, 21.69052 ], [ 74.21791, 21.69208 ], [ 74.21348, 21.68753 ], [ 74.20599, 21.68767 ], [ 74.20273, 21.68478 ], [ 74.19784, 21.6855 ], [ 74.19479, 21.6871 ], [ 74.19362, 21.68557 ], [ 74.19152, 21.68461 ], [ 74.19073, 21.68294 ], [ 74.18691, 21.68312 ], [ 74.18388, 21.68098 ], [ 74.18063, 21.67988 ], [ 74.17697, 21.67957 ], [ 74.17461, 21.68267 ], [ 74.17342, 21.68298 ], [ 74.16584, 21.68024 ], [ 74.16406, 21.67851 ], [ 74.1606, 21.67841 ], [ 74.1594, 21.67766 ], [ 74.15241, 21.67907 ], [ 74.15018, 21.67654 ], [ 74.14783, 21.67669 ], [ 74.14673, 21.6738 ], [ 74.14446, 21.6733 ], [ 74.14412, 21.67246 ], [ 74.14508, 21.67088 ], [ 74.14423, 21.66911 ], [ 74.14151, 21.67028 ], [ 74.14077, 21.67209 ], [ 74.13852, 21.67274 ], [ 74.13856, 21.67393 ], [ 74.13088, 21.67552 ], [ 74.12659, 21.67743 ], [ 74.12377, 21.67982 ], [ 74.11987, 21.67895 ], [ 74.11804, 21.67959 ], [ 74.11885, 21.68121 ], [ 74.12072, 21.68092 ], [ 74.11994, 21.68186 ], [ 74.12193, 21.68283 ], [ 74.12136, 21.68601 ], [ 74.12051, 21.6876 ], [ 74.11632, 21.69019 ], [ 74.11397, 21.69349 ], [ 74.11266, 21.69365 ], [ 74.11319, 21.70145 ], [ 74.10874, 21.70472 ], [ 74.10916, 21.70577 ], [ 74.10806, 21.70808 ], [ 74.10588, 21.70898 ], [ 74.1047, 21.71213 ], [ 74.10545, 21.71324 ], [ 74.10263, 21.72524 ], [ 74.10278, 21.72985 ], [ 74.09931, 21.73521 ], [ 74.09918, 21.73997 ], [ 74.09259, 21.75273 ], [ 74.09031, 21.76051 ], [ 74.08743, 21.76253 ], [ 74.08776, 21.76808 ], [ 74.08595, 21.77141 ], [ 74.08768, 21.77226 ], [ 74.08808, 21.77448 ], [ 74.0868, 21.77526 ], [ 74.08585, 21.77927 ], [ 74.08637, 21.78168 ], [ 74.08403, 21.78818 ], [ 74.0828, 21.78941 ], [ 74.08368, 21.7929 ], [ 74.08079, 21.79507 ], [ 74.07756, 21.79909 ], [ 74.07487, 21.81197 ], [ 74.07126, 21.81603 ], [ 74.07024, 21.81588 ], [ 74.06882, 21.81707 ], [ 74.0678, 21.81858 ], [ 74.06746, 21.82275 ], [ 74.06655, 21.82374 ], [ 74.06491, 21.82487 ], [ 74.06321, 21.82456 ], [ 74.06031, 21.82656 ], [ 74.06046, 21.82822 ], [ 74.05779, 21.83222 ], [ 74.05672, 21.8322 ], [ 74.05412, 21.83478 ], [ 74.04861, 21.84246 ], [ 74.05028, 21.84692 ], [ 74.0461, 21.85497 ], [ 74.04332, 21.85547 ], [ 74.03869, 21.85859 ], [ 74.03338, 21.864 ], [ 74.03136, 21.86723 ], [ 74.03096, 21.86574 ], [ 74.02872, 21.87077 ], [ 74.0239, 21.87529 ], [ 74.02567, 21.87606 ], [ 74.02506, 21.87679 ], [ 74.02007, 21.88038 ], [ 74.01845, 21.88275 ], [ 74.00718, 21.89113 ], [ 74.00663, 21.89906 ], [ 74.00438, 21.90061 ], [ 74.00791, 21.90324 ], [ 74.02358, 21.91092 ], [ 74.02886, 21.91214 ], [ 74.03122, 21.91406 ], [ 74.03123, 21.91609 ], [ 74.03704, 21.91846 ], [ 74.04789, 21.925 ], [ 74.05356, 21.92687 ], [ 74.06026, 21.92762 ], [ 74.06659, 21.93038 ], [ 74.08405, 21.93373 ], [ 74.1059, 21.94323 ], [ 74.12822, 21.94978 ], [ 74.13215, 21.9505 ], [ 74.13609, 21.95018 ], [ 74.13724, 21.94718 ], [ 74.13938, 21.94547 ], [ 74.14626, 21.94644 ], [ 74.14685, 21.95289 ], [ 74.15552, 21.9515 ], [ 74.16397, 21.94713 ], [ 74.17002, 21.94298 ], [ 74.17904, 21.93142 ], [ 74.18184, 21.92942 ], [ 74.19308, 21.92597 ], [ 74.20543, 21.9261 ], [ 74.24153, 21.93025 ], [ 74.26248, 21.93402 ], [ 74.28118, 21.93311 ], [ 74.28647, 21.93611 ], [ 74.2912, 21.94296 ], [ 74.29313, 21.94987 ], [ 74.29397, 21.95757 ], [ 74.29718, 21.96338 ], [ 74.30089, 21.96713 ], [ 74.30764, 21.97176 ], [ 74.31397, 21.97376 ], [ 74.31688, 21.97301 ], [ 74.33871, 21.97376 ], [ 74.34842, 21.977 ], [ 74.35373, 21.98032 ], [ 74.35645, 21.98505 ], [ 74.36085, 21.99031 ], [ 74.37582, 22.00059 ], [ 74.38093, 22.00902 ], [ 74.38344, 22.01619 ], [ 74.38712, 22.01998 ], [ 74.39193, 22.02218 ], [ 74.41515, 22.02494 ], [ 74.42499, 22.02743 ], [ 74.43165, 22.03026 ] ], [ [ 74.49333, 21.79994 ], [ 74.49272, 21.79723 ], [ 74.49477, 21.79673 ], [ 74.49518, 21.79777 ], [ 74.49586, 21.79579 ], [ 74.49751, 21.79539 ], [ 74.49735, 21.79436 ], [ 74.49889, 21.79275 ], [ 74.49941, 21.79349 ], [ 74.49847, 21.79626 ], [ 74.49565, 21.79865 ], [ 74.49213, 21.80641 ], [ 74.48988, 21.80579 ], [ 74.49057, 21.80285 ], [ 74.49333, 21.79994 ] ] ] } },
{ "type": "Feature", "properties": { "OBJECTID": 3747, "state_lgd": "27", "state_name": "MAHARASHTRA", "district_lgd": "497", "district_name": "NANDURBAR", "district_name_source": "district_table", "subdistrict_lgd": "3954", "subdistrict_name": "NANDURBAR", "subdistrict_type": "", "name_corrupted": false, "remarks": "", "label_lon": 74.26166907256075, "label_lat": 21.362517328572363 }, "geometry": { "type": "Polygon", "coordinates": [ [ [ 74.35678, 21.50158 ], [ 74.36522, 21.48648 ], [ 74.36695, 21.48453 ], [ 74.3712, 21.48242 ], [ 74.37646, 21.48142 ], [ 74.3829, 21.47691 ], [ 74.3908, 21.46597 ], [ 74.39261, 21.45898 ], [ 74.39669, 21.4515 ], [ 74.40176, 21.44515 ], [ 74.41138, 21.43901 ], [ 74.41399, 21.43749 ], [ 74.41773, 21.43734 ], [ 74.42381, 21.4389 ], [ 74.43163, 21.44515 ], [ 74.43452, 21.44659 ], [ 74.44369, 21.44752 ], [ 74.46174, 21.43847 ], [ 74.4748, 21.43477 ], [ 74.48602, 21.42892 ], [ 74.49657, 21.42558 ], [ 74.49782, 21.42106 ], [ 74.50193, 21.41651 ], [ 74.49889, 21.3984 ], [ 74.4944, 21.39541 ], [ 74.49301, 21.39129 ], [ 74.49328, 21.39199 ], [ 74.50285, 21.39402 ], [ 74.50409, 21.39165 ], [ 74.50844, 21.38901 ], [ 74.50623, 21.38518 ], [ 74.50271, 21.38151 ], [ 74.49805, 21.37764 ], [ 74.49709, 21.37771 ], [ 74.49406, 21.37361 ], [ 74.48973, 21.37067 ], [ 74.49194, 21.36992 ], [ 74.49033, 21.35731 ], [ 74.4904, 21.35005 ], [ 74.47847, 21.34924 ], [ 74.47849, 21.34058 ], [ 74.4775, 21.34038 ], [ 74.47816, 21.33336 ], [ 74.47731, 21.33313 ], [ 74.47747, 21.33149 ], [ 74.48073, 21.31409 ], [ 74.48173, 21.31057 ], [ 74.4831, 21.30919 ], [ 74.47382, 21.30566 ], [ 74.47431, 21.29661 ], [ 74.48819, 21.29853 ], [ 74.48822, 21.29779 ], [ 74.49259, 21.29783 ], [ 74.50036, 21.28565 ], [ 74.50189, 21.28001 ], [ 74.49958, 21.27933 ], [ 74.49991, 21.27695 ], [ 74.50149, 21.27556 ], [ 74.49814, 21.26932 ], [ 74.49867, 21.26436 ], [ 74.49155, 21.26162 ], [ 74.48703, 21.25462 ], [ 74.49216, 21.25524 ], [ 74.48986, 21.25454 ], [ 74.48827, 21.24897 ], [ 74.4904, 21.24668 ], [ 74.4908, 21.24503 ], [ 74.48999, 21.24249 ], [ 74.4546, 21.2382 ], [ 74.43467, 21.23711 ], [ 74.43249, 21.24478 ], [ 74.44034, 21.2469 ], [ 74.44091, 21.24778 ], [ 74.43995, 21.251 ], [ 74.43924, 21.25063 ], [ 74.43747, 21.25492 ], [ 74.43189, 21.25602 ], [ 74.43187, 21.26119 ], [ 74.42863, 21.26143 ], [ 74.41029, 21.25745 ], [ 74.41004, 21.25932 ], [ 74.41234, 21.26218 ], [ 74.4124, 21.26487 ], [ 74.41205, 21.26653 ], [ 74.40932, 21.26662 ], [ 74.3982, 21.2647 ], [ 74.39584, 21.26111 ], [ 74.39027, 21.2595 ], [ 74.388, 21.25579 ], [ 74.35567, 21.2522 ], [ 74.35573, 21.24964 ], [ 74.35689, 21.24923 ], [ 74.35804, 21.24413 ], [ 74.3567, 21.23228 ], [ 74.33786, 21.22862 ], [ 74.33794, 21.23089 ], [ 74.33317, 21.23091 ], [ 74.32768, 21.23299 ], [ 74.32205, 21.23273 ], [ 74.32146, 21.23127 ], [ 74.31716, 21.23015 ], [ 74.31621, 21.23217 ], [ 74.31779, 21.2484 ], [ 74.30865, 21.24166 ], [ 74.29906, 21.23801 ], [ 74.29088, 21.23982 ], [ 74.28407, 21.23971 ], [ 74.27202, 21.24638 ], [ 74.27191, 21.24825 ], [ 74.26733, 21.24936 ], [ 74.26133, 21.24918 ], [ 74.25022, 21.24716 ], [ 74.24601, 21.24817 ], [ 74.23182, 21.23983 ], [ 74.21965, 21.24128 ], [ 74.21379, 21.2265 ], [ 74.20946, 21.22148 ], [ 74.2003, 21.21992 ], [ 74.19051, 21.221 ], [ 74.18952, 21.21754 ], [ 74.1858, 21.22011 ], [ 74.18152, 21.21045 ], [ 74.17975, 21.21056 ], [ 74.17918, 21.20979 ], [ 74.17384, 21.21099 ], [ 74.16546, 21.216 ], [ 74.16341, 21.21487 ], [ 74.1598, 21.2186 ], [ 74.16434, 21.22527 ], [ 74.15985, 21.22693 ], [ 74.15782, 21.2314 ], [ 74.15384, 21.23318 ], [ 74.15508, 21.23557 ], [ 74.14928, 21.26146 ], [ 74.14664, 21.26184 ], [ 74.1417, 21.28064 ], [ 74.14026, 21.28238 ], [ 74.14134, 21.28399 ], [ 74.14105, 21.2873 ], [ 74.14007, 21.28782 ], [ 74.14, 21.28945 ], [ 74.14186, 21.29391 ], [ 74.13748, 21.29758 ], [ 74.1366, 21.3001 ], [ 74.12955, 21.29947 ], [ 74.13115, 21.30059 ], [ 74.13036, 21.30108 ], [ 74.12934, 21.30003 ], [ 74.12874, 21.30379 ], [ 74.12695, 21.30427 ], [ 74.12632, 21.3054 ], [ 74.12617, 21.30712 ], [ 74.12716, 21.30882 ], [ 74.12701, 21.31281 ], [ 74.12467, 21.31496 ], [ 74.12404, 21.32034 ], [ 74.11837, 21.32119 ], [ 74.11623, 21.32616 ], [ 74.11411, 21.32864 ], [ 74.10903, 21.33149 ], [ 74.10879, 21.33332 ], [ 74.10607, 21.33341 ], [ 74.10582, 21.33657 ], [ 74.10678, 21.3373 ], [ 74.09085, 21.33646 ], [ 74.07849, 21.33425 ], [ 74.06999, 21.34137 ], [ 74.05418, 21.34727 ], [ 74.04481, 21.34897 ], [ 74.0388, 21.34239 ], [ 74.02917, 21.33745 ], [ 74.02613, 21.33797 ], [ 74.02566, 21.33894 ], [ 74.02307, 21.33966 ], [ 74.0202, 21.35139 ], [ 74.01591, 21.35169 ], [ 74.01223, 21.35145 ], [ 74.0067, 21.34896 ], [ 73.98908, 21.34615 ], [ 73.98936, 21.34388 ], [ 73.98585, 21.34389 ], [ 73.97763, 21.3417 ], [ 73.95616, 21.33788 ], [ 73.95729, 21.33412 ], [ 73.96348, 21.32472 ], [ 73.95589, 21.32168 ], [ 73.95489, 21.32021 ], [ 73.95311, 21.32089 ], [ 73.95187, 21.32471 ], [ 73.94654, 21.32616 ], [ 73.94547, 21.32793 ], [ 73.94283, 21.32725 ], [ 73.94585, 21.34357 ], [ 73.94918, 21.35116 ], [ 73.94475, 21.38112 ], [ 73.94407, 21.39997 ], [ 73.93893, 21.40502 ], [ 73.94692, 21.40493 ], [ 73.95043, 21.39952 ], [ 73.95179, 21.39527 ], [ 73.95947, 21.39543 ], [ 73.95952, 21.39695 ], [ 73.96928, 21.39709 ], [ 73.97045, 21.39782 ], [ 73.97633, 21.40433 ], [ 73.97803, 21.40734 ], [ 73.97692, 21.41193 ], [ 73.97808, 21.41181 ], [ 73.98014, 21.40838 ], [ 73.98222, 21.4079 ], [ 73.98698, 21.41124 ], [ 74.00254, 21.41746 ], [ 74.00293, 21.41947 ], [ 74.00087, 21.42084 ], [ 74.00262, 21.42141 ], [ 74.0083, 21.42287 ], [ 74.00895, 21.41954 ], [ 74.01506, 21.42128 ], [ 74.0234, 21.41779 ], [ 74.0369, 21.41965 ], [ 74.04087, 21.41857 ], [ 74.04202, 21.4198 ], [ 74.04462, 21.41919 ], [ 74.04623, 21.42228 ], [ 74.04828, 21.42339 ], [ 74.0491, 21.42831 ], [ 74.04795, 21.42959 ], [ 74.04768, 21.43527 ], [ 74.04894, 21.43685 ], [ 74.04965, 21.44021 ], [ 74.04923, 21.44217 ], [ 74.0481, 21.44253 ], [ 74.04768, 21.44393 ], [ 74.04563, 21.44455 ], [ 74.0457, 21.44618 ], [ 74.04994, 21.4529 ], [ 74.0532, 21.45469 ], [ 74.053, 21.45627 ], [ 74.05715, 21.45939 ], [ 74.05967, 21.4594 ], [ 74.05978, 21.46114 ], [ 74.06143, 21.46197 ], [ 74.06119, 21.46299 ], [ 74.06245, 21.46435 ], [ 74.06119, 21.465 ], [ 74.06117, 21.46625 ], [ 74.0627, 21.4692 ], [ 74.06158, 21.47068 ], [ 74.0628, 21.47135 ], [ 74.06236, 21.47306 ], [ 74.06293, 21.47455 ], [ 74.06418, 21.47466 ], [ 74.06785, 21.47246 ], [ 74.06955, 21.47229 ], [ 74.07096, 21.46951 ], [ 74.07276, 21.46877 ], [ 74.07418, 21.46563 ], [ 74.07297, 21.46379 ], [ 74.07495, 21.46379 ], [ 74.07393, 21.46127 ], [ 74.07544, 21.4598 ], [ 74.0723, 21.45703 ], [ 74.08639, 21.45521 ], [ 74.09459, 21.45573 ], [ 74.09678, 21.4537 ], [ 74.10071, 21.44763 ], [ 74.10251, 21.44863 ], [ 74.10928, 21.44956 ], [ 74.1107, 21.45081 ], [ 74.1165, 21.45241 ], [ 74.11613, 21.45697 ], [ 74.11703, 21.45712 ], [ 74.11716, 21.46208 ], [ 74.12053, 21.46343 ], [ 74.11996, 21.46538 ], [ 74.12518, 21.46665 ], [ 74.13373, 21.46586 ], [ 74.13584, 21.45612 ], [ 74.1483, 21.458 ], [ 74.14766, 21.46141 ], [ 74.15524, 21.46295 ], [ 74.15571, 21.46453 ], [ 74.15881, 21.46649 ], [ 74.15805, 21.46755 ], [ 74.16122, 21.46889 ], [ 74.17297, 21.46852 ], [ 74.1735, 21.46636 ], [ 74.17517, 21.4666 ], [ 74.17613, 21.46819 ], [ 74.18232, 21.46925 ], [ 74.18349, 21.46125 ], [ 74.18641, 21.46112 ], [ 74.18773, 21.45819 ], [ 74.19531, 21.46053 ], [ 74.19612, 21.4583 ], [ 74.19782, 21.45875 ], [ 74.19716, 21.46098 ], [ 74.20928, 21.46219 ], [ 74.20891, 21.46704 ], [ 74.21416, 21.48168 ], [ 74.23435, 21.48229 ], [ 74.23571, 21.46777 ], [ 74.24065, 21.46772 ], [ 74.24742, 21.46886 ], [ 74.25356, 21.46774 ], [ 74.25436, 21.47062 ], [ 74.25505, 21.4706 ], [ 74.25592, 21.47678 ], [ 74.26926, 21.47901 ], [ 74.27732, 21.47937 ], [ 74.27734, 21.48251 ], [ 74.30414, 21.48811 ], [ 74.30389, 21.49945 ], [ 74.32079, 21.4985 ], [ 74.321, 21.50632 ], [ 74.3226, 21.51748 ], [ 74.32192, 21.52189 ], [ 74.32812, 21.51513 ], [ 74.33304, 21.5131 ], [ 74.34726, 21.51194 ], [ 74.35177, 21.51057 ], [ 74.35387, 21.50861 ], [ 74.35704, 21.50265 ], [ 74.35678, 21.50158 ] ] ] } },
{ "type": "Feature", "properties": { "OBJECTID": 3749, "state_lgd": "27", "state_name": "MAHARASHTRA", "district_lgd": "497", "district_name": "NANDURBAR", "district_name_source": "district_table", "subdistrict_lgd": "3955", "subdistrict_name": "NAWAPUR", "subdistrict_type": "", "name_corrupted": false, "remarks": "", "label_lon": 73.925341663094301, "label_lat": 21.185960156852445 }, "geometry": { "type": "Polygon", "coordinates": [ [ [ 74.15789, 21.23078 ], [ 74.15563, 21.22743 ], [ 74.15548, 21.22554 ], [ 74.15288, 21.22378 ], [ 74.14946, 21.22546 ], [ 74.14826, 21.22397 ], [ 74.14856, 21.22086 ], [ 74.14378, 21.22015 ], [ 74.1426, 21.21653 ], [ 74.1443, 21.21351 ], [ 74.14681, 21.21486 ], [ 74.1494, 21.2103 ], [ 74.14603, 21.2069 ], [ 74.14158, 21.20791 ], [ 74.13658, 21.21022 ], [ 74.1281, 21.21192 ], [ 74.126, 21.21313 ], [ 74.1207, 21.21336 ], [ 74.11088, 21.20823 ], [ 74.10215, 21.198 ], [ 74.09374, 21.19473 ], [ 74.09297, 21.19741 ], [ 74.08925, 21.19556 ], [ 74.08741, 21.19575 ], [ 74.08643, 21.19168 ], [ 74.07548, 21.18499 ], [ 74.07006, 21.1757 ], [ 74.06688, 21.17364 ], [ 74.05903, 21.17328 ], [ 74.05827, 21.17057 ], [ 74.05718, 21.16998 ], [ 74.05709, 21.16773 ], [ 74.05916, 21.16479 ], [ 74.0674, 21.1567 ], [ 74.07686, 21.15152 ], [ 74.07777, 21.14552 ], [ 74.07728, 21.14108 ], [ 74.07582, 21.13874 ], [ 74.074, 21.13782 ], [ 74.07697, 21.13466 ], [ 74.07693, 21.13352 ], [ 74.08046, 21.13252 ], [ 74.08288, 21.13073 ], [ 74.09261, 21.13278 ], [ 74.09806, 21.12676 ], [ 74.09924, 21.1229 ], [ 74.09725, 21.11044 ], [ 74.08883, 21.11387 ], [ 74.08407, 21.11275 ], [ 74.07965, 21.12047 ], [ 74.0703, 21.1298 ], [ 74.04753, 21.12785 ], [ 74.04968, 21.13581 ], [ 74.03542, 21.1448 ], [ 74.0201, 21.14164 ], [ 74.01606, 21.13108 ], [ 74.00013, 21.12093 ], [ 73.97462, 21.11355 ], [ 73.95634, 21.10254 ], [ 73.95263, 21.09349 ], [ 73.94726, 21.08672 ], [ 73.94357, 21.07856 ], [ 73.94809, 21.07146 ], [ 73.94745, 21.0669 ], [ 73.94452, 21.06206 ], [ 73.95526, 21.05132 ], [ 73.9543, 21.03919 ], [ 73.94818, 21.03152 ], [ 73.94504, 21.03369 ], [ 73.92989, 21.03903 ], [ 73.9099, 21.03761 ], [ 73.90718, 21.0436 ], [ 73.90703, 21.03653 ], [ 73.8953, 21.03526 ], [ 73.88219, 21.02623 ], [ 73.87503, 21.03091 ], [ 73.86726, 21.02975 ], [ 73.85915, 21.02989 ], [ 73.85449, 21.03265 ], [ 73.85663, 21.02022 ], [ 73.85607, 21.01517 ], [ 73.85417, 21.0142 ], [ 73.85094, 21.00667 ], [ 73.85055, 21.00266 ], [ 73.8512, 20.99763 ], [ 73.84944, 20.99977 ], [ 73.84578, 21.00068 ], [ 73.84409, 21.0019 ], [ 73.83881, 21.00754 ], [ 73.83534, 21.01571 ], [ 73.83575, 21.01809 ], [ 73.83673, 21.01918 ], [ 73.83598, 21.02224 ], [ 73.83422, 21.02472 ], [ 73.82932, 21.02616 ], [ 73.81864, 21.0221 ], [ 73.815, 21.0235 ], [ 73.80297, 21.03664 ], [ 73.80013, 21.03876 ], [ 73.79553, 21.04452 ], [ 73.81052, 21.05837 ], [ 73.8109, 21.05949 ], [ 73.80774, 21.08489 ], [ 73.79774, 21.07591 ], [ 73.7941, 21.07144 ], [ 73.77332, 21.07177 ], [ 73.76387, 21.06924 ], [ 73.76021, 21.0694 ], [ 73.75764, 21.072 ], [ 73.74516, 21.07761 ], [ 73.72993, 21.08243 ], [ 73.73302, 21.09825 ], [ 73.74376, 21.11518 ], [ 73.7399, 21.11061 ], [ 73.73645, 21.109 ], [ 73.73442, 21.10588 ], [ 73.73198, 21.10443 ], [ 73.72968, 21.09987 ], [ 73.71537, 21.10588 ], [ 73.70549, 21.10843 ], [ 73.70305, 21.11233 ], [ 73.70315, 21.11865 ], [ 73.68895, 21.10079 ], [ 73.6772, 21.10856 ], [ 73.6519, 21.1076 ], [ 73.64638, 21.12125 ], [ 73.63103, 21.12328 ], [ 73.61846, 21.11846 ], [ 73.61668, 21.12564 ], [ 73.61191, 21.13808 ], [ 73.61763, 21.1427 ], [ 73.60513, 21.14401 ], [ 73.60077, 21.15022 ], [ 73.59879, 21.15663 ], [ 73.57852, 21.15048 ], [ 73.57688, 21.15667 ], [ 73.58328, 21.16101 ], [ 73.57764, 21.16792 ], [ 73.57742, 21.17075 ], [ 73.58101, 21.16945 ], [ 73.59385, 21.17439 ], [ 73.5996, 21.1817 ], [ 73.60645, 21.17876 ], [ 73.60579, 21.17008 ], [ 73.60779, 21.15898 ], [ 73.61472, 21.15578 ], [ 73.62927, 21.15492 ], [ 73.63003, 21.15346 ], [ 73.62994, 21.14883 ], [ 73.62743, 21.14335 ], [ 73.6312, 21.14198 ], [ 73.64386, 21.13973 ], [ 73.65753, 21.14585 ], [ 73.66494, 21.1473 ], [ 73.66424, 21.15327 ], [ 73.66749, 21.15463 ], [ 73.67271, 21.15443 ], [ 73.67604, 21.15352 ], [ 73.67536, 21.15261 ], [ 73.68164, 21.15124 ], [ 73.70178, 21.15369 ], [ 73.70134, 21.14632 ], [ 73.70659, 21.14462 ], [ 73.71074, 21.14543 ], [ 73.71304, 21.14247 ], [ 73.71897, 21.13976 ], [ 73.71849, 21.14157 ], [ 73.72102, 21.14204 ], [ 73.73142, 21.14198 ], [ 73.73181, 21.14097 ], [ 73.73321, 21.14235 ], [ 73.7332, 21.14832 ], [ 73.73742, 21.15022 ], [ 73.73712, 21.15325 ], [ 73.73408, 21.15798 ], [ 73.72921, 21.16058 ], [ 73.72852, 21.16194 ], [ 73.72975, 21.16538 ], [ 73.74009, 21.17112 ], [ 73.74019, 21.16761 ], [ 73.74925, 21.16809 ], [ 73.75192, 21.16788 ], [ 73.75284, 21.16695 ], [ 73.75757, 21.16743 ], [ 73.76513, 21.16516 ], [ 73.77231, 21.16464 ], [ 73.7736, 21.16866 ], [ 73.77929, 21.1696 ], [ 73.78135, 21.1711 ], [ 73.78283, 21.17432 ], [ 73.7847, 21.18399 ], [ 73.78847, 21.18224 ], [ 73.79356, 21.18175 ], [ 73.79366, 21.18072 ], [ 73.80233, 21.17615 ], [ 73.8027, 21.17492 ], [ 73.81576, 21.17396 ], [ 73.81987, 21.18673 ], [ 73.82298, 21.18514 ], [ 73.82328, 21.18655 ], [ 73.82584, 21.18661 ], [ 73.8259, 21.18716 ], [ 73.82605, 21.20013 ], [ 73.81543, 21.19735 ], [ 73.81296, 21.20573 ], [ 73.8118, 21.20744 ], [ 73.81073, 21.20762 ], [ 73.81132, 21.20934 ], [ 73.811, 21.21974 ], [ 73.81181, 21.23123 ], [ 73.82846, 21.23998 ], [ 73.82749, 21.25217 ], [ 73.82238, 21.2611 ], [ 73.82314, 21.26541 ], [ 73.82177, 21.26866 ], [ 73.82287, 21.27086 ], [ 73.82506, 21.27136 ], [ 73.82555, 21.2683 ], [ 73.82654, 21.26772 ], [ 73.83629, 21.27169 ], [ 73.84119, 21.27212 ], [ 73.84971, 21.27472 ], [ 73.85308, 21.27297 ], [ 73.8597, 21.27151 ], [ 73.86338, 21.27266 ], [ 73.87844, 21.26594 ], [ 73.89429, 21.27089 ], [ 73.8989, 21.27312 ], [ 73.90287, 21.27808 ], [ 73.90873, 21.27867 ], [ 73.91897, 21.28555 ], [ 73.92224, 21.28964 ], [ 73.92691, 21.29073 ], [ 73.92966, 21.28985 ], [ 73.93242, 21.29072 ], [ 73.93751, 21.29594 ], [ 73.9418, 21.29885 ], [ 73.94273, 21.30031 ], [ 73.94308, 21.30356 ], [ 73.94217, 21.31839 ], [ 73.94283, 21.32725 ], [ 73.94547, 21.32793 ], [ 73.94654, 21.32616 ], [ 73.95187, 21.32471 ], [ 73.95311, 21.32089 ], [ 73.95489, 21.32021 ], [ 73.95589, 21.32168 ], [ 73.96348, 21.32472 ], [ 73.95729, 21.33412 ], [ 73.95616, 21.33788 ], [ 73.97763, 21.3417 ], [ 73.98585, 21.34389 ], [ 73.98936, 21.34388 ], [ 73.98908, 21.34615 ], [ 74.0067, 21.34896 ], [ 74.01223, 21.35145 ], [ 74.0202, 21.35139 ], [ 74.02307, 21.33966 ], [ 74.02566, 21.33894 ], [ 74.02613, 21.33797 ], [ 74.02917, 21.33745 ], [ 74.0388, 21.34239 ], [ 74.04481, 21.34897 ], [ 74.05418, 21.34727 ], [ 74.06999, 21.34137 ], [ 74.07849, 21.33425 ], [ 74.09085, 21.33646 ], [ 74.10678, 21.3373 ], [ 74.10582, 21.33657 ], [ 74.10607, 21.33341 ], [ 74.10879, 21.33332 ], [ 74.10903, 21.33149 ], [ 74.11411, 21.32864 ], [ 74.11623, 21.32616 ], [ 74.11837, 21.32119 ], [ 74.12404, 21.32034 ], [ 74.12467, 21.31496 ], [ 74.12701, 21.31281 ], [ 74.12716, 21.30882 ], [ 74.12617, 21.30712 ], [ 74.12632, 21.3054 ], [ 74.12695, 21.30427 ], [ 74.12874, 21.30379 ], [ 74.12934, 21.30003 ], [ 74.13036, 21.30108 ], [ 74.13115, 21.30059 ], [ 74.12955, 21.29947 ], [ 74.1366, 21.3001 ], [ 74.13748, 21.29758 ], [ 74.14186, 21.29391 ], [ 74.14, 21.28945 ], [ 74.14007, 21.28782 ], [ 74.14105, 21.2873 ], [ 74.14134, 21.28399 ], [ 74.14026, 21.28238 ], [ 74.1417, 21.28064 ], [ 74.14664, 21.26184 ], [ 74.14928, 21.26146 ], [ 74.15508, 21.23557 ], [ 74.15384, 21.23318 ], [ 74.15789, 21.23078 ] ] ] } },
{ "type": "Feature", "properties": { "OBJECTID": 3803, "state_lgd": "27", "state_name": "MAHARASHTRA", "district_lgd": "497", "district_name": "NANDURBAR", "district_name_source": "district_table", "subdistrict_lgd": "3953", "subdistrict_name": "SHAHADE", "subdistrict_type": "", "name_corrupted": false, "remarks": "", "label_lon": 74.540002072230422, "label_lat": 21.564255283134376 }, "geometry": { "type": "MultiPolygon", "coordinates": [ [ [ [ 74.49734, 21.77997 ], [ 74.50207, 21.78107 ], [ 74.50972, 21.77282 ], [ 74.51395, 21.76569 ], [ 74.51228, 21.76329 ], [ 74.51229, 21.76049 ], [ 74.51163, 21.75985 ], [ 74.51309, 21.75658 ], [ 74.51018, 21.75367 ], [ 74.50897, 21.75 ], [ 74.50908, 21.74903 ], [ 74.51024, 21.749 ], [ 74.51052, 21.74696 ], [ 74.51205, 21.74521 ], [ 74.51083, 21.7431 ], [ 74.51156, 21.74049 ], [ 74.5109, 21.7403 ], [ 74.51114, 21.73869 ], [ 74.51002, 21.73743 ], [ 74.51005, 21.73569 ], [ 74.51107, 21.73531 ], [ 74.51039, 21.73379 ], [ 74.5095, 21.734 ], [ 74.50951, 21.7325 ], [ 74.50772, 21.73168 ], [ 74.50879, 21.72966 ], [ 74.50802, 21.72754 ], [ 74.50559, 21.72631 ], [ 74.51386, 21.71861 ], [ 74.53323, 21.71689 ], [ 74.54737, 21.7196 ], [ 74.556, 21.70432 ], [ 74.55751, 21.70427 ], [ 74.55538, 21.69699 ], [ 74.55657, 21.69282 ], [ 74.5549, 21.69086 ], [ 74.55735, 21.6888 ], [ 74.55756, 21.6874 ], [ 74.55416, 21.68573 ], [ 74.5542, 21.68136 ], [ 74.56238, 21.68115 ], [ 74.56238, 21.68343 ], [ 74.57987, 21.68333 ], [ 74.58056, 21.68021 ], [ 74.58276, 21.67697 ], [ 74.58386, 21.6733 ], [ 74.58337, 21.67037 ], [ 74.58217, 21.66858 ], [ 74.58208, 21.66499 ], [ 74.61751, 21.66047 ], [ 74.62241, 21.65679 ], [ 74.64486, 21.6551 ], [ 74.66413, 21.65253 ], [ 74.66488, 21.6473 ], [ 74.66836, 21.64828 ], [ 74.67104, 21.64552 ], [ 74.67483, 21.6465 ], [ 74.67747, 21.64543 ], [ 74.67545, 21.64473 ], [ 74.68396, 21.6395 ], [ 74.68363, 21.63824 ], [ 74.68546, 21.63478 ], [ 74.68516, 21.63365 ], [ 74.68746, 21.63159 ], [ 74.69318, 21.63281 ], [ 74.69989, 21.63011 ], [ 74.70075, 21.62758 ], [ 74.75001, 21.61797 ], [ 74.76892, 21.61608 ], [ 74.76771, 21.60988 ], [ 74.77102, 21.60948 ], [ 74.77119, 21.60841 ], [ 74.7695, 21.60579 ], [ 74.76279, 21.58619 ], [ 74.75857, 21.57651 ], [ 74.75854, 21.54886 ], [ 74.75926, 21.54685 ], [ 74.75807, 21.54503 ], [ 74.75964, 21.53756 ], [ 74.75796, 21.53565 ], [ 74.75845, 21.53415 ], [ 74.75575, 21.53297 ], [ 74.7561, 21.53174 ], [ 74.75389, 21.52923 ], [ 74.75451, 21.52631 ], [ 74.75722, 21.52345 ], [ 74.7577, 21.51888 ], [ 74.75823, 21.51838 ], [ 74.76022, 21.51895 ], [ 74.76123, 21.5168 ], [ 74.75739, 21.50309 ], [ 74.75623, 21.50207 ], [ 74.7585, 21.49723 ], [ 74.75671, 21.4969 ], [ 74.75616, 21.49492 ], [ 74.75763, 21.4914 ], [ 74.75589, 21.48949 ], [ 74.75603, 21.48598 ], [ 74.75296, 21.48231 ], [ 74.75315, 21.47972 ], [ 74.75522, 21.47756 ], [ 74.74818, 21.47833 ], [ 74.74643, 21.47953 ], [ 74.7318, 21.47873 ], [ 74.73319, 21.47632 ], [ 74.73224, 21.47505 ], [ 74.73368, 21.47275 ], [ 74.73276, 21.47185 ], [ 74.72969, 21.473 ], [ 74.72607, 21.47695 ], [ 74.71079, 21.47425 ], [ 74.69977, 21.469 ], [ 74.70056, 21.4665 ], [ 74.70005, 21.46557 ], [ 74.70178, 21.46512 ], [ 74.70172, 21.46418 ], [ 74.70401, 21.46107 ], [ 74.70466, 21.45867 ], [ 74.70318, 21.4533 ], [ 74.70341, 21.45257 ], [ 74.70509, 21.45231 ], [ 74.70391, 21.45145 ], [ 74.70521, 21.44986 ], [ 74.70349, 21.44953 ], [ 74.70205, 21.4473 ], [ 74.70055, 21.44674 ], [ 74.69918, 21.44279 ], [ 74.69776, 21.44212 ], [ 74.69707, 21.44039 ], [ 74.69872, 21.43935 ], [ 74.69825, 21.43827 ], [ 74.69727, 21.43743 ], [ 74.6963, 21.4384 ], [ 74.69514, 21.43702 ], [ 74.69349, 21.43655 ], [ 74.69358, 21.43572 ], [ 74.69457, 21.43545 ], [ 74.69384, 21.4342 ], [ 74.69181, 21.43415 ], [ 74.69247, 21.43289 ], [ 74.69204, 21.43104 ], [ 74.69471, 21.42984 ], [ 74.69483, 21.42825 ], [ 74.69726, 21.42921 ], [ 74.69683, 21.42703 ], [ 74.69863, 21.42286 ], [ 74.69773, 21.42238 ], [ 74.69793, 21.42047 ], [ 74.69548, 21.4171 ], [ 74.69381, 21.41235 ], [ 74.69173, 21.41043 ], [ 74.68863, 21.40938 ], [ 74.68603, 21.40355 ], [ 74.67712, 21.40617 ], [ 74.6646, 21.40707 ], [ 74.64988, 21.40469 ], [ 74.63792, 21.40134 ], [ 74.63351, 21.40174 ], [ 74.61949, 21.41141 ], [ 74.61272, 21.4139 ], [ 74.59961, 21.41542 ], [ 74.59431, 21.41526 ], [ 74.58995, 21.41352 ], [ 74.58508, 21.41072 ], [ 74.58003, 21.40553 ], [ 74.57193, 21.40258 ], [ 74.56536, 21.40542 ], [ 74.56345, 21.40895 ], [ 74.55845, 21.41388 ], [ 74.54768, 21.41899 ], [ 74.53619, 21.42607 ], [ 74.52377, 21.42868 ], [ 74.51253, 21.4298 ], [ 74.49657, 21.42558 ], [ 74.49408, 21.42595 ], [ 74.48602, 21.42892 ], [ 74.4748, 21.43477 ], [ 74.46174, 21.43847 ], [ 74.44369, 21.44752 ], [ 74.43452, 21.44659 ], [ 74.43163, 21.44515 ], [ 74.42381, 21.4389 ], [ 74.41773, 21.43734 ], [ 74.41399, 21.43749 ], [ 74.40176, 21.44515 ], [ 74.39669, 21.4515 ], [ 74.39261, 21.45898 ], [ 74.3908, 21.46597 ], [ 74.3829, 21.47691 ], [ 74.37646, 21.48142 ], [ 74.3712, 21.48242 ], [ 74.36695, 21.48453 ], [ 74.36522, 21.48648 ], [ 74.35792, 21.49898 ], [ 74.35678, 21.50158 ], [ 74.35704, 21.50265 ], [ 74.35387, 21.50861 ], [ 74.35177, 21.51057 ], [ 74.34726, 21.51194 ], [ 74.33304, 21.5131 ], [ 74.32812, 21.51513 ], [ 74.32192, 21.52189 ], [ 74.32148, 21.52957 ], [ 74.32525, 21.53229 ], [ 74.32554, 21.53607 ], [ 74.33084, 21.53553 ], [ 74.33122, 21.5395 ], [ 74.3295, 21.54017 ], [ 74.32793, 21.53941 ], [ 74.32834, 21.54278 ], [ 74.33233, 21.54348 ], [ 74.33061, 21.55271 ], [ 74.33289, 21.552 ], [ 74.33323, 21.55284 ], [ 74.3359, 21.55269 ], [ 74.33761, 21.55531 ], [ 74.33917, 21.55559 ], [ 74.34029, 21.55787 ], [ 74.34426, 21.56107 ], [ 74.34518, 21.56833 ], [ 74.34465, 21.57381 ], [ 74.34532, 21.57496 ], [ 74.34386, 21.58095 ], [ 74.34374, 21.59083 ], [ 74.34995, 21.59233 ], [ 74.35357, 21.59547 ], [ 74.36014, 21.59564 ], [ 74.36277, 21.59984 ], [ 74.36119, 21.60813 ], [ 74.35511, 21.60856 ], [ 74.35351, 21.61365 ], [ 74.35279, 21.62857 ], [ 74.35113, 21.63465 ], [ 74.35036, 21.64378 ], [ 74.34909, 21.64394 ], [ 74.34916, 21.65369 ], [ 74.35022, 21.65367 ], [ 74.35024, 21.65137 ], [ 74.35105, 21.65108 ], [ 74.35184, 21.65366 ], [ 74.35934, 21.65357 ], [ 74.35939, 21.65511 ], [ 74.36511, 21.65524 ], [ 74.36506, 21.65343 ], [ 74.37288, 21.65459 ], [ 74.37101, 21.66676 ], [ 74.37387, 21.67542 ], [ 74.36999, 21.69628 ], [ 74.37415, 21.69904 ], [ 74.3738, 21.70205 ], [ 74.37898, 21.70879 ], [ 74.37943, 21.71164 ], [ 74.38396, 21.71945 ], [ 74.38403, 21.72377 ], [ 74.38839, 21.7272 ], [ 74.39996, 21.72824 ], [ 74.40406, 21.72584 ], [ 74.4202, 21.72201 ], [ 74.42264, 21.72037 ], [ 74.42292, 21.71889 ], [ 74.42385, 21.71887 ], [ 74.42997, 21.72002 ], [ 74.43369, 21.72315 ], [ 74.43352, 21.72491 ], [ 74.44657, 21.73003 ], [ 74.44785, 21.72662 ], [ 74.44711, 21.72274 ], [ 74.45079, 21.7151 ], [ 74.45361, 21.71257 ], [ 74.45394, 21.71112 ], [ 74.45553, 21.7117 ], [ 74.45473, 21.71212 ], [ 74.46482, 21.71707 ], [ 74.46756, 21.71885 ], [ 74.46763, 21.71965 ], [ 74.46935, 21.71964 ], [ 74.46774, 21.72147 ], [ 74.47023, 21.72257 ], [ 74.47034, 21.73035 ], [ 74.48255, 21.733 ], [ 74.47194, 21.73934 ], [ 74.4712, 21.74252 ], [ 74.47304, 21.75953 ], [ 74.46657, 21.76881 ], [ 74.47608, 21.78652 ], [ 74.49734, 21.77997 ] ] ], [ [ [ 74.49614, 21.79808 ], [ 74.49847, 21.79626 ], [ 74.49941, 21.79349 ], [ 74.49889, 21.79275 ], [ 74.49735, 21.79436 ], [ 74.49751, 21.79539 ], [ 74.49586, 21.79579 ], [ 74.49518, 21.79777 ], [ 74.49477, 21.79673 ], [ 74.49272, 21.79723 ], [ 74.49333, 21.79994 ], [ 74.49057, 21.80285 ], [ 74.48988, 21.80579 ], [ 74.49213, 21.80641 ], [ 74.49308, 21.80327 ], [ 74.49614, 21.79808 ] ] ] ] } },
{ "type": "Feature", "properties": { "OBJECTID": 3814, "state_lgd": "27", "state_name": "MAHARASHTRA", "district_lgd": "497", "district_name": "NANDURBAR", "district_name_source": "district_table", "subdistrict_lgd": "3952", "subdistrict_name": "TALODE", "subdistrict_type": "", "name_corrupted": false, "remarks": "", "label_lon": 74.214673069416222, "label_lat": 21.620621098464671 }, "geometry": { "type": "Polygon", "coordinates": [ [ [ 74.37005, 21.69592 ], [ 74.37387, 21.67542 ], [ 74.37101, 21.66676 ], [ 74.37288, 21.65459 ], [ 74.36506, 21.65343 ], [ 74.36511, 21.65524 ], [ 74.35939, 21.65511 ], [ 74.35934, 21.65357 ], [ 74.35184, 21.65366 ], [ 74.35105, 21.65108 ], [ 74.35024, 21.65137 ], [ 74.35022, 21.65367 ], [ 74.34916, 21.65369 ], [ 74.34909, 21.64394 ], [ 74.35036, 21.64378 ], [ 74.35113, 21.63465 ], [ 74.35279, 21.62857 ], [ 74.35351, 21.61365 ], [ 74.35511, 21.60856 ], [ 74.36119, 21.60813 ], [ 74.36277, 21.59984 ], [ 74.36014, 21.59564 ], [ 74.35357, 21.59547 ], [ 74.34995, 21.59233 ], [ 74.34374, 21.59083 ], [ 74.34386, 21.58095 ], [ 74.34532, 21.57496 ], [ 74.34465, 21.57381 ], [ 74.34518, 21.56833 ], [ 74.34426, 21.56107 ], [ 74.34029, 21.55787 ], [ 74.33917, 21.55559 ], [ 74.33761, 21.55531 ], [ 74.3359, 21.55269 ], [ 74.33323, 21.55284 ], [ 74.33289, 21.552 ], [ 74.33034, 21.55278 ], [ 74.32809, 21.5511 ], [ 74.32535, 21.55145 ], [ 74.32429, 21.54943 ], [ 74.32261, 21.54911 ], [ 74.32156, 21.55231 ], [ 74.31475, 21.55117 ], [ 74.30324, 21.55223 ], [ 74.30382, 21.56547 ], [ 74.29958, 21.56671 ], [ 74.29947, 21.56771 ], [ 74.29553, 21.56907 ], [ 74.2956, 21.56708 ], [ 74.29265, 21.56754 ], [ 74.2846, 21.56643 ], [ 74.28453, 21.5651 ], [ 74.28126, 21.56427 ], [ 74.28142, 21.56352 ], [ 74.27898, 21.56223 ], [ 74.27672, 21.56225 ], [ 74.27853, 21.5536 ], [ 74.26906, 21.55293 ], [ 74.26926, 21.55154 ], [ 74.26801, 21.55136 ], [ 74.26641, 21.54259 ], [ 74.26332, 21.54261 ], [ 74.26333, 21.5399 ], [ 74.25246, 21.54038 ], [ 74.24244, 21.53903 ], [ 74.23622, 21.5397 ], [ 74.23631, 21.5484 ], [ 74.23458, 21.5484 ], [ 74.23494, 21.55088 ], [ 74.23104, 21.55095 ], [ 74.23197, 21.55361 ], [ 74.22901, 21.55446 ], [ 74.22757, 21.54879 ], [ 74.22326, 21.54823 ], [ 74.22304, 21.54736 ], [ 74.22042, 21.5469 ], [ 74.21734, 21.5444 ], [ 74.21585, 21.54109 ], [ 74.20845, 21.53677 ], [ 74.20555, 21.5371 ], [ 74.20291, 21.5364 ], [ 74.20008, 21.53284 ], [ 74.19585, 21.53206 ], [ 74.19554, 21.53748 ], [ 74.19321, 21.53761 ], [ 74.19338, 21.53938 ], [ 74.18822, 21.54071 ], [ 74.18761, 21.5428 ], [ 74.18601, 21.54203 ], [ 74.18579, 21.54313 ], [ 74.18272, 21.54232 ], [ 74.18252, 21.54545 ], [ 74.18116, 21.54599 ], [ 74.1809, 21.54772 ], [ 74.17838, 21.55057 ], [ 74.17862, 21.55182 ], [ 74.1751, 21.55643 ], [ 74.17648, 21.55763 ], [ 74.17543, 21.55922 ], [ 74.17605, 21.56073 ], [ 74.17587, 21.569 ], [ 74.15826, 21.56897 ], [ 74.15586, 21.5683 ], [ 74.15514, 21.56725 ], [ 74.15468, 21.5613 ], [ 74.15361, 21.56064 ], [ 74.15396, 21.55682 ], [ 74.13894, 21.55503 ], [ 74.13824, 21.55365 ], [ 74.13847, 21.54973 ], [ 74.13747, 21.54915 ], [ 74.13696, 21.54686 ], [ 74.13612, 21.54929 ], [ 74.13434, 21.54918 ], [ 74.1298, 21.55118 ], [ 74.12011, 21.55139 ], [ 74.12026, 21.55589 ], [ 74.11893, 21.55628 ], [ 74.11755, 21.55614 ], [ 74.11709, 21.55433 ], [ 74.11556, 21.5533 ], [ 74.11665, 21.55084 ], [ 74.11319, 21.54878 ], [ 74.11091, 21.55269 ], [ 74.10995, 21.55624 ], [ 74.10446, 21.55643 ], [ 74.09731, 21.55525 ], [ 74.09744, 21.55154 ], [ 74.09645, 21.55124 ], [ 74.09427, 21.55218 ], [ 74.08698, 21.55157 ], [ 74.08504, 21.55535 ], [ 74.07922, 21.55442 ], [ 74.08082, 21.55202 ], [ 74.08158, 21.54875 ], [ 74.07319, 21.54792 ], [ 74.06697, 21.55028 ], [ 74.0599, 21.5503 ], [ 74.05442, 21.55791 ], [ 74.05831, 21.55872 ], [ 74.05842, 21.56617 ], [ 74.06155, 21.56882 ], [ 74.06211, 21.5702 ], [ 74.06521, 21.57103 ], [ 74.07238, 21.57122 ], [ 74.07042, 21.57498 ], [ 74.06913, 21.57476 ], [ 74.06757, 21.57961 ], [ 74.06426, 21.57916 ], [ 74.06132, 21.58 ], [ 74.0601, 21.58755 ], [ 74.05901, 21.58899 ], [ 74.05563, 21.59995 ], [ 74.04899, 21.60186 ], [ 74.04813, 21.60084 ], [ 74.04487, 21.59989 ], [ 74.04305, 21.61012 ], [ 74.03861, 21.60887 ], [ 74.03809, 21.60941 ], [ 74.03736, 21.61642 ], [ 74.03675, 21.61666 ], [ 74.03776, 21.61953 ], [ 74.03583, 21.62228 ], [ 74.03511, 21.62584 ], [ 74.03739, 21.62591 ], [ 74.04222, 21.62973 ], [ 74.04867, 21.63158 ], [ 74.0533, 21.63404 ], [ 74.05285, 21.64009 ], [ 74.05119, 21.6438 ], [ 74.05175, 21.64683 ], [ 74.04881, 21.64912 ], [ 74.0466, 21.65241 ], [ 74.04548, 21.65753 ], [ 74.04742, 21.66285 ], [ 74.04805, 21.66821 ], [ 74.05348, 21.67245 ], [ 74.05519, 21.673 ], [ 74.0628, 21.67172 ], [ 74.07393, 21.67573 ], [ 74.07855, 21.67422 ], [ 74.0819, 21.67771 ], [ 74.08522, 21.67933 ], [ 74.08694, 21.68223 ], [ 74.08822, 21.67869 ], [ 74.08609, 21.67426 ], [ 74.09183, 21.66593 ], [ 74.09203, 21.66017 ], [ 74.09507, 21.65537 ], [ 74.09651, 21.64923 ], [ 74.09545, 21.64506 ], [ 74.08996, 21.63571 ], [ 74.08398, 21.63528 ], [ 74.08656, 21.62611 ], [ 74.08945, 21.62229 ], [ 74.09121, 21.61731 ], [ 74.09232, 21.61177 ], [ 74.09169, 21.6115 ], [ 74.09564, 21.60663 ], [ 74.09674, 21.60769 ], [ 74.10013, 21.60839 ], [ 74.09812, 21.61348 ], [ 74.09705, 21.62117 ], [ 74.09116, 21.62468 ], [ 74.09148, 21.62638 ], [ 74.10403, 21.62596 ], [ 74.10671, 21.61274 ], [ 74.10827, 21.61249 ], [ 74.11004, 21.61714 ], [ 74.10974, 21.61942 ], [ 74.11539, 21.61965 ], [ 74.11713, 21.62203 ], [ 74.11751, 21.62706 ], [ 74.12344, 21.62788 ], [ 74.12388, 21.62957 ], [ 74.12242, 21.63202 ], [ 74.11994, 21.63197 ], [ 74.11738, 21.62968 ], [ 74.11642, 21.63003 ], [ 74.11543, 21.63516 ], [ 74.12226, 21.63924 ], [ 74.12164, 21.64544 ], [ 74.11942, 21.65027 ], [ 74.1175, 21.65082 ], [ 74.11625, 21.65452 ], [ 74.11396, 21.65615 ], [ 74.11289, 21.66068 ], [ 74.10749, 21.66559 ], [ 74.10929, 21.66687 ], [ 74.11285, 21.67227 ], [ 74.11374, 21.67707 ], [ 74.11615, 21.67874 ], [ 74.12377, 21.67982 ], [ 74.12659, 21.67743 ], [ 74.13088, 21.67552 ], [ 74.13856, 21.67393 ], [ 74.13852, 21.67274 ], [ 74.14077, 21.67209 ], [ 74.14151, 21.67028 ], [ 74.14423, 21.66911 ], [ 74.14508, 21.67088 ], [ 74.14412, 21.67246 ], [ 74.14446, 21.6733 ], [ 74.14673, 21.6738 ], [ 74.14783, 21.67669 ], [ 74.15018, 21.67654 ], [ 74.15241, 21.67907 ], [ 74.1594, 21.67766 ], [ 74.1606, 21.67841 ], [ 74.16406, 21.67851 ], [ 74.16584, 21.68024 ], [ 74.17342, 21.68298 ], [ 74.17461, 21.68267 ], [ 74.17697, 21.67957 ], [ 74.18063, 21.67988 ], [ 74.18388, 21.68098 ], [ 74.18691, 21.68312 ], [ 74.19073, 21.68294 ], [ 74.19152, 21.68461 ], [ 74.19362, 21.68557 ], [ 74.19479, 21.6871 ], [ 74.19784, 21.6855 ], [ 74.20273, 21.68478 ], [ 74.20599, 21.68767 ], [ 74.21348, 21.68753 ], [ 74.21791, 21.69208 ], [ 74.22212, 21.69052 ], [ 74.22503, 21.69104 ], [ 74.22544, 21.69203 ], [ 74.22809, 21.69156 ], [ 74.2302, 21.69265 ], [ 74.23098, 21.69449 ], [ 74.23237, 21.69463 ], [ 74.23541, 21.69765 ], [ 74.23945, 21.69979 ], [ 74.24643, 21.7003 ], [ 74.25076, 21.70339 ], [ 74.25237, 21.70689 ], [ 74.2537, 21.70717 ], [ 74.2664, 21.70689 ], [ 74.26535, 21.70265 ], [ 74.26584, 21.70063 ], [ 74.2691, 21.6966 ], [ 74.27149, 21.69525 ], [ 74.27339, 21.69081 ], [ 74.27442, 21.69068 ], [ 74.27953, 21.691 ], [ 74.29388, 21.6895 ], [ 74.30355, 21.69142 ], [ 74.30599, 21.69292 ], [ 74.30892, 21.69904 ], [ 74.31272, 21.70306 ], [ 74.31666, 21.69788 ], [ 74.31893, 21.69677 ], [ 74.33192, 21.69679 ], [ 74.33667, 21.6946 ], [ 74.34118, 21.69604 ], [ 74.34829, 21.69584 ], [ 74.35279, 21.69666 ], [ 74.35953, 21.69943 ], [ 74.36477, 21.69635 ], [ 74.37005, 21.69592 ] ], [ [ 74.09328, 21.56526 ], [ 74.09195, 21.57834 ], [ 74.08924, 21.58285 ], [ 74.08447, 21.58178 ], [ 74.08518, 21.57706 ], [ 74.08651, 21.57398 ], [ 74.09057, 21.56751 ], [ 74.09328, 21.56526 ] ], [ [ 74.10867, 21.59938 ], [ 74.10643, 21.59611 ], [ 74.10333, 21.59283 ], [ 74.10138, 21.59205 ], [ 74.10334, 21.58837 ], [ 74.10483, 21.58833 ], [ 74.10632, 21.5848 ], [ 74.10739, 21.58215 ], [ 74.10819, 21.57595 ], [ 74.1112, 21.57452 ], [ 74.1109, 21.57351 ], [ 74.11185, 21.57204 ], [ 74.1138, 21.57068 ], [ 74.11422, 21.56808 ], [ 74.11678, 21.56835 ], [ 74.11795, 21.57106 ], [ 74.11745, 21.57252 ], [ 74.11819, 21.5791 ], [ 74.11956, 21.58242 ], [ 74.1187, 21.5838 ], [ 74.12075, 21.58809 ], [ 74.12062, 21.59112 ], [ 74.11856, 21.58894 ], [ 74.11481, 21.58994 ], [ 74.11358, 21.59588 ], [ 74.11092, 21.59825 ], [ 74.10867, 21.59938 ] ] ] } }
]
}
