{
"type": "FeatureCollection",
"name": "501_AKOLA",
"crs": { "type": "name", "properties": { "name": "urn:ogc:def:crs:OGC:1.3:CRS84" } },
"xy_coordinate_resolution": 1e-05,
"features": [
{ "type": "Feature", "properties": { "OBJECTID": 3781, "state_lgd": "27", "state_name": "MAHARASHTRA", "district_lgd": "501", "district_name": "AKOLA", "district_name_source": "district_table", "subdistrict_lgd": "3990", "subdistrict_name": "BALAPUR", "subdistrict_type": "", "name_corrupted": false, "remarks": "", "label_lon": 76.833017472963121, "label_lat": 20.73302203504754 }, "geometry": { "type": "Polygon", "coordinates": [ [ [ 76.75108, 20.92216 ], [ 76.75362, 20.92107 ], [ 76.75719, 20.92128 ], [ 76.76341, 20.92322 ], [ 76.7671, 20.92342 ], [ 76.77444, 20.92122 ], [ 76.77718, 20.91603 ], [ 76.78014, 20.91513 ], [ 76.78053, 20.91387 ], [ 76.77961, 20.91268 ], [ 76.77593, 20.91148 ], [ 76.77492, 20.91038 ], [ 76.77526, 20.90896 ], [ 76.78118, 20.9078 ], [ 76.78414, 20.90806 ], [ 76.78732, 20.91104 ], [ 76.79028, 20.91672 ], [ 76.79198, 20.9173 ], [ 76.80301, 20.91251 ], [ 76.80848, 20.91491 ], [ 76.80914, 20.91403 ], [ 76.80863, 20.91144 ], [ 76.80732, 20.90843 ], [ 76.80413, 20.90489 ], [ 76.80484, 20.90192 ], [ 76.80654, 20.90076 ], [ 76.81642, 20.89774 ], [ 76.81857, 20.89794 ], [ 76.8235, 20.9009 ], [ 76.82706, 20.90206 ], [ 76.83033, 20.90168 ], [ 76.83362, 20.89954 ], [ 76.83946, 20.90164 ], [ 76.85356, 20.89477 ], [ 76.85379, 20.89291 ], [ 76.85269, 20.8901 ], [ 76.85357, 20.8876 ], [ 76.8583, 20.88781 ], [ 76.86384, 20.89053 ], [ 76.86758, 20.8937 ], [ 76.87674, 20.89757 ], [ 76.88382, 20.89101 ], [ 76.88594, 20.89092 ], [ 76.89097, 20.89315 ], [ 76.89487, 20.89132 ], [ 76.89669, 20.88913 ], [ 76.89588, 20.88295 ], [ 76.89838, 20.88113 ], [ 76.90053, 20.88193 ], [ 76.90107, 20.88695 ], [ 76.90505, 20.88943 ], [ 76.91018, 20.8892 ], [ 76.91126, 20.88774 ], [ 76.91143, 20.88563 ], [ 76.91304, 20.88457 ], [ 76.92049, 20.8865 ], [ 76.92073, 20.88599 ], [ 76.92007, 20.86937 ], [ 76.91773, 20.86219 ], [ 76.90135, 20.86166 ], [ 76.89107, 20.8642 ], [ 76.89035, 20.86073 ], [ 76.88864, 20.86055 ], [ 76.88799, 20.85854 ], [ 76.88706, 20.85063 ], [ 76.90316, 20.84732 ], [ 76.90313, 20.84581 ], [ 76.90709, 20.8451 ], [ 76.90664, 20.82976 ], [ 76.90382, 20.81129 ], [ 76.91649, 20.81152 ], [ 76.91821, 20.79913 ], [ 76.91906, 20.77751 ], [ 76.91882, 20.77254 ], [ 76.8981, 20.77153 ], [ 76.89424, 20.7602 ], [ 76.89047, 20.76011 ], [ 76.88948, 20.74781 ], [ 76.8868, 20.74733 ], [ 76.88565, 20.73904 ], [ 76.90142, 20.73642 ], [ 76.92236, 20.73172 ], [ 76.92173, 20.72832 ], [ 76.92526, 20.72815 ], [ 76.92525, 20.7274 ], [ 76.9271, 20.72727 ], [ 76.92672, 20.71126 ], [ 76.96016, 20.70643 ], [ 76.95862, 20.68131 ], [ 76.93995, 20.68161 ], [ 76.93449, 20.67548 ], [ 76.93324, 20.67301 ], [ 76.95009, 20.66737 ], [ 76.94611, 20.65784 ], [ 76.94249, 20.64346 ], [ 76.93936, 20.63679 ], [ 76.93594, 20.6313 ], [ 76.93143, 20.63167 ], [ 76.92989, 20.62614 ], [ 76.90731, 20.62511 ], [ 76.90188, 20.62585 ], [ 76.90389, 20.63736 ], [ 76.90141, 20.638 ], [ 76.90243, 20.642 ], [ 76.89674, 20.64292 ], [ 76.8934, 20.6292 ], [ 76.89259, 20.62715 ], [ 76.89095, 20.62747 ], [ 76.88983, 20.62527 ], [ 76.88652, 20.60593 ], [ 76.88916, 20.60036 ], [ 76.88909, 20.59878 ], [ 76.9132, 20.60006 ], [ 76.92847, 20.59737 ], [ 76.92794, 20.58752 ], [ 76.92104, 20.58887 ], [ 76.92213, 20.58419 ], [ 76.92931, 20.58223 ], [ 76.92576, 20.57289 ], [ 76.92149, 20.56831 ], [ 76.91644, 20.56483 ], [ 76.91244, 20.56016 ], [ 76.90677, 20.5633 ], [ 76.89384, 20.56615 ], [ 76.89413, 20.5669 ], [ 76.88846, 20.56957 ], [ 76.88861, 20.56732 ], [ 76.88936, 20.56716 ], [ 76.88815, 20.56509 ], [ 76.87195, 20.56976 ], [ 76.87158, 20.56865 ], [ 76.86728, 20.56877 ], [ 76.86338, 20.56763 ], [ 76.86534, 20.56182 ], [ 76.8716, 20.55954 ], [ 76.87108, 20.55299 ], [ 76.86948, 20.55288 ], [ 76.8644, 20.55547 ], [ 76.85877, 20.55596 ], [ 76.85715, 20.55175 ], [ 76.85246, 20.54916 ], [ 76.85154, 20.54726 ], [ 76.85517, 20.54407 ], [ 76.8568, 20.54144 ], [ 76.85629, 20.53936 ], [ 76.8532, 20.53779 ], [ 76.8336, 20.54211 ], [ 76.82831, 20.54264 ], [ 76.82815, 20.54211 ], [ 76.81894, 20.54451 ], [ 76.81661, 20.55072 ], [ 76.815, 20.55946 ], [ 76.80489, 20.55972 ], [ 76.79609, 20.55838 ], [ 76.79535, 20.55698 ], [ 76.78885, 20.55915 ], [ 76.78737, 20.56059 ], [ 76.78621, 20.55919 ], [ 76.78711, 20.55823 ], [ 76.78648, 20.55689 ], [ 76.78774, 20.55592 ], [ 76.78452, 20.55368 ], [ 76.78553, 20.55235 ], [ 76.78515, 20.54956 ], [ 76.78213, 20.54994 ], [ 76.78212, 20.54848 ], [ 76.78022, 20.54677 ], [ 76.78038, 20.54513 ], [ 76.779, 20.54406 ], [ 76.77914, 20.53649 ], [ 76.77064, 20.53623 ], [ 76.77231, 20.54621 ], [ 76.77767, 20.55577 ], [ 76.78019, 20.56623 ], [ 76.78314, 20.57252 ], [ 76.77101, 20.57389 ], [ 76.76901, 20.5744 ], [ 76.76876, 20.57572 ], [ 76.7736, 20.58029 ], [ 76.77674, 20.58719 ], [ 76.78781, 20.58728 ], [ 76.78627, 20.58974 ], [ 76.78638, 20.59117 ], [ 76.78878, 20.59576 ], [ 76.78468, 20.59913 ], [ 76.78325, 20.60208 ], [ 76.78178, 20.60331 ], [ 76.7685, 20.6025 ], [ 76.76065, 20.60281 ], [ 76.76348, 20.61263 ], [ 76.77059, 20.62631 ], [ 76.74994, 20.63014 ], [ 76.75177, 20.63492 ], [ 76.75323, 20.63641 ], [ 76.75266, 20.63879 ], [ 76.75623, 20.64465 ], [ 76.75562, 20.64608 ], [ 76.75673, 20.6463 ], [ 76.75875, 20.64874 ], [ 76.7601, 20.64887 ], [ 76.75912, 20.6517 ], [ 76.75732, 20.65318 ], [ 76.75732, 20.65529 ], [ 76.75589, 20.656 ], [ 76.7536, 20.65457 ], [ 76.73231, 20.6557 ], [ 76.73598, 20.66486 ], [ 76.73834, 20.66422 ], [ 76.73883, 20.6664 ], [ 76.74083, 20.67951 ], [ 76.73821, 20.67972 ], [ 76.73938, 20.68721 ], [ 76.72283, 20.68996 ], [ 76.72572, 20.70024 ], [ 76.73274, 20.69633 ], [ 76.73583, 20.7163 ], [ 76.73735, 20.7154 ], [ 76.75123, 20.71544 ], [ 76.75116, 20.71703 ], [ 76.75897, 20.71992 ], [ 76.76337, 20.72034 ], [ 76.76322, 20.72644 ], [ 76.75707, 20.72846 ], [ 76.75568, 20.73041 ], [ 76.75601, 20.73246 ], [ 76.75401, 20.73865 ], [ 76.75771, 20.74743 ], [ 76.75782, 20.75245 ], [ 76.76377, 20.7563 ], [ 76.77095, 20.76402 ], [ 76.77294, 20.77657 ], [ 76.77136, 20.78051 ], [ 76.76918, 20.78259 ], [ 76.76627, 20.79103 ], [ 76.7647, 20.79307 ], [ 76.76249, 20.79484 ], [ 76.7574, 20.79481 ], [ 76.7445, 20.79693 ], [ 76.74513, 20.80262 ], [ 76.74446, 20.80296 ], [ 76.74708, 20.81746 ], [ 76.74549, 20.81756 ], [ 76.74538, 20.82382 ], [ 76.7542, 20.8249 ], [ 76.75128, 20.83179 ], [ 76.75102, 20.83517 ], [ 76.75376, 20.8385 ], [ 76.75531, 20.83899 ], [ 76.75538, 20.84626 ], [ 76.75819, 20.84604 ], [ 76.75841, 20.84859 ], [ 76.76073, 20.84927 ], [ 76.76121, 20.85026 ], [ 76.76041, 20.85381 ], [ 76.76345, 20.85447 ], [ 76.76439, 20.8571 ], [ 76.75452, 20.86462 ], [ 76.75449, 20.86944 ], [ 76.75341, 20.87386 ], [ 76.75002, 20.87139 ], [ 76.74781, 20.87074 ], [ 76.74622, 20.87144 ], [ 76.74565, 20.87305 ], [ 76.74737, 20.87659 ], [ 76.74461, 20.88067 ], [ 76.74525, 20.88478 ], [ 76.74459, 20.88728 ], [ 76.74203, 20.88834 ], [ 76.73669, 20.88775 ], [ 76.73405, 20.88909 ], [ 76.73006, 20.88408 ], [ 76.72671, 20.88361 ], [ 76.72171, 20.89009 ], [ 76.71783, 20.89143 ], [ 76.71851, 20.89764 ], [ 76.71788, 20.89842 ], [ 76.71428, 20.89879 ], [ 76.70698, 20.90261 ], [ 76.70791, 20.90607 ], [ 76.70739, 20.90749 ], [ 76.70476, 20.90774 ], [ 76.69792, 20.90613 ], [ 76.69575, 20.90655 ], [ 76.69546, 20.90764 ], [ 76.69866, 20.91211 ], [ 76.69313, 20.91538 ], [ 76.69112, 20.91784 ], [ 76.69541, 20.91996 ], [ 76.69914, 20.92057 ], [ 76.71191, 20.92097 ], [ 76.71514, 20.91962 ], [ 76.71707, 20.91745 ], [ 76.71892, 20.9174 ], [ 76.7263, 20.92029 ], [ 76.73206, 20.92032 ], [ 76.73567, 20.92491 ], [ 76.74448, 20.92862 ], [ 76.74649, 20.92814 ], [ 76.75108, 20.92216 ] ] ] } },
{ "type": "Feature", "properties": { "OBJECTID": 3782, "state_lgd": "27", "state_name": "MAHARASHTRA", "district_lgd": "501", "district_name": "AKOLA", "district_name_source": "district_table", "subdistrict_lgd": "3994", "subdistrict_name": "BARSHITAKLI", "subdistrict_type": "", "name_corrupted": false, "remarks": "", "label_lon": 77.151877930116868, "label_lat": 20.525361044130076 }, "geometry": { "type": "Polygon", "coordinates": [ [ [ 77.33944, 20.57526 ], [ 77.3381, 20.57141 ], [ 77.33538, 20.54865 ], [ 77.34122, 20.54743 ], [ 77.33714, 20.53751 ], [ 77.33634, 20.52578 ], [ 77.34865, 20.52154 ], [ 77.36441, 20.51819 ], [ 77.36708, 20.51942 ], [ 77.36833, 20.52549 ], [ 77.38183, 20.52453 ], [ 77.38739, 20.52564 ], [ 77.39567, 20.52544 ], [ 77.38898, 20.5017 ], [ 77.38724, 20.49757 ], [ 77.38405, 20.49552 ], [ 77.38321, 20.48688 ], [ 77.38163, 20.48315 ], [ 77.36793, 20.48003 ], [ 77.37019, 20.48762 ], [ 77.36927, 20.49192 ], [ 77.37001, 20.49288 ], [ 77.36988, 20.4957 ], [ 77.36805, 20.49653 ], [ 77.36292, 20.4975 ], [ 77.34037, 20.49639 ], [ 77.32748, 20.49797 ], [ 77.32714, 20.49358 ], [ 77.32483, 20.48703 ], [ 77.33923, 20.48378 ], [ 77.34412, 20.48054 ], [ 77.3437, 20.4799 ], [ 77.34449, 20.47814 ], [ 77.34375, 20.47752 ], [ 77.34343, 20.47164 ], [ 77.33321, 20.47257 ], [ 77.33237, 20.47011 ], [ 77.32984, 20.4686 ], [ 77.32631, 20.46481 ], [ 77.32549, 20.46267 ], [ 77.32623, 20.45872 ], [ 77.32461, 20.45212 ], [ 77.32548, 20.45032 ], [ 77.31808, 20.45056 ], [ 77.31383, 20.45231 ], [ 77.31405, 20.4497 ], [ 77.30971, 20.44793 ], [ 77.30729, 20.44814 ], [ 77.30307, 20.44611 ], [ 77.29239, 20.44496 ], [ 77.29263, 20.44301 ], [ 77.27058, 20.44316 ], [ 77.26716, 20.44849 ], [ 77.2663, 20.4586 ], [ 77.25513, 20.45784 ], [ 77.24681, 20.45974 ], [ 77.24571, 20.46035 ], [ 77.24629, 20.46421 ], [ 77.24572, 20.46714 ], [ 77.24679, 20.47237 ], [ 77.24022, 20.47374 ], [ 77.23283, 20.47291 ], [ 77.22957, 20.4734 ], [ 77.22571, 20.45566 ], [ 77.22517, 20.44741 ], [ 77.22196, 20.44819 ], [ 77.21597, 20.44716 ], [ 77.21252, 20.44789 ], [ 77.20955, 20.44496 ], [ 77.2064, 20.448 ], [ 77.20214, 20.44856 ], [ 77.20167, 20.44956 ], [ 77.1958, 20.44914 ], [ 77.18982, 20.4469 ], [ 77.18555, 20.44739 ], [ 77.18233, 20.43732 ], [ 77.18286, 20.43173 ], [ 77.18864, 20.42996 ], [ 77.19094, 20.42364 ], [ 77.19721, 20.42376 ], [ 77.19699, 20.41518 ], [ 77.19509, 20.40919 ], [ 77.19144, 20.40229 ], [ 77.18953, 20.40243 ], [ 77.18507, 20.39841 ], [ 77.18163, 20.39852 ], [ 77.18115, 20.39747 ], [ 77.17433, 20.40092 ], [ 77.17126, 20.40118 ], [ 77.16948, 20.39918 ], [ 77.16264, 20.39858 ], [ 77.15983, 20.3993 ], [ 77.15152, 20.39914 ], [ 77.1521, 20.39256 ], [ 77.15034, 20.38996 ], [ 77.14559, 20.38638 ], [ 77.1435, 20.38011 ], [ 77.14206, 20.38015 ], [ 77.13815, 20.38514 ], [ 77.13778, 20.38854 ], [ 77.13648, 20.39141 ], [ 77.13549, 20.39159 ], [ 77.13425, 20.3903 ], [ 77.13191, 20.3904 ], [ 77.13264, 20.39521 ], [ 77.1304, 20.39889 ], [ 77.12727, 20.39901 ], [ 77.12111, 20.40277 ], [ 77.12021, 20.4111 ], [ 77.11589, 20.408 ], [ 77.11324, 20.41162 ], [ 77.10493, 20.41097 ], [ 77.10294, 20.41521 ], [ 77.08517, 20.41936 ], [ 77.08522, 20.42232 ], [ 77.07961, 20.42386 ], [ 77.07857, 20.42269 ], [ 77.07314, 20.40148 ], [ 77.0745, 20.39361 ], [ 77.08119, 20.39045 ], [ 77.08031, 20.387 ], [ 77.07806, 20.38616 ], [ 77.07331, 20.38652 ], [ 77.07269, 20.38543 ], [ 77.06873, 20.38528 ], [ 77.06781, 20.38339 ], [ 77.06829, 20.38286 ], [ 77.06246, 20.38136 ], [ 77.04819, 20.38637 ], [ 77.04533, 20.38655 ], [ 77.04556, 20.3934 ], [ 77.04982, 20.40179 ], [ 77.05094, 20.40742 ], [ 77.04684, 20.41585 ], [ 77.04711, 20.41931 ], [ 77.04934, 20.42181 ], [ 77.05966, 20.43943 ], [ 77.05902, 20.44537 ], [ 77.05732, 20.44705 ], [ 77.04479, 20.44966 ], [ 77.02727, 20.45039 ], [ 77.02234, 20.44992 ], [ 77.01315, 20.45172 ], [ 77.01346, 20.4536 ], [ 77.01191, 20.45827 ], [ 77.01189, 20.46237 ], [ 77.00923, 20.46701 ], [ 77.01117, 20.47257 ], [ 77.0083, 20.47613 ], [ 77.00134, 20.47547 ], [ 76.99866, 20.48055 ], [ 77.00132, 20.48524 ], [ 76.99954, 20.48784 ], [ 77.00006, 20.49469 ], [ 77.00372, 20.50325 ], [ 77.00255, 20.50416 ], [ 76.99779, 20.50406 ], [ 76.99531, 20.50565 ], [ 76.99412, 20.5076 ], [ 76.98476, 20.50774 ], [ 76.98508, 20.50829 ], [ 76.97842, 20.51219 ], [ 76.96851, 20.51683 ], [ 76.97199, 20.53882 ], [ 76.97164, 20.54678 ], [ 76.9741, 20.54662 ], [ 76.97021, 20.56189 ], [ 76.96817, 20.56659 ], [ 76.97147, 20.56633 ], [ 76.97525, 20.56794 ], [ 76.98302, 20.56646 ], [ 76.98204, 20.57482 ], [ 76.98234, 20.58619 ], [ 76.98409, 20.59166 ], [ 76.9848, 20.59931 ], [ 76.99066, 20.59956 ], [ 77.00645, 20.59808 ], [ 77.0088, 20.60069 ], [ 77.00954, 20.60381 ], [ 77.01288, 20.60611 ], [ 77.01603, 20.60506 ], [ 77.0162, 20.60595 ], [ 77.02031, 20.6059 ], [ 77.02129, 20.60704 ], [ 77.02622, 20.61567 ], [ 77.02366, 20.61633 ], [ 77.02425, 20.6226 ], [ 77.02324, 20.62273 ], [ 77.02337, 20.63366 ], [ 77.02504, 20.6431 ], [ 77.02542, 20.65077 ], [ 77.02953, 20.65071 ], [ 77.031, 20.64741 ], [ 77.04383, 20.64643 ], [ 77.0597, 20.6438 ], [ 77.06566, 20.64407 ], [ 77.06844, 20.64754 ], [ 77.06899, 20.6465 ], [ 77.07291, 20.6446 ], [ 77.08563, 20.64167 ], [ 77.08602, 20.64397 ], [ 77.08756, 20.64414 ], [ 77.08962, 20.65141 ], [ 77.09242, 20.65098 ], [ 77.09323, 20.65249 ], [ 77.10083, 20.65402 ], [ 77.10401, 20.65353 ], [ 77.10512, 20.65235 ], [ 77.10518, 20.65916 ], [ 77.10909, 20.66131 ], [ 77.11856, 20.66237 ], [ 77.12241, 20.66119 ], [ 77.12528, 20.66196 ], [ 77.1286, 20.66584 ], [ 77.13191, 20.66546 ], [ 77.13273, 20.64887 ], [ 77.14249, 20.64778 ], [ 77.15132, 20.64779 ], [ 77.15293, 20.64379 ], [ 77.1512, 20.63981 ], [ 77.15219, 20.6395 ], [ 77.14919, 20.63342 ], [ 77.15313, 20.63255 ], [ 77.1514, 20.6282 ], [ 77.15186, 20.62782 ], [ 77.14942, 20.62522 ], [ 77.14545, 20.62387 ], [ 77.1411, 20.62073 ], [ 77.14486, 20.6175 ], [ 77.14468, 20.61163 ], [ 77.14587, 20.60964 ], [ 77.14611, 20.60324 ], [ 77.14717, 20.59879 ], [ 77.15621, 20.59968 ], [ 77.15825, 20.60486 ], [ 77.1628, 20.60501 ], [ 77.16676, 20.60311 ], [ 77.17052, 20.60368 ], [ 77.17062, 20.6053 ], [ 77.17436, 20.60559 ], [ 77.17687, 20.60563 ], [ 77.18082, 20.60431 ], [ 77.19329, 20.60369 ], [ 77.19632, 20.60848 ], [ 77.20857, 20.60997 ], [ 77.21302, 20.6093 ], [ 77.21475, 20.6141 ], [ 77.21517, 20.62057 ], [ 77.21658, 20.62336 ], [ 77.2185, 20.62503 ], [ 77.21461, 20.63128 ], [ 77.21447, 20.63995 ], [ 77.21572, 20.64328 ], [ 77.23097, 20.64118 ], [ 77.23667, 20.64309 ], [ 77.23903, 20.64777 ], [ 77.24275, 20.6471 ], [ 77.24219, 20.63468 ], [ 77.24124, 20.63289 ], [ 77.23741, 20.63184 ], [ 77.23739, 20.62675 ], [ 77.24071, 20.6256 ], [ 77.24072, 20.62358 ], [ 77.24259, 20.62233 ], [ 77.25369, 20.61687 ], [ 77.25078, 20.60825 ], [ 77.24812, 20.60314 ], [ 77.24697, 20.60315 ], [ 77.25103, 20.59028 ], [ 77.24885, 20.58274 ], [ 77.2541, 20.58023 ], [ 77.2656, 20.57731 ], [ 77.27074, 20.57201 ], [ 77.27718, 20.5698 ], [ 77.2818, 20.56938 ], [ 77.28866, 20.56487 ], [ 77.29038, 20.56763 ], [ 77.29349, 20.56882 ], [ 77.29823, 20.56983 ], [ 77.30514, 20.56997 ], [ 77.30944, 20.57405 ], [ 77.31506, 20.58377 ], [ 77.3159, 20.584 ], [ 77.32557, 20.58352 ], [ 77.32591, 20.5826 ], [ 77.33223, 20.58008 ], [ 77.33944, 20.57526 ] ] ] } },
{ "type": "Feature", "properties": { "OBJECTID": 3783, "state_lgd": "27", "state_name": "MAHARASHTRA", "district_lgd": "501", "district_name": "AKOLA", "district_name_source": "district_table", "subdistrict_lgd": "3992", "subdistrict_name": "MURTIJAPUR", "subdistrict_type": "", "name_corrupted": false, "remarks": "", "label_lon": 77.415885669885128, "label_lat": 20.743121594373786 }, "geometry": { "type": "Polygon", "coordinates": [ [ [ 77.46543, 20.87655 ], [ 77.46837, 20.8762 ], [ 77.46961, 20.87829 ], [ 77.4724, 20.87645 ], [ 77.4745, 20.87609 ], [ 77.47491, 20.87731 ], [ 77.47374, 20.87842 ], [ 77.47424, 20.87939 ], [ 77.47968, 20.87896 ], [ 77.47563, 20.86545 ], [ 77.47556, 20.86082 ], [ 77.47608, 20.86063 ], [ 77.477, 20.86081 ], [ 77.47754, 20.86266 ], [ 77.47929, 20.86267 ], [ 77.4995, 20.86013 ], [ 77.49913, 20.857 ], [ 77.51524, 20.85369 ], [ 77.51663, 20.85105 ], [ 77.52274, 20.85093 ], [ 77.52293, 20.85196 ], [ 77.52678, 20.85175 ], [ 77.52688, 20.85005 ], [ 77.5329, 20.85034 ], [ 77.53307, 20.85466 ], [ 77.54036, 20.85486 ], [ 77.54088, 20.85599 ], [ 77.55066, 20.8546 ], [ 77.55142, 20.84018 ], [ 77.5535, 20.82474 ], [ 77.55944, 20.82411 ], [ 77.55862, 20.82279 ], [ 77.56097, 20.81879 ], [ 77.56528, 20.81864 ], [ 77.56788, 20.8134 ], [ 77.56916, 20.80845 ], [ 77.58601, 20.8088 ], [ 77.58745, 20.80813 ], [ 77.59256, 20.8104 ], [ 77.59265, 20.80476 ], [ 77.59757, 20.80376 ], [ 77.60292, 20.80087 ], [ 77.6102, 20.79966 ], [ 77.61129, 20.77869 ], [ 77.61941, 20.77942 ], [ 77.61709, 20.77273 ], [ 77.61611, 20.76529 ], [ 77.61423, 20.75939 ], [ 77.6198, 20.75682 ], [ 77.61924, 20.75306 ], [ 77.61837, 20.75321 ], [ 77.61566, 20.74305 ], [ 77.61464, 20.73657 ], [ 77.61287, 20.73648 ], [ 77.61047, 20.71756 ], [ 77.59822, 20.71837 ], [ 77.59833, 20.72002 ], [ 77.59363, 20.72285 ], [ 77.59077, 20.72641 ], [ 77.57789, 20.72692 ], [ 77.5774, 20.71917 ], [ 77.57594, 20.71834 ], [ 77.57458, 20.71408 ], [ 77.57304, 20.70537 ], [ 77.56528, 20.70749 ], [ 77.56343, 20.70105 ], [ 77.54974, 20.7039 ], [ 77.5456, 20.70262 ], [ 77.52657, 20.70146 ], [ 77.52351, 20.69731 ], [ 77.53956, 20.69654 ], [ 77.5411, 20.68801 ], [ 77.54281, 20.68456 ], [ 77.54324, 20.67828 ], [ 77.5381, 20.67757 ], [ 77.51385, 20.68169 ], [ 77.51313, 20.67833 ], [ 77.51478, 20.67596 ], [ 77.5153, 20.67329 ], [ 77.51084, 20.66441 ], [ 77.50399, 20.66485 ], [ 77.50299, 20.67163 ], [ 77.50127, 20.67189 ], [ 77.50087, 20.6749 ], [ 77.4939, 20.68096 ], [ 77.49308, 20.68288 ], [ 77.48397, 20.68166 ], [ 77.48101, 20.68204 ], [ 77.48377, 20.66321 ], [ 77.48565, 20.66225 ], [ 77.48468, 20.65711 ], [ 77.47859, 20.65515 ], [ 77.46916, 20.65692 ], [ 77.4691, 20.65808 ], [ 77.46359, 20.66019 ], [ 77.46136, 20.66587 ], [ 77.45763, 20.66474 ], [ 77.45382, 20.66468 ], [ 77.45261, 20.65686 ], [ 77.43089, 20.66226 ], [ 77.43033, 20.66056 ], [ 77.43255, 20.65754 ], [ 77.43842, 20.65317 ], [ 77.43913, 20.64972 ], [ 77.43856, 20.64255 ], [ 77.4426, 20.64229 ], [ 77.44532, 20.6393 ], [ 77.45176, 20.63816 ], [ 77.45046, 20.62966 ], [ 77.45424, 20.62663 ], [ 77.4565, 20.62824 ], [ 77.45811, 20.62823 ], [ 77.45999, 20.62404 ], [ 77.4593, 20.62163 ], [ 77.45975, 20.61924 ], [ 77.4661, 20.6182 ], [ 77.46707, 20.61091 ], [ 77.46192, 20.61088 ], [ 77.46177, 20.61021 ], [ 77.45977, 20.60972 ], [ 77.45337, 20.61078 ], [ 77.44248, 20.61054 ], [ 77.436, 20.6122 ], [ 77.43103, 20.61229 ], [ 77.41087, 20.60692 ], [ 77.41421, 20.60384 ], [ 77.41436, 20.60203 ], [ 77.41303, 20.59396 ], [ 77.40985, 20.59447 ], [ 77.40926, 20.58707 ], [ 77.4045, 20.58691 ], [ 77.39944, 20.58532 ], [ 77.39777, 20.58433 ], [ 77.39568, 20.57981 ], [ 77.39368, 20.58019 ], [ 77.3936, 20.58086 ], [ 77.38483, 20.58185 ], [ 77.37633, 20.58157 ], [ 77.36567, 20.58338 ], [ 77.36643, 20.58122 ], [ 77.36571, 20.57775 ], [ 77.36208, 20.56764 ], [ 77.35527, 20.56837 ], [ 77.34985, 20.56995 ], [ 77.34172, 20.57376 ], [ 77.33223, 20.58008 ], [ 77.32591, 20.5826 ], [ 77.32557, 20.58352 ], [ 77.31806, 20.58424 ], [ 77.31506, 20.58377 ], [ 77.31413, 20.59818 ], [ 77.3171, 20.61229 ], [ 77.32013, 20.62028 ], [ 77.30447, 20.62061 ], [ 77.29658, 20.61323 ], [ 77.29425, 20.61415 ], [ 77.29377, 20.61511 ], [ 77.28857, 20.61535 ], [ 77.28485, 20.61683 ], [ 77.28332, 20.61924 ], [ 77.2769, 20.62199 ], [ 77.27486, 20.62421 ], [ 77.2733, 20.62799 ], [ 77.27764, 20.63436 ], [ 77.2819, 20.63375 ], [ 77.28469, 20.63421 ], [ 77.28659, 20.6349 ], [ 77.28657, 20.63718 ], [ 77.30266, 20.63767 ], [ 77.30688, 20.64099 ], [ 77.31277, 20.64318 ], [ 77.31819, 20.64392 ], [ 77.31975, 20.66361 ], [ 77.32115, 20.66623 ], [ 77.32389, 20.67611 ], [ 77.29825, 20.68591 ], [ 77.30066, 20.70109 ], [ 77.29492, 20.70083 ], [ 77.28708, 20.70182 ], [ 77.28813, 20.71304 ], [ 77.28275, 20.71437 ], [ 77.28292, 20.71678 ], [ 77.27975, 20.71735 ], [ 77.28023, 20.71944 ], [ 77.2747, 20.7202 ], [ 77.27462, 20.72219 ], [ 77.27191, 20.72272 ], [ 77.27912, 20.73055 ], [ 77.28138, 20.73449 ], [ 77.27258, 20.73838 ], [ 77.26514, 20.73818 ], [ 77.26351, 20.74929 ], [ 77.26386, 20.75896 ], [ 77.26944, 20.75856 ], [ 77.27361, 20.77331 ], [ 77.27597, 20.77271 ], [ 77.27685, 20.77945 ], [ 77.27994, 20.77929 ], [ 77.28005, 20.78606 ], [ 77.26958, 20.78672 ], [ 77.26917, 20.79313 ], [ 77.26605, 20.79332 ], [ 77.26547, 20.79978 ], [ 77.252, 20.80127 ], [ 77.25207, 20.81143 ], [ 77.24122, 20.81446 ], [ 77.24172, 20.81765 ], [ 77.227, 20.81922 ], [ 77.22501, 20.82278 ], [ 77.22459, 20.81332 ], [ 77.21603, 20.81421 ], [ 77.21607, 20.82938 ], [ 77.21256, 20.84894 ], [ 77.21529, 20.85676 ], [ 77.21724, 20.85836 ], [ 77.22172, 20.85853 ], [ 77.22324, 20.85831 ], [ 77.22686, 20.85574 ], [ 77.23274, 20.85655 ], [ 77.23887, 20.85616 ], [ 77.24482, 20.85294 ], [ 77.24717, 20.85294 ], [ 77.25058, 20.85557 ], [ 77.25183, 20.85545 ], [ 77.25506, 20.85214 ], [ 77.25608, 20.84741 ], [ 77.25944, 20.84549 ], [ 77.26111, 20.84632 ], [ 77.26345, 20.85052 ], [ 77.27109, 20.85313 ], [ 77.27347, 20.85253 ], [ 77.27744, 20.84963 ], [ 77.28155, 20.84872 ], [ 77.28585, 20.84637 ], [ 77.28923, 20.84976 ], [ 77.29453, 20.8487 ], [ 77.29927, 20.84962 ], [ 77.30162, 20.84896 ], [ 77.30699, 20.85125 ], [ 77.30856, 20.85356 ], [ 77.31216, 20.85401 ], [ 77.31344, 20.85753 ], [ 77.31448, 20.85792 ], [ 77.31843, 20.85593 ], [ 77.31799, 20.85147 ], [ 77.31928, 20.85083 ], [ 77.32072, 20.85151 ], [ 77.31957, 20.85544 ], [ 77.32593, 20.85381 ], [ 77.32631, 20.85061 ], [ 77.32732, 20.84918 ], [ 77.33319, 20.84664 ], [ 77.33743, 20.84335 ], [ 77.34146, 20.84514 ], [ 77.34455, 20.84309 ], [ 77.35338, 20.8481 ], [ 77.36283, 20.84776 ], [ 77.37122, 20.84553 ], [ 77.37295, 20.84327 ], [ 77.37474, 20.84283 ], [ 77.37838, 20.84254 ], [ 77.38406, 20.84342 ], [ 77.38581, 20.84531 ], [ 77.38732, 20.84573 ], [ 77.38925, 20.84525 ], [ 77.39153, 20.84138 ], [ 77.39429, 20.84091 ], [ 77.39547, 20.8416 ], [ 77.39568, 20.84421 ], [ 77.39951, 20.84613 ], [ 77.41209, 20.84587 ], [ 77.41295, 20.84272 ], [ 77.41804, 20.8428 ], [ 77.41968, 20.84327 ], [ 77.42493, 20.84793 ], [ 77.4261, 20.84772 ], [ 77.428, 20.84558 ], [ 77.43221, 20.8469 ], [ 77.43242, 20.84356 ], [ 77.43369, 20.84249 ], [ 77.43592, 20.8439 ], [ 77.43567, 20.84711 ], [ 77.43751, 20.85386 ], [ 77.44006, 20.85316 ], [ 77.44236, 20.85129 ], [ 77.44436, 20.85267 ], [ 77.4478, 20.85217 ], [ 77.45036, 20.85576 ], [ 77.45386, 20.85879 ], [ 77.45343, 20.86088 ], [ 77.45401, 20.86103 ], [ 77.45494, 20.85807 ], [ 77.45529, 20.86116 ], [ 77.45746, 20.86373 ], [ 77.45768, 20.86739 ], [ 77.45971, 20.86671 ], [ 77.46064, 20.86721 ], [ 77.4576, 20.8712 ], [ 77.46233, 20.87164 ], [ 77.46312, 20.87235 ], [ 77.46336, 20.87375 ], [ 77.46072, 20.87578 ], [ 77.46578, 20.88001 ], [ 77.46633, 20.87862 ], [ 77.46543, 20.87655 ] ] ] } },
{ "type": "Feature", "properties": { "OBJECTID": 3784, "state_lgd": "27", "state_name": "MAHARASHTRA", "district_lgd": "501", "district_name": "AKOLA", "district_name_source": "district_table", "subdistrict_lgd": "3993", "subdistrict_name": "PATUR", "subdistrict_type": "", "name_corrupted": false, "remarks": "", "label_lon": 76.850042040102579, "label_lat": 20.429825798345874 }, "geometry": { "type": "Polygon", "coordinates": [ [ [ 76.87195, 20.56976 ], [ 76.88815, 20.56509 ], [ 76.88936, 20.56716 ], [ 76.88861, 20.56732 ], [ 76.88846, 20.56957 ], [ 76.89014, 20.56927 ], [ 76.89413, 20.5669 ], [ 76.89384, 20.56615 ], [ 76.90677, 20.5633 ], [ 76.91244, 20.56016 ], [ 76.91366, 20.54664 ], [ 76.91871, 20.544 ], [ 76.92357, 20.53926 ], [ 76.92726, 20.53868 ], [ 76.92683, 20.53697 ], [ 76.92884, 20.53485 ], [ 76.93565, 20.52181 ], [ 76.94599, 20.51954 ], [ 76.94801, 20.51734 ], [ 76.95812, 20.5141 ], [ 76.96415, 20.51479 ], [ 76.96639, 20.51659 ], [ 76.96851, 20.51683 ], [ 76.97842, 20.51219 ], [ 76.98508, 20.50829 ], [ 76.98476, 20.50774 ], [ 76.99412, 20.5076 ], [ 76.99531, 20.50565 ], [ 76.99779, 20.50406 ], [ 77.00255, 20.50416 ], [ 77.00372, 20.50325 ], [ 77.00006, 20.49469 ], [ 76.99954, 20.48784 ], [ 77.00132, 20.48524 ], [ 76.99886, 20.47985 ], [ 77.00134, 20.47547 ], [ 77.0083, 20.47613 ], [ 77.01117, 20.47257 ], [ 77.00923, 20.46701 ], [ 77.01189, 20.46237 ], [ 77.01191, 20.45827 ], [ 77.01346, 20.4536 ], [ 77.01315, 20.45172 ], [ 77.02231, 20.44992 ], [ 77.0221, 20.44475 ], [ 77.01832, 20.43785 ], [ 77.01446, 20.43434 ], [ 77.01368, 20.43173 ], [ 77.01457, 20.42896 ], [ 77.01319, 20.42122 ], [ 77.01448, 20.41271 ], [ 77.00351, 20.41475 ], [ 77.00182, 20.41136 ], [ 76.99555, 20.40907 ], [ 76.99358, 20.40904 ], [ 76.99306, 20.40708 ], [ 76.99136, 20.40615 ], [ 76.99101, 20.40434 ], [ 76.99176, 20.4028 ], [ 76.99386, 20.40161 ], [ 76.99576, 20.39803 ], [ 76.99531, 20.39355 ], [ 76.99442, 20.3931 ], [ 76.98935, 20.39448 ], [ 76.98634, 20.38916 ], [ 76.98112, 20.38778 ], [ 76.98162, 20.38137 ], [ 76.98104, 20.38009 ], [ 76.97668, 20.38125 ], [ 76.97446, 20.38037 ], [ 76.97357, 20.37749 ], [ 76.97799, 20.37283 ], [ 76.97799, 20.37035 ], [ 76.9726, 20.36939 ], [ 76.96902, 20.36778 ], [ 76.96466, 20.36764 ], [ 76.95941, 20.36561 ], [ 76.95707, 20.36345 ], [ 76.95331, 20.36347 ], [ 76.94908, 20.36557 ], [ 76.94697, 20.36472 ], [ 76.94308, 20.36537 ], [ 76.94041, 20.36899 ], [ 76.93617, 20.37061 ], [ 76.93327, 20.36677 ], [ 76.93159, 20.35823 ], [ 76.93199, 20.35704 ], [ 76.93058, 20.35721 ], [ 76.92979, 20.35582 ], [ 76.92466, 20.35761 ], [ 76.92321, 20.35899 ], [ 76.91947, 20.35964 ], [ 76.91671, 20.35135 ], [ 76.90478, 20.34448 ], [ 76.89673, 20.33443 ], [ 76.89622, 20.32876 ], [ 76.89351, 20.32221 ], [ 76.89265, 20.32249 ], [ 76.89171, 20.32078 ], [ 76.89259, 20.3183 ], [ 76.89155, 20.31702 ], [ 76.90238, 20.31319 ], [ 76.90883, 20.31311 ], [ 76.89329, 20.30413 ], [ 76.88081, 20.29416 ], [ 76.87764, 20.28804 ], [ 76.88212, 20.28496 ], [ 76.88043, 20.2825 ], [ 76.88021, 20.2797 ], [ 76.87284, 20.27523 ], [ 76.8687, 20.27786 ], [ 76.86584, 20.28205 ], [ 76.86584, 20.29061 ], [ 76.86206, 20.29673 ], [ 76.85825, 20.29937 ], [ 76.85218, 20.30022 ], [ 76.85025, 20.29762 ], [ 76.83776, 20.29605 ], [ 76.83679, 20.29428 ], [ 76.83824, 20.29064 ], [ 76.83801, 20.28908 ], [ 76.83541, 20.28768 ], [ 76.83231, 20.28276 ], [ 76.8298, 20.28142 ], [ 76.8247, 20.28088 ], [ 76.82327, 20.27994 ], [ 76.82011, 20.27989 ], [ 76.81942, 20.28056 ], [ 76.81167, 20.27796 ], [ 76.80593, 20.28828 ], [ 76.80436, 20.28673 ], [ 76.79096, 20.28686 ], [ 76.78605, 20.28944 ], [ 76.78689, 20.2976 ], [ 76.78813, 20.30147 ], [ 76.78786, 20.30671 ], [ 76.78862, 20.30988 ], [ 76.79235, 20.31416 ], [ 76.78471, 20.31801 ], [ 76.76801, 20.32169 ], [ 76.76559, 20.31635 ], [ 76.7537, 20.32669 ], [ 76.74424, 20.32758 ], [ 76.74264, 20.32879 ], [ 76.74248, 20.3302 ], [ 76.74421, 20.3295 ], [ 76.74454, 20.33046 ], [ 76.74519, 20.32998 ], [ 76.74515, 20.33739 ], [ 76.73509, 20.33992 ], [ 76.72695, 20.3373 ], [ 76.72838, 20.34292 ], [ 76.71301, 20.3484 ], [ 76.69994, 20.35196 ], [ 76.70457, 20.36244 ], [ 76.70492, 20.37449 ], [ 76.70963, 20.38026 ], [ 76.70876, 20.38459 ], [ 76.70938, 20.3853 ], [ 76.7146, 20.38561 ], [ 76.72337, 20.38959 ], [ 76.72685, 20.39865 ], [ 76.72653, 20.40707 ], [ 76.72472, 20.40782 ], [ 76.72224, 20.41161 ], [ 76.72283, 20.41543 ], [ 76.71995, 20.41571 ], [ 76.71917, 20.41833 ], [ 76.71274, 20.41859 ], [ 76.71303, 20.4316 ], [ 76.71422, 20.4352 ], [ 76.71385, 20.43841 ], [ 76.71148, 20.43913 ], [ 76.70765, 20.44207 ], [ 76.708, 20.44346 ], [ 76.70204, 20.44966 ], [ 76.6987, 20.45565 ], [ 76.69614, 20.45784 ], [ 76.69307, 20.45913 ], [ 76.69965, 20.47123 ], [ 76.70646, 20.47099 ], [ 76.71138, 20.47326 ], [ 76.7085, 20.4755 ], [ 76.70605, 20.47943 ], [ 76.70575, 20.48734 ], [ 76.7076, 20.49641 ], [ 76.71072, 20.50595 ], [ 76.71568, 20.51544 ], [ 76.71728, 20.51377 ], [ 76.72207, 20.51413 ], [ 76.72602, 20.5166 ], [ 76.72658, 20.51603 ], [ 76.72541, 20.51345 ], [ 76.72578, 20.51244 ], [ 76.73127, 20.51354 ], [ 76.73543, 20.51138 ], [ 76.73726, 20.50526 ], [ 76.73727, 20.49752 ], [ 76.73787, 20.49666 ], [ 76.73739, 20.49497 ], [ 76.73363, 20.49313 ], [ 76.74164, 20.49469 ], [ 76.74514, 20.49671 ], [ 76.74548, 20.49536 ], [ 76.7467, 20.49546 ], [ 76.74724, 20.49796 ], [ 76.7521, 20.50281 ], [ 76.75204, 20.51092 ], [ 76.75455, 20.51153 ], [ 76.75762, 20.50998 ], [ 76.7602, 20.5101 ], [ 76.76243, 20.51098 ], [ 76.77044, 20.51786 ], [ 76.76969, 20.51884 ], [ 76.77064, 20.53623 ], [ 76.77914, 20.53649 ], [ 76.779, 20.54406 ], [ 76.78038, 20.54513 ], [ 76.78022, 20.54677 ], [ 76.78212, 20.54848 ], [ 76.78213, 20.54994 ], [ 76.78515, 20.54956 ], [ 76.78553, 20.55235 ], [ 76.78452, 20.55368 ], [ 76.78774, 20.55592 ], [ 76.78648, 20.55689 ], [ 76.78711, 20.55823 ], [ 76.78621, 20.55919 ], [ 76.78692, 20.56056 ], [ 76.78885, 20.55915 ], [ 76.79535, 20.55698 ], [ 76.79609, 20.55838 ], [ 76.80489, 20.55972 ], [ 76.815, 20.55946 ], [ 76.81661, 20.55072 ], [ 76.81894, 20.54451 ], [ 76.82815, 20.54211 ], [ 76.82831, 20.54264 ], [ 76.83446, 20.54196 ], [ 76.85216, 20.53768 ], [ 76.85629, 20.53936 ], [ 76.8568, 20.54144 ], [ 76.85517, 20.54407 ], [ 76.85177, 20.54679 ], [ 76.852, 20.54872 ], [ 76.85715, 20.55175 ], [ 76.85877, 20.55596 ], [ 76.8644, 20.55547 ], [ 76.86948, 20.55288 ], [ 76.87108, 20.55299 ], [ 76.8716, 20.55954 ], [ 76.86534, 20.56182 ], [ 76.86338, 20.56763 ], [ 76.86728, 20.56877 ], [ 76.87158, 20.56865 ], [ 76.87195, 20.56976 ] ] ] } },
{ "type": "Feature", "properties": { "OBJECTID": 3785, "state_lgd": "27", "state_name": "MAHARASHTRA", "district_lgd": "501", "district_name": "AKOLA", "district_name_source": "district_table", "subdistrict_lgd": "3988", "subdistrict_name": "TELHARA", "subdistrict_type": "", "name_corrupted": false, "remarks": "", "label_lon": 76.870959958038952, "label_lat": 21.044794504530291 }, "geometry": { "type": "Polygon", "coordinates": [ [ [ 76.90955, 21.20043 ], [ 76.91953, 21.20006 ], [ 76.92414, 21.19862 ], [ 76.94136, 21.19952 ], [ 76.95359, 21.19543 ], [ 76.96389, 21.19516 ], [ 76.96342, 21.19239 ], [ 76.96671, 21.18682 ], [ 76.96661, 21.18169 ], [ 76.96766, 21.18143 ], [ 76.96723, 21.17052 ], [ 76.9615, 21.16978 ], [ 76.96075, 21.17042 ], [ 76.95714, 21.17038 ], [ 76.95664, 21.17283 ], [ 76.95406, 21.17274 ], [ 76.9536, 21.17553 ], [ 76.9511, 21.18066 ], [ 76.95072, 21.18417 ], [ 76.94986, 21.18411 ], [ 76.94973, 21.18562 ], [ 76.94683, 21.18723 ], [ 76.94535, 21.18917 ], [ 76.93632, 21.19053 ], [ 76.93573, 21.18896 ], [ 76.93628, 21.18788 ], [ 76.93441, 21.18695 ], [ 76.93417, 21.18122 ], [ 76.93248, 21.17859 ], [ 76.93133, 21.18061 ], [ 76.92846, 21.1815 ], [ 76.92494, 21.1815 ], [ 76.92488, 21.17989 ], [ 76.91808, 21.18021 ], [ 76.91962, 21.17513 ], [ 76.92178, 21.17289 ], [ 76.92121, 21.16966 ], [ 76.92001, 21.1687 ], [ 76.91935, 21.16153 ], [ 76.92565, 21.16123 ], [ 76.93246, 21.16015 ], [ 76.93247, 21.15912 ], [ 76.94084, 21.15825 ], [ 76.94035, 21.15649 ], [ 76.94573, 21.15673 ], [ 76.94595, 21.15401 ], [ 76.94399, 21.14453 ], [ 76.94494, 21.14442 ], [ 76.94511, 21.14248 ], [ 76.94665, 21.14245 ], [ 76.9465, 21.13899 ], [ 76.94788, 21.13805 ], [ 76.94788, 21.136 ], [ 76.94943, 21.13495 ], [ 76.95497, 21.13428 ], [ 76.95312, 21.12893 ], [ 76.96485, 21.12757 ], [ 76.9576, 21.1025 ], [ 76.95404, 21.10414 ], [ 76.95292, 21.10228 ], [ 76.95344, 21.10035 ], [ 76.95251, 21.09687 ], [ 76.95377, 21.09607 ], [ 76.95294, 21.09494 ], [ 76.95465, 21.09307 ], [ 76.95275, 21.0911 ], [ 76.95131, 21.09107 ], [ 76.95117, 21.09009 ], [ 76.95291, 21.08942 ], [ 76.95282, 21.08879 ], [ 76.95101, 21.08901 ], [ 76.94941, 21.088 ], [ 76.9601, 21.08732 ], [ 76.96753, 21.08423 ], [ 76.97518, 21.083 ], [ 76.97502, 21.08149 ], [ 76.97298, 21.07911 ], [ 76.97072, 21.07793 ], [ 76.97075, 21.07643 ], [ 76.96976, 21.07646 ], [ 76.96982, 21.07503 ], [ 76.9686, 21.07451 ], [ 76.96866, 21.07055 ], [ 76.96725, 21.06821 ], [ 76.96798, 21.06748 ], [ 76.96538, 21.06498 ], [ 76.96436, 21.06591 ], [ 76.96318, 21.06577 ], [ 76.96368, 21.06333 ], [ 76.96284, 21.06175 ], [ 76.96337, 21.06103 ], [ 76.96243, 21.06063 ], [ 76.96247, 21.0596 ], [ 76.96156, 21.0608 ], [ 76.9606, 21.05308 ], [ 76.95906, 21.0527 ], [ 76.95967, 21.05075 ], [ 76.96084, 21.05028 ], [ 76.95882, 21.0478 ], [ 76.95929, 21.04672 ], [ 76.96143, 21.04586 ], [ 76.96173, 21.04415 ], [ 76.96095, 21.04267 ], [ 76.96255, 21.04209 ], [ 76.96152, 21.04139 ], [ 76.96271, 21.04031 ], [ 76.96228, 21.03951 ], [ 76.96355, 21.03961 ], [ 76.96376, 21.03691 ], [ 76.96506, 21.03532 ], [ 76.96424, 21.03521 ], [ 76.9641, 21.02843 ], [ 76.96057, 21.02184 ], [ 76.95996, 21.01932 ], [ 76.96046, 21.01696 ], [ 76.95956, 21.0171 ], [ 76.96039, 21.01396 ], [ 76.96166, 21.01278 ], [ 76.96151, 21.0082 ], [ 76.96247, 21.00762 ], [ 76.96243, 21.00604 ], [ 76.96039, 21.00439 ], [ 76.96013, 20.99518 ], [ 76.95553, 20.98565 ], [ 76.95436, 20.9815 ], [ 76.95567, 20.98122 ], [ 76.95427, 20.96512 ], [ 76.94987, 20.96506 ], [ 76.94531, 20.95018 ], [ 76.9439, 20.94259 ], [ 76.9407, 20.94282 ], [ 76.93903, 20.93614 ], [ 76.94108, 20.93565 ], [ 76.94001, 20.92943 ], [ 76.93876, 20.92975 ], [ 76.93855, 20.92783 ], [ 76.94668, 20.92609 ], [ 76.94578, 20.92088 ], [ 76.94533, 20.90644 ], [ 76.94984, 20.90629 ], [ 76.95802, 20.9046 ], [ 76.95959, 20.90222 ], [ 76.96092, 20.89722 ], [ 76.95839, 20.89802 ], [ 76.95418, 20.89485 ], [ 76.95545, 20.89376 ], [ 76.95593, 20.89022 ], [ 76.95386, 20.88679 ], [ 76.95689, 20.88605 ], [ 76.95871, 20.88336 ], [ 76.95805, 20.88105 ], [ 76.95479, 20.87951 ], [ 76.95052, 20.87543 ], [ 76.9495, 20.87562 ], [ 76.94803, 20.87783 ], [ 76.94859, 20.88278 ], [ 76.94763, 20.88493 ], [ 76.94462, 20.88688 ], [ 76.94204, 20.88246 ], [ 76.94021, 20.88104 ], [ 76.93701, 20.8823 ], [ 76.93504, 20.88724 ], [ 76.9292, 20.88894 ], [ 76.92265, 20.88948 ], [ 76.92049, 20.8865 ], [ 76.91881, 20.88562 ], [ 76.91304, 20.88457 ], [ 76.91143, 20.88563 ], [ 76.91126, 20.88774 ], [ 76.91018, 20.8892 ], [ 76.90505, 20.88943 ], [ 76.90107, 20.88695 ], [ 76.90053, 20.88193 ], [ 76.89838, 20.88113 ], [ 76.89588, 20.88295 ], [ 76.89669, 20.88913 ], [ 76.89611, 20.89037 ], [ 76.89097, 20.89315 ], [ 76.88594, 20.89092 ], [ 76.88382, 20.89101 ], [ 76.87747, 20.89753 ], [ 76.87389, 20.89686 ], [ 76.86758, 20.8937 ], [ 76.86384, 20.89053 ], [ 76.85978, 20.88845 ], [ 76.85492, 20.8874 ], [ 76.85305, 20.88797 ], [ 76.85273, 20.88918 ], [ 76.85379, 20.89291 ], [ 76.85356, 20.89477 ], [ 76.83946, 20.90164 ], [ 76.83362, 20.89954 ], [ 76.83033, 20.90168 ], [ 76.82706, 20.90206 ], [ 76.8235, 20.9009 ], [ 76.81857, 20.89794 ], [ 76.81642, 20.89774 ], [ 76.80654, 20.90076 ], [ 76.80484, 20.90192 ], [ 76.80425, 20.90527 ], [ 76.80732, 20.90843 ], [ 76.80916, 20.91302 ], [ 76.80904, 20.91457 ], [ 76.80775, 20.91499 ], [ 76.80535, 20.91301 ], [ 76.80301, 20.91251 ], [ 76.79333, 20.91721 ], [ 76.78793, 20.91705 ], [ 76.78696, 20.92033 ], [ 76.78812, 20.92792 ], [ 76.78582, 20.92798 ], [ 76.78606, 20.92885 ], [ 76.78395, 20.93041 ], [ 76.78137, 20.92988 ], [ 76.77951, 20.93115 ], [ 76.77707, 20.92885 ], [ 76.77589, 20.92996 ], [ 76.7758, 20.93144 ], [ 76.77779, 20.93342 ], [ 76.78217, 20.94031 ], [ 76.78195, 20.94096 ], [ 76.7866, 20.94005 ], [ 76.78905, 20.95356 ], [ 76.78913, 20.96253 ], [ 76.80058, 20.96018 ], [ 76.80586, 20.95716 ], [ 76.80916, 20.95658 ], [ 76.81006, 20.95898 ], [ 76.80862, 20.95995 ], [ 76.81135, 20.96018 ], [ 76.81122, 20.96144 ], [ 76.80821, 20.96277 ], [ 76.8084, 20.96631 ], [ 76.80775, 20.96692 ], [ 76.80887, 20.96705 ], [ 76.80889, 20.96789 ], [ 76.81173, 20.96762 ], [ 76.8119, 20.96877 ], [ 76.80788, 20.96921 ], [ 76.80593, 20.97093 ], [ 76.80617, 20.97178 ], [ 76.79828, 20.97269 ], [ 76.79738, 20.97151 ], [ 76.78395, 20.97276 ], [ 76.78352, 20.97905 ], [ 76.78415, 20.98918 ], [ 76.77585, 20.99011 ], [ 76.77573, 20.99602 ], [ 76.7785, 21.00006 ], [ 76.78427, 21.00057 ], [ 76.78954, 21.00195 ], [ 76.78984, 21.00274 ], [ 76.79618, 21.00404 ], [ 76.79579, 21.006 ], [ 76.79486, 21.00653 ], [ 76.79621, 21.00834 ], [ 76.79593, 21.0094 ], [ 76.79665, 21.00937 ], [ 76.79735, 21.01075 ], [ 76.79664, 21.01225 ], [ 76.79794, 21.01369 ], [ 76.79685, 21.01601 ], [ 76.7985, 21.019 ], [ 76.79497, 21.02101 ], [ 76.79434, 21.02274 ], [ 76.79312, 21.0235 ], [ 76.7939, 21.02711 ], [ 76.79157, 21.02758 ], [ 76.7781, 21.02837 ], [ 76.77723, 21.02405 ], [ 76.77191, 21.02404 ], [ 76.77349, 21.03108 ], [ 76.77156, 21.03304 ], [ 76.77137, 21.03687 ], [ 76.76357, 21.03738 ], [ 76.76371, 21.03864 ], [ 76.76794, 21.04096 ], [ 76.76967, 21.04367 ], [ 76.77333, 21.04487 ], [ 76.77506, 21.04654 ], [ 76.77388, 21.04781 ], [ 76.77553, 21.05082 ], [ 76.77499, 21.05224 ], [ 76.78134, 21.05128 ], [ 76.78496, 21.07195 ], [ 76.77568, 21.07438 ], [ 76.77404, 21.07688 ], [ 76.77329, 21.08453 ], [ 76.77397, 21.08676 ], [ 76.77617, 21.08855 ], [ 76.78126, 21.08991 ], [ 76.78294, 21.09108 ], [ 76.78337, 21.09658 ], [ 76.78886, 21.10446 ], [ 76.78912, 21.10946 ], [ 76.78739, 21.11184 ], [ 76.78764, 21.11496 ], [ 76.79068, 21.12089 ], [ 76.79049, 21.12271 ], [ 76.78456, 21.12522 ], [ 76.78279, 21.12923 ], [ 76.78179, 21.13591 ], [ 76.77773, 21.13796 ], [ 76.77569, 21.14052 ], [ 76.7788, 21.14534 ], [ 76.7792, 21.14901 ], [ 76.77775, 21.14984 ], [ 76.77602, 21.14771 ], [ 76.77357, 21.14742 ], [ 76.77177, 21.14918 ], [ 76.772, 21.1535 ], [ 76.77414, 21.15726 ], [ 76.77485, 21.15715 ], [ 76.77575, 21.15977 ], [ 76.77572, 21.1646 ], [ 76.77813, 21.16468 ], [ 76.77571, 21.17075 ], [ 76.77163, 21.17631 ], [ 76.77125, 21.18278 ], [ 76.77291, 21.18494 ], [ 76.77518, 21.18666 ], [ 76.78172, 21.18861 ], [ 76.78676, 21.1872 ], [ 76.7899, 21.18294 ], [ 76.79637, 21.1835 ], [ 76.81581, 21.18748 ], [ 76.82846, 21.18524 ], [ 76.83297, 21.18532 ], [ 76.84361, 21.19012 ], [ 76.84776, 21.19279 ], [ 76.85438, 21.18703 ], [ 76.85728, 21.18937 ], [ 76.86084, 21.19016 ], [ 76.87239, 21.19171 ], [ 76.87283, 21.19054 ], [ 76.88021, 21.19233 ], [ 76.87956, 21.19304 ], [ 76.8832, 21.19392 ], [ 76.88923, 21.19449 ], [ 76.88951, 21.19663 ], [ 76.89275, 21.19693 ], [ 76.89588, 21.19843 ], [ 76.90217, 21.19837 ], [ 76.90542, 21.19997 ], [ 76.90955, 21.20043 ] ] ] } },
{ "type": "Feature", "properties": { "OBJECTID": 3815, "state_lgd": "27", "state_name": "MAHARASHTRA", "district_lgd": "501", "district_name": "AKOLA", "district_name_source": "district_table", "subdistrict_lgd": "3991", "subdistrict_name": "AKOLA", "subdistrict_type": "", "name_corrupted": false, "remarks": "", "label_lon": 77.089660594175754, "label_lat": 20.731227940780542 }, "geometry": { "type": "Polygon", "coordinates": [ [ [ 77.13535, 20.91838 ], [ 77.13538, 20.90031 ], [ 77.13765, 20.89838 ], [ 77.13705, 20.89749 ], [ 77.13687, 20.884 ], [ 77.13568, 20.88368 ], [ 77.13553, 20.8817 ], [ 77.13746, 20.88007 ], [ 77.13695, 20.87931 ], [ 77.1316, 20.87976 ], [ 77.13191, 20.87056 ], [ 77.12955, 20.86322 ], [ 77.1367, 20.86115 ], [ 77.14053, 20.86373 ], [ 77.14264, 20.86382 ], [ 77.15155, 20.86158 ], [ 77.15224, 20.85975 ], [ 77.15355, 20.85921 ], [ 77.15534, 20.85953 ], [ 77.15821, 20.86235 ], [ 77.15585, 20.86704 ], [ 77.15645, 20.86885 ], [ 77.15875, 20.8706 ], [ 77.16201, 20.86961 ], [ 77.1647, 20.86348 ], [ 77.16956, 20.86094 ], [ 77.1704, 20.85977 ], [ 77.1692, 20.85442 ], [ 77.17617, 20.85269 ], [ 77.18013, 20.85042 ], [ 77.18291, 20.85061 ], [ 77.19017, 20.85343 ], [ 77.19609, 20.8541 ], [ 77.20698, 20.85081 ], [ 77.21033, 20.84861 ], [ 77.21256, 20.84894 ], [ 77.21607, 20.82938 ], [ 77.21603, 20.81421 ], [ 77.22459, 20.81332 ], [ 77.22501, 20.82278 ], [ 77.227, 20.81922 ], [ 77.24172, 20.81765 ], [ 77.24122, 20.81446 ], [ 77.25207, 20.81143 ], [ 77.252, 20.80127 ], [ 77.26547, 20.79978 ], [ 77.26605, 20.79332 ], [ 77.26917, 20.79313 ], [ 77.26958, 20.78672 ], [ 77.28005, 20.78606 ], [ 77.27994, 20.77929 ], [ 77.27685, 20.77945 ], [ 77.27597, 20.77271 ], [ 77.27361, 20.77331 ], [ 77.26944, 20.75856 ], [ 77.26386, 20.75896 ], [ 77.26351, 20.74929 ], [ 77.26514, 20.73818 ], [ 77.27258, 20.73838 ], [ 77.28138, 20.73449 ], [ 77.27912, 20.73055 ], [ 77.27191, 20.72272 ], [ 77.27462, 20.72219 ], [ 77.2747, 20.7202 ], [ 77.28023, 20.71944 ], [ 77.27975, 20.71735 ], [ 77.28292, 20.71678 ], [ 77.28275, 20.71437 ], [ 77.28813, 20.71304 ], [ 77.28708, 20.70182 ], [ 77.29492, 20.70083 ], [ 77.30066, 20.70109 ], [ 77.29825, 20.68591 ], [ 77.32389, 20.67611 ], [ 77.32115, 20.66623 ], [ 77.31975, 20.66361 ], [ 77.31819, 20.64392 ], [ 77.31277, 20.64318 ], [ 77.30688, 20.64099 ], [ 77.30266, 20.63767 ], [ 77.28657, 20.63718 ], [ 77.28659, 20.6349 ], [ 77.28469, 20.63421 ], [ 77.2819, 20.63375 ], [ 77.27764, 20.63436 ], [ 77.2733, 20.62799 ], [ 77.27486, 20.62421 ], [ 77.2769, 20.62199 ], [ 77.28332, 20.61924 ], [ 77.28485, 20.61683 ], [ 77.28857, 20.61535 ], [ 77.29377, 20.61511 ], [ 77.29425, 20.61415 ], [ 77.29658, 20.61323 ], [ 77.30447, 20.62061 ], [ 77.32013, 20.62028 ], [ 77.3171, 20.61229 ], [ 77.31413, 20.59818 ], [ 77.31506, 20.58377 ], [ 77.30944, 20.57405 ], [ 77.30514, 20.56997 ], [ 77.29823, 20.56983 ], [ 77.29349, 20.56882 ], [ 77.29038, 20.56763 ], [ 77.28866, 20.56487 ], [ 77.2818, 20.56938 ], [ 77.27718, 20.5698 ], [ 77.27074, 20.57201 ], [ 77.2656, 20.57731 ], [ 77.2541, 20.58023 ], [ 77.24872, 20.58283 ], [ 77.25103, 20.59028 ], [ 77.24697, 20.60315 ], [ 77.24812, 20.60314 ], [ 77.25078, 20.60825 ], [ 77.25369, 20.61687 ], [ 77.24259, 20.62233 ], [ 77.24072, 20.62358 ], [ 77.24071, 20.6256 ], [ 77.23739, 20.62675 ], [ 77.23741, 20.63184 ], [ 77.24124, 20.63289 ], [ 77.24219, 20.63468 ], [ 77.24275, 20.6471 ], [ 77.23903, 20.64777 ], [ 77.23667, 20.64309 ], [ 77.23097, 20.64118 ], [ 77.21572, 20.64328 ], [ 77.21447, 20.63995 ], [ 77.21461, 20.63128 ], [ 77.2185, 20.62503 ], [ 77.21658, 20.62336 ], [ 77.21517, 20.62057 ], [ 77.21475, 20.6141 ], [ 77.21302, 20.6093 ], [ 77.20857, 20.60997 ], [ 77.19632, 20.60848 ], [ 77.19329, 20.60369 ], [ 77.18082, 20.60431 ], [ 77.17687, 20.60563 ], [ 77.17436, 20.60559 ], [ 77.17062, 20.6053 ], [ 77.17052, 20.60368 ], [ 77.16676, 20.60311 ], [ 77.1628, 20.60501 ], [ 77.15825, 20.60486 ], [ 77.15621, 20.59968 ], [ 77.14717, 20.59879 ], [ 77.14611, 20.60324 ], [ 77.14587, 20.60964 ], [ 77.14468, 20.61163 ], [ 77.14486, 20.6175 ], [ 77.1411, 20.62073 ], [ 77.14545, 20.62387 ], [ 77.14942, 20.62522 ], [ 77.15186, 20.62782 ], [ 77.1514, 20.6282 ], [ 77.15313, 20.63255 ], [ 77.14919, 20.63342 ], [ 77.15219, 20.6395 ], [ 77.1512, 20.63981 ], [ 77.15293, 20.64379 ], [ 77.15132, 20.64779 ], [ 77.14249, 20.64778 ], [ 77.13273, 20.64887 ], [ 77.13191, 20.66546 ], [ 77.1286, 20.66584 ], [ 77.12528, 20.66196 ], [ 77.12241, 20.66119 ], [ 77.11856, 20.66237 ], [ 77.10909, 20.66131 ], [ 77.10518, 20.65916 ], [ 77.10512, 20.65235 ], [ 77.10401, 20.65353 ], [ 77.10083, 20.65402 ], [ 77.09323, 20.65249 ], [ 77.09242, 20.65098 ], [ 77.08962, 20.65141 ], [ 77.08756, 20.64414 ], [ 77.08602, 20.64397 ], [ 77.08563, 20.64167 ], [ 77.07291, 20.6446 ], [ 77.06899, 20.6465 ], [ 77.06844, 20.64754 ], [ 77.06566, 20.64407 ], [ 77.0597, 20.6438 ], [ 77.04383, 20.64643 ], [ 77.031, 20.64741 ], [ 77.02953, 20.65071 ], [ 77.02542, 20.65077 ], [ 77.02504, 20.6431 ], [ 77.02337, 20.63366 ], [ 77.02324, 20.62273 ], [ 77.02425, 20.6226 ], [ 77.02366, 20.61633 ], [ 77.02622, 20.61567 ], [ 77.02129, 20.60704 ], [ 77.02031, 20.6059 ], [ 77.0162, 20.60595 ], [ 77.01603, 20.60506 ], [ 77.01288, 20.60611 ], [ 77.00954, 20.60381 ], [ 77.0088, 20.60069 ], [ 77.00645, 20.59808 ], [ 76.99066, 20.59956 ], [ 76.9848, 20.59931 ], [ 76.98409, 20.59166 ], [ 76.98234, 20.58619 ], [ 76.98204, 20.57482 ], [ 76.98302, 20.56646 ], [ 76.97525, 20.56794 ], [ 76.97147, 20.56633 ], [ 76.96817, 20.56659 ], [ 76.97021, 20.56189 ], [ 76.9741, 20.54662 ], [ 76.97164, 20.54678 ], [ 76.97199, 20.53882 ], [ 76.96851, 20.51683 ], [ 76.96639, 20.51659 ], [ 76.96415, 20.51479 ], [ 76.95812, 20.5141 ], [ 76.94801, 20.51734 ], [ 76.94599, 20.51954 ], [ 76.93565, 20.52181 ], [ 76.92884, 20.53485 ], [ 76.92683, 20.53697 ], [ 76.92726, 20.53868 ], [ 76.92357, 20.53926 ], [ 76.91871, 20.544 ], [ 76.91366, 20.54664 ], [ 76.9127, 20.55352 ], [ 76.91231, 20.55997 ], [ 76.91644, 20.56483 ], [ 76.92149, 20.56831 ], [ 76.92576, 20.57289 ], [ 76.92712, 20.57599 ], [ 76.92928, 20.58233 ], [ 76.92213, 20.58419 ], [ 76.92104, 20.58887 ], [ 76.92794, 20.58752 ], [ 76.92847, 20.59737 ], [ 76.9132, 20.60006 ], [ 76.88909, 20.59878 ], [ 76.88916, 20.60036 ], [ 76.88652, 20.60582 ], [ 76.88706, 20.61091 ], [ 76.88983, 20.62527 ], [ 76.89095, 20.62747 ], [ 76.89259, 20.62715 ], [ 76.8934, 20.6292 ], [ 76.89674, 20.64292 ], [ 76.90243, 20.642 ], [ 76.90141, 20.638 ], [ 76.90389, 20.63736 ], [ 76.90188, 20.62585 ], [ 76.90731, 20.62511 ], [ 76.92989, 20.62614 ], [ 76.93143, 20.63167 ], [ 76.93638, 20.63181 ], [ 76.94249, 20.64346 ], [ 76.94611, 20.65784 ], [ 76.95009, 20.66737 ], [ 76.93324, 20.67301 ], [ 76.93513, 20.67653 ], [ 76.93995, 20.68161 ], [ 76.95862, 20.68131 ], [ 76.96016, 20.70643 ], [ 76.92672, 20.71126 ], [ 76.9271, 20.72727 ], [ 76.92525, 20.7274 ], [ 76.92526, 20.72815 ], [ 76.92173, 20.72832 ], [ 76.92236, 20.73172 ], [ 76.90142, 20.73642 ], [ 76.88565, 20.73904 ], [ 76.8868, 20.74733 ], [ 76.88948, 20.74781 ], [ 76.89047, 20.76011 ], [ 76.89424, 20.7602 ], [ 76.8981, 20.77153 ], [ 76.91882, 20.77254 ], [ 76.91906, 20.77751 ], [ 76.91821, 20.79913 ], [ 76.91649, 20.81152 ], [ 76.90382, 20.81129 ], [ 76.90664, 20.82976 ], [ 76.90709, 20.8451 ], [ 76.90313, 20.84581 ], [ 76.90316, 20.84732 ], [ 76.88706, 20.85063 ], [ 76.88864, 20.86055 ], [ 76.89035, 20.86073 ], [ 76.89107, 20.8642 ], [ 76.90135, 20.86166 ], [ 76.91773, 20.86219 ], [ 76.92007, 20.86937 ], [ 76.92049, 20.8865 ], [ 76.92265, 20.88948 ], [ 76.9292, 20.88894 ], [ 76.93504, 20.88724 ], [ 76.93701, 20.8823 ], [ 76.94021, 20.88104 ], [ 76.94204, 20.88246 ], [ 76.94398, 20.88649 ], [ 76.9452, 20.88672 ], [ 76.94763, 20.88493 ], [ 76.94859, 20.88278 ], [ 76.94803, 20.87783 ], [ 76.9495, 20.87562 ], [ 76.95052, 20.87543 ], [ 76.95479, 20.87951 ], [ 76.95805, 20.88105 ], [ 76.95869, 20.88377 ], [ 76.95689, 20.88605 ], [ 76.95909, 20.88699 ], [ 76.96833, 20.88725 ], [ 76.97297, 20.8893 ], [ 76.97762, 20.88904 ], [ 76.97608, 20.893 ], [ 76.9765, 20.89529 ], [ 76.9832, 20.89663 ], [ 76.98679, 20.89533 ], [ 76.98747, 20.89435 ], [ 76.98641, 20.88452 ], [ 76.98819, 20.8764 ], [ 76.99111, 20.87333 ], [ 76.99447, 20.8748 ], [ 76.99708, 20.87356 ], [ 76.99716, 20.87182 ], [ 76.99513, 20.86954 ], [ 76.99388, 20.86648 ], [ 76.99514, 20.8634 ], [ 76.99626, 20.86266 ], [ 76.99901, 20.86351 ], [ 77.00098, 20.86545 ], [ 77.00449, 20.86668 ], [ 77.00496, 20.86505 ], [ 77.00416, 20.86062 ], [ 77.00655, 20.85587 ], [ 77.00851, 20.8558 ], [ 77.0154, 20.86013 ], [ 77.01752, 20.85993 ], [ 77.02151, 20.85737 ], [ 77.02422, 20.85238 ], [ 77.02708, 20.85123 ], [ 77.02948, 20.84914 ], [ 77.03129, 20.84939 ], [ 77.03433, 20.85198 ], [ 77.03646, 20.84921 ], [ 77.03887, 20.8482 ], [ 77.04342, 20.85043 ], [ 77.0512, 20.85684 ], [ 77.05436, 20.85787 ], [ 77.05657, 20.88066 ], [ 77.0685, 20.87916 ], [ 77.08522, 20.87904 ], [ 77.08673, 20.88454 ], [ 77.09405, 20.88321 ], [ 77.09808, 20.89142 ], [ 77.09908, 20.89794 ], [ 77.09083, 20.89977 ], [ 77.09089, 20.90027 ], [ 77.0927, 20.90696 ], [ 77.09763, 20.90613 ], [ 77.09955, 20.91466 ], [ 77.11571, 20.91233 ], [ 77.12175, 20.91229 ], [ 77.12253, 20.91918 ], [ 77.13535, 20.91838 ] ] ] } },
{ "type": "Feature", "properties": { "OBJECTID": 3847, "state_lgd": "27", "state_name": "MAHARASHTRA", "district_lgd": "501", "district_name": "AKOLA", "district_name_source": "district_table", "subdistrict_lgd": "3989", "subdistrict_name": "AKOT", "subdistrict_type": "", "name_corrupted": false, "remarks": "", "label_lon": 77.05807032303413, "label_lat": 21.058628466436456 }, "geometry": { "type": "MultiPolygon", "coordinates": [ [ [ [ 77.0511, 21.23319 ], [ 77.05623, 21.23345 ], [ 77.0597, 21.23144 ], [ 77.0616, 21.22495 ], [ 77.0653, 21.22241 ], [ 77.0666, 21.22016 ], [ 77.06862, 21.2201 ], [ 77.06913, 21.2211 ], [ 77.07191, 21.22175 ], [ 77.07517, 21.22138 ], [ 77.07705, 21.22058 ], [ 77.07947, 21.21683 ], [ 77.08065, 21.21644 ], [ 77.08479, 21.21968 ], [ 77.08567, 21.22193 ], [ 77.08887, 21.22231 ], [ 77.09041, 21.22454 ], [ 77.09313, 21.22633 ], [ 77.09548, 21.22621 ], [ 77.09751, 21.22389 ], [ 77.10615, 21.22165 ], [ 77.1091, 21.21887 ], [ 77.11789, 21.21971 ], [ 77.11907, 21.22449 ], [ 77.1257, 21.22468 ], [ 77.12708, 21.2235 ], [ 77.12742, 21.22082 ], [ 77.13031, 21.22038 ], [ 77.13562, 21.22417 ], [ 77.13852, 21.22423 ], [ 77.13969, 21.22602 ], [ 77.14218, 21.22702 ], [ 77.14871, 21.22755 ], [ 77.15039, 21.23229 ], [ 77.15135, 21.23226 ], [ 77.15145, 21.23331 ], [ 77.15337, 21.2345 ], [ 77.15634, 21.23521 ], [ 77.16276, 21.23478 ], [ 77.16634, 21.23757 ], [ 77.16477, 21.24322 ], [ 77.17262, 21.24359 ], [ 77.17397, 21.24255 ], [ 77.1771, 21.2426 ], [ 77.18021, 21.24135 ], [ 77.19026, 21.2429 ], [ 77.19249, 21.24136 ], [ 77.19373, 21.2365 ], [ 77.19183, 21.23427 ], [ 77.19218, 21.23168 ], [ 77.19065, 21.22867 ], [ 77.17666, 21.22489 ], [ 77.17411, 21.22347 ], [ 77.17453, 21.22164 ], [ 77.17652, 21.22117 ], [ 77.17782, 21.21932 ], [ 77.17666, 21.21368 ], [ 77.17728, 21.21142 ], [ 77.17581, 21.20821 ], [ 77.18196, 21.20764 ], [ 77.18364, 21.20134 ], [ 77.18332, 21.19983 ], [ 77.18142, 21.19962 ], [ 77.17983, 21.19626 ], [ 77.17853, 21.1955 ], [ 77.17867, 21.1929 ], [ 77.17968, 21.19103 ], [ 77.17286, 21.19137 ], [ 77.17218, 21.18675 ], [ 77.16827, 21.18709 ], [ 77.16819, 21.18611 ], [ 77.16704, 21.18621 ], [ 77.16621, 21.18443 ], [ 77.16546, 21.17721 ], [ 77.1641, 21.17557 ], [ 77.16305, 21.1705 ], [ 77.16099, 21.16762 ], [ 77.16647, 21.1665 ], [ 77.16582, 21.16528 ], [ 77.16749, 21.16476 ], [ 77.16738, 21.16296 ], [ 77.16598, 21.15635 ], [ 77.16473, 21.15641 ], [ 77.1645, 21.15093 ], [ 77.16316, 21.15105 ], [ 77.16281, 21.14679 ], [ 77.15961, 21.14628 ], [ 77.15954, 21.14548 ], [ 77.16022, 21.14474 ], [ 77.16619, 21.1441 ], [ 77.16312, 21.13626 ], [ 77.16489, 21.13591 ], [ 77.1832, 21.13444 ], [ 77.19238, 21.13545 ], [ 77.19328, 21.13929 ], [ 77.19625, 21.13894 ], [ 77.1964, 21.12324 ], [ 77.19615, 21.12053 ], [ 77.1913, 21.12142 ], [ 77.19124, 21.12079 ], [ 77.18489, 21.12126 ], [ 77.18402, 21.12113 ], [ 77.18369, 21.12009 ], [ 77.17971, 21.11982 ], [ 77.17957, 21.11907 ], [ 77.17173, 21.11863 ], [ 77.17249, 21.10814 ], [ 77.17153, 21.09481 ], [ 77.1718, 21.09245 ], [ 77.17313, 21.09253 ], [ 77.1733, 21.09106 ], [ 77.1756, 21.08959 ], [ 77.17573, 21.08632 ], [ 77.17715, 21.08564 ], [ 77.17592, 21.08296 ], [ 77.17655, 21.0797 ], [ 77.17527, 21.07749 ], [ 77.17597, 21.07738 ], [ 77.17632, 21.076 ], [ 77.1753, 21.07347 ], [ 77.17656, 21.07239 ], [ 77.17402, 21.07143 ], [ 77.16975, 21.07321 ], [ 77.15008, 21.07218 ], [ 77.15022, 21.06741 ], [ 77.15113, 21.06253 ], [ 77.152, 21.06144 ], [ 77.15057, 21.05441 ], [ 77.15177, 21.04783 ], [ 77.1504, 21.04507 ], [ 77.14944, 21.03913 ], [ 77.1508, 21.03706 ], [ 77.15072, 21.03494 ], [ 77.14957, 21.03397 ], [ 77.16179, 21.0295 ], [ 77.16052, 21.02656 ], [ 77.16103, 21.02623 ], [ 77.17284, 21.02384 ], [ 77.17096, 21.01053 ], [ 77.16968, 21.01086 ], [ 77.16582, 20.99836 ], [ 77.16821, 20.99827 ], [ 77.16849, 20.99766 ], [ 77.16768, 20.98871 ], [ 77.1457, 20.98982 ], [ 77.13355, 20.98889 ], [ 77.13293, 20.97621 ], [ 77.13857, 20.97432 ], [ 77.15985, 20.97134 ], [ 77.1563, 20.96245 ], [ 77.15366, 20.96257 ], [ 77.15107, 20.94909 ], [ 77.14976, 20.9481 ], [ 77.14677, 20.93781 ], [ 77.1445, 20.92161 ], [ 77.13797, 20.92203 ], [ 77.13753, 20.91833 ], [ 77.12253, 20.91918 ], [ 77.12175, 20.91229 ], [ 77.11571, 20.91233 ], [ 77.09955, 20.91466 ], [ 77.09763, 20.90613 ], [ 77.0927, 20.90696 ], [ 77.09089, 20.90027 ], [ 77.09083, 20.89977 ], [ 77.09908, 20.89794 ], [ 77.09808, 20.89142 ], [ 77.09405, 20.88321 ], [ 77.08673, 20.88454 ], [ 77.08522, 20.87904 ], [ 77.0685, 20.87916 ], [ 77.05657, 20.88066 ], [ 77.05436, 20.85787 ], [ 77.0512, 20.85684 ], [ 77.04342, 20.85043 ], [ 77.03887, 20.8482 ], [ 77.03646, 20.84921 ], [ 77.03433, 20.85198 ], [ 77.03129, 20.84939 ], [ 77.02948, 20.84914 ], [ 77.02708, 20.85123 ], [ 77.02422, 20.85238 ], [ 77.02151, 20.85737 ], [ 77.01752, 20.85993 ], [ 77.0154, 20.86013 ], [ 77.00851, 20.8558 ], [ 77.00655, 20.85587 ], [ 77.00416, 20.86062 ], [ 77.00496, 20.86505 ], [ 77.00449, 20.86668 ], [ 77.00098, 20.86545 ], [ 76.99901, 20.86351 ], [ 76.99626, 20.86266 ], [ 76.99514, 20.8634 ], [ 76.99388, 20.86648 ], [ 76.99513, 20.86954 ], [ 76.99716, 20.87182 ], [ 76.99708, 20.87356 ], [ 76.99447, 20.8748 ], [ 76.99111, 20.87333 ], [ 76.98819, 20.8764 ], [ 76.98641, 20.88452 ], [ 76.98765, 20.89249 ], [ 76.98679, 20.89533 ], [ 76.9832, 20.89663 ], [ 76.97673, 20.8955 ], [ 76.97597, 20.89364 ], [ 76.97762, 20.88904 ], [ 76.97297, 20.8893 ], [ 76.96833, 20.88725 ], [ 76.95909, 20.88699 ], [ 76.95579, 20.88596 ], [ 76.95382, 20.88699 ], [ 76.95593, 20.89022 ], [ 76.95545, 20.89376 ], [ 76.95418, 20.89485 ], [ 76.95839, 20.89802 ], [ 76.96092, 20.89722 ], [ 76.9588, 20.90379 ], [ 76.95802, 20.9046 ], [ 76.94984, 20.90629 ], [ 76.94533, 20.90644 ], [ 76.94578, 20.92088 ], [ 76.94668, 20.92609 ], [ 76.93855, 20.92783 ], [ 76.93876, 20.92975 ], [ 76.94001, 20.92943 ], [ 76.94108, 20.93565 ], [ 76.93903, 20.93614 ], [ 76.9407, 20.94282 ], [ 76.9439, 20.94259 ], [ 76.94531, 20.95018 ], [ 76.94987, 20.96506 ], [ 76.95427, 20.96512 ], [ 76.95567, 20.98122 ], [ 76.95436, 20.9815 ], [ 76.95553, 20.98565 ], [ 76.96013, 20.99518 ], [ 76.96039, 21.00439 ], [ 76.96243, 21.00604 ], [ 76.96247, 21.00762 ], [ 76.96151, 21.0082 ], [ 76.96166, 21.01278 ], [ 76.96039, 21.01396 ], [ 76.95956, 21.0171 ], [ 76.96046, 21.01696 ], [ 76.95996, 21.01932 ], [ 76.96057, 21.02184 ], [ 76.9641, 21.02843 ], [ 76.96424, 21.03521 ], [ 76.96506, 21.03532 ], [ 76.96376, 21.03691 ], [ 76.96355, 21.03961 ], [ 76.96228, 21.03951 ], [ 76.96271, 21.04031 ], [ 76.96152, 21.04139 ], [ 76.96255, 21.04209 ], [ 76.96095, 21.04267 ], [ 76.96173, 21.04415 ], [ 76.96143, 21.04586 ], [ 76.95929, 21.04672 ], [ 76.95882, 21.0478 ], [ 76.96084, 21.05028 ], [ 76.95967, 21.05075 ], [ 76.95906, 21.0527 ], [ 76.9606, 21.05308 ], [ 76.96156, 21.0608 ], [ 76.96247, 21.0596 ], [ 76.96243, 21.06063 ], [ 76.96337, 21.06103 ], [ 76.96284, 21.06175 ], [ 76.96368, 21.06333 ], [ 76.96318, 21.06577 ], [ 76.96436, 21.06591 ], [ 76.96538, 21.06498 ], [ 76.96798, 21.06748 ], [ 76.96725, 21.06821 ], [ 76.96866, 21.07055 ], [ 76.9686, 21.07451 ], [ 76.96982, 21.07503 ], [ 76.96976, 21.07646 ], [ 76.97075, 21.07643 ], [ 76.97072, 21.07793 ], [ 76.97298, 21.07911 ], [ 76.97502, 21.08149 ], [ 76.97518, 21.083 ], [ 76.96753, 21.08423 ], [ 76.9601, 21.08732 ], [ 76.94941, 21.088 ], [ 76.95101, 21.08901 ], [ 76.95282, 21.08879 ], [ 76.95291, 21.08942 ], [ 76.95117, 21.09009 ], [ 76.95131, 21.09107 ], [ 76.95275, 21.0911 ], [ 76.95465, 21.09307 ], [ 76.95294, 21.09494 ], [ 76.95377, 21.09607 ], [ 76.95251, 21.09687 ], [ 76.95344, 21.10035 ], [ 76.95292, 21.10228 ], [ 76.95404, 21.10414 ], [ 76.9576, 21.1025 ], [ 76.96485, 21.12757 ], [ 76.95312, 21.12893 ], [ 76.95497, 21.13428 ], [ 76.94943, 21.13495 ], [ 76.94788, 21.136 ], [ 76.94788, 21.13805 ], [ 76.9465, 21.13899 ], [ 76.94665, 21.14245 ], [ 76.94511, 21.14248 ], [ 76.94494, 21.14442 ], [ 76.94399, 21.14453 ], [ 76.94595, 21.15401 ], [ 76.94573, 21.15673 ], [ 76.94035, 21.15649 ], [ 76.94084, 21.15825 ], [ 76.93247, 21.15912 ], [ 76.93246, 21.16015 ], [ 76.92565, 21.16123 ], [ 76.91935, 21.16153 ], [ 76.92001, 21.1687 ], [ 76.92121, 21.16966 ], [ 76.92178, 21.17289 ], [ 76.91962, 21.17513 ], [ 76.91808, 21.18021 ], [ 76.92488, 21.17989 ], [ 76.92494, 21.1815 ], [ 76.92846, 21.1815 ], [ 76.93133, 21.18061 ], [ 76.93248, 21.17859 ], [ 76.93417, 21.18122 ], [ 76.93441, 21.18695 ], [ 76.93628, 21.18788 ], [ 76.93573, 21.18896 ], [ 76.93632, 21.19053 ], [ 76.94535, 21.18917 ], [ 76.94683, 21.18723 ], [ 76.94973, 21.18562 ], [ 76.94986, 21.18411 ], [ 76.95072, 21.18417 ], [ 76.9511, 21.18066 ], [ 76.9536, 21.17553 ], [ 76.95406, 21.17274 ], [ 76.95664, 21.17283 ], [ 76.95714, 21.17038 ], [ 76.96075, 21.17042 ], [ 76.9615, 21.16978 ], [ 76.96723, 21.17052 ], [ 76.96766, 21.18143 ], [ 76.96661, 21.18169 ], [ 76.96671, 21.18682 ], [ 76.96342, 21.19239 ], [ 76.96389, 21.19514 ], [ 76.96645, 21.19744 ], [ 76.97361, 21.19719 ], [ 76.97206, 21.20036 ], [ 76.97893, 21.19729 ], [ 76.98274, 21.19709 ], [ 76.98405, 21.1992 ], [ 76.99191, 21.19809 ], [ 76.99424, 21.19595 ], [ 76.99849, 21.19588 ], [ 76.9982, 21.20246 ], [ 77.00423, 21.20325 ], [ 77.00381, 21.20501 ], [ 77.00611, 21.20735 ], [ 77.00623, 21.2136 ], [ 77.00376, 21.21827 ], [ 77.00583, 21.2231 ], [ 77.00613, 21.22906 ], [ 77.01256, 21.23363 ], [ 77.01365, 21.23746 ], [ 77.02041, 21.23644 ], [ 77.02446, 21.24543 ], [ 77.03312, 21.24803 ], [ 77.04157, 21.24409 ], [ 77.04566, 21.24324 ], [ 77.0511, 21.23319 ] ] ], [ [ [ 76.96338, 21.31118 ], [ 76.96817, 21.31016 ], [ 76.97146, 21.30835 ], [ 76.97226, 21.30655 ], [ 76.97199, 21.30067 ], [ 76.96432, 21.30089 ], [ 76.95864, 21.30524 ], [ 76.95841, 21.30986 ], [ 76.96223, 21.31178 ], [ 76.9606, 21.31042 ], [ 76.96338, 21.31118 ] ] ], [ [ [ 77.1129, 21.39871 ], [ 77.11204, 21.39815 ], [ 77.11108, 21.39412 ], [ 77.11302, 21.38933 ], [ 77.12191, 21.3921 ], [ 77.122, 21.39348 ], [ 77.12325, 21.39342 ], [ 77.1234, 21.39515 ], [ 77.12597, 21.39646 ], [ 77.13281, 21.39655 ], [ 77.13599, 21.39389 ], [ 77.13424, 21.39185 ], [ 77.13077, 21.39387 ], [ 77.12802, 21.39349 ], [ 77.12308, 21.38972 ], [ 77.11926, 21.38862 ], [ 77.1156, 21.38381 ], [ 77.11555, 21.38137 ], [ 77.11499, 21.38132 ], [ 77.11464, 21.38351 ], [ 77.11235, 21.38542 ], [ 77.11021, 21.38554 ], [ 77.11029, 21.38743 ], [ 77.10846, 21.3909 ], [ 77.10007, 21.38866 ], [ 77.10026, 21.39116 ], [ 77.09934, 21.39378 ], [ 77.10066, 21.39693 ], [ 77.10291, 21.39736 ], [ 77.10322, 21.39852 ], [ 77.10586, 21.39825 ], [ 77.1115, 21.40064 ], [ 77.1129, 21.39871 ] ] ], [ [ [ 77.18793, 21.43247 ], [ 77.18307, 21.43312 ], [ 77.18343, 21.43455 ], [ 77.18236, 21.43733 ], [ 77.185, 21.43991 ], [ 77.19058, 21.44146 ], [ 77.19234, 21.4402 ], [ 77.19299, 21.438 ], [ 77.18956, 21.43541 ], [ 77.19056, 21.4331 ], [ 77.18793, 21.43247 ] ] ] ] } }
]
}
