{
"type": "FeatureCollection",
"name": "507_GONDIA",
"crs": { "type": "name", "properties": { "name": "urn:ogc:def:crs:OGC:1.3:CRS84" } },
"xy_coordinate_resolution": 1e-05,
"features": [
{ "type": "Feature", "properties": { "OBJECTID": 3860, "state_lgd": "27", "state_name": "MAHARASHTRA", "district_lgd": "507", "district_name": "GONDIA", "district_name_source": "district_table", "subdistrict_lgd": "4050", "subdistrict_name": "ARJUNI MORGAON", "subdistrict_type": "", "name_corrupted": false, "remarks": "", "label_lon": 80.11554066266045, "label_lat": 20.817839600131588 }, "geometry": { "type": "Polygon", "coordinates": [ [ [ 80.31894, 20.76827 ], [ 80.32124, 20.7654 ], [ 80.32236, 20.76047 ], [ 80.32106, 20.75611 ], [ 80.32128, 20.75314 ], [ 80.31331, 20.74197 ], [ 80.31188, 20.74146 ], [ 80.31104, 20.73735 ], [ 80.30777, 20.73216 ], [ 80.30907, 20.72824 ], [ 80.30442, 20.7223 ], [ 80.30407, 20.71906 ], [ 80.29906, 20.71084 ], [ 80.29842, 20.71028 ], [ 80.29414, 20.71091 ], [ 80.2881, 20.70973 ], [ 80.28197, 20.71011 ], [ 80.27846, 20.6999 ], [ 80.27354, 20.68098 ], [ 80.26793, 20.67829 ], [ 80.25883, 20.6782 ], [ 80.25441, 20.67901 ], [ 80.25263, 20.67833 ], [ 80.25081, 20.67897 ], [ 80.24895, 20.67553 ], [ 80.25012, 20.66637 ], [ 80.25216, 20.66571 ], [ 80.25234, 20.664 ], [ 80.24913, 20.6586 ], [ 80.24262, 20.65466 ], [ 80.21849, 20.66263 ], [ 80.21379, 20.66309 ], [ 80.2118, 20.66533 ], [ 80.20766, 20.66556 ], [ 80.20499, 20.66781 ], [ 80.20212, 20.66731 ], [ 80.20253, 20.66895 ], [ 80.20174, 20.67019 ], [ 80.19978, 20.67101 ], [ 80.20027, 20.67207 ], [ 80.19848, 20.67285 ], [ 80.19792, 20.67395 ], [ 80.19623, 20.67345 ], [ 80.19525, 20.67433 ], [ 80.1949, 20.67511 ], [ 80.19558, 20.6758 ], [ 80.19473, 20.677 ], [ 80.19312, 20.67583 ], [ 80.19129, 20.67647 ], [ 80.18995, 20.6755 ], [ 80.18978, 20.67665 ], [ 80.18857, 20.67612 ], [ 80.18782, 20.67751 ], [ 80.18663, 20.67665 ], [ 80.18478, 20.67939 ], [ 80.18145, 20.67901 ], [ 80.17884, 20.67739 ], [ 80.17308, 20.68303 ], [ 80.17071, 20.68263 ], [ 80.1701, 20.68417 ], [ 80.16637, 20.68579 ], [ 80.16578, 20.68793 ], [ 80.16371, 20.68934 ], [ 80.16354, 20.69054 ], [ 80.1645, 20.69136 ], [ 80.16263, 20.69384 ], [ 80.158, 20.69411 ], [ 80.15686, 20.69345 ], [ 80.15519, 20.69467 ], [ 80.15396, 20.69372 ], [ 80.15402, 20.69083 ], [ 80.14469, 20.69065 ], [ 80.14195, 20.69132 ], [ 80.14165, 20.6876 ], [ 80.13987, 20.6854 ], [ 80.13545, 20.68457 ], [ 80.13485, 20.68475 ], [ 80.13479, 20.68801 ], [ 80.13337, 20.69007 ], [ 80.13146, 20.69074 ], [ 80.12445, 20.69045 ], [ 80.12076, 20.68869 ], [ 80.11607, 20.69412 ], [ 80.1129, 20.69509 ], [ 80.10922, 20.69431 ], [ 80.10555, 20.69171 ], [ 80.10273, 20.69093 ], [ 80.09325, 20.69103 ], [ 80.08492, 20.69515 ], [ 80.07882, 20.697 ], [ 80.07451, 20.70169 ], [ 80.07273, 20.70546 ], [ 80.06743, 20.70889 ], [ 80.05878, 20.71211 ], [ 80.05757, 20.71188 ], [ 80.05722, 20.71084 ], [ 80.05488, 20.71187 ], [ 80.05386, 20.70959 ], [ 80.05251, 20.70908 ], [ 80.04604, 20.70933 ], [ 80.04019, 20.70475 ], [ 80.03225, 20.70006 ], [ 80.02841, 20.68534 ], [ 80.02468, 20.67927 ], [ 80.02044, 20.67466 ], [ 80.01642, 20.66714 ], [ 80.01539, 20.66764 ], [ 80.01439, 20.67079 ], [ 80.01533, 20.67204 ], [ 80.01422, 20.67486 ], [ 80.01134, 20.67339 ], [ 80.00908, 20.67387 ], [ 80.00951, 20.67243 ], [ 80.00855, 20.67125 ], [ 80.00655, 20.67095 ], [ 80.00642, 20.66902 ], [ 80.00278, 20.6708 ], [ 80.00034, 20.67411 ], [ 79.99643, 20.67523 ], [ 79.99165, 20.67433 ], [ 79.9897, 20.67305 ], [ 79.9878, 20.67361 ], [ 79.98138, 20.67842 ], [ 79.98026, 20.68305 ], [ 79.97325, 20.68566 ], [ 79.96476, 20.69424 ], [ 79.96523, 20.69756 ], [ 79.97015, 20.70624 ], [ 79.97122, 20.71126 ], [ 79.96926, 20.71532 ], [ 79.96156, 20.71671 ], [ 79.95473, 20.72016 ], [ 79.94952, 20.71788 ], [ 79.94757, 20.71796 ], [ 79.94531, 20.71901 ], [ 79.94523, 20.72034 ], [ 79.94429, 20.7209 ], [ 79.94608, 20.72133 ], [ 79.94663, 20.72196 ], [ 79.94602, 20.7224 ], [ 79.94707, 20.72308 ], [ 79.94627, 20.72371 ], [ 79.94737, 20.72569 ], [ 79.9469, 20.72619 ], [ 79.94801, 20.72723 ], [ 79.94712, 20.72911 ], [ 79.95028, 20.72789 ], [ 79.95282, 20.72817 ], [ 79.95473, 20.73007 ], [ 79.95507, 20.72768 ], [ 79.95615, 20.72697 ], [ 79.958, 20.73035 ], [ 79.95612, 20.73137 ], [ 79.96252, 20.73792 ], [ 79.96767, 20.7369 ], [ 79.97143, 20.74507 ], [ 79.96603, 20.74872 ], [ 79.96053, 20.75063 ], [ 79.96053, 20.75209 ], [ 79.95669, 20.75277 ], [ 79.95535, 20.76598 ], [ 79.9797, 20.77303 ], [ 79.96717, 20.78314 ], [ 79.95967, 20.78341 ], [ 79.95569, 20.78175 ], [ 79.95345, 20.77916 ], [ 79.94729, 20.77994 ], [ 79.94959, 20.78872 ], [ 79.9417, 20.78839 ], [ 79.94054, 20.80137 ], [ 79.94459, 20.80447 ], [ 79.94659, 20.80506 ], [ 79.94755, 20.80401 ], [ 79.95366, 20.8066 ], [ 79.95663, 20.80896 ], [ 79.9576, 20.81343 ], [ 79.95914, 20.81293 ], [ 79.95948, 20.814 ], [ 79.95231, 20.82227 ], [ 79.95113, 20.82612 ], [ 79.9588, 20.82653 ], [ 79.96583, 20.83185 ], [ 79.96747, 20.83104 ], [ 79.96749, 20.82573 ], [ 79.97194, 20.82433 ], [ 79.97367, 20.82657 ], [ 79.97725, 20.8258 ], [ 79.97981, 20.82623 ], [ 79.98183, 20.82535 ], [ 79.98514, 20.82572 ], [ 79.98783, 20.82697 ], [ 79.99106, 20.83041 ], [ 79.99293, 20.83391 ], [ 79.99753, 20.84449 ], [ 79.99917, 20.85048 ], [ 79.98751, 20.8551 ], [ 79.98621, 20.85992 ], [ 79.9841, 20.86268 ], [ 79.98257, 20.86211 ], [ 79.98101, 20.86073 ], [ 79.98128, 20.8577 ], [ 79.97993, 20.85528 ], [ 79.98292, 20.8552 ], [ 79.98363, 20.85022 ], [ 79.98638, 20.84811 ], [ 79.98429, 20.84207 ], [ 79.97977, 20.83595 ], [ 79.97748, 20.837 ], [ 79.97435, 20.83993 ], [ 79.97007, 20.85542 ], [ 79.96548, 20.85488 ], [ 79.96692, 20.85856 ], [ 79.9688, 20.87153 ], [ 79.9695, 20.87128 ], [ 79.97042, 20.87435 ], [ 79.96968, 20.88085 ], [ 79.96448, 20.8809 ], [ 79.96466, 20.88729 ], [ 79.97502, 20.88644 ], [ 79.9762, 20.88714 ], [ 79.97721, 20.89014 ], [ 79.97451, 20.89238 ], [ 79.97151, 20.89123 ], [ 79.97152, 20.89321 ], [ 79.97286, 20.89586 ], [ 79.97278, 20.90002 ], [ 79.97043, 20.90544 ], [ 79.97012, 20.90991 ], [ 79.96748, 20.91378 ], [ 79.96411, 20.91386 ], [ 79.96309, 20.91456 ], [ 79.96182, 20.91736 ], [ 79.96365, 20.932 ], [ 79.96548, 20.93384 ], [ 79.96908, 20.93447 ], [ 79.96896, 20.93998 ], [ 79.95433, 20.93892 ], [ 79.95282, 20.94086 ], [ 79.95368, 20.94243 ], [ 79.95343, 20.94403 ], [ 79.95576, 20.94534 ], [ 79.95912, 20.94522 ], [ 79.95704, 20.94811 ], [ 79.95782, 20.95026 ], [ 79.95868, 20.95127 ], [ 79.96025, 20.95102 ], [ 79.96431, 20.95359 ], [ 79.97098, 20.95361 ], [ 79.97151, 20.95172 ], [ 79.97467, 20.9511 ], [ 79.97536, 20.94891 ], [ 79.977, 20.94939 ], [ 79.97671, 20.94714 ], [ 79.98024, 20.94844 ], [ 79.98122, 20.94785 ], [ 79.98371, 20.95187 ], [ 79.98525, 20.95043 ], [ 79.98584, 20.95081 ], [ 79.9862, 20.95281 ], [ 79.98952, 20.95183 ], [ 79.99143, 20.9525 ], [ 79.99384, 20.95069 ], [ 79.99553, 20.95214 ], [ 79.99677, 20.95135 ], [ 79.99673, 20.94978 ], [ 79.99942, 20.95003 ], [ 80.00216, 20.94862 ], [ 80.00459, 20.94941 ], [ 80.00804, 20.95268 ], [ 80.00853, 20.95412 ], [ 80.01308, 20.95267 ], [ 80.01506, 20.95378 ], [ 80.01595, 20.95557 ], [ 80.02329, 20.95578 ], [ 80.03242, 20.95761 ], [ 80.03453, 20.957 ], [ 80.0335, 20.94986 ], [ 80.03081, 20.94652 ], [ 80.0294, 20.94086 ], [ 80.02245, 20.94513 ], [ 80.02034, 20.9432 ], [ 80.01904, 20.94346 ], [ 80.01789, 20.94194 ], [ 80.01474, 20.94374 ], [ 80.01408, 20.94249 ], [ 80.01193, 20.94318 ], [ 80.01118, 20.94272 ], [ 80.01114, 20.94113 ], [ 80.01274, 20.94107 ], [ 80.01256, 20.93943 ], [ 80.0119, 20.93889 ], [ 80.01056, 20.93958 ], [ 80.0098, 20.93858 ], [ 80.01024, 20.93741 ], [ 80.01239, 20.9354 ], [ 80.01366, 20.93743 ], [ 80.01673, 20.93542 ], [ 80.01992, 20.93517 ], [ 80.02022, 20.93418 ], [ 80.01937, 20.93364 ], [ 80.02175, 20.93276 ], [ 80.02527, 20.93304 ], [ 80.03158, 20.9353 ], [ 80.02829, 20.93702 ], [ 80.02881, 20.9401 ], [ 80.0302, 20.93958 ], [ 80.02993, 20.93799 ], [ 80.033, 20.93688 ], [ 80.04064, 20.93629 ], [ 80.0443, 20.94331 ], [ 80.04372, 20.94713 ], [ 80.04425, 20.94929 ], [ 80.04741, 20.95206 ], [ 80.04862, 20.95546 ], [ 80.04335, 20.95793 ], [ 80.04005, 20.95773 ], [ 80.03769, 20.95868 ], [ 80.03718, 20.96504 ], [ 80.04938, 20.95703 ], [ 80.05305, 20.95324 ], [ 80.06207, 20.94894 ], [ 80.05988, 20.95366 ], [ 80.05863, 20.9542 ], [ 80.0579, 20.95825 ], [ 80.06048, 20.95868 ], [ 80.07043, 20.95614 ], [ 80.07195, 20.96393 ], [ 80.07072, 20.96371 ], [ 80.07078, 20.96536 ], [ 80.07482, 20.96521 ], [ 80.07615, 20.96971 ], [ 80.08081, 20.97045 ], [ 80.08204, 20.968 ], [ 80.08186, 20.96597 ], [ 80.08401, 20.96439 ], [ 80.09081, 20.96459 ], [ 80.09248, 20.96867 ], [ 80.09112, 20.97133 ], [ 80.09188, 20.97679 ], [ 80.09937, 20.97565 ], [ 80.10308, 20.97686 ], [ 80.10358, 20.97826 ], [ 80.10725, 20.97725 ], [ 80.11109, 20.9773 ], [ 80.1146, 20.97997 ], [ 80.11905, 20.97965 ], [ 80.12094, 20.98208 ], [ 80.12303, 20.98225 ], [ 80.12465, 20.9823 ], [ 80.12439, 20.97967 ], [ 80.12796, 20.98006 ], [ 80.12885, 20.97797 ], [ 80.13015, 20.97872 ], [ 80.12859, 20.98297 ], [ 80.125, 20.98803 ], [ 80.12424, 20.992 ], [ 80.12226, 20.99336 ], [ 80.12233, 20.99684 ], [ 80.12086, 20.99793 ], [ 80.1286, 20.99742 ], [ 80.13228, 20.99593 ], [ 80.13443, 20.99373 ], [ 80.13465, 20.99167 ], [ 80.14653, 20.98784 ], [ 80.15002, 20.98563 ], [ 80.15817, 20.97655 ], [ 80.16187, 20.97424 ], [ 80.16698, 20.9695 ], [ 80.16754, 20.96767 ], [ 80.171, 20.96775 ], [ 80.18539, 20.97548 ], [ 80.19715, 20.97879 ], [ 80.19666, 20.97803 ], [ 80.19302, 20.97711 ], [ 80.19134, 20.97545 ], [ 80.20007, 20.96941 ], [ 80.20667, 20.97093 ], [ 80.21006, 20.97265 ], [ 80.21148, 20.97234 ], [ 80.21289, 20.97362 ], [ 80.21591, 20.97436 ], [ 80.22287, 20.97803 ], [ 80.22709, 20.97871 ], [ 80.22768, 20.97727 ], [ 80.22986, 20.97653 ], [ 80.23448, 20.97937 ], [ 80.2399, 20.97796 ], [ 80.24233, 20.97826 ], [ 80.24354, 20.97727 ], [ 80.2432, 20.97557 ], [ 80.24689, 20.96607 ], [ 80.25636, 20.9554 ], [ 80.25669, 20.95259 ], [ 80.25274, 20.95104 ], [ 80.24778, 20.95143 ], [ 80.24523, 20.95512 ], [ 80.24078, 20.95442 ], [ 80.23085, 20.95009 ], [ 80.22807, 20.94438 ], [ 80.22443, 20.93244 ], [ 80.22051, 20.92816 ], [ 80.22187, 20.92221 ], [ 80.22113, 20.91812 ], [ 80.22226, 20.91206 ], [ 80.22175, 20.9085 ], [ 80.24232, 20.90473 ], [ 80.24064, 20.89697 ], [ 80.23946, 20.89559 ], [ 80.24001, 20.89425 ], [ 80.23925, 20.89389 ], [ 80.24059, 20.89145 ], [ 80.23894, 20.88965 ], [ 80.24015, 20.88818 ], [ 80.23964, 20.88687 ], [ 80.24135, 20.88495 ], [ 80.23965, 20.88324 ], [ 80.24004, 20.88118 ], [ 80.23838, 20.88086 ], [ 80.23807, 20.88011 ], [ 80.23882, 20.87789 ], [ 80.24047, 20.87664 ], [ 80.23977, 20.86676 ], [ 80.22905, 20.86481 ], [ 80.22714, 20.86253 ], [ 80.22535, 20.86235 ], [ 80.22428, 20.86361 ], [ 80.22265, 20.85931 ], [ 80.22684, 20.84969 ], [ 80.23065, 20.84407 ], [ 80.23182, 20.84349 ], [ 80.22794, 20.84291 ], [ 80.22365, 20.84363 ], [ 80.21989, 20.84143 ], [ 80.21506, 20.84105 ], [ 80.21025, 20.83837 ], [ 80.20788, 20.83966 ], [ 80.20908, 20.8432 ], [ 80.20662, 20.84352 ], [ 80.20494, 20.84649 ], [ 80.20409, 20.84589 ], [ 80.20479, 20.84203 ], [ 80.20432, 20.83855 ], [ 80.20186, 20.83476 ], [ 80.20107, 20.83174 ], [ 80.20269, 20.82592 ], [ 80.20135, 20.82296 ], [ 80.2, 20.8212 ], [ 80.1981, 20.82052 ], [ 80.1891, 20.82156 ], [ 80.18664, 20.81894 ], [ 80.18361, 20.81285 ], [ 80.17864, 20.80785 ], [ 80.20257, 20.78926 ], [ 80.20407, 20.78558 ], [ 80.20741, 20.78304 ], [ 80.21081, 20.78403 ], [ 80.21493, 20.78338 ], [ 80.22214, 20.78496 ], [ 80.2249, 20.79027 ], [ 80.22957, 20.7888 ], [ 80.23082, 20.78569 ], [ 80.23056, 20.78201 ], [ 80.23485, 20.77922 ], [ 80.23812, 20.77547 ], [ 80.24529, 20.7708 ], [ 80.25339, 20.76871 ], [ 80.25376, 20.77044 ], [ 80.25616, 20.77244 ], [ 80.25747, 20.77621 ], [ 80.25939, 20.77886 ], [ 80.26204, 20.78111 ], [ 80.26654, 20.78209 ], [ 80.26705, 20.78562 ], [ 80.26434, 20.79336 ], [ 80.26821, 20.80336 ], [ 80.27151, 20.80268 ], [ 80.2823, 20.80707 ], [ 80.28428, 20.80683 ], [ 80.28758, 20.8038 ], [ 80.2907, 20.7926 ], [ 80.29003, 20.78653 ], [ 80.28628, 20.78006 ], [ 80.28859, 20.77025 ], [ 80.29219, 20.77222 ], [ 80.29453, 20.77216 ], [ 80.30457, 20.76924 ], [ 80.31173, 20.76817 ], [ 80.31546, 20.76884 ], [ 80.31894, 20.76827 ] ] ] } },
{ "type": "Feature", "properties": { "OBJECTID": 3861, "state_lgd": "27", "state_name": "MAHARASHTRA", "district_lgd": "507", "district_name": "GONDIA", "district_name_source": "district_table", "subdistrict_lgd": "4051", "subdistrict_name": "DEORI", "subdistrict_type": "", "name_corrupted": false, "remarks": "", "label_lon": 80.365725235471544, "label_lat": 20.974218732594533 }, "geometry": { "type": "Polygon", "coordinates": [ [ [ 80.3646, 21.25793 ], [ 80.36867, 21.2541 ], [ 80.37532, 21.25109 ], [ 80.37861, 21.25047 ], [ 80.37861, 21.24805 ], [ 80.38055, 21.24608 ], [ 80.38789, 21.24407 ], [ 80.3931, 21.23909 ], [ 80.39311, 21.2377 ], [ 80.39549, 21.23765 ], [ 80.39945, 21.23257 ], [ 80.40298, 21.23024 ], [ 80.4034, 21.22859 ], [ 80.4068, 21.2269 ], [ 80.41021, 21.22219 ], [ 80.41123, 21.21827 ], [ 80.41274, 21.21734 ], [ 80.4137, 21.21443 ], [ 80.42131, 21.21234 ], [ 80.42235, 21.20925 ], [ 80.42123, 21.20709 ], [ 80.42161, 21.20245 ], [ 80.4222, 21.20156 ], [ 80.42459, 21.20137 ], [ 80.42474, 21.1984 ], [ 80.42836, 21.19794 ], [ 80.42916, 21.19693 ], [ 80.43388, 21.19816 ], [ 80.43907, 21.19785 ], [ 80.44603, 21.19491 ], [ 80.44911, 21.19158 ], [ 80.45789, 21.18962 ], [ 80.4578, 21.18306 ], [ 80.46372, 21.1764 ], [ 80.46422, 21.17496 ], [ 80.46081, 21.16476 ], [ 80.46104, 21.15727 ], [ 80.45759, 21.14693 ], [ 80.45308, 21.13664 ], [ 80.44471, 21.12196 ], [ 80.44517, 21.12068 ], [ 80.45474, 21.11828 ], [ 80.45776, 21.11547 ], [ 80.45819, 21.11387 ], [ 80.45533, 21.11346 ], [ 80.4536, 21.11156 ], [ 80.45345, 21.11268 ], [ 80.4478, 21.11242 ], [ 80.44647, 21.1048 ], [ 80.44204, 21.10085 ], [ 80.43915, 21.09656 ], [ 80.44164, 21.0936 ], [ 80.44087, 21.08984 ], [ 80.44629, 21.08413 ], [ 80.44628, 21.08114 ], [ 80.44734, 21.07828 ], [ 80.44652, 21.07341 ], [ 80.44966, 21.06918 ], [ 80.44702, 21.06444 ], [ 80.44718, 21.06326 ], [ 80.44956, 21.06029 ], [ 80.4495, 21.05726 ], [ 80.45156, 21.05642 ], [ 80.45393, 21.05307 ], [ 80.454, 21.05137 ], [ 80.45241, 21.04846 ], [ 80.4512, 21.04284 ], [ 80.45264, 21.03883 ], [ 80.45064, 21.03684 ], [ 80.4495, 21.03032 ], [ 80.44472, 21.02799 ], [ 80.44012, 21.02808 ], [ 80.43885, 21.02553 ], [ 80.43923, 21.02184 ], [ 80.43581, 21.02023 ], [ 80.43296, 21.01569 ], [ 80.42888, 21.01169 ], [ 80.4251, 21.01138 ], [ 80.42426, 21.0085 ], [ 80.42581, 21.00597 ], [ 80.43518, 21.00148 ], [ 80.44377, 20.99404 ], [ 80.44351, 20.9873 ], [ 80.44288, 20.98644 ], [ 80.44475, 20.98411 ], [ 80.44553, 20.97977 ], [ 80.44376, 20.97719 ], [ 80.44535, 20.97063 ], [ 80.44747, 20.96555 ], [ 80.44911, 20.96462 ], [ 80.45234, 20.95539 ], [ 80.4547, 20.95279 ], [ 80.45382, 20.95003 ], [ 80.45472, 20.94659 ], [ 80.4588, 20.94161 ], [ 80.46175, 20.93984 ], [ 80.46236, 20.93639 ], [ 80.46175, 20.93332 ], [ 80.4637, 20.9292 ], [ 80.47647, 20.92848 ], [ 80.48671, 20.92968 ], [ 80.49295, 20.92933 ], [ 80.50327, 20.93135 ], [ 80.51161, 20.93002 ], [ 80.51907, 20.92982 ], [ 80.5248, 20.93098 ], [ 80.53448, 20.93459 ], [ 80.53642, 20.93285 ], [ 80.53902, 20.93258 ], [ 80.54606, 20.93501 ], [ 80.54628, 20.93199 ], [ 80.54462, 20.93156 ], [ 80.54431, 20.93009 ], [ 80.54203, 20.93022 ], [ 80.54294, 20.92535 ], [ 80.54178, 20.92392 ], [ 80.5481, 20.91184 ], [ 80.55258, 20.89681 ], [ 80.55612, 20.8892 ], [ 80.55476, 20.8813 ], [ 80.55577, 20.87886 ], [ 80.55393, 20.87158 ], [ 80.55653, 20.86089 ], [ 80.55664, 20.85393 ], [ 80.55504, 20.84658 ], [ 80.55654, 20.83784 ], [ 80.56123, 20.83058 ], [ 80.56174, 20.82346 ], [ 80.55877, 20.82365 ], [ 80.55467, 20.82228 ], [ 80.55095, 20.82605 ], [ 80.54864, 20.82597 ], [ 80.5385, 20.82957 ], [ 80.53228, 20.83038 ], [ 80.5263, 20.83366 ], [ 80.5216, 20.83468 ], [ 80.51205, 20.83336 ], [ 80.50426, 20.82968 ], [ 80.48723, 20.82486 ], [ 80.47907, 20.82489 ], [ 80.47353, 20.82399 ], [ 80.46961, 20.8217 ], [ 80.46889, 20.82259 ], [ 80.46169, 20.82032 ], [ 80.4557, 20.82046 ], [ 80.42848, 20.82463 ], [ 80.4142, 20.82469 ], [ 80.41226, 20.82047 ], [ 80.40845, 20.81696 ], [ 80.40606, 20.81153 ], [ 80.40379, 20.80885 ], [ 80.40174, 20.80768 ], [ 80.39159, 20.80621 ], [ 80.39157, 20.80715 ], [ 80.38137, 20.80656 ], [ 80.3765, 20.80914 ], [ 80.3674, 20.81219 ], [ 80.3645, 20.81227 ], [ 80.36074, 20.80896 ], [ 80.35661, 20.80929 ], [ 80.35412, 20.81051 ], [ 80.34126, 20.82099 ], [ 80.33584, 20.82123 ], [ 80.33164, 20.81955 ], [ 80.33024, 20.80866 ], [ 80.32533, 20.80052 ], [ 80.32463, 20.79782 ], [ 80.32105, 20.79857 ], [ 80.323, 20.78964 ], [ 80.31989, 20.78482 ], [ 80.31873, 20.77851 ], [ 80.31691, 20.77618 ], [ 80.31817, 20.76866 ], [ 80.31894, 20.76827 ], [ 80.31546, 20.76884 ], [ 80.31173, 20.76817 ], [ 80.30457, 20.76924 ], [ 80.29453, 20.77216 ], [ 80.29219, 20.77222 ], [ 80.28859, 20.77025 ], [ 80.28628, 20.78006 ], [ 80.29003, 20.78653 ], [ 80.2907, 20.7926 ], [ 80.28758, 20.8038 ], [ 80.28428, 20.80683 ], [ 80.2823, 20.80707 ], [ 80.27151, 20.80268 ], [ 80.26821, 20.80336 ], [ 80.26434, 20.79336 ], [ 80.26705, 20.78562 ], [ 80.26639, 20.78174 ], [ 80.26204, 20.78111 ], [ 80.25831, 20.77749 ], [ 80.25616, 20.77244 ], [ 80.25381, 20.7705 ], [ 80.25339, 20.76871 ], [ 80.25055, 20.76911 ], [ 80.24514, 20.77086 ], [ 80.23812, 20.77547 ], [ 80.23485, 20.77922 ], [ 80.23155, 20.78086 ], [ 80.23049, 20.78212 ], [ 80.23082, 20.78569 ], [ 80.22957, 20.7888 ], [ 80.2249, 20.79027 ], [ 80.22214, 20.78496 ], [ 80.21493, 20.78338 ], [ 80.21081, 20.78403 ], [ 80.20741, 20.78304 ], [ 80.20407, 20.78558 ], [ 80.20257, 20.78926 ], [ 80.18051, 20.80586 ], [ 80.17855, 20.80817 ], [ 80.18361, 20.81285 ], [ 80.18664, 20.81894 ], [ 80.1891, 20.82156 ], [ 80.1981, 20.82052 ], [ 80.2, 20.8212 ], [ 80.20135, 20.82296 ], [ 80.20269, 20.82592 ], [ 80.20107, 20.83174 ], [ 80.20186, 20.83476 ], [ 80.20432, 20.83855 ], [ 80.20479, 20.84203 ], [ 80.20409, 20.84589 ], [ 80.20494, 20.84649 ], [ 80.20662, 20.84352 ], [ 80.20908, 20.8432 ], [ 80.20788, 20.83966 ], [ 80.21025, 20.83837 ], [ 80.21506, 20.84105 ], [ 80.21989, 20.84143 ], [ 80.22365, 20.84363 ], [ 80.22794, 20.84291 ], [ 80.23182, 20.84349 ], [ 80.23065, 20.84407 ], [ 80.22684, 20.84969 ], [ 80.22265, 20.85931 ], [ 80.22428, 20.86361 ], [ 80.22535, 20.86235 ], [ 80.22714, 20.86253 ], [ 80.22905, 20.86481 ], [ 80.23977, 20.86676 ], [ 80.24047, 20.87664 ], [ 80.23882, 20.87789 ], [ 80.23807, 20.88011 ], [ 80.23838, 20.88086 ], [ 80.24004, 20.88118 ], [ 80.23965, 20.88324 ], [ 80.24135, 20.88495 ], [ 80.23964, 20.88687 ], [ 80.24015, 20.88818 ], [ 80.23894, 20.88965 ], [ 80.24059, 20.89145 ], [ 80.23925, 20.89389 ], [ 80.24001, 20.89425 ], [ 80.23946, 20.89559 ], [ 80.24064, 20.89697 ], [ 80.24232, 20.90473 ], [ 80.22175, 20.9085 ], [ 80.22226, 20.91206 ], [ 80.22113, 20.91812 ], [ 80.22187, 20.92221 ], [ 80.22051, 20.92816 ], [ 80.22443, 20.93244 ], [ 80.22807, 20.94438 ], [ 80.23085, 20.95009 ], [ 80.24078, 20.95442 ], [ 80.24523, 20.95512 ], [ 80.24778, 20.95143 ], [ 80.24947, 20.95112 ], [ 80.25495, 20.95172 ], [ 80.25669, 20.95259 ], [ 80.25672, 20.95406 ], [ 80.25636, 20.9554 ], [ 80.24689, 20.96607 ], [ 80.2432, 20.97557 ], [ 80.24354, 20.97727 ], [ 80.24233, 20.97826 ], [ 80.23356, 20.97896 ], [ 80.23361, 20.98272 ], [ 80.24049, 20.98759 ], [ 80.24217, 20.99093 ], [ 80.24162, 20.99245 ], [ 80.24273, 20.99845 ], [ 80.24488, 21.00377 ], [ 80.24877, 21.00797 ], [ 80.25854, 21.02548 ], [ 80.26256, 21.03914 ], [ 80.26383, 21.04134 ], [ 80.26751, 21.04441 ], [ 80.26982, 21.04445 ], [ 80.27465, 21.04196 ], [ 80.27844, 21.0474 ], [ 80.28264, 21.05037 ], [ 80.28882, 21.05672 ], [ 80.29221, 21.06361 ], [ 80.29267, 21.07432 ], [ 80.29358, 21.0789 ], [ 80.29681, 21.08561 ], [ 80.29556, 21.09388 ], [ 80.29659, 21.1086 ], [ 80.29514, 21.11396 ], [ 80.30047, 21.12001 ], [ 80.30189, 21.12668 ], [ 80.29817, 21.12809 ], [ 80.2976, 21.12897 ], [ 80.29623, 21.13272 ], [ 80.29643, 21.13427 ], [ 80.29406, 21.13745 ], [ 80.29319, 21.14109 ], [ 80.29533, 21.14696 ], [ 80.2948, 21.14865 ], [ 80.29691, 21.14873 ], [ 80.29736, 21.15063 ], [ 80.302, 21.15455 ], [ 80.30361, 21.15449 ], [ 80.30421, 21.15583 ], [ 80.3095, 21.15697 ], [ 80.31163, 21.15959 ], [ 80.31109, 21.16237 ], [ 80.31198, 21.1636 ], [ 80.31363, 21.16413 ], [ 80.31658, 21.16821 ], [ 80.31195, 21.16826 ], [ 80.31273, 21.17066 ], [ 80.31272, 21.18295 ], [ 80.31355, 21.18924 ], [ 80.31238, 21.19225 ], [ 80.31161, 21.20028 ], [ 80.31222, 21.20104 ], [ 80.31434, 21.2005 ], [ 80.31936, 21.19345 ], [ 80.32273, 21.19337 ], [ 80.33108, 21.20172 ], [ 80.33427, 21.20328 ], [ 80.33586, 21.20295 ], [ 80.33968, 21.20708 ], [ 80.34444, 21.20766 ], [ 80.34063, 21.2141 ], [ 80.34315, 21.21961 ], [ 80.3435, 21.22242 ], [ 80.34284, 21.23207 ], [ 80.33952, 21.23242 ], [ 80.34065, 21.23594 ], [ 80.34057, 21.23978 ], [ 80.34269, 21.24162 ], [ 80.34466, 21.24165 ], [ 80.34618, 21.24486 ], [ 80.35128, 21.24793 ], [ 80.35873, 21.2482 ], [ 80.36279, 21.25442 ], [ 80.36457, 21.25536 ], [ 80.3646, 21.25793 ] ] ] } },
{ "type": "Feature", "properties": { "OBJECTID": 3862, "state_lgd": "27", "state_name": "MAHARASHTRA", "district_lgd": "507", "district_name": "GONDIA", "district_name_source": "district_table", "subdistrict_lgd": "4046", "subdistrict_name": "GONDIA", "subdistrict_type": "", "name_corrupted": false, "remarks": "", "label_lon": 80.176823182306563, "label_lat": 21.503638544019267 }, "geometry": { "type": "MultiPolygon", "coordinates": [ [ [ [ 80.3779, 21.51733 ], [ 80.38419, 21.5016 ], [ 80.38466, 21.49764 ], [ 80.38357, 21.49085 ], [ 80.38174, 21.49046 ], [ 80.3802, 21.49133 ], [ 80.37836, 21.49008 ], [ 80.37852, 21.48944 ], [ 80.37502, 21.48789 ], [ 80.37407, 21.48822 ], [ 80.37573, 21.48854 ], [ 80.37501, 21.49032 ], [ 80.37546, 21.49265 ], [ 80.37185, 21.49289 ], [ 80.37171, 21.49359 ], [ 80.37285, 21.49543 ], [ 80.37381, 21.49567 ], [ 80.37564, 21.49971 ], [ 80.37121, 21.50095 ], [ 80.3707, 21.49956 ], [ 80.3679, 21.49944 ], [ 80.36775, 21.50022 ], [ 80.36654, 21.49747 ], [ 80.36485, 21.49662 ], [ 80.36359, 21.49829 ], [ 80.363, 21.49737 ], [ 80.36076, 21.49789 ], [ 80.3561, 21.50372 ], [ 80.35419, 21.5045 ], [ 80.35128, 21.50806 ], [ 80.34815, 21.50964 ], [ 80.35082, 21.51027 ], [ 80.35201, 21.51297 ], [ 80.35373, 21.51253 ], [ 80.35584, 21.51377 ], [ 80.35798, 21.51395 ], [ 80.35847, 21.51483 ], [ 80.36445, 21.51313 ], [ 80.36516, 21.51463 ], [ 80.36971, 21.51474 ], [ 80.3779, 21.51733 ] ] ], [ [ [ 80.20883, 21.63523 ], [ 80.21196, 21.63325 ], [ 80.21452, 21.63017 ], [ 80.21592, 21.63085 ], [ 80.21746, 21.63343 ], [ 80.21864, 21.63162 ], [ 80.21898, 21.62887 ], [ 80.21671, 21.62655 ], [ 80.21689, 21.62565 ], [ 80.22148, 21.62097 ], [ 80.2268, 21.62081 ], [ 80.23529, 21.6224 ], [ 80.23753, 21.62142 ], [ 80.24584, 21.62049 ], [ 80.24851, 21.6232 ], [ 80.25196, 21.62496 ], [ 80.26672, 21.61854 ], [ 80.27014, 21.61606 ], [ 80.27244, 21.61313 ], [ 80.27985, 21.59722 ], [ 80.28255, 21.59564 ], [ 80.29208, 21.59445 ], [ 80.29407, 21.59333 ], [ 80.29524, 21.59107 ], [ 80.29523, 21.58136 ], [ 80.29806, 21.57581 ], [ 80.29976, 21.57487 ], [ 80.30325, 21.5748 ], [ 80.31483, 21.57731 ], [ 80.31823, 21.57712 ], [ 80.32137, 21.57587 ], [ 80.32775, 21.5714 ], [ 80.32993, 21.56422 ], [ 80.33177, 21.56223 ], [ 80.33191, 21.56093 ], [ 80.33615, 21.55633 ], [ 80.33931, 21.55508 ], [ 80.33313, 21.55273 ], [ 80.33015, 21.55046 ], [ 80.33016, 21.54925 ], [ 80.3277, 21.54595 ], [ 80.32846, 21.54159 ], [ 80.32648, 21.53681 ], [ 80.32958, 21.53174 ], [ 80.33274, 21.53091 ], [ 80.33598, 21.52776 ], [ 80.33581, 21.5242 ], [ 80.33476, 21.52236 ], [ 80.33626, 21.5206 ], [ 80.33579, 21.5169 ], [ 80.34022, 21.51557 ], [ 80.33991, 21.51245 ], [ 80.33821, 21.51043 ], [ 80.33994, 21.5102 ], [ 80.34214, 21.50791 ], [ 80.34295, 21.50423 ], [ 80.34501, 21.50427 ], [ 80.34573, 21.5029 ], [ 80.34263, 21.50221 ], [ 80.34126, 21.49973 ], [ 80.33844, 21.50043 ], [ 80.33305, 21.49761 ], [ 80.32761, 21.49703 ], [ 80.32615, 21.49418 ], [ 80.32527, 21.49435 ], [ 80.3243, 21.49635 ], [ 80.32309, 21.49638 ], [ 80.32153, 21.4917 ], [ 80.31939, 21.48955 ], [ 80.31677, 21.48867 ], [ 80.31545, 21.49083 ], [ 80.31185, 21.48947 ], [ 80.3109, 21.4865 ], [ 80.31177, 21.4861 ], [ 80.31173, 21.48499 ], [ 80.31063, 21.48341 ], [ 80.30989, 21.4836 ], [ 80.31036, 21.47986 ], [ 80.30863, 21.47801 ], [ 80.30964, 21.47669 ], [ 80.30978, 21.4749 ], [ 80.30913, 21.47476 ], [ 80.31076, 21.47272 ], [ 80.30941, 21.47209 ], [ 80.31005, 21.46999 ], [ 80.30934, 21.47008 ], [ 80.30888, 21.46908 ], [ 80.31033, 21.46716 ], [ 80.30958, 21.46634 ], [ 80.31042, 21.46566 ], [ 80.30961, 21.46476 ], [ 80.31023, 21.46332 ], [ 80.31095, 21.4634 ], [ 80.31131, 21.46153 ], [ 80.31039, 21.46064 ], [ 80.30961, 21.45729 ], [ 80.31259, 21.4525 ], [ 80.31355, 21.44925 ], [ 80.3119, 21.44776 ], [ 80.30983, 21.44295 ], [ 80.30762, 21.44092 ], [ 80.30627, 21.43815 ], [ 80.30536, 21.43313 ], [ 80.30678, 21.42825 ], [ 80.30478, 21.43 ], [ 80.30326, 21.42958 ], [ 80.30278, 21.43089 ], [ 80.30148, 21.43115 ], [ 80.29911, 21.43333 ], [ 80.29647, 21.43337 ], [ 80.29695, 21.43267 ], [ 80.2956, 21.4315 ], [ 80.29641, 21.42898 ], [ 80.29589, 21.42718 ], [ 80.29664, 21.42665 ], [ 80.29528, 21.42594 ], [ 80.29407, 21.42326 ], [ 80.29483, 21.4184 ], [ 80.293, 21.41839 ], [ 80.29446, 21.41768 ], [ 80.2943, 21.41572 ], [ 80.2929, 21.41512 ], [ 80.29216, 21.41359 ], [ 80.29093, 21.41351 ], [ 80.29111, 21.41251 ], [ 80.28933, 21.41111 ], [ 80.28814, 21.40883 ], [ 80.28852, 21.40692 ], [ 80.29143, 21.40449 ], [ 80.2924, 21.40219 ], [ 80.29141, 21.39862 ], [ 80.29187, 21.39768 ], [ 80.28942, 21.39147 ], [ 80.28356, 21.39325 ], [ 80.28343, 21.39225 ], [ 80.2824, 21.39199 ], [ 80.2791, 21.38814 ], [ 80.27216, 21.3856 ], [ 80.27088, 21.38423 ], [ 80.26918, 21.37736 ], [ 80.26779, 21.3753 ], [ 80.26654, 21.37475 ], [ 80.25553, 21.37663 ], [ 80.25438, 21.37502 ], [ 80.24921, 21.38941 ], [ 80.24708, 21.39298 ], [ 80.24761, 21.40047 ], [ 80.24848, 21.40265 ], [ 80.24505, 21.40511 ], [ 80.24407, 21.40373 ], [ 80.24246, 21.40335 ], [ 80.23849, 21.40505 ], [ 80.23867, 21.40311 ], [ 80.23996, 21.40115 ], [ 80.24165, 21.40058 ], [ 80.23869, 21.39705 ], [ 80.23272, 21.39729 ], [ 80.22873, 21.39596 ], [ 80.22669, 21.39634 ], [ 80.22524, 21.39542 ], [ 80.22219, 21.39518 ], [ 80.22216, 21.39782 ], [ 80.22037, 21.39959 ], [ 80.2205, 21.4014 ], [ 80.21868, 21.40151 ], [ 80.21851, 21.40348 ], [ 80.21653, 21.40367 ], [ 80.21467, 21.40611 ], [ 80.21391, 21.40903 ], [ 80.21173, 21.40822 ], [ 80.21095, 21.40974 ], [ 80.21121, 21.41164 ], [ 80.21041, 21.41204 ], [ 80.20927, 21.41126 ], [ 80.20835, 21.41228 ], [ 80.20676, 21.41134 ], [ 80.20641, 21.41213 ], [ 80.20519, 21.41127 ], [ 80.20473, 21.41206 ], [ 80.20256, 21.41142 ], [ 80.20184, 21.41199 ], [ 80.20097, 21.40996 ], [ 80.19981, 21.40952 ], [ 80.19982, 21.40856 ], [ 80.19921, 21.40887 ], [ 80.19693, 21.40742 ], [ 80.19695, 21.40652 ], [ 80.19368, 21.40549 ], [ 80.19212, 21.40585 ], [ 80.19197, 21.40917 ], [ 80.18935, 21.40999 ], [ 80.18614, 21.41236 ], [ 80.16912, 21.41857 ], [ 80.16777, 21.41792 ], [ 80.16826, 21.41715 ], [ 80.16676, 21.41612 ], [ 80.16594, 21.41664 ], [ 80.16467, 21.41596 ], [ 80.16439, 21.41489 ], [ 80.16554, 21.41506 ], [ 80.16589, 21.41298 ], [ 80.16383, 21.41189 ], [ 80.16442, 21.41263 ], [ 80.1638, 21.4134 ], [ 80.16269, 21.41185 ], [ 80.15335, 21.41532 ], [ 80.13869, 21.41854 ], [ 80.13909, 21.42224 ], [ 80.13734, 21.42271 ], [ 80.11865, 21.42588 ], [ 80.11236, 21.42562 ], [ 80.11096, 21.42448 ], [ 80.10894, 21.42636 ], [ 80.10705, 21.42688 ], [ 80.10622, 21.42534 ], [ 80.10639, 21.42157 ], [ 80.10825, 21.4099 ], [ 80.10708, 21.40674 ], [ 80.10491, 21.40473 ], [ 80.10487, 21.40249 ], [ 80.10408, 21.40208 ], [ 80.10456, 21.40085 ], [ 80.10363, 21.39981 ], [ 80.10242, 21.39979 ], [ 80.10227, 21.3989 ], [ 80.09394, 21.39912 ], [ 80.08472, 21.39763 ], [ 80.08145, 21.39607 ], [ 80.07671, 21.39575 ], [ 80.07672, 21.393 ], [ 80.07274, 21.39176 ], [ 80.07356, 21.40339 ], [ 80.07002, 21.40465 ], [ 80.06754, 21.40489 ], [ 80.06664, 21.4039 ], [ 80.06567, 21.4047 ], [ 80.06452, 21.40355 ], [ 80.0623, 21.40371 ], [ 80.0614, 21.40162 ], [ 80.05892, 21.40167 ], [ 80.05901, 21.40027 ], [ 80.05761, 21.39915 ], [ 80.05852, 21.39821 ], [ 80.05809, 21.39563 ], [ 80.05673, 21.39573 ], [ 80.0565, 21.39447 ], [ 80.05275, 21.39432 ], [ 80.05155, 21.39505 ], [ 80.05177, 21.39583 ], [ 80.05023, 21.39625 ], [ 80.04977, 21.39805 ], [ 80.04697, 21.39916 ], [ 80.04493, 21.39638 ], [ 80.04121, 21.39674 ], [ 80.03422, 21.39917 ], [ 80.03421, 21.40121 ], [ 80.03266, 21.40426 ], [ 80.03121, 21.41048 ], [ 80.02627, 21.41048 ], [ 80.02574, 21.40915 ], [ 80.02447, 21.40879 ], [ 80.0199, 21.40954 ], [ 80.00925, 21.40698 ], [ 80.0057, 21.4078 ], [ 80.0032, 21.4095 ], [ 80.0027, 21.41203 ], [ 80.00044, 21.41295 ], [ 80.00029, 21.41668 ], [ 80.00091, 21.41768 ], [ 80.00297, 21.41785 ], [ 80.00518, 21.41954 ], [ 80.00581, 21.42131 ], [ 80.00794, 21.42333 ], [ 80.00874, 21.42653 ], [ 80.00997, 21.42646 ], [ 80.01043, 21.42946 ], [ 80.01176, 21.43058 ], [ 80.0114, 21.4328 ], [ 80.01462, 21.4384 ], [ 80.01411, 21.43978 ], [ 80.00892, 21.44042 ], [ 80.00715, 21.44153 ], [ 80.0064, 21.44496 ], [ 80.00516, 21.44555 ], [ 80.00334, 21.44474 ], [ 80.00217, 21.44556 ], [ 80.00301, 21.44659 ], [ 80.00258, 21.44806 ], [ 80.00454, 21.44852 ], [ 80.00495, 21.45002 ], [ 80.00364, 21.45039 ], [ 80.0032, 21.45255 ], [ 80.00145, 21.45442 ], [ 80.00185, 21.45606 ], [ 80.00055, 21.45711 ], [ 80.00222, 21.46084 ], [ 80.0025, 21.46437 ], [ 80.00523, 21.46667 ], [ 80.0069, 21.46668 ], [ 80.00926, 21.46999 ], [ 80.01653, 21.46783 ], [ 80.02762, 21.46852 ], [ 80.02714, 21.46907 ], [ 80.02863, 21.47021 ], [ 80.02844, 21.47112 ], [ 80.0276, 21.47119 ], [ 80.02817, 21.4732 ], [ 80.02746, 21.47463 ], [ 80.02862, 21.4747 ], [ 80.02821, 21.47559 ], [ 80.02944, 21.47536 ], [ 80.03043, 21.47717 ], [ 80.03121, 21.47702 ], [ 80.03231, 21.47956 ], [ 80.03396, 21.47984 ], [ 80.03442, 21.48063 ], [ 80.03336, 21.48199 ], [ 80.03428, 21.48293 ], [ 80.03571, 21.4838 ], [ 80.03767, 21.48375 ], [ 80.03791, 21.48602 ], [ 80.03941, 21.48562 ], [ 80.04032, 21.48717 ], [ 80.04126, 21.48653 ], [ 80.04351, 21.48916 ], [ 80.04379, 21.4904 ], [ 80.04269, 21.49166 ], [ 80.04077, 21.49217 ], [ 80.04162, 21.49489 ], [ 80.04333, 21.49602 ], [ 80.04267, 21.49865 ], [ 80.0406, 21.49925 ], [ 80.04156, 21.50188 ], [ 80.03956, 21.50201 ], [ 80.03811, 21.50378 ], [ 80.03806, 21.50546 ], [ 80.03881, 21.50621 ], [ 80.03779, 21.50818 ], [ 80.03886, 21.5101 ], [ 80.03972, 21.51004 ], [ 80.04098, 21.51439 ], [ 80.04111, 21.51828 ], [ 80.04077, 21.52051 ], [ 80.03906, 21.52126 ], [ 80.03944, 21.5226 ], [ 80.03798, 21.52359 ], [ 80.02996, 21.52409 ], [ 80.02875, 21.52263 ], [ 80.02735, 21.52226 ], [ 80.02469, 21.52313 ], [ 80.0215, 21.523 ], [ 80.01981, 21.52139 ], [ 80.01738, 21.52267 ], [ 80.01755, 21.52421 ], [ 80.01625, 21.52364 ], [ 80.0144, 21.52482 ], [ 80.01177, 21.52451 ], [ 80.01108, 21.52506 ], [ 80.01023, 21.52244 ], [ 80.00862, 21.52229 ], [ 80.00696, 21.51882 ], [ 80.00468, 21.51786 ], [ 80.00224, 21.51799 ], [ 80.00223, 21.51951 ], [ 80.00016, 21.51934 ], [ 79.99837, 21.52266 ], [ 79.99625, 21.52144 ], [ 79.99389, 21.52187 ], [ 79.99406, 21.5236 ], [ 79.99109, 21.52533 ], [ 79.99142, 21.52656 ], [ 79.99029, 21.52945 ], [ 79.98757, 21.52878 ], [ 79.98677, 21.52743 ], [ 79.98606, 21.53217 ], [ 79.98842, 21.53299 ], [ 79.98987, 21.53597 ], [ 79.99681, 21.53362 ], [ 80.00167, 21.53414 ], [ 80.02057, 21.54702 ], [ 80.02506, 21.55137 ], [ 80.03287, 21.55621 ], [ 80.04081, 21.55666 ], [ 80.05003, 21.55528 ], [ 80.05495, 21.55354 ], [ 80.05883, 21.55336 ], [ 80.06524, 21.55376 ], [ 80.07147, 21.55634 ], [ 80.07636, 21.56061 ], [ 80.08288, 21.56839 ], [ 80.09013, 21.57455 ], [ 80.09633, 21.58504 ], [ 80.10062, 21.5895 ], [ 80.10367, 21.59074 ], [ 80.11178, 21.59108 ], [ 80.11606, 21.59325 ], [ 80.11821, 21.59852 ], [ 80.11754, 21.60459 ], [ 80.11797, 21.60759 ], [ 80.11857, 21.60888 ], [ 80.12133, 21.61088 ], [ 80.12867, 21.61144 ], [ 80.13442, 21.60823 ], [ 80.14561, 21.60553 ], [ 80.15462, 21.60647 ], [ 80.1602, 21.61066 ], [ 80.16255, 21.6153 ], [ 80.16909, 21.62214 ], [ 80.1727, 21.62383 ], [ 80.18503, 21.6271 ], [ 80.18763, 21.62854 ], [ 80.19042, 21.63126 ], [ 80.19237, 21.63527 ], [ 80.20137, 21.63606 ], [ 80.20883, 21.63523 ] ] ] ] } },
{ "type": "Feature", "properties": { "OBJECTID": 3863, "state_lgd": "27", "state_name": "MAHARASHTRA", "district_lgd": "507", "district_name": "GONDIA", "district_name_source": "district_table", "subdistrict_lgd": "4049", "subdistrict_name": "SADAK-ARJUNI", "subdistrict_type": "", "name_corrupted": false, "remarks": "", "label_lon": 80.163235362505006, "label_lat": 21.127363297493975 }, "geometry": { "type": "Polygon", "coordinates": [ [ [ 80.05508, 21.28531 ], [ 80.06731, 21.28488 ], [ 80.07154, 21.28381 ], [ 80.07778, 21.28504 ], [ 80.08232, 21.28364 ], [ 80.08537, 21.28114 ], [ 80.08849, 21.28062 ], [ 80.08957, 21.27757 ], [ 80.09078, 21.27699 ], [ 80.09251, 21.27753 ], [ 80.09488, 21.277 ], [ 80.09606, 21.27346 ], [ 80.10142, 21.27378 ], [ 80.10251, 21.27291 ], [ 80.10385, 21.27349 ], [ 80.10352, 21.27265 ], [ 80.10706, 21.27065 ], [ 80.10958, 21.27161 ], [ 80.11363, 21.26913 ], [ 80.11781, 21.2682 ], [ 80.11933, 21.26887 ], [ 80.12055, 21.26481 ], [ 80.12498, 21.26601 ], [ 80.12639, 21.2684 ], [ 80.12774, 21.26534 ], [ 80.12993, 21.26474 ], [ 80.13262, 21.26608 ], [ 80.13502, 21.26346 ], [ 80.13702, 21.26551 ], [ 80.13841, 21.26552 ], [ 80.14364, 21.26315 ], [ 80.14349, 21.26155 ], [ 80.14513, 21.26011 ], [ 80.14302, 21.25789 ], [ 80.14567, 21.25559 ], [ 80.14785, 21.25116 ], [ 80.15113, 21.25136 ], [ 80.15387, 21.25267 ], [ 80.15392, 21.25622 ], [ 80.15464, 21.25652 ], [ 80.15597, 21.26071 ], [ 80.15894, 21.26237 ], [ 80.16475, 21.26277 ], [ 80.16663, 21.26246 ], [ 80.17188, 21.25854 ], [ 80.17016, 21.25432 ], [ 80.16716, 21.25325 ], [ 80.16639, 21.25048 ], [ 80.17155, 21.24874 ], [ 80.17656, 21.24925 ], [ 80.18011, 21.24862 ], [ 80.18658, 21.24986 ], [ 80.18741, 21.2492 ], [ 80.19767, 21.24798 ], [ 80.1963, 21.24325 ], [ 80.19451, 21.2415 ], [ 80.19136, 21.23581 ], [ 80.19218, 21.23049 ], [ 80.19515, 21.22516 ], [ 80.19613, 21.21944 ], [ 80.19893, 21.22225 ], [ 80.20416, 21.22074 ], [ 80.20519, 21.21973 ], [ 80.20992, 21.21932 ], [ 80.21154, 21.2183 ], [ 80.2138, 21.21987 ], [ 80.22001, 21.22824 ], [ 80.22435, 21.22949 ], [ 80.22616, 21.22841 ], [ 80.22715, 21.22673 ], [ 80.2269, 21.22233 ], [ 80.22861, 21.22188 ], [ 80.23115, 21.22253 ], [ 80.23184, 21.2208 ], [ 80.23356, 21.22004 ], [ 80.23315, 21.21864 ], [ 80.23105, 21.21793 ], [ 80.23193, 21.21623 ], [ 80.23457, 21.21658 ], [ 80.23735, 21.22001 ], [ 80.23976, 21.21878 ], [ 80.24195, 21.21984 ], [ 80.24693, 21.21669 ], [ 80.24743, 21.21552 ], [ 80.24877, 21.21617 ], [ 80.25383, 21.21525 ], [ 80.25506, 21.21209 ], [ 80.25906, 21.21438 ], [ 80.26185, 21.21232 ], [ 80.26288, 21.21009 ], [ 80.26504, 21.21082 ], [ 80.26632, 21.20963 ], [ 80.26905, 21.21109 ], [ 80.27034, 21.2102 ], [ 80.27147, 21.21155 ], [ 80.27312, 21.20949 ], [ 80.27403, 21.211 ], [ 80.27573, 21.21065 ], [ 80.275, 21.20862 ], [ 80.27538, 21.20566 ], [ 80.27991, 21.1986 ], [ 80.27895, 21.19421 ], [ 80.28091, 21.19355 ], [ 80.27823, 21.18977 ], [ 80.278, 21.18235 ], [ 80.27599, 21.17907 ], [ 80.27628, 21.17792 ], [ 80.27515, 21.17746 ], [ 80.27315, 21.173 ], [ 80.27096, 21.17143 ], [ 80.2682, 21.17292 ], [ 80.2583, 21.1737 ], [ 80.25659, 21.16957 ], [ 80.25836, 21.16609 ], [ 80.25676, 21.16381 ], [ 80.25776, 21.16256 ], [ 80.26039, 21.16173 ], [ 80.26194, 21.16429 ], [ 80.26337, 21.16398 ], [ 80.26525, 21.16205 ], [ 80.26759, 21.16315 ], [ 80.2685, 21.16571 ], [ 80.26966, 21.16567 ], [ 80.2701, 21.16432 ], [ 80.27227, 21.1648 ], [ 80.27385, 21.16382 ], [ 80.27387, 21.16214 ], [ 80.27477, 21.16242 ], [ 80.27552, 21.15965 ], [ 80.2748, 21.15687 ], [ 80.27358, 21.15562 ], [ 80.27392, 21.15499 ], [ 80.27747, 21.15543 ], [ 80.27979, 21.15445 ], [ 80.2811, 21.15125 ], [ 80.28067, 21.15017 ], [ 80.28182, 21.1502 ], [ 80.28406, 21.15242 ], [ 80.28732, 21.15219 ], [ 80.28854, 21.15131 ], [ 80.29235, 21.15104 ], [ 80.29327, 21.1504 ], [ 80.29238, 21.14998 ], [ 80.29259, 21.14872 ], [ 80.29524, 21.14808 ], [ 80.29319, 21.14109 ], [ 80.29406, 21.13745 ], [ 80.29643, 21.13427 ], [ 80.29639, 21.13214 ], [ 80.29817, 21.12809 ], [ 80.30189, 21.12668 ], [ 80.30047, 21.12001 ], [ 80.29514, 21.11396 ], [ 80.29659, 21.1086 ], [ 80.29556, 21.09388 ], [ 80.29681, 21.08561 ], [ 80.29358, 21.0789 ], [ 80.29267, 21.07432 ], [ 80.29221, 21.06361 ], [ 80.28882, 21.05672 ], [ 80.28264, 21.05037 ], [ 80.27844, 21.0474 ], [ 80.27465, 21.04196 ], [ 80.26982, 21.04445 ], [ 80.26751, 21.04441 ], [ 80.26383, 21.04134 ], [ 80.26256, 21.03914 ], [ 80.25854, 21.02548 ], [ 80.24877, 21.00797 ], [ 80.24488, 21.00377 ], [ 80.24273, 20.99845 ], [ 80.24162, 20.99245 ], [ 80.24217, 20.99093 ], [ 80.24049, 20.98759 ], [ 80.23361, 20.98272 ], [ 80.23356, 20.97896 ], [ 80.22986, 20.97653 ], [ 80.22768, 20.97727 ], [ 80.22709, 20.97871 ], [ 80.22287, 20.97803 ], [ 80.21591, 20.97436 ], [ 80.21289, 20.97362 ], [ 80.21148, 20.97234 ], [ 80.21006, 20.97265 ], [ 80.20667, 20.97093 ], [ 80.20007, 20.96941 ], [ 80.19134, 20.97545 ], [ 80.19302, 20.97711 ], [ 80.19666, 20.97803 ], [ 80.19715, 20.97879 ], [ 80.18539, 20.97548 ], [ 80.171, 20.96775 ], [ 80.16754, 20.96767 ], [ 80.16698, 20.9695 ], [ 80.16187, 20.97424 ], [ 80.15817, 20.97655 ], [ 80.15002, 20.98563 ], [ 80.14653, 20.98784 ], [ 80.13465, 20.99167 ], [ 80.13443, 20.99373 ], [ 80.13228, 20.99593 ], [ 80.1286, 20.99742 ], [ 80.12086, 20.99793 ], [ 80.12233, 20.99684 ], [ 80.12226, 20.99336 ], [ 80.12424, 20.992 ], [ 80.125, 20.98803 ], [ 80.12859, 20.98297 ], [ 80.13015, 20.97872 ], [ 80.12885, 20.97797 ], [ 80.12796, 20.98006 ], [ 80.12439, 20.97967 ], [ 80.12465, 20.9823 ], [ 80.12303, 20.98225 ], [ 80.12094, 20.98208 ], [ 80.11905, 20.97965 ], [ 80.1146, 20.97997 ], [ 80.11109, 20.9773 ], [ 80.10725, 20.97725 ], [ 80.10358, 20.97826 ], [ 80.10308, 20.97686 ], [ 80.09937, 20.97565 ], [ 80.09188, 20.97679 ], [ 80.09112, 20.97133 ], [ 80.09248, 20.96867 ], [ 80.09081, 20.96459 ], [ 80.08401, 20.96439 ], [ 80.08186, 20.96597 ], [ 80.08204, 20.968 ], [ 80.08081, 20.97045 ], [ 80.07615, 20.96971 ], [ 80.08192, 20.98241 ], [ 80.08239, 20.98678 ], [ 80.07624, 20.98828 ], [ 80.07637, 20.98967 ], [ 80.08211, 20.98947 ], [ 80.08301, 20.98901 ], [ 80.08188, 20.9873 ], [ 80.08394, 20.98667 ], [ 80.08928, 20.99031 ], [ 80.09346, 20.99192 ], [ 80.10211, 20.99051 ], [ 80.10143, 20.99226 ], [ 80.09993, 20.99271 ], [ 80.10094, 20.99514 ], [ 80.09986, 20.99575 ], [ 80.10059, 20.99803 ], [ 80.10003, 20.99836 ], [ 80.0993, 20.99751 ], [ 80.09871, 20.99802 ], [ 80.09828, 20.99938 ], [ 80.09893, 21.00042 ], [ 80.09776, 21.00106 ], [ 80.09781, 21.00262 ], [ 80.09666, 21.00365 ], [ 80.09755, 21.00393 ], [ 80.09746, 21.00531 ], [ 80.09496, 21.00623 ], [ 80.09395, 21.00787 ], [ 80.09407, 21.0105 ], [ 80.09784, 21.01274 ], [ 80.09688, 21.0143 ], [ 80.0977, 21.0155 ], [ 80.09721, 21.01677 ], [ 80.09905, 21.01919 ], [ 80.09902, 21.02346 ], [ 80.09759, 21.02441 ], [ 80.09802, 21.02668 ], [ 80.09454, 21.02742 ], [ 80.09643, 21.03136 ], [ 80.09587, 21.03284 ], [ 80.09322, 21.03404 ], [ 80.09156, 21.03297 ], [ 80.088, 21.03324 ], [ 80.08704, 21.0344 ], [ 80.08346, 21.03535 ], [ 80.08224, 21.03389 ], [ 80.08051, 21.03373 ], [ 80.08085, 21.0312 ], [ 80.0783, 21.0312 ], [ 80.07762, 21.02773 ], [ 80.07466, 21.0293 ], [ 80.07262, 21.02857 ], [ 80.06871, 21.02958 ], [ 80.0667, 21.02916 ], [ 80.06603, 21.0319 ], [ 80.06453, 21.03013 ], [ 80.06304, 21.03071 ], [ 80.06706, 21.03271 ], [ 80.06772, 21.03343 ], [ 80.06738, 21.03442 ], [ 80.07463, 21.03697 ], [ 80.07648, 21.03875 ], [ 80.0777, 21.04284 ], [ 80.07995, 21.04645 ], [ 80.08011, 21.0511 ], [ 80.07869, 21.05314 ], [ 80.07507, 21.05493 ], [ 80.07539, 21.05766 ], [ 80.06882, 21.05993 ], [ 80.06937, 21.06082 ], [ 80.07903, 21.06244 ], [ 80.08028, 21.06379 ], [ 80.08192, 21.0687 ], [ 80.08269, 21.06898 ], [ 80.08294, 21.07237 ], [ 80.08416, 21.07272 ], [ 80.08428, 21.0737 ], [ 80.08418, 21.07564 ], [ 80.07696, 21.07922 ], [ 80.0697, 21.08159 ], [ 80.07286, 21.08854 ], [ 80.07654, 21.09345 ], [ 80.07537, 21.09842 ], [ 80.07379, 21.09941 ], [ 80.07199, 21.09977 ], [ 80.07126, 21.09895 ], [ 80.06852, 21.1001 ], [ 80.06402, 21.09855 ], [ 80.06101, 21.09918 ], [ 80.06217, 21.10217 ], [ 80.0675, 21.10682 ], [ 80.07013, 21.11314 ], [ 80.08212, 21.1186 ], [ 80.08146, 21.12052 ], [ 80.07259, 21.11992 ], [ 80.07278, 21.12337 ], [ 80.07165, 21.12647 ], [ 80.07398, 21.12728 ], [ 80.07355, 21.13488 ], [ 80.07849, 21.13649 ], [ 80.07794, 21.13736 ], [ 80.07881, 21.13815 ], [ 80.08052, 21.14775 ], [ 80.0792, 21.1496 ], [ 80.07699, 21.1504 ], [ 80.07416, 21.15518 ], [ 80.07208, 21.15557 ], [ 80.07151, 21.16417 ], [ 80.06864, 21.17098 ], [ 80.06688, 21.17269 ], [ 80.06872, 21.17432 ], [ 80.07062, 21.17459 ], [ 80.07112, 21.17875 ], [ 80.06906, 21.17864 ], [ 80.07027, 21.1805 ], [ 80.06878, 21.18131 ], [ 80.06898, 21.18296 ], [ 80.0717, 21.18496 ], [ 80.07175, 21.1861 ], [ 80.07288, 21.18698 ], [ 80.07176, 21.18727 ], [ 80.07215, 21.18851 ], [ 80.07111, 21.18834 ], [ 80.07053, 21.18919 ], [ 80.06896, 21.18885 ], [ 80.07004, 21.18985 ], [ 80.06967, 21.19093 ], [ 80.068, 21.19108 ], [ 80.06891, 21.19265 ], [ 80.06771, 21.1941 ], [ 80.06875, 21.19595 ], [ 80.05468, 21.20007 ], [ 80.05491, 21.20054 ], [ 80.05083, 21.20247 ], [ 80.04967, 21.20547 ], [ 80.05041, 21.20598 ], [ 80.04933, 21.20709 ], [ 80.04818, 21.20692 ], [ 80.04284, 21.21024 ], [ 80.03661, 21.21013 ], [ 80.03507, 21.2123 ], [ 80.03261, 21.21353 ], [ 80.02844, 21.21216 ], [ 80.02617, 21.2121 ], [ 80.02449, 21.21301 ], [ 80.02425, 21.21581 ], [ 80.02653, 21.22066 ], [ 80.02446, 21.22306 ], [ 80.02312, 21.22865 ], [ 80.01279, 21.22154 ], [ 80.00845, 21.22431 ], [ 80.00629, 21.22454 ], [ 80.00608, 21.22591 ], [ 80.00353, 21.22879 ], [ 80.00189, 21.22933 ], [ 80.00124, 21.23089 ], [ 80.00193, 21.23776 ], [ 80.01457, 21.24527 ], [ 80.02524, 21.2533 ], [ 80.02536, 21.25936 ], [ 80.02606, 21.26062 ], [ 80.02743, 21.2616 ], [ 80.03092, 21.26078 ], [ 80.03155, 21.26532 ], [ 80.02984, 21.26728 ], [ 80.03006, 21.27439 ], [ 80.03171, 21.27784 ], [ 80.03174, 21.27966 ], [ 80.03713, 21.2871 ], [ 80.03868, 21.29112 ], [ 80.05508, 21.28531 ] ] ] } },
{ "type": "Feature", "properties": { "OBJECTID": 3963, "state_lgd": "27", "state_name": "MAHARASHTRA", "district_lgd": "507", "district_name": "GONDIA", "district_name_source": "district_table", "subdistrict_lgd": "4045", "subdistrict_name": "GOREGAON", "subdistrict_type": "", "name_corrupted": false, "remarks": "", "label_lon": 80.205185404515206, "label_lat": 21.306462533218657 }, "geometry": { "type": "Polygon", "coordinates": [ [ [ 80.11096, 21.42448 ], [ 80.11236, 21.42562 ], [ 80.11865, 21.42588 ], [ 80.13734, 21.42271 ], [ 80.13909, 21.42224 ], [ 80.13869, 21.41854 ], [ 80.15335, 21.41532 ], [ 80.16269, 21.41185 ], [ 80.1638, 21.4134 ], [ 80.16442, 21.41263 ], [ 80.16383, 21.41189 ], [ 80.16589, 21.41298 ], [ 80.16554, 21.41506 ], [ 80.16439, 21.41489 ], [ 80.16467, 21.41596 ], [ 80.16594, 21.41664 ], [ 80.16676, 21.41612 ], [ 80.16826, 21.41715 ], [ 80.16777, 21.41792 ], [ 80.16912, 21.41857 ], [ 80.18614, 21.41236 ], [ 80.18935, 21.40999 ], [ 80.19197, 21.40917 ], [ 80.19212, 21.40585 ], [ 80.19368, 21.40549 ], [ 80.19695, 21.40652 ], [ 80.19693, 21.40742 ], [ 80.19921, 21.40887 ], [ 80.19982, 21.40856 ], [ 80.19981, 21.40952 ], [ 80.20097, 21.40996 ], [ 80.20184, 21.41199 ], [ 80.20256, 21.41142 ], [ 80.20473, 21.41206 ], [ 80.20519, 21.41127 ], [ 80.20641, 21.41213 ], [ 80.20676, 21.41134 ], [ 80.20835, 21.41228 ], [ 80.20927, 21.41126 ], [ 80.21041, 21.41204 ], [ 80.21121, 21.41164 ], [ 80.21095, 21.40974 ], [ 80.21173, 21.40822 ], [ 80.21391, 21.40903 ], [ 80.21467, 21.40611 ], [ 80.21653, 21.40367 ], [ 80.21851, 21.40348 ], [ 80.21868, 21.40151 ], [ 80.2205, 21.4014 ], [ 80.22037, 21.39959 ], [ 80.22216, 21.39782 ], [ 80.22219, 21.39518 ], [ 80.22524, 21.39542 ], [ 80.22669, 21.39634 ], [ 80.22873, 21.39596 ], [ 80.23272, 21.39729 ], [ 80.23869, 21.39705 ], [ 80.24165, 21.40058 ], [ 80.23996, 21.40115 ], [ 80.23867, 21.40311 ], [ 80.23849, 21.40505 ], [ 80.24246, 21.40335 ], [ 80.24407, 21.40373 ], [ 80.24505, 21.40511 ], [ 80.24848, 21.40265 ], [ 80.24761, 21.40047 ], [ 80.24708, 21.39298 ], [ 80.24921, 21.38941 ], [ 80.2541, 21.37527 ], [ 80.25553, 21.37663 ], [ 80.26654, 21.37475 ], [ 80.26511, 21.37255 ], [ 80.26635, 21.37187 ], [ 80.26517, 21.368 ], [ 80.26112, 21.35991 ], [ 80.26488, 21.35854 ], [ 80.27613, 21.35785 ], [ 80.29017, 21.35829 ], [ 80.2926, 21.35694 ], [ 80.29517, 21.35302 ], [ 80.29708, 21.35209 ], [ 80.29683, 21.34764 ], [ 80.29778, 21.34385 ], [ 80.29505, 21.34346 ], [ 80.29071, 21.34103 ], [ 80.28758, 21.33479 ], [ 80.28604, 21.33432 ], [ 80.287, 21.32775 ], [ 80.28379, 21.32376 ], [ 80.28218, 21.32325 ], [ 80.2833, 21.32191 ], [ 80.28648, 21.31961 ], [ 80.28861, 21.31931 ], [ 80.29166, 21.31571 ], [ 80.29189, 21.31391 ], [ 80.29651, 21.31788 ], [ 80.29861, 21.32089 ], [ 80.30058, 21.3214 ], [ 80.30499, 21.32047 ], [ 80.30809, 21.32157 ], [ 80.30941, 21.3214 ], [ 80.30924, 21.32084 ], [ 80.3108, 21.32112 ], [ 80.31161, 21.32235 ], [ 80.31342, 21.32152 ], [ 80.31583, 21.32265 ], [ 80.3183, 21.32036 ], [ 80.31775, 21.31625 ], [ 80.32107, 21.30982 ], [ 80.32697, 21.30979 ], [ 80.32803, 21.30855 ], [ 80.32965, 21.30864 ], [ 80.33092, 21.30996 ], [ 80.33514, 21.31133 ], [ 80.3342, 21.30939 ], [ 80.33313, 21.30894 ], [ 80.33352, 21.30635 ], [ 80.33287, 21.3056 ], [ 80.33221, 21.30518 ], [ 80.3305, 21.30616 ], [ 80.33061, 21.30478 ], [ 80.32916, 21.30255 ], [ 80.32528, 21.30198 ], [ 80.32439, 21.30094 ], [ 80.32619, 21.29921 ], [ 80.32678, 21.29533 ], [ 80.32535, 21.29382 ], [ 80.322, 21.29325 ], [ 80.32215, 21.29149 ], [ 80.32103, 21.28986 ], [ 80.32095, 21.28595 ], [ 80.32011, 21.28439 ], [ 80.32086, 21.28252 ], [ 80.31992, 21.27994 ], [ 80.3203, 21.27454 ], [ 80.32131, 21.2722 ], [ 80.3275, 21.26772 ], [ 80.32857, 21.26469 ], [ 80.32828, 21.26321 ], [ 80.33059, 21.26174 ], [ 80.33004, 21.25881 ], [ 80.3318, 21.25757 ], [ 80.33042, 21.25433 ], [ 80.3309, 21.25184 ], [ 80.33005, 21.23363 ], [ 80.34284, 21.23207 ], [ 80.34329, 21.22045 ], [ 80.34063, 21.2141 ], [ 80.34444, 21.20766 ], [ 80.33968, 21.20708 ], [ 80.33586, 21.20295 ], [ 80.33427, 21.20328 ], [ 80.33108, 21.20172 ], [ 80.32273, 21.19337 ], [ 80.31936, 21.19345 ], [ 80.31513, 21.19972 ], [ 80.312, 21.20098 ], [ 80.31216, 21.19376 ], [ 80.31355, 21.18924 ], [ 80.31272, 21.18295 ], [ 80.31273, 21.17066 ], [ 80.31195, 21.16826 ], [ 80.31658, 21.16821 ], [ 80.31363, 21.16413 ], [ 80.31198, 21.1636 ], [ 80.31109, 21.16237 ], [ 80.31163, 21.15959 ], [ 80.30946, 21.15693 ], [ 80.30425, 21.15585 ], [ 80.30361, 21.15449 ], [ 80.302, 21.15455 ], [ 80.29736, 21.15063 ], [ 80.29672, 21.14867 ], [ 80.29259, 21.14872 ], [ 80.29238, 21.14998 ], [ 80.29327, 21.1504 ], [ 80.29235, 21.15104 ], [ 80.28854, 21.15131 ], [ 80.28732, 21.15219 ], [ 80.28406, 21.15242 ], [ 80.28182, 21.1502 ], [ 80.28067, 21.15017 ], [ 80.2811, 21.15125 ], [ 80.27979, 21.15445 ], [ 80.27747, 21.15543 ], [ 80.27392, 21.15499 ], [ 80.27358, 21.15562 ], [ 80.2748, 21.15687 ], [ 80.27552, 21.15965 ], [ 80.27477, 21.16242 ], [ 80.27383, 21.1622 ], [ 80.27359, 21.16412 ], [ 80.27205, 21.16485 ], [ 80.26996, 21.16436 ], [ 80.26966, 21.16567 ], [ 80.2685, 21.16571 ], [ 80.2675, 21.16306 ], [ 80.26495, 21.16206 ], [ 80.26229, 21.16438 ], [ 80.26039, 21.16173 ], [ 80.25685, 21.16358 ], [ 80.25836, 21.16609 ], [ 80.25659, 21.16957 ], [ 80.2583, 21.1737 ], [ 80.2682, 21.17292 ], [ 80.27096, 21.17143 ], [ 80.27315, 21.173 ], [ 80.27515, 21.17746 ], [ 80.27628, 21.17792 ], [ 80.27599, 21.17907 ], [ 80.278, 21.18235 ], [ 80.27823, 21.18977 ], [ 80.28091, 21.19355 ], [ 80.27895, 21.19421 ], [ 80.27991, 21.1986 ], [ 80.27538, 21.20566 ], [ 80.275, 21.20862 ], [ 80.27573, 21.21065 ], [ 80.27403, 21.211 ], [ 80.27312, 21.20949 ], [ 80.27147, 21.21155 ], [ 80.27034, 21.2102 ], [ 80.26905, 21.21109 ], [ 80.26632, 21.20963 ], [ 80.26504, 21.21082 ], [ 80.26288, 21.21009 ], [ 80.26185, 21.21232 ], [ 80.25906, 21.21438 ], [ 80.25506, 21.21209 ], [ 80.25383, 21.21525 ], [ 80.24877, 21.21617 ], [ 80.24743, 21.21552 ], [ 80.24693, 21.21669 ], [ 80.24195, 21.21984 ], [ 80.23976, 21.21878 ], [ 80.23735, 21.22001 ], [ 80.23457, 21.21658 ], [ 80.23193, 21.21623 ], [ 80.23105, 21.21793 ], [ 80.23315, 21.21864 ], [ 80.23356, 21.22004 ], [ 80.23184, 21.2208 ], [ 80.23115, 21.22253 ], [ 80.22861, 21.22188 ], [ 80.2269, 21.22233 ], [ 80.22715, 21.22673 ], [ 80.22616, 21.22841 ], [ 80.22435, 21.22949 ], [ 80.22001, 21.22824 ], [ 80.2138, 21.21987 ], [ 80.21154, 21.2183 ], [ 80.20992, 21.21932 ], [ 80.20519, 21.21973 ], [ 80.20416, 21.22074 ], [ 80.19893, 21.22225 ], [ 80.19613, 21.21944 ], [ 80.19515, 21.22516 ], [ 80.19218, 21.23049 ], [ 80.19136, 21.23581 ], [ 80.19451, 21.2415 ], [ 80.1963, 21.24325 ], [ 80.19767, 21.24798 ], [ 80.18741, 21.2492 ], [ 80.18658, 21.24986 ], [ 80.18011, 21.24862 ], [ 80.17656, 21.24925 ], [ 80.17155, 21.24874 ], [ 80.16639, 21.25048 ], [ 80.16716, 21.25325 ], [ 80.17016, 21.25432 ], [ 80.17188, 21.25854 ], [ 80.16663, 21.26246 ], [ 80.16475, 21.26277 ], [ 80.15894, 21.26237 ], [ 80.15597, 21.26071 ], [ 80.15464, 21.25652 ], [ 80.15392, 21.25622 ], [ 80.15387, 21.25267 ], [ 80.15113, 21.25136 ], [ 80.14785, 21.25116 ], [ 80.14567, 21.25559 ], [ 80.14302, 21.25789 ], [ 80.14513, 21.26011 ], [ 80.14349, 21.26155 ], [ 80.14364, 21.26315 ], [ 80.13841, 21.26552 ], [ 80.13702, 21.26551 ], [ 80.13502, 21.26346 ], [ 80.13262, 21.26608 ], [ 80.12993, 21.26474 ], [ 80.12774, 21.26534 ], [ 80.12639, 21.2684 ], [ 80.12498, 21.26601 ], [ 80.12055, 21.26481 ], [ 80.11933, 21.26887 ], [ 80.11781, 21.2682 ], [ 80.11363, 21.26913 ], [ 80.10958, 21.27161 ], [ 80.10706, 21.27065 ], [ 80.10352, 21.27265 ], [ 80.10385, 21.27349 ], [ 80.10251, 21.27291 ], [ 80.10142, 21.27378 ], [ 80.09606, 21.27346 ], [ 80.09488, 21.277 ], [ 80.09251, 21.27753 ], [ 80.09078, 21.27699 ], [ 80.08957, 21.27757 ], [ 80.08849, 21.28062 ], [ 80.08537, 21.28114 ], [ 80.08232, 21.28364 ], [ 80.07778, 21.28504 ], [ 80.07154, 21.28381 ], [ 80.06731, 21.28488 ], [ 80.05508, 21.28531 ], [ 80.05843, 21.289 ], [ 80.05966, 21.29463 ], [ 80.06278, 21.29886 ], [ 80.06984, 21.30502 ], [ 80.07021, 21.31005 ], [ 80.06807, 21.30989 ], [ 80.0669, 21.31335 ], [ 80.07015, 21.32267 ], [ 80.07047, 21.32663 ], [ 80.06875, 21.32672 ], [ 80.07216, 21.34269 ], [ 80.07513, 21.34988 ], [ 80.07645, 21.3591 ], [ 80.07886, 21.36459 ], [ 80.08143, 21.37584 ], [ 80.07959, 21.3757 ], [ 80.07509, 21.38153 ], [ 80.0747, 21.38313 ], [ 80.07544, 21.38337 ], [ 80.07466, 21.38491 ], [ 80.07204, 21.3859 ], [ 80.07274, 21.39176 ], [ 80.07672, 21.393 ], [ 80.07671, 21.39575 ], [ 80.08145, 21.39607 ], [ 80.08472, 21.39763 ], [ 80.09394, 21.39912 ], [ 80.10227, 21.3989 ], [ 80.10242, 21.39979 ], [ 80.10363, 21.39981 ], [ 80.10456, 21.40085 ], [ 80.10408, 21.40208 ], [ 80.10487, 21.40249 ], [ 80.10491, 21.40473 ], [ 80.10708, 21.40674 ], [ 80.10825, 21.4099 ], [ 80.10622, 21.42534 ], [ 80.10705, 21.42688 ], [ 80.10816, 21.42669 ], [ 80.11096, 21.42448 ] ], [ [ 80.30675, 21.28037 ], [ 80.30731, 21.27951 ], [ 80.30631, 21.27834 ], [ 80.30797, 21.27693 ], [ 80.3084, 21.27466 ], [ 80.30786, 21.2722 ], [ 80.30678, 21.27155 ], [ 80.30877, 21.2691 ], [ 80.31111, 21.26858 ], [ 80.31418, 21.27744 ], [ 80.31177, 21.27789 ], [ 80.30776, 21.28253 ], [ 80.30675, 21.28037 ] ] ] } },
{ "type": "Feature", "properties": { "OBJECTID": 3964, "state_lgd": "27", "state_name": "MAHARASHTRA", "district_lgd": "507", "district_name": "GONDIA", "district_name_source": "district_table", "subdistrict_lgd": "4047", "subdistrict_name": "AMGAON", "subdistrict_type": "", "name_corrupted": false, "remarks": "", "label_lon": 80.355809837577098, "label_lat": 21.378272449522544 }, "geometry": { "type": "MultiPolygon", "coordinates": [ [ [ [ 80.30776, 21.28253 ], [ 80.31177, 21.27789 ], [ 80.31418, 21.27744 ], [ 80.31111, 21.26858 ], [ 80.30877, 21.2691 ], [ 80.30678, 21.27155 ], [ 80.30786, 21.2722 ], [ 80.3084, 21.27466 ], [ 80.30797, 21.27693 ], [ 80.30627, 21.27851 ], [ 80.3073, 21.27946 ], [ 80.30662, 21.28086 ], [ 80.30776, 21.28253 ] ] ], [ [ [ 80.37804, 21.51724 ], [ 80.36971, 21.51474 ], [ 80.36516, 21.51463 ], [ 80.36445, 21.51313 ], [ 80.35847, 21.51483 ], [ 80.35798, 21.51395 ], [ 80.35584, 21.51377 ], [ 80.35373, 21.51253 ], [ 80.35201, 21.51297 ], [ 80.35082, 21.51027 ], [ 80.34815, 21.50964 ], [ 80.35128, 21.50806 ], [ 80.35419, 21.5045 ], [ 80.3561, 21.50372 ], [ 80.36076, 21.49789 ], [ 80.363, 21.49737 ], [ 80.36359, 21.49829 ], [ 80.36485, 21.49662 ], [ 80.36654, 21.49747 ], [ 80.36775, 21.50022 ], [ 80.3679, 21.49944 ], [ 80.3707, 21.49956 ], [ 80.37121, 21.50095 ], [ 80.37564, 21.49971 ], [ 80.37381, 21.49567 ], [ 80.37285, 21.49543 ], [ 80.37171, 21.49359 ], [ 80.37185, 21.49289 ], [ 80.37546, 21.49265 ], [ 80.37501, 21.49032 ], [ 80.37573, 21.48854 ], [ 80.37409, 21.48808 ], [ 80.3756, 21.48803 ], [ 80.37852, 21.48944 ], [ 80.37836, 21.49008 ], [ 80.3802, 21.49133 ], [ 80.38174, 21.49046 ], [ 80.38357, 21.49085 ], [ 80.38469, 21.48946 ], [ 80.38997, 21.4886 ], [ 80.39211, 21.48671 ], [ 80.39245, 21.48513 ], [ 80.39042, 21.47941 ], [ 80.39177, 21.47698 ], [ 80.39722, 21.47159 ], [ 80.40372, 21.46752 ], [ 80.40806, 21.46796 ], [ 80.40968, 21.4664 ], [ 80.41108, 21.45988 ], [ 80.41389, 21.45731 ], [ 80.41799, 21.4485 ], [ 80.4187, 21.4426 ], [ 80.42215, 21.44053 ], [ 80.41628, 21.43626 ], [ 80.40845, 21.42748 ], [ 80.4046, 21.42502 ], [ 80.40568, 21.42299 ], [ 80.40856, 21.42155 ], [ 80.40888, 21.41904 ], [ 80.4077, 21.4177 ], [ 80.39812, 21.4123 ], [ 80.39667, 21.41068 ], [ 80.39581, 21.40509 ], [ 80.39638, 21.40298 ], [ 80.3996, 21.39822 ], [ 80.40676, 21.38171 ], [ 80.41028, 21.37851 ], [ 80.40847, 21.3759 ], [ 80.40789, 21.3727 ], [ 80.41167, 21.36634 ], [ 80.41222, 21.36833 ], [ 80.4134, 21.36914 ], [ 80.41636, 21.36765 ], [ 80.4163, 21.36663 ], [ 80.41715, 21.36612 ], [ 80.41669, 21.36532 ], [ 80.41805, 21.36433 ], [ 80.41737, 21.36348 ], [ 80.42028, 21.36208 ], [ 80.42024, 21.36029 ], [ 80.42176, 21.36039 ], [ 80.42262, 21.35889 ], [ 80.42489, 21.35821 ], [ 80.42547, 21.35641 ], [ 80.4263, 21.35724 ], [ 80.42667, 21.35535 ], [ 80.42935, 21.35389 ], [ 80.43157, 21.35377 ], [ 80.43596, 21.34371 ], [ 80.4338, 21.34096 ], [ 80.43381, 21.33996 ], [ 80.4302, 21.33614 ], [ 80.4326, 21.33536 ], [ 80.43229, 21.33356 ], [ 80.43449, 21.3336 ], [ 80.43626, 21.33267 ], [ 80.4342, 21.32514 ], [ 80.43348, 21.32473 ], [ 80.41922, 21.32685 ], [ 80.41522, 21.32827 ], [ 80.41379, 21.32565 ], [ 80.41368, 21.32243 ], [ 80.41267, 21.32182 ], [ 80.41443, 21.32023 ], [ 80.41555, 21.31776 ], [ 80.41329, 21.31785 ], [ 80.41405, 21.31743 ], [ 80.41358, 21.31508 ], [ 80.41111, 21.3158 ], [ 80.41196, 21.31353 ], [ 80.41414, 21.31179 ], [ 80.41413, 21.31263 ], [ 80.41533, 21.31319 ], [ 80.41513, 21.31185 ], [ 80.41708, 21.31065 ], [ 80.41664, 21.30875 ], [ 80.4149, 21.30868 ], [ 80.41313, 21.30747 ], [ 80.41496, 21.30623 ], [ 80.41465, 21.30456 ], [ 80.41676, 21.30504 ], [ 80.41755, 21.30216 ], [ 80.42108, 21.3018 ], [ 80.42154, 21.29995 ], [ 80.42274, 21.29947 ], [ 80.42268, 21.29824 ], [ 80.42399, 21.29685 ], [ 80.42427, 21.29474 ], [ 80.42328, 21.29444 ], [ 80.42299, 21.29321 ], [ 80.42236, 21.29402 ], [ 80.41938, 21.2932 ], [ 80.4193, 21.29096 ], [ 80.41606, 21.28934 ], [ 80.42789, 21.28715 ], [ 80.42813, 21.2852 ], [ 80.42689, 21.28419 ], [ 80.42791, 21.28178 ], [ 80.42702, 21.27954 ], [ 80.4244, 21.27901 ], [ 80.42305, 21.27627 ], [ 80.42112, 21.27479 ], [ 80.4202, 21.27493 ], [ 80.42007, 21.27413 ], [ 80.41687, 21.27509 ], [ 80.4161, 21.27339 ], [ 80.41427, 21.27347 ], [ 80.41376, 21.27225 ], [ 80.41239, 21.27226 ], [ 80.40945, 21.26657 ], [ 80.40554, 21.2645 ], [ 80.40367, 21.26123 ], [ 80.40209, 21.26089 ], [ 80.40073, 21.26164 ], [ 80.40047, 21.26057 ], [ 80.39653, 21.25747 ], [ 80.3947, 21.25794 ], [ 80.39156, 21.25589 ], [ 80.39102, 21.25459 ], [ 80.3869, 21.25356 ], [ 80.38281, 21.25064 ], [ 80.38032, 21.25027 ], [ 80.37532, 21.25109 ], [ 80.36832, 21.25428 ], [ 80.3646, 21.25793 ], [ 80.36457, 21.25536 ], [ 80.36279, 21.25442 ], [ 80.35873, 21.2482 ], [ 80.35128, 21.24793 ], [ 80.34618, 21.24486 ], [ 80.34466, 21.24165 ], [ 80.34166, 21.24093 ], [ 80.34057, 21.23978 ], [ 80.34065, 21.23594 ], [ 80.33952, 21.23242 ], [ 80.33762, 21.23221 ], [ 80.33565, 21.23312 ], [ 80.33005, 21.23363 ], [ 80.3309, 21.25184 ], [ 80.33042, 21.25433 ], [ 80.3318, 21.25757 ], [ 80.33004, 21.25881 ], [ 80.33059, 21.26174 ], [ 80.32828, 21.26321 ], [ 80.32857, 21.26469 ], [ 80.3275, 21.26772 ], [ 80.32131, 21.2722 ], [ 80.3203, 21.27454 ], [ 80.31991, 21.27975 ], [ 80.32086, 21.28248 ], [ 80.32011, 21.28439 ], [ 80.32095, 21.28595 ], [ 80.32103, 21.28986 ], [ 80.32215, 21.29149 ], [ 80.322, 21.29325 ], [ 80.32535, 21.29382 ], [ 80.32676, 21.29522 ], [ 80.32619, 21.29921 ], [ 80.32439, 21.30094 ], [ 80.32528, 21.30198 ], [ 80.32916, 21.30255 ], [ 80.33061, 21.30478 ], [ 80.3305, 21.30616 ], [ 80.33221, 21.30518 ], [ 80.33287, 21.3056 ], [ 80.33352, 21.30635 ], [ 80.33313, 21.30894 ], [ 80.3342, 21.30939 ], [ 80.33514, 21.31133 ], [ 80.33092, 21.30996 ], [ 80.32965, 21.30864 ], [ 80.32803, 21.30855 ], [ 80.32697, 21.30979 ], [ 80.32107, 21.30982 ], [ 80.31775, 21.31625 ], [ 80.3183, 21.32036 ], [ 80.31583, 21.32265 ], [ 80.31342, 21.32152 ], [ 80.31161, 21.32235 ], [ 80.3108, 21.32112 ], [ 80.30924, 21.32084 ], [ 80.30941, 21.3214 ], [ 80.30809, 21.32157 ], [ 80.30499, 21.32047 ], [ 80.30058, 21.3214 ], [ 80.29861, 21.32089 ], [ 80.29651, 21.31788 ], [ 80.29189, 21.31391 ], [ 80.29166, 21.31571 ], [ 80.28861, 21.31931 ], [ 80.28648, 21.31961 ], [ 80.28218, 21.32325 ], [ 80.28379, 21.32376 ], [ 80.287, 21.32775 ], [ 80.28675, 21.33251 ], [ 80.28588, 21.33369 ], [ 80.28758, 21.33479 ], [ 80.28959, 21.33962 ], [ 80.29135, 21.34152 ], [ 80.29505, 21.34346 ], [ 80.29778, 21.34385 ], [ 80.29683, 21.34764 ], [ 80.29708, 21.35209 ], [ 80.29517, 21.35302 ], [ 80.2926, 21.35694 ], [ 80.29017, 21.35829 ], [ 80.27613, 21.35785 ], [ 80.26488, 21.35854 ], [ 80.26112, 21.35991 ], [ 80.26517, 21.368 ], [ 80.26635, 21.37187 ], [ 80.26511, 21.37255 ], [ 80.26604, 21.37454 ], [ 80.26779, 21.3753 ], [ 80.26918, 21.37736 ], [ 80.27152, 21.38505 ], [ 80.2791, 21.38814 ], [ 80.2824, 21.39199 ], [ 80.28343, 21.39225 ], [ 80.28356, 21.39325 ], [ 80.28942, 21.39147 ], [ 80.29015, 21.39271 ], [ 80.29187, 21.39768 ], [ 80.29141, 21.39862 ], [ 80.2924, 21.40219 ], [ 80.29143, 21.40449 ], [ 80.28852, 21.40692 ], [ 80.28814, 21.40883 ], [ 80.28933, 21.41111 ], [ 80.29111, 21.41251 ], [ 80.29093, 21.41351 ], [ 80.29216, 21.41359 ], [ 80.2929, 21.41512 ], [ 80.2943, 21.41572 ], [ 80.29446, 21.41768 ], [ 80.293, 21.41839 ], [ 80.29483, 21.4184 ], [ 80.29385, 21.42217 ], [ 80.29528, 21.42594 ], [ 80.29663, 21.42661 ], [ 80.29589, 21.42718 ], [ 80.29641, 21.42898 ], [ 80.2955, 21.4304 ], [ 80.29562, 21.43154 ], [ 80.29695, 21.43267 ], [ 80.29638, 21.43324 ], [ 80.29911, 21.43333 ], [ 80.30148, 21.43115 ], [ 80.30278, 21.43089 ], [ 80.30326, 21.42958 ], [ 80.30478, 21.43 ], [ 80.30678, 21.42825 ], [ 80.30536, 21.43313 ], [ 80.30627, 21.43815 ], [ 80.30762, 21.44092 ], [ 80.30983, 21.44295 ], [ 80.3119, 21.44776 ], [ 80.31358, 21.44939 ], [ 80.31088, 21.45596 ], [ 80.30961, 21.45729 ], [ 80.31039, 21.46064 ], [ 80.31131, 21.46153 ], [ 80.31095, 21.4634 ], [ 80.31023, 21.46332 ], [ 80.30961, 21.46476 ], [ 80.31042, 21.46566 ], [ 80.30958, 21.46634 ], [ 80.31033, 21.46716 ], [ 80.30888, 21.46908 ], [ 80.30934, 21.47008 ], [ 80.31005, 21.46999 ], [ 80.30941, 21.47209 ], [ 80.31076, 21.47272 ], [ 80.30913, 21.47476 ], [ 80.30978, 21.4749 ], [ 80.30964, 21.47669 ], [ 80.30863, 21.47801 ], [ 80.31036, 21.47986 ], [ 80.30989, 21.4836 ], [ 80.31063, 21.48341 ], [ 80.31173, 21.48499 ], [ 80.31177, 21.4861 ], [ 80.3109, 21.4865 ], [ 80.31185, 21.48947 ], [ 80.31557, 21.49082 ], [ 80.31601, 21.48909 ], [ 80.31719, 21.48869 ], [ 80.31962, 21.48965 ], [ 80.3213, 21.49137 ], [ 80.32309, 21.49638 ], [ 80.3243, 21.49635 ], [ 80.32527, 21.49435 ], [ 80.32615, 21.49418 ], [ 80.32761, 21.49703 ], [ 80.33305, 21.49761 ], [ 80.33844, 21.50043 ], [ 80.34126, 21.49973 ], [ 80.34263, 21.50221 ], [ 80.34563, 21.50259 ], [ 80.34501, 21.50427 ], [ 80.34331, 21.50395 ], [ 80.34258, 21.50472 ], [ 80.34203, 21.50806 ], [ 80.33994, 21.5102 ], [ 80.33821, 21.51043 ], [ 80.33991, 21.51245 ], [ 80.34022, 21.51557 ], [ 80.33579, 21.5169 ], [ 80.33626, 21.5206 ], [ 80.33476, 21.52236 ], [ 80.33581, 21.5242 ], [ 80.33598, 21.52776 ], [ 80.33274, 21.53091 ], [ 80.32958, 21.53174 ], [ 80.32653, 21.53658 ], [ 80.32846, 21.54159 ], [ 80.32766, 21.54568 ], [ 80.32845, 21.54761 ], [ 80.33016, 21.54925 ], [ 80.33131, 21.54754 ], [ 80.3385, 21.54352 ], [ 80.34434, 21.53867 ], [ 80.35436, 21.5366 ], [ 80.36015, 21.53447 ], [ 80.36313, 21.53248 ], [ 80.36606, 21.52906 ], [ 80.36967, 21.52843 ], [ 80.37548, 21.5243 ], [ 80.37733, 21.5219 ], [ 80.37804, 21.51724 ] ] ] ] } },
{ "type": "Feature", "properties": { "OBJECTID": 3965, "state_lgd": "27", "state_name": "MAHARASHTRA", "district_lgd": "507", "district_name": "GONDIA", "district_name_source": "district_table", "subdistrict_lgd": "4048", "subdistrict_name": "SALEKASA", "subdistrict_type": "", "name_corrupted": false, "remarks": "", "label_lon": 80.518674483100511, "label_lat": 21.285534334169466 }, "geometry": { "type": "Polygon", "coordinates": [ [ [ 80.66004, 21.33408 ], [ 80.66314, 21.33437 ], [ 80.66495, 21.33187 ], [ 80.66556, 21.32825 ], [ 80.66775, 21.32655 ], [ 80.6712, 21.32565 ], [ 80.67139, 21.32443 ], [ 80.67487, 21.32185 ], [ 80.67534, 21.31775 ], [ 80.6778, 21.31527 ], [ 80.68156, 21.31357 ], [ 80.68147, 21.30958 ], [ 80.6789, 21.30333 ], [ 80.67957, 21.29884 ], [ 80.67586, 21.29475 ], [ 80.66997, 21.29116 ], [ 80.66151, 21.29131 ], [ 80.65881, 21.28669 ], [ 80.65908, 21.28195 ], [ 80.65526, 21.28096 ], [ 80.65083, 21.27756 ], [ 80.64917, 21.27352 ], [ 80.64879, 21.26216 ], [ 80.64251, 21.24984 ], [ 80.63926, 21.24732 ], [ 80.635, 21.24748 ], [ 80.63407, 21.24634 ], [ 80.62711, 21.24324 ], [ 80.62312, 21.24009 ], [ 80.61792, 21.23282 ], [ 80.61702, 21.22929 ], [ 80.61267, 21.22596 ], [ 80.60592, 21.2242 ], [ 80.59819, 21.22548 ], [ 80.58758, 21.2221 ], [ 80.57855, 21.2179 ], [ 80.57551, 21.21494 ], [ 80.57072, 21.20675 ], [ 80.5684, 21.20497 ], [ 80.55288, 21.20077 ], [ 80.54144, 21.20109 ], [ 80.52963, 21.20533 ], [ 80.51776, 21.19281 ], [ 80.51656, 21.18601 ], [ 80.51499, 21.18303 ], [ 80.51257, 21.18354 ], [ 80.50927, 21.18602 ], [ 80.50731, 21.18463 ], [ 80.50259, 21.18532 ], [ 80.50044, 21.18273 ], [ 80.49361, 21.1796 ], [ 80.49206, 21.17702 ], [ 80.48675, 21.17676 ], [ 80.4808, 21.17161 ], [ 80.47861, 21.17068 ], [ 80.4757, 21.17099 ], [ 80.47337, 21.17368 ], [ 80.46959, 21.1733 ], [ 80.46676, 21.17504 ], [ 80.46422, 21.17496 ], [ 80.46372, 21.1764 ], [ 80.4578, 21.18306 ], [ 80.45789, 21.18962 ], [ 80.44911, 21.19158 ], [ 80.44603, 21.19491 ], [ 80.43907, 21.19785 ], [ 80.43388, 21.19816 ], [ 80.42916, 21.19693 ], [ 80.42836, 21.19794 ], [ 80.42474, 21.1984 ], [ 80.42459, 21.20137 ], [ 80.4222, 21.20156 ], [ 80.42161, 21.20245 ], [ 80.42123, 21.20709 ], [ 80.42235, 21.20925 ], [ 80.42131, 21.21234 ], [ 80.4137, 21.21443 ], [ 80.41339, 21.21618 ], [ 80.41123, 21.21827 ], [ 80.41026, 21.22207 ], [ 80.40792, 21.2257 ], [ 80.40627, 21.22738 ], [ 80.40333, 21.22866 ], [ 80.40298, 21.23024 ], [ 80.39945, 21.23257 ], [ 80.39699, 21.2363 ], [ 80.39549, 21.23765 ], [ 80.39311, 21.2377 ], [ 80.3931, 21.23909 ], [ 80.38789, 21.24407 ], [ 80.38122, 21.24573 ], [ 80.37861, 21.24805 ], [ 80.37861, 21.25047 ], [ 80.3839, 21.25104 ], [ 80.3869, 21.25356 ], [ 80.39102, 21.25459 ], [ 80.39156, 21.25589 ], [ 80.3947, 21.25794 ], [ 80.39653, 21.25747 ], [ 80.40047, 21.26057 ], [ 80.40073, 21.26164 ], [ 80.40209, 21.26089 ], [ 80.40367, 21.26123 ], [ 80.40554, 21.2645 ], [ 80.40945, 21.26657 ], [ 80.41239, 21.27226 ], [ 80.41376, 21.27225 ], [ 80.41427, 21.27347 ], [ 80.4161, 21.27339 ], [ 80.41687, 21.27509 ], [ 80.42007, 21.27413 ], [ 80.4202, 21.27493 ], [ 80.42112, 21.27479 ], [ 80.42305, 21.27627 ], [ 80.4244, 21.27901 ], [ 80.42702, 21.27954 ], [ 80.42791, 21.2817 ], [ 80.42689, 21.28419 ], [ 80.42813, 21.2852 ], [ 80.42789, 21.28715 ], [ 80.41606, 21.28934 ], [ 80.4193, 21.29096 ], [ 80.41938, 21.2932 ], [ 80.42236, 21.29402 ], [ 80.42299, 21.29321 ], [ 80.42328, 21.29444 ], [ 80.42427, 21.29474 ], [ 80.42399, 21.29685 ], [ 80.42268, 21.29824 ], [ 80.42274, 21.29947 ], [ 80.42154, 21.29995 ], [ 80.42108, 21.3018 ], [ 80.41755, 21.30216 ], [ 80.41676, 21.30504 ], [ 80.41465, 21.30456 ], [ 80.41496, 21.30623 ], [ 80.41313, 21.30747 ], [ 80.4149, 21.30868 ], [ 80.41664, 21.30875 ], [ 80.41708, 21.31065 ], [ 80.41513, 21.31185 ], [ 80.41533, 21.31319 ], [ 80.41413, 21.31263 ], [ 80.41414, 21.31179 ], [ 80.41196, 21.31353 ], [ 80.41111, 21.3158 ], [ 80.41358, 21.31508 ], [ 80.41405, 21.31743 ], [ 80.41329, 21.31785 ], [ 80.41555, 21.31776 ], [ 80.41443, 21.32023 ], [ 80.41267, 21.32182 ], [ 80.41368, 21.32243 ], [ 80.41379, 21.32565 ], [ 80.41522, 21.32827 ], [ 80.41922, 21.32685 ], [ 80.4303, 21.32505 ], [ 80.4342, 21.32514 ], [ 80.43627, 21.33278 ], [ 80.43229, 21.33356 ], [ 80.4326, 21.33536 ], [ 80.43054, 21.33564 ], [ 80.4302, 21.33641 ], [ 80.43381, 21.33996 ], [ 80.4338, 21.34096 ], [ 80.43596, 21.34371 ], [ 80.43157, 21.35377 ], [ 80.42935, 21.35389 ], [ 80.42667, 21.35535 ], [ 80.4263, 21.35724 ], [ 80.42547, 21.35641 ], [ 80.42489, 21.35821 ], [ 80.42262, 21.35889 ], [ 80.42176, 21.36039 ], [ 80.42024, 21.36029 ], [ 80.42028, 21.36208 ], [ 80.41737, 21.36348 ], [ 80.41805, 21.36433 ], [ 80.41669, 21.36532 ], [ 80.41715, 21.36612 ], [ 80.4163, 21.36663 ], [ 80.41636, 21.36765 ], [ 80.4134, 21.36914 ], [ 80.41222, 21.36833 ], [ 80.41167, 21.36634 ], [ 80.40805, 21.37183 ], [ 80.40847, 21.3759 ], [ 80.41083, 21.37852 ], [ 80.4128, 21.37637 ], [ 80.41532, 21.37662 ], [ 80.41584, 21.37533 ], [ 80.4188, 21.37594 ], [ 80.42456, 21.37535 ], [ 80.43061, 21.37626 ], [ 80.43246, 21.37383 ], [ 80.43705, 21.37268 ], [ 80.44612, 21.37109 ], [ 80.44863, 21.37205 ], [ 80.45174, 21.37806 ], [ 80.44993, 21.3863 ], [ 80.45056, 21.38658 ], [ 80.44973, 21.38732 ], [ 80.45104, 21.38784 ], [ 80.45116, 21.39 ], [ 80.45275, 21.39146 ], [ 80.45235, 21.39234 ], [ 80.45375, 21.39256 ], [ 80.4542, 21.39526 ], [ 80.45632, 21.39611 ], [ 80.4558, 21.39826 ], [ 80.45679, 21.39839 ], [ 80.45826, 21.40037 ], [ 80.45701, 21.40046 ], [ 80.45756, 21.40268 ], [ 80.46235, 21.40263 ], [ 80.47093, 21.39586 ], [ 80.47364, 21.3969 ], [ 80.47647, 21.3949 ], [ 80.47979, 21.39673 ], [ 80.47975, 21.39973 ], [ 80.48109, 21.40094 ], [ 80.48231, 21.40067 ], [ 80.48341, 21.39881 ], [ 80.48419, 21.39534 ], [ 80.48752, 21.39796 ], [ 80.49054, 21.39819 ], [ 80.49247, 21.39661 ], [ 80.49433, 21.39752 ], [ 80.49521, 21.39658 ], [ 80.49839, 21.39691 ], [ 80.50097, 21.39851 ], [ 80.50168, 21.3956 ], [ 80.50462, 21.39434 ], [ 80.50841, 21.39082 ], [ 80.51122, 21.39284 ], [ 80.51501, 21.39176 ], [ 80.51712, 21.3952 ], [ 80.51911, 21.393 ], [ 80.52393, 21.39122 ], [ 80.52519, 21.39401 ], [ 80.52796, 21.39476 ], [ 80.52878, 21.39353 ], [ 80.529, 21.38813 ], [ 80.53168, 21.38475 ], [ 80.5318, 21.38207 ], [ 80.53794, 21.38317 ], [ 80.5392, 21.38271 ], [ 80.54038, 21.37915 ], [ 80.54014, 21.37701 ], [ 80.54176, 21.37491 ], [ 80.54316, 21.37071 ], [ 80.54848, 21.37114 ], [ 80.55083, 21.36874 ], [ 80.55333, 21.36857 ], [ 80.5543, 21.3665 ], [ 80.55841, 21.36734 ], [ 80.56074, 21.36365 ], [ 80.5622, 21.36489 ], [ 80.56388, 21.36497 ], [ 80.56681, 21.36018 ], [ 80.57019, 21.35752 ], [ 80.56955, 21.35593 ], [ 80.56632, 21.35532 ], [ 80.56541, 21.35399 ], [ 80.56584, 21.35193 ], [ 80.56503, 21.3494 ], [ 80.56756, 21.34823 ], [ 80.56621, 21.34651 ], [ 80.5667, 21.34565 ], [ 80.56943, 21.34346 ], [ 80.57347, 21.34287 ], [ 80.57657, 21.34687 ], [ 80.58137, 21.34699 ], [ 80.58457, 21.34423 ], [ 80.5869, 21.34455 ], [ 80.58947, 21.34372 ], [ 80.59142, 21.34092 ], [ 80.59059, 21.33572 ], [ 80.58934, 21.3336 ], [ 80.59755, 21.33168 ], [ 80.5983, 21.32807 ], [ 80.5992, 21.32712 ], [ 80.60765, 21.32386 ], [ 80.60851, 21.32433 ], [ 80.60893, 21.32716 ], [ 80.61116, 21.32761 ], [ 80.61435, 21.32596 ], [ 80.61982, 21.3209 ], [ 80.62134, 21.32037 ], [ 80.62548, 21.32185 ], [ 80.63025, 21.32224 ], [ 80.64491, 21.32804 ], [ 80.64821, 21.32816 ], [ 80.65191, 21.32713 ], [ 80.65549, 21.32926 ], [ 80.66004, 21.33408 ] ] ] } },
{ "type": "Feature", "properties": { "OBJECTID": 3987, "state_lgd": "27", "state_name": "MAHARASHTRA", "district_lgd": "507", "district_name": "GONDIA", "district_name_source": "district_table", "subdistrict_lgd": "4044", "subdistrict_name": "TIRORA", "subdistrict_type": "", "name_corrupted": false, "remarks": "", "label_lon": 79.947032870329551, "label_lat": 21.372427506416674 }, "geometry": { "type": "Polygon", "coordinates": [ [ [ 79.97766, 21.55249 ], [ 79.98686, 21.53922 ], [ 79.98987, 21.53597 ], [ 79.98842, 21.53299 ], [ 79.98594, 21.53188 ], [ 79.98654, 21.52772 ], [ 79.98719, 21.52734 ], [ 79.98748, 21.52871 ], [ 79.99029, 21.52945 ], [ 79.99142, 21.52656 ], [ 79.99109, 21.52533 ], [ 79.99406, 21.5236 ], [ 79.99389, 21.52187 ], [ 79.99625, 21.52144 ], [ 79.99837, 21.52266 ], [ 80.00016, 21.51934 ], [ 80.00215, 21.51958 ], [ 80.00217, 21.51804 ], [ 80.00415, 21.51781 ], [ 80.00696, 21.51882 ], [ 80.00862, 21.52229 ], [ 80.01023, 21.52244 ], [ 80.01056, 21.52502 ], [ 80.0144, 21.52482 ], [ 80.01625, 21.52364 ], [ 80.01755, 21.52421 ], [ 80.01738, 21.52267 ], [ 80.01981, 21.52139 ], [ 80.0215, 21.523 ], [ 80.02469, 21.52313 ], [ 80.02735, 21.52226 ], [ 80.02875, 21.52263 ], [ 80.02969, 21.52406 ], [ 80.03187, 21.52421 ], [ 80.03849, 21.5234 ], [ 80.03831, 21.52286 ], [ 80.03944, 21.5226 ], [ 80.03906, 21.52126 ], [ 80.04077, 21.52051 ], [ 80.04111, 21.51828 ], [ 80.04098, 21.51439 ], [ 80.03972, 21.51004 ], [ 80.03886, 21.5101 ], [ 80.03779, 21.50818 ], [ 80.03881, 21.50621 ], [ 80.03806, 21.50546 ], [ 80.03811, 21.50378 ], [ 80.03956, 21.50201 ], [ 80.04156, 21.50188 ], [ 80.0406, 21.49925 ], [ 80.04267, 21.49865 ], [ 80.04333, 21.49602 ], [ 80.04162, 21.49489 ], [ 80.04077, 21.49217 ], [ 80.04269, 21.49166 ], [ 80.04379, 21.4904 ], [ 80.04351, 21.48916 ], [ 80.04126, 21.48653 ], [ 80.04032, 21.48717 ], [ 80.03941, 21.48562 ], [ 80.03791, 21.48602 ], [ 80.03767, 21.48375 ], [ 80.03571, 21.4838 ], [ 80.03428, 21.48293 ], [ 80.03336, 21.48199 ], [ 80.03442, 21.48063 ], [ 80.03396, 21.47984 ], [ 80.03231, 21.47956 ], [ 80.03121, 21.47702 ], [ 80.03043, 21.47717 ], [ 80.02944, 21.47536 ], [ 80.02821, 21.47559 ], [ 80.02862, 21.4747 ], [ 80.02746, 21.47463 ], [ 80.02817, 21.4732 ], [ 80.0276, 21.47119 ], [ 80.02844, 21.47112 ], [ 80.02863, 21.47021 ], [ 80.02714, 21.46907 ], [ 80.02762, 21.46852 ], [ 80.01653, 21.46783 ], [ 80.00926, 21.46999 ], [ 80.0069, 21.46668 ], [ 80.00523, 21.46667 ], [ 80.0025, 21.46437 ], [ 80.00222, 21.46084 ], [ 80.00055, 21.45711 ], [ 80.00185, 21.45606 ], [ 80.00145, 21.45442 ], [ 80.0032, 21.45255 ], [ 80.00364, 21.45039 ], [ 80.00495, 21.45002 ], [ 80.00454, 21.44852 ], [ 80.00258, 21.44806 ], [ 80.00301, 21.44659 ], [ 80.00217, 21.44556 ], [ 80.00334, 21.44474 ], [ 80.00516, 21.44555 ], [ 80.0064, 21.44496 ], [ 80.00715, 21.44153 ], [ 80.00892, 21.44042 ], [ 80.01411, 21.43978 ], [ 80.01462, 21.4384 ], [ 80.0114, 21.4328 ], [ 80.01176, 21.43058 ], [ 80.01043, 21.42946 ], [ 80.00997, 21.42646 ], [ 80.00874, 21.42653 ], [ 80.00794, 21.42333 ], [ 80.00581, 21.42131 ], [ 80.00518, 21.41954 ], [ 80.00034, 21.41678 ], [ 80.00044, 21.41295 ], [ 80.0027, 21.41203 ], [ 80.00362, 21.40917 ], [ 80.0057, 21.4078 ], [ 80.00925, 21.40698 ], [ 80.0199, 21.40954 ], [ 80.02447, 21.40879 ], [ 80.02574, 21.40915 ], [ 80.02627, 21.41048 ], [ 80.03121, 21.41048 ], [ 80.03266, 21.40426 ], [ 80.03421, 21.40121 ], [ 80.03422, 21.39917 ], [ 80.04121, 21.39674 ], [ 80.04493, 21.39638 ], [ 80.04697, 21.39916 ], [ 80.04977, 21.39805 ], [ 80.05023, 21.39625 ], [ 80.05177, 21.39583 ], [ 80.05155, 21.39505 ], [ 80.05275, 21.39432 ], [ 80.0565, 21.39447 ], [ 80.05673, 21.39573 ], [ 80.05809, 21.39563 ], [ 80.05852, 21.39821 ], [ 80.05761, 21.39915 ], [ 80.05901, 21.40027 ], [ 80.05892, 21.40167 ], [ 80.0614, 21.40162 ], [ 80.0623, 21.40371 ], [ 80.06452, 21.40355 ], [ 80.06567, 21.4047 ], [ 80.06664, 21.4039 ], [ 80.06754, 21.40489 ], [ 80.06893, 21.4049 ], [ 80.07356, 21.40339 ], [ 80.07204, 21.3859 ], [ 80.07466, 21.38491 ], [ 80.07544, 21.38337 ], [ 80.0747, 21.38313 ], [ 80.07509, 21.38153 ], [ 80.07959, 21.3757 ], [ 80.08143, 21.37584 ], [ 80.07886, 21.36459 ], [ 80.07645, 21.3591 ], [ 80.07513, 21.34988 ], [ 80.07216, 21.34269 ], [ 80.06875, 21.32672 ], [ 80.07047, 21.32663 ], [ 80.07015, 21.32267 ], [ 80.0669, 21.31335 ], [ 80.06807, 21.30989 ], [ 80.07021, 21.31005 ], [ 80.06974, 21.30467 ], [ 80.06278, 21.29886 ], [ 80.05966, 21.29463 ], [ 80.05843, 21.289 ], [ 80.05508, 21.28531 ], [ 80.03868, 21.29112 ], [ 80.03713, 21.2871 ], [ 80.03174, 21.27966 ], [ 80.03171, 21.27784 ], [ 80.03006, 21.27439 ], [ 80.02984, 21.26728 ], [ 80.03155, 21.26532 ], [ 80.03092, 21.26078 ], [ 80.02743, 21.2616 ], [ 80.02606, 21.26062 ], [ 80.02536, 21.25936 ], [ 80.02524, 21.2533 ], [ 80.01457, 21.24527 ], [ 80.00193, 21.23776 ], [ 80.00124, 21.23089 ], [ 80.00189, 21.22933 ], [ 80.00501, 21.22721 ], [ 80.00629, 21.22454 ], [ 80.00845, 21.22431 ], [ 80.01279, 21.22154 ], [ 80.011, 21.21993 ], [ 80.00318, 21.21814 ], [ 80.00219, 21.21847 ], [ 79.99981, 21.22237 ], [ 79.99432, 21.22615 ], [ 79.99313, 21.22971 ], [ 79.98975, 21.23385 ], [ 79.98193, 21.23459 ], [ 79.97353, 21.23256 ], [ 79.97254, 21.23312 ], [ 79.96605, 21.23273 ], [ 79.96416, 21.2336 ], [ 79.96155, 21.23688 ], [ 79.95583, 21.23807 ], [ 79.95164, 21.24411 ], [ 79.94692, 21.24733 ], [ 79.93899, 21.25494 ], [ 79.93414, 21.25554 ], [ 79.92834, 21.2548 ], [ 79.92627, 21.25598 ], [ 79.92068, 21.25575 ], [ 79.91504, 21.25156 ], [ 79.91049, 21.2502 ], [ 79.90593, 21.24472 ], [ 79.90525, 21.24726 ], [ 79.90356, 21.2481 ], [ 79.90416, 21.24933 ], [ 79.90262, 21.25107 ], [ 79.89073, 21.25255 ], [ 79.88675, 21.25052 ], [ 79.88643, 21.25327 ], [ 79.88943, 21.25439 ], [ 79.88893, 21.25593 ], [ 79.87414, 21.24995 ], [ 79.86734, 21.24985 ], [ 79.86567, 21.24864 ], [ 79.86301, 21.24452 ], [ 79.86066, 21.24554 ], [ 79.85971, 21.24776 ], [ 79.85811, 21.24735 ], [ 79.8555, 21.24489 ], [ 79.85286, 21.24768 ], [ 79.84967, 21.24847 ], [ 79.84518, 21.25221 ], [ 79.84258, 21.2536 ], [ 79.84011, 21.25384 ], [ 79.84101, 21.25689 ], [ 79.84573, 21.25547 ], [ 79.85335, 21.25498 ], [ 79.85367, 21.25161 ], [ 79.85971, 21.2522 ], [ 79.86118, 21.251 ], [ 79.86393, 21.25186 ], [ 79.86328, 21.25818 ], [ 79.8605, 21.25969 ], [ 79.85934, 21.26156 ], [ 79.85577, 21.26173 ], [ 79.85454, 21.26035 ], [ 79.84925, 21.25917 ], [ 79.84394, 21.25973 ], [ 79.838, 21.26145 ], [ 79.83691, 21.26277 ], [ 79.8313, 21.26341 ], [ 79.82887, 21.27311 ], [ 79.82616, 21.27312 ], [ 79.82597, 21.27716 ], [ 79.82695, 21.28092 ], [ 79.83298, 21.28257 ], [ 79.83363, 21.28431 ], [ 79.83688, 21.28419 ], [ 79.83782, 21.2849 ], [ 79.83575, 21.28677 ], [ 79.83403, 21.28718 ], [ 79.83411, 21.28796 ], [ 79.83613, 21.28919 ], [ 79.83465, 21.28937 ], [ 79.83463, 21.29096 ], [ 79.83316, 21.29224 ], [ 79.83123, 21.29352 ], [ 79.83083, 21.29245 ], [ 79.82909, 21.29233 ], [ 79.82837, 21.30039 ], [ 79.8306, 21.30007 ], [ 79.83134, 21.30279 ], [ 79.83302, 21.3028 ], [ 79.83366, 21.30492 ], [ 79.83345, 21.31009 ], [ 79.83263, 21.31037 ], [ 79.83218, 21.30885 ], [ 79.83061, 21.30951 ], [ 79.83154, 21.31171 ], [ 79.83069, 21.31206 ], [ 79.83064, 21.31142 ], [ 79.82855, 21.31296 ], [ 79.82952, 21.31359 ], [ 79.82878, 21.31568 ], [ 79.82579, 21.31956 ], [ 79.81947, 21.31966 ], [ 79.81296, 21.32127 ], [ 79.81443, 21.32771 ], [ 79.81486, 21.33527 ], [ 79.81157, 21.33599 ], [ 79.8107, 21.33892 ], [ 79.8129, 21.34842 ], [ 79.81322, 21.35583 ], [ 79.81102, 21.35498 ], [ 79.81037, 21.35765 ], [ 79.80953, 21.35753 ], [ 79.80972, 21.35688 ], [ 79.8078, 21.35697 ], [ 79.80726, 21.35822 ], [ 79.80346, 21.35807 ], [ 79.80296, 21.35904 ], [ 79.80004, 21.3576 ], [ 79.79946, 21.36333 ], [ 79.79594, 21.37273 ], [ 79.79856, 21.37914 ], [ 79.80272, 21.38322 ], [ 79.8128, 21.38842 ], [ 79.82128, 21.39142 ], [ 79.83889, 21.40529 ], [ 79.85202, 21.41404 ], [ 79.87008, 21.42017 ], [ 79.87655, 21.42321 ], [ 79.88035, 21.4261 ], [ 79.8811, 21.42875 ], [ 79.87915, 21.43632 ], [ 79.87952, 21.43852 ], [ 79.88951, 21.45145 ], [ 79.89058, 21.45605 ], [ 79.91821, 21.48085 ], [ 79.92323, 21.48726 ], [ 79.928, 21.49624 ], [ 79.92822, 21.50188 ], [ 79.92617, 21.51364 ], [ 79.92122, 21.52232 ], [ 79.9178, 21.52441 ], [ 79.91846, 21.52454 ], [ 79.91845, 21.52856 ], [ 79.91998, 21.53171 ], [ 79.92219, 21.5418 ], [ 79.92977, 21.55258 ], [ 79.93284, 21.55504 ], [ 79.9359, 21.55624 ], [ 79.94821, 21.55417 ], [ 79.95948, 21.55749 ], [ 79.96964, 21.55835 ], [ 79.97148, 21.55772 ], [ 79.97766, 21.55249 ] ] ] } }
]
}
