{
"type": "FeatureCollection",
"name": "514_JALNA",
"crs": { "type": "name", "properties": { "name": "urn:ogc:def:crs:OGC:1.3:CRS84" } },
"xy_coordinate_resolution": 1e-05,
"features": [
{ "type": "Feature", "properties": { "OBJECTID": 3687, "state_lgd": "27", "state_name": "MAHARASHTRA", "district_lgd": "514", "district_name": "JALNA", "district_name_source": "district_table", "subdistrict_lgd": "4129", "subdistrict_name": "AMBAD", "subdistrict_type": "", "name_corrupted": false, "remarks": "", "label_lon": 75.753548520351615, "label_lat": 19.559999242057163 }, "geometry": { "type": "Polygon", "coordinates": [ [ [ 75.70644, 19.7738 ], [ 75.70701, 19.76993 ], [ 75.70902, 19.76707 ], [ 75.71679, 19.76367 ], [ 75.72116, 19.76516 ], [ 75.7242, 19.76232 ], [ 75.72565, 19.75943 ], [ 75.7316, 19.75696 ], [ 75.73288, 19.75043 ], [ 75.74351, 19.75039 ], [ 75.74994, 19.7468 ], [ 75.75112, 19.74689 ], [ 75.75413, 19.74975 ], [ 75.75547, 19.75008 ], [ 75.75679, 19.74545 ], [ 75.76151, 19.74451 ], [ 75.77142, 19.74019 ], [ 75.77545, 19.73545 ], [ 75.777, 19.73469 ], [ 75.78323, 19.73627 ], [ 75.7879, 19.73591 ], [ 75.79289, 19.73364 ], [ 75.79468, 19.72903 ], [ 75.79759, 19.72829 ], [ 75.80536, 19.72861 ], [ 75.81388, 19.73252 ], [ 75.81492, 19.73455 ], [ 75.81441, 19.73741 ], [ 75.82387, 19.7388 ], [ 75.82594, 19.73649 ], [ 75.82674, 19.7328 ], [ 75.8283, 19.73165 ], [ 75.82992, 19.73159 ], [ 75.83363, 19.7341 ], [ 75.83588, 19.73406 ], [ 75.83734, 19.72354 ], [ 75.84107, 19.71983 ], [ 75.84564, 19.71955 ], [ 75.85369, 19.71477 ], [ 75.85748, 19.71644 ], [ 75.86841, 19.71308 ], [ 75.87638, 19.71197 ], [ 75.87931, 19.71425 ], [ 75.88249, 19.71449 ], [ 75.88261, 19.71068 ], [ 75.88334, 19.70974 ], [ 75.88731, 19.7084 ], [ 75.89646, 19.70954 ], [ 75.89892, 19.70682 ], [ 75.89661, 19.69664 ], [ 75.89531, 19.6803 ], [ 75.90494, 19.67994 ], [ 75.9152, 19.68288 ], [ 75.91505, 19.67158 ], [ 75.91648, 19.66453 ], [ 75.91911, 19.65729 ], [ 75.92903, 19.65074 ], [ 75.92769, 19.64287 ], [ 75.92017, 19.64357 ], [ 75.90588, 19.64342 ], [ 75.90534, 19.63759 ], [ 75.90076, 19.63088 ], [ 75.89907, 19.6308 ], [ 75.89764, 19.61742 ], [ 75.90242, 19.61677 ], [ 75.90454, 19.61564 ], [ 75.90238, 19.60216 ], [ 75.90454, 19.60172 ], [ 75.90486, 19.60024 ], [ 75.9046, 19.59368 ], [ 75.90588, 19.57792 ], [ 75.8958, 19.56591 ], [ 75.89348, 19.56429 ], [ 75.89048, 19.56407 ], [ 75.88865, 19.56274 ], [ 75.8846, 19.56204 ], [ 75.88146, 19.56012 ], [ 75.88068, 19.55458 ], [ 75.88146, 19.5523 ], [ 75.87897, 19.55031 ], [ 75.87616, 19.54408 ], [ 75.87588, 19.54316 ], [ 75.87724, 19.54061 ], [ 75.87428, 19.53545 ], [ 75.87588, 19.53403 ], [ 75.87668, 19.53087 ], [ 75.87456, 19.53016 ], [ 75.8745, 19.52649 ], [ 75.8699, 19.52761 ], [ 75.86714, 19.52947 ], [ 75.86633, 19.52657 ], [ 75.86691, 19.52515 ], [ 75.8682, 19.52459 ], [ 75.86752, 19.5196 ], [ 75.86622, 19.51412 ], [ 75.86417, 19.51396 ], [ 75.86446, 19.5085 ], [ 75.88343, 19.5056 ], [ 75.88221, 19.49696 ], [ 75.88234, 19.49119 ], [ 75.88057, 19.49149 ], [ 75.87949, 19.4858 ], [ 75.88079, 19.46847 ], [ 75.87908, 19.4595 ], [ 75.8822, 19.45908 ], [ 75.89035, 19.45578 ], [ 75.89566, 19.4554 ], [ 75.8963, 19.45394 ], [ 75.89782, 19.44453 ], [ 75.89422, 19.44476 ], [ 75.89376, 19.44151 ], [ 75.89233, 19.44142 ], [ 75.89175, 19.43096 ], [ 75.89282, 19.42906 ], [ 75.89284, 19.42467 ], [ 75.87762, 19.42235 ], [ 75.87878, 19.41948 ], [ 75.87754, 19.41548 ], [ 75.87965, 19.4123 ], [ 75.87826, 19.40952 ], [ 75.89017, 19.40926 ], [ 75.89045, 19.40136 ], [ 75.88914, 19.38356 ], [ 75.89013, 19.37872 ], [ 75.88593, 19.38015 ], [ 75.87993, 19.38376 ], [ 75.87314, 19.38329 ], [ 75.86578, 19.38043 ], [ 75.86002, 19.37654 ], [ 75.84988, 19.37307 ], [ 75.84583, 19.37189 ], [ 75.83529, 19.37182 ], [ 75.82447, 19.37765 ], [ 75.81936, 19.38267 ], [ 75.80747, 19.38995 ], [ 75.80054, 19.39276 ], [ 75.79305, 19.39827 ], [ 75.78897, 19.40018 ], [ 75.7854, 19.39954 ], [ 75.77933, 19.39616 ], [ 75.76433, 19.39259 ], [ 75.75781, 19.38933 ], [ 75.7564, 19.38763 ], [ 75.7562, 19.38458 ], [ 75.76102, 19.37833 ], [ 75.7614, 19.3758 ], [ 75.76033, 19.37201 ], [ 75.755, 19.36353 ], [ 75.75335, 19.35845 ], [ 75.75093, 19.35608 ], [ 75.74676, 19.35804 ], [ 75.74119, 19.35854 ], [ 75.73669, 19.3572 ], [ 75.72455, 19.35753 ], [ 75.71424, 19.35422 ], [ 75.69985, 19.35902 ], [ 75.69588, 19.35881 ], [ 75.68657, 19.35506 ], [ 75.67966, 19.35565 ], [ 75.67552, 19.35826 ], [ 75.67444, 19.36414 ], [ 75.67532, 19.36536 ], [ 75.67244, 19.3676 ], [ 75.66604, 19.36805 ], [ 75.65574, 19.36716 ], [ 75.65076, 19.36857 ], [ 75.64828, 19.37089 ], [ 75.64207, 19.38046 ], [ 75.64011, 19.38145 ], [ 75.63702, 19.3803 ], [ 75.63096, 19.37589 ], [ 75.62573, 19.37337 ], [ 75.61982, 19.37467 ], [ 75.61525, 19.37833 ], [ 75.60613, 19.38354 ], [ 75.6108, 19.40434 ], [ 75.61119, 19.41416 ], [ 75.61219, 19.41738 ], [ 75.61276, 19.42515 ], [ 75.60327, 19.42754 ], [ 75.60498, 19.4462 ], [ 75.60468, 19.45218 ], [ 75.6086, 19.45227 ], [ 75.61275, 19.46122 ], [ 75.6139, 19.46765 ], [ 75.62646, 19.46059 ], [ 75.62937, 19.46028 ], [ 75.63154, 19.46464 ], [ 75.63056, 19.46523 ], [ 75.63101, 19.46735 ], [ 75.63435, 19.47529 ], [ 75.63587, 19.47544 ], [ 75.63701, 19.47809 ], [ 75.64156, 19.49622 ], [ 75.64221, 19.50209 ], [ 75.6407, 19.50822 ], [ 75.63993, 19.52089 ], [ 75.64274, 19.53886 ], [ 75.64656, 19.53887 ], [ 75.64799, 19.54613 ], [ 75.6549, 19.56045 ], [ 75.65604, 19.56815 ], [ 75.65228, 19.57133 ], [ 75.65264, 19.57545 ], [ 75.65118, 19.57788 ], [ 75.6502, 19.57816 ], [ 75.65289, 19.58591 ], [ 75.65086, 19.58574 ], [ 75.6509, 19.58893 ], [ 75.64982, 19.58901 ], [ 75.65008, 19.59408 ], [ 75.64921, 19.59544 ], [ 75.63994, 19.59434 ], [ 75.63138, 19.59614 ], [ 75.62477, 19.59573 ], [ 75.60987, 19.59788 ], [ 75.60886, 19.60162 ], [ 75.59912, 19.60143 ], [ 75.59799, 19.60012 ], [ 75.59611, 19.60481 ], [ 75.59166, 19.60996 ], [ 75.59358, 19.61016 ], [ 75.59375, 19.61801 ], [ 75.59219, 19.61801 ], [ 75.59046, 19.62194 ], [ 75.58875, 19.62202 ], [ 75.58515, 19.6383 ], [ 75.5886, 19.63858 ], [ 75.58857, 19.63938 ], [ 75.5899, 19.63936 ], [ 75.58996, 19.6403 ], [ 75.59491, 19.64083 ], [ 75.60386, 19.64349 ], [ 75.60513, 19.65783 ], [ 75.60887, 19.65713 ], [ 75.61632, 19.65735 ], [ 75.62089, 19.65607 ], [ 75.62541, 19.65594 ], [ 75.62794, 19.6567 ], [ 75.62924, 19.66032 ], [ 75.63139, 19.66772 ], [ 75.6314, 19.67627 ], [ 75.63021, 19.68338 ], [ 75.62568, 19.69543 ], [ 75.6252, 19.70424 ], [ 75.62859, 19.70394 ], [ 75.62963, 19.70775 ], [ 75.63015, 19.71975 ], [ 75.63175, 19.7282 ], [ 75.63196, 19.73486 ], [ 75.62524, 19.73637 ], [ 75.62646, 19.74245 ], [ 75.62616, 19.74552 ], [ 75.62477, 19.74585 ], [ 75.62573, 19.75549 ], [ 75.62976, 19.75336 ], [ 75.63528, 19.75328 ], [ 75.63968, 19.75161 ], [ 75.64556, 19.75386 ], [ 75.64732, 19.75373 ], [ 75.65433, 19.74993 ], [ 75.65696, 19.75123 ], [ 75.65756, 19.75635 ], [ 75.65923, 19.75684 ], [ 75.66045, 19.75622 ], [ 75.66206, 19.75339 ], [ 75.6679, 19.75278 ], [ 75.67147, 19.75453 ], [ 75.68401, 19.75686 ], [ 75.68567, 19.75828 ], [ 75.68637, 19.75928 ], [ 75.68355, 19.76082 ], [ 75.68297, 19.76202 ], [ 75.68472, 19.76533 ], [ 75.68406, 19.76851 ], [ 75.68514, 19.77075 ], [ 75.69177, 19.77079 ], [ 75.69473, 19.7735 ], [ 75.70016, 19.77163 ], [ 75.70295, 19.77468 ], [ 75.7048, 19.77519 ], [ 75.70644, 19.7738 ] ] ] } },
{ "type": "Feature", "properties": { "OBJECTID": 3688, "state_lgd": "27", "state_name": "MAHARASHTRA", "district_lgd": "514", "district_name": "JALNA", "district_name_source": "district_table", "subdistrict_lgd": "4125", "subdistrict_name": "BHOKARDAN", "subdistrict_type": "", "name_corrupted": false, "remarks": "", "label_lon": 75.812555304673836, "label_lat": 20.256020574079354 }, "geometry": { "type": "Polygon", "coordinates": [ [ [ 75.87657, 20.55254 ], [ 75.87731, 20.55802 ], [ 75.87942, 20.56054 ], [ 75.88248, 20.56083 ], [ 75.89681, 20.55769 ], [ 75.90414, 20.558 ], [ 75.91225, 20.55478 ], [ 75.91831, 20.55432 ], [ 75.92622, 20.54585 ], [ 75.93181, 20.54892 ], [ 75.93477, 20.5433 ], [ 75.93988, 20.54202 ], [ 75.93955, 20.53826 ], [ 75.94058, 20.53554 ], [ 75.94449, 20.53356 ], [ 75.95575, 20.53009 ], [ 75.96075, 20.53068 ], [ 75.96121, 20.53227 ], [ 75.96519, 20.53243 ], [ 75.96726, 20.53526 ], [ 75.96941, 20.53522 ], [ 75.97147, 20.53805 ], [ 75.97056, 20.53432 ], [ 75.97098, 20.53277 ], [ 75.97267, 20.53182 ], [ 75.97214, 20.52922 ], [ 75.97108, 20.52923 ], [ 75.96955, 20.5231 ], [ 75.967, 20.52296 ], [ 75.96002, 20.52601 ], [ 75.95726, 20.52429 ], [ 75.95646, 20.52212 ], [ 75.94929, 20.51861 ], [ 75.94944, 20.51391 ], [ 75.9481, 20.50991 ], [ 75.94591, 20.50685 ], [ 75.94115, 20.50259 ], [ 75.94065, 20.49866 ], [ 75.94119, 20.49195 ], [ 75.94566, 20.48543 ], [ 75.94533, 20.48329 ], [ 75.94667, 20.48208 ], [ 75.94693, 20.48009 ], [ 75.94837, 20.47825 ], [ 75.94862, 20.476 ], [ 75.94786, 20.47483 ], [ 75.94866, 20.47247 ], [ 75.95487, 20.47302 ], [ 75.95243, 20.46529 ], [ 75.95703, 20.46454 ], [ 75.95549, 20.4586 ], [ 75.95512, 20.45104 ], [ 75.94797, 20.44612 ], [ 75.94593, 20.4428 ], [ 75.94494, 20.44313 ], [ 75.9436, 20.43809 ], [ 75.94299, 20.43107 ], [ 75.94032, 20.43138 ], [ 75.94143, 20.4248 ], [ 75.94387, 20.42324 ], [ 75.94455, 20.4203 ], [ 75.94388, 20.41497 ], [ 75.94428, 20.41442 ], [ 75.94621, 20.41468 ], [ 75.94816, 20.41082 ], [ 75.94742, 20.40774 ], [ 75.94891, 20.40347 ], [ 75.94965, 20.39326 ], [ 75.95373, 20.38593 ], [ 75.95894, 20.38469 ], [ 75.96213, 20.38292 ], [ 75.96683, 20.37295 ], [ 75.96621, 20.37094 ], [ 75.95961, 20.37186 ], [ 75.95781, 20.36556 ], [ 75.94978, 20.36854 ], [ 75.94164, 20.36891 ], [ 75.94136, 20.36416 ], [ 75.93979, 20.3627 ], [ 75.94127, 20.36205 ], [ 75.94197, 20.35835 ], [ 75.94068, 20.34214 ], [ 75.93764, 20.34003 ], [ 75.93388, 20.33877 ], [ 75.93202, 20.33243 ], [ 75.92885, 20.32576 ], [ 75.92387, 20.32199 ], [ 75.92311, 20.32063 ], [ 75.92417, 20.31294 ], [ 75.92888, 20.30221 ], [ 75.92266, 20.29868 ], [ 75.91854, 20.29501 ], [ 75.91718, 20.29188 ], [ 75.91607, 20.29135 ], [ 75.91599, 20.28761 ], [ 75.9137, 20.28046 ], [ 75.91168, 20.27881 ], [ 75.9105, 20.27487 ], [ 75.90928, 20.27483 ], [ 75.91014, 20.2687 ], [ 75.89484, 20.26805 ], [ 75.88925, 20.26856 ], [ 75.88961, 20.26552 ], [ 75.88482, 20.26409 ], [ 75.88444, 20.25832 ], [ 75.8726, 20.25464 ], [ 75.87191, 20.24826 ], [ 75.86978, 20.24488 ], [ 75.87931, 20.23979 ], [ 75.87986, 20.23842 ], [ 75.87943, 20.22608 ], [ 75.87499, 20.21714 ], [ 75.87376, 20.20821 ], [ 75.88217, 20.20543 ], [ 75.89036, 20.2038 ], [ 75.90412, 20.20448 ], [ 75.91105, 20.20766 ], [ 75.91328, 20.20745 ], [ 75.91995, 20.20311 ], [ 75.92924, 20.19488 ], [ 75.93368, 20.19398 ], [ 75.93085, 20.18782 ], [ 75.93114, 20.16981 ], [ 75.93833, 20.17077 ], [ 75.93811, 20.16314 ], [ 75.93635, 20.15913 ], [ 75.93065, 20.15323 ], [ 75.93052, 20.151 ], [ 75.92135, 20.14918 ], [ 75.92316, 20.1441 ], [ 75.9227, 20.13874 ], [ 75.92651, 20.12797 ], [ 75.92632, 20.1243 ], [ 75.92302, 20.12463 ], [ 75.92165, 20.11623 ], [ 75.91782, 20.11419 ], [ 75.91935, 20.11239 ], [ 75.91985, 20.10801 ], [ 75.9231, 20.10225 ], [ 75.9252, 20.09624 ], [ 75.92128, 20.09274 ], [ 75.91771, 20.09136 ], [ 75.90929, 20.08587 ], [ 75.90359, 20.08088 ], [ 75.9046, 20.0793 ], [ 75.91467, 20.0725 ], [ 75.91673, 20.07015 ], [ 75.91907, 20.06373 ], [ 75.91938, 20.05826 ], [ 75.91796, 20.05683 ], [ 75.91722, 20.05699 ], [ 75.91709, 20.04915 ], [ 75.91363, 20.03914 ], [ 75.9123, 20.03848 ], [ 75.90937, 20.03113 ], [ 75.90732, 20.02838 ], [ 75.90119, 20.02613 ], [ 75.89235, 20.02823 ], [ 75.87384, 20.02995 ], [ 75.86764, 20.03218 ], [ 75.85482, 20.03271 ], [ 75.85036, 20.03218 ], [ 75.84934, 20.03756 ], [ 75.84656, 20.03806 ], [ 75.84755, 20.04657 ], [ 75.84381, 20.04718 ], [ 75.83362, 20.05103 ], [ 75.82375, 20.05153 ], [ 75.81821, 20.04995 ], [ 75.81193, 20.04679 ], [ 75.81009, 20.04124 ], [ 75.80555, 20.04125 ], [ 75.805, 20.0304 ], [ 75.79473, 20.03384 ], [ 75.79594, 20.03612 ], [ 75.79152, 20.03766 ], [ 75.78742, 20.04392 ], [ 75.78633, 20.05054 ], [ 75.7835, 20.05462 ], [ 75.78278, 20.05888 ], [ 75.7803, 20.062 ], [ 75.7798, 20.06067 ], [ 75.7769, 20.05979 ], [ 75.77527, 20.05687 ], [ 75.77069, 20.05368 ], [ 75.76067, 20.05322 ], [ 75.75165, 20.0499 ], [ 75.74514, 20.04954 ], [ 75.7435, 20.05465 ], [ 75.74136, 20.0552 ], [ 75.73969, 20.05723 ], [ 75.73293, 20.06122 ], [ 75.72899, 20.06124 ], [ 75.71713, 20.06355 ], [ 75.71582, 20.06926 ], [ 75.71057, 20.07197 ], [ 75.70689, 20.07222 ], [ 75.69909, 20.07073 ], [ 75.6966, 20.06877 ], [ 75.68865, 20.06579 ], [ 75.68348, 20.06642 ], [ 75.68215, 20.06511 ], [ 75.67989, 20.05969 ], [ 75.67783, 20.05103 ], [ 75.67628, 20.0487 ], [ 75.66621, 20.04567 ], [ 75.65894, 20.03892 ], [ 75.64737, 20.03495 ], [ 75.6385, 20.04244 ], [ 75.64038, 20.047 ], [ 75.64317, 20.05086 ], [ 75.64672, 20.06028 ], [ 75.63908, 20.06216 ], [ 75.63209, 20.0681 ], [ 75.62638, 20.07053 ], [ 75.62595, 20.07917 ], [ 75.62651, 20.08335 ], [ 75.63141, 20.08243 ], [ 75.63508, 20.091 ], [ 75.63331, 20.09168 ], [ 75.63364, 20.09538 ], [ 75.63226, 20.09548 ], [ 75.62977, 20.10261 ], [ 75.62452, 20.10244 ], [ 75.62576, 20.1081 ], [ 75.6281, 20.11077 ], [ 75.6324, 20.11917 ], [ 75.63362, 20.1358 ], [ 75.63509, 20.13587 ], [ 75.63741, 20.13931 ], [ 75.6412, 20.15794 ], [ 75.64083, 20.16655 ], [ 75.64359, 20.17551 ], [ 75.64601, 20.18814 ], [ 75.65033, 20.18843 ], [ 75.66162, 20.18532 ], [ 75.6736, 20.18375 ], [ 75.67702, 20.18739 ], [ 75.68125, 20.19817 ], [ 75.68031, 20.20278 ], [ 75.68103, 20.20401 ], [ 75.68066, 20.20691 ], [ 75.68165, 20.21092 ], [ 75.67966, 20.2215 ], [ 75.68023, 20.22876 ], [ 75.67396, 20.23149 ], [ 75.67421, 20.23325 ], [ 75.67762, 20.24504 ], [ 75.67999, 20.25852 ], [ 75.68241, 20.25895 ], [ 75.6861, 20.26402 ], [ 75.6884, 20.26547 ], [ 75.69003, 20.26514 ], [ 75.6951, 20.28234 ], [ 75.69219, 20.28635 ], [ 75.69106, 20.29139 ], [ 75.68412, 20.30147 ], [ 75.68195, 20.30231 ], [ 75.68178, 20.30633 ], [ 75.6867, 20.30846 ], [ 75.69725, 20.30957 ], [ 75.70777, 20.31283 ], [ 75.70816, 20.3146 ], [ 75.71136, 20.319 ], [ 75.71184, 20.32129 ], [ 75.71374, 20.32336 ], [ 75.71643, 20.33041 ], [ 75.72615, 20.32886 ], [ 75.72982, 20.32733 ], [ 75.73144, 20.32826 ], [ 75.73137, 20.32961 ], [ 75.73258, 20.33062 ], [ 75.73363, 20.33346 ], [ 75.74246, 20.33493 ], [ 75.74258, 20.32691 ], [ 75.74328, 20.32698 ], [ 75.74322, 20.3262 ], [ 75.7468, 20.32552 ], [ 75.75453, 20.32579 ], [ 75.75727, 20.32644 ], [ 75.75719, 20.32735 ], [ 75.76096, 20.32824 ], [ 75.76415, 20.33622 ], [ 75.77054, 20.33639 ], [ 75.766, 20.34986 ], [ 75.76549, 20.34943 ], [ 75.76314, 20.35361 ], [ 75.75813, 20.35914 ], [ 75.75738, 20.36843 ], [ 75.7456, 20.37058 ], [ 75.74651, 20.37942 ], [ 75.75055, 20.38898 ], [ 75.74861, 20.39887 ], [ 75.74918, 20.40223 ], [ 75.74765, 20.40214 ], [ 75.74569, 20.40372 ], [ 75.74246, 20.40434 ], [ 75.74038, 20.40435 ], [ 75.73933, 20.40341 ], [ 75.73705, 20.40596 ], [ 75.73263, 20.40713 ], [ 75.73326, 20.41139 ], [ 75.73749, 20.4193 ], [ 75.74137, 20.42144 ], [ 75.74567, 20.42112 ], [ 75.75239, 20.42228 ], [ 75.75455, 20.42346 ], [ 75.75576, 20.42306 ], [ 75.75692, 20.42804 ], [ 75.75855, 20.43026 ], [ 75.75795, 20.43076 ], [ 75.7581, 20.43563 ], [ 75.76196, 20.44683 ], [ 75.76399, 20.44993 ], [ 75.76398, 20.45198 ], [ 75.76907, 20.45278 ], [ 75.7711, 20.45525 ], [ 75.77894, 20.45501 ], [ 75.7859, 20.45381 ], [ 75.78639, 20.4521 ], [ 75.79221, 20.45166 ], [ 75.79457, 20.45023 ], [ 75.79563, 20.45967 ], [ 75.79677, 20.46125 ], [ 75.80395, 20.46347 ], [ 75.80659, 20.4626 ], [ 75.80911, 20.4635 ], [ 75.81119, 20.46324 ], [ 75.81515, 20.46976 ], [ 75.81746, 20.46995 ], [ 75.81761, 20.47102 ], [ 75.8197, 20.47209 ], [ 75.8268, 20.47104 ], [ 75.82647, 20.4688 ], [ 75.82893, 20.46864 ], [ 75.8303, 20.46795 ], [ 75.83071, 20.46623 ], [ 75.83308, 20.46604 ], [ 75.83391, 20.46238 ], [ 75.83591, 20.46151 ], [ 75.83606, 20.45963 ], [ 75.84097, 20.45757 ], [ 75.84607, 20.4579 ], [ 75.85156, 20.46074 ], [ 75.85512, 20.46022 ], [ 75.85544, 20.45881 ], [ 75.85648, 20.459 ], [ 75.85882, 20.45383 ], [ 75.8644, 20.44732 ], [ 75.86478, 20.44271 ], [ 75.86241, 20.44224 ], [ 75.86266, 20.4399 ], [ 75.8726, 20.44015 ], [ 75.8776, 20.43741 ], [ 75.87972, 20.44233 ], [ 75.88182, 20.44494 ], [ 75.88489, 20.44448 ], [ 75.89406, 20.44538 ], [ 75.89132, 20.44618 ], [ 75.89129, 20.4483 ], [ 75.89001, 20.44858 ], [ 75.88877, 20.44783 ], [ 75.88835, 20.44892 ], [ 75.88448, 20.44954 ], [ 75.86949, 20.45506 ], [ 75.86929, 20.45764 ], [ 75.87093, 20.45869 ], [ 75.8709, 20.46128 ], [ 75.86767, 20.46237 ], [ 75.86417, 20.46471 ], [ 75.86429, 20.46531 ], [ 75.86159, 20.46541 ], [ 75.861, 20.46811 ], [ 75.86151, 20.47658 ], [ 75.85855, 20.47694 ], [ 75.85881, 20.48141 ], [ 75.8569, 20.48155 ], [ 75.85595, 20.48011 ], [ 75.85426, 20.48022 ], [ 75.85356, 20.48075 ], [ 75.85394, 20.48172 ], [ 75.8492, 20.48306 ], [ 75.84746, 20.48828 ], [ 75.84821, 20.49168 ], [ 75.84944, 20.49188 ], [ 75.84991, 20.5009 ], [ 75.85295, 20.50066 ], [ 75.85291, 20.50315 ], [ 75.85897, 20.50348 ], [ 75.86009, 20.51282 ], [ 75.8624, 20.51986 ], [ 75.86038, 20.5201 ], [ 75.86059, 20.5238 ], [ 75.86344, 20.52455 ], [ 75.86959, 20.52798 ], [ 75.87176, 20.52807 ], [ 75.87182, 20.5265 ], [ 75.87437, 20.52641 ], [ 75.87443, 20.5256 ], [ 75.87722, 20.52503 ], [ 75.87946, 20.5228 ], [ 75.88237, 20.52423 ], [ 75.88401, 20.52832 ], [ 75.88322, 20.53016 ], [ 75.8841, 20.5305 ], [ 75.88317, 20.53043 ], [ 75.88206, 20.5321 ], [ 75.88015, 20.53241 ], [ 75.87865, 20.53671 ], [ 75.87582, 20.5387 ], [ 75.86915, 20.54958 ], [ 75.86226, 20.55724 ], [ 75.86036, 20.55983 ], [ 75.86047, 20.56075 ], [ 75.8659, 20.55922 ], [ 75.87657, 20.55254 ] ], [ [ 75.82608, 20.13017 ], [ 75.81978, 20.12646 ], [ 75.81976, 20.12494 ], [ 75.83311, 20.12665 ], [ 75.85288, 20.12249 ], [ 75.86468, 20.1251 ], [ 75.87102, 20.12562 ], [ 75.87088, 20.12454 ], [ 75.87451, 20.12537 ], [ 75.87439, 20.12888 ], [ 75.86542, 20.13132 ], [ 75.85325, 20.13295 ], [ 75.84479, 20.13609 ], [ 75.83438, 20.13802 ], [ 75.83413, 20.13534 ], [ 75.83122, 20.1342 ], [ 75.83149, 20.13236 ], [ 75.82608, 20.13017 ] ] ] } },
{ "type": "Feature", "properties": { "OBJECTID": 3869, "state_lgd": "27", "state_name": "MAHARASHTRA", "district_lgd": "514", "district_name": "JALNA", "district_name_source": "district_table", "subdistrict_lgd": "4130", "subdistrict_name": "GHANSAWANGI", "subdistrict_type": "", "name_corrupted": false, "remarks": "", "label_lon": 76.019437086824809, "label_lat": 19.498739704952577 }, "geometry": { "type": "Polygon", "coordinates": [ [ [ 75.90607, 19.69887 ], [ 75.90847, 19.69968 ], [ 75.91005, 19.70292 ], [ 75.9121, 19.70402 ], [ 75.91395, 19.7039 ], [ 75.91685, 19.70129 ], [ 75.91832, 19.70112 ], [ 75.92208, 19.70309 ], [ 75.93707, 19.70015 ], [ 75.94046, 19.70097 ], [ 75.94464, 19.70446 ], [ 75.94585, 19.70438 ], [ 75.94905, 19.70184 ], [ 75.95274, 19.70091 ], [ 75.95527, 19.69842 ], [ 75.9595, 19.69638 ], [ 75.9639, 19.6997 ], [ 75.969, 19.69849 ], [ 75.97308, 19.69934 ], [ 75.97532, 19.69901 ], [ 75.97921, 19.69635 ], [ 75.98221, 19.69665 ], [ 75.9889, 19.69218 ], [ 75.98988, 19.69049 ], [ 75.98959, 19.68691 ], [ 75.9851, 19.68343 ], [ 75.98586, 19.6817 ], [ 75.98735, 19.68101 ], [ 75.98977, 19.68067 ], [ 75.99402, 19.68252 ], [ 76.00011, 19.67662 ], [ 76.00178, 19.67608 ], [ 76.00265, 19.67616 ], [ 76.00548, 19.67966 ], [ 76.00844, 19.67976 ], [ 76.0173, 19.67632 ], [ 76.01993, 19.67662 ], [ 76.02159, 19.67424 ], [ 76.0229, 19.67387 ], [ 76.02931, 19.67398 ], [ 76.03375, 19.67077 ], [ 76.03761, 19.67175 ], [ 76.05393, 19.66856 ], [ 76.05774, 19.66701 ], [ 76.05829, 19.66331 ], [ 76.0619, 19.66168 ], [ 76.06395, 19.66209 ], [ 76.07037, 19.66827 ], [ 76.08295, 19.66905 ], [ 76.08283, 19.67258 ], [ 76.09145, 19.67444 ], [ 76.09346, 19.67827 ], [ 76.09705, 19.67923 ], [ 76.10037, 19.67838 ], [ 76.10405, 19.67881 ], [ 76.10519, 19.68209 ], [ 76.11413, 19.68908 ], [ 76.11549, 19.68932 ], [ 76.11674, 19.68899 ], [ 76.11889, 19.68669 ], [ 76.11834, 19.68416 ], [ 76.11508, 19.68335 ], [ 76.11651, 19.68069 ], [ 76.12233, 19.68033 ], [ 76.13261, 19.67441 ], [ 76.14352, 19.67779 ], [ 76.14497, 19.67672 ], [ 76.1449, 19.67049 ], [ 76.15073, 19.67042 ], [ 76.16031, 19.66857 ], [ 76.15723, 19.65502 ], [ 76.15644, 19.6476 ], [ 76.15457, 19.64761 ], [ 76.15023, 19.63081 ], [ 76.17568, 19.62295 ], [ 76.17316, 19.59965 ], [ 76.17143, 19.59807 ], [ 76.17111, 19.59313 ], [ 76.16982, 19.58901 ], [ 76.16649, 19.5878 ], [ 76.15604, 19.58726 ], [ 76.15189, 19.57088 ], [ 76.15166, 19.56878 ], [ 76.15585, 19.54555 ], [ 76.15581, 19.5395 ], [ 76.15237, 19.53025 ], [ 76.1485, 19.52825 ], [ 76.1479, 19.52432 ], [ 76.15132, 19.52082 ], [ 76.15189, 19.51866 ], [ 76.15857, 19.50889 ], [ 76.15887, 19.50318 ], [ 76.15729, 19.49285 ], [ 76.15, 19.48561 ], [ 76.14909, 19.48592 ], [ 76.14954, 19.47989 ], [ 76.14892, 19.47462 ], [ 76.14491, 19.4548 ], [ 76.1465, 19.45463 ], [ 76.14276, 19.44214 ], [ 76.14844, 19.44036 ], [ 76.14769, 19.4315 ], [ 76.14575, 19.42738 ], [ 76.14031, 19.42111 ], [ 76.13554, 19.41302 ], [ 76.13322, 19.39911 ], [ 76.13374, 19.39889 ], [ 76.13279, 19.39155 ], [ 76.13344, 19.39129 ], [ 76.1309, 19.38503 ], [ 76.13001, 19.38523 ], [ 76.12878, 19.38065 ], [ 76.11408, 19.38231 ], [ 76.11411, 19.37632 ], [ 76.11123, 19.37125 ], [ 76.1201, 19.36884 ], [ 76.12382, 19.36673 ], [ 76.12208, 19.35896 ], [ 76.12335, 19.35633 ], [ 76.12141, 19.35302 ], [ 76.1213, 19.35067 ], [ 76.12462, 19.34888 ], [ 76.12512, 19.34498 ], [ 76.12825, 19.33848 ], [ 76.11864, 19.33784 ], [ 76.10509, 19.33892 ], [ 76.10573, 19.33403 ], [ 76.1067, 19.33215 ], [ 76.11159, 19.32825 ], [ 76.11252, 19.32222 ], [ 76.11251, 19.32103 ], [ 76.10904, 19.31843 ], [ 76.10653, 19.31805 ], [ 76.10629, 19.31509 ], [ 76.11647, 19.31195 ], [ 76.11662, 19.30572 ], [ 76.11968, 19.30471 ], [ 76.11923, 19.30196 ], [ 76.12031, 19.30167 ], [ 76.11817, 19.29847 ], [ 76.11549, 19.29621 ], [ 76.11347, 19.2962 ], [ 76.11167, 19.29894 ], [ 76.11118, 19.30355 ], [ 76.10851, 19.3065 ], [ 76.1027, 19.30807 ], [ 76.09839, 19.30667 ], [ 76.09634, 19.30426 ], [ 76.09466, 19.30009 ], [ 76.09084, 19.28501 ], [ 76.08793, 19.28093 ], [ 76.08449, 19.27976 ], [ 76.07107, 19.27895 ], [ 76.06521, 19.28074 ], [ 76.05959, 19.28403 ], [ 76.05623, 19.28499 ], [ 76.03967, 19.28364 ], [ 76.03226, 19.28814 ], [ 76.02512, 19.29944 ], [ 76.02569, 19.30901 ], [ 76.02514, 19.31463 ], [ 76.02181, 19.32303 ], [ 76.02093, 19.32946 ], [ 76.02369, 19.33325 ], [ 76.0202, 19.33764 ], [ 76.0149, 19.3379 ], [ 76.01002, 19.33575 ], [ 76.00342, 19.32687 ], [ 75.9806, 19.3073 ], [ 75.97492, 19.30431 ], [ 75.96042, 19.30173 ], [ 75.94285, 19.29189 ], [ 75.93516, 19.29338 ], [ 75.93303, 19.29542 ], [ 75.9229, 19.29949 ], [ 75.91407, 19.30747 ], [ 75.90905, 19.31372 ], [ 75.9065, 19.31833 ], [ 75.90575, 19.32662 ], [ 75.90343, 19.3379 ], [ 75.90522, 19.34699 ], [ 75.90818, 19.35541 ], [ 75.90987, 19.35789 ], [ 75.91551, 19.36143 ], [ 75.91763, 19.36543 ], [ 75.91723, 19.37122 ], [ 75.91792, 19.37314 ], [ 75.92503, 19.3827 ], [ 75.91866, 19.38858 ], [ 75.91203, 19.39217 ], [ 75.90375, 19.3906 ], [ 75.89652, 19.384 ], [ 75.89314, 19.37957 ], [ 75.89013, 19.37872 ], [ 75.88914, 19.38356 ], [ 75.89045, 19.40136 ], [ 75.89017, 19.40926 ], [ 75.87826, 19.40952 ], [ 75.87965, 19.4123 ], [ 75.87754, 19.41548 ], [ 75.87878, 19.41948 ], [ 75.87762, 19.42235 ], [ 75.89284, 19.42467 ], [ 75.89282, 19.42906 ], [ 75.89175, 19.43096 ], [ 75.89233, 19.44142 ], [ 75.89376, 19.44151 ], [ 75.89422, 19.44476 ], [ 75.89782, 19.44453 ], [ 75.8963, 19.45394 ], [ 75.89566, 19.4554 ], [ 75.89035, 19.45578 ], [ 75.8822, 19.45908 ], [ 75.87908, 19.4595 ], [ 75.88079, 19.46847 ], [ 75.87949, 19.4858 ], [ 75.88057, 19.49149 ], [ 75.88234, 19.49119 ], [ 75.88221, 19.49696 ], [ 75.88343, 19.5056 ], [ 75.87142, 19.50697 ], [ 75.86414, 19.50879 ], [ 75.86417, 19.51396 ], [ 75.86622, 19.51412 ], [ 75.86813, 19.5231 ], [ 75.8682, 19.52459 ], [ 75.86691, 19.52515 ], [ 75.86633, 19.52657 ], [ 75.86714, 19.52947 ], [ 75.8699, 19.52761 ], [ 75.8745, 19.52649 ], [ 75.87456, 19.53016 ], [ 75.87668, 19.53087 ], [ 75.87588, 19.53403 ], [ 75.87428, 19.53545 ], [ 75.87724, 19.54061 ], [ 75.87588, 19.54316 ], [ 75.87616, 19.54408 ], [ 75.87897, 19.55031 ], [ 75.88146, 19.5523 ], [ 75.88068, 19.55458 ], [ 75.88146, 19.56012 ], [ 75.8846, 19.56204 ], [ 75.88865, 19.56274 ], [ 75.89048, 19.56407 ], [ 75.89348, 19.56429 ], [ 75.8958, 19.56591 ], [ 75.90588, 19.57792 ], [ 75.9046, 19.59368 ], [ 75.90486, 19.60024 ], [ 75.90454, 19.60172 ], [ 75.90238, 19.60216 ], [ 75.90454, 19.61564 ], [ 75.90242, 19.61677 ], [ 75.89764, 19.61742 ], [ 75.89907, 19.6308 ], [ 75.90076, 19.63088 ], [ 75.90534, 19.63759 ], [ 75.90588, 19.64342 ], [ 75.92017, 19.64357 ], [ 75.92769, 19.64287 ], [ 75.92903, 19.65074 ], [ 75.91911, 19.65729 ], [ 75.91648, 19.66453 ], [ 75.91505, 19.67158 ], [ 75.9152, 19.68288 ], [ 75.90494, 19.67994 ], [ 75.89531, 19.6803 ], [ 75.89661, 19.69664 ], [ 75.89892, 19.70682 ], [ 75.90242, 19.70571 ], [ 75.90607, 19.69887 ] ] ] } },
{ "type": "Feature", "properties": { "OBJECTID": 3870, "state_lgd": "27", "state_name": "MAHARASHTRA", "district_lgd": "514", "district_name": "JALNA", "district_name_source": "district_table", "subdistrict_lgd": "4127", "subdistrict_name": "JALNA", "subdistrict_type": "", "name_corrupted": false, "remarks": "", "label_lon": 76.035116602870715, "label_lat": 19.812601519793979 }, "geometry": { "type": "Polygon", "coordinates": [ [ [ 75.92429, 19.99981 ], [ 75.92572, 19.99789 ], [ 75.92999, 19.99842 ], [ 75.94062, 19.9904 ], [ 75.94158, 19.99231 ], [ 75.94517, 19.99136 ], [ 75.94655, 19.99265 ], [ 75.94632, 19.99385 ], [ 75.95017, 19.9968 ], [ 75.95735, 19.99513 ], [ 75.9625, 19.9949 ], [ 75.96524, 19.99137 ], [ 75.96763, 19.98631 ], [ 75.97178, 19.98266 ], [ 75.98809, 19.98068 ], [ 75.98936, 19.97404 ], [ 75.9907, 19.97381 ], [ 75.99407, 19.97612 ], [ 75.99861, 19.97332 ], [ 76.00029, 19.97098 ], [ 76.0087, 19.97432 ], [ 76.01146, 19.97371 ], [ 76.01255, 19.96935 ], [ 76.01126, 19.95376 ], [ 76.02347, 19.95044 ], [ 76.02704, 19.95044 ], [ 76.02585, 19.9482 ], [ 76.02665, 19.94786 ], [ 76.0276, 19.94934 ], [ 76.03047, 19.95007 ], [ 76.03259, 19.94721 ], [ 76.0332, 19.94853 ], [ 76.03456, 19.94849 ], [ 76.03547, 19.94964 ], [ 76.0409, 19.94967 ], [ 76.04022, 19.9466 ], [ 76.04124, 19.94596 ], [ 76.04264, 19.94708 ], [ 76.04814, 19.94597 ], [ 76.05233, 19.94025 ], [ 76.04847, 19.93706 ], [ 76.04783, 19.93562 ], [ 76.05304, 19.93167 ], [ 76.05749, 19.92981 ], [ 76.05858, 19.91868 ], [ 76.05927, 19.91945 ], [ 76.06236, 19.91859 ], [ 76.07145, 19.9142 ], [ 76.08112, 19.91254 ], [ 76.08001, 19.89847 ], [ 76.08091, 19.88055 ], [ 76.09282, 19.87205 ], [ 76.09678, 19.86239 ], [ 76.09755, 19.85696 ], [ 76.09926, 19.85726 ], [ 76.10196, 19.85956 ], [ 76.1052, 19.86012 ], [ 76.11606, 19.861 ], [ 76.11848, 19.86009 ], [ 76.12074, 19.86451 ], [ 76.12393, 19.86545 ], [ 76.12933, 19.86502 ], [ 76.13573, 19.85195 ], [ 76.13616, 19.84917 ], [ 76.13532, 19.84677 ], [ 76.13993, 19.84407 ], [ 76.14429, 19.84489 ], [ 76.1476, 19.84364 ], [ 76.14743, 19.85189 ], [ 76.14839, 19.85595 ], [ 76.16398, 19.85272 ], [ 76.16419, 19.85486 ], [ 76.16586, 19.85469 ], [ 76.17243, 19.85094 ], [ 76.17929, 19.8497 ], [ 76.18175, 19.84807 ], [ 76.18315, 19.85136 ], [ 76.18595, 19.85489 ], [ 76.19263, 19.85726 ], [ 76.19427, 19.85881 ], [ 76.19683, 19.8654 ], [ 76.20754, 19.86394 ], [ 76.21319, 19.86785 ], [ 76.21447, 19.86795 ], [ 76.22526, 19.8668 ], [ 76.22951, 19.86514 ], [ 76.24168, 19.87219 ], [ 76.24912, 19.87094 ], [ 76.24931, 19.87196 ], [ 76.25435, 19.87334 ], [ 76.25531, 19.87434 ], [ 76.25543, 19.87629 ], [ 76.25919, 19.87524 ], [ 76.26098, 19.87617 ], [ 76.26627, 19.87526 ], [ 76.26614, 19.8766 ], [ 76.26981, 19.87616 ], [ 76.28656, 19.87268 ], [ 76.29176, 19.87249 ], [ 76.29307, 19.8708 ], [ 76.29589, 19.87263 ], [ 76.29724, 19.87501 ], [ 76.30014, 19.8776 ], [ 76.30367, 19.87753 ], [ 76.30502, 19.87842 ], [ 76.30951, 19.87741 ], [ 76.3108, 19.87609 ], [ 76.31098, 19.87274 ], [ 76.31433, 19.87034 ], [ 76.31357, 19.86796 ], [ 76.31777, 19.86471 ], [ 76.31784, 19.85833 ], [ 76.31564, 19.8552 ], [ 76.32631, 19.84895 ], [ 76.32443, 19.84552 ], [ 76.32346, 19.84141 ], [ 76.32099, 19.83862 ], [ 76.3209, 19.82708 ], [ 76.31512, 19.82712 ], [ 76.31326, 19.82351 ], [ 76.31074, 19.82249 ], [ 76.3073, 19.81725 ], [ 76.3075, 19.80833 ], [ 76.31226, 19.80642 ], [ 76.31252, 19.80258 ], [ 76.31252, 19.80091 ], [ 76.3098, 19.79923 ], [ 76.30952, 19.79811 ], [ 76.30545, 19.79861 ], [ 76.30795, 19.78551 ], [ 76.30772, 19.77354 ], [ 76.31241, 19.77181 ], [ 76.31747, 19.77157 ], [ 76.33424, 19.76782 ], [ 76.33363, 19.76575 ], [ 76.33437, 19.7635 ], [ 76.33677, 19.76332 ], [ 76.33629, 19.75967 ], [ 76.33556, 19.75968 ], [ 76.33553, 19.75875 ], [ 76.33346, 19.75927 ], [ 76.33142, 19.75366 ], [ 76.33015, 19.75234 ], [ 76.32704, 19.75084 ], [ 76.32345, 19.75034 ], [ 76.32038, 19.75181 ], [ 76.31069, 19.75156 ], [ 76.31199, 19.7583 ], [ 76.31621, 19.75953 ], [ 76.31465, 19.76341 ], [ 76.31298, 19.76433 ], [ 76.31263, 19.7657 ], [ 76.30706, 19.76613 ], [ 76.29615, 19.76662 ], [ 76.29609, 19.76412 ], [ 76.27612, 19.7656 ], [ 76.26161, 19.75981 ], [ 76.25707, 19.76007 ], [ 76.25066, 19.75888 ], [ 76.24769, 19.75476 ], [ 76.24467, 19.75525 ], [ 76.24232, 19.75658 ], [ 76.24107, 19.75638 ], [ 76.24119, 19.75568 ], [ 76.23063, 19.75532 ], [ 76.22519, 19.75668 ], [ 76.22562, 19.75742 ], [ 76.22235, 19.75786 ], [ 76.2224, 19.75511 ], [ 76.22152, 19.75519 ], [ 76.21964, 19.75316 ], [ 76.21789, 19.74537 ], [ 76.21183, 19.73687 ], [ 76.21159, 19.73355 ], [ 76.20999, 19.73192 ], [ 76.2075, 19.72615 ], [ 76.20729, 19.72246 ], [ 76.19828, 19.71281 ], [ 76.198, 19.71161 ], [ 76.19797, 19.71083 ], [ 76.19987, 19.71039 ], [ 76.19924, 19.70621 ], [ 76.21951, 19.70149 ], [ 76.21916, 19.69621 ], [ 76.21665, 19.69014 ], [ 76.21533, 19.68405 ], [ 76.21625, 19.6804 ], [ 76.20762, 19.68547 ], [ 76.19776, 19.68748 ], [ 76.19806, 19.69055 ], [ 76.19089, 19.69039 ], [ 76.19001, 19.69027 ], [ 76.18898, 19.68597 ], [ 76.18785, 19.68552 ], [ 76.18729, 19.68374 ], [ 76.18837, 19.67615 ], [ 76.18517, 19.67172 ], [ 76.18424, 19.67353 ], [ 76.18156, 19.67307 ], [ 76.1789, 19.67435 ], [ 76.17561, 19.67378 ], [ 76.16759, 19.67887 ], [ 76.16672, 19.67844 ], [ 76.16542, 19.67444 ], [ 76.16361, 19.67459 ], [ 76.16134, 19.67575 ], [ 76.16044, 19.67891 ], [ 76.16349, 19.68168 ], [ 76.16364, 19.68404 ], [ 76.16015, 19.68539 ], [ 76.15334, 19.68159 ], [ 76.15051, 19.68414 ], [ 76.14862, 19.68957 ], [ 76.14503, 19.69209 ], [ 76.14277, 19.69478 ], [ 76.13296, 19.6959 ], [ 76.13788, 19.68429 ], [ 76.1389, 19.67598 ], [ 76.13153, 19.67461 ], [ 76.12233, 19.68033 ], [ 76.11651, 19.68069 ], [ 76.11508, 19.68335 ], [ 76.11834, 19.68416 ], [ 76.11889, 19.68669 ], [ 76.11674, 19.68899 ], [ 76.11413, 19.68908 ], [ 76.10519, 19.68209 ], [ 76.10405, 19.67881 ], [ 76.10037, 19.67838 ], [ 76.09705, 19.67923 ], [ 76.09346, 19.67827 ], [ 76.09145, 19.67444 ], [ 76.08283, 19.67258 ], [ 76.08295, 19.66905 ], [ 76.07037, 19.66827 ], [ 76.06395, 19.66209 ], [ 76.0619, 19.66168 ], [ 76.05829, 19.66331 ], [ 76.05774, 19.66701 ], [ 76.05393, 19.66856 ], [ 76.03761, 19.67175 ], [ 76.03375, 19.67077 ], [ 76.02931, 19.67398 ], [ 76.0229, 19.67387 ], [ 76.02159, 19.67424 ], [ 76.01993, 19.67662 ], [ 76.0173, 19.67632 ], [ 76.00844, 19.67976 ], [ 76.00548, 19.67966 ], [ 76.00265, 19.67616 ], [ 76.00178, 19.67608 ], [ 76.00011, 19.67662 ], [ 75.99402, 19.68252 ], [ 75.98977, 19.68067 ], [ 75.98735, 19.68101 ], [ 75.98586, 19.6817 ], [ 75.9851, 19.68343 ], [ 75.98959, 19.68691 ], [ 75.98988, 19.69049 ], [ 75.9889, 19.69218 ], [ 75.98221, 19.69665 ], [ 75.97921, 19.69635 ], [ 75.97532, 19.69901 ], [ 75.97308, 19.69934 ], [ 75.969, 19.69849 ], [ 75.9639, 19.6997 ], [ 75.9595, 19.69638 ], [ 75.95527, 19.69842 ], [ 75.95274, 19.70091 ], [ 75.94905, 19.70184 ], [ 75.94585, 19.70438 ], [ 75.94464, 19.70446 ], [ 75.94046, 19.70097 ], [ 75.93707, 19.70015 ], [ 75.92208, 19.70309 ], [ 75.91832, 19.70112 ], [ 75.91685, 19.70129 ], [ 75.91395, 19.7039 ], [ 75.9121, 19.70402 ], [ 75.91005, 19.70292 ], [ 75.90847, 19.69968 ], [ 75.90607, 19.69887 ], [ 75.90242, 19.70571 ], [ 75.89892, 19.70682 ], [ 75.89646, 19.70954 ], [ 75.88976, 19.70854 ], [ 75.88493, 19.70885 ], [ 75.88261, 19.71068 ], [ 75.88249, 19.71449 ], [ 75.87931, 19.71425 ], [ 75.87638, 19.71197 ], [ 75.86841, 19.71308 ], [ 75.85748, 19.71644 ], [ 75.85369, 19.71477 ], [ 75.84564, 19.71955 ], [ 75.84107, 19.71983 ], [ 75.83734, 19.72354 ], [ 75.83588, 19.73406 ], [ 75.83363, 19.7341 ], [ 75.82992, 19.73159 ], [ 75.8283, 19.73165 ], [ 75.82652, 19.73358 ], [ 75.82874, 19.74907 ], [ 75.83325, 19.76373 ], [ 75.835, 19.7749 ], [ 75.82738, 19.77677 ], [ 75.81735, 19.78061 ], [ 75.81139, 19.78609 ], [ 75.81306, 19.79394 ], [ 75.81654, 19.80104 ], [ 75.8174, 19.80108 ], [ 75.81438, 19.81685 ], [ 75.81185, 19.82295 ], [ 75.8037, 19.82352 ], [ 75.80091, 19.822 ], [ 75.80159, 19.83536 ], [ 75.81124, 19.84232 ], [ 75.81168, 19.84338 ], [ 75.81347, 19.85477 ], [ 75.81311, 19.8561 ], [ 75.81225, 19.85603 ], [ 75.81357, 19.86896 ], [ 75.81362, 19.88091 ], [ 75.82194, 19.884 ], [ 75.82828, 19.8851 ], [ 75.83218, 19.88294 ], [ 75.8306, 19.88514 ], [ 75.83177, 19.88599 ], [ 75.83142, 19.88839 ], [ 75.83324, 19.89262 ], [ 75.83333, 19.90377 ], [ 75.85397, 19.9044 ], [ 75.85382, 19.90849 ], [ 75.85126, 19.91021 ], [ 75.8506, 19.91284 ], [ 75.85406, 19.91344 ], [ 75.85509, 19.91619 ], [ 75.85734, 19.91743 ], [ 75.85747, 19.91877 ], [ 75.85649, 19.92023 ], [ 75.86187, 19.92442 ], [ 75.8622, 19.9311 ], [ 75.86492, 19.93113 ], [ 75.86558, 19.93298 ], [ 75.86826, 19.93337 ], [ 75.87047, 19.93473 ], [ 75.87041, 19.93714 ], [ 75.87521, 19.94309 ], [ 75.87856, 19.94246 ], [ 75.8811, 19.94555 ], [ 75.88473, 19.94779 ], [ 75.88664, 19.94762 ], [ 75.88699, 19.94521 ], [ 75.89033, 19.94523 ], [ 75.89284, 19.95251 ], [ 75.89359, 19.96501 ], [ 75.89807, 19.96539 ], [ 75.90311, 19.9673 ], [ 75.90587, 19.97279 ], [ 75.90637, 19.97577 ], [ 75.90575, 19.97804 ], [ 75.90763, 19.97995 ], [ 75.91071, 19.98142 ], [ 75.91096, 19.98658 ], [ 75.91398, 19.98986 ], [ 75.9138, 19.99153 ], [ 75.92163, 20.00108 ], [ 75.92429, 19.99981 ] ] ] } },
{ "type": "Feature", "properties": { "OBJECTID": 3871, "state_lgd": "27", "state_name": "MAHARASHTRA", "district_lgd": "514", "district_name": "JALNA", "district_name_source": "district_table", "subdistrict_lgd": "4132", "subdistrict_name": "MANTHA", "subdistrict_type": "", "name_corrupted": false, "remarks": "", "label_lon": 76.386827645205145, "label_lat": 19.743536338803047 }, "geometry": { "type": "Polygon", "coordinates": [ [ [ 76.36752, 19.92824 ], [ 76.38393, 19.91696 ], [ 76.38605, 19.91468 ], [ 76.38738, 19.90861 ], [ 76.39282, 19.90492 ], [ 76.40054, 19.90818 ], [ 76.40216, 19.9098 ], [ 76.40204, 19.91286 ], [ 76.40294, 19.91333 ], [ 76.40412, 19.91625 ], [ 76.40387, 19.91795 ], [ 76.40529, 19.9198 ], [ 76.4107, 19.92053 ], [ 76.41551, 19.91955 ], [ 76.42144, 19.92049 ], [ 76.42367, 19.91926 ], [ 76.43628, 19.91878 ], [ 76.44112, 19.91729 ], [ 76.44656, 19.92244 ], [ 76.44809, 19.92298 ], [ 76.4501, 19.92192 ], [ 76.45348, 19.92336 ], [ 76.45773, 19.9203 ], [ 76.46247, 19.91952 ], [ 76.46941, 19.91901 ], [ 76.4818, 19.9205 ], [ 76.49357, 19.92016 ], [ 76.49143, 19.91299 ], [ 76.49058, 19.90692 ], [ 76.49081, 19.89797 ], [ 76.49156, 19.89815 ], [ 76.49276, 19.8938 ], [ 76.49544, 19.89443 ], [ 76.49964, 19.88944 ], [ 76.50189, 19.88878 ], [ 76.50304, 19.8843 ], [ 76.50649, 19.87801 ], [ 76.51224, 19.87673 ], [ 76.51378, 19.8774 ], [ 76.51447, 19.87869 ], [ 76.51817, 19.87826 ], [ 76.5187, 19.87593 ], [ 76.51698, 19.87422 ], [ 76.51852, 19.87281 ], [ 76.53451, 19.86553 ], [ 76.53117, 19.86176 ], [ 76.53401, 19.85764 ], [ 76.5346, 19.85328 ], [ 76.5341, 19.85027 ], [ 76.52735, 19.85065 ], [ 76.51902, 19.85 ], [ 76.52132, 19.84865 ], [ 76.52109, 19.84457 ], [ 76.52277, 19.8419 ], [ 76.52185, 19.84036 ], [ 76.52107, 19.84076 ], [ 76.51977, 19.83994 ], [ 76.52105, 19.83687 ], [ 76.51841, 19.83636 ], [ 76.51878, 19.83494 ], [ 76.51723, 19.83272 ], [ 76.51247, 19.83183 ], [ 76.51201, 19.8294 ], [ 76.51305, 19.82699 ], [ 76.51535, 19.82692 ], [ 76.51425, 19.82493 ], [ 76.51295, 19.82507 ], [ 76.51103, 19.81885 ], [ 76.51385, 19.81473 ], [ 76.51449, 19.80822 ], [ 76.51145, 19.79897 ], [ 76.50361, 19.80006 ], [ 76.49531, 19.7986 ], [ 76.49145, 19.79996 ], [ 76.48446, 19.80017 ], [ 76.48345, 19.79763 ], [ 76.4818, 19.78871 ], [ 76.48206, 19.78666 ], [ 76.48737, 19.78112 ], [ 76.48666, 19.77925 ], [ 76.49001, 19.77823 ], [ 76.49301, 19.77475 ], [ 76.49736, 19.77294 ], [ 76.51272, 19.77141 ], [ 76.51015, 19.76082 ], [ 76.50744, 19.76216 ], [ 76.50405, 19.76154 ], [ 76.50156, 19.76219 ], [ 76.49944, 19.76395 ], [ 76.49783, 19.76366 ], [ 76.49633, 19.76084 ], [ 76.48828, 19.76372 ], [ 76.48822, 19.75977 ], [ 76.48712, 19.7588 ], [ 76.48803, 19.75452 ], [ 76.4849, 19.74944 ], [ 76.48367, 19.74486 ], [ 76.4731, 19.74687 ], [ 76.4668, 19.74654 ], [ 76.45954, 19.74725 ], [ 76.45833, 19.73746 ], [ 76.46011, 19.72975 ], [ 76.45939, 19.72519 ], [ 76.46734, 19.72481 ], [ 76.4788, 19.72194 ], [ 76.4839, 19.72144 ], [ 76.48445, 19.71343 ], [ 76.48546, 19.71049 ], [ 76.48668, 19.70969 ], [ 76.48695, 19.70448 ], [ 76.48838, 19.70185 ], [ 76.48794, 19.68418 ], [ 76.48713, 19.68106 ], [ 76.48173, 19.67919 ], [ 76.48152, 19.67805 ], [ 76.47898, 19.67813 ], [ 76.47869, 19.67746 ], [ 76.47017, 19.67918 ], [ 76.46868, 19.67086 ], [ 76.46546, 19.66562 ], [ 76.46185, 19.665 ], [ 76.4617, 19.6643 ], [ 76.45256, 19.66652 ], [ 76.4494, 19.65968 ], [ 76.44466, 19.64066 ], [ 76.45361, 19.64092 ], [ 76.45626, 19.63676 ], [ 76.45564, 19.63325 ], [ 76.45469, 19.63319 ], [ 76.45087, 19.61428 ], [ 76.44435, 19.61433 ], [ 76.44161, 19.61339 ], [ 76.43503, 19.6064 ], [ 76.43237, 19.60215 ], [ 76.43777, 19.60018 ], [ 76.43649, 19.58695 ], [ 76.44794, 19.58474 ], [ 76.44764, 19.58026 ], [ 76.44457, 19.56634 ], [ 76.44446, 19.56329 ], [ 76.44506, 19.5631 ], [ 76.44583, 19.55679 ], [ 76.44546, 19.55252 ], [ 76.44214, 19.54156 ], [ 76.43855, 19.54174 ], [ 76.43831, 19.54025 ], [ 76.43728, 19.53962 ], [ 76.42706, 19.53784 ], [ 76.42382, 19.53663 ], [ 76.42288, 19.53496 ], [ 76.41527, 19.53476 ], [ 76.41556, 19.53401 ], [ 76.41272, 19.53455 ], [ 76.41218, 19.53827 ], [ 76.39568, 19.54112 ], [ 76.392, 19.53144 ], [ 76.38319, 19.53515 ], [ 76.37618, 19.53665 ], [ 76.37014, 19.54079 ], [ 76.37299, 19.547 ], [ 76.37806, 19.55494 ], [ 76.37971, 19.5588 ], [ 76.38091, 19.56483 ], [ 76.36799, 19.56431 ], [ 76.36618, 19.55402 ], [ 76.36323, 19.54867 ], [ 76.36003, 19.55055 ], [ 76.35468, 19.54926 ], [ 76.35259, 19.55088 ], [ 76.35196, 19.55598 ], [ 76.34468, 19.55795 ], [ 76.33968, 19.56099 ], [ 76.34174, 19.56888 ], [ 76.33227, 19.57012 ], [ 76.33306, 19.57836 ], [ 76.32037, 19.57957 ], [ 76.31949, 19.58378 ], [ 76.32301, 19.5871 ], [ 76.32303, 19.59128 ], [ 76.32179, 19.5942 ], [ 76.31594, 19.59896 ], [ 76.31585, 19.6007 ], [ 76.31747, 19.60452 ], [ 76.31454, 19.60547 ], [ 76.31156, 19.60502 ], [ 76.3111, 19.60995 ], [ 76.31135, 19.61182 ], [ 76.31333, 19.61409 ], [ 76.31732, 19.62228 ], [ 76.31898, 19.6224 ], [ 76.31972, 19.62885 ], [ 76.31344, 19.63083 ], [ 76.31315, 19.6318 ], [ 76.31127, 19.63226 ], [ 76.31129, 19.63361 ], [ 76.30014, 19.63508 ], [ 76.29442, 19.63675 ], [ 76.29663, 19.65328 ], [ 76.29663, 19.6554 ], [ 76.29573, 19.65557 ], [ 76.29853, 19.6585 ], [ 76.30048, 19.66679 ], [ 76.29597, 19.67108 ], [ 76.30078, 19.69029 ], [ 76.30132, 19.69612 ], [ 76.29933, 19.69925 ], [ 76.29908, 19.69749 ], [ 76.2932, 19.69815 ], [ 76.28858, 19.6929 ], [ 76.2845, 19.6938 ], [ 76.28486, 19.69523 ], [ 76.28194, 19.69635 ], [ 76.28119, 19.69493 ], [ 76.27807, 19.69584 ], [ 76.27831, 19.69318 ], [ 76.27526, 19.69374 ], [ 76.27593, 19.69665 ], [ 76.27347, 19.6974 ], [ 76.27295, 19.69529 ], [ 76.26753, 19.69679 ], [ 76.26412, 19.6913 ], [ 76.256, 19.69265 ], [ 76.24104, 19.69744 ], [ 76.2346, 19.69869 ], [ 76.23272, 19.69454 ], [ 76.23205, 19.69077 ], [ 76.23239, 19.68534 ], [ 76.23147, 19.67549 ], [ 76.21665, 19.67746 ], [ 76.21533, 19.68405 ], [ 76.21665, 19.69014 ], [ 76.21916, 19.69621 ], [ 76.21951, 19.70149 ], [ 76.19924, 19.70621 ], [ 76.19987, 19.71039 ], [ 76.19797, 19.71083 ], [ 76.19828, 19.71281 ], [ 76.20729, 19.72246 ], [ 76.2075, 19.72615 ], [ 76.20999, 19.73192 ], [ 76.21159, 19.73355 ], [ 76.21183, 19.73687 ], [ 76.21789, 19.74537 ], [ 76.21964, 19.75316 ], [ 76.22152, 19.75519 ], [ 76.2224, 19.75511 ], [ 76.22235, 19.75786 ], [ 76.22562, 19.75742 ], [ 76.22519, 19.75668 ], [ 76.23063, 19.75532 ], [ 76.24119, 19.75568 ], [ 76.24107, 19.75638 ], [ 76.24232, 19.75658 ], [ 76.24467, 19.75525 ], [ 76.24769, 19.75476 ], [ 76.25066, 19.75888 ], [ 76.25707, 19.76007 ], [ 76.26161, 19.75981 ], [ 76.27612, 19.7656 ], [ 76.29609, 19.76412 ], [ 76.29615, 19.76662 ], [ 76.30706, 19.76613 ], [ 76.31263, 19.7657 ], [ 76.31298, 19.76433 ], [ 76.31465, 19.76341 ], [ 76.31621, 19.75953 ], [ 76.31199, 19.7583 ], [ 76.31069, 19.75156 ], [ 76.32038, 19.75181 ], [ 76.32345, 19.75034 ], [ 76.32704, 19.75084 ], [ 76.33015, 19.75234 ], [ 76.33142, 19.75366 ], [ 76.33346, 19.75927 ], [ 76.33553, 19.75875 ], [ 76.33556, 19.75968 ], [ 76.33629, 19.75967 ], [ 76.33677, 19.76332 ], [ 76.33437, 19.7635 ], [ 76.33363, 19.76575 ], [ 76.33424, 19.76782 ], [ 76.31747, 19.77157 ], [ 76.31241, 19.77181 ], [ 76.30772, 19.77354 ], [ 76.30795, 19.78551 ], [ 76.30545, 19.79861 ], [ 76.30952, 19.79811 ], [ 76.3098, 19.79923 ], [ 76.31252, 19.80091 ], [ 76.31252, 19.80258 ], [ 76.31226, 19.80642 ], [ 76.3075, 19.80833 ], [ 76.3073, 19.81725 ], [ 76.31074, 19.82249 ], [ 76.31326, 19.82351 ], [ 76.31512, 19.82712 ], [ 76.3209, 19.82708 ], [ 76.32099, 19.83862 ], [ 76.32346, 19.84141 ], [ 76.32443, 19.84552 ], [ 76.32631, 19.84895 ], [ 76.31564, 19.8552 ], [ 76.31784, 19.85833 ], [ 76.31777, 19.86471 ], [ 76.31357, 19.86796 ], [ 76.31433, 19.87034 ], [ 76.31098, 19.87274 ], [ 76.3108, 19.87609 ], [ 76.30994, 19.87711 ], [ 76.31047, 19.8779 ], [ 76.31542, 19.87724 ], [ 76.32666, 19.88598 ], [ 76.33646, 19.88368 ], [ 76.33976, 19.88676 ], [ 76.34183, 19.89097 ], [ 76.3423, 19.89444 ], [ 76.34427, 19.89449 ], [ 76.34467, 19.89302 ], [ 76.3466, 19.89272 ], [ 76.35166, 19.89652 ], [ 76.35484, 19.89687 ], [ 76.35386, 19.89903 ], [ 76.35504, 19.9037 ], [ 76.35485, 19.91017 ], [ 76.35776, 19.9135 ], [ 76.36232, 19.92117 ], [ 76.36459, 19.92278 ], [ 76.36602, 19.9285 ], [ 76.36752, 19.92824 ] ] ] } },
{ "type": "Feature", "properties": { "OBJECTID": 3872, "state_lgd": "27", "state_name": "MAHARASHTRA", "district_lgd": "514", "district_name": "JALNA", "district_name_source": "district_table", "subdistrict_lgd": "4131", "subdistrict_name": "PARTUR", "subdistrict_type": "", "name_corrupted": false, "remarks": "", "label_lon": 76.231742923879608, "label_lat": 19.496254196569037 }, "geometry": { "type": "Polygon", "coordinates": [ [ [ 76.25357, 19.69347 ], [ 76.26441, 19.69131 ], [ 76.26592, 19.69508 ], [ 76.26753, 19.69679 ], [ 76.27295, 19.69529 ], [ 76.27347, 19.6974 ], [ 76.27593, 19.69665 ], [ 76.27526, 19.69374 ], [ 76.27831, 19.69318 ], [ 76.27807, 19.69584 ], [ 76.28119, 19.69493 ], [ 76.28194, 19.69635 ], [ 76.28486, 19.69523 ], [ 76.2845, 19.6938 ], [ 76.28858, 19.6929 ], [ 76.2932, 19.69815 ], [ 76.29908, 19.69749 ], [ 76.29933, 19.69925 ], [ 76.30044, 19.69764 ], [ 76.30132, 19.69612 ], [ 76.30078, 19.69029 ], [ 76.29597, 19.67108 ], [ 76.30026, 19.66737 ], [ 76.30026, 19.66446 ], [ 76.29853, 19.6585 ], [ 76.29573, 19.65557 ], [ 76.29663, 19.6554 ], [ 76.29663, 19.65328 ], [ 76.29442, 19.63675 ], [ 76.30014, 19.63508 ], [ 76.31129, 19.63361 ], [ 76.31127, 19.63226 ], [ 76.31315, 19.6318 ], [ 76.31344, 19.63083 ], [ 76.31972, 19.62885 ], [ 76.31898, 19.6224 ], [ 76.31732, 19.62228 ], [ 76.31333, 19.61409 ], [ 76.31135, 19.61182 ], [ 76.31156, 19.60502 ], [ 76.31454, 19.60547 ], [ 76.31747, 19.60452 ], [ 76.31585, 19.6007 ], [ 76.31594, 19.59896 ], [ 76.32012, 19.59591 ], [ 76.32251, 19.59291 ], [ 76.32301, 19.5871 ], [ 76.31949, 19.58378 ], [ 76.32037, 19.57957 ], [ 76.33306, 19.57836 ], [ 76.33227, 19.57012 ], [ 76.34174, 19.56888 ], [ 76.33968, 19.56099 ], [ 76.34468, 19.55795 ], [ 76.35196, 19.55598 ], [ 76.35259, 19.55088 ], [ 76.35378, 19.54952 ], [ 76.36003, 19.55055 ], [ 76.36323, 19.54867 ], [ 76.36618, 19.55402 ], [ 76.36799, 19.56431 ], [ 76.38091, 19.56483 ], [ 76.37971, 19.5588 ], [ 76.37806, 19.55494 ], [ 76.37299, 19.547 ], [ 76.37014, 19.54079 ], [ 76.37572, 19.53695 ], [ 76.37225, 19.52717 ], [ 76.37133, 19.51984 ], [ 76.36837, 19.50935 ], [ 76.37389, 19.50834 ], [ 76.37613, 19.50715 ], [ 76.37288, 19.50071 ], [ 76.37027, 19.49015 ], [ 76.36721, 19.48362 ], [ 76.36422, 19.4708 ], [ 76.34283, 19.47285 ], [ 76.34334, 19.47248 ], [ 76.34132, 19.45975 ], [ 76.33995, 19.4554 ], [ 76.33941, 19.45412 ], [ 76.33593, 19.45365 ], [ 76.333, 19.4563 ], [ 76.32997, 19.45665 ], [ 76.32816, 19.45559 ], [ 76.32663, 19.45567 ], [ 76.3254, 19.45683 ], [ 76.32264, 19.45717 ], [ 76.3169, 19.46458 ], [ 76.31323, 19.4667 ], [ 76.30755, 19.45213 ], [ 76.3014, 19.43178 ], [ 76.28884, 19.43307 ], [ 76.28732, 19.4139 ], [ 76.28451, 19.40274 ], [ 76.28439, 19.39738 ], [ 76.29011, 19.39674 ], [ 76.29002, 19.39413 ], [ 76.28764, 19.38158 ], [ 76.28388, 19.37446 ], [ 76.2828, 19.36562 ], [ 76.26175, 19.36694 ], [ 76.26012, 19.36084 ], [ 76.25742, 19.35664 ], [ 76.26174, 19.35318 ], [ 76.27621, 19.34655 ], [ 76.27505, 19.34363 ], [ 76.27274, 19.34149 ], [ 76.26937, 19.33987 ], [ 76.26331, 19.33387 ], [ 76.25902, 19.3348 ], [ 76.25856, 19.3339 ], [ 76.25408, 19.33442 ], [ 76.24184, 19.33738 ], [ 76.24063, 19.33621 ], [ 76.23948, 19.33656 ], [ 76.23775, 19.33455 ], [ 76.23581, 19.32617 ], [ 76.23584, 19.32485 ], [ 76.23678, 19.32468 ], [ 76.23682, 19.31793 ], [ 76.23438, 19.31827 ], [ 76.23233, 19.31719 ], [ 76.23021, 19.31347 ], [ 76.21118, 19.319 ], [ 76.20817, 19.30981 ], [ 76.20708, 19.29985 ], [ 76.20777, 19.29784 ], [ 76.21451, 19.2959 ], [ 76.21869, 19.29301 ], [ 76.21786, 19.2894 ], [ 76.21626, 19.28946 ], [ 76.21282, 19.2814 ], [ 76.21169, 19.28 ], [ 76.21062, 19.28108 ], [ 76.20848, 19.28069 ], [ 76.2076, 19.27699 ], [ 76.19531, 19.2859 ], [ 76.17963, 19.28841 ], [ 76.17627, 19.28743 ], [ 76.17119, 19.28357 ], [ 76.16623, 19.28261 ], [ 76.16268, 19.28343 ], [ 76.16029, 19.28582 ], [ 76.16036, 19.29539 ], [ 76.15754, 19.29646 ], [ 76.15174, 19.29579 ], [ 76.14401, 19.29125 ], [ 76.1395, 19.29117 ], [ 76.13361, 19.29318 ], [ 76.13183, 19.29548 ], [ 76.12895, 19.3021 ], [ 76.12568, 19.30335 ], [ 76.12031, 19.30167 ], [ 76.11923, 19.30196 ], [ 76.11968, 19.30471 ], [ 76.11662, 19.30572 ], [ 76.11647, 19.31195 ], [ 76.10627, 19.31524 ], [ 76.10653, 19.31805 ], [ 76.10904, 19.31843 ], [ 76.11251, 19.32103 ], [ 76.11252, 19.32222 ], [ 76.11159, 19.32825 ], [ 76.1067, 19.33215 ], [ 76.10573, 19.33403 ], [ 76.10509, 19.33892 ], [ 76.11864, 19.33784 ], [ 76.12825, 19.33848 ], [ 76.12512, 19.34498 ], [ 76.12462, 19.34888 ], [ 76.1213, 19.35067 ], [ 76.12141, 19.35302 ], [ 76.12335, 19.35633 ], [ 76.12208, 19.35896 ], [ 76.12382, 19.36673 ], [ 76.1201, 19.36884 ], [ 76.11123, 19.37125 ], [ 76.11411, 19.37632 ], [ 76.11408, 19.38231 ], [ 76.12878, 19.38065 ], [ 76.13001, 19.38523 ], [ 76.1309, 19.38503 ], [ 76.13344, 19.39129 ], [ 76.13279, 19.39155 ], [ 76.13374, 19.39889 ], [ 76.13322, 19.39911 ], [ 76.13554, 19.41302 ], [ 76.14031, 19.42111 ], [ 76.14575, 19.42738 ], [ 76.14769, 19.4315 ], [ 76.14844, 19.44036 ], [ 76.14276, 19.44214 ], [ 76.1465, 19.45463 ], [ 76.14491, 19.4548 ], [ 76.14892, 19.47462 ], [ 76.14954, 19.47989 ], [ 76.14909, 19.48592 ], [ 76.15, 19.48561 ], [ 76.15729, 19.49285 ], [ 76.15887, 19.50318 ], [ 76.15857, 19.50889 ], [ 76.15189, 19.51866 ], [ 76.15132, 19.52082 ], [ 76.1479, 19.52432 ], [ 76.1485, 19.52825 ], [ 76.15237, 19.53025 ], [ 76.15581, 19.5395 ], [ 76.15585, 19.54555 ], [ 76.15166, 19.56878 ], [ 76.15189, 19.57088 ], [ 76.15604, 19.58726 ], [ 76.16649, 19.5878 ], [ 76.16982, 19.58901 ], [ 76.17111, 19.59313 ], [ 76.17143, 19.59807 ], [ 76.17316, 19.59965 ], [ 76.17568, 19.62295 ], [ 76.15023, 19.63081 ], [ 76.15457, 19.64761 ], [ 76.15644, 19.6476 ], [ 76.15723, 19.65502 ], [ 76.16031, 19.66857 ], [ 76.15073, 19.67042 ], [ 76.1449, 19.67049 ], [ 76.14497, 19.67672 ], [ 76.14439, 19.67735 ], [ 76.14266, 19.67777 ], [ 76.1389, 19.67598 ], [ 76.13788, 19.68429 ], [ 76.13296, 19.6959 ], [ 76.14277, 19.69478 ], [ 76.14503, 19.69209 ], [ 76.14862, 19.68957 ], [ 76.15051, 19.68414 ], [ 76.15334, 19.68159 ], [ 76.16015, 19.68539 ], [ 76.16364, 19.68404 ], [ 76.16349, 19.68168 ], [ 76.16044, 19.67891 ], [ 76.16134, 19.67575 ], [ 76.16316, 19.6747 ], [ 76.16542, 19.67444 ], [ 76.16672, 19.67844 ], [ 76.16759, 19.67887 ], [ 76.17561, 19.67378 ], [ 76.1789, 19.67435 ], [ 76.18156, 19.67307 ], [ 76.18424, 19.67353 ], [ 76.18517, 19.67172 ], [ 76.18837, 19.67615 ], [ 76.18719, 19.68314 ], [ 76.18785, 19.68552 ], [ 76.18898, 19.68597 ], [ 76.19001, 19.69027 ], [ 76.19806, 19.69055 ], [ 76.19776, 19.68748 ], [ 76.20762, 19.68547 ], [ 76.21632, 19.68038 ], [ 76.21665, 19.67746 ], [ 76.23147, 19.67549 ], [ 76.23239, 19.68534 ], [ 76.23205, 19.69077 ], [ 76.23272, 19.69454 ], [ 76.2346, 19.69869 ], [ 76.23865, 19.69811 ], [ 76.25357, 19.69347 ] ] ] } },
{ "type": "Feature", "properties": { "OBJECTID": 3966, "state_lgd": "27", "state_name": "MAHARASHTRA", "district_lgd": "514", "district_name": "JALNA", "district_name_source": "district_table", "subdistrict_lgd": "4126", "subdistrict_name": "JAFRABAD", "subdistrict_type": "", "name_corrupted": false, "remarks": "", "label_lon": 76.020614051381898, "label_lat": 20.191225195512637 }, "geometry": { "type": "MultiPolygon", "coordinates": [ [ [ [ 75.86542, 20.13132 ], [ 75.87439, 20.12888 ], [ 75.87451, 20.12537 ], [ 75.87088, 20.12454 ], [ 75.87102, 20.12562 ], [ 75.86468, 20.1251 ], [ 75.85288, 20.12249 ], [ 75.83311, 20.12665 ], [ 75.81976, 20.12494 ], [ 75.81978, 20.12646 ], [ 75.83149, 20.13236 ], [ 75.83122, 20.1342 ], [ 75.83413, 20.13534 ], [ 75.83438, 20.13802 ], [ 75.84479, 20.13609 ], [ 75.85325, 20.13295 ], [ 75.86542, 20.13132 ] ] ], [ [ [ 76.08665, 20.3597 ], [ 76.0919, 20.35951 ], [ 76.09308, 20.35763 ], [ 76.0923, 20.35411 ], [ 76.09024, 20.35286 ], [ 76.08974, 20.35157 ], [ 76.09149, 20.35118 ], [ 76.09426, 20.34723 ], [ 76.09654, 20.34738 ], [ 76.09971, 20.35035 ], [ 76.09866, 20.3544 ], [ 76.10092, 20.35359 ], [ 76.10821, 20.35401 ], [ 76.10822, 20.3504 ], [ 76.10979, 20.35047 ], [ 76.11472, 20.34603 ], [ 76.11672, 20.34555 ], [ 76.12104, 20.34662 ], [ 76.12096, 20.34192 ], [ 76.12163, 20.34274 ], [ 76.12479, 20.34349 ], [ 76.12613, 20.34493 ], [ 76.12801, 20.33885 ], [ 76.12374, 20.3331 ], [ 76.12461, 20.33229 ], [ 76.12541, 20.3265 ], [ 76.12472, 20.32496 ], [ 76.12963, 20.32239 ], [ 76.12922, 20.31728 ], [ 76.13456, 20.31902 ], [ 76.13655, 20.31838 ], [ 76.13921, 20.31726 ], [ 76.14081, 20.31435 ], [ 76.14611, 20.31211 ], [ 76.14764, 20.31057 ], [ 76.14648, 20.30578 ], [ 76.14292, 20.30509 ], [ 76.14127, 20.30289 ], [ 76.14091, 20.30053 ], [ 76.14374, 20.30169 ], [ 76.15505, 20.30275 ], [ 76.16851, 20.29491 ], [ 76.17035, 20.29657 ], [ 76.1723, 20.30217 ], [ 76.18178, 20.30037 ], [ 76.18228, 20.30097 ], [ 76.18773, 20.29985 ], [ 76.18925, 20.30061 ], [ 76.19239, 20.29956 ], [ 76.19382, 20.30015 ], [ 76.19324, 20.29768 ], [ 76.18717, 20.28886 ], [ 76.1849, 20.27909 ], [ 76.17782, 20.26604 ], [ 76.17332, 20.26579 ], [ 76.17327, 20.26048 ], [ 76.16971, 20.25833 ], [ 76.16803, 20.2544 ], [ 76.16639, 20.23843 ], [ 76.16289, 20.23899 ], [ 76.14993, 20.2371 ], [ 76.1447, 20.23215 ], [ 76.13928, 20.23126 ], [ 76.13638, 20.22574 ], [ 76.13293, 20.22245 ], [ 76.13473, 20.21976 ], [ 76.13753, 20.21788 ], [ 76.13937, 20.21275 ], [ 76.148, 20.20876 ], [ 76.14985, 20.20595 ], [ 76.14514, 20.19958 ], [ 76.14049, 20.1987 ], [ 76.13197, 20.19875 ], [ 76.13313, 20.19493 ], [ 76.13232, 20.19381 ], [ 76.13305, 20.18895 ], [ 76.13389, 20.18828 ], [ 76.13361, 20.18485 ], [ 76.13191, 20.18262 ], [ 76.12945, 20.18206 ], [ 76.12763, 20.17959 ], [ 76.12622, 20.17619 ], [ 76.12638, 20.17409 ], [ 76.12353, 20.1737 ], [ 76.12513, 20.17064 ], [ 76.12388, 20.16777 ], [ 76.12234, 20.16748 ], [ 76.12128, 20.16836 ], [ 76.1203, 20.16735 ], [ 76.12098, 20.1644 ], [ 76.11885, 20.16236 ], [ 76.11942, 20.16086 ], [ 76.11405, 20.16114 ], [ 76.10881, 20.16243 ], [ 76.10541, 20.15314 ], [ 76.10798, 20.15236 ], [ 76.10841, 20.14844 ], [ 76.10771, 20.14786 ], [ 76.1073, 20.14397 ], [ 76.10781, 20.1444 ], [ 76.10826, 20.14328 ], [ 76.10644, 20.13826 ], [ 76.10572, 20.13257 ], [ 76.10413, 20.13292 ], [ 76.09846, 20.13049 ], [ 76.09926, 20.11594 ], [ 76.09563, 20.10587 ], [ 76.09473, 20.0963 ], [ 76.09266, 20.09639 ], [ 76.09164, 20.09424 ], [ 76.0883, 20.09559 ], [ 76.08712, 20.09641 ], [ 76.08731, 20.10006 ], [ 76.08656, 20.10029 ], [ 76.08447, 20.09965 ], [ 76.08424, 20.09799 ], [ 76.08171, 20.09818 ], [ 76.08074, 20.10023 ], [ 76.07203, 20.10027 ], [ 76.06716, 20.09804 ], [ 76.06238, 20.09926 ], [ 76.06053, 20.09837 ], [ 76.05807, 20.09885 ], [ 76.05577, 20.09739 ], [ 76.05386, 20.09511 ], [ 76.0519, 20.08519 ], [ 76.05818, 20.08686 ], [ 76.06228, 20.08449 ], [ 76.06495, 20.08188 ], [ 76.06699, 20.07644 ], [ 76.06953, 20.0728 ], [ 76.06336, 20.06856 ], [ 76.05559, 20.06599 ], [ 76.0522, 20.06207 ], [ 76.04494, 20.0629 ], [ 76.04112, 20.06161 ], [ 76.03519, 20.0619 ], [ 76.02984, 20.0602 ], [ 76.0188, 20.0584 ], [ 76.02127, 20.04991 ], [ 76.02332, 20.0243 ], [ 76.01293, 20.0229 ], [ 76.01088, 20.02197 ], [ 76.00735, 20.0168 ], [ 76.00618, 20.01242 ], [ 76.00365, 20.0138 ], [ 76.00147, 20.0126 ], [ 75.99935, 20.01271 ], [ 75.99709, 20.01022 ], [ 75.99512, 20.00992 ], [ 75.99165, 20.00771 ], [ 75.9899, 20.00779 ], [ 75.98811, 20.00589 ], [ 75.98334, 20.00376 ], [ 75.97665, 20.00407 ], [ 75.97333, 20.00226 ], [ 75.96565, 20.00279 ], [ 75.9625, 19.9949 ], [ 75.95735, 19.99513 ], [ 75.95017, 19.9968 ], [ 75.94632, 19.99385 ], [ 75.94655, 19.99265 ], [ 75.94517, 19.99136 ], [ 75.94158, 19.99231 ], [ 75.94062, 19.9904 ], [ 75.92999, 19.99842 ], [ 75.92572, 19.99789 ], [ 75.92429, 19.99981 ], [ 75.93344, 20.01017 ], [ 75.93587, 20.01747 ], [ 75.94211, 20.02183 ], [ 75.93908, 20.02285 ], [ 75.93395, 20.02273 ], [ 75.92457, 20.02587 ], [ 75.91488, 20.02769 ], [ 75.90615, 20.02781 ], [ 75.90937, 20.03113 ], [ 75.9123, 20.03848 ], [ 75.91363, 20.03914 ], [ 75.91709, 20.04915 ], [ 75.91722, 20.05699 ], [ 75.91796, 20.05683 ], [ 75.91939, 20.05874 ], [ 75.91907, 20.06373 ], [ 75.91673, 20.07015 ], [ 75.91316, 20.07386 ], [ 75.9061, 20.0782 ], [ 75.90359, 20.08088 ], [ 75.90929, 20.08587 ], [ 75.91771, 20.09136 ], [ 75.92128, 20.09274 ], [ 75.9252, 20.09624 ], [ 75.9231, 20.10225 ], [ 75.91985, 20.10801 ], [ 75.91935, 20.11239 ], [ 75.91782, 20.11419 ], [ 75.92165, 20.11623 ], [ 75.92302, 20.12463 ], [ 75.92632, 20.1243 ], [ 75.92651, 20.12797 ], [ 75.9227, 20.13874 ], [ 75.92316, 20.1441 ], [ 75.92135, 20.14918 ], [ 75.93052, 20.151 ], [ 75.93065, 20.15323 ], [ 75.93635, 20.15913 ], [ 75.93811, 20.16314 ], [ 75.93833, 20.17077 ], [ 75.93114, 20.16981 ], [ 75.93085, 20.18782 ], [ 75.93368, 20.19398 ], [ 75.92924, 20.19488 ], [ 75.91995, 20.20311 ], [ 75.91328, 20.20745 ], [ 75.91105, 20.20766 ], [ 75.90412, 20.20448 ], [ 75.89036, 20.2038 ], [ 75.88217, 20.20543 ], [ 75.87376, 20.20821 ], [ 75.87499, 20.21714 ], [ 75.87943, 20.22608 ], [ 75.87997, 20.23672 ], [ 75.87931, 20.23979 ], [ 75.86978, 20.24488 ], [ 75.87191, 20.24826 ], [ 75.8726, 20.25464 ], [ 75.88444, 20.25832 ], [ 75.88482, 20.26409 ], [ 75.88961, 20.26552 ], [ 75.88925, 20.26856 ], [ 75.89484, 20.26805 ], [ 75.91014, 20.2687 ], [ 75.90928, 20.27483 ], [ 75.9105, 20.27487 ], [ 75.91168, 20.27881 ], [ 75.9137, 20.28046 ], [ 75.91599, 20.28761 ], [ 75.91607, 20.29135 ], [ 75.91718, 20.29188 ], [ 75.91854, 20.29501 ], [ 75.92266, 20.29868 ], [ 75.92928, 20.30223 ], [ 75.93336, 20.30066 ], [ 75.93334, 20.30137 ], [ 75.93997, 20.30118 ], [ 75.94943, 20.29853 ], [ 75.95171, 20.3023 ], [ 75.96051, 20.30767 ], [ 75.96461, 20.31148 ], [ 75.96702, 20.31599 ], [ 75.97001, 20.31583 ], [ 75.97192, 20.31458 ], [ 75.97641, 20.31443 ], [ 75.97525, 20.30775 ], [ 75.98614, 20.30788 ], [ 75.99119, 20.30871 ], [ 75.9913, 20.31065 ], [ 75.99255, 20.3108 ], [ 75.99654, 20.31004 ], [ 75.99736, 20.30885 ], [ 76.00066, 20.30722 ], [ 76.00438, 20.30643 ], [ 76.00187, 20.29764 ], [ 76.00123, 20.29078 ], [ 76.00839, 20.28943 ], [ 76.01573, 20.28964 ], [ 76.01729, 20.28856 ], [ 76.02002, 20.28825 ], [ 76.02836, 20.28906 ], [ 76.02914, 20.29719 ], [ 76.03208, 20.30825 ], [ 76.0355, 20.31402 ], [ 76.03835, 20.32259 ], [ 76.03927, 20.32253 ], [ 76.04118, 20.32477 ], [ 76.04568, 20.33245 ], [ 76.04683, 20.33712 ], [ 76.04976, 20.33886 ], [ 76.05226, 20.34221 ], [ 76.06138, 20.34316 ], [ 76.06543, 20.34511 ], [ 76.06667, 20.34721 ], [ 76.06919, 20.3491 ], [ 76.07146, 20.34904 ], [ 76.07154, 20.35047 ], [ 76.07369, 20.35247 ], [ 76.07608, 20.3581 ], [ 76.08059, 20.36091 ], [ 76.08384, 20.36443 ], [ 76.08577, 20.36524 ], [ 76.08572, 20.36397 ], [ 76.0868, 20.36307 ], [ 76.08601, 20.36037 ], [ 76.08665, 20.3597 ] ] ] ] } },
{ "type": "Feature", "properties": { "OBJECTID": 3978, "state_lgd": "27", "state_name": "MAHARASHTRA", "district_lgd": "514", "district_name": "JALNA", "district_name_source": "district_table", "subdistrict_lgd": "4128", "subdistrict_name": "BADNAPUR", "subdistrict_type": "", "name_corrupted": false, "remarks": "", "label_lon": 75.750189786471253, "label_lat": 19.918781160762915 }, "geometry": { "type": "Polygon", "coordinates": [ [ [ 75.62638, 20.07053 ], [ 75.63209, 20.0681 ], [ 75.63908, 20.06216 ], [ 75.64672, 20.06028 ], [ 75.64317, 20.05086 ], [ 75.64038, 20.047 ], [ 75.6385, 20.04244 ], [ 75.64622, 20.03547 ], [ 75.64773, 20.03489 ], [ 75.65894, 20.03892 ], [ 75.66621, 20.04567 ], [ 75.67628, 20.0487 ], [ 75.67783, 20.05103 ], [ 75.67989, 20.05969 ], [ 75.68215, 20.06511 ], [ 75.68348, 20.06642 ], [ 75.68865, 20.06579 ], [ 75.6966, 20.06877 ], [ 75.69909, 20.07073 ], [ 75.70689, 20.07222 ], [ 75.71057, 20.07197 ], [ 75.71582, 20.06926 ], [ 75.71713, 20.06355 ], [ 75.72899, 20.06124 ], [ 75.73293, 20.06122 ], [ 75.73969, 20.05723 ], [ 75.74136, 20.0552 ], [ 75.7435, 20.05465 ], [ 75.74514, 20.04954 ], [ 75.75165, 20.0499 ], [ 75.76067, 20.05322 ], [ 75.77069, 20.05368 ], [ 75.77527, 20.05687 ], [ 75.7769, 20.05979 ], [ 75.7798, 20.06067 ], [ 75.7803, 20.062 ], [ 75.78278, 20.05888 ], [ 75.7835, 20.05462 ], [ 75.78633, 20.05054 ], [ 75.78742, 20.04392 ], [ 75.79152, 20.03766 ], [ 75.79594, 20.03612 ], [ 75.79473, 20.03384 ], [ 75.805, 20.0304 ], [ 75.80555, 20.04125 ], [ 75.81009, 20.04124 ], [ 75.81193, 20.04679 ], [ 75.81821, 20.04995 ], [ 75.82291, 20.05146 ], [ 75.82892, 20.05176 ], [ 75.83362, 20.05103 ], [ 75.84381, 20.04718 ], [ 75.84755, 20.04657 ], [ 75.84656, 20.03806 ], [ 75.84934, 20.03756 ], [ 75.85036, 20.03218 ], [ 75.85482, 20.03271 ], [ 75.86764, 20.03218 ], [ 75.87384, 20.02995 ], [ 75.89235, 20.02823 ], [ 75.90119, 20.02613 ], [ 75.90506, 20.02779 ], [ 75.91488, 20.02769 ], [ 75.92457, 20.02587 ], [ 75.93395, 20.02273 ], [ 75.93908, 20.02285 ], [ 75.94211, 20.02183 ], [ 75.93587, 20.01747 ], [ 75.93344, 20.01017 ], [ 75.92429, 19.99981 ], [ 75.92163, 20.00108 ], [ 75.9138, 19.99153 ], [ 75.91398, 19.98986 ], [ 75.91096, 19.98658 ], [ 75.91071, 19.98142 ], [ 75.90763, 19.97995 ], [ 75.90575, 19.97804 ], [ 75.90637, 19.97577 ], [ 75.90587, 19.97279 ], [ 75.90311, 19.9673 ], [ 75.89807, 19.96539 ], [ 75.89359, 19.96501 ], [ 75.89284, 19.95251 ], [ 75.89033, 19.94523 ], [ 75.88699, 19.94521 ], [ 75.88664, 19.94762 ], [ 75.88473, 19.94779 ], [ 75.8811, 19.94555 ], [ 75.87856, 19.94246 ], [ 75.87521, 19.94309 ], [ 75.87041, 19.93714 ], [ 75.87047, 19.93473 ], [ 75.86826, 19.93337 ], [ 75.86558, 19.93298 ], [ 75.86492, 19.93113 ], [ 75.8622, 19.9311 ], [ 75.86187, 19.92442 ], [ 75.85649, 19.92023 ], [ 75.85747, 19.91877 ], [ 75.85734, 19.91743 ], [ 75.85509, 19.91619 ], [ 75.85406, 19.91344 ], [ 75.8506, 19.91284 ], [ 75.85126, 19.91021 ], [ 75.85382, 19.90849 ], [ 75.85397, 19.9044 ], [ 75.83333, 19.90377 ], [ 75.83324, 19.89262 ], [ 75.83142, 19.88839 ], [ 75.83177, 19.88599 ], [ 75.8306, 19.88514 ], [ 75.83218, 19.88294 ], [ 75.82828, 19.8851 ], [ 75.82194, 19.884 ], [ 75.81362, 19.88091 ], [ 75.81357, 19.86896 ], [ 75.81225, 19.85603 ], [ 75.81311, 19.8561 ], [ 75.81347, 19.85477 ], [ 75.81168, 19.84338 ], [ 75.81124, 19.84232 ], [ 75.80159, 19.83536 ], [ 75.80091, 19.822 ], [ 75.8037, 19.82352 ], [ 75.81185, 19.82295 ], [ 75.81438, 19.81685 ], [ 75.8174, 19.80108 ], [ 75.81654, 19.80104 ], [ 75.81306, 19.79394 ], [ 75.81139, 19.78609 ], [ 75.81735, 19.78061 ], [ 75.82738, 19.77677 ], [ 75.835, 19.7749 ], [ 75.83325, 19.76373 ], [ 75.82874, 19.74907 ], [ 75.82672, 19.73484 ], [ 75.82387, 19.7388 ], [ 75.81985, 19.7377 ], [ 75.81763, 19.73838 ], [ 75.81563, 19.73803 ], [ 75.81441, 19.73741 ], [ 75.81492, 19.73455 ], [ 75.81291, 19.73187 ], [ 75.80536, 19.72861 ], [ 75.79759, 19.72829 ], [ 75.79467, 19.72903 ], [ 75.79289, 19.73364 ], [ 75.7879, 19.73591 ], [ 75.78323, 19.73627 ], [ 75.777, 19.73469 ], [ 75.77545, 19.73545 ], [ 75.77142, 19.74019 ], [ 75.76151, 19.74451 ], [ 75.75679, 19.74545 ], [ 75.75547, 19.75008 ], [ 75.75413, 19.74975 ], [ 75.75112, 19.74689 ], [ 75.74994, 19.7468 ], [ 75.74351, 19.75039 ], [ 75.73288, 19.75043 ], [ 75.7316, 19.75696 ], [ 75.72565, 19.75943 ], [ 75.7242, 19.76232 ], [ 75.72116, 19.76516 ], [ 75.71679, 19.76367 ], [ 75.70902, 19.76707 ], [ 75.70701, 19.76993 ], [ 75.70644, 19.7738 ], [ 75.7048, 19.77519 ], [ 75.70295, 19.77468 ], [ 75.70016, 19.77163 ], [ 75.69473, 19.7735 ], [ 75.69177, 19.77079 ], [ 75.68514, 19.77075 ], [ 75.68406, 19.76851 ], [ 75.68472, 19.76533 ], [ 75.68297, 19.76202 ], [ 75.68355, 19.76082 ], [ 75.68637, 19.75928 ], [ 75.68567, 19.75828 ], [ 75.68401, 19.75686 ], [ 75.67147, 19.75453 ], [ 75.6679, 19.75278 ], [ 75.66206, 19.75339 ], [ 75.66045, 19.75622 ], [ 75.65923, 19.75684 ], [ 75.65756, 19.75635 ], [ 75.65696, 19.75123 ], [ 75.65433, 19.74993 ], [ 75.64732, 19.75373 ], [ 75.64556, 19.75386 ], [ 75.63968, 19.75161 ], [ 75.63528, 19.75328 ], [ 75.62976, 19.75336 ], [ 75.62573, 19.75549 ], [ 75.62272, 19.755 ], [ 75.62383, 19.77261 ], [ 75.6361, 19.77237 ], [ 75.63477, 19.77373 ], [ 75.63401, 19.77812 ], [ 75.63667, 19.77828 ], [ 75.64055, 19.78019 ], [ 75.64442, 19.78006 ], [ 75.64506, 19.78274 ], [ 75.64495, 19.79313 ], [ 75.64125, 19.793 ], [ 75.63947, 19.79988 ], [ 75.63453, 19.80473 ], [ 75.63345, 19.80695 ], [ 75.6336, 19.81168 ], [ 75.6443, 19.81203 ], [ 75.65359, 19.81336 ], [ 75.65419, 19.8147 ], [ 75.65548, 19.81443 ], [ 75.6585, 19.82252 ], [ 75.66, 19.82921 ], [ 75.65771, 19.82966 ], [ 75.65811, 19.83394 ], [ 75.65666, 19.83334 ], [ 75.65591, 19.84095 ], [ 75.64489, 19.8421 ], [ 75.64557, 19.84742 ], [ 75.64811, 19.85428 ], [ 75.64671, 19.85848 ], [ 75.64797, 19.86273 ], [ 75.64778, 19.87023 ], [ 75.64942, 19.87643 ], [ 75.65257, 19.87673 ], [ 75.65451, 19.90167 ], [ 75.65618, 19.90223 ], [ 75.65596, 19.90518 ], [ 75.65737, 19.91029 ], [ 75.65678, 19.91251 ], [ 75.66367, 19.91218 ], [ 75.67104, 19.91438 ], [ 75.67289, 19.91699 ], [ 75.6744, 19.91617 ], [ 75.67539, 19.91691 ], [ 75.67754, 19.91654 ], [ 75.67972, 19.91823 ], [ 75.6806, 19.92452 ], [ 75.67903, 19.92571 ], [ 75.67719, 19.93083 ], [ 75.67417, 19.9331 ], [ 75.67447, 19.93654 ], [ 75.67342, 19.93827 ], [ 75.67353, 19.9398 ], [ 75.66871, 19.94214 ], [ 75.66921, 19.94402 ], [ 75.66541, 19.94593 ], [ 75.66365, 19.94543 ], [ 75.66371, 19.94781 ], [ 75.66194, 19.94947 ], [ 75.6583, 19.94793 ], [ 75.65865, 19.94618 ], [ 75.65747, 19.94538 ], [ 75.65416, 19.94635 ], [ 75.65336, 19.94806 ], [ 75.6511, 19.94973 ], [ 75.6525, 19.95082 ], [ 75.65165, 19.95137 ], [ 75.65233, 19.95352 ], [ 75.65321, 19.95362 ], [ 75.65485, 19.95777 ], [ 75.65576, 19.96584 ], [ 75.65069, 19.9686 ], [ 75.6499, 19.97074 ], [ 75.64806, 19.97135 ], [ 75.64859, 19.97264 ], [ 75.64393, 19.97555 ], [ 75.64303, 19.98246 ], [ 75.64212, 19.98278 ], [ 75.6458, 19.99618 ], [ 75.64447, 20.00698 ], [ 75.63974, 20.00775 ], [ 75.63908, 20.0102 ], [ 75.63343, 20.0116 ], [ 75.63217, 20.00882 ], [ 75.63254, 20.00686 ], [ 75.63018, 20.00385 ], [ 75.62844, 20.00332 ], [ 75.62796, 20.00213 ], [ 75.62531, 20.002 ], [ 75.6225, 19.99993 ], [ 75.60903, 20.00056 ], [ 75.60736, 20.00135 ], [ 75.60642, 20.00039 ], [ 75.59957, 19.99951 ], [ 75.59809, 20.00526 ], [ 75.59436, 20.00531 ], [ 75.59245, 20.00638 ], [ 75.592, 20.01626 ], [ 75.59055, 20.01666 ], [ 75.58819, 20.02292 ], [ 75.59123, 20.02857 ], [ 75.59255, 20.03006 ], [ 75.59353, 20.02996 ], [ 75.59341, 20.03179 ], [ 75.59487, 20.0322 ], [ 75.60062, 20.04942 ], [ 75.60236, 20.05035 ], [ 75.60295, 20.05166 ], [ 75.61129, 20.05056 ], [ 75.6106, 20.05647 ], [ 75.61196, 20.05808 ], [ 75.61329, 20.0583 ], [ 75.61328, 20.05974 ], [ 75.61639, 20.06297 ], [ 75.61671, 20.06481 ], [ 75.61838, 20.06555 ], [ 75.61792, 20.06674 ], [ 75.61932, 20.06935 ], [ 75.61854, 20.06971 ], [ 75.61938, 20.07022 ], [ 75.61951, 20.07178 ], [ 75.62638, 20.07053 ] ] ] } }
]
}
