{
"type": "FeatureCollection",
"name": "517_THANE",
"crs": { "type": "name", "properties": { "name": "urn:ogc:def:crs:OGC:1.3:CRS84" } },
"xy_coordinate_resolution": 1e-05,
"features": [
{ "type": "Feature", "properties": { "OBJECTID": 3649, "state_lgd": "27", "state_name": "MAHARASHTRA", "district_lgd": "517", "district_name": "THANE", "district_name_source": "district_table", "subdistrict_lgd": "4170", "subdistrict_name": "AMBARNATH", "subdistrict_type": "", "name_corrupted": false, "remarks": "", "label_lon": 73.246862447275475, "label_lat": 19.151296430581663 }, "geometry": { "type": "Polygon", "coordinates": [ [ [ 73.18925, 19.23702 ], [ 73.19882, 19.23397 ], [ 73.20522, 19.22708 ], [ 73.21036, 19.22324 ], [ 73.21053, 19.2216 ], [ 73.21327, 19.21719 ], [ 73.21811, 19.21326 ], [ 73.21852, 19.20742 ], [ 73.22, 19.20537 ], [ 73.21896, 19.20275 ], [ 73.21962, 19.20236 ], [ 73.21986, 19.19938 ], [ 73.22498, 19.1923 ], [ 73.22733, 19.19157 ], [ 73.23552, 19.19464 ], [ 73.23984, 19.19734 ], [ 73.24374, 19.19756 ], [ 73.24703, 19.19927 ], [ 73.24485, 19.20567 ], [ 73.24514, 19.21318 ], [ 73.24595, 19.21369 ], [ 73.24816, 19.21341 ], [ 73.24919, 19.20856 ], [ 73.25554, 19.21123 ], [ 73.25723, 19.20884 ], [ 73.26014, 19.20834 ], [ 73.26317, 19.20994 ], [ 73.2628, 19.21435 ], [ 73.26363, 19.21733 ], [ 73.26476, 19.21833 ], [ 73.26815, 19.21856 ], [ 73.27165, 19.21677 ], [ 73.27163, 19.2112 ], [ 73.27451, 19.20935 ], [ 73.27658, 19.21292 ], [ 73.28052, 19.21426 ], [ 73.28125, 19.21288 ], [ 73.28047, 19.21095 ], [ 73.28229, 19.20969 ], [ 73.28614, 19.21206 ], [ 73.29431, 19.21472 ], [ 73.29695, 19.21371 ], [ 73.29826, 19.21187 ], [ 73.30066, 19.21254 ], [ 73.30434, 19.21711 ], [ 73.30842, 19.21938 ], [ 73.31009, 19.22419 ], [ 73.31434, 19.22361 ], [ 73.31818, 19.22126 ], [ 73.3278, 19.21828 ], [ 73.32715, 19.21586 ], [ 73.32756, 19.21381 ], [ 73.33003, 19.20787 ], [ 73.33048, 19.19798 ], [ 73.3298, 19.19659 ], [ 73.33036, 19.19579 ], [ 73.33281, 19.19373 ], [ 73.33428, 19.19116 ], [ 73.33854, 19.19013 ], [ 73.3388, 19.18814 ], [ 73.34155, 19.18611 ], [ 73.34405, 19.18631 ], [ 73.34486, 19.18497 ], [ 73.34715, 19.18452 ], [ 73.35062, 19.18542 ], [ 73.35379, 19.17886 ], [ 73.35823, 19.17398 ], [ 73.35864, 19.17318 ], [ 73.35796, 19.17285 ], [ 73.35977, 19.17009 ], [ 73.36496, 19.16756 ], [ 73.36764, 19.16511 ], [ 73.37626, 19.16576 ], [ 73.38099, 19.1623 ], [ 73.38346, 19.15613 ], [ 73.38341, 19.15276 ], [ 73.38484, 19.14832 ], [ 73.39007, 19.13853 ], [ 73.38875, 19.13302 ], [ 73.38421, 19.13243 ], [ 73.37985, 19.12975 ], [ 73.37656, 19.12957 ], [ 73.37317, 19.12828 ], [ 73.37229, 19.12669 ], [ 73.35839, 19.13077 ], [ 73.34859, 19.12869 ], [ 73.34327, 19.12614 ], [ 73.34154, 19.12428 ], [ 73.33435, 19.12329 ], [ 73.33435, 19.12116 ], [ 73.33338, 19.12012 ], [ 73.32634, 19.11968 ], [ 73.32489, 19.11788 ], [ 73.32145, 19.11672 ], [ 73.3208, 19.11413 ], [ 73.31623, 19.10763 ], [ 73.30743, 19.10693 ], [ 73.30903, 19.10356 ], [ 73.30928, 19.0996 ], [ 73.31382, 19.09618 ], [ 73.31594, 19.09288 ], [ 73.32201, 19.08699 ], [ 73.32153, 19.08458 ], [ 73.31973, 19.08271 ], [ 73.31879, 19.0801 ], [ 73.31693, 19.08004 ], [ 73.31396, 19.07691 ], [ 73.31144, 19.07935 ], [ 73.30588, 19.07844 ], [ 73.30156, 19.07414 ], [ 73.30212, 19.07398 ], [ 73.30124, 19.07253 ], [ 73.29763, 19.07232 ], [ 73.29689, 19.07506 ], [ 73.29822, 19.08154 ], [ 73.29778, 19.08344 ], [ 73.29073, 19.08452 ], [ 73.28743, 19.08693 ], [ 73.28431, 19.08763 ], [ 73.27938, 19.08677 ], [ 73.27671, 19.08526 ], [ 73.27292, 19.07936 ], [ 73.26422, 19.07223 ], [ 73.26407, 19.06627 ], [ 73.26191, 19.06596 ], [ 73.25684, 19.06211 ], [ 73.24946, 19.06198 ], [ 73.24345, 19.06464 ], [ 73.23808, 19.07015 ], [ 73.23486, 19.06856 ], [ 73.23242, 19.0818 ], [ 73.23051, 19.08796 ], [ 73.22472, 19.09031 ], [ 73.22138, 19.09551 ], [ 73.21817, 19.0954 ], [ 73.21283, 19.09939 ], [ 73.21179, 19.10317 ], [ 73.20873, 19.10848 ], [ 73.20188, 19.11517 ], [ 73.19783, 19.12315 ], [ 73.19408, 19.12746 ], [ 73.17941, 19.11594 ], [ 73.18215, 19.10582 ], [ 73.17016, 19.10962 ], [ 73.15268, 19.11353 ], [ 73.14584, 19.12224 ], [ 73.14477, 19.12621 ], [ 73.14341, 19.12745 ], [ 73.14212, 19.12539 ], [ 73.14056, 19.12575 ], [ 73.13686, 19.11942 ], [ 73.13479, 19.11885 ], [ 73.13358, 19.11716 ], [ 73.13323, 19.11453 ], [ 73.13061, 19.11143 ], [ 73.13035, 19.10867 ], [ 73.12734, 19.10887 ], [ 73.12275, 19.11051 ], [ 73.11984, 19.1099 ], [ 73.11787, 19.10674 ], [ 73.11558, 19.10741 ], [ 73.11417, 19.11091 ], [ 73.10625, 19.11019 ], [ 73.10597, 19.11482 ], [ 73.10663, 19.11632 ], [ 73.10802, 19.11672 ], [ 73.10811, 19.11967 ], [ 73.1079, 19.12304 ], [ 73.1067, 19.12267 ], [ 73.10573, 19.12465 ], [ 73.10708, 19.13183 ], [ 73.10607, 19.13432 ], [ 73.1076, 19.13569 ], [ 73.10821, 19.13841 ], [ 73.10748, 19.14381 ], [ 73.10638, 19.14504 ], [ 73.1061, 19.15053 ], [ 73.10793, 19.15505 ], [ 73.11086, 19.15109 ], [ 73.11801, 19.15311 ], [ 73.11968, 19.1558 ], [ 73.12124, 19.16101 ], [ 73.12396, 19.16192 ], [ 73.12604, 19.16126 ], [ 73.12892, 19.16158 ], [ 73.12915, 19.16351 ], [ 73.1312, 19.16735 ], [ 73.13452, 19.17148 ], [ 73.13485, 19.18393 ], [ 73.14006, 19.18184 ], [ 73.14141, 19.18371 ], [ 73.14629, 19.18338 ], [ 73.14858, 19.18054 ], [ 73.15076, 19.18009 ], [ 73.1534, 19.17792 ], [ 73.15965, 19.17891 ], [ 73.16393, 19.17857 ], [ 73.16007, 19.19238 ], [ 73.16154, 19.19274 ], [ 73.16034, 19.19388 ], [ 73.1633, 19.19219 ], [ 73.16315, 19.19155 ], [ 73.16485, 19.19206 ], [ 73.16651, 19.1908 ], [ 73.17022, 19.19185 ], [ 73.17301, 19.19509 ], [ 73.17612, 19.19654 ], [ 73.17455, 19.20024 ], [ 73.17651, 19.20067 ], [ 73.17405, 19.21226 ], [ 73.17358, 19.2138 ], [ 73.17211, 19.21384 ], [ 73.17084, 19.21796 ], [ 73.17092, 19.22152 ], [ 73.1687, 19.22307 ], [ 73.16929, 19.22468 ], [ 73.17327, 19.23099 ], [ 73.17512, 19.23108 ], [ 73.18076, 19.22913 ], [ 73.18346, 19.23151 ], [ 73.18647, 19.23604 ], [ 73.18925, 19.23702 ] ] ] } },
{ "type": "Feature", "properties": { "OBJECTID": 3658, "state_lgd": "27", "state_name": "MAHARASHTRA", "district_lgd": "517", "district_name": "THANE", "district_name_source": "district_table", "subdistrict_lgd": "4166", "subdistrict_name": "BHIWANDI", "subdistrict_type": "", "name_corrupted": false, "remarks": "", "label_lon": 73.089544418576253, "label_lat": 19.37118886735599 }, "geometry": { "type": "Polygon", "coordinates": [ [ [ 73.17239, 19.52614 ], [ 73.17381, 19.51597 ], [ 73.17663, 19.50988 ], [ 73.17486, 19.50556 ], [ 73.17581, 19.50021 ], [ 73.17759, 19.49426 ], [ 73.18008, 19.49018 ], [ 73.18383, 19.48991 ], [ 73.18793, 19.4873 ], [ 73.19086, 19.48834 ], [ 73.19348, 19.4871 ], [ 73.19879, 19.48748 ], [ 73.2001, 19.48683 ], [ 73.202, 19.48405 ], [ 73.20606, 19.48086 ], [ 73.20808, 19.47471 ], [ 73.21139, 19.47222 ], [ 73.22521, 19.46549 ], [ 73.23107, 19.46134 ], [ 73.23065, 19.45654 ], [ 73.22865, 19.44938 ], [ 73.2254, 19.44396 ], [ 73.23092, 19.44159 ], [ 73.23241, 19.43775 ], [ 73.23622, 19.4325 ], [ 73.23963, 19.43087 ], [ 73.24135, 19.42581 ], [ 73.24247, 19.41845 ], [ 73.24591, 19.41574 ], [ 73.246, 19.41284 ], [ 73.24421, 19.40901 ], [ 73.24604, 19.40332 ], [ 73.24222, 19.39392 ], [ 73.24152, 19.39367 ], [ 73.24116, 19.39063 ], [ 73.23825, 19.39059 ], [ 73.23751, 19.38963 ], [ 73.23814, 19.38681 ], [ 73.23779, 19.37945 ], [ 73.23593, 19.37818 ], [ 73.22832, 19.37928 ], [ 73.22569, 19.37849 ], [ 73.22549, 19.3749 ], [ 73.22837, 19.36924 ], [ 73.22849, 19.36484 ], [ 73.22777, 19.3636 ], [ 73.22555, 19.36289 ], [ 73.22127, 19.36452 ], [ 73.21647, 19.36797 ], [ 73.21351, 19.36854 ], [ 73.21111, 19.36735 ], [ 73.21144, 19.36399 ], [ 73.21529, 19.36067 ], [ 73.21523, 19.35833 ], [ 73.21201, 19.35637 ], [ 73.20772, 19.3499 ], [ 73.20587, 19.34837 ], [ 73.20111, 19.34767 ], [ 73.19858, 19.34392 ], [ 73.19345, 19.3425 ], [ 73.19151, 19.34029 ], [ 73.19151, 19.33299 ], [ 73.19375, 19.32879 ], [ 73.19108, 19.31938 ], [ 73.18979, 19.31822 ], [ 73.18502, 19.31753 ], [ 73.18441, 19.31175 ], [ 73.18248, 19.3059 ], [ 73.17437, 19.29711 ], [ 73.17383, 19.29512 ], [ 73.17437, 19.292 ], [ 73.18045, 19.28582 ], [ 73.17873, 19.27939 ], [ 73.17692, 19.27759 ], [ 73.17181, 19.27447 ], [ 73.15398, 19.272 ], [ 73.14732, 19.26845 ], [ 73.14096, 19.26734 ], [ 73.13864, 19.26917 ], [ 73.13567, 19.27321 ], [ 73.13562, 19.27524 ], [ 73.13374, 19.27912 ], [ 73.13109, 19.282 ], [ 73.12567, 19.28265 ], [ 73.11445, 19.2791 ], [ 73.10754, 19.27452 ], [ 73.10683, 19.27216 ], [ 73.10437, 19.26972 ], [ 73.10006, 19.26991 ], [ 73.09979, 19.26868 ], [ 73.10062, 19.2647 ], [ 73.10366, 19.26111 ], [ 73.10504, 19.26156 ], [ 73.11124, 19.2583 ], [ 73.11434, 19.25396 ], [ 73.11379, 19.2497 ], [ 73.11438, 19.24496 ], [ 73.11248, 19.23524 ], [ 73.10493, 19.23181 ], [ 73.0998, 19.23225 ], [ 73.09506, 19.23549 ], [ 73.0906, 19.24017 ], [ 73.08767, 19.24157 ], [ 73.08064, 19.2417 ], [ 73.07803, 19.24097 ], [ 73.0688, 19.23417 ], [ 73.06776, 19.23557 ], [ 73.06577, 19.23348 ], [ 73.06456, 19.22661 ], [ 73.06553, 19.22562 ], [ 73.065, 19.21833 ], [ 73.06737, 19.21761 ], [ 73.06666, 19.2125 ], [ 73.06437, 19.20696 ], [ 73.05914, 19.20276 ], [ 73.04194, 19.19994 ], [ 73.02582, 19.19955 ], [ 73.02342, 19.20113 ], [ 73.02119, 19.20439 ], [ 73.01841, 19.21012 ], [ 73.01802, 19.21362 ], [ 73.01026, 19.21985 ], [ 73.00347, 19.22058 ], [ 73.00194, 19.22167 ], [ 73.00176, 19.22795 ], [ 72.99828, 19.25109 ], [ 72.99001, 19.26548 ], [ 72.99031, 19.27189 ], [ 72.98795, 19.27997 ], [ 72.98328, 19.2868 ], [ 72.97758, 19.29149 ], [ 72.9663, 19.29883 ], [ 72.95918, 19.3005 ], [ 72.95521, 19.30033 ], [ 72.95399, 19.30479 ], [ 72.95253, 19.30539 ], [ 72.94908, 19.30955 ], [ 72.94493, 19.31288 ], [ 72.94346, 19.31768 ], [ 72.94411, 19.31804 ], [ 72.94386, 19.32472 ], [ 72.9419, 19.33224 ], [ 72.94356, 19.34595 ], [ 72.94742, 19.35389 ], [ 72.94927, 19.37927 ], [ 72.95696, 19.38302 ], [ 72.95908, 19.38165 ], [ 72.9622, 19.38559 ], [ 72.9592, 19.39417 ], [ 72.9599, 19.39877 ], [ 72.96533, 19.39923 ], [ 72.97447, 19.39735 ], [ 72.97697, 19.39868 ], [ 72.97749, 19.40823 ], [ 72.98102, 19.41374 ], [ 72.9821, 19.41218 ], [ 72.987, 19.41212 ], [ 72.98962, 19.41522 ], [ 72.99053, 19.41799 ], [ 72.99484, 19.42129 ], [ 72.99706, 19.42134 ], [ 73.00296, 19.42623 ], [ 73.00378, 19.43168 ], [ 73.00498, 19.43338 ], [ 73.01621, 19.4444 ], [ 73.02045, 19.44685 ], [ 73.01743, 19.44776 ], [ 73.0158, 19.45126 ], [ 73.01248, 19.4535 ], [ 73.01141, 19.45512 ], [ 73.00614, 19.45854 ], [ 73.00167, 19.4601 ], [ 72.99393, 19.46676 ], [ 72.99307, 19.47108 ], [ 72.99548, 19.47881 ], [ 72.99308, 19.48482 ], [ 72.99058, 19.48629 ], [ 72.99017, 19.48878 ], [ 72.98846, 19.48985 ], [ 72.99022, 19.49018 ], [ 72.99994, 19.49594 ], [ 73.00219, 19.49846 ], [ 73.00358, 19.50363 ], [ 73.00582, 19.50356 ], [ 73.00815, 19.50241 ], [ 73.01077, 19.50261 ], [ 73.01321, 19.50445 ], [ 73.01435, 19.50739 ], [ 73.01589, 19.50751 ], [ 73.01801, 19.50604 ], [ 73.0228, 19.49441 ], [ 73.02807, 19.49288 ], [ 73.0275, 19.49117 ], [ 73.02894, 19.49086 ], [ 73.03125, 19.49209 ], [ 73.03628, 19.49729 ], [ 73.03862, 19.49705 ], [ 73.04323, 19.49314 ], [ 73.04488, 19.49255 ], [ 73.04812, 19.49317 ], [ 73.05274, 19.48223 ], [ 73.05596, 19.47919 ], [ 73.0582, 19.47896 ], [ 73.06279, 19.48005 ], [ 73.07262, 19.47918 ], [ 73.07657, 19.4823 ], [ 73.07722, 19.48409 ], [ 73.08024, 19.48362 ], [ 73.08425, 19.48487 ], [ 73.08812, 19.48881 ], [ 73.09632, 19.49078 ], [ 73.10046, 19.49562 ], [ 73.10361, 19.49619 ], [ 73.1086, 19.49405 ], [ 73.11214, 19.49629 ], [ 73.11851, 19.496 ], [ 73.12331, 19.49904 ], [ 73.12902, 19.4996 ], [ 73.13311, 19.50117 ], [ 73.13113, 19.50861 ], [ 73.12957, 19.51089 ], [ 73.13338, 19.51668 ], [ 73.13539, 19.51775 ], [ 73.1388, 19.51772 ], [ 73.14049, 19.51903 ], [ 73.15729, 19.52045 ], [ 73.16328, 19.52026 ], [ 73.16592, 19.5221 ], [ 73.16801, 19.52247 ], [ 73.17015, 19.52498 ], [ 73.17239, 19.52614 ] ] ] } },
{ "type": "Feature", "properties": { "OBJECTID": 3742, "state_lgd": "27", "state_name": "MAHARASHTRA", "district_lgd": "517", "district_name": "THANE", "district_name_source": "district_table", "subdistrict_lgd": "4171", "subdistrict_name": "MURBAD", "subdistrict_type": "", "name_corrupted": false, "remarks": "", "label_lon": 73.531292390017796, "label_lat": 19.278912025924356 }, "geometry": { "type": "Polygon", "coordinates": [ [ [ 73.61835, 19.45655 ], [ 73.62338, 19.45578 ], [ 73.62384, 19.45269 ], [ 73.62051, 19.44479 ], [ 73.62573, 19.44346 ], [ 73.62957, 19.44425 ], [ 73.63076, 19.44253 ], [ 73.63511, 19.44102 ], [ 73.63715, 19.43767 ], [ 73.64143, 19.43446 ], [ 73.64383, 19.43154 ], [ 73.64329, 19.42949 ], [ 73.64963, 19.42627 ], [ 73.66059, 19.42858 ], [ 73.66259, 19.42829 ], [ 73.66413, 19.43013 ], [ 73.66875, 19.43064 ], [ 73.6862, 19.44333 ], [ 73.68897, 19.44075 ], [ 73.68777, 19.44023 ], [ 73.69314, 19.43357 ], [ 73.70065, 19.43522 ], [ 73.70252, 19.43419 ], [ 73.70319, 19.43455 ], [ 73.70677, 19.43152 ], [ 73.70788, 19.42768 ], [ 73.70774, 19.43069 ], [ 73.7107, 19.43169 ], [ 73.72226, 19.43095 ], [ 73.72631, 19.43165 ], [ 73.73072, 19.43023 ], [ 73.72898, 19.422 ], [ 73.73608, 19.41013 ], [ 73.73592, 19.40754 ], [ 73.74487, 19.40889 ], [ 73.75141, 19.40725 ], [ 73.75306, 19.39705 ], [ 73.76995, 19.39201 ], [ 73.77144, 19.38648 ], [ 73.77798, 19.38724 ], [ 73.79162, 19.35352 ], [ 73.79106, 19.3503 ], [ 73.79196, 19.34982 ], [ 73.79474, 19.34274 ], [ 73.79325, 19.33379 ], [ 73.79198, 19.33363 ], [ 73.78746, 19.3382 ], [ 73.78253, 19.33667 ], [ 73.78169, 19.33497 ], [ 73.77907, 19.33586 ], [ 73.77378, 19.33971 ], [ 73.77171, 19.34238 ], [ 73.77263, 19.33793 ], [ 73.77015, 19.33155 ], [ 73.76412, 19.33026 ], [ 73.76115, 19.32752 ], [ 73.75837, 19.33115 ], [ 73.75045, 19.3274 ], [ 73.74787, 19.32194 ], [ 73.74896, 19.31837 ], [ 73.74716, 19.31815 ], [ 73.7461, 19.31844 ], [ 73.74604, 19.32422 ], [ 73.7434, 19.32423 ], [ 73.74586, 19.32866 ], [ 73.74687, 19.33723 ], [ 73.73821, 19.33306 ], [ 73.73043, 19.33133 ], [ 73.72467, 19.32867 ], [ 73.70942, 19.32491 ], [ 73.7073, 19.32358 ], [ 73.70715, 19.32216 ], [ 73.70495, 19.31966 ], [ 73.70356, 19.31412 ], [ 73.70186, 19.3127 ], [ 73.70134, 19.31458 ], [ 73.69294, 19.31412 ], [ 73.68686, 19.31513 ], [ 73.68388, 19.31348 ], [ 73.6826, 19.31166 ], [ 73.68146, 19.30886 ], [ 73.68167, 19.30747 ], [ 73.67979, 19.30812 ], [ 73.67214, 19.30684 ], [ 73.66926, 19.30517 ], [ 73.66996, 19.30338 ], [ 73.67293, 19.30111 ], [ 73.66897, 19.29341 ], [ 73.66786, 19.29365 ], [ 73.66747, 19.29143 ], [ 73.67348, 19.29024 ], [ 73.68052, 19.27389 ], [ 73.68723, 19.27244 ], [ 73.69017, 19.26869 ], [ 73.69248, 19.26184 ], [ 73.69501, 19.25818 ], [ 73.69327, 19.25147 ], [ 73.69176, 19.25128 ], [ 73.68539, 19.24232 ], [ 73.67206, 19.23947 ], [ 73.66267, 19.24207 ], [ 73.65834, 19.23934 ], [ 73.64945, 19.22923 ], [ 73.64472, 19.21989 ], [ 73.63662, 19.21453 ], [ 73.63522, 19.21253 ], [ 73.63515, 19.20926 ], [ 73.63027, 19.20669 ], [ 73.62997, 19.20571 ], [ 73.62665, 19.20732 ], [ 73.6234, 19.21554 ], [ 73.62261, 19.21458 ], [ 73.62269, 19.21646 ], [ 73.60865, 19.21061 ], [ 73.61053, 19.20194 ], [ 73.60858, 19.19767 ], [ 73.60814, 19.19362 ], [ 73.60591, 19.19544 ], [ 73.60568, 19.19494 ], [ 73.60637, 19.1905 ], [ 73.60497, 19.19073 ], [ 73.60381, 19.1921 ], [ 73.60312, 19.19159 ], [ 73.60146, 19.19462 ], [ 73.60042, 19.19359 ], [ 73.59972, 19.19439 ], [ 73.5991, 19.19225 ], [ 73.59694, 19.19454 ], [ 73.59692, 19.19566 ], [ 73.59506, 19.19554 ], [ 73.59328, 19.19233 ], [ 73.59104, 19.19155 ], [ 73.58885, 19.19326 ], [ 73.58384, 19.19028 ], [ 73.57857, 19.19246 ], [ 73.57617, 19.19252 ], [ 73.57585, 19.19437 ], [ 73.56698, 19.19006 ], [ 73.56615, 19.1846 ], [ 73.56026, 19.18753 ], [ 73.55611, 19.18393 ], [ 73.55049, 19.18709 ], [ 73.54583, 19.18709 ], [ 73.54627, 19.18158 ], [ 73.54451, 19.17713 ], [ 73.54294, 19.17814 ], [ 73.53979, 19.17627 ], [ 73.53796, 19.17686 ], [ 73.53653, 19.17884 ], [ 73.53629, 19.17704 ], [ 73.53627, 19.17302 ], [ 73.53777, 19.16707 ], [ 73.54258, 19.15883 ], [ 73.5401, 19.16074 ], [ 73.53936, 19.15873 ], [ 73.53744, 19.15789 ], [ 73.53284, 19.15355 ], [ 73.53419, 19.14564 ], [ 73.53582, 19.14457 ], [ 73.53864, 19.1444 ], [ 73.54255, 19.14054 ], [ 73.54244, 19.12026 ], [ 73.54092, 19.12211 ], [ 73.53508, 19.12473 ], [ 73.52725, 19.12705 ], [ 73.52308, 19.13122 ], [ 73.52207, 19.13034 ], [ 73.51747, 19.13088 ], [ 73.51496, 19.12908 ], [ 73.51283, 19.12858 ], [ 73.50322, 19.12892 ], [ 73.49051, 19.12795 ], [ 73.49023, 19.12547 ], [ 73.48652, 19.12326 ], [ 73.48546, 19.12677 ], [ 73.48131, 19.12915 ], [ 73.47775, 19.13315 ], [ 73.47542, 19.13433 ], [ 73.47193, 19.13427 ], [ 73.47014, 19.13527 ], [ 73.46713, 19.13545 ], [ 73.45726, 19.1314 ], [ 73.45536, 19.13248 ], [ 73.4531, 19.13225 ], [ 73.44617, 19.13404 ], [ 73.43673, 19.12953 ], [ 73.43583, 19.12803 ], [ 73.4336, 19.12834 ], [ 73.43063, 19.12638 ], [ 73.42582, 19.12956 ], [ 73.42379, 19.13002 ], [ 73.41886, 19.1292 ], [ 73.41363, 19.12988 ], [ 73.40964, 19.13131 ], [ 73.40577, 19.13454 ], [ 73.40216, 19.13444 ], [ 73.39553, 19.1316 ], [ 73.38875, 19.13302 ], [ 73.39007, 19.13853 ], [ 73.38484, 19.14832 ], [ 73.38341, 19.15276 ], [ 73.38346, 19.15613 ], [ 73.38099, 19.1623 ], [ 73.37626, 19.16576 ], [ 73.36764, 19.16511 ], [ 73.36496, 19.16756 ], [ 73.35977, 19.17009 ], [ 73.35796, 19.17285 ], [ 73.35864, 19.17318 ], [ 73.35823, 19.17398 ], [ 73.35379, 19.17886 ], [ 73.35062, 19.18542 ], [ 73.34715, 19.18452 ], [ 73.34486, 19.18497 ], [ 73.34405, 19.18631 ], [ 73.34155, 19.18611 ], [ 73.3388, 19.18814 ], [ 73.33854, 19.19013 ], [ 73.33428, 19.19116 ], [ 73.3298, 19.19659 ], [ 73.33048, 19.19798 ], [ 73.33003, 19.20787 ], [ 73.32756, 19.21381 ], [ 73.32715, 19.21586 ], [ 73.3278, 19.21828 ], [ 73.31818, 19.22126 ], [ 73.31434, 19.22361 ], [ 73.31009, 19.22419 ], [ 73.30777, 19.23116 ], [ 73.30589, 19.23044 ], [ 73.30612, 19.23234 ], [ 73.30277, 19.24026 ], [ 73.30272, 19.24558 ], [ 73.30349, 19.24794 ], [ 73.30772, 19.24903 ], [ 73.30677, 19.25516 ], [ 73.3118, 19.25946 ], [ 73.31315, 19.27335 ], [ 73.31551, 19.27758 ], [ 73.31607, 19.28127 ], [ 73.31978, 19.28933 ], [ 73.32263, 19.29311 ], [ 73.30949, 19.29087 ], [ 73.30854, 19.29142 ], [ 73.30447, 19.2908 ], [ 73.30161, 19.28979 ], [ 73.29923, 19.29051 ], [ 73.29455, 19.28936 ], [ 73.29013, 19.29203 ], [ 73.29239, 19.31098 ], [ 73.29222, 19.31902 ], [ 73.29522, 19.32123 ], [ 73.29449, 19.32231 ], [ 73.30766, 19.3252 ], [ 73.31081, 19.32488 ], [ 73.31649, 19.32726 ], [ 73.31939, 19.32948 ], [ 73.32932, 19.34474 ], [ 73.33609, 19.34728 ], [ 73.33839, 19.34699 ], [ 73.3406, 19.34522 ], [ 73.34078, 19.34311 ], [ 73.33706, 19.33834 ], [ 73.33813, 19.3356 ], [ 73.34083, 19.3343 ], [ 73.35208, 19.33253 ], [ 73.35419, 19.33119 ], [ 73.35466, 19.32828 ], [ 73.35154, 19.32093 ], [ 73.35325, 19.31719 ], [ 73.35624, 19.31423 ], [ 73.36574, 19.31126 ], [ 73.36938, 19.30787 ], [ 73.37267, 19.30316 ], [ 73.37883, 19.29959 ], [ 73.38112, 19.30036 ], [ 73.38213, 19.30217 ], [ 73.38073, 19.30886 ], [ 73.38095, 19.31259 ], [ 73.37951, 19.31592 ], [ 73.38008, 19.31698 ], [ 73.39177, 19.32137 ], [ 73.4031, 19.32269 ], [ 73.40529, 19.32488 ], [ 73.40335, 19.33238 ], [ 73.40312, 19.34179 ], [ 73.40446, 19.3435 ], [ 73.40801, 19.34274 ], [ 73.42165, 19.33143 ], [ 73.42756, 19.32537 ], [ 73.43357, 19.32773 ], [ 73.4345, 19.32941 ], [ 73.43409, 19.3331 ], [ 73.43504, 19.33393 ], [ 73.44078, 19.3329 ], [ 73.44471, 19.33685 ], [ 73.44998, 19.33898 ], [ 73.45404, 19.33849 ], [ 73.45771, 19.33672 ], [ 73.46317, 19.33706 ], [ 73.46452, 19.33645 ], [ 73.4653, 19.33432 ], [ 73.46471, 19.33057 ], [ 73.46551, 19.32953 ], [ 73.47011, 19.32785 ], [ 73.47361, 19.32353 ], [ 73.47715, 19.32307 ], [ 73.47995, 19.32407 ], [ 73.48199, 19.32795 ], [ 73.48397, 19.32943 ], [ 73.49106, 19.32952 ], [ 73.49642, 19.33229 ], [ 73.50082, 19.33162 ], [ 73.50809, 19.32797 ], [ 73.51807, 19.33025 ], [ 73.51993, 19.33219 ], [ 73.52072, 19.3373 ], [ 73.52287, 19.33991 ], [ 73.52435, 19.34029 ], [ 73.5262, 19.33865 ], [ 73.52786, 19.33561 ], [ 73.52916, 19.3355 ], [ 73.53095, 19.33733 ], [ 73.53282, 19.33711 ], [ 73.53827, 19.33205 ], [ 73.54393, 19.33014 ], [ 73.54699, 19.32751 ], [ 73.55152, 19.32166 ], [ 73.55359, 19.3207 ], [ 73.55709, 19.32323 ], [ 73.55755, 19.32893 ], [ 73.55968, 19.33313 ], [ 73.56519, 19.3334 ], [ 73.56703, 19.33064 ], [ 73.57053, 19.32178 ], [ 73.5731, 19.3215 ], [ 73.57407, 19.32381 ], [ 73.57348, 19.33056 ], [ 73.57433, 19.33294 ], [ 73.57621, 19.33658 ], [ 73.58098, 19.34075 ], [ 73.58087, 19.34235 ], [ 73.57893, 19.34285 ], [ 73.57864, 19.34384 ], [ 73.57658, 19.34488 ], [ 73.57664, 19.34884 ], [ 73.57507, 19.34934 ], [ 73.57277, 19.34319 ], [ 73.57102, 19.34182 ], [ 73.56963, 19.34214 ], [ 73.5678, 19.34633 ], [ 73.56255, 19.35012 ], [ 73.56266, 19.35569 ], [ 73.56313, 19.35687 ], [ 73.56464, 19.35736 ], [ 73.56919, 19.35379 ], [ 73.57259, 19.35234 ], [ 73.57913, 19.35247 ], [ 73.58109, 19.35425 ], [ 73.58204, 19.35795 ], [ 73.58389, 19.35783 ], [ 73.58694, 19.35977 ], [ 73.57164, 19.36198 ], [ 73.5693, 19.36513 ], [ 73.56976, 19.36612 ], [ 73.57955, 19.37019 ], [ 73.58047, 19.37311 ], [ 73.57943, 19.37696 ], [ 73.57658, 19.37933 ], [ 73.58019, 19.3808 ], [ 73.58119, 19.38296 ], [ 73.58099, 19.3871 ], [ 73.58266, 19.38921 ], [ 73.58328, 19.39506 ], [ 73.58548, 19.3962 ], [ 73.5925, 19.39393 ], [ 73.59535, 19.39502 ], [ 73.59606, 19.39635 ], [ 73.59496, 19.3986 ], [ 73.59025, 19.40237 ], [ 73.59016, 19.40321 ], [ 73.59088, 19.40414 ], [ 73.59647, 19.40487 ], [ 73.59682, 19.40618 ], [ 73.59513, 19.40982 ], [ 73.59565, 19.41166 ], [ 73.60236, 19.41697 ], [ 73.60332, 19.42082 ], [ 73.60249, 19.42646 ], [ 73.59677, 19.43142 ], [ 73.5961, 19.43499 ], [ 73.59862, 19.43642 ], [ 73.60201, 19.43635 ], [ 73.60378, 19.43753 ], [ 73.60438, 19.4436 ], [ 73.61015, 19.44839 ], [ 73.61027, 19.45487 ], [ 73.61835, 19.45655 ] ] ] } },
{ "type": "Feature", "properties": { "OBJECTID": 3804, "state_lgd": "27", "state_name": "MAHARASHTRA", "district_lgd": "517", "district_name": "THANE", "district_name_source": "district_table", "subdistrict_lgd": "4167", "subdistrict_name": "SHAHAPUR", "subdistrict_type": "", "name_corrupted": false, "remarks": "", "label_lon": 73.426037445454668, "label_lat": 19.511269295863805 }, "geometry": { "type": "Polygon", "coordinates": [ [ [ 73.48268, 19.72579 ], [ 73.4856, 19.72575 ], [ 73.48614, 19.72243 ], [ 73.48812, 19.72268 ], [ 73.49101, 19.72053 ], [ 73.49266, 19.72059 ], [ 73.49377, 19.71757 ], [ 73.4948, 19.71677 ], [ 73.49704, 19.71748 ], [ 73.49951, 19.71663 ], [ 73.50059, 19.71486 ], [ 73.50194, 19.71488 ], [ 73.51265, 19.70932 ], [ 73.51899, 19.70751 ], [ 73.5168, 19.70336 ], [ 73.5169, 19.7021 ], [ 73.51456, 19.69869 ], [ 73.52336, 19.6964 ], [ 73.52855, 19.69773 ], [ 73.52771, 19.69244 ], [ 73.52827, 19.68923 ], [ 73.53465, 19.67459 ], [ 73.54251, 19.66749 ], [ 73.54389, 19.66488 ], [ 73.54295, 19.66336 ], [ 73.54413, 19.6579 ], [ 73.54808, 19.65492 ], [ 73.54854, 19.65317 ], [ 73.55016, 19.65272 ], [ 73.55324, 19.64767 ], [ 73.55394, 19.64856 ], [ 73.55554, 19.64858 ], [ 73.55959, 19.64437 ], [ 73.56057, 19.64059 ], [ 73.56027, 19.63666 ], [ 73.56342, 19.62616 ], [ 73.56328, 19.61848 ], [ 73.56556, 19.61813 ], [ 73.56883, 19.61624 ], [ 73.57083, 19.61955 ], [ 73.57547, 19.6184 ], [ 73.57728, 19.61744 ], [ 73.57801, 19.61461 ], [ 73.58121, 19.61295 ], [ 73.58213, 19.61063 ], [ 73.58141, 19.60871 ], [ 73.57492, 19.60216 ], [ 73.57944, 19.60231 ], [ 73.58266, 19.60473 ], [ 73.58365, 19.6065 ], [ 73.58634, 19.60591 ], [ 73.59114, 19.60164 ], [ 73.59316, 19.60241 ], [ 73.59762, 19.59901 ], [ 73.60498, 19.5963 ], [ 73.60634, 19.59496 ], [ 73.614, 19.59548 ], [ 73.61588, 19.59034 ], [ 73.61587, 19.58612 ], [ 73.61734, 19.58721 ], [ 73.61814, 19.58632 ], [ 73.61561, 19.58453 ], [ 73.61542, 19.57981 ], [ 73.61437, 19.57674 ], [ 73.61543, 19.57728 ], [ 73.6177, 19.58133 ], [ 73.62443, 19.57487 ], [ 73.62565, 19.57161 ], [ 73.62686, 19.57292 ], [ 73.62846, 19.5685 ], [ 73.62589, 19.56597 ], [ 73.62632, 19.56108 ], [ 73.62768, 19.55699 ], [ 73.62666, 19.55306 ], [ 73.62548, 19.5511 ], [ 73.6219, 19.54853 ], [ 73.62328, 19.54539 ], [ 73.62261, 19.54208 ], [ 73.62514, 19.5435 ], [ 73.62892, 19.54082 ], [ 73.63191, 19.54165 ], [ 73.63299, 19.53894 ], [ 73.63292, 19.53271 ], [ 73.63511, 19.53294 ], [ 73.63913, 19.53915 ], [ 73.64436, 19.53847 ], [ 73.64531, 19.53706 ], [ 73.64933, 19.53834 ], [ 73.65693, 19.53684 ], [ 73.6584, 19.5322 ], [ 73.66021, 19.52966 ], [ 73.65991, 19.52597 ], [ 73.66298, 19.52135 ], [ 73.66448, 19.51219 ], [ 73.66988, 19.51337 ], [ 73.67518, 19.50949 ], [ 73.67903, 19.51342 ], [ 73.67897, 19.51864 ], [ 73.68025, 19.51846 ], [ 73.68209, 19.51538 ], [ 73.68614, 19.51444 ], [ 73.68641, 19.51047 ], [ 73.68979, 19.50648 ], [ 73.69007, 19.50487 ], [ 73.68629, 19.50015 ], [ 73.69297, 19.49845 ], [ 73.70664, 19.49737 ], [ 73.70839, 19.49547 ], [ 73.70785, 19.49263 ], [ 73.7086, 19.49078 ], [ 73.71191, 19.48755 ], [ 73.71351, 19.48443 ], [ 73.70794, 19.48444 ], [ 73.70598, 19.47899 ], [ 73.70258, 19.47944 ], [ 73.69585, 19.47871 ], [ 73.69659, 19.47609 ], [ 73.69483, 19.46979 ], [ 73.68479, 19.46616 ], [ 73.68464, 19.45565 ], [ 73.68588, 19.44962 ], [ 73.68533, 19.44675 ], [ 73.68417, 19.44564 ], [ 73.6862, 19.44333 ], [ 73.66875, 19.43064 ], [ 73.66413, 19.43013 ], [ 73.66259, 19.42829 ], [ 73.66059, 19.42858 ], [ 73.64963, 19.42627 ], [ 73.64683, 19.42718 ], [ 73.64329, 19.42949 ], [ 73.64383, 19.43154 ], [ 73.64143, 19.43446 ], [ 73.63715, 19.43767 ], [ 73.63511, 19.44102 ], [ 73.63076, 19.44253 ], [ 73.62957, 19.44425 ], [ 73.62573, 19.44346 ], [ 73.62051, 19.44479 ], [ 73.62384, 19.45269 ], [ 73.62335, 19.45584 ], [ 73.61664, 19.45659 ], [ 73.61027, 19.45487 ], [ 73.61015, 19.44839 ], [ 73.60438, 19.4436 ], [ 73.60378, 19.43753 ], [ 73.60201, 19.43635 ], [ 73.59862, 19.43642 ], [ 73.5961, 19.43499 ], [ 73.59677, 19.43142 ], [ 73.60249, 19.42646 ], [ 73.60332, 19.42082 ], [ 73.60236, 19.41697 ], [ 73.59565, 19.41166 ], [ 73.59513, 19.40982 ], [ 73.59682, 19.40618 ], [ 73.59647, 19.40487 ], [ 73.59088, 19.40414 ], [ 73.59016, 19.40321 ], [ 73.59025, 19.40237 ], [ 73.59496, 19.3986 ], [ 73.59606, 19.39635 ], [ 73.59535, 19.39502 ], [ 73.5925, 19.39393 ], [ 73.58548, 19.3962 ], [ 73.58328, 19.39506 ], [ 73.58266, 19.38921 ], [ 73.58099, 19.3871 ], [ 73.58119, 19.38296 ], [ 73.58019, 19.3808 ], [ 73.57658, 19.37933 ], [ 73.57943, 19.37696 ], [ 73.58047, 19.37311 ], [ 73.57955, 19.37019 ], [ 73.56976, 19.36612 ], [ 73.5693, 19.36513 ], [ 73.57164, 19.36198 ], [ 73.58694, 19.35977 ], [ 73.58389, 19.35783 ], [ 73.58204, 19.35795 ], [ 73.58109, 19.35425 ], [ 73.57913, 19.35247 ], [ 73.57259, 19.35234 ], [ 73.56919, 19.35379 ], [ 73.56464, 19.35736 ], [ 73.56313, 19.35687 ], [ 73.56266, 19.35569 ], [ 73.56255, 19.35012 ], [ 73.5678, 19.34633 ], [ 73.56963, 19.34214 ], [ 73.57102, 19.34182 ], [ 73.57277, 19.34319 ], [ 73.57507, 19.34934 ], [ 73.57664, 19.34884 ], [ 73.57658, 19.34488 ], [ 73.57864, 19.34384 ], [ 73.57893, 19.34285 ], [ 73.58087, 19.34235 ], [ 73.58098, 19.34075 ], [ 73.57621, 19.33658 ], [ 73.57433, 19.33294 ], [ 73.57348, 19.33056 ], [ 73.57407, 19.32381 ], [ 73.5731, 19.3215 ], [ 73.57053, 19.32178 ], [ 73.56703, 19.33064 ], [ 73.56519, 19.3334 ], [ 73.55968, 19.33313 ], [ 73.55755, 19.32893 ], [ 73.55709, 19.32323 ], [ 73.55359, 19.3207 ], [ 73.55152, 19.32166 ], [ 73.54699, 19.32751 ], [ 73.54393, 19.33014 ], [ 73.53827, 19.33205 ], [ 73.53282, 19.33711 ], [ 73.53095, 19.33733 ], [ 73.52916, 19.3355 ], [ 73.52786, 19.33561 ], [ 73.5262, 19.33865 ], [ 73.52435, 19.34029 ], [ 73.52287, 19.33991 ], [ 73.52072, 19.3373 ], [ 73.51993, 19.33219 ], [ 73.51807, 19.33025 ], [ 73.50809, 19.32797 ], [ 73.50082, 19.33162 ], [ 73.49642, 19.33229 ], [ 73.49106, 19.32952 ], [ 73.48397, 19.32943 ], [ 73.48199, 19.32795 ], [ 73.47995, 19.32407 ], [ 73.47715, 19.32307 ], [ 73.47361, 19.32353 ], [ 73.47011, 19.32785 ], [ 73.46551, 19.32953 ], [ 73.46471, 19.33057 ], [ 73.4653, 19.33432 ], [ 73.46452, 19.33645 ], [ 73.46317, 19.33706 ], [ 73.45771, 19.33672 ], [ 73.45404, 19.33849 ], [ 73.44998, 19.33898 ], [ 73.44471, 19.33685 ], [ 73.44078, 19.3329 ], [ 73.43504, 19.33393 ], [ 73.43409, 19.3331 ], [ 73.4345, 19.32941 ], [ 73.43357, 19.32773 ], [ 73.42756, 19.32537 ], [ 73.42165, 19.33143 ], [ 73.40801, 19.34274 ], [ 73.40446, 19.3435 ], [ 73.40312, 19.34179 ], [ 73.40335, 19.33238 ], [ 73.40529, 19.32488 ], [ 73.4031, 19.32269 ], [ 73.39177, 19.32137 ], [ 73.38008, 19.31698 ], [ 73.37951, 19.31592 ], [ 73.38095, 19.31259 ], [ 73.38073, 19.30886 ], [ 73.38213, 19.30217 ], [ 73.38112, 19.30036 ], [ 73.37883, 19.29959 ], [ 73.37267, 19.30316 ], [ 73.36938, 19.30787 ], [ 73.36574, 19.31126 ], [ 73.35624, 19.31423 ], [ 73.35325, 19.31719 ], [ 73.35154, 19.32093 ], [ 73.35466, 19.32828 ], [ 73.35419, 19.33119 ], [ 73.35208, 19.33253 ], [ 73.34083, 19.3343 ], [ 73.33813, 19.3356 ], [ 73.33706, 19.33834 ], [ 73.34078, 19.34311 ], [ 73.3406, 19.34522 ], [ 73.33839, 19.34699 ], [ 73.33609, 19.34728 ], [ 73.32932, 19.34474 ], [ 73.31939, 19.32948 ], [ 73.31649, 19.32726 ], [ 73.31081, 19.32488 ], [ 73.30766, 19.3252 ], [ 73.29599, 19.32311 ], [ 73.29449, 19.32231 ], [ 73.29522, 19.32123 ], [ 73.28696, 19.31621 ], [ 73.27762, 19.3152 ], [ 73.27637, 19.32056 ], [ 73.27736, 19.32695 ], [ 73.27895, 19.33037 ], [ 73.28503, 19.32808 ], [ 73.29024, 19.33107 ], [ 73.29134, 19.33458 ], [ 73.29115, 19.33732 ], [ 73.28708, 19.33778 ], [ 73.28709, 19.33996 ], [ 73.28407, 19.35097 ], [ 73.28257, 19.35308 ], [ 73.28812, 19.35548 ], [ 73.28846, 19.35661 ], [ 73.29322, 19.3579 ], [ 73.29288, 19.35846 ], [ 73.29628, 19.36138 ], [ 73.29308, 19.36701 ], [ 73.29321, 19.37068 ], [ 73.29177, 19.37392 ], [ 73.29258, 19.37461 ], [ 73.29065, 19.37817 ], [ 73.29169, 19.38093 ], [ 73.29041, 19.38598 ], [ 73.28357, 19.38637 ], [ 73.27947, 19.39032 ], [ 73.27541, 19.3999 ], [ 73.27367, 19.40175 ], [ 73.27095, 19.40205 ], [ 73.2668, 19.39801 ], [ 73.26376, 19.39682 ], [ 73.26159, 19.39718 ], [ 73.25875, 19.39514 ], [ 73.25771, 19.38548 ], [ 73.25649, 19.38295 ], [ 73.25357, 19.38188 ], [ 73.25037, 19.38218 ], [ 73.24092, 19.39039 ], [ 73.24152, 19.39367 ], [ 73.24222, 19.39392 ], [ 73.24604, 19.40332 ], [ 73.24421, 19.40901 ], [ 73.246, 19.41284 ], [ 73.24591, 19.41574 ], [ 73.24247, 19.41845 ], [ 73.24135, 19.42581 ], [ 73.23963, 19.43087 ], [ 73.23622, 19.4325 ], [ 73.23241, 19.43775 ], [ 73.23092, 19.44159 ], [ 73.2254, 19.44396 ], [ 73.22865, 19.44938 ], [ 73.23065, 19.45654 ], [ 73.23107, 19.46134 ], [ 73.22521, 19.46549 ], [ 73.21139, 19.47222 ], [ 73.20808, 19.47471 ], [ 73.20606, 19.48086 ], [ 73.202, 19.48405 ], [ 73.2001, 19.48683 ], [ 73.19879, 19.48748 ], [ 73.19348, 19.4871 ], [ 73.19086, 19.48834 ], [ 73.18793, 19.4873 ], [ 73.18383, 19.48991 ], [ 73.18008, 19.49018 ], [ 73.17759, 19.49426 ], [ 73.17581, 19.50021 ], [ 73.17486, 19.50556 ], [ 73.17663, 19.50988 ], [ 73.17381, 19.51597 ], [ 73.17239, 19.52614 ], [ 73.17344, 19.52919 ], [ 73.17739, 19.53327 ], [ 73.17942, 19.53784 ], [ 73.18438, 19.53937 ], [ 73.18635, 19.54086 ], [ 73.1898, 19.54629 ], [ 73.19742, 19.55073 ], [ 73.19798, 19.55347 ], [ 73.20013, 19.55465 ], [ 73.20737, 19.55596 ], [ 73.20878, 19.55991 ], [ 73.21106, 19.56239 ], [ 73.20685, 19.5655 ], [ 73.20406, 19.56971 ], [ 73.20433, 19.5791 ], [ 73.19833, 19.5902 ], [ 73.1961, 19.5912 ], [ 73.19452, 19.59418 ], [ 73.19399, 19.59931 ], [ 73.19448, 19.60002 ], [ 73.19662, 19.59896 ], [ 73.19902, 19.6006 ], [ 73.20731, 19.60102 ], [ 73.22361, 19.6044 ], [ 73.22706, 19.6031 ], [ 73.22993, 19.61429 ], [ 73.23403, 19.61657 ], [ 73.2373, 19.6158 ], [ 73.23695, 19.61283 ], [ 73.23871, 19.61193 ], [ 73.24377, 19.61174 ], [ 73.24731, 19.61028 ], [ 73.24742, 19.61264 ], [ 73.24995, 19.61876 ], [ 73.24966, 19.62054 ], [ 73.25284, 19.62583 ], [ 73.25731, 19.62855 ], [ 73.25611, 19.6318 ], [ 73.25923, 19.62943 ], [ 73.26418, 19.62932 ], [ 73.26775, 19.62801 ], [ 73.27225, 19.62769 ], [ 73.27684, 19.62431 ], [ 73.28084, 19.62422 ], [ 73.28366, 19.62627 ], [ 73.28423, 19.62738 ], [ 73.27945, 19.63947 ], [ 73.27479, 19.64578 ], [ 73.26747, 19.6519 ], [ 73.27243, 19.65448 ], [ 73.27302, 19.65976 ], [ 73.2718, 19.66191 ], [ 73.27104, 19.66715 ], [ 73.27383, 19.66647 ], [ 73.2754, 19.66848 ], [ 73.27875, 19.67819 ], [ 73.27985, 19.6791 ], [ 73.27924, 19.68386 ], [ 73.28374, 19.69109 ], [ 73.28871, 19.69324 ], [ 73.29933, 19.68828 ], [ 73.30136, 19.68946 ], [ 73.30111, 19.68736 ], [ 73.30569, 19.68204 ], [ 73.30654, 19.67844 ], [ 73.31084, 19.67361 ], [ 73.3134, 19.67486 ], [ 73.31933, 19.67355 ], [ 73.31942, 19.67495 ], [ 73.33081, 19.69514 ], [ 73.34005, 19.69521 ], [ 73.34096, 19.69578 ], [ 73.34904, 19.69525 ], [ 73.35883, 19.68688 ], [ 73.36753, 19.6868 ], [ 73.36713, 19.68926 ], [ 73.36831, 19.69047 ], [ 73.37645, 19.68839 ], [ 73.37999, 19.6894 ], [ 73.38106, 19.69065 ], [ 73.37987, 19.69825 ], [ 73.3801, 19.69909 ], [ 73.38256, 19.70008 ], [ 73.38367, 19.69978 ], [ 73.38409, 19.69623 ], [ 73.38627, 19.6955 ], [ 73.38871, 19.69556 ], [ 73.39065, 19.69735 ], [ 73.39423, 19.69825 ], [ 73.39652, 19.70003 ], [ 73.39972, 19.69937 ], [ 73.40397, 19.7011 ], [ 73.41485, 19.69744 ], [ 73.41335, 19.70785 ], [ 73.41465, 19.70873 ], [ 73.41811, 19.70589 ], [ 73.41943, 19.706 ], [ 73.41993, 19.70756 ], [ 73.4239, 19.70707 ], [ 73.4274, 19.70482 ], [ 73.42985, 19.70215 ], [ 73.43202, 19.7035 ], [ 73.43348, 19.7084 ], [ 73.43342, 19.71076 ], [ 73.43921, 19.70864 ], [ 73.44404, 19.7136 ], [ 73.44599, 19.71719 ], [ 73.44764, 19.71748 ], [ 73.45072, 19.71487 ], [ 73.45509, 19.71441 ], [ 73.45704, 19.71855 ], [ 73.45659, 19.72351 ], [ 73.45728, 19.72364 ], [ 73.46366, 19.71845 ], [ 73.46494, 19.71836 ], [ 73.4755, 19.72377 ], [ 73.47619, 19.72479 ], [ 73.47567, 19.73148 ], [ 73.48268, 19.72579 ] ] ] } },
{ "type": "Feature", "properties": { "OBJECTID": 3825, "state_lgd": "27", "state_name": "MAHARASHTRA", "district_lgd": "517", "district_name": "THANE", "district_name_source": "district_table", "subdistrict_lgd": "4165", "subdistrict_name": "THANE", "subdistrict_type": "", "name_corrupted": false, "remarks": "", "label_lon": 72.9673473538504, "label_lat": 19.175017665195938 }, "geometry": { "type": "MultiPolygon", "coordinates": [ [ [ [ 72.87541, 19.31588 ], [ 72.89519, 19.29446 ], [ 72.90224, 19.28969 ], [ 72.90736, 19.28891 ], [ 72.92238, 19.29009 ], [ 72.92887, 19.28881 ], [ 72.93232, 19.28719 ], [ 72.93714, 19.28933 ], [ 72.94007, 19.29432 ], [ 72.94314, 19.29709 ], [ 72.95521, 19.30033 ], [ 72.95918, 19.3005 ], [ 72.9663, 19.29883 ], [ 72.97758, 19.29149 ], [ 72.98328, 19.2868 ], [ 72.98795, 19.27997 ], [ 72.99031, 19.27189 ], [ 72.99001, 19.26548 ], [ 72.99828, 19.25109 ], [ 73.00176, 19.22795 ], [ 73.00194, 19.22167 ], [ 73.00347, 19.22058 ], [ 73.01026, 19.21985 ], [ 73.01802, 19.21362 ], [ 73.01841, 19.21012 ], [ 73.02119, 19.20439 ], [ 73.02342, 19.20113 ], [ 73.02582, 19.19955 ], [ 73.04194, 19.19994 ], [ 73.05552, 19.20219 ], [ 73.05597, 19.19992 ], [ 73.06197, 19.19999 ], [ 73.06548, 19.19674 ], [ 73.06904, 19.19637 ], [ 73.06872, 19.19039 ], [ 73.07262, 19.18975 ], [ 73.07499, 19.188 ], [ 73.0747, 19.18565 ], [ 73.07198, 19.18535 ], [ 73.06914, 19.18622 ], [ 73.06607, 19.18312 ], [ 73.06794, 19.17627 ], [ 73.06711, 19.17448 ], [ 73.0719, 19.17285 ], [ 73.07169, 19.17161 ], [ 73.06959, 19.17138 ], [ 73.06938, 19.17062 ], [ 73.07188, 19.16343 ], [ 73.07323, 19.16165 ], [ 73.07267, 19.15653 ], [ 73.07493, 19.15166 ], [ 73.07591, 19.144 ], [ 73.07701, 19.14319 ], [ 73.07858, 19.14352 ], [ 73.08068, 19.14056 ], [ 73.08366, 19.14042 ], [ 73.08574, 19.14178 ], [ 73.09451, 19.13997 ], [ 73.09651, 19.14042 ], [ 73.10177, 19.14464 ], [ 73.10639, 19.14502 ], [ 73.10748, 19.14381 ], [ 73.10819, 19.13762 ], [ 73.10748, 19.13549 ], [ 73.10607, 19.13432 ], [ 73.10708, 19.13183 ], [ 73.10569, 19.1254 ], [ 73.10631, 19.12298 ], [ 73.1079, 19.12304 ], [ 73.10805, 19.11713 ], [ 73.10663, 19.11632 ], [ 73.10597, 19.11482 ], [ 73.10624, 19.10904 ], [ 73.10344, 19.1086 ], [ 73.09967, 19.10617 ], [ 73.09864, 19.10642 ], [ 73.09869, 19.10888 ], [ 73.09595, 19.11391 ], [ 73.09108, 19.1151 ], [ 73.0866, 19.11422 ], [ 73.08397, 19.11569 ], [ 73.08309, 19.11525 ], [ 73.08312, 19.11303 ], [ 73.08147, 19.11178 ], [ 73.07782, 19.11445 ], [ 73.07482, 19.11026 ], [ 73.07088, 19.10986 ], [ 73.06754, 19.11129 ], [ 73.06724, 19.11068 ], [ 73.06496, 19.1107 ], [ 73.05929, 19.10547 ], [ 73.05896, 19.1039 ], [ 73.05716, 19.10224 ], [ 73.05347, 19.10071 ], [ 73.04753, 19.09982 ], [ 73.04709, 19.09087 ], [ 73.04858, 19.08787 ], [ 73.04692, 19.08655 ], [ 73.04726, 19.08456 ], [ 73.04484, 19.08061 ], [ 73.04349, 19.06929 ], [ 73.04454, 19.06228 ], [ 73.04542, 19.06182 ], [ 73.04617, 19.05948 ], [ 73.04458, 19.05619 ], [ 73.04516, 19.05604 ], [ 73.04323, 19.05453 ], [ 73.04491, 19.05277 ], [ 73.04935, 19.04349 ], [ 73.04863, 19.04201 ], [ 73.04956, 19.03999 ], [ 73.04752, 19.03291 ], [ 73.04879, 19.02765 ], [ 73.04654, 19.0259 ], [ 73.04655, 19.02057 ], [ 73.04686, 19.01917 ], [ 73.04775, 19.0197 ], [ 73.04761, 19.01872 ], [ 73.04963, 19.01597 ], [ 73.04484, 19.01249 ], [ 73.04369, 19.00739 ], [ 73.03758, 19.00489 ], [ 73.02974, 18.99972 ], [ 73.02494, 18.99975 ], [ 73.02463, 18.99782 ], [ 73.02086, 18.99524 ], [ 73.01406, 18.9931 ], [ 73.00881, 18.99025 ], [ 72.99815, 18.987 ], [ 72.98213, 18.98816 ], [ 72.95605, 18.98779 ], [ 72.95868, 18.99886 ], [ 72.96957, 19.01869 ], [ 72.97467, 19.03067 ], [ 72.97646, 19.03862 ], [ 72.97675, 19.04245 ], [ 72.97565, 19.04739 ], [ 72.97068, 19.0566 ], [ 72.96609, 19.06929 ], [ 72.96539, 19.08039 ], [ 72.9657, 19.09993 ], [ 72.96719, 19.11032 ], [ 72.9756, 19.13644 ], [ 72.97405, 19.13698 ], [ 72.98002, 19.15551 ], [ 72.98113, 19.15561 ], [ 72.97565, 19.15849 ], [ 72.97258, 19.16221 ], [ 72.97187, 19.16814 ], [ 72.96862, 19.17126 ], [ 72.96667, 19.17121 ], [ 72.96567, 19.17545 ], [ 72.9662, 19.17792 ], [ 72.96228, 19.17651 ], [ 72.96068, 19.17781 ], [ 72.96018, 19.17953 ], [ 72.95833, 19.17918 ], [ 72.95704, 19.18212 ], [ 72.95443, 19.18328 ], [ 72.95354, 19.18508 ], [ 72.95011, 19.18464 ], [ 72.94815, 19.18669 ], [ 72.94594, 19.1876 ], [ 72.94046, 19.18665 ], [ 72.93949, 19.18795 ], [ 72.93406, 19.19113 ], [ 72.93355, 19.20422 ], [ 72.9379, 19.21109 ], [ 72.93072, 19.20859 ], [ 72.92299, 19.21282 ], [ 72.9203, 19.21349 ], [ 72.91883, 19.22198 ], [ 72.9178, 19.22395 ], [ 72.91236, 19.23197 ], [ 72.90603, 19.23776 ], [ 72.90588, 19.24665 ], [ 72.90131, 19.24783 ], [ 72.89929, 19.24919 ], [ 72.88833, 19.24981 ], [ 72.88464, 19.25346 ], [ 72.88119, 19.25483 ], [ 72.87539, 19.26064 ], [ 72.87202, 19.26136 ], [ 72.86954, 19.26075 ], [ 72.86839, 19.26138 ], [ 72.86562, 19.26484 ], [ 72.86588, 19.26681 ], [ 72.86437, 19.26621 ], [ 72.86227, 19.26787 ], [ 72.86094, 19.26683 ], [ 72.85781, 19.26888 ], [ 72.85325, 19.26698 ], [ 72.84918, 19.26961 ], [ 72.84764, 19.26917 ], [ 72.84703, 19.26733 ], [ 72.84544, 19.26679 ], [ 72.84057, 19.26721 ], [ 72.83976, 19.26842 ], [ 72.83735, 19.26394 ], [ 72.83629, 19.25964 ], [ 72.83826, 19.25724 ], [ 72.8385, 19.25315 ], [ 72.83668, 19.25164 ], [ 72.82402, 19.24596 ], [ 72.81269, 19.24976 ], [ 72.80174, 19.2585 ], [ 72.8004, 19.26047 ], [ 72.80092, 19.26142 ], [ 72.79972, 19.26255 ], [ 72.78948, 19.26169 ], [ 72.78773, 19.26334 ], [ 72.78384, 19.26507 ], [ 72.78527, 19.26529 ], [ 72.78548, 19.26677 ], [ 72.78413, 19.26654 ], [ 72.78322, 19.26938 ], [ 72.78103, 19.27012 ], [ 72.78036, 19.27525 ], [ 72.77866, 19.27893 ], [ 72.78283, 19.27939 ], [ 72.78389, 19.28161 ], [ 72.7851, 19.29901 ], [ 72.78387, 19.30171 ], [ 72.78693, 19.30768 ], [ 72.78979, 19.30961 ], [ 72.79285, 19.31044 ], [ 72.79503, 19.31503 ], [ 72.80034, 19.31335 ], [ 72.81572, 19.31448 ], [ 72.82491, 19.32164 ], [ 72.83085, 19.32852 ], [ 72.84666, 19.32652 ], [ 72.86029, 19.32616 ], [ 72.87161, 19.32202 ], [ 72.87541, 19.31588 ] ] ], [ [ [ 72.76345, 19.28417 ], [ 72.76392, 19.28496 ], [ 72.76436, 19.28485 ], [ 72.76437, 19.28457 ], [ 72.76345, 19.28417 ] ] ], [ [ [ 72.77008, 19.30888 ], [ 72.76945, 19.30948 ], [ 72.76971, 19.3099 ], [ 72.77055, 19.30931 ], [ 72.77008, 19.30888 ] ] ], [ [ [ 72.77228, 19.30835 ], [ 72.7718, 19.30901 ], [ 72.77267, 19.31075 ], [ 72.77294, 19.30952 ], [ 72.77228, 19.30835 ] ] ] ] } },
{ "type": "Feature", "properties": { "OBJECTID": 3999, "state_lgd": "27", "state_name": "MAHARASHTRA", "district_lgd": "517", "district_name": "THANE", "district_name_source": "district_table", "subdistrict_lgd": "4169", "subdistrict_name": "ULHASNAGAR", "subdistrict_type": "", "name_corrupted": false, "remarks": "", "label_lon": 73.16376561218145, "label_lat": 19.223420147958738 }, "geometry": { "type": "Polygon", "coordinates": [ [ [ 73.16942, 19.25149 ], [ 73.17567, 19.25407 ], [ 73.17545, 19.24731 ], [ 73.17327, 19.24699 ], [ 73.17106, 19.24545 ], [ 73.17098, 19.24278 ], [ 73.17166, 19.23869 ], [ 73.17392, 19.23557 ], [ 73.17534, 19.23648 ], [ 73.17473, 19.23729 ], [ 73.17558, 19.23801 ], [ 73.1748, 19.23936 ], [ 73.17566, 19.23982 ], [ 73.17664, 19.2363 ], [ 73.17795, 19.23504 ], [ 73.17657, 19.23359 ], [ 73.17922, 19.23096 ], [ 73.17327, 19.23099 ], [ 73.1687, 19.22307 ], [ 73.17092, 19.22152 ], [ 73.17084, 19.21796 ], [ 73.17211, 19.21384 ], [ 73.17358, 19.2138 ], [ 73.17651, 19.20067 ], [ 73.17455, 19.20024 ], [ 73.17603, 19.19715 ], [ 73.17544, 19.19586 ], [ 73.17301, 19.19509 ], [ 73.17022, 19.19185 ], [ 73.16651, 19.1908 ], [ 73.16485, 19.19206 ], [ 73.16315, 19.19155 ], [ 73.1633, 19.19219 ], [ 73.16048, 19.19396 ], [ 73.16154, 19.19274 ], [ 73.15989, 19.19249 ], [ 73.15945, 19.19815 ], [ 73.15746, 19.19831 ], [ 73.15725, 19.19923 ], [ 73.15762, 19.20146 ], [ 73.15677, 19.20434 ], [ 73.15854, 19.20581 ], [ 73.15717, 19.20621 ], [ 73.15663, 19.20842 ], [ 73.15491, 19.209 ], [ 73.15445, 19.21147 ], [ 73.15291, 19.21241 ], [ 73.15382, 19.21709 ], [ 73.15301, 19.22305 ], [ 73.15359, 19.22509 ], [ 73.14544, 19.23146 ], [ 73.14768, 19.23643 ], [ 73.15008, 19.2365 ], [ 73.15094, 19.23734 ], [ 73.15105, 19.24068 ], [ 73.15584, 19.24226 ], [ 73.15823, 19.24458 ], [ 73.16179, 19.25309 ], [ 73.16461, 19.25695 ], [ 73.16942, 19.25149 ] ] ] } },
{ "type": "Feature", "properties": { "OBJECTID": 4000, "state_lgd": "27", "state_name": "MAHARASHTRA", "district_lgd": "517", "district_name": "THANE", "district_name_source": "district_table", "subdistrict_lgd": "4168", "subdistrict_name": "KALYAN", "subdistrict_type": "", "name_corrupted": false, "remarks": "", "label_lon": 73.202050851779333, "label_lat": 19.264041444549342 }, "geometry": { "type": "Polygon", "coordinates": [ [ [ 73.27029, 19.40189 ], [ 73.27367, 19.40175 ], [ 73.27541, 19.3999 ], [ 73.27947, 19.39032 ], [ 73.28357, 19.38637 ], [ 73.29041, 19.38598 ], [ 73.29169, 19.38093 ], [ 73.29065, 19.37817 ], [ 73.29258, 19.37461 ], [ 73.29177, 19.37392 ], [ 73.29321, 19.37068 ], [ 73.29308, 19.36701 ], [ 73.29628, 19.36138 ], [ 73.29288, 19.35846 ], [ 73.29322, 19.3579 ], [ 73.28846, 19.35661 ], [ 73.28812, 19.35548 ], [ 73.28257, 19.35308 ], [ 73.28407, 19.35097 ], [ 73.28709, 19.33996 ], [ 73.28708, 19.33778 ], [ 73.29115, 19.33732 ], [ 73.29134, 19.33458 ], [ 73.29024, 19.33107 ], [ 73.28503, 19.32808 ], [ 73.27895, 19.33037 ], [ 73.27736, 19.32695 ], [ 73.27637, 19.32056 ], [ 73.27762, 19.3152 ], [ 73.28696, 19.31621 ], [ 73.29222, 19.31902 ], [ 73.29239, 19.31098 ], [ 73.29013, 19.29203 ], [ 73.29455, 19.28936 ], [ 73.29923, 19.29051 ], [ 73.30161, 19.28979 ], [ 73.30447, 19.2908 ], [ 73.30854, 19.29142 ], [ 73.30949, 19.29087 ], [ 73.32263, 19.29311 ], [ 73.31978, 19.28933 ], [ 73.31607, 19.28127 ], [ 73.31551, 19.27758 ], [ 73.31315, 19.27335 ], [ 73.3118, 19.25946 ], [ 73.30677, 19.25516 ], [ 73.30772, 19.24903 ], [ 73.30349, 19.24794 ], [ 73.30272, 19.24558 ], [ 73.30277, 19.24026 ], [ 73.30612, 19.23234 ], [ 73.30589, 19.23044 ], [ 73.30777, 19.23116 ], [ 73.31009, 19.22419 ], [ 73.30842, 19.21938 ], [ 73.30434, 19.21711 ], [ 73.30016, 19.2123 ], [ 73.29826, 19.21187 ], [ 73.29695, 19.21371 ], [ 73.29431, 19.21472 ], [ 73.28614, 19.21206 ], [ 73.28229, 19.20969 ], [ 73.28047, 19.21095 ], [ 73.28125, 19.21288 ], [ 73.28052, 19.21426 ], [ 73.2773, 19.21351 ], [ 73.27451, 19.20935 ], [ 73.27348, 19.20976 ], [ 73.27163, 19.2112 ], [ 73.27165, 19.21677 ], [ 73.26815, 19.21856 ], [ 73.26476, 19.21833 ], [ 73.26363, 19.21733 ], [ 73.2628, 19.21435 ], [ 73.26317, 19.20994 ], [ 73.26014, 19.20834 ], [ 73.25723, 19.20884 ], [ 73.25554, 19.21123 ], [ 73.24919, 19.20856 ], [ 73.24816, 19.21341 ], [ 73.24595, 19.21369 ], [ 73.24514, 19.21318 ], [ 73.24485, 19.20567 ], [ 73.24703, 19.19927 ], [ 73.24374, 19.19756 ], [ 73.23984, 19.19734 ], [ 73.23552, 19.19464 ], [ 73.22733, 19.19157 ], [ 73.22498, 19.1923 ], [ 73.21986, 19.19938 ], [ 73.21962, 19.20236 ], [ 73.21896, 19.20275 ], [ 73.22, 19.20537 ], [ 73.21852, 19.20742 ], [ 73.21811, 19.21326 ], [ 73.21327, 19.21719 ], [ 73.21053, 19.2216 ], [ 73.21036, 19.22324 ], [ 73.20522, 19.22708 ], [ 73.19882, 19.23397 ], [ 73.18925, 19.23702 ], [ 73.18647, 19.23604 ], [ 73.18346, 19.23151 ], [ 73.18076, 19.22913 ], [ 73.17513, 19.23103 ], [ 73.17922, 19.23096 ], [ 73.17657, 19.23359 ], [ 73.17795, 19.23504 ], [ 73.17664, 19.2363 ], [ 73.17566, 19.23982 ], [ 73.1748, 19.23936 ], [ 73.17558, 19.23801 ], [ 73.17473, 19.23729 ], [ 73.17534, 19.23648 ], [ 73.17392, 19.23557 ], [ 73.17166, 19.23869 ], [ 73.17098, 19.24278 ], [ 73.17106, 19.24545 ], [ 73.17327, 19.24699 ], [ 73.17545, 19.24731 ], [ 73.17567, 19.25407 ], [ 73.16942, 19.25149 ], [ 73.16461, 19.25695 ], [ 73.16179, 19.25309 ], [ 73.15823, 19.24458 ], [ 73.15584, 19.24226 ], [ 73.15105, 19.24068 ], [ 73.15094, 19.23734 ], [ 73.15008, 19.2365 ], [ 73.14768, 19.23643 ], [ 73.14544, 19.23146 ], [ 73.15359, 19.22509 ], [ 73.15301, 19.22305 ], [ 73.15382, 19.21709 ], [ 73.15291, 19.21241 ], [ 73.15445, 19.21147 ], [ 73.15491, 19.209 ], [ 73.15663, 19.20842 ], [ 73.15717, 19.20621 ], [ 73.15854, 19.20581 ], [ 73.15677, 19.20434 ], [ 73.15762, 19.20146 ], [ 73.15725, 19.19923 ], [ 73.15746, 19.19831 ], [ 73.15925, 19.1985 ], [ 73.15971, 19.19746 ], [ 73.15989, 19.19249 ], [ 73.16393, 19.17857 ], [ 73.15965, 19.17891 ], [ 73.1534, 19.17792 ], [ 73.15076, 19.18009 ], [ 73.14858, 19.18054 ], [ 73.14629, 19.18338 ], [ 73.14141, 19.18371 ], [ 73.14006, 19.18184 ], [ 73.13485, 19.18393 ], [ 73.13452, 19.17148 ], [ 73.1312, 19.16735 ], [ 73.12915, 19.16351 ], [ 73.12892, 19.16158 ], [ 73.12604, 19.16126 ], [ 73.12396, 19.16192 ], [ 73.12124, 19.16101 ], [ 73.11968, 19.1558 ], [ 73.11801, 19.15311 ], [ 73.11086, 19.15109 ], [ 73.10793, 19.15505 ], [ 73.10618, 19.15133 ], [ 73.10639, 19.14502 ], [ 73.10177, 19.14464 ], [ 73.09651, 19.14042 ], [ 73.09451, 19.13997 ], [ 73.08574, 19.14178 ], [ 73.08366, 19.14042 ], [ 73.08068, 19.14056 ], [ 73.07858, 19.14352 ], [ 73.07701, 19.14319 ], [ 73.07591, 19.144 ], [ 73.07493, 19.15166 ], [ 73.07267, 19.15653 ], [ 73.07323, 19.16165 ], [ 73.07188, 19.16343 ], [ 73.06938, 19.17062 ], [ 73.06959, 19.17138 ], [ 73.07169, 19.17161 ], [ 73.0719, 19.17285 ], [ 73.06711, 19.17448 ], [ 73.06794, 19.17627 ], [ 73.06607, 19.18312 ], [ 73.06914, 19.18622 ], [ 73.07198, 19.18535 ], [ 73.0747, 19.18565 ], [ 73.07499, 19.188 ], [ 73.07262, 19.18975 ], [ 73.06872, 19.19039 ], [ 73.06904, 19.19637 ], [ 73.06548, 19.19674 ], [ 73.06197, 19.19999 ], [ 73.05872, 19.19963 ], [ 73.05549, 19.20037 ], [ 73.05552, 19.20219 ], [ 73.05914, 19.20276 ], [ 73.06437, 19.20696 ], [ 73.06666, 19.2125 ], [ 73.06737, 19.21761 ], [ 73.065, 19.21833 ], [ 73.06553, 19.22562 ], [ 73.06456, 19.22661 ], [ 73.06577, 19.23348 ], [ 73.06757, 19.23549 ], [ 73.0688, 19.23417 ], [ 73.07581, 19.23968 ], [ 73.08064, 19.2417 ], [ 73.08767, 19.24157 ], [ 73.0906, 19.24017 ], [ 73.09506, 19.23549 ], [ 73.0998, 19.23225 ], [ 73.10493, 19.23181 ], [ 73.11248, 19.23524 ], [ 73.11438, 19.24496 ], [ 73.11379, 19.2497 ], [ 73.11434, 19.25396 ], [ 73.11124, 19.2583 ], [ 73.10504, 19.26156 ], [ 73.10366, 19.26111 ], [ 73.10062, 19.2647 ], [ 73.09979, 19.26868 ], [ 73.10006, 19.26991 ], [ 73.10437, 19.26972 ], [ 73.10683, 19.27216 ], [ 73.10754, 19.27452 ], [ 73.11445, 19.2791 ], [ 73.12567, 19.28265 ], [ 73.13109, 19.282 ], [ 73.13374, 19.27912 ], [ 73.13562, 19.27524 ], [ 73.13567, 19.27321 ], [ 73.13864, 19.26917 ], [ 73.14096, 19.26734 ], [ 73.14732, 19.26845 ], [ 73.15398, 19.272 ], [ 73.17181, 19.27447 ], [ 73.17692, 19.27759 ], [ 73.17873, 19.27939 ], [ 73.18045, 19.28582 ], [ 73.17437, 19.292 ], [ 73.17383, 19.29512 ], [ 73.17437, 19.29711 ], [ 73.18248, 19.3059 ], [ 73.18441, 19.31175 ], [ 73.18502, 19.31753 ], [ 73.18979, 19.31822 ], [ 73.19108, 19.31938 ], [ 73.19375, 19.32879 ], [ 73.19151, 19.33299 ], [ 73.19151, 19.34029 ], [ 73.19345, 19.3425 ], [ 73.19858, 19.34392 ], [ 73.20111, 19.34767 ], [ 73.20587, 19.34837 ], [ 73.20772, 19.3499 ], [ 73.21201, 19.35637 ], [ 73.21523, 19.35833 ], [ 73.21529, 19.36067 ], [ 73.21144, 19.36399 ], [ 73.21111, 19.36735 ], [ 73.21351, 19.36854 ], [ 73.21647, 19.36797 ], [ 73.22127, 19.36452 ], [ 73.22555, 19.36289 ], [ 73.22777, 19.3636 ], [ 73.22849, 19.36484 ], [ 73.22837, 19.36924 ], [ 73.22634, 19.37267 ], [ 73.22514, 19.37744 ], [ 73.22569, 19.37849 ], [ 73.22761, 19.3793 ], [ 73.23708, 19.37855 ], [ 73.23822, 19.38346 ], [ 73.23751, 19.38963 ], [ 73.23825, 19.39059 ], [ 73.24102, 19.39037 ], [ 73.25037, 19.38218 ], [ 73.25357, 19.38188 ], [ 73.25686, 19.38325 ], [ 73.25875, 19.39514 ], [ 73.26159, 19.39718 ], [ 73.26519, 19.39711 ], [ 73.26788, 19.39864 ], [ 73.27029, 19.40189 ] ] ] } }
]
}
