{
"type": "FeatureCollection",
"name": "095_CENTRAL",
"crs": { "type": "name", "properties": { "name": "urn:ogc:def:crs:OGC:1.3:CRS84" } },
"xy_coordinate_resolution": 1e-05,
"features": [
{ "type": "Feature", "properties": { "OBJECTID": 1883, "state_lgd": "07", "state_name": "DELHI", "district_lgd": "095", "district_name": "CENTRAL", "district_name_source": "district_table", "subdistrict_lgd": "00435", "subdistrict_name": "KOTWALI", "subdistrict_type": "Sub_Division", "name_corrupted": false, "remarks": "", "label_lon": 77.237111003395967, "label_lat": 28.647121994833057 }, "geometry": { "type": "Polygon", "coordinates": [ [ [ 77.25946, 28.6146 ], [ 77.25264, 28.61292 ], [ 77.24922, 28.61418 ], [ 77.24675, 28.62152 ], [ 77.24382, 28.62501 ], [ 77.23016, 28.63231 ], [ 77.23208, 28.63503 ], [ 77.23233, 28.64054 ], [ 77.23367, 28.64231 ], [ 77.23115, 28.64285 ], [ 77.23363, 28.65186 ], [ 77.23487, 28.65351 ], [ 77.23453, 28.65496 ], [ 77.23255, 28.65426 ], [ 77.23274, 28.65531 ], [ 77.23136, 28.65589 ], [ 77.22892, 28.6519 ], [ 77.22742, 28.65084 ], [ 77.22565, 28.65328 ], [ 77.22152, 28.65019 ], [ 77.21974, 28.64192 ], [ 77.21171, 28.64414 ], [ 77.21384, 28.64798 ], [ 77.21136, 28.6495 ], [ 77.21174, 28.65013 ], [ 77.21092, 28.65155 ], [ 77.20833, 28.65179 ], [ 77.20725, 28.64996 ], [ 77.20466, 28.65051 ], [ 77.20411, 28.65186 ], [ 77.20152, 28.65179 ], [ 77.2031, 28.65486 ], [ 77.20159, 28.65612 ], [ 77.1995, 28.65414 ], [ 77.19771, 28.65526 ], [ 77.19678, 28.65409 ], [ 77.19308, 28.65759 ], [ 77.19329, 28.66105 ], [ 77.19634, 28.66142 ], [ 77.20757, 28.66627 ], [ 77.21726, 28.66375 ], [ 77.21857, 28.66691 ], [ 77.2239, 28.66768 ], [ 77.23446, 28.67078 ], [ 77.23689, 28.66687 ], [ 77.24284, 28.66292 ], [ 77.24864, 28.66139 ], [ 77.24999, 28.66008 ], [ 77.25156, 28.66052 ], [ 77.25409, 28.65937 ], [ 77.26108, 28.65363 ], [ 77.26289, 28.65443 ], [ 77.26591, 28.64919 ], [ 77.26644, 28.64428 ], [ 77.26448, 28.64317 ], [ 77.26298, 28.63672 ], [ 77.25831, 28.62965 ], [ 77.25915, 28.62782 ], [ 77.25764, 28.62535 ], [ 77.25722, 28.6227 ], [ 77.25946, 28.6146 ] ] ] } },
{ "type": "Feature", "properties": { "OBJECTID": 1884, "state_lgd": "07", "state_name": "DELHI", "district_lgd": "095", "district_name": "CENTRAL", "district_name_source": "district_table", "subdistrict_lgd": "00433", "subdistrict_name": "CIVIL LINES", "subdistrict_type": "Sub_Division", "name_corrupted": false, "remarks": "", "label_lon": 77.22767586371171, "label_lat": 28.7198265 }, "geometry": { "type": "Polygon", "coordinates": [ [ [ 77.21603, 28.7852 ], [ 77.2185, 28.78235 ], [ 77.21886, 28.78032 ], [ 77.21765, 28.77533 ], [ 77.22123, 28.77082 ], [ 77.22003, 28.77031 ], [ 77.21791, 28.76696 ], [ 77.21894, 28.76376 ], [ 77.22201, 28.75871 ], [ 77.22204, 28.7515 ], [ 77.22129, 28.75087 ], [ 77.22303, 28.75066 ], [ 77.22167, 28.7449 ], [ 77.22235, 28.74563 ], [ 77.22259, 28.74501 ], [ 77.22339, 28.74694 ], [ 77.22361, 28.7459 ], [ 77.22684, 28.74498 ], [ 77.22773, 28.74551 ], [ 77.22769, 28.7447 ], [ 77.22856, 28.74838 ], [ 77.22807, 28.74878 ], [ 77.23844, 28.74556 ], [ 77.24175, 28.74338 ], [ 77.24182, 28.73943 ], [ 77.24012, 28.73605 ], [ 77.24186, 28.73385 ], [ 77.24125, 28.73003 ], [ 77.23829, 28.72897 ], [ 77.23714, 28.725 ], [ 77.23853, 28.72433 ], [ 77.23698, 28.7173 ], [ 77.2377, 28.71567 ], [ 77.23571, 28.71281 ], [ 77.23259, 28.7119 ], [ 77.23179, 28.71087 ], [ 77.22985, 28.69949 ], [ 77.22994, 28.69143 ], [ 77.23105, 28.68753 ], [ 77.23083, 28.68129 ], [ 77.23286, 28.67389 ], [ 77.23446, 28.67078 ], [ 77.2239, 28.66768 ], [ 77.21857, 28.66691 ], [ 77.21726, 28.66375 ], [ 77.20757, 28.66627 ], [ 77.19634, 28.66142 ], [ 77.19329, 28.66105 ], [ 77.19276, 28.65567 ], [ 77.19157, 28.65559 ], [ 77.18951, 28.65373 ], [ 77.18693, 28.64879 ], [ 77.17995, 28.65081 ], [ 77.18023, 28.65286 ], [ 77.17836, 28.65232 ], [ 77.17294, 28.65339 ], [ 77.16928, 28.65308 ], [ 77.16856, 28.65342 ], [ 77.1679, 28.65626 ], [ 77.17512, 28.66556 ], [ 77.17824, 28.66764 ], [ 77.17686, 28.67069 ], [ 77.17778, 28.67269 ], [ 77.17874, 28.67268 ], [ 77.17909, 28.6743 ], [ 77.17713, 28.67525 ], [ 77.17473, 28.67425 ], [ 77.17299, 28.67932 ], [ 77.16796, 28.68392 ], [ 77.169, 28.68932 ], [ 77.17328, 28.68516 ], [ 77.176, 28.68364 ], [ 77.18357, 28.68956 ], [ 77.18583, 28.69279 ], [ 77.18817, 28.6946 ], [ 77.18906, 28.69372 ], [ 77.18836, 28.69108 ], [ 77.19361, 28.68896 ], [ 77.19701, 28.68467 ], [ 77.19782, 28.6844 ], [ 77.20033, 28.68593 ], [ 77.20405, 28.68515 ], [ 77.204, 28.68819 ], [ 77.20255, 28.6884 ], [ 77.20697, 28.69222 ], [ 77.21243, 28.70017 ], [ 77.21499, 28.70238 ], [ 77.21858, 28.70764 ], [ 77.22214, 28.71566 ], [ 77.2152, 28.72235 ], [ 77.21536, 28.72664 ], [ 77.20618, 28.7271 ], [ 77.19541, 28.72875 ], [ 77.19191, 28.72567 ], [ 77.19218, 28.72901 ], [ 77.19021, 28.73176 ], [ 77.18654, 28.73289 ], [ 77.1845, 28.73559 ], [ 77.17934, 28.73819 ], [ 77.17669, 28.74049 ], [ 77.17503, 28.74439 ], [ 77.17552, 28.74603 ], [ 77.17718, 28.74825 ], [ 77.17812, 28.74817 ], [ 77.17761, 28.74879 ], [ 77.17942, 28.7504 ], [ 77.18226, 28.75094 ], [ 77.18258, 28.75339 ], [ 77.18125, 28.75486 ], [ 77.17874, 28.75516 ], [ 77.17943, 28.75795 ], [ 77.17454, 28.75968 ], [ 77.17507, 28.76378 ], [ 77.17431, 28.76572 ], [ 77.17155, 28.76725 ], [ 77.17154, 28.77209 ], [ 77.17241, 28.77273 ], [ 77.1792, 28.77031 ], [ 77.18627, 28.7712 ], [ 77.19528, 28.77802 ], [ 77.1989, 28.78169 ], [ 77.19817, 28.78385 ], [ 77.2078, 28.78814 ], [ 77.21334, 28.78552 ], [ 77.21603, 28.7852 ] ] ] } },
{ "type": "Feature", "properties": { "OBJECTID": 1885, "state_lgd": "07", "state_name": "DELHI", "district_lgd": "095", "district_name": "CENTRAL", "district_name_source": "district_table", "subdistrict_lgd": "00447", "subdistrict_name": "KAROL BAGH", "subdistrict_type": "Sub_Division", "name_corrupted": false, "remarks": "", "label_lon": 77.219936683172051, "label_lat": 28.6407645 }, "geometry": { "type": "Polygon", "coordinates": [ [ [ 77.19308, 28.65759 ], [ 77.19678, 28.65409 ], [ 77.19771, 28.65526 ], [ 77.1995, 28.65414 ], [ 77.20163, 28.6561 ], [ 77.2031, 28.65486 ], [ 77.20152, 28.65179 ], [ 77.20411, 28.65186 ], [ 77.20466, 28.65051 ], [ 77.20725, 28.64996 ], [ 77.20833, 28.65179 ], [ 77.21092, 28.65155 ], [ 77.21174, 28.65013 ], [ 77.21136, 28.6495 ], [ 77.21384, 28.64798 ], [ 77.21171, 28.64414 ], [ 77.21974, 28.64192 ], [ 77.22152, 28.65019 ], [ 77.22565, 28.65328 ], [ 77.22742, 28.65084 ], [ 77.22892, 28.6519 ], [ 77.23136, 28.65589 ], [ 77.23274, 28.65531 ], [ 77.23255, 28.65426 ], [ 77.23453, 28.65496 ], [ 77.23487, 28.65351 ], [ 77.23363, 28.65186 ], [ 77.23115, 28.64285 ], [ 77.23367, 28.64231 ], [ 77.23233, 28.64054 ], [ 77.23208, 28.63503 ], [ 77.23016, 28.63231 ], [ 77.22459, 28.63504 ], [ 77.22363, 28.6364 ], [ 77.22272, 28.63523 ], [ 77.21967, 28.63547 ], [ 77.21822, 28.63437 ], [ 77.19835, 28.64608 ], [ 77.19644, 28.64099 ], [ 77.19046, 28.6341 ], [ 77.18864, 28.62959 ], [ 77.18169, 28.62366 ], [ 77.17781, 28.62704 ], [ 77.17606, 28.63288 ], [ 77.17524, 28.63327 ], [ 77.17588, 28.63979 ], [ 77.17538, 28.64207 ], [ 77.17874, 28.64561 ], [ 77.17824, 28.64626 ], [ 77.18119, 28.65031 ], [ 77.18693, 28.64879 ], [ 77.18951, 28.65373 ], [ 77.19157, 28.65559 ], [ 77.19276, 28.65567 ], [ 77.19308, 28.65759 ] ] ] } },
{ "type": "Feature", "properties": { "OBJECTID": 1886, "state_lgd": "07", "state_name": "DELHI", "district_lgd": "095", "district_name": "CENTRAL", "district_name_source": "district_table", "subdistrict_lgd": "", "subdistrict_name": "NAZUL", "subdistrict_type": "Sub_Division", "name_corrupted": false, "remarks": "", "label_lon": 77.268391803446704, "label_lat": 28.642406 }, "geometry": { "type": "Polygon", "coordinates": [ [ [ 77.23773, 28.71237 ], [ 77.24206, 28.71419 ], [ 77.25046, 28.71326 ], [ 77.25267, 28.71043 ], [ 77.25085, 28.70589 ], [ 77.24646, 28.70716 ], [ 77.24199, 28.69077 ], [ 77.24428, 28.69006 ], [ 77.24683, 28.68791 ], [ 77.24949, 28.68766 ], [ 77.24886, 28.68471 ], [ 77.2505, 28.68329 ], [ 77.25086, 28.68422 ], [ 77.25493, 28.68464 ], [ 77.2552, 28.68366 ], [ 77.25773, 28.68364 ], [ 77.25438, 28.67083 ], [ 77.25372, 28.67105 ], [ 77.25237, 28.66927 ], [ 77.25117, 28.66937 ], [ 77.25009, 28.66538 ], [ 77.25183, 28.66249 ], [ 77.2594, 28.6594 ], [ 77.26122, 28.65625 ], [ 77.27221, 28.66227 ], [ 77.27167, 28.66176 ], [ 77.27386, 28.65574 ], [ 77.27365, 28.65256 ], [ 77.27455, 28.65157 ], [ 77.27204, 28.65095 ], [ 77.26994, 28.64784 ], [ 77.27202, 28.64751 ], [ 77.2719, 28.64381 ], [ 77.27335, 28.643 ], [ 77.27178, 28.64185 ], [ 77.27124, 28.63963 ], [ 77.2696, 28.63859 ], [ 77.27034, 28.63638 ], [ 77.2699, 28.63301 ], [ 77.28741, 28.60877 ], [ 77.29044, 28.60221 ], [ 77.3032, 28.58384 ], [ 77.29838, 28.58015 ], [ 77.29973, 28.5786 ], [ 77.30007, 28.57628 ], [ 77.29849, 28.57117 ], [ 77.29215, 28.5774 ], [ 77.29185, 28.58029 ], [ 77.28785, 28.58555 ], [ 77.28493, 28.58678 ], [ 77.27811, 28.58513 ], [ 77.27836, 28.58801 ], [ 77.28081, 28.58968 ], [ 77.28043, 28.5952 ], [ 77.27922, 28.59859 ], [ 77.27391, 28.60199 ], [ 77.26539, 28.59577 ], [ 77.2673, 28.59204 ], [ 77.2652, 28.59166 ], [ 77.25594, 28.6089 ], [ 77.25568, 28.61359 ], [ 77.25946, 28.6146 ], [ 77.25722, 28.6227 ], [ 77.25764, 28.62535 ], [ 77.25915, 28.62782 ], [ 77.25837, 28.62987 ], [ 77.26298, 28.63672 ], [ 77.26437, 28.64296 ], [ 77.26644, 28.64428 ], [ 77.26647, 28.6469 ], [ 77.26289, 28.65443 ], [ 77.26108, 28.65363 ], [ 77.25409, 28.65937 ], [ 77.25156, 28.66052 ], [ 77.24999, 28.66008 ], [ 77.24864, 28.66139 ], [ 77.24313, 28.66278 ], [ 77.24047, 28.66445 ], [ 77.23689, 28.66687 ], [ 77.23286, 28.67389 ], [ 77.23074, 28.68199 ], [ 77.23105, 28.68753 ], [ 77.22994, 28.69143 ], [ 77.22985, 28.69949 ], [ 77.23179, 28.71087 ], [ 77.23259, 28.7119 ], [ 77.23571, 28.71281 ], [ 77.23686, 28.71453 ], [ 77.23773, 28.71237 ] ] ] } }
]
}
