{
"type": "FeatureCollection",
"name": "097_SOUTH_WEST",
"crs": { "type": "name", "properties": { "name": "urn:ogc:def:crs:OGC:1.3:CRS84" } },
"xy_coordinate_resolution": 1e-05,
"features": [
{ "type": "Feature", "properties": { "OBJECTID": 1877, "state_lgd": "07", "state_name": "DELHI", "district_lgd": "097", "district_name": "SOUTH WEST", "district_name_source": "district_table", "subdistrict_lgd": "06184", "subdistrict_name": "KAPASHERA", "subdistrict_type": "Sub_Division", "name_corrupted": false, "remarks": "", "label_lon": 76.983882579460342, "label_lat": 28.544804403228358 }, "geometry": { "type": "Polygon", "coordinates": [ [ [ 77.01459, 28.59596 ], [ 77.01193, 28.59412 ], [ 77.01136, 28.59254 ], [ 77.00953, 28.59219 ], [ 77.00982, 28.5911 ], [ 77.01181, 28.59031 ], [ 77.01636, 28.59218 ], [ 77.01843, 28.59204 ], [ 77.01941, 28.59052 ], [ 77.01807, 28.586 ], [ 77.01874, 28.58459 ], [ 77.02213, 28.58383 ], [ 77.02197, 28.58186 ], [ 77.03159, 28.57923 ], [ 77.03109, 28.57719 ], [ 77.03299, 28.57347 ], [ 77.02073, 28.56561 ], [ 77.0201, 28.56598 ], [ 77.02021, 28.55719 ], [ 77.01934, 28.55547 ], [ 77.01594, 28.55322 ], [ 77.01386, 28.55018 ], [ 77.01983, 28.54805 ], [ 77.03222, 28.54988 ], [ 77.03392, 28.54932 ], [ 77.03818, 28.55556 ], [ 77.04111, 28.55389 ], [ 77.04311, 28.55598 ], [ 77.04531, 28.55482 ], [ 77.04773, 28.55866 ], [ 77.04995, 28.55815 ], [ 77.05056, 28.55897 ], [ 77.06118, 28.55261 ], [ 77.07054, 28.5482 ], [ 77.07131, 28.54379 ], [ 77.07919, 28.54064 ], [ 77.08892, 28.53853 ], [ 77.08672, 28.53527 ], [ 77.08558, 28.53176 ], [ 77.10087, 28.52091 ], [ 77.1036, 28.51812 ], [ 77.09968, 28.51099 ], [ 77.09313, 28.5141 ], [ 77.08042, 28.51795 ], [ 77.07501, 28.51857 ], [ 77.07179, 28.52019 ], [ 77.07074, 28.51696 ], [ 77.06682, 28.51201 ], [ 77.06002, 28.51237 ], [ 77.04624, 28.5167 ], [ 77.04851, 28.52074 ], [ 77.043, 28.52472 ], [ 77.03176, 28.53157 ], [ 77.02404, 28.53309 ], [ 77.01544, 28.53974 ], [ 77.01022, 28.54062 ], [ 77.00947, 28.53992 ], [ 77.00665, 28.54141 ], [ 77.00478, 28.54016 ], [ 77.00512, 28.53891 ], [ 77.00023, 28.53209 ], [ 77.01056, 28.52557 ], [ 77.01455, 28.52395 ], [ 77.01711, 28.52084 ], [ 77.01022, 28.51435 ], [ 76.99657, 28.51975 ], [ 76.99519, 28.51672 ], [ 76.99412, 28.51711 ], [ 76.99039, 28.5135 ], [ 76.98276, 28.51712 ], [ 76.9781, 28.52132 ], [ 76.9759, 28.51871 ], [ 76.97075, 28.5152 ], [ 76.96489, 28.51256 ], [ 76.95602, 28.50614 ], [ 76.95167, 28.50422 ], [ 76.94166, 28.50454 ], [ 76.93349, 28.5097 ], [ 76.92734, 28.51051 ], [ 76.92078, 28.50698 ], [ 76.91898, 28.50905 ], [ 76.9144, 28.51167 ], [ 76.9103, 28.51208 ], [ 76.90793, 28.51381 ], [ 76.90302, 28.50893 ], [ 76.90004, 28.50935 ], [ 76.89862, 28.50875 ], [ 76.89223, 28.50082 ], [ 76.88545, 28.50114 ], [ 76.88568, 28.50245 ], [ 76.88041, 28.50591 ], [ 76.88146, 28.50989 ], [ 76.88399, 28.51366 ], [ 76.88533, 28.51733 ], [ 76.88691, 28.51989 ], [ 76.88935, 28.52054 ], [ 76.89212, 28.52848 ], [ 76.89589, 28.53369 ], [ 76.91066, 28.52788 ], [ 76.91336, 28.53113 ], [ 76.91433, 28.53413 ], [ 76.91064, 28.54098 ], [ 76.91106, 28.5422 ], [ 76.91025, 28.5445 ], [ 76.90402, 28.54633 ], [ 76.90877, 28.5576 ], [ 76.92164, 28.5559 ], [ 76.92998, 28.5506 ], [ 76.93067, 28.54891 ], [ 76.93774, 28.55773 ], [ 76.93756, 28.55887 ], [ 76.93633, 28.559 ], [ 76.93519, 28.56036 ], [ 76.93799, 28.56659 ], [ 76.94117, 28.56671 ], [ 76.94151, 28.56813 ], [ 76.93742, 28.5732 ], [ 76.9394, 28.5803 ], [ 76.93975, 28.58576 ], [ 76.9454, 28.58466 ], [ 76.95153, 28.58836 ], [ 76.95425, 28.58371 ], [ 76.95296, 28.57641 ], [ 76.96024, 28.57513 ], [ 76.96755, 28.58344 ], [ 76.97088, 28.58876 ], [ 76.97417, 28.5916 ], [ 76.98104, 28.59657 ], [ 76.98495, 28.59384 ], [ 76.99039, 28.59724 ], [ 76.99599, 28.60365 ], [ 77.01459, 28.59596 ] ] ] } },
{ "type": "Feature", "properties": { "OBJECTID": 1878, "state_lgd": "07", "state_name": "DELHI", "district_lgd": "097", "district_name": "SOUTH WEST", "district_name_source": "district_table", "subdistrict_lgd": "06167", "subdistrict_name": "DWARKA", "subdistrict_type": "Sub_Division", "name_corrupted": false, "remarks": "", "label_lon": 77.051843200744543, "label_lat": 28.591683810666556 }, "geometry": { "type": "Polygon", "coordinates": [ [ [ 77.00461, 28.62522 ], [ 77.0078, 28.62411 ], [ 77.00933, 28.62511 ], [ 77.01419, 28.62541 ], [ 77.01601, 28.62719 ], [ 77.02204, 28.62652 ], [ 77.02286, 28.62348 ], [ 77.02251, 28.62097 ], [ 77.03049, 28.61903 ], [ 77.03418, 28.61654 ], [ 77.03263, 28.61519 ], [ 77.03262, 28.61378 ], [ 77.03632, 28.604 ], [ 77.04481, 28.60113 ], [ 77.0518, 28.59723 ], [ 77.0554, 28.59622 ], [ 77.05846, 28.59825 ], [ 77.05864, 28.59953 ], [ 77.05981, 28.59842 ], [ 77.06194, 28.59963 ], [ 77.05233, 28.60745 ], [ 77.0549, 28.61168 ], [ 77.0518, 28.61638 ], [ 77.05312, 28.61831 ], [ 77.06119, 28.61776 ], [ 77.06409, 28.62123 ], [ 77.0797, 28.61187 ], [ 77.08053, 28.61387 ], [ 77.08377, 28.61415 ], [ 77.08553, 28.61561 ], [ 77.08634, 28.61532 ], [ 77.08734, 28.61692 ], [ 77.08954, 28.61807 ], [ 77.09559, 28.6165 ], [ 77.10394, 28.61276 ], [ 77.10277, 28.60626 ], [ 77.10195, 28.60634 ], [ 77.10193, 28.60502 ], [ 77.09883, 28.60102 ], [ 77.10033, 28.59989 ], [ 77.0997, 28.59877 ], [ 77.10324, 28.59742 ], [ 77.10553, 28.59517 ], [ 77.10428, 28.59152 ], [ 77.10615, 28.58934 ], [ 77.10453, 28.58721 ], [ 77.10072, 28.58881 ], [ 77.10098, 28.58994 ], [ 77.09934, 28.59093 ], [ 77.09621, 28.59149 ], [ 77.0961, 28.588 ], [ 77.08115, 28.57118 ], [ 77.07507, 28.57368 ], [ 77.06946, 28.57493 ], [ 77.06782, 28.57376 ], [ 77.06558, 28.56978 ], [ 77.05877, 28.57146 ], [ 77.05063, 28.5589 ], [ 77.04995, 28.55815 ], [ 77.04773, 28.55866 ], [ 77.04531, 28.55482 ], [ 77.04311, 28.55598 ], [ 77.04111, 28.55389 ], [ 77.03818, 28.55556 ], [ 77.03392, 28.54932 ], [ 77.03222, 28.54988 ], [ 77.0205, 28.54806 ], [ 77.01822, 28.54858 ], [ 77.01386, 28.55018 ], [ 77.01594, 28.55322 ], [ 77.01934, 28.55547 ], [ 77.02021, 28.55719 ], [ 77.0201, 28.56598 ], [ 77.02073, 28.56561 ], [ 77.03299, 28.57347 ], [ 77.03109, 28.57719 ], [ 77.03159, 28.57923 ], [ 77.02197, 28.58186 ], [ 77.02213, 28.58383 ], [ 77.01874, 28.58459 ], [ 77.01807, 28.586 ], [ 77.01941, 28.59052 ], [ 77.01843, 28.59204 ], [ 77.01636, 28.59218 ], [ 77.01181, 28.59031 ], [ 77.00969, 28.59129 ], [ 77.00953, 28.59219 ], [ 77.01136, 28.59254 ], [ 77.01193, 28.59412 ], [ 77.01589, 28.59761 ], [ 77.01608, 28.59975 ], [ 77.01223, 28.60362 ], [ 77.01124, 28.60608 ], [ 77.01237, 28.60848 ], [ 77.01688, 28.61198 ], [ 77.01778, 28.61355 ], [ 76.99616, 28.61904 ], [ 76.99163, 28.6214 ], [ 76.99799, 28.62799 ], [ 77.00162, 28.62936 ], [ 77.00461, 28.62522 ] ] ] } },
{ "type": "Feature", "properties": { "OBJECTID": 1879, "state_lgd": "07", "state_name": "DELHI", "district_lgd": "097", "district_name": "SOUTH WEST", "district_name_source": "district_table", "subdistrict_lgd": "00451", "subdistrict_name": "NAJAFGARH", "subdistrict_type": "Sub_Division", "name_corrupted": false, "remarks": "", "label_lon": 76.924749834210886, "label_lat": 28.597794996888823 }, "geometry": { "type": "Polygon", "coordinates": [ [ [ 76.94885, 28.67019 ], [ 76.95241, 28.66961 ], [ 76.95451, 28.66681 ], [ 76.96269, 28.66136 ], [ 76.96742, 28.65944 ], [ 76.96801, 28.65851 ], [ 76.97751, 28.65706 ], [ 76.97968, 28.65429 ], [ 76.98874, 28.66082 ], [ 76.99309, 28.6583 ], [ 76.9927, 28.65631 ], [ 76.99605, 28.6538 ], [ 77.00215, 28.65129 ], [ 76.99975, 28.64961 ], [ 76.99985, 28.64601 ], [ 77.00492, 28.63146 ], [ 77.0069, 28.628 ], [ 77.00461, 28.62522 ], [ 77.00162, 28.62936 ], [ 76.99914, 28.62855 ], [ 76.994, 28.62441 ], [ 76.99163, 28.6214 ], [ 76.99616, 28.61904 ], [ 77.01778, 28.61355 ], [ 77.01688, 28.61198 ], [ 77.01237, 28.60848 ], [ 77.01124, 28.60608 ], [ 77.01223, 28.60362 ], [ 77.01608, 28.59975 ], [ 77.01589, 28.59761 ], [ 77.01459, 28.59596 ], [ 76.99599, 28.60365 ], [ 76.99039, 28.59724 ], [ 76.98495, 28.59384 ], [ 76.98104, 28.59657 ], [ 76.97417, 28.5916 ], [ 76.97088, 28.58876 ], [ 76.96755, 28.58344 ], [ 76.96024, 28.57513 ], [ 76.95296, 28.57641 ], [ 76.95425, 28.58371 ], [ 76.95153, 28.58836 ], [ 76.9454, 28.58466 ], [ 76.93975, 28.58576 ], [ 76.9394, 28.5803 ], [ 76.93742, 28.5732 ], [ 76.94065, 28.56853 ], [ 76.94151, 28.56837 ], [ 76.94117, 28.56671 ], [ 76.93799, 28.56659 ], [ 76.93519, 28.56036 ], [ 76.93633, 28.559 ], [ 76.93756, 28.55887 ], [ 76.93774, 28.55773 ], [ 76.93067, 28.54891 ], [ 76.92998, 28.5506 ], [ 76.92164, 28.5559 ], [ 76.90877, 28.5576 ], [ 76.90838, 28.55686 ], [ 76.90402, 28.54633 ], [ 76.91025, 28.5445 ], [ 76.91106, 28.5422 ], [ 76.91064, 28.54098 ], [ 76.91433, 28.53413 ], [ 76.91336, 28.53113 ], [ 76.91066, 28.52788 ], [ 76.89589, 28.53369 ], [ 76.89212, 28.52848 ], [ 76.88904, 28.52036 ], [ 76.88691, 28.51989 ], [ 76.88713, 28.52057 ], [ 76.88286, 28.52251 ], [ 76.87772, 28.52393 ], [ 76.87458, 28.52701 ], [ 76.8729, 28.53106 ], [ 76.87321, 28.53275 ], [ 76.86738, 28.53555 ], [ 76.86639, 28.54046 ], [ 76.86472, 28.5435 ], [ 76.86028, 28.54589 ], [ 76.84527, 28.5505 ], [ 76.8451, 28.55218 ], [ 76.84241, 28.5563 ], [ 76.84243, 28.56325 ], [ 76.8406, 28.56958 ], [ 76.84069, 28.57166 ], [ 76.83889, 28.57328 ], [ 76.83953, 28.58279 ], [ 76.84611, 28.5848 ], [ 76.86161, 28.58523 ], [ 76.86431, 28.586 ], [ 76.86788, 28.59063 ], [ 76.87176, 28.60286 ], [ 76.87734, 28.60883 ], [ 76.88025, 28.61497 ], [ 76.8824, 28.62279 ], [ 76.88584, 28.62957 ], [ 76.88833, 28.63196 ], [ 76.89327, 28.63169 ], [ 76.90647, 28.6238 ], [ 76.90856, 28.62699 ], [ 76.91429, 28.63235 ], [ 76.91978, 28.63163 ], [ 76.92426, 28.62814 ], [ 76.92746, 28.62356 ], [ 76.93476, 28.61836 ], [ 76.94299, 28.628 ], [ 76.94446, 28.63329 ], [ 76.94019, 28.63493 ], [ 76.9365, 28.63783 ], [ 76.92496, 28.65015 ], [ 76.93084, 28.65846 ], [ 76.93348, 28.66541 ], [ 76.93533, 28.66786 ], [ 76.94338, 28.66835 ], [ 76.94885, 28.67019 ] ] ] } }
]
}
