{"type":"FeatureCollection","name":"CHANDIGARH, CHANDIGARH - Sub-district boundaries","crs_note":"RFC 7946 WGS84 lon/lat (EPSG:4326); source CRS was LCC_WGS84","features":[{"type":"Feature","properties":{"OBJECTID":1876,"state_lgd":"04","state_name":"CHANDIGARH","district_lgd":"055","district_name":"CHANDIGARH","district_name_source":"district_table","subdistrict_lgd":"0277","subdistrict_name":"CHANDIGARH","subdistrict_type":"Tehsil","name_corrupted":false,"remarks":""},"geometry":{"type":"Polygon","coordinates":[[[76.772335,30.79414],[76.772361,30.794103],[76.772535,30.793853],[76.7726,30.79376],[76.772629,30.793718],[76.772642,30.793698],[76.772653,30.793683],[76.772915,30.793307],[76.772915,30.793306],[76.773235,30.792793],[76.773262,30.792757],[76.773621,30.79229],[76.773683,30.792209],[76.77381,30.792044],[76.773882,30.791972],[76.773944,30.79191],[76.77428,30.791573],[76.774417,30.791436],[76.774541,30.791314],[76.774573,30.791283],[76.775007,30.790859],[76.775135,30.790779],[76.775361,30.790636],[76.775535,30.790526],[76.775556,30.790512],[76.775559,30.790511],[76.776267,30.790296],[76.776507,30.790247],[76.776868,30.790189],[76.777042,30.790156],[76.777129,30.790139],[76.777263,30.790124],[76.778024,30.790041],[76.77831,30.790009],[76.778639,30.789973],[76.779209,30.789825],[76.779729,30.789662],[76.779914,30.789605],[76.780193,30.789494],[76.780271,30.789463],[76.780379,30.78942],[76.780418,30.789409],[76.781074,30.789227],[76.781322,30.789109],[76.78133,30.789105],[76.781644,30.789065],[76.781983,30.789114],[76.782238,30.789141],[76.78238,30.789155],[76.782462,30.789158],[76.782647,30.789165],[76.782781,30.789174],[76.782782,30.789174],[76.783143,30.788292],[76.783196,30.788164],[76.783337,30.787796],[76.783594,30.787122],[76.783735,30.786829],[76.784064,30.786151],[76.784108,30.78606],[76.78417,30.785931],[76.784659,30.784922],[76.784759,30.784716],[76.78486,30.784507],[76.785094,30.784024],[76.785096,30.78402],[76.785157,30.783884],[76.785307,30.783549],[76.785341,30.783472],[76.785881,30.782267],[76.78589,30.782246],[76.78599,30.782026],[76.786014,30.781972],[76.786137,30.781701],[76.78618,30.781606],[76.786404,30.781109],[76.786462,30.780982],[76.786618,30.780614],[76.786876,30.780003],[76.786952,30.779814],[76.7873,30.778948],[76.786278,30.778919],[76.786145,30.778916],[76.785516,30.778818],[76.784955,30.77873],[76.783847,30.778635],[76.78338,30.778533],[76.782907,30.778431],[76.782506,30.778376],[76.781879,30.77829],[76.780594,30.778069],[76.780569,30.778059],[76.779919,30.777817],[76.779717,30.777742],[76.77971,30.77774],[76.779649,30.777717],[76.779586,30.777693],[76.779614,30.777648],[76.780042,30.776935],[76.780124,30.776799],[76.780418,30.77631],[76.780823,30.775527],[76.780878,30.775422],[76.780909,30.775362],[76.780956,30.775272],[76.780957,30.77527],[76.781022,30.775144],[76.78103,30.775128],[76.781165,30.774868],[76.781397,30.774421],[76.78148,30.774271],[76.782365,30.772679],[76.782535,30.772355],[76.782624,30.772186],[76.783422,30.770671],[76.783442,30.770633],[76.783477,30.770568],[76.783559,30.770562],[76.783568,30.770562],[76.784155,30.77057],[76.7862,30.770718],[76.786874,30.770767],[76.788676,30.770739],[76.790187,30.770715],[76.790472,30.770711],[76.790645,30.770625],[76.790661,30.770593],[76.79067,30.770576],[76.791089,30.769762],[76.79152,30.768923],[76.791524,30.768916],[76.791686,30.768709],[76.791779,30.76876],[76.794474,30.770238],[76.794608,30.770311],[76.794743,30.770385],[76.794809,30.770421],[76.794872,30.770456],[76.794981,30.770515],[76.795431,30.770763],[76.795668,30.770892],[76.795779,30.770953],[76.79605,30.77103],[76.798258,30.771105],[76.798338,30.771108],[76.798369,30.771338],[76.798374,30.771378],[76.79831,30.77163],[76.798278,30.771753],[76.798277,30.771758],[76.798222,30.771974],[76.798175,30.772059],[76.799308,30.772592],[76.799971,30.772863],[76.800206,30.773129],[76.800321,30.773314],[76.800477,30.773544],[76.800492,30.773562],[76.800584,30.773679],[76.800592,30.773689],[76.800717,30.773991],[76.80082,30.774232],[76.800931,30.774492],[76.801057,30.774559],[76.801349,30.774713],[76.801892,30.775146],[76.80196,30.775269],[76.802126,30.77557],[76.803077,30.776035],[76.80329,30.776125],[76.803469,30.7762],[76.803818,30.776347],[76.804278,30.776546],[76.804596,30.776681],[76.804689,30.776718],[76.805159,30.776904],[76.805212,30.776925],[76.805239,30.77691],[76.805294,30.776879],[76.805301,30.776875],[76.805411,30.776826],[76.805467,30.776759],[76.80552,30.776695],[76.805693,30.776708],[76.805728,30.77671],[76.805959,30.776727],[76.806351,30.776849],[76.806406,30.776877],[76.80644,30.776894],[76.806429,30.776953],[76.806416,30.777031],[76.806392,30.777165],[76.806574,30.777263],[76.806617,30.777286],[76.806693,30.777315],[76.806763,30.777341],[76.806816,30.777372],[76.807003,30.777481],[76.807024,30.777494],[76.807046,30.777506],[76.807207,30.777598],[76.807442,30.777391],[76.807761,30.777576],[76.807907,30.777693],[76.8081,30.777837],[76.808278,30.778],[76.808418,30.778135],[76.808539,30.778239],[76.808548,30.778263],[76.808867,30.779042],[76.808951,30.77913],[76.808995,30.779176],[76.80917,30.779358],[76.809507,30.779245],[76.809598,30.779214],[76.81,30.779358],[76.810528,30.779589],[76.810694,30.779559],[76.810862,30.77953],[76.811097,30.779477],[76.81153,30.77938],[76.812121,30.779247],[76.812121,30.779247],[76.81245,30.779418],[76.813014,30.779793],[76.813389,30.780073],[76.813515,30.780167],[76.813706,30.77999],[76.814397,30.779349],[76.814477,30.779275],[76.814613,30.779097],[76.81464,30.779062],[76.814646,30.779054],[76.814739,30.778933],[76.814746,30.778924],[76.814772,30.778889],[76.814806,30.778845],[76.814997,30.778596],[76.815444,30.778012],[76.815587,30.778022],[76.817002,30.778116],[76.817908,30.778177],[76.817912,30.778177],[76.817978,30.778181],[76.817986,30.778182],[76.818035,30.778185],[76.818052,30.778177],[76.818066,30.778171],[76.818325,30.778052],[76.818411,30.778013],[76.818551,30.777949],[76.818646,30.777906],[76.818595,30.777671],[76.818489,30.777178],[76.81838,30.77667],[76.818351,30.776533],[76.818231,30.775963],[76.81812,30.775438],[76.818153,30.775422],[76.818188,30.775404],[76.818818,30.775086],[76.818903,30.775044],[76.819175,30.774907],[76.819525,30.774564],[76.819537,30.774301],[76.819549,30.774061],[76.819568,30.773653],[76.819521,30.773578],[76.819457,30.773473],[76.819422,30.773415],[76.81917,30.773004],[76.818991,30.772712],[76.818716,30.772264],[76.818707,30.772248],[76.81865,30.772155],[76.818471,30.771864],[76.818128,30.771304],[76.818122,30.771294],[76.818076,30.771267],[76.817971,30.771208],[76.817844,30.771136],[76.81784,30.771134],[76.817071,30.770698],[76.816683,30.770477],[76.816451,30.770346],[76.815619,30.769954],[76.815533,30.769914],[76.815498,30.769898],[76.815485,30.769892],[76.815431,30.769866],[76.814666,30.769506],[76.81394,30.769271],[76.813887,30.769254],[76.813844,30.76924],[76.813731,30.769204],[76.813655,30.769179],[76.813564,30.76915],[76.813159,30.769018],[76.812997,30.768966],[76.812994,30.768965],[76.812814,30.768907],[76.812745,30.768885],[76.812585,30.768833],[76.812444,30.768787],[76.812406,30.768775],[76.812254,30.768725],[76.81201,30.768646],[76.811879,30.768604],[76.811736,30.768558],[76.811589,30.768492],[76.811388,30.768402],[76.811282,30.768355],[76.811218,30.768323],[76.81119,30.768309],[76.810914,30.768173],[76.810231,30.767836],[76.810197,30.76782],[76.808329,30.766898],[76.808243,30.766856],[76.808193,30.766843],[76.807663,30.766715],[76.807572,30.766693],[76.807472,30.766668],[76.80744,30.766661],[76.80735,30.766639],[76.807309,30.766604],[76.807202,30.766514],[76.807179,30.766495],[76.807141,30.766463],[76.807124,30.766448],[76.806986,30.766332],[76.805986,30.76549],[76.805427,30.76502],[76.805372,30.764974],[76.805425,30.764917],[76.806578,30.763694],[76.806633,30.763636],[76.807212,30.763022],[76.807472,30.762698],[76.808144,30.761865],[76.808288,30.761685],[76.808367,30.761587],[76.808481,30.761446],[76.809011,30.760788],[76.809073,30.760711],[76.809143,30.760624],[76.809325,30.760398],[76.809375,30.760335],[76.809545,30.760124],[76.809993,30.759569],[76.81025,30.759245],[76.811082,30.7582],[76.811289,30.757941],[76.811856,30.757229],[76.811903,30.75717],[76.811952,30.757108],[76.812127,30.756888],[76.812144,30.756867],[76.812215,30.756778],[76.812252,30.756732],[76.812513,30.756404],[76.813052,30.755727],[76.813296,30.755421],[76.81337,30.755333],[76.813635,30.755022],[76.813753,30.754883],[76.813988,30.754608],[76.814442,30.754074],[76.814606,30.753882],[76.814779,30.753678],[76.815097,30.753305],[76.815343,30.753016],[76.815606,30.752707],[76.815789,30.752789],[76.816133,30.752942],[76.816299,30.753016],[76.816474,30.753094],[76.816498,30.753104],[76.816507,30.753111],[76.817628,30.754051],[76.817678,30.754092],[76.817743,30.754229],[76.817845,30.75444],[76.817845,30.754441],[76.817885,30.754763],[76.817949,30.755283],[76.817996,30.755836],[76.818034,30.756291],[76.818035,30.756303],[76.818036,30.756316],[76.818068,30.756689],[76.818079,30.756818],[76.818079,30.756821],[76.81809,30.756953],[76.818112,30.757216],[76.81813,30.757426],[76.818313,30.757881],[76.818447,30.758005],[76.818643,30.758187],[76.819229,30.758732],[76.819513,30.758996],[76.819719,30.759339],[76.819748,30.759388],[76.819849,30.759793],[76.820113,30.760849],[76.820238,30.760962],[76.821763,30.760963],[76.82185,30.760963],[76.821942,30.760963],[76.822154,30.760963],[76.824207,30.760964],[76.82445,30.761067],[76.824463,30.761072],[76.824465,30.76109],[76.824571,30.762012],[76.824593,30.762204],[76.824698,30.762358],[76.824775,30.76247],[76.825632,30.762832],[76.826136,30.76316],[76.826162,30.763177],[76.826352,30.763301],[76.828139,30.761867],[76.828152,30.761856],[76.828371,30.761666],[76.828432,30.761613],[76.828466,30.761583],[76.828808,30.761286],[76.829332,30.760833],[76.829394,30.76078],[76.829623,30.760582],[76.829657,30.760553],[76.830156,30.760123],[76.830708,30.759676],[76.830847,30.759564],[76.830872,30.759544],[76.830904,30.759518],[76.832292,30.758396],[76.832326,30.758368],[76.83262,30.758132],[76.832642,30.758113],[76.83278,30.758002],[76.833363,30.75753],[76.833785,30.757266],[76.834325,30.756926],[76.835027,30.756393],[76.83522,30.756247],[76.835798,30.755808],[76.836375,30.75531],[76.836575,30.755137],[76.836754,30.754983],[76.836796,30.754933],[76.837008,30.75468],[76.837313,30.754316],[76.837321,30.754307],[76.837344,30.754279],[76.837454,30.754149],[76.837511,30.754048],[76.837652,30.753801],[76.837746,30.753635],[76.837776,30.753457],[76.837788,30.753381],[76.837851,30.752998],[76.837856,30.752968],[76.838077,30.752082],[76.838096,30.752008],[76.838149,30.751795],[76.838173,30.751789],[76.838329,30.751752],[76.838635,30.751678],[76.838955,30.751678],[76.838993,30.751678],[76.839073,30.751678],[76.83907,30.751651],[76.839021,30.751196],[76.838875,30.751006],[76.838327,30.750862],[76.83769,30.750857],[76.837074,30.750783],[76.836901,30.750762],[76.836364,30.750609],[76.836273,30.750584],[76.835239,30.750307],[76.834881,30.750211],[76.834396,30.750054],[76.834271,30.75],[76.833842,30.749826],[76.833836,30.749164],[76.833832,30.748719],[76.833827,30.748189],[76.83385,30.747799],[76.833855,30.747719],[76.83384,30.747619],[76.833824,30.74751],[76.833791,30.747294],[76.833783,30.747237],[76.833767,30.747215],[76.833618,30.747002],[76.833578,30.746944],[76.833505,30.74684],[76.833498,30.746831],[76.833452,30.746642],[76.833431,30.746552],[76.833445,30.746456],[76.833468,30.746308],[76.833471,30.74629],[76.833497,30.746163],[76.833523,30.746033],[76.83353,30.745999],[76.833535,30.745971],[76.833582,30.745738],[76.833643,30.745554],[76.83372,30.745322],[76.83373,30.74529],[76.833789,30.744788],[76.833837,30.744537],[76.833864,30.744397],[76.833874,30.744345],[76.833888,30.744323],[76.834114,30.743957],[76.834158,30.743885],[76.834354,30.743454],[76.834455,30.743019],[76.834747,30.742167],[76.834944,30.741835],[76.834946,30.741836],[76.835186,30.741949],[76.835213,30.741962],[76.835265,30.741996],[76.835474,30.742132],[76.835923,30.742425],[76.836107,30.742545],[76.836199,30.74262],[76.836552,30.742909],[76.836699,30.742952],[76.8367,30.74295],[76.836786,30.742796],[76.836826,30.742724],[76.836861,30.742661],[76.836828,30.742637],[76.836702,30.742546],[76.836612,30.742488],[76.836499,30.742417],[76.835951,30.742069],[76.835874,30.742018],[76.834624,30.741199],[76.833367,30.74045],[76.833028,30.740226],[76.832813,30.740084],[76.832759,30.740048],[76.832759,30.740048],[76.832259,30.739835],[76.831693,30.739593],[76.831501,30.739511],[76.831528,30.73946],[76.831789,30.738969],[76.83196,30.738648],[76.831961,30.738648],[76.832025,30.738656],[76.832236,30.738684],[76.833048,30.73879],[76.833059,30.738775],[76.83349,30.738112],[76.834491,30.736907],[76.834783,30.736555],[76.835946,30.735154],[76.83601,30.734973],[76.836209,30.734731],[76.836347,30.734553],[76.836729,30.734065],[76.837161,30.733455],[76.837222,30.733479],[76.837245,30.733489],[76.837514,30.733598],[76.837798,30.733694],[76.837827,30.7337],[76.837857,30.733706],[76.837946,30.733725],[76.838055,30.733749],[76.83812,30.733746],[76.838331,30.733736],[76.838565,30.733656],[76.838699,30.7336],[76.838711,30.733633],[76.838719,30.733654],[76.838743,30.733721],[76.838854,30.73376],[76.838893,30.733732],[76.838893,30.733732],[76.83906,30.733613],[76.839176,30.733593],[76.839192,30.73359],[76.839289,30.733573],[76.839344,30.733556],[76.839345,30.733556],[76.839647,30.733461],[76.839657,30.733458],[76.839701,30.733444],[76.839722,30.733438],[76.839969,30.733361],[76.841224,30.732932],[76.841533,30.732826],[76.841837,30.732721],[76.843195,30.731114],[76.843282,30.731137],[76.843337,30.731151],[76.843506,30.731196],[76.843699,30.731247],[76.843703,30.731248],[76.843932,30.731308],[76.844096,30.731351],[76.844198,30.731378],[76.845011,30.731593],[76.845292,30.731646],[76.845589,30.731702],[76.845613,30.731706],[76.845631,30.731703],[76.846019,30.731624],[76.846045,30.731619],[76.846908,30.731431],[76.847012,30.731427],[76.847243,30.73142],[76.84742,30.731414],[76.84742,30.731414],[76.847449,30.731374],[76.848206,30.730321],[76.848211,30.730314],[76.848223,30.730297],[76.848224,30.730296],[76.848051,30.7302],[76.847975,30.730157],[76.847841,30.730095],[76.847623,30.729993],[76.847412,30.729894],[76.847083,30.729731],[76.847032,30.729706],[76.846781,30.729664],[76.846658,30.729669],[76.846396,30.729679],[76.846394,30.729679],[76.846539,30.729347],[76.8466,30.729207],[76.846716,30.728921],[76.846854,30.728585],[76.846968,30.728354],[76.847361,30.727557],[76.847465,30.727345],[76.847471,30.727332],[76.847608,30.727054],[76.847689,30.726872],[76.84778,30.726668],[76.848144,30.725847],[76.848228,30.725695],[76.848365,30.725449],[76.84877,30.724724],[76.848836,30.724569],[76.849103,30.723944],[76.849174,30.723775],[76.849357,30.723468],[76.849402,30.723393],[76.849334,30.723381],[76.849158,30.72335],[76.849093,30.723339],[76.849011,30.72331],[76.848667,30.723187],[76.848254,30.723053],[76.848141,30.723017],[76.847706,30.722876],[76.847416,30.722799],[76.847217,30.722746],[76.847151,30.722729],[76.846866,30.722654],[76.846798,30.722618],[76.846682,30.722557],[76.846145,30.722321],[76.846066,30.722286],[76.845626,30.721963],[76.845159,30.721555],[76.845059,30.721463],[76.84484,30.721261],[76.844845,30.721252],[76.844924,30.7211],[76.845025,30.720906],[76.845087,30.720789],[76.845119,30.72056],[76.845119,30.720558],[76.844913,30.720483],[76.844798,30.720441],[76.844664,30.720356],[76.844645,30.720344],[76.844645,30.720344],[76.844655,30.7203],[76.844659,30.720281],[76.84467,30.720183],[76.844681,30.720071],[76.844681,30.720068],[76.844679,30.720063],[76.844673,30.720048],[76.844668,30.720036],[76.844654,30.720001],[76.844615,30.71999],[76.844533,30.719967],[76.84453,30.719967],[76.84443,30.719959],[76.844429,30.719959],[76.844325,30.719869],[76.844317,30.719862],[76.844127,30.719696],[76.844055,30.719633],[76.843819,30.719427],[76.843817,30.719426],[76.843741,30.719359],[76.843575,30.719214],[76.843574,30.719214],[76.843876,30.7186],[76.844191,30.718145],[76.844357,30.717921],[76.844557,30.717652],[76.8448,30.717417],[76.844817,30.7174],[76.84486,30.717358],[76.844903,30.717317],[76.845028,30.717196],[76.845029,30.717195],[76.8451,30.717227],[76.845142,30.717246],[76.845229,30.717287],[76.846124,30.717671],[76.846436,30.717787],[76.846734,30.717897],[76.846979,30.717971],[76.847474,30.718121],[76.847528,30.71814],[76.847648,30.718184],[76.8478,30.71824],[76.847881,30.71827],[76.848363,30.718446],[76.84841,30.71846],[76.848546,30.718501],[76.848553,30.718503],[76.849213,30.7187],[76.849235,30.718661],[76.849368,30.718416],[76.849374,30.718404],[76.849395,30.718365],[76.849445,30.718273],[76.849379,30.71823],[76.849237,30.718136],[76.848975,30.717964],[76.848951,30.717946],[76.848888,30.717897],[76.848233,30.717397],[76.848089,30.717344],[76.84808,30.717341],[76.848036,30.717326],[76.84756,30.717168],[76.847082,30.716997],[76.846918,30.716938],[76.846872,30.716921],[76.846772,30.716886],[76.846772,30.716885],[76.846822,30.716846],[76.846873,30.716805],[76.846916,30.716771],[76.847486,30.716271],[76.847501,30.716257],[76.847543,30.716217],[76.847809,30.715961],[76.84804,30.71574],[76.848168,30.715542],[76.848172,30.715536],[76.848324,30.715303],[76.848333,30.715048],[76.84834,30.714882],[76.848348,30.714671],[76.848355,30.714464],[76.848282,30.714318],[76.84823,30.714214],[76.84823,30.714213],[76.848209,30.714194],[76.848066,30.714066],[76.848065,30.714064],[76.84802,30.714024],[76.847959,30.713968],[76.847807,30.713827],[76.847698,30.713727],[76.847634,30.713667],[76.847619,30.713653],[76.847441,30.713376],[76.847441,30.713376],[76.847436,30.713363],[76.847362,30.713153],[76.847331,30.713066],[76.847301,30.712593],[76.847261,30.712414],[76.847232,30.712283],[76.847084,30.712034],[76.847006,30.711903],[76.846984,30.711881],[76.846961,30.711859],[76.846883,30.711783],[76.846592,30.711481],[76.846573,30.711461],[76.846488,30.711373],[76.846486,30.711371],[76.846441,30.711324],[76.846424,30.711308],[76.845825,30.710747],[76.8456,30.710556],[76.845475,30.710449],[76.845352,30.710338],[76.845236,30.710232],[76.845066,30.710099],[76.844976,30.710028],[76.844831,30.709855],[76.844703,30.709703],[76.844697,30.709687],[76.844521,30.709252],[76.844501,30.7092],[76.844396,30.708922],[76.844388,30.708889],[76.844346,30.708726],[76.844322,30.708628],[76.844283,30.708477],[76.844182,30.708294],[76.844148,30.708234],[76.844132,30.708204],[76.844124,30.708195],[76.844031,30.708096],[76.844029,30.708094],[76.843924,30.707982],[76.843745,30.70788],[76.843456,30.707817],[76.843122,30.707808],[76.843035,30.707773],[76.84299,30.707755],[76.842938,30.707734],[76.842937,30.707733],[76.84289,30.707695],[76.842684,30.70753],[76.84251,30.707454],[76.84244,30.707424],[76.842383,30.707399],[76.842051,30.707214],[76.841926,30.707164],[76.841693,30.70707],[76.841339,30.706845],[76.841029,30.706654],[76.840579,30.706378],[76.840371,30.706315],[76.840295,30.706292],[76.839893,30.706231],[76.839888,30.70623],[76.839887,30.70623],[76.839883,30.706229],[76.839869,30.706224],[76.839703,30.706165],[76.839623,30.706145],[76.839414,30.706092],[76.839084,30.706002],[76.839074,30.706],[76.839005,30.705981],[76.838927,30.705955],[76.8387,30.705881],[76.83841,30.705705],[76.838311,30.705647],[76.838199,30.705582],[76.837898,30.705339],[76.837886,30.705329],[76.837885,30.705328],[76.837621,30.705062],[76.837608,30.705048],[76.837604,30.705044],[76.837447,30.70489],[76.837419,30.704862],[76.837333,30.704778],[76.837141,30.704617],[76.837078,30.704565],[76.837049,30.704548],[76.836857,30.704436],[76.836724,30.704358],[76.836365,30.704101],[76.836033,30.70391],[76.835856,30.703809],[76.835745,30.703745],[76.835737,30.70374],[76.835727,30.703732],[76.835552,30.703582],[76.835551,30.70358],[76.835453,30.703365],[76.835435,30.703214],[76.835422,30.7031],[76.835389,30.702949],[76.83537,30.702861],[76.835373,30.70283],[76.835383,30.702712],[76.835487,30.702525],[76.835509,30.702485],[76.835535,30.702334],[76.835537,30.702318],[76.835517,30.702229],[76.835516,30.702225],[76.835446,30.701917],[76.835361,30.701734],[76.835284,30.701568],[76.835278,30.701555],[76.835274,30.701551],[76.834885,30.701222],[76.834596,30.701019],[76.834488,30.700943],[76.834167,30.700775],[76.833924,30.700649],[76.833924,30.700649],[76.833755,30.700486],[76.833742,30.700474],[76.833721,30.700454],[76.833658,30.700394],[76.833638,30.700374],[76.833637,30.700373],[76.833597,30.700282],[76.833524,30.700114],[76.833473,30.699997],[76.83328,30.69972],[76.832763,30.69904],[76.832735,30.699003],[76.832734,30.699001],[76.832727,30.698995],[76.832635,30.698918],[76.832267,30.698606],[76.831541,30.697861],[76.831438,30.697755],[76.831322,30.697636],[76.831298,30.697612],[76.831273,30.697585],[76.831265,30.697577],[76.831147,30.697456],[76.831102,30.69741],[76.830502,30.696683],[76.829955,30.696021],[76.829942,30.696005],[76.829552,30.695545],[76.829433,30.695404],[76.829232,30.695167],[76.829222,30.695159],[76.829215,30.695153],[76.829069,30.695035],[76.828947,30.694936],[76.828753,30.694779],[76.828596,30.694653],[76.828946,30.694361],[76.828951,30.694358],[76.82928,30.694084],[76.82959,30.693874],[76.830099,30.693528],[76.830216,30.693449],[76.830218,30.693448],[76.830093,30.693355],[76.829906,30.693215],[76.82972,30.693076],[76.829368,30.692905],[76.829347,30.692895],[76.829294,30.69287],[76.828995,30.692725],[76.828958,30.692707],[76.828788,30.692625],[76.828753,30.692604],[76.828581,30.692503],[76.828318,30.692347],[76.828215,30.692309],[76.827991,30.692227],[76.827977,30.692222],[76.827811,30.69216],[76.827598,30.692082],[76.827384,30.691969],[76.827382,30.691968],[76.827359,30.691908],[76.827275,30.691692],[76.827212,30.691528],[76.827202,30.691376],[76.827183,30.691087],[76.827305,30.690663],[76.827378,30.690407],[76.827443,30.69024],[76.827527,30.690022],[76.827538,30.689994],[76.827541,30.689957],[76.827543,30.689939],[76.827555,30.689796],[76.827516,30.689741],[76.827479,30.689688],[76.827477,30.689686],[76.827432,30.689622],[76.827334,30.689546],[76.827305,30.689523],[76.827286,30.689508],[76.827107,30.689368],[76.82699,30.689276],[76.826912,30.689216],[76.82687,30.689183],[76.82687,30.689183],[76.826822,30.689145],[76.826638,30.689],[76.826325,30.688754],[76.826324,30.688753],[76.8257,30.688581],[76.825158,30.688248],[76.825156,30.688246],[76.825284,30.688084],[76.82544,30.687888],[76.825455,30.687868],[76.825554,30.687744],[76.825702,30.687557],[76.826212,30.68668],[76.826213,30.68668],[76.826657,30.686991],[76.826657,30.686992],[76.82708,30.687288],[76.82759,30.687646],[76.827624,30.68767],[76.827672,30.687622],[76.828061,30.687221],[76.828259,30.687016],[76.828383,30.68685],[76.828885,30.686173],[76.829177,30.685844],[76.829349,30.685741],[76.829631,30.685572],[76.829883,30.685379],[76.829969,30.685314],[76.830017,30.685277],[76.830031,30.685264],[76.830164,30.685142],[76.830458,30.68487],[76.83082,30.684497],[76.83115,30.684156],[76.831262,30.684042],[76.831345,30.683933],[76.831492,30.683743],[76.83159,30.683617],[76.831888,30.68323],[76.831693,30.683127],[76.831646,30.683102],[76.831598,30.683076],[76.831395,30.68298],[76.830616,30.68261],[76.830207,30.682416],[76.829966,30.682301],[76.830138,30.682019],[76.829797,30.681864],[76.829675,30.681809],[76.829599,30.681916],[76.829493,30.682066],[76.829481,30.682082],[76.829218,30.681955],[76.829218,30.681955],[76.829568,30.681357],[76.829577,30.681341],[76.829572,30.681337],[76.829554,30.68132],[76.829424,30.6812],[76.829317,30.6811],[76.82916,30.680955],[76.829136,30.680932],[76.82878,30.680884],[76.828597,30.680859],[76.828582,30.680876],[76.828326,30.68116],[76.827447,30.682134],[76.82737,30.68208],[76.82722,30.681977],[76.827214,30.681972],[76.826716,30.681629],[76.825422,30.680734],[76.82542,30.680733],[76.824216,30.679901],[76.824095,30.679817],[76.822876,30.678975],[76.822604,30.678787],[76.821987,30.678444],[76.821049,30.677681],[76.821,30.677574],[76.82103,30.676741],[76.821045,30.67636],[76.820955,30.675901],[76.820923,30.675739],[76.820923,30.674891],[76.82084,30.674851],[76.819765,30.674343],[76.819122,30.673971],[76.818838,30.673806],[76.817979,30.673308],[76.817971,30.673304],[76.817824,30.673246],[76.817761,30.673221],[76.817371,30.673123],[76.817051,30.673042],[76.817032,30.673037],[76.816905,30.672958],[76.816881,30.672864],[76.816721,30.67224],[76.816651,30.671969],[76.816632,30.671894],[76.816554,30.671593],[76.8165,30.67138],[76.81627,30.671301],[76.815888,30.671169],[76.815672,30.671094],[76.815661,30.67109],[76.815082,30.67089],[76.814846,30.670815],[76.814084,30.67057],[76.813748,30.670462],[76.813201,30.670204],[76.813167,30.670252],[76.813159,30.670263],[76.812965,30.670536],[76.812932,30.670583],[76.81288,30.670655],[76.812764,30.670597],[76.811985,30.670207],[76.811669,30.670045],[76.811397,30.66976],[76.811081,30.669491],[76.810975,30.669401],[76.810777,30.669232],[76.810732,30.669181],[76.810553,30.668975],[76.810443,30.668849],[76.810416,30.668818],[76.810361,30.668755],[76.809871,30.668432],[76.809752,30.668353],[76.809584,30.668242],[76.809452,30.668118],[76.809409,30.668083],[76.8093,30.667994],[76.809245,30.667949],[76.809186,30.667872],[76.808946,30.667556],[76.808917,30.667518],[76.808764,30.667316],[76.808617,30.667334],[76.808436,30.667356],[76.808187,30.667369],[76.808071,30.667375],[76.808047,30.667367],[76.80804,30.667365],[76.807891,30.667316],[76.807845,30.667301],[76.807713,30.667196],[76.807463,30.666995],[76.807322,30.66697],[76.807233,30.666989],[76.807181,30.667],[76.807145,30.667008],[76.807026,30.667033],[76.806693,30.667128],[76.806263,30.667251],[76.806059,30.667254],[76.806057,30.667254],[76.805808,30.667208],[76.804953,30.666724],[76.804607,30.666529],[76.804554,30.666498],[76.804516,30.666477],[76.8045,30.666473],[76.80412,30.666385],[76.804023,30.666362],[76.803888,30.666376],[76.803716,30.666393],[76.803554,30.666481],[76.803494,30.666514],[76.803414,30.66646],[76.803297,30.66638],[76.803267,30.666359],[76.803183,30.666432],[76.803156,30.666455],[76.803036,30.666558],[76.802989,30.666598],[76.802964,30.66662],[76.802933,30.666621],[76.802927,30.666621],[76.80287,30.666622],[76.80286,30.666615],[76.802839,30.6666],[76.80282,30.666587],[76.802711,30.666511],[76.8026,30.666492],[76.802591,30.66649],[76.802578,30.6665],[76.802543,30.666528],[76.80248,30.666578],[76.802359,30.666674],[76.802167,30.666983],[76.80221,30.66706],[76.802248,30.667127],[76.802242,30.667133],[76.801896,30.667528],[76.801766,30.667677],[76.801675,30.66778],[76.80155,30.667759],[76.801509,30.667818],[76.801633,30.668068],[76.801693,30.66819],[76.801669,30.668289],[76.801657,30.668307],[76.801059,30.669132],[76.801111,30.669379],[76.80115,30.669564],[76.800958,30.669558],[76.800957,30.669558],[76.800941,30.669558],[76.800935,30.669567],[76.800894,30.669622],[76.800468,30.670205],[76.800463,30.670201],[76.80034,30.670122],[76.800262,30.670073],[76.799466,30.669436],[76.799342,30.669336],[76.798451,30.668623],[76.797824,30.668115],[76.79775,30.668055],[76.797629,30.667957],[76.797522,30.66787],[76.797517,30.667867],[76.797465,30.667824],[76.797192,30.667607],[76.797068,30.667509],[76.797057,30.667501],[76.797032,30.66749],[76.797004,30.667477],[76.79691,30.667435],[76.7968,30.667482],[76.796797,30.667483],[76.796724,30.667514],[76.796567,30.667619],[76.796523,30.667648],[76.796478,30.667681],[76.796432,30.667715],[76.796136,30.667936],[76.795869,30.668135],[76.795148,30.668722],[76.794985,30.668856],[76.794802,30.669034],[76.794801,30.669034],[76.794564,30.669266],[76.794411,30.669414],[76.794375,30.669449],[76.794313,30.66951],[76.794278,30.669601],[76.794209,30.669782],[76.794179,30.669838],[76.793923,30.670328],[76.793871,30.670427],[76.793812,30.6705],[76.793417,30.670984],[76.792947,30.671535],[76.792779,30.671732],[76.792763,30.671751],[76.792163,30.672318],[76.792107,30.672377],[76.792106,30.672378],[76.791756,30.672745],[76.791523,30.67299],[76.7914,30.673398],[76.791378,30.67347],[76.791303,30.673722],[76.791201,30.674059],[76.7911,30.674394],[76.791024,30.674524],[76.790908,30.674722],[76.790861,30.674764],[76.790856,30.674769],[76.79062,30.674983],[76.790554,30.675042],[76.79047,30.675164],[76.790421,30.675236],[76.790295,30.67542],[76.790208,30.675527],[76.790172,30.675571],[76.790102,30.675579],[76.789948,30.675596],[76.789913,30.675593],[76.78961,30.675566],[76.789598,30.675565],[76.788977,30.675294],[76.788185,30.675066],[76.787252,30.674835],[76.786972,30.67482],[76.786946,30.674819],[76.786787,30.67481],[76.786685,30.674804],[76.786274,30.67478],[76.786217,30.674777],[76.786153,30.674763],[76.786068,30.674745],[76.785875,30.674704],[76.785845,30.674697],[76.785697,30.674666],[76.785694,30.674665],[76.785683,30.674663],[76.785172,30.674381],[76.784872,30.674209],[76.784866,30.674205],[76.784842,30.674207],[76.784656,30.674223],[76.784472,30.674239],[76.783963,30.674284],[76.783699,30.674307],[76.783694,30.674306],[76.783488,30.674258],[76.783169,30.674183],[76.782323,30.673879],[76.782273,30.673855],[76.781967,30.673712],[76.78195,30.673704],[76.781946,30.673713],[76.781912,30.673804],[76.78189,30.673862],[76.781882,30.673873],[76.781727,30.674077],[76.781497,30.67424],[76.781449,30.674274],[76.781353,30.674208],[76.780957,30.673934],[76.780879,30.673857],[76.780854,30.673832],[76.780798,30.673777],[76.780739,30.67372],[76.780717,30.673696],[76.780577,30.673545],[76.7805,30.673462],[76.780545,30.67343],[76.780732,30.673296],[76.780666,30.673255],[76.780056,30.672868],[76.779962,30.672778],[76.77988,30.672699],[76.77981,30.672683],[76.779728,30.672665],[76.779701,30.672649],[76.779591,30.672586],[76.779581,30.672562],[76.779559,30.672509],[76.779594,30.67245],[76.77962,30.672429],[76.779836,30.672253],[76.779838,30.672242],[76.779854,30.672147],[76.779855,30.672145],[76.779854,30.672144],[76.779802,30.672096],[76.779634,30.67208],[76.779608,30.672058],[76.77961,30.671973],[76.779614,30.67185],[76.7796,30.67183],[76.779546,30.671754],[76.779467,30.671642],[76.779389,30.671533],[76.778986,30.671187],[76.778651,30.671106],[76.777625,30.670659],[76.777704,30.670532],[76.777732,30.670487],[76.777675,30.670471],[76.777172,30.670328],[76.777123,30.670314],[76.777061,30.670323],[76.776941,30.67034],[76.776873,30.670349],[76.776751,30.670575],[76.776664,30.670734],[76.776535,30.670972],[76.776263,30.671049],[76.7762,30.671066],[76.776198,30.671067],[76.775964,30.671655],[76.775963,30.671657],[76.775962,30.671657],[76.775384,30.67181],[76.775258,30.671844],[76.775013,30.671909],[76.774711,30.672003],[76.77464,30.672025],[76.774395,30.672102],[76.774372,30.67222],[76.774337,30.672395],[76.774252,30.672826],[76.774155,30.672994],[76.774146,30.673011],[76.773782,30.673644],[76.773337,30.674435],[76.773202,30.674673],[76.773039,30.674962],[76.772958,30.675073],[76.772931,30.675111],[76.77285,30.675222],[76.772531,30.675456],[76.772221,30.675632],[76.772067,30.675758],[76.772046,30.675774],[76.772008,30.675834],[76.771843,30.676093],[76.771791,30.676161],[76.771721,30.676252],[76.771826,30.676303],[76.771847,30.676314],[76.771881,30.676339],[76.771918,30.676366],[76.772032,30.676451],[76.772034,30.67655],[76.772013,30.676589],[76.772007,30.676601],[76.771969,30.676673],[76.771799,30.676824],[76.771599,30.676989],[76.771488,30.677194],[76.771411,30.677391],[76.771293,30.677693],[76.771263,30.677729],[76.77082,30.677989],[76.770541,30.678153],[76.77054,30.678154],[76.770539,30.678156],[76.770519,30.678232],[76.770491,30.67834],[76.770566,30.678735],[76.770528,30.67893],[76.770335,30.679244],[76.770333,30.679424],[76.770298,30.679515],[76.770179,30.679823],[76.769964,30.680043],[76.769906,30.680094],[76.769409,30.680542],[76.768725,30.681093],[76.767988,30.681704],[76.76793,30.681752],[76.767888,30.681787],[76.767667,30.68197],[76.767621,30.682008],[76.76727,30.682299],[76.767264,30.682311],[76.76723,30.682385],[76.766744,30.682924],[76.766503,30.683274],[76.765788,30.684311],[76.765773,30.684333],[76.765752,30.684363],[76.765712,30.684422],[76.765618,30.684583],[76.765267,30.685192],[76.765231,30.685254],[76.765043,30.685513],[76.76492,30.685682],[76.764572,30.686034],[76.764337,30.686331],[76.764312,30.686363],[76.764119,30.686244],[76.764056,30.686205],[76.764032,30.686191],[76.763996,30.686223],[76.763913,30.686297],[76.763792,30.686406],[76.763552,30.686623],[76.763549,30.686626],[76.763385,30.686516],[76.762946,30.686224],[76.762905,30.686197],[76.762826,30.68618],[76.76278,30.686221],[76.762725,30.686274],[76.762605,30.686389],[76.76259,30.686404],[76.76239,30.686587],[76.762379,30.686591],[76.762354,30.686599],[76.76225,30.686634],[76.762088,30.686627],[76.762035,30.686615],[76.762028,30.686613],[76.761851,30.68657],[76.761841,30.686568],[76.761374,30.686394],[76.760901,30.686233],[76.760636,30.686167],[76.760607,30.68616],[76.760562,30.686163],[76.760355,30.686174],[76.760263,30.686179],[76.759921,30.686296],[76.7595,30.686475],[76.759427,30.686507],[76.759378,30.686528],[76.75931,30.686557],[76.759283,30.686544],[76.75926,30.686531],[76.759227,30.686512],[76.75918,30.686485],[76.758872,30.686312],[76.758821,30.686284],[76.758767,30.686253],[76.758662,30.686236],[76.757611,30.686166],[76.757487,30.686158],[76.757387,30.686151],[76.757127,30.686133],[76.75687,30.686116],[76.75687,30.685861],[76.75687,30.685855],[76.756813,30.685825],[76.756774,30.685805],[76.756733,30.685784],[76.756566,30.685712],[76.756513,30.685689],[76.756349,30.685618],[76.755855,30.685404],[76.755645,30.685337],[76.755329,30.685237],[76.754983,30.685127],[76.754701,30.685058],[76.754684,30.685054],[76.754285,30.684884],[76.753898,30.684871],[76.753895,30.68487],[76.753656,30.68484],[76.753485,30.684818],[76.753259,30.684726],[76.753259,30.684726],[76.753255,30.684724],[76.752846,30.684534],[76.752759,30.684494],[76.752724,30.684573],[76.752704,30.684616],[76.752614,30.68482],[76.752403,30.685297],[76.752274,30.685618],[76.75215,30.685928],[76.752046,30.686187],[76.752023,30.686245],[76.751709,30.686556],[76.751382,30.68688],[76.751347,30.686926],[76.75099,30.687379],[76.750863,30.687541],[76.750729,30.687711],[76.750289,30.68827],[76.75026,30.688308],[76.75,30.688302],[76.749949,30.688306],[76.749943,30.688302],[76.749931,30.688296],[76.749488,30.688026],[76.748947,30.687698],[76.748857,30.687647],[76.748818,30.687604],[76.748816,30.687602],[76.748809,30.687601],[76.748633,30.68757],[76.74844,30.687505],[76.748367,30.68748],[76.748362,30.687481],[76.748132,30.68749],[76.747767,30.687544],[76.74774,30.6876],[76.747711,30.68766],[76.747678,30.687729],[76.74771,30.687991],[76.74798,30.688384],[76.747992,30.688401],[76.747975,30.688506],[76.74797,30.688533],[76.747961,30.688589],[76.747952,30.688641],[76.747904,30.688929],[76.747622,30.68956],[76.74751,30.689813],[76.747488,30.689862],[76.747502,30.689874],[76.747801,30.690128],[76.74773,30.690635],[76.747697,30.690863],[76.747662,30.691116],[76.747646,30.691256],[76.747622,30.691465],[76.74761,30.691571],[76.747501,30.692542],[76.747424,30.693232],[76.747405,30.693398],[76.747376,30.693661],[76.747354,30.693852],[76.747342,30.693962],[76.747339,30.693988],[76.74718,30.69542],[76.747171,30.6955],[76.747166,30.695499],[76.747033,30.695453],[76.746892,30.695404],[76.746571,30.695293],[76.746167,30.695055],[76.746058,30.694991],[76.746038,30.694979],[76.746016,30.694966],[76.745769,30.694821],[76.745197,30.694483],[76.74515,30.694456],[76.744925,30.694363],[76.744779,30.694303],[76.744765,30.694297],[76.744575,30.694219],[76.744116,30.694029],[76.74411,30.694027],[76.743744,30.693876],[76.743198,30.69365],[76.743011,30.693596],[76.742594,30.693474],[76.742284,30.693383],[76.741676,30.693205],[76.74149,30.693151],[76.741484,30.69315],[76.741448,30.69314],[76.740129,30.692801],[76.740008,30.692769],[76.739828,30.692792],[76.739319,30.692856],[76.73927,30.694432],[76.739269,30.694479],[76.739241,30.694508],[76.73921,30.69454],[76.739113,30.694642],[76.739086,30.694669],[76.73912,30.694717],[76.739445,30.695179],[76.739496,30.695252],[76.739505,30.695264],[76.739531,30.695801],[76.739568,30.696544],[76.73959,30.696982],[76.739552,30.697256],[76.739518,30.697501],[76.739461,30.697911],[76.739456,30.697947],[76.73952,30.697992],[76.739623,30.698064],[76.73955,30.698177],[76.739512,30.698198],[76.739459,30.698227],[76.739409,30.698254],[76.739366,30.698241],[76.739359,30.698239],[76.739122,30.698169],[76.73912,30.698171],[76.739108,30.698182],[76.738643,30.698656],[76.738599,30.698701],[76.738496,30.698805],[76.738124,30.699427],[76.737897,30.699807],[76.738751,30.700111],[76.738764,30.700116],[76.738948,30.700182],[76.739012,30.700205],[76.739026,30.70021],[76.739359,30.700329],[76.739276,30.70114],[76.739148,30.702381],[76.739135,30.702508],[76.739101,30.70284],[76.73907,30.703147],[76.73906,30.703242],[76.739082,30.703467],[76.739085,30.703498],[76.73909,30.703544],[76.73912,30.703846],[76.739145,30.704095],[76.739511,30.70471],[76.739641,30.704929],[76.739203,30.705599],[76.739114,30.705736],[76.739105,30.70575],[76.739082,30.70575],[76.73756,30.705769],[76.737136,30.70578],[76.736234,30.705804],[76.736119,30.705807],[76.736032,30.705825],[76.735593,30.705915],[76.73517,30.706003],[76.735133,30.70601],[76.735132,30.706011],[76.734785,30.706106],[76.733992,30.706323],[76.7335,30.706458],[76.732972,30.706533],[76.732706,30.70657],[76.731998,30.70667],[76.731501,30.70674],[76.730964,30.706771],[76.73063,30.706791],[76.730583,30.706794],[76.730124,30.706821],[76.730029,30.706827],[76.730029,30.706828],[76.730103,30.707599],[76.730156,30.708148],[76.730112,30.708268],[76.730075,30.70837],[76.730028,30.708497],[76.730023,30.70851],[76.729899,30.708848],[76.729863,30.708946],[76.729754,30.709245],[76.729656,30.70951],[76.729519,30.71006],[76.729466,30.71027],[76.729294,30.71096],[76.729174,30.71144],[76.72909,30.711775],[76.729429,30.711864],[76.730219,30.71207],[76.730637,30.71218],[76.730756,30.712211],[76.731367,30.71258],[76.730176,30.713919],[76.730079,30.714029],[76.730039,30.714075],[76.728553,30.715783],[76.728704,30.715881],[76.728708,30.715884],[76.729329,30.716287],[76.729637,30.716487],[76.729998,30.716722],[76.731116,30.717353],[76.73121,30.717406],[76.731165,30.717568],[76.731164,30.717573],[76.731158,30.717596],[76.731059,30.717956],[76.730966,30.718295],[76.730945,30.718448],[76.73091,30.718834],[76.730894,30.719012],[76.730676,30.720618],[76.730677,30.720622],[76.730765,30.721082],[76.731001,30.721623],[76.731009,30.721783],[76.731049,30.722589],[76.731097,30.723558],[76.731051,30.723603],[76.730808,30.723844],[76.730758,30.723892],[76.73053,30.724118],[76.730508,30.72414],[76.730506,30.724139],[76.730467,30.724112],[76.73004,30.723811],[76.729629,30.723522],[76.729572,30.723482],[76.729571,30.723485],[76.729506,30.72357],[76.729429,30.723672],[76.728891,30.724383],[76.728846,30.724443],[76.728413,30.725015],[76.728244,30.725239],[76.72816,30.725351],[76.728035,30.725496],[76.727221,30.726447],[76.727103,30.726585],[76.726773,30.726971],[76.726345,30.727334],[76.726303,30.727369],[76.726014,30.727614],[76.725995,30.72763],[76.725869,30.727737],[76.72579,30.727804],[76.725756,30.727833],[76.725755,30.727832],[76.725743,30.727821],[76.7255,30.727594],[76.725497,30.727597],[76.725146,30.72801],[76.724843,30.728366],[76.724653,30.728358],[76.724457,30.728349],[76.723715,30.728317],[76.723473,30.728363],[76.723214,30.728412],[76.723077,30.728513],[76.722896,30.728647],[76.722873,30.728664],[76.722522,30.728924],[76.722108,30.729229],[76.721818,30.729484],[76.721762,30.729533],[76.72169,30.729595],[76.721569,30.729702],[76.72145,30.729805],[76.721268,30.729965],[76.721075,30.730226],[76.720689,30.730746],[76.720643,30.730817],[76.720549,30.730962],[76.720497,30.731017],[76.720316,30.731206],[76.720288,30.731236],[76.720129,30.731403],[76.718968,30.732623],[76.718513,30.733219],[76.718499,30.733237],[76.718486,30.733253],[76.717753,30.734167],[76.717571,30.734514],[76.71749,30.734754],[76.717314,30.735093],[76.717193,30.735325],[76.71699,30.735716],[76.716951,30.735791],[76.716933,30.735826],[76.716847,30.735997],[76.716487,30.736346],[76.716388,30.736442],[76.716362,30.736468],[76.715797,30.737123],[76.71572,30.737212],[76.71568,30.737288],[76.715659,30.737327],[76.715634,30.737373],[76.715428,30.737756],[76.715345,30.737912],[76.715309,30.737996],[76.715257,30.73812],[76.714819,30.739161],[76.714491,30.739842],[76.714365,30.740104],[76.714237,30.740698],[76.714189,30.740925],[76.714185,30.740923],[76.713916,30.740792],[76.713648,30.74066],[76.713429,30.740554],[76.713412,30.740545],[76.713295,30.740488],[76.713294,30.740491],[76.712891,30.741152],[76.712836,30.741242],[76.712832,30.741241],[76.712617,30.74118],[76.712581,30.74117],[76.712455,30.741134],[76.711729,30.740927],[76.711434,30.740852],[76.711184,30.74079],[76.710711,30.74067],[76.710469,30.740584],[76.710283,30.740518],[76.710024,30.740426],[76.709957,30.740402],[76.709955,30.740402],[76.709546,30.740256],[76.708302,30.739735],[76.708204,30.739693],[76.708053,30.739645],[76.707869,30.739585],[76.707521,30.739472],[76.707467,30.739455],[76.707467,30.739456],[76.707442,30.739516],[76.707421,30.739568],[76.707164,30.739905],[76.707058,30.740044],[76.706955,30.740179],[76.706748,30.740452],[76.706508,30.740853],[76.706306,30.741191],[76.70608,30.741569],[76.706038,30.74164],[76.70594,30.741803],[76.705814,30.742013],[76.705483,30.742489],[76.70541,30.742595],[76.705217,30.742871],[76.705183,30.74292],[76.705192,30.742929],[76.705336,30.743073],[76.705664,30.743402],[76.706051,30.743812],[76.706406,30.744187],[76.706427,30.744209],[76.706466,30.744287],[76.706506,30.744369],[76.706642,30.744646],[76.706647,30.744688],[76.706662,30.744794],[76.706673,30.744867],[76.706705,30.745097],[76.706612,30.745323],[76.706225,30.746266],[76.706167,30.746431],[76.706119,30.746565],[76.706073,30.746694],[76.706012,30.746864],[76.705902,30.747172],[76.705902,30.747201],[76.705902,30.747397],[76.705902,30.747398],[76.705904,30.747399],[76.706064,30.747497],[76.706393,30.747595],[76.707128,30.747814],[76.707151,30.747821],[76.707153,30.747824],[76.707583,30.748394],[76.707656,30.748491],[76.707666,30.748504],[76.707715,30.748569],[76.70768,30.749126],[76.707676,30.749196],[76.707675,30.749213],[76.707669,30.749304],[76.707669,30.749399],[76.707669,30.749412],[76.707669,30.749456],[76.707669,30.749471],[76.707683,30.749485],[76.707746,30.749545],[76.707748,30.749547],[76.707937,30.749727],[76.707923,30.749853],[76.707906,30.75],[76.707876,30.750177],[76.707759,30.750861],[76.707707,30.75088],[76.707643,30.750904],[76.707517,30.751611],[76.707495,30.751733],[76.707264,30.752348],[76.707251,30.752499],[76.707183,30.753274],[76.707099,30.753671],[76.707068,30.753818],[76.706965,30.753944],[76.706901,30.754024],[76.706836,30.754103],[76.706457,30.754389],[76.706348,30.754462],[76.706331,30.754473],[76.706238,30.754536],[76.70587,30.754782],[76.705852,30.754794],[76.705721,30.754882],[76.705636,30.754938],[76.705362,30.755121],[76.705247,30.755336],[76.705231,30.755607],[76.705247,30.755676],[76.70529,30.755853],[76.705322,30.75599],[76.70533,30.756022],[76.705349,30.756051],[76.705455,30.756213],[76.705508,30.756293],[76.705544,30.756347],[76.705611,30.75645],[76.705704,30.756518],[76.705942,30.756693],[76.705983,30.756723],[76.706003,30.756738],[76.706306,30.756963],[76.70633,30.75698],[76.706405,30.757036],[76.706471,30.757083],[76.70696,30.757441],[76.70705,30.757507],[76.707409,30.757834],[76.707927,30.758307],[76.707932,30.75831],[76.707979,30.758344],[76.708087,30.75842],[76.708322,30.758588],[76.70834,30.758601],[76.709151,30.759177],[76.710329,30.759905],[76.710199,30.760233],[76.710182,30.760275],[76.710131,30.760405],[76.710161,30.760432],[76.710202,30.76047],[76.710759,30.760976],[76.711785,30.761619],[76.711898,30.761663],[76.71198,30.761695],[76.712014,30.761708],[76.712479,30.76189],[76.713394,30.761971],[76.713603,30.761989],[76.713605,30.761999],[76.71362,30.76206],[76.713752,30.762246],[76.713868,30.762418],[76.713869,30.762428],[76.713918,30.763089],[76.713933,30.763089],[76.71481,30.763067],[76.715092,30.76306],[76.715123,30.762924],[76.715125,30.762914],[76.715153,30.762795],[76.715158,30.762774],[76.715185,30.762784],[76.715231,30.762801],[76.715553,30.76292],[76.715736,30.762988],[76.715783,30.762747],[76.715786,30.762731],[76.716349,30.762988],[76.716839,30.763257],[76.71685,30.763263],[76.717077,30.763387],[76.717347,30.763487],[76.718417,30.763883],[76.718466,30.763901],[76.718514,30.763877],[76.718824,30.763725],[76.718846,30.763715],[76.718893,30.763677],[76.719214,30.763421],[76.719259,30.763386],[76.719306,30.763342],[76.719374,30.763279],[76.719506,30.763157],[76.720014,30.763398],[76.720168,30.763471],[76.720243,30.763375],[76.720338,30.763253],[76.720412,30.76316],[76.720449,30.763113],[76.720697,30.763156],[76.720945,30.763284],[76.721226,30.763465],[76.721284,30.763502],[76.721391,30.76357],[76.721247,30.76384],[76.721177,30.763971],[76.721078,30.764156],[76.721168,30.76419],[76.72123,30.764214],[76.721904,30.76447],[76.722214,30.764688],[76.722237,30.764704],[76.722327,30.764768],[76.722409,30.764826],[76.722468,30.764868],[76.722748,30.765065],[76.722814,30.765112],[76.722931,30.765168],[76.724782,30.766055],[76.725016,30.766168],[76.725609,30.766397],[76.725678,30.766424],[76.725923,30.766116],[76.726041,30.765967],[76.726431,30.766051],[76.726636,30.766095],[76.726648,30.765954],[76.72666,30.765799],[76.7267,30.765312],[76.726704,30.765266],[76.726842,30.765222],[76.726973,30.765181],[76.727304,30.765076],[76.727382,30.765051],[76.727685,30.764934],[76.72791,30.764847],[76.727925,30.764841],[76.728009,30.764808],[76.728584,30.764677],[76.728703,30.76465],[76.729245,30.76465],[76.729666,30.764649],[76.730018,30.764649],[76.730191,30.764649],[76.730241,30.764659],[76.731126,30.76484],[76.731281,30.764872],[76.731349,30.764886],[76.731506,30.764928],[76.73173,30.765048],[76.731787,30.765078],[76.731814,30.765095],[76.731818,30.765097],[76.731855,30.76512],[76.731897,30.765146],[76.731927,30.765165],[76.732106,30.765276],[76.732375,30.765442],[76.732417,30.765464],[76.7328,30.765661],[76.732887,30.765706],[76.733229,30.765859],[76.733407,30.765938],[76.73388,30.766148],[76.73421,30.766298],[76.734462,30.76637],[76.734961,30.766512],[76.735084,30.766547],[76.735112,30.766553],[76.735369,30.766612],[76.735675,30.766683],[76.735684,30.766685],[76.735783,30.766708],[76.735886,30.766732],[76.735968,30.766777],[76.735971,30.766778],[76.736159,30.766882],[76.736244,30.767029],[76.736266,30.767067],[76.73632,30.767093],[76.736738,30.767288],[76.737194,30.76748],[76.737377,30.767556],[76.737839,30.767714],[76.738047,30.767784],[76.738165,30.767846],[76.738271,30.767901],[76.738295,30.767913],[76.738299,30.767909],[76.738377,30.767845],[76.738443,30.767791],[76.738488,30.767813],[76.738506,30.767822],[76.738733,30.767935],[76.73878,30.767958],[76.73889,30.768012],[76.739156,30.768121],[76.739221,30.768148],[76.739634,30.768269],[76.739675,30.768286],[76.739715,30.768303],[76.7398,30.768338],[76.739896,30.768401],[76.740097,30.768531],[76.740219,30.768636],[76.74031,30.768714],[76.740371,30.768767],[76.740407,30.768783],[76.740549,30.768846],[76.740594,30.768866],[76.740784,30.768888],[76.74102,30.76882],[76.741077,30.768803],[76.741106,30.768795],[76.741138,30.768797],[76.741418,30.768814],[76.741445,30.768816],[76.741453,30.768819],[76.741568,30.768859],[76.741685,30.768901],[76.742097,30.769106],[76.742403,30.769259],[76.742527,30.769293],[76.742902,30.769398],[76.74299,30.769422],[76.743084,30.769476],[76.743093,30.769481],[76.743147,30.769511],[76.743245,30.769566],[76.743499,30.769709],[76.743674,30.769808],[76.743725,30.769836],[76.74375,30.76985],[76.74375,30.769901],[76.743745,30.770438],[76.743744,30.770539],[76.743744,30.770551],[76.743739,30.771042],[76.743739,30.771058],[76.743737,30.771307],[76.743736,30.771415],[76.743852,30.771464],[76.743924,30.771495],[76.744086,30.771563],[76.744134,30.771584],[76.744299,30.771648],[76.744459,30.77171],[76.744595,30.771763],[76.744629,30.771776],[76.74463,30.771776],[76.744739,30.771819],[76.744791,30.771839],[76.744887,30.771876],[76.744925,30.771901],[76.745028,30.771966],[76.745499,30.772268],[76.745435,30.772469],[76.745394,30.772599],[76.745391,30.772609],[76.745388,30.772618],[76.745227,30.773126],[76.745173,30.773224],[76.745172,30.773227],[76.745081,30.773394],[76.745079,30.773398],[76.744941,30.77365],[76.744974,30.773743],[76.744994,30.773757],[76.744998,30.77376],[76.745036,30.773787],[76.745074,30.773815],[76.745098,30.773832],[76.745083,30.773925],[76.745062,30.774049],[76.745056,30.774082],[76.745055,30.774088],[76.745042,30.774167],[76.745036,30.774199],[76.745025,30.774268],[76.74497,30.77431],[76.744886,30.774373],[76.744818,30.774425],[76.744793,30.774447],[76.744582,30.774628],[76.744571,30.774637],[76.744564,30.774667],[76.744511,30.774892],[76.744507,30.774908],[76.744493,30.774969],[76.744491,30.774976],[76.744456,30.775123],[76.744403,30.775124],[76.743721,30.775131],[76.74369,30.775189],[76.743561,30.775436],[76.743308,30.775917],[76.743402,30.775959],[76.743664,30.776078],[76.743683,30.776087],[76.74397,30.776217],[76.744052,30.776261],[76.744512,30.776507],[76.74453,30.776517],[76.745179,30.776864],[76.74521,30.77687],[76.745381,30.776904],[76.745394,30.776907],[76.745576,30.776828],[76.74559,30.776822],[76.745675,30.776785],[76.745771,30.776826],[76.745807,30.776842],[76.746031,30.776918],[76.746163,30.776963],[76.74646,30.777034],[76.746611,30.777133],[76.746644,30.777154],[76.74665,30.777159],[76.746667,30.77717],[76.746929,30.77736],[76.746934,30.777363],[76.747031,30.777434],[76.747042,30.777455],[76.747063,30.777498],[76.747092,30.777557],[76.747121,30.777616],[76.747145,30.777664],[76.747147,30.777668],[76.747156,30.777687],[76.747172,30.77772],[76.747184,30.777727],[76.747396,30.777869],[76.747791,30.778143],[76.747897,30.778217],[76.748066,30.778333],[76.74868,30.778437],[76.74908,30.778505],[76.749415,30.778562],[76.749446,30.778568],[76.749761,30.778621],[76.749802,30.778628],[76.75,30.778662],[76.750058,30.778721],[76.750287,30.778954],[76.750462,30.779157],[76.750478,30.779175],[76.750532,30.779238],[76.750541,30.779247],[76.750581,30.779286],[76.750598,30.779302],[76.750609,30.779313],[76.750641,30.779343],[76.750681,30.779382],[76.750703,30.779404],[76.750775,30.779474],[76.750929,30.779622],[76.751117,30.779749],[76.751222,30.779787],[76.751237,30.779793],[76.751325,30.779826],[76.751597,30.779948],[76.751868,30.780056],[76.752084,30.780138],[76.752176,30.780174],[76.75229,30.780229],[76.752325,30.780246],[76.752343,30.780255],[76.752406,30.78049],[76.752287,30.780801],[76.75227,30.780846],[76.752264,30.781261],[76.752581,30.781335],[76.752629,30.781347],[76.752585,30.781427],[76.752442,30.781686],[76.752435,30.781698],[76.752268,30.782],[76.752268,30.782],[76.752268,30.782],[76.752411,30.782099],[76.752524,30.782176],[76.752522,30.78218],[76.7525,30.782227],[76.752456,30.78232],[76.752454,30.782326],[76.752388,30.782466],[76.752386,30.78247],[76.752372,30.782498],[76.752361,30.782524],[76.752328,30.782592],[76.752299,30.782653],[76.752298,30.782656],[76.752172,30.782925],[76.752157,30.782956],[76.752159,30.782957],[76.752247,30.783007],[76.752249,30.783008],[76.75237,30.783076],[76.75239,30.783088],[76.752413,30.783101],[76.752409,30.783107],[76.752402,30.783119],[76.7524,30.783122],[76.752375,30.783163],[76.752297,30.783291],[76.752294,30.783297],[76.752286,30.783309],[76.752208,30.783438],[76.752052,30.783696],[76.751824,30.784057],[76.75181,30.784079],[76.751711,30.784237],[76.751712,30.784237],[76.752181,30.784521],[76.752653,30.784691],[76.753354,30.784943],[76.753654,30.78505],[76.753947,30.785193],[76.753949,30.785194],[76.754236,30.785334],[76.754364,30.785396],[76.75439,30.785409],[76.754466,30.785446],[76.754467,30.785446],[76.75461,30.785516],[76.75511,30.78576],[76.756232,30.786341],[76.756314,30.786383],[76.756381,30.786418],[76.756541,30.786501],[76.756681,30.786568],[76.756694,30.786575],[76.757195,30.786817],[76.757205,30.786821],[76.757261,30.786849],[76.757402,30.786954],[76.757426,30.786972],[76.75743,30.786975],[76.757647,30.787137],[76.757653,30.787142],[76.757919,30.787342],[76.758031,30.787426],[76.758114,30.787487],[76.758125,30.787495],[76.758485,30.787765],[76.758494,30.787772],[76.758718,30.78794],[76.758738,30.787955],[76.759004,30.788079],[76.759239,30.78819],[76.759191,30.788302],[76.759157,30.788381],[76.759146,30.788407],[76.759041,30.788652],[76.759013,30.788717],[76.758972,30.788812],[76.758972,30.788983],[76.759147,30.789107],[76.759202,30.789146],[76.759494,30.789313],[76.759671,30.789475],[76.759776,30.789543],[76.759917,30.789634],[76.760225,30.789774],[76.760548,30.790036],[76.760601,30.790111],[76.760658,30.790193],[76.76084,30.790861],[76.760885,30.790895],[76.761169,30.791105],[76.761489,30.791316],[76.761717,30.791466],[76.762764,30.791872],[76.762797,30.791885],[76.762965,30.79195],[76.76319,30.792041],[76.76385,30.792306],[76.764458,30.792551],[76.76458,30.792619],[76.765222,30.792975],[76.76545,30.793102],[76.765946,30.793373],[76.766482,30.793648],[76.766588,30.793703],[76.766757,30.793806],[76.767445,30.794227],[76.767556,30.79427],[76.767789,30.794362],[76.767802,30.79435],[76.767826,30.794326],[76.768234,30.793921],[76.768355,30.793946],[76.768473,30.793971],[76.768698,30.794019],[76.768942,30.794071],[76.76918,30.794121],[76.769195,30.794125],[76.769493,30.794188],[76.769491,30.794192],[76.769468,30.794246],[76.769451,30.794284],[76.769414,30.794373],[76.769488,30.794408],[76.769588,30.794456],[76.769743,30.794531],[76.770176,30.79472],[76.770379,30.794795],[76.770412,30.794807],[76.770529,30.79485],[76.770678,30.794904],[76.77083,30.79496],[76.770941,30.795001],[76.771185,30.79509],[76.771508,30.795209],[76.77173,30.79497],[76.77178,30.794916],[76.772335,30.79414]]]}}]}