{
"type": "FeatureCollection",
"name": "544_VISAKHAPATNAM",
"crs": { "type": "name", "properties": { "name": "urn:ogc:def:crs:OGC:1.3:CRS84" } },
"xy_coordinate_resolution": 1e-05,
"features": [
{ "type": "Feature", "properties": { "OBJECTID": 567, "state_lgd": "28", "state_name": "ANDHRA PRADESH", "district_lgd": "544", "district_name": "VISAKHAPATNAM", "district_name_source": "district_table", "subdistrict_lgd": "4863", "subdistrict_name": "ANANDAPURAM", "subdistrict_type": "Mandal", "name_corrupted": false, "remarks": "", "label_lon": 83.308555175073309, "label_lat": 17.888312535737935 }, "geometry": { "type": "Polygon", "coordinates": [ [ [ 83.32928, 17.97079 ], [ 83.33164, 17.97001 ], [ 83.33314, 17.97131 ], [ 83.33439, 17.97133 ], [ 83.33597, 17.9693 ], [ 83.33848, 17.96902 ], [ 83.33837, 17.96748 ], [ 83.34318, 17.96661 ], [ 83.34432, 17.9676 ], [ 83.35042, 17.96523 ], [ 83.34965, 17.96128 ], [ 83.34991, 17.95784 ], [ 83.35059, 17.95756 ], [ 83.34994, 17.95672 ], [ 83.35037, 17.95425 ], [ 83.34632, 17.95496 ], [ 83.344, 17.95082 ], [ 83.34754, 17.95134 ], [ 83.34646, 17.94936 ], [ 83.34859, 17.95034 ], [ 83.34896, 17.94986 ], [ 83.35051, 17.94722 ], [ 83.35002, 17.94238 ], [ 83.36098, 17.93906 ], [ 83.36644, 17.94087 ], [ 83.37199, 17.9452 ], [ 83.37307, 17.94153 ], [ 83.37301, 17.93564 ], [ 83.37223, 17.93314 ], [ 83.3709, 17.93276 ], [ 83.37005, 17.9293 ], [ 83.37243, 17.9276 ], [ 83.3716, 17.92675 ], [ 83.37231, 17.92422 ], [ 83.37546, 17.92302 ], [ 83.38434, 17.9231 ], [ 83.38472, 17.92643 ], [ 83.38586, 17.92704 ], [ 83.3878, 17.92636 ], [ 83.38811, 17.9242 ], [ 83.38918, 17.92426 ], [ 83.38917, 17.92248 ], [ 83.40247, 17.92035 ], [ 83.40207, 17.91928 ], [ 83.4011, 17.91936 ], [ 83.39922, 17.91346 ], [ 83.40136, 17.90814 ], [ 83.40094, 17.90253 ], [ 83.40137, 17.89688 ], [ 83.40275, 17.89612 ], [ 83.40238, 17.89107 ], [ 83.40399, 17.89099 ], [ 83.4013, 17.88809 ], [ 83.39201, 17.88691 ], [ 83.39016, 17.88543 ], [ 83.38843, 17.86938 ], [ 83.38614, 17.86721 ], [ 83.37768, 17.86794 ], [ 83.37287, 17.86688 ], [ 83.37249, 17.86819 ], [ 83.36823, 17.87021 ], [ 83.3647, 17.86753 ], [ 83.36414, 17.86617 ], [ 83.35317, 17.86411 ], [ 83.34814, 17.86203 ], [ 83.33826, 17.85546 ], [ 83.33392, 17.85119 ], [ 83.32969, 17.85452 ], [ 83.32565, 17.85584 ], [ 83.32069, 17.85226 ], [ 83.31698, 17.85243 ], [ 83.31309, 17.85034 ], [ 83.31051, 17.84732 ], [ 83.30602, 17.83709 ], [ 83.30597, 17.83352 ], [ 83.30736, 17.82977 ], [ 83.30579, 17.82693 ], [ 83.30632, 17.82324 ], [ 83.31078, 17.81835 ], [ 83.30616, 17.80881 ], [ 83.29904, 17.80033 ], [ 83.29727, 17.79572 ], [ 83.29854, 17.7945 ], [ 83.28945, 17.79371 ], [ 83.27728, 17.79496 ], [ 83.27051, 17.80218 ], [ 83.26129, 17.80795 ], [ 83.2552, 17.8079 ], [ 83.25629, 17.81434 ], [ 83.25912, 17.82048 ], [ 83.26373, 17.82403 ], [ 83.27106, 17.82288 ], [ 83.26472, 17.82587 ], [ 83.24817, 17.82861 ], [ 83.24503, 17.83056 ], [ 83.23718, 17.82957 ], [ 83.237, 17.83064 ], [ 83.24057, 17.83341 ], [ 83.23915, 17.84274 ], [ 83.23744, 17.84802 ], [ 83.23924, 17.85256 ], [ 83.23878, 17.85431 ], [ 83.23738, 17.85563 ], [ 83.23139, 17.85787 ], [ 83.2311, 17.86264 ], [ 83.23656, 17.87379 ], [ 83.23368, 17.87393 ], [ 83.23252, 17.87566 ], [ 83.23084, 17.87587 ], [ 83.23026, 17.88135 ], [ 83.23171, 17.88594 ], [ 83.23488, 17.89082 ], [ 83.23627, 17.89042 ], [ 83.23722, 17.89853 ], [ 83.23842, 17.89987 ], [ 83.23895, 17.90425 ], [ 83.24852, 17.90871 ], [ 83.25483, 17.91434 ], [ 83.26077, 17.91577 ], [ 83.24662, 17.92868 ], [ 83.25861, 17.93226 ], [ 83.26031, 17.93462 ], [ 83.26541, 17.93513 ], [ 83.26816, 17.93449 ], [ 83.28259, 17.93917 ], [ 83.29288, 17.93858 ], [ 83.29575, 17.94047 ], [ 83.3011, 17.95706 ], [ 83.30376, 17.95718 ], [ 83.30398, 17.95827 ], [ 83.30265, 17.96015 ], [ 83.30533, 17.96645 ], [ 83.30744, 17.96605 ], [ 83.30713, 17.96483 ], [ 83.3116, 17.96559 ], [ 83.31095, 17.96898 ], [ 83.31426, 17.96928 ], [ 83.31564, 17.96866 ], [ 83.31664, 17.97218 ], [ 83.32573, 17.97074 ], [ 83.328, 17.97233 ], [ 83.32928, 17.97079 ] ] ] } },
{ "type": "Feature", "properties": { "OBJECTID": 609, "state_lgd": "28", "state_name": "ANDHRA PRADESH", "district_lgd": "544", "district_name": "VISAKHAPATNAM", "district_name_source": "district_table", "subdistrict_lgd": "4865", "subdistrict_name": "BHIMUNIPATNAM", "subdistrict_type": "Mandal", "name_corrupted": false, "remarks": "", "label_lon": 83.422770871767995, "label_lat": 17.912047578413063 }, "geometry": { "type": "Polygon", "coordinates": [ [ [ 83.4123, 17.95676 ], [ 83.41506, 17.95599 ], [ 83.41502, 17.95287 ], [ 83.41585, 17.95135 ], [ 83.41786, 17.95043 ], [ 83.41881, 17.94721 ], [ 83.42109, 17.94577 ], [ 83.42185, 17.94138 ], [ 83.42879, 17.93976 ], [ 83.42918, 17.9371 ], [ 83.43066, 17.93557 ], [ 83.43412, 17.93637 ], [ 83.44013, 17.93103 ], [ 83.43842, 17.92954 ], [ 83.44126, 17.9263 ], [ 83.44315, 17.92258 ], [ 83.44599, 17.92438 ], [ 83.44715, 17.9233 ], [ 83.45079, 17.92519 ], [ 83.44489, 17.92817 ], [ 83.44616, 17.9383 ], [ 83.44257, 17.94368 ], [ 83.43776, 17.94529 ], [ 83.43725, 17.94716 ], [ 83.44377, 17.9472 ], [ 83.44382, 17.94605 ], [ 83.45074, 17.94522 ], [ 83.45154, 17.96031 ], [ 83.46041, 17.96191 ], [ 83.46258, 17.9646 ], [ 83.46639, 17.96595 ], [ 83.47337, 17.96463 ], [ 83.47382, 17.9613 ], [ 83.47548, 17.96128 ], [ 83.47446, 17.96 ], [ 83.47571, 17.95338 ], [ 83.48263, 17.94878 ], [ 83.49416, 17.95151 ], [ 83.4993, 17.95082 ], [ 83.50076, 17.95259 ], [ 83.50649, 17.95298 ], [ 83.51073, 17.9551 ], [ 83.51383, 17.9525 ], [ 83.51871, 17.95363 ], [ 83.52071, 17.9504 ], [ 83.52503, 17.94728 ], [ 83.52183, 17.94608 ], [ 83.51457, 17.9411 ], [ 83.51293, 17.93908 ], [ 83.51302, 17.93727 ], [ 83.49954, 17.93122 ], [ 83.4891, 17.92499 ], [ 83.46934, 17.91117 ], [ 83.45865, 17.90109 ], [ 83.45532, 17.89634 ], [ 83.45639, 17.89026 ], [ 83.45564, 17.88763 ], [ 83.44753, 17.88025 ], [ 83.44372, 17.87278 ], [ 83.4215, 17.85783 ], [ 83.41678, 17.85261 ], [ 83.41159, 17.84384 ], [ 83.41115, 17.84351 ], [ 83.41077, 17.84448 ], [ 83.40961, 17.8436 ], [ 83.41088, 17.84202 ], [ 83.40707, 17.84094 ], [ 83.4077, 17.83955 ], [ 83.41127, 17.83948 ], [ 83.41231, 17.83592 ], [ 83.41625, 17.83368 ], [ 83.41597, 17.82179 ], [ 83.41145, 17.81371 ], [ 83.41087, 17.80936 ], [ 83.40871, 17.80724 ], [ 83.39147, 17.81652 ], [ 83.38445, 17.82136 ], [ 83.37078, 17.82545 ], [ 83.36396, 17.82923 ], [ 83.36692, 17.8363 ], [ 83.3693, 17.83752 ], [ 83.36538, 17.84382 ], [ 83.3643, 17.84783 ], [ 83.36814, 17.85503 ], [ 83.37287, 17.86688 ], [ 83.37768, 17.86794 ], [ 83.3866, 17.86751 ], [ 83.38843, 17.86938 ], [ 83.39016, 17.88543 ], [ 83.39201, 17.88691 ], [ 83.4013, 17.88809 ], [ 83.40399, 17.89099 ], [ 83.40238, 17.89107 ], [ 83.40275, 17.89612 ], [ 83.40137, 17.89688 ], [ 83.40094, 17.90253 ], [ 83.40136, 17.90814 ], [ 83.39922, 17.91346 ], [ 83.4011, 17.91936 ], [ 83.40207, 17.91928 ], [ 83.40247, 17.92035 ], [ 83.38917, 17.92248 ], [ 83.38918, 17.92426 ], [ 83.38811, 17.9242 ], [ 83.3878, 17.92636 ], [ 83.38586, 17.92704 ], [ 83.38472, 17.92643 ], [ 83.38434, 17.9231 ], [ 83.37546, 17.92302 ], [ 83.37216, 17.92434 ], [ 83.3716, 17.92675 ], [ 83.37243, 17.9276 ], [ 83.37005, 17.9293 ], [ 83.3709, 17.93276 ], [ 83.37223, 17.93314 ], [ 83.37411, 17.93771 ], [ 83.37605, 17.93674 ], [ 83.37794, 17.93741 ], [ 83.38142, 17.93507 ], [ 83.39297, 17.93661 ], [ 83.39126, 17.94356 ], [ 83.38812, 17.94745 ], [ 83.3915, 17.97099 ], [ 83.38474, 17.97235 ], [ 83.3856, 17.97649 ], [ 83.38163, 17.97716 ], [ 83.37457, 17.97993 ], [ 83.37334, 17.98186 ], [ 83.37333, 17.98446 ], [ 83.37368, 17.98679 ], [ 83.37487, 17.98722 ], [ 83.37467, 17.98807 ], [ 83.37391, 17.98802 ], [ 83.3749, 17.99253 ], [ 83.37799, 17.99153 ], [ 83.37919, 17.99279 ], [ 83.37964, 17.99125 ], [ 83.38105, 17.99091 ], [ 83.38134, 17.99161 ], [ 83.38266, 17.99065 ], [ 83.38612, 17.9909 ], [ 83.38617, 17.99219 ], [ 83.38697, 17.99246 ], [ 83.38819, 17.99127 ], [ 83.39252, 17.99316 ], [ 83.39353, 17.99706 ], [ 83.39597, 18.00093 ], [ 83.39798, 18.01685 ], [ 83.40694, 18.01561 ], [ 83.41485, 18.01605 ], [ 83.4211, 18.01391 ], [ 83.42044, 18.0097 ], [ 83.42086, 18.00695 ], [ 83.42192, 18.00388 ], [ 83.42378, 18.00156 ], [ 83.42414, 17.99395 ], [ 83.42108, 17.9906 ], [ 83.42029, 17.98731 ], [ 83.41461, 17.98703 ], [ 83.4126, 17.9733 ], [ 83.41383, 17.97241 ], [ 83.41382, 17.97143 ], [ 83.40712, 17.96902 ], [ 83.40645, 17.96339 ], [ 83.41176, 17.95918 ], [ 83.4123, 17.95676 ] ] ] } },
{ "type": "Feature", "properties": { "OBJECTID": 699, "state_lgd": "28", "state_name": "ANDHRA PRADESH", "district_lgd": "544", "district_name": "VISAKHAPATNAM", "district_name_source": "district_table", "subdistrict_lgd": "4869", "subdistrict_name": "GAJUWAKA", "subdistrict_type": "Mandal", "name_corrupted": false, "remarks": "", "label_lon": 83.194978812293044, "label_lat": 17.67906176635806 }, "geometry": { "type": "Polygon", "coordinates": [ [ [ 83.17495, 17.72685 ], [ 83.17603, 17.72587 ], [ 83.17669, 17.72669 ], [ 83.17908, 17.72549 ], [ 83.1791, 17.72452 ], [ 83.18078, 17.72416 ], [ 83.18041, 17.72346 ], [ 83.1812, 17.72322 ], [ 83.18299, 17.72463 ], [ 83.18221, 17.72235 ], [ 83.18367, 17.7214 ], [ 83.18362, 17.72009 ], [ 83.18491, 17.72023 ], [ 83.1832, 17.716 ], [ 83.18415, 17.71534 ], [ 83.184, 17.71427 ], [ 83.18634, 17.71421 ], [ 83.18757, 17.7167 ], [ 83.19769, 17.72138 ], [ 83.20085, 17.71993 ], [ 83.20981, 17.72032 ], [ 83.21264, 17.7236 ], [ 83.21413, 17.72267 ], [ 83.21451, 17.72476 ], [ 83.21313, 17.72487 ], [ 83.21385, 17.72554 ], [ 83.21291, 17.72657 ], [ 83.21407, 17.72758 ], [ 83.21363, 17.72879 ], [ 83.21064, 17.72987 ], [ 83.21111, 17.73147 ], [ 83.21801, 17.7277 ], [ 83.23091, 17.72882 ], [ 83.2309, 17.72608 ], [ 83.22834, 17.72148 ], [ 83.22018, 17.71229 ], [ 83.22232, 17.71013 ], [ 83.22358, 17.71024 ], [ 83.2248, 17.712 ], [ 83.22654, 17.7113 ], [ 83.22293, 17.70649 ], [ 83.22323, 17.70375 ], [ 83.22238, 17.70334 ], [ 83.22308, 17.70292 ], [ 83.22112, 17.69957 ], [ 83.21856, 17.68961 ], [ 83.21681, 17.68599 ], [ 83.2219, 17.68336 ], [ 83.23473, 17.66858 ], [ 83.2376, 17.67115 ], [ 83.24816, 17.67059 ], [ 83.25397, 17.66937 ], [ 83.27014, 17.67359 ], [ 83.27222, 17.67595 ], [ 83.26996, 17.67729 ], [ 83.27038, 17.68491 ], [ 83.28288, 17.68684 ], [ 83.28067, 17.69027 ], [ 83.28155, 17.69075 ], [ 83.28342, 17.68909 ], [ 83.28784, 17.68846 ], [ 83.29131, 17.69028 ], [ 83.29368, 17.68667 ], [ 83.2973, 17.68556 ], [ 83.29509, 17.68139 ], [ 83.2958, 17.67951 ], [ 83.29524, 17.67635 ], [ 83.29331, 17.67354 ], [ 83.2844, 17.6661 ], [ 83.28323, 17.66425 ], [ 83.28353, 17.66258 ], [ 83.28214, 17.66082 ], [ 83.26014, 17.64991 ], [ 83.26085, 17.64737 ], [ 83.25921, 17.64345 ], [ 83.24187, 17.63457 ], [ 83.23786, 17.63022 ], [ 83.2318, 17.63088 ], [ 83.23291, 17.63385 ], [ 83.2313, 17.63623 ], [ 83.22951, 17.637 ], [ 83.22413, 17.63306 ], [ 83.21143, 17.63933 ], [ 83.19167, 17.64392 ], [ 83.191, 17.64309 ], [ 83.18662, 17.64502 ], [ 83.18568, 17.64414 ], [ 83.18616, 17.6428 ], [ 83.18525, 17.64213 ], [ 83.1855, 17.64089 ], [ 83.18228, 17.64042 ], [ 83.18085, 17.64205 ], [ 83.17791, 17.63863 ], [ 83.17538, 17.63895 ], [ 83.17508, 17.63696 ], [ 83.17092, 17.63713 ], [ 83.16998, 17.63649 ], [ 83.16706, 17.63867 ], [ 83.16449, 17.63781 ], [ 83.15959, 17.63917 ], [ 83.14781, 17.63999 ], [ 83.14714, 17.64145 ], [ 83.1473, 17.64465 ], [ 83.1505, 17.64715 ], [ 83.15127, 17.64963 ], [ 83.14453, 17.65014 ], [ 83.14411, 17.65614 ], [ 83.14666, 17.65771 ], [ 83.14968, 17.6643 ], [ 83.14929, 17.66559 ], [ 83.15024, 17.66731 ], [ 83.15231, 17.66723 ], [ 83.15283, 17.67042 ], [ 83.15139, 17.67083 ], [ 83.1533, 17.67233 ], [ 83.15357, 17.67351 ], [ 83.14888, 17.672 ], [ 83.14635, 17.67389 ], [ 83.14158, 17.67332 ], [ 83.14049, 17.67675 ], [ 83.14145, 17.68064 ], [ 83.1378, 17.6817 ], [ 83.13715, 17.68585 ], [ 83.12687, 17.6858 ], [ 83.12577, 17.68484 ], [ 83.1258, 17.68374 ], [ 83.12321, 17.6833 ], [ 83.12247, 17.68109 ], [ 83.12009, 17.68083 ], [ 83.11525, 17.6824 ], [ 83.11414, 17.68317 ], [ 83.11311, 17.68551 ], [ 83.11366, 17.68669 ], [ 83.10985, 17.69253 ], [ 83.11276, 17.69581 ], [ 83.11307, 17.69775 ], [ 83.11778, 17.69762 ], [ 83.11835, 17.69735 ], [ 83.1179, 17.69623 ], [ 83.11961, 17.69532 ], [ 83.12205, 17.69993 ], [ 83.12093, 17.7013 ], [ 83.12149, 17.70464 ], [ 83.12076, 17.70589 ], [ 83.12047, 17.71206 ], [ 83.12187, 17.71378 ], [ 83.12324, 17.7143 ], [ 83.13423, 17.71164 ], [ 83.13536, 17.71513 ], [ 83.13771, 17.71643 ], [ 83.14092, 17.71445 ], [ 83.14253, 17.71564 ], [ 83.14544, 17.71604 ], [ 83.14976, 17.7189 ], [ 83.15353, 17.72977 ], [ 83.15253, 17.73282 ], [ 83.1539, 17.73392 ], [ 83.15881, 17.72991 ], [ 83.17495, 17.72685 ] ] ] } },
{ "type": "Feature", "properties": { "OBJECTID": 722, "state_lgd": "28", "state_name": "ANDHRA PRADESH", "district_lgd": "544", "district_name": "VISAKHAPATNAM", "district_name_source": "district_table", "subdistrict_lgd": "04867N003", "subdistrict_name": "GOPALAPATNAM", "subdistrict_type": "Mandal", "name_corrupted": false, "remarks": "", "label_lon": 83.252751865148795, "label_lat": 17.72942038437025 }, "geometry": { "type": "Polygon", "coordinates": [ [ [ 83.28027, 17.71703 ], [ 83.27295, 17.71715 ], [ 83.26636, 17.71572 ], [ 83.26326, 17.70865 ], [ 83.26272, 17.70545 ], [ 83.26469, 17.701 ], [ 83.26347, 17.70029 ], [ 83.24929, 17.70184 ], [ 83.24096, 17.70143 ], [ 83.23727, 17.71164 ], [ 83.23216, 17.71243 ], [ 83.2265, 17.71125 ], [ 83.2248, 17.712 ], [ 83.22358, 17.71024 ], [ 83.22232, 17.71013 ], [ 83.22018, 17.71229 ], [ 83.22834, 17.72148 ], [ 83.2309, 17.72608 ], [ 83.23091, 17.72882 ], [ 83.22592, 17.72861 ], [ 83.22678, 17.73192 ], [ 83.2261, 17.73194 ], [ 83.22606, 17.73287 ], [ 83.22703, 17.73325 ], [ 83.22603, 17.73675 ], [ 83.22173, 17.73747 ], [ 83.22208, 17.73989 ], [ 83.21961, 17.74017 ], [ 83.22116, 17.74575 ], [ 83.22516, 17.74807 ], [ 83.22642, 17.74816 ], [ 83.22823, 17.74678 ], [ 83.2321, 17.74832 ], [ 83.23251, 17.7494 ], [ 83.23409, 17.74969 ], [ 83.23475, 17.74902 ], [ 83.24033, 17.75203 ], [ 83.24601, 17.75335 ], [ 83.24692, 17.7545 ], [ 83.24993, 17.75326 ], [ 83.25087, 17.75427 ], [ 83.25186, 17.75386 ], [ 83.25173, 17.75263 ], [ 83.25339, 17.75258 ], [ 83.25584, 17.75415 ], [ 83.25751, 17.752 ], [ 83.2601, 17.75117 ], [ 83.26266, 17.7512 ], [ 83.26445, 17.75293 ], [ 83.26595, 17.75271 ], [ 83.267, 17.74959 ], [ 83.26928, 17.74932 ], [ 83.27099, 17.75148 ], [ 83.27194, 17.75096 ], [ 83.27153, 17.74938 ], [ 83.27258, 17.74776 ], [ 83.27571, 17.74809 ], [ 83.27699, 17.74665 ], [ 83.28491, 17.74423 ], [ 83.28376, 17.72827 ], [ 83.28027, 17.71703 ] ] ] } },
{ "type": "Feature", "properties": { "OBJECTID": 876, "state_lgd": "28", "state_name": "ANDHRA PRADESH", "district_lgd": "544", "district_name": "VISAKHAPATNAM", "district_name_source": "district_table", "subdistrict_lgd": "04867N002", "subdistrict_name": "MAHARANIPETA", "subdistrict_type": "Mandal", "name_corrupted": false, "remarks": "", "label_lon": 83.303965763876604, "label_lat": 17.713509820120716 }, "geometry": { "type": "Polygon", "coordinates": [ [ [ 83.3349, 17.72571 ], [ 83.33386, 17.71831 ], [ 83.31766, 17.71004 ], [ 83.31039, 17.70491 ], [ 83.30732, 17.70155 ], [ 83.30593, 17.70142 ], [ 83.30544, 17.69943 ], [ 83.30598, 17.69749 ], [ 83.30431, 17.6992 ], [ 83.29977, 17.69639 ], [ 83.30028, 17.6954 ], [ 83.29693, 17.69371 ], [ 83.29617, 17.69257 ], [ 83.2973, 17.68556 ], [ 83.29368, 17.68667 ], [ 83.29131, 17.69028 ], [ 83.28784, 17.68846 ], [ 83.284, 17.68905 ], [ 83.28117, 17.69075 ], [ 83.28053, 17.69255 ], [ 83.28027, 17.71703 ], [ 83.2831, 17.72661 ], [ 83.29111, 17.72557 ], [ 83.30888, 17.72633 ], [ 83.31597, 17.72557 ], [ 83.32203, 17.72632 ], [ 83.3213, 17.73103 ], [ 83.32343, 17.73435 ], [ 83.32771, 17.73701 ], [ 83.32975, 17.7371 ], [ 83.33712, 17.73509 ], [ 83.33999, 17.73288 ], [ 83.33691, 17.73055 ], [ 83.3349, 17.72571 ] ] ] } },
{ "type": "Feature", "properties": { "OBJECTID": 904, "state_lgd": "28", "state_name": "ANDHRA PRADESH", "district_lgd": "544", "district_name": "VISAKHAPATNAM", "district_name_source": "district_table", "subdistrict_lgd": "04867N004", "subdistrict_name": "MULAGADA", "subdistrict_type": "Mandal", "name_corrupted": false, "remarks": "", "label_lon": 83.250564856329646, "label_lat": 17.691494322601574 }, "geometry": { "type": "Polygon", "coordinates": [ [ [ 83.2265, 17.71125 ], [ 83.23216, 17.71243 ], [ 83.23727, 17.71164 ], [ 83.24096, 17.70143 ], [ 83.24929, 17.70184 ], [ 83.26347, 17.70029 ], [ 83.26469, 17.701 ], [ 83.26272, 17.70545 ], [ 83.26326, 17.70865 ], [ 83.26636, 17.71572 ], [ 83.27295, 17.71715 ], [ 83.28027, 17.71703 ], [ 83.28053, 17.69255 ], [ 83.28117, 17.69075 ], [ 83.28157, 17.69082 ], [ 83.28198, 17.68977 ], [ 83.28424, 17.689 ], [ 83.28212, 17.6896 ], [ 83.28169, 17.69006 ], [ 83.28155, 17.69075 ], [ 83.28067, 17.69027 ], [ 83.28288, 17.68684 ], [ 83.27038, 17.68491 ], [ 83.26996, 17.67729 ], [ 83.27222, 17.67595 ], [ 83.27014, 17.67359 ], [ 83.25397, 17.66937 ], [ 83.24816, 17.67059 ], [ 83.2376, 17.67115 ], [ 83.23473, 17.66858 ], [ 83.2219, 17.68336 ], [ 83.21681, 17.68599 ], [ 83.21856, 17.68961 ], [ 83.22112, 17.69957 ], [ 83.22308, 17.70292 ], [ 83.22238, 17.70334 ], [ 83.22323, 17.70375 ], [ 83.22293, 17.70649 ], [ 83.2265, 17.71125 ] ] ] } },
{ "type": "Feature", "properties": { "OBJECTID": 963, "state_lgd": "28", "state_name": "ANDHRA PRADESH", "district_lgd": "544", "district_name": "VISAKHAPATNAM", "district_name_source": "district_table", "subdistrict_lgd": "4864", "subdistrict_name": "PADMANABHAM", "subdistrict_type": "Mandal", "name_corrupted": false, "remarks": "", "label_lon": 83.329484661678762, "label_lat": 17.990170709922843 }, "geometry": { "type": "Polygon", "coordinates": [ [ [ 83.36558, 18.06467 ], [ 83.3661, 18.06314 ], [ 83.3641, 18.05704 ], [ 83.36973, 18.05554 ], [ 83.37323, 18.05244 ], [ 83.37583, 18.05167 ], [ 83.37739, 18.05161 ], [ 83.37858, 18.05266 ], [ 83.38381, 18.05103 ], [ 83.39267, 18.05032 ], [ 83.39768, 18.05183 ], [ 83.4037, 18.05772 ], [ 83.40232, 18.05192 ], [ 83.40416, 18.04855 ], [ 83.40385, 18.04431 ], [ 83.40149, 18.0406 ], [ 83.40143, 18.0374 ], [ 83.39652, 18.02891 ], [ 83.395, 18.028 ], [ 83.39265, 18.01741 ], [ 83.39798, 18.01685 ], [ 83.39597, 18.00093 ], [ 83.39353, 17.99706 ], [ 83.39252, 17.99316 ], [ 83.38819, 17.99127 ], [ 83.38697, 17.99246 ], [ 83.38617, 17.99219 ], [ 83.38612, 17.9909 ], [ 83.38266, 17.99065 ], [ 83.38134, 17.99161 ], [ 83.38105, 17.99091 ], [ 83.37964, 17.99125 ], [ 83.37919, 17.99279 ], [ 83.37799, 17.99153 ], [ 83.3749, 17.99253 ], [ 83.37391, 17.98802 ], [ 83.37467, 17.98807 ], [ 83.37487, 17.98722 ], [ 83.37368, 17.98679 ], [ 83.37333, 17.98446 ], [ 83.37334, 17.98186 ], [ 83.37457, 17.97993 ], [ 83.38163, 17.97716 ], [ 83.3856, 17.97649 ], [ 83.38474, 17.97235 ], [ 83.3915, 17.97099 ], [ 83.38812, 17.94745 ], [ 83.39126, 17.94356 ], [ 83.39297, 17.93661 ], [ 83.38142, 17.93507 ], [ 83.37794, 17.93741 ], [ 83.37605, 17.93674 ], [ 83.37411, 17.93771 ], [ 83.37234, 17.93397 ], [ 83.37305, 17.93591 ], [ 83.37307, 17.94153 ], [ 83.37199, 17.9452 ], [ 83.36644, 17.94087 ], [ 83.36098, 17.93906 ], [ 83.35002, 17.94238 ], [ 83.35051, 17.94722 ], [ 83.34896, 17.94986 ], [ 83.34859, 17.95034 ], [ 83.34646, 17.94936 ], [ 83.34754, 17.95134 ], [ 83.344, 17.95082 ], [ 83.34632, 17.95496 ], [ 83.35037, 17.95425 ], [ 83.34994, 17.95672 ], [ 83.35059, 17.95756 ], [ 83.34991, 17.95784 ], [ 83.34965, 17.96128 ], [ 83.35042, 17.96523 ], [ 83.34432, 17.9676 ], [ 83.34318, 17.96661 ], [ 83.33837, 17.96748 ], [ 83.33848, 17.96902 ], [ 83.33597, 17.9693 ], [ 83.33439, 17.97133 ], [ 83.33088, 17.97002 ], [ 83.328, 17.97233 ], [ 83.32573, 17.97074 ], [ 83.31664, 17.97218 ], [ 83.31564, 17.96866 ], [ 83.31426, 17.96928 ], [ 83.31095, 17.96898 ], [ 83.3116, 17.96559 ], [ 83.30713, 17.96483 ], [ 83.30744, 17.96605 ], [ 83.30533, 17.96645 ], [ 83.30265, 17.96015 ], [ 83.30398, 17.95827 ], [ 83.30376, 17.95718 ], [ 83.3011, 17.95706 ], [ 83.29575, 17.94047 ], [ 83.29288, 17.93858 ], [ 83.28259, 17.93917 ], [ 83.26816, 17.93449 ], [ 83.26541, 17.93513 ], [ 83.26031, 17.93462 ], [ 83.25861, 17.93226 ], [ 83.24662, 17.92868 ], [ 83.24306, 17.92563 ], [ 83.23604, 17.92475 ], [ 83.23258, 17.92782 ], [ 83.23265, 17.93279 ], [ 83.23364, 17.93625 ], [ 83.22419, 17.94624 ], [ 83.22772, 17.94722 ], [ 83.23301, 17.95022 ], [ 83.23718, 17.95102 ], [ 83.24277, 17.95087 ], [ 83.25219, 17.96682 ], [ 83.25026, 17.97342 ], [ 83.25671, 17.97616 ], [ 83.26091, 17.98086 ], [ 83.26563, 17.98833 ], [ 83.26567, 17.99167 ], [ 83.26684, 17.99426 ], [ 83.26633, 17.99668 ], [ 83.26914, 17.99693 ], [ 83.27028, 18.00092 ], [ 83.27295, 18.00369 ], [ 83.27315, 18.0074 ], [ 83.28025, 18.00801 ], [ 83.28272, 18.0012 ], [ 83.28737, 18.00116 ], [ 83.29306, 17.99684 ], [ 83.29478, 17.99704 ], [ 83.29476, 17.99781 ], [ 83.29308, 17.99805 ], [ 83.28722, 18.0037 ], [ 83.28876, 18.00852 ], [ 83.29808, 18.00755 ], [ 83.30469, 18.00779 ], [ 83.30778, 18.0039 ], [ 83.31026, 18.0041 ], [ 83.31017, 18.00495 ], [ 83.3112, 18.00545 ], [ 83.31506, 18.0056 ], [ 83.31381, 18.01056 ], [ 83.31438, 18.01592 ], [ 83.313, 18.0181 ], [ 83.30948, 18.01985 ], [ 83.31183, 18.02302 ], [ 83.30956, 18.0256 ], [ 83.30516, 18.02865 ], [ 83.30477, 18.03038 ], [ 83.30544, 18.03152 ], [ 83.3073, 18.03216 ], [ 83.30956, 18.02937 ], [ 83.31232, 18.02861 ], [ 83.31535, 18.02628 ], [ 83.31767, 18.02607 ], [ 83.31845, 18.02688 ], [ 83.32011, 18.03472 ], [ 83.32112, 18.03604 ], [ 83.32572, 18.03844 ], [ 83.33391, 18.046 ], [ 83.34087, 18.0458 ], [ 83.34385, 18.05094 ], [ 83.3477, 18.05086 ], [ 83.35313, 18.04887 ], [ 83.35364, 18.05222 ], [ 83.35192, 18.05635 ], [ 83.35454, 18.05836 ], [ 83.35785, 18.06465 ], [ 83.36558, 18.06467 ] ] ] } },
{ "type": "Feature", "properties": { "OBJECTID": 992, "state_lgd": "28", "state_name": "ANDHRA PRADESH", "district_lgd": "544", "district_name": "VISAKHAPATNAM", "district_name_source": "district_table", "subdistrict_lgd": "4868", "subdistrict_name": "PEDDA GANTYADA", "subdistrict_type": "Mandal", "name_corrupted": false, "remarks": "", "label_lon": 83.170212670937772, "label_lat": 17.602123489037524 }, "geometry": { "type": "MultiPolygon", "coordinates": [ [ [ [ 83.191, 17.64309 ], [ 83.19167, 17.64392 ], [ 83.21143, 17.63933 ], [ 83.22413, 17.63306 ], [ 83.22858, 17.63694 ], [ 83.2313, 17.63623 ], [ 83.23291, 17.63385 ], [ 83.2318, 17.63088 ], [ 83.23779, 17.63022 ], [ 83.2353, 17.62555 ], [ 83.23292, 17.62308 ], [ 83.23169, 17.61928 ], [ 83.23337, 17.61852 ], [ 83.23266, 17.6165 ], [ 83.23375, 17.61351 ], [ 83.23536, 17.61309 ], [ 83.23755, 17.61377 ], [ 83.23833, 17.61244 ], [ 83.23512, 17.6115 ], [ 83.23247, 17.60865 ], [ 83.22751, 17.60628 ], [ 83.22669, 17.60557 ], [ 83.22675, 17.60407 ], [ 83.22438, 17.60441 ], [ 83.21652, 17.59911 ], [ 83.21538, 17.59802 ], [ 83.21542, 17.5937 ], [ 83.21471, 17.59432 ], [ 83.21291, 17.59315 ], [ 83.21329, 17.59187 ], [ 83.21232, 17.59074 ], [ 83.20938, 17.59068 ], [ 83.19719, 17.58431 ], [ 83.1817, 17.57962 ], [ 83.18046, 17.57825 ], [ 83.17401, 17.57506 ], [ 83.17038, 17.57117 ], [ 83.17029, 17.56884 ], [ 83.17209, 17.56859 ], [ 83.17202, 17.56717 ], [ 83.16993, 17.56688 ], [ 83.16281, 17.56103 ], [ 83.14461, 17.55654 ], [ 83.11262, 17.54617 ], [ 83.12337, 17.59155 ], [ 83.12383, 17.59789 ], [ 83.12654, 17.60263 ], [ 83.12808, 17.60324 ], [ 83.12841, 17.61168 ], [ 83.13276, 17.61771 ], [ 83.13825, 17.62759 ], [ 83.14198, 17.63235 ], [ 83.14636, 17.64071 ], [ 83.14714, 17.64145 ], [ 83.14781, 17.63999 ], [ 83.15959, 17.63917 ], [ 83.16449, 17.63781 ], [ 83.16706, 17.63867 ], [ 83.16998, 17.63649 ], [ 83.17092, 17.63713 ], [ 83.17508, 17.63696 ], [ 83.17538, 17.63895 ], [ 83.17791, 17.63863 ], [ 83.18085, 17.64205 ], [ 83.18228, 17.64042 ], [ 83.1855, 17.64089 ], [ 83.18525, 17.64213 ], [ 83.18616, 17.6428 ], [ 83.18568, 17.64414 ], [ 83.18662, 17.64502 ], [ 83.191, 17.64309 ] ] ], [ [ [ 83.24053, 17.61975 ], [ 83.24001, 17.6199 ], [ 83.24051, 17.62016 ], [ 83.24053, 17.61975 ] ] ] ] } },
{ "type": "Feature", "properties": { "OBJECTID": 1008, "state_lgd": "28", "state_name": "ANDHRA PRADESH", "district_lgd": "544", "district_name": "VISAKHAPATNAM", "district_name_source": "district_table", "subdistrict_lgd": "4862", "subdistrict_name": "PENDURTI", "subdistrict_type": "Mandal", "name_corrupted": false, "remarks": "", "label_lon": 83.200366627074672, "label_lat": 17.79933277235839 }, "geometry": { "type": "Polygon", "coordinates": [ [ [ 83.22263, 17.87365 ], [ 83.22795, 17.87363 ], [ 83.23084, 17.87587 ], [ 83.23252, 17.87566 ], [ 83.23368, 17.87393 ], [ 83.23656, 17.87379 ], [ 83.2311, 17.86264 ], [ 83.23139, 17.85787 ], [ 83.23738, 17.85563 ], [ 83.23878, 17.85431 ], [ 83.23924, 17.85256 ], [ 83.23744, 17.84802 ], [ 83.23915, 17.84274 ], [ 83.24057, 17.83341 ], [ 83.237, 17.83064 ], [ 83.23718, 17.82957 ], [ 83.24503, 17.83056 ], [ 83.24817, 17.82861 ], [ 83.26472, 17.82587 ], [ 83.27097, 17.82246 ], [ 83.26373, 17.82403 ], [ 83.26117, 17.82218 ], [ 83.25912, 17.82048 ], [ 83.25752, 17.81749 ], [ 83.2552, 17.8079 ], [ 83.23255, 17.79379 ], [ 83.23278, 17.7796 ], [ 83.23423, 17.77007 ], [ 83.22674, 17.76529 ], [ 83.22203, 17.75698 ], [ 83.22064, 17.75596 ], [ 83.22011, 17.7584 ], [ 83.2182, 17.75752 ], [ 83.21357, 17.75965 ], [ 83.20287, 17.7686 ], [ 83.19955, 17.75921 ], [ 83.19768, 17.75707 ], [ 83.19809, 17.75596 ], [ 83.20042, 17.75566 ], [ 83.19943, 17.75352 ], [ 83.20071, 17.75096 ], [ 83.2004, 17.74929 ], [ 83.20166, 17.7493 ], [ 83.20192, 17.74683 ], [ 83.20506, 17.74405 ], [ 83.20498, 17.74231 ], [ 83.20654, 17.74142 ], [ 83.20616, 17.74037 ], [ 83.20727, 17.73964 ], [ 83.20647, 17.73843 ], [ 83.20757, 17.73662 ], [ 83.20657, 17.73425 ], [ 83.20741, 17.73199 ], [ 83.20575, 17.7309 ], [ 83.20426, 17.73174 ], [ 83.20263, 17.73131 ], [ 83.20163, 17.73002 ], [ 83.20175, 17.72865 ], [ 83.20208, 17.72746 ], [ 83.21115, 17.72151 ], [ 83.20981, 17.72032 ], [ 83.20085, 17.71993 ], [ 83.19769, 17.72138 ], [ 83.18757, 17.7167 ], [ 83.18634, 17.71421 ], [ 83.184, 17.71427 ], [ 83.18415, 17.71534 ], [ 83.1832, 17.716 ], [ 83.18491, 17.72023 ], [ 83.18362, 17.72009 ], [ 83.18367, 17.7214 ], [ 83.18221, 17.72235 ], [ 83.18299, 17.72463 ], [ 83.1812, 17.72322 ], [ 83.18041, 17.72346 ], [ 83.18078, 17.72416 ], [ 83.1791, 17.72452 ], [ 83.17908, 17.72549 ], [ 83.17669, 17.72669 ], [ 83.17603, 17.72587 ], [ 83.17495, 17.72685 ], [ 83.15881, 17.72991 ], [ 83.1539, 17.73392 ], [ 83.1562, 17.73545 ], [ 83.16365, 17.75821 ], [ 83.15985, 17.76625 ], [ 83.15838, 17.76578 ], [ 83.15804, 17.76821 ], [ 83.15672, 17.76862 ], [ 83.15764, 17.77432 ], [ 83.16088, 17.77541 ], [ 83.16153, 17.77655 ], [ 83.16345, 17.77679 ], [ 83.16287, 17.78257 ], [ 83.16062, 17.78713 ], [ 83.16158, 17.79651 ], [ 83.16057, 17.81044 ], [ 83.1621, 17.8199 ], [ 83.16114, 17.84064 ], [ 83.16418, 17.84915 ], [ 83.16841, 17.84788 ], [ 83.17358, 17.84785 ], [ 83.1746, 17.84773 ], [ 83.17468, 17.84695 ], [ 83.18515, 17.846 ], [ 83.18493, 17.85262 ], [ 83.18592, 17.85313 ], [ 83.19058, 17.85254 ], [ 83.20072, 17.84758 ], [ 83.2015, 17.84892 ], [ 83.20525, 17.84764 ], [ 83.2062, 17.85331 ], [ 83.20873, 17.85863 ], [ 83.2139, 17.86186 ], [ 83.20565, 17.86302 ], [ 83.2108, 17.87661 ], [ 83.21036, 17.87989 ], [ 83.21113, 17.88206 ], [ 83.21546, 17.88267 ], [ 83.21745, 17.88059 ], [ 83.21712, 17.87599 ], [ 83.22263, 17.87365 ] ] ] } },
{ "type": "Feature", "properties": { "OBJECTID": 1105, "state_lgd": "28", "state_name": "ANDHRA PRADESH", "district_lgd": "544", "district_name": "VISAKHAPATNAM", "district_name_source": "district_table", "subdistrict_lgd": "04867N001", "subdistrict_name": "SEETHAMMADHARA", "subdistrict_type": "Mandal", "name_corrupted": false, "remarks": "", "label_lon": 83.341856333040482, "label_lat": 17.75248 }, "geometry": { "type": "Polygon", "coordinates": [ [ [ 83.31294, 17.78758 ], [ 83.31892, 17.7874 ], [ 83.32911, 17.7839 ], [ 83.34278, 17.76825 ], [ 83.34628, 17.76525 ], [ 83.34894, 17.7654 ], [ 83.34945, 17.76368 ], [ 83.35269, 17.76329 ], [ 83.3549, 17.76154 ], [ 83.3567, 17.75872 ], [ 83.35066, 17.75082 ], [ 83.35058, 17.74683 ], [ 83.34681, 17.74327 ], [ 83.34391, 17.73828 ], [ 83.3444, 17.73003 ], [ 83.34682, 17.7283 ], [ 83.34668, 17.72697 ], [ 83.34342, 17.72319 ], [ 83.33554, 17.71873 ], [ 83.33386, 17.71831 ], [ 83.3349, 17.72571 ], [ 83.33691, 17.73055 ], [ 83.33999, 17.73288 ], [ 83.33712, 17.73509 ], [ 83.32975, 17.7371 ], [ 83.32771, 17.73701 ], [ 83.32343, 17.73435 ], [ 83.3213, 17.73103 ], [ 83.32203, 17.72632 ], [ 83.31597, 17.72557 ], [ 83.30888, 17.72633 ], [ 83.29111, 17.72557 ], [ 83.2831, 17.72661 ], [ 83.28491, 17.74423 ], [ 83.28726, 17.7434 ], [ 83.29213, 17.74398 ], [ 83.29725, 17.74657 ], [ 83.30109, 17.74721 ], [ 83.30783, 17.7462 ], [ 83.30896, 17.74752 ], [ 83.31157, 17.74807 ], [ 83.31188, 17.75029 ], [ 83.31512, 17.75005 ], [ 83.31703, 17.74806 ], [ 83.32242, 17.74836 ], [ 83.32489, 17.74993 ], [ 83.32563, 17.74859 ], [ 83.33196, 17.74838 ], [ 83.33171, 17.75414 ], [ 83.32877, 17.75596 ], [ 83.31261, 17.7601 ], [ 83.305, 17.76118 ], [ 83.3058, 17.77041 ], [ 83.30344, 17.77569 ], [ 83.30394, 17.78087 ], [ 83.30278, 17.78761 ], [ 83.30646, 17.78453 ], [ 83.30873, 17.78919 ], [ 83.31294, 17.78758 ] ] ] } },
{ "type": "Feature", "properties": { "OBJECTID": 1212, "state_lgd": "28", "state_name": "ANDHRA PRADESH", "district_lgd": "544", "district_name": "VISAKHAPATNAM", "district_name_source": "district_table", "subdistrict_lgd": "4866", "subdistrict_name": "VISAKHAPATNAM RURAL", "subdistrict_type": "Mandal", "name_corrupted": false, "remarks": "", "label_lon": 83.311311871061406, "label_lat": 17.793341314437871 }, "geometry": { "type": "Polygon", "coordinates": [ [ [ 83.37287, 17.86688 ], [ 83.36814, 17.85503 ], [ 83.3643, 17.84783 ], [ 83.36538, 17.84382 ], [ 83.3693, 17.83752 ], [ 83.36692, 17.8363 ], [ 83.36396, 17.82923 ], [ 83.37078, 17.82545 ], [ 83.38445, 17.82136 ], [ 83.39147, 17.81652 ], [ 83.40871, 17.80724 ], [ 83.39826, 17.80009 ], [ 83.39623, 17.79688 ], [ 83.39085, 17.79256 ], [ 83.38543, 17.78462 ], [ 83.38513, 17.7823 ], [ 83.38706, 17.77972 ], [ 83.3841, 17.77634 ], [ 83.38053, 17.77449 ], [ 83.37348, 17.76866 ], [ 83.36288, 17.76352 ], [ 83.3567, 17.75872 ], [ 83.3549, 17.76154 ], [ 83.35269, 17.76329 ], [ 83.34945, 17.76368 ], [ 83.34894, 17.7654 ], [ 83.34628, 17.76525 ], [ 83.34278, 17.76825 ], [ 83.32957, 17.78345 ], [ 83.32732, 17.78487 ], [ 83.31892, 17.7874 ], [ 83.3133, 17.78707 ], [ 83.30873, 17.78919 ], [ 83.30646, 17.78453 ], [ 83.30278, 17.78761 ], [ 83.30394, 17.78087 ], [ 83.30344, 17.77569 ], [ 83.3058, 17.77041 ], [ 83.305, 17.76118 ], [ 83.31261, 17.7601 ], [ 83.32877, 17.75596 ], [ 83.33171, 17.75414 ], [ 83.33196, 17.74838 ], [ 83.32563, 17.74859 ], [ 83.32489, 17.74993 ], [ 83.32242, 17.74836 ], [ 83.31703, 17.74806 ], [ 83.31512, 17.75005 ], [ 83.31188, 17.75029 ], [ 83.31157, 17.74807 ], [ 83.30896, 17.74752 ], [ 83.30783, 17.7462 ], [ 83.30109, 17.74721 ], [ 83.29725, 17.74657 ], [ 83.29306, 17.74416 ], [ 83.28726, 17.7434 ], [ 83.27699, 17.74665 ], [ 83.27571, 17.74809 ], [ 83.27258, 17.74776 ], [ 83.27153, 17.74938 ], [ 83.27194, 17.75096 ], [ 83.2706, 17.75166 ], [ 83.26894, 17.74935 ], [ 83.26662, 17.74982 ], [ 83.26595, 17.75271 ], [ 83.26445, 17.75293 ], [ 83.26266, 17.7512 ], [ 83.2601, 17.75117 ], [ 83.25751, 17.752 ], [ 83.25584, 17.75415 ], [ 83.25339, 17.75258 ], [ 83.25173, 17.75263 ], [ 83.25186, 17.75386 ], [ 83.25087, 17.75427 ], [ 83.24993, 17.75326 ], [ 83.24692, 17.7545 ], [ 83.24601, 17.75335 ], [ 83.24033, 17.75203 ], [ 83.23475, 17.74902 ], [ 83.23409, 17.74969 ], [ 83.23251, 17.7494 ], [ 83.2321, 17.74832 ], [ 83.22823, 17.74678 ], [ 83.22642, 17.74816 ], [ 83.22516, 17.74807 ], [ 83.22116, 17.74575 ], [ 83.21961, 17.74017 ], [ 83.22208, 17.73989 ], [ 83.22173, 17.73747 ], [ 83.22603, 17.73675 ], [ 83.22703, 17.73325 ], [ 83.22606, 17.73287 ], [ 83.2261, 17.73194 ], [ 83.22678, 17.73192 ], [ 83.22592, 17.72861 ], [ 83.21801, 17.7277 ], [ 83.21111, 17.73147 ], [ 83.21064, 17.72987 ], [ 83.21363, 17.72879 ], [ 83.21407, 17.72758 ], [ 83.21291, 17.72657 ], [ 83.21385, 17.72554 ], [ 83.21313, 17.72487 ], [ 83.21451, 17.72476 ], [ 83.21453, 17.72413 ], [ 83.21413, 17.72267 ], [ 83.21264, 17.7236 ], [ 83.21115, 17.72151 ], [ 83.20208, 17.72746 ], [ 83.20201, 17.73079 ], [ 83.20353, 17.73175 ], [ 83.20575, 17.7309 ], [ 83.20741, 17.73199 ], [ 83.20657, 17.73425 ], [ 83.20757, 17.73662 ], [ 83.20647, 17.73843 ], [ 83.20727, 17.73964 ], [ 83.20616, 17.74037 ], [ 83.20654, 17.74142 ], [ 83.20498, 17.74231 ], [ 83.20506, 17.74405 ], [ 83.20192, 17.74683 ], [ 83.20166, 17.7493 ], [ 83.2004, 17.74929 ], [ 83.20071, 17.75096 ], [ 83.19943, 17.75352 ], [ 83.20042, 17.75566 ], [ 83.19809, 17.75596 ], [ 83.19774, 17.75765 ], [ 83.19955, 17.75921 ], [ 83.20316, 17.76891 ], [ 83.20611, 17.76537 ], [ 83.21357, 17.75965 ], [ 83.2182, 17.75752 ], [ 83.22011, 17.7584 ], [ 83.22064, 17.75596 ], [ 83.22233, 17.75728 ], [ 83.22674, 17.76529 ], [ 83.23423, 17.77007 ], [ 83.23278, 17.7796 ], [ 83.23255, 17.79379 ], [ 83.25493, 17.80783 ], [ 83.25966, 17.80828 ], [ 83.26129, 17.80795 ], [ 83.27051, 17.80218 ], [ 83.27728, 17.79496 ], [ 83.28945, 17.79371 ], [ 83.29854, 17.7945 ], [ 83.29727, 17.79572 ], [ 83.29904, 17.80033 ], [ 83.30616, 17.80881 ], [ 83.31078, 17.81835 ], [ 83.30632, 17.82324 ], [ 83.30579, 17.82693 ], [ 83.30736, 17.82977 ], [ 83.30597, 17.83352 ], [ 83.30602, 17.83709 ], [ 83.31051, 17.84732 ], [ 83.31309, 17.85034 ], [ 83.31698, 17.85243 ], [ 83.32069, 17.85226 ], [ 83.32565, 17.85584 ], [ 83.32969, 17.85452 ], [ 83.33392, 17.85119 ], [ 83.33826, 17.85546 ], [ 83.34981, 17.86291 ], [ 83.36414, 17.86617 ], [ 83.3647, 17.86753 ], [ 83.36823, 17.87021 ], [ 83.37249, 17.86819 ], [ 83.37287, 17.86688 ] ] ] } }
]
}
