{
"type": "FeatureCollection",
"name": "545_EAST_GODAVARI",
"crs": { "type": "name", "properties": { "name": "urn:ogc:def:crs:OGC:1.3:CRS84" } },
"xy_coordinate_resolution": 1e-05,
"features": [
{ "type": "Feature", "properties": { "OBJECTID": 572, "state_lgd": "28", "state_name": "ANDHRA PRADESH", "district_lgd": "545", "district_name": "EAST GODAVARI", "district_name_source": "district_table", "subdistrict_lgd": "4917", "subdistrict_name": "ANAPARTHI", "subdistrict_type": "Mandal", "name_corrupted": false, "remarks": "", "label_lon": 81.964943339888123, "label_lat": 16.909872683172217 }, "geometry": { "type": "Polygon", "coordinates": [ [ [ 81.96588, 16.97295 ], [ 81.96501, 16.97079 ], [ 81.96585, 16.96743 ], [ 81.96866, 16.96296 ], [ 81.96687, 16.95895 ], [ 81.96719, 16.95643 ], [ 81.97493, 16.9559 ], [ 81.97836, 16.9544 ], [ 81.9771, 16.95246 ], [ 81.97919, 16.94781 ], [ 81.98256, 16.94551 ], [ 81.98241, 16.94426 ], [ 81.98371, 16.94378 ], [ 81.98421, 16.94228 ], [ 81.98676, 16.94177 ], [ 81.98787, 16.94067 ], [ 81.9879, 16.93821 ], [ 81.98441, 16.93762 ], [ 81.98495, 16.92918 ], [ 81.99249, 16.92773 ], [ 81.99245, 16.92425 ], [ 81.99033, 16.92348 ], [ 81.99078, 16.92063 ], [ 81.99914, 16.91962 ], [ 82.00035, 16.91841 ], [ 82.00202, 16.9182 ], [ 82.00219, 16.91687 ], [ 82.00147, 16.91505 ], [ 81.99784, 16.91208 ], [ 81.99583, 16.90846 ], [ 81.99443, 16.9 ], [ 81.99463, 16.89599 ], [ 81.98957, 16.89562 ], [ 81.98248, 16.89648 ], [ 81.98274, 16.89336 ], [ 81.98053, 16.88349 ], [ 81.98306, 16.88198 ], [ 81.98818, 16.88202 ], [ 81.98713, 16.87608 ], [ 81.9838, 16.86897 ], [ 81.98293, 16.8646 ], [ 81.97434, 16.86448 ], [ 81.97329, 16.85883 ], [ 81.97848, 16.85554 ], [ 81.97489, 16.8496 ], [ 81.97365, 16.84953 ], [ 81.97218, 16.84654 ], [ 81.96457, 16.82298 ], [ 81.95559, 16.8249 ], [ 81.95746, 16.83578 ], [ 81.95315, 16.83797 ], [ 81.9521, 16.83945 ], [ 81.95308, 16.8508 ], [ 81.95255, 16.85203 ], [ 81.95392, 16.85688 ], [ 81.95412, 16.86106 ], [ 81.95652, 16.86446 ], [ 81.95884, 16.87 ], [ 81.9513, 16.87579 ], [ 81.94984, 16.87578 ], [ 81.95195, 16.88022 ], [ 81.95249, 16.8838 ], [ 81.95679, 16.89291 ], [ 81.95724, 16.89992 ], [ 81.95347, 16.90005 ], [ 81.95118, 16.90691 ], [ 81.94808, 16.90695 ], [ 81.94349, 16.91066 ], [ 81.93795, 16.91215 ], [ 81.93778, 16.91436 ], [ 81.9369, 16.91513 ], [ 81.93697, 16.91867 ], [ 81.9391, 16.91944 ], [ 81.93907, 16.92323 ], [ 81.93793, 16.92394 ], [ 81.93797, 16.93895 ], [ 81.94044, 16.9496 ], [ 81.94035, 16.95255 ], [ 81.93715, 16.95765 ], [ 81.93686, 16.96158 ], [ 81.93875, 16.96333 ], [ 81.93869, 16.96833 ], [ 81.94612, 16.97187 ], [ 81.94806, 16.97394 ], [ 81.95186, 16.97292 ], [ 81.95513, 16.97346 ], [ 81.95612, 16.97426 ], [ 81.95813, 16.97431 ], [ 81.95924, 16.97602 ], [ 81.96348, 16.9771 ], [ 81.96588, 16.97295 ] ] ] } },
{ "type": "Feature", "properties": { "OBJECTID": 611, "state_lgd": "28", "state_name": "ANDHRA PRADESH", "district_lgd": "545", "district_name": "EAST GODAVARI", "district_name_source": "district_table", "subdistrict_lgd": "4916", "subdistrict_name": "BIKKAVOLU", "subdistrict_type": "Mandal", "name_corrupted": false, "remarks": "", "label_lon": 82.028576789400645, "label_lat": 16.95232929127614 }, "geometry": { "type": "Polygon", "coordinates": [ [ [ 82.03997, 17.02247 ], [ 82.04296, 17.018 ], [ 82.04256, 17.01336 ], [ 82.04116, 17.01281 ], [ 82.04032, 17.00937 ], [ 82.04278, 17.00885 ], [ 82.0473, 17.01221 ], [ 82.05382, 17.01096 ], [ 82.06084, 17.01233 ], [ 82.06056, 17.01013 ], [ 82.06257, 17.00382 ], [ 82.06298, 16.99822 ], [ 82.06002, 16.99716 ], [ 82.05909, 16.99298 ], [ 82.06602, 16.99226 ], [ 82.06586, 16.98611 ], [ 82.06703, 16.97654 ], [ 82.06968, 16.97319 ], [ 82.06932, 16.97097 ], [ 82.07253, 16.9623 ], [ 82.07289, 16.95797 ], [ 82.07364, 16.957 ], [ 82.07128, 16.95161 ], [ 82.07008, 16.95161 ], [ 82.06883, 16.94877 ], [ 82.068, 16.94892 ], [ 82.0633, 16.94442 ], [ 82.06553, 16.94224 ], [ 82.06466, 16.94128 ], [ 82.06519, 16.93134 ], [ 82.0646, 16.92953 ], [ 82.06627, 16.92852 ], [ 82.06406, 16.92473 ], [ 82.06042, 16.92087 ], [ 82.05926, 16.91751 ], [ 82.0579, 16.90131 ], [ 82.05623, 16.90131 ], [ 82.0561, 16.90058 ], [ 82.05672, 16.89603 ], [ 82.05836, 16.89448 ], [ 82.06385, 16.89431 ], [ 82.07072, 16.89774 ], [ 82.07431, 16.89783 ], [ 82.07464, 16.88492 ], [ 82.07259, 16.8772 ], [ 82.06363, 16.87902 ], [ 82.05779, 16.87904 ], [ 82.06094, 16.87396 ], [ 82.05247, 16.87523 ], [ 82.04813, 16.87852 ], [ 82.04694, 16.88149 ], [ 82.04352, 16.88384 ], [ 82.0455, 16.89478 ], [ 82.03744, 16.90101 ], [ 82.03957, 16.90511 ], [ 82.0363, 16.90507 ], [ 82.03461, 16.90061 ], [ 82.03052, 16.896 ], [ 82.0282, 16.89515 ], [ 82.02786, 16.89721 ], [ 82.0298, 16.90436 ], [ 82.01921, 16.90461 ], [ 82.01951, 16.90853 ], [ 82.0154, 16.90922 ], [ 82.01389, 16.91013 ], [ 82.01268, 16.91224 ], [ 82.01114, 16.91288 ], [ 82.01109, 16.9174 ], [ 82.00093, 16.91828 ], [ 81.99914, 16.91962 ], [ 81.99078, 16.92063 ], [ 81.99033, 16.92348 ], [ 81.99245, 16.92425 ], [ 81.99249, 16.92773 ], [ 81.98495, 16.92918 ], [ 81.98441, 16.93762 ], [ 81.9879, 16.93821 ], [ 81.98764, 16.94119 ], [ 81.98421, 16.94228 ], [ 81.98371, 16.94378 ], [ 81.98241, 16.94426 ], [ 81.98256, 16.94551 ], [ 81.97919, 16.94781 ], [ 81.9771, 16.95246 ], [ 81.97836, 16.9544 ], [ 81.97493, 16.9559 ], [ 81.96719, 16.95643 ], [ 81.96687, 16.95895 ], [ 81.96866, 16.96296 ], [ 81.96618, 16.96649 ], [ 81.96501, 16.97079 ], [ 81.96615, 16.97263 ], [ 81.9651, 16.97742 ], [ 81.96611, 16.97879 ], [ 81.96763, 16.97991 ], [ 81.96979, 16.97851 ], [ 81.97148, 16.98009 ], [ 81.97799, 16.97966 ], [ 81.97878, 16.98353 ], [ 81.983, 16.98695 ], [ 81.98307, 16.98474 ], [ 81.98407, 16.98325 ], [ 81.98829, 16.98204 ], [ 81.99012, 16.9805 ], [ 81.9945, 16.97914 ], [ 81.99534, 16.98022 ], [ 81.99768, 16.98069 ], [ 81.99677, 16.98725 ], [ 81.99729, 16.99073 ], [ 81.9964, 16.99308 ], [ 81.99787, 16.99708 ], [ 82.00673, 16.99789 ], [ 82.01535, 16.99354 ], [ 82.02321, 16.99198 ], [ 82.03105, 16.99494 ], [ 82.03057, 16.99564 ], [ 82.03125, 16.99624 ], [ 82.03044, 16.99736 ], [ 82.02894, 16.99671 ], [ 82.02951, 16.99768 ], [ 82.02853, 17.01659 ], [ 82.03205, 17.02017 ], [ 82.03257, 17.02246 ], [ 82.03316, 17.02245 ], [ 82.03333, 17.02517 ], [ 82.03706, 17.02794 ], [ 82.03945, 17.02661 ], [ 82.03997, 17.02247 ] ] ] } },
{ "type": "Feature", "properties": { "OBJECTID": 628, "state_lgd": "28", "state_name": "ANDHRA PRADESH", "district_lgd": "545", "district_name": "EAST GODAVARI", "district_name_source": "district_table", "subdistrict_lgd": "4959", "subdistrict_name": "CHAGALLU", "subdistrict_type": "Mandal", "name_corrupted": false, "remarks": "", "label_lon": 81.642996309743253, "label_lat": 16.967504477728681 }, "geometry": { "type": "Polygon", "coordinates": [ [ [ 81.6878, 17.00547 ], [ 81.68966, 17.00282 ], [ 81.69037, 17.00011 ], [ 81.69116, 16.9847 ], [ 81.69644, 16.98509 ], [ 81.69801, 16.98433 ], [ 81.70319, 16.98546 ], [ 81.71565, 16.98367 ], [ 81.71446, 16.97757 ], [ 81.71455, 16.97196 ], [ 81.71096, 16.97187 ], [ 81.70938, 16.97035 ], [ 81.70893, 16.96629 ], [ 81.70786, 16.96538 ], [ 81.708, 16.95305 ], [ 81.7044, 16.95307 ], [ 81.70495, 16.94767 ], [ 81.69922, 16.94682 ], [ 81.69764, 16.94537 ], [ 81.69766, 16.93834 ], [ 81.69864, 16.93461 ], [ 81.69728, 16.93372 ], [ 81.6968, 16.92941 ], [ 81.69601, 16.92985 ], [ 81.6924, 16.92857 ], [ 81.69118, 16.92349 ], [ 81.69201, 16.91935 ], [ 81.68597, 16.91833 ], [ 81.6812, 16.92843 ], [ 81.66438, 16.92803 ], [ 81.66411, 16.92648 ], [ 81.66197, 16.92656 ], [ 81.66057, 16.93009 ], [ 81.661, 16.93194 ], [ 81.65817, 16.93678 ], [ 81.65496, 16.93753 ], [ 81.6525, 16.93755 ], [ 81.65238, 16.93635 ], [ 81.64921, 16.93624 ], [ 81.64614, 16.93424 ], [ 81.64152, 16.9343 ], [ 81.63168, 16.92927 ], [ 81.62804, 16.92874 ], [ 81.62791, 16.92993 ], [ 81.6263, 16.93052 ], [ 81.61857, 16.93139 ], [ 81.61681, 16.93075 ], [ 81.61108, 16.93143 ], [ 81.60754, 16.93014 ], [ 81.60584, 16.93081 ], [ 81.60498, 16.93402 ], [ 81.60028, 16.93808 ], [ 81.59887, 16.93648 ], [ 81.59521, 16.93525 ], [ 81.58634, 16.93564 ], [ 81.58685, 16.93942 ], [ 81.58513, 16.94224 ], [ 81.58536, 16.94449 ], [ 81.57946, 16.94489 ], [ 81.57841, 16.9537 ], [ 81.57411, 16.95455 ], [ 81.57345, 16.9567 ], [ 81.5718, 16.95737 ], [ 81.57196, 16.95884 ], [ 81.57002, 16.95971 ], [ 81.56863, 16.96153 ], [ 81.56682, 16.96183 ], [ 81.56784, 16.97359 ], [ 81.57224, 16.98079 ], [ 81.57364, 16.98166 ], [ 81.57538, 16.98666 ], [ 81.58056, 16.98757 ], [ 81.59386, 16.98566 ], [ 81.59351, 16.98842 ], [ 81.59483, 16.98974 ], [ 81.59572, 16.99429 ], [ 81.59442, 17.00102 ], [ 81.59537, 17.0043 ], [ 81.61299, 17.00369 ], [ 81.61738, 17.00469 ], [ 81.62966, 17.00237 ], [ 81.65363, 17.00339 ], [ 81.65686, 17.00502 ], [ 81.66059, 17.0049 ], [ 81.66534, 17.0061 ], [ 81.66718, 17.00953 ], [ 81.66679, 17.01353 ], [ 81.66747, 17.01507 ], [ 81.67073, 17.01703 ], [ 81.67488, 17.01731 ], [ 81.67789, 17.01729 ], [ 81.68037, 17.01618 ], [ 81.68225, 17.00948 ], [ 81.6878, 17.00547 ] ] ] } },
{ "type": "Feature", "properties": { "OBJECTID": 674, "state_lgd": "28", "state_name": "ANDHRA PRADESH", "district_lgd": "545", "district_name": "EAST GODAVARI", "district_name_source": "district_table", "subdistrict_lgd": "4957", "subdistrict_name": "DEVARAPALLI", "subdistrict_type": "Mandal", "name_corrupted": false, "remarks": "", "label_lon": 81.530074848319799, "label_lat": 17.027900924329579 }, "geometry": { "type": "Polygon", "coordinates": [ [ [ 81.4836, 17.10519 ], [ 81.48832, 17.10325 ], [ 81.48578, 17.10131 ], [ 81.48795, 17.09998 ], [ 81.48795, 17.09746 ], [ 81.48554, 17.09499 ], [ 81.48506, 17.09323 ], [ 81.48656, 17.09077 ], [ 81.48542, 17.09073 ], [ 81.48486, 17.08924 ], [ 81.48811, 17.08848 ], [ 81.4876, 17.08693 ], [ 81.49107, 17.08701 ], [ 81.49182, 17.08499 ], [ 81.4915, 17.08301 ], [ 81.4942, 17.08289 ], [ 81.49537, 17.0779 ], [ 81.4951, 17.07211 ], [ 81.49689, 17.0686 ], [ 81.50145, 17.06987 ], [ 81.51086, 17.06942 ], [ 81.52248, 17.07579 ], [ 81.52975, 17.07759 ], [ 81.54246, 17.07615 ], [ 81.55192, 17.08253 ], [ 81.55702, 17.08017 ], [ 81.56837, 17.07825 ], [ 81.57228, 17.07631 ], [ 81.57779, 17.06808 ], [ 81.58028, 17.06146 ], [ 81.58499, 17.0559 ], [ 81.5881, 17.05443 ], [ 81.59679, 17.05537 ], [ 81.60606, 17.05978 ], [ 81.62036, 17.0622 ], [ 81.62253, 17.06539 ], [ 81.62873, 17.06679 ], [ 81.63166, 17.06309 ], [ 81.63164, 17.05749 ], [ 81.63377, 17.05207 ], [ 81.63942, 17.05384 ], [ 81.64483, 17.05349 ], [ 81.64301, 17.03904 ], [ 81.64386, 17.03374 ], [ 81.64284, 17.03182 ], [ 81.64868, 17.02745 ], [ 81.64665, 17.02656 ], [ 81.64393, 17.02388 ], [ 81.64259, 17.02012 ], [ 81.64272, 17.01612 ], [ 81.64127, 17.01563 ], [ 81.63615, 17.01885 ], [ 81.63014, 17.02083 ], [ 81.62081, 17.01751 ], [ 81.61444, 17.01884 ], [ 81.59474, 17.01677 ], [ 81.59342, 17.01398 ], [ 81.59537, 17.0043 ], [ 81.59442, 17.00102 ], [ 81.59572, 16.99429 ], [ 81.59483, 16.98974 ], [ 81.59351, 16.98842 ], [ 81.59386, 16.98566 ], [ 81.58056, 16.98757 ], [ 81.57538, 16.98666 ], [ 81.57364, 16.98166 ], [ 81.57224, 16.98079 ], [ 81.56784, 16.97359 ], [ 81.56682, 16.96183 ], [ 81.56054, 16.96191 ], [ 81.55258, 16.96403 ], [ 81.55008, 16.96302 ], [ 81.54749, 16.95947 ], [ 81.54316, 16.95876 ], [ 81.54206, 16.95936 ], [ 81.53981, 16.95854 ], [ 81.53796, 16.95364 ], [ 81.53798, 16.9484 ], [ 81.53664, 16.9481 ], [ 81.53394, 16.94506 ], [ 81.53259, 16.9444 ], [ 81.53111, 16.94483 ], [ 81.52984, 16.94266 ], [ 81.52776, 16.94264 ], [ 81.52407, 16.9456 ], [ 81.51584, 16.94853 ], [ 81.51072, 16.95346 ], [ 81.50354, 16.95522 ], [ 81.50205, 16.95682 ], [ 81.50105, 16.96065 ], [ 81.49922, 16.96323 ], [ 81.49716, 16.96294 ], [ 81.49508, 16.96374 ], [ 81.4937, 16.96567 ], [ 81.49486, 16.96797 ], [ 81.49439, 16.97188 ], [ 81.48955, 16.972 ], [ 81.48866, 16.9728 ], [ 81.48953, 16.97526 ], [ 81.48814, 16.97674 ], [ 81.48837, 16.97933 ], [ 81.48447, 16.98032 ], [ 81.48452, 16.98216 ], [ 81.47915, 16.98511 ], [ 81.47853, 16.98999 ], [ 81.47531, 16.99002 ], [ 81.46887, 16.99172 ], [ 81.46894, 16.99264 ], [ 81.46757, 16.99331 ], [ 81.46711, 16.99906 ], [ 81.46803, 17.00554 ], [ 81.46393, 17.00669 ], [ 81.45351, 17.00672 ], [ 81.45442, 17.00792 ], [ 81.45469, 17.01137 ], [ 81.45634, 17.014 ], [ 81.4566, 17.01696 ], [ 81.45458, 17.01888 ], [ 81.45627, 17.02448 ], [ 81.45413, 17.02677 ], [ 81.45223, 17.02691 ], [ 81.45405, 17.02875 ], [ 81.45188, 17.02959 ], [ 81.44894, 17.03232 ], [ 81.44783, 17.03455 ], [ 81.44948, 17.03649 ], [ 81.45068, 17.03678 ], [ 81.45034, 17.0399 ], [ 81.45091, 17.04129 ], [ 81.45183, 17.04155 ], [ 81.45175, 17.04311 ], [ 81.45078, 17.0426 ], [ 81.44726, 17.04423 ], [ 81.4453, 17.04398 ], [ 81.44035, 17.0462 ], [ 81.44109, 17.04958 ], [ 81.43842, 17.05019 ], [ 81.43527, 17.05387 ], [ 81.43367, 17.05388 ], [ 81.43303, 17.05983 ], [ 81.42969, 17.05987 ], [ 81.43011, 17.06918 ], [ 81.43511, 17.07273 ], [ 81.43626, 17.07594 ], [ 81.43793, 17.07402 ], [ 81.4398, 17.07461 ], [ 81.44043, 17.07735 ], [ 81.44161, 17.07788 ], [ 81.44333, 17.0775 ], [ 81.44628, 17.07531 ], [ 81.44922, 17.07503 ], [ 81.45419, 17.08083 ], [ 81.45563, 17.08615 ], [ 81.45508, 17.08747 ], [ 81.45764, 17.09179 ], [ 81.45691, 17.09489 ], [ 81.45351, 17.09864 ], [ 81.45145, 17.09753 ], [ 81.44845, 17.09772 ], [ 81.44715, 17.1032 ], [ 81.45172, 17.1034 ], [ 81.45358, 17.102 ], [ 81.45635, 17.10337 ], [ 81.46019, 17.10321 ], [ 81.46236, 17.10189 ], [ 81.46287, 17.09968 ], [ 81.46692, 17.09986 ], [ 81.46654, 17.09725 ], [ 81.47099, 17.09651 ], [ 81.47233, 17.09676 ], [ 81.4744, 17.09894 ], [ 81.47337, 17.09978 ], [ 81.47111, 17.09926 ], [ 81.46929, 17.10009 ], [ 81.46889, 17.10194 ], [ 81.46963, 17.10445 ], [ 81.47948, 17.1038 ], [ 81.48065, 17.10502 ], [ 81.4836, 17.10519 ] ] ] } },
{ "type": "Feature", "properties": { "OBJECTID": 717, "state_lgd": "28", "state_name": "ANDHRA PRADESH", "district_lgd": "545", "district_name": "EAST GODAVARI", "district_name_source": "district_table", "subdistrict_lgd": "4897", "subdistrict_name": "GOKAVARAM", "subdistrict_type": "Mandal", "name_corrupted": false, "remarks": "", "label_lon": 81.89644639765136, "label_lat": 17.257215693988218 }, "geometry": { "type": "Polygon", "coordinates": [ [ [ 81.89159, 17.31852 ], [ 81.89786, 17.31285 ], [ 81.9025, 17.31131 ], [ 81.90229, 17.31015 ], [ 81.90749, 17.30959 ], [ 81.91311, 17.30424 ], [ 81.92018, 17.30921 ], [ 81.92488, 17.31392 ], [ 81.92676, 17.31269 ], [ 81.92462, 17.30873 ], [ 81.92268, 17.30692 ], [ 81.92268, 17.3045 ], [ 81.91975, 17.30224 ], [ 81.92107, 17.297 ], [ 81.91856, 17.29451 ], [ 81.91816, 17.29207 ], [ 81.92048, 17.29236 ], [ 81.91709, 17.28633 ], [ 81.91674, 17.28435 ], [ 81.91751, 17.28192 ], [ 81.91603, 17.2798 ], [ 81.92477, 17.27957 ], [ 81.92468, 17.2809 ], [ 81.94135, 17.28096 ], [ 81.94507, 17.28241 ], [ 81.94702, 17.28565 ], [ 81.95196, 17.28515 ], [ 81.95543, 17.29228 ], [ 81.9648, 17.29246 ], [ 81.96291, 17.30066 ], [ 81.97637, 17.3038 ], [ 81.97419, 17.31531 ], [ 81.97581, 17.31477 ], [ 81.97578, 17.31415 ], [ 81.98513, 17.31141 ], [ 81.9904, 17.31306 ], [ 81.99628, 17.31085 ], [ 81.99849, 17.31095 ], [ 81.99918, 17.30939 ], [ 82.00978, 17.31663 ], [ 82.0104, 17.31655 ], [ 82.01082, 17.31463 ], [ 82.01119, 17.3098 ], [ 82.0152, 17.31232 ], [ 82.02125, 17.31024 ], [ 82.02501, 17.31179 ], [ 82.02649, 17.30901 ], [ 82.0291, 17.30707 ], [ 82.03313, 17.30555 ], [ 82.03477, 17.30579 ], [ 82.0357, 17.30716 ], [ 82.03637, 17.30687 ], [ 82.03622, 17.30527 ], [ 82.03881, 17.29858 ], [ 82.03824, 17.29588 ], [ 82.03923, 17.29203 ], [ 82.03841, 17.29197 ], [ 82.03799, 17.28868 ], [ 82.02629, 17.28712 ], [ 82.02123, 17.28517 ], [ 82.02028, 17.28074 ], [ 82.01503, 17.27289 ], [ 82.00705, 17.26797 ], [ 82.00716, 17.26493 ], [ 82.00854, 17.26383 ], [ 82.00545, 17.26186 ], [ 81.99859, 17.2609 ], [ 81.99417, 17.26089 ], [ 81.99206, 17.26167 ], [ 81.99093, 17.26047 ], [ 81.98821, 17.26207 ], [ 81.98087, 17.26043 ], [ 81.96694, 17.26227 ], [ 81.96406, 17.25865 ], [ 81.96417, 17.25701 ], [ 81.96188, 17.25235 ], [ 81.9511, 17.25006 ], [ 81.95301, 17.24112 ], [ 81.95291, 17.23625 ], [ 81.94686, 17.22809 ], [ 81.94397, 17.22822 ], [ 81.94511, 17.22611 ], [ 81.94349, 17.21672 ], [ 81.94216, 17.2166 ], [ 81.94111, 17.21538 ], [ 81.94108, 17.21162 ], [ 81.93816, 17.20587 ], [ 81.93715, 17.20084 ], [ 81.93512, 17.20013 ], [ 81.93258, 17.20004 ], [ 81.93236, 17.20115 ], [ 81.92147, 17.19909 ], [ 81.92397, 17.20558 ], [ 81.92448, 17.21011 ], [ 81.92332, 17.2127 ], [ 81.92217, 17.21249 ], [ 81.92116, 17.21389 ], [ 81.92133, 17.21548 ], [ 81.91607, 17.21505 ], [ 81.91377, 17.21605 ], [ 81.90861, 17.2149 ], [ 81.90588, 17.21595 ], [ 81.90038, 17.21611 ], [ 81.89964, 17.21699 ], [ 81.90074, 17.22259 ], [ 81.88322, 17.21863 ], [ 81.87815, 17.21312 ], [ 81.87307, 17.21448 ], [ 81.87061, 17.19775 ], [ 81.86537, 17.19842 ], [ 81.86114, 17.19576 ], [ 81.85116, 17.19437 ], [ 81.84496, 17.18938 ], [ 81.83748, 17.18865 ], [ 81.82419, 17.19196 ], [ 81.82036, 17.1898 ], [ 81.81962, 17.19072 ], [ 81.81978, 17.19527 ], [ 81.82202, 17.19962 ], [ 81.82094, 17.20087 ], [ 81.8194, 17.20157 ], [ 81.81554, 17.20082 ], [ 81.81519, 17.19676 ], [ 81.81206, 17.19722 ], [ 81.80868, 17.19967 ], [ 81.80634, 17.1987 ], [ 81.80275, 17.20001 ], [ 81.80648, 17.20336 ], [ 81.80879, 17.21018 ], [ 81.81129, 17.21261 ], [ 81.81166, 17.21771 ], [ 81.80175, 17.21911 ], [ 81.79686, 17.22184 ], [ 81.79531, 17.22083 ], [ 81.79315, 17.22165 ], [ 81.78455, 17.21834 ], [ 81.78166, 17.21842 ], [ 81.78324, 17.22971 ], [ 81.77924, 17.23321 ], [ 81.77444, 17.23568 ], [ 81.77411, 17.23753 ], [ 81.7729, 17.23839 ], [ 81.77536, 17.24715 ], [ 81.7783, 17.24655 ], [ 81.78249, 17.2498 ], [ 81.78533, 17.24576 ], [ 81.79382, 17.24474 ], [ 81.79571, 17.24357 ], [ 81.79832, 17.24502 ], [ 81.80065, 17.24463 ], [ 81.80149, 17.24564 ], [ 81.80558, 17.24597 ], [ 81.80598, 17.24682 ], [ 81.80776, 17.25356 ], [ 81.80722, 17.25488 ], [ 81.80773, 17.26068 ], [ 81.81083, 17.25936 ], [ 81.82202, 17.26003 ], [ 81.82651, 17.25893 ], [ 81.82715, 17.27642 ], [ 81.82278, 17.28875 ], [ 81.82638, 17.30083 ], [ 81.82448, 17.30562 ], [ 81.82708, 17.30905 ], [ 81.8288, 17.31 ], [ 81.83428, 17.30827 ], [ 81.8422, 17.31017 ], [ 81.845, 17.30664 ], [ 81.84456, 17.30382 ], [ 81.84612, 17.3012 ], [ 81.85122, 17.29855 ], [ 81.85585, 17.29862 ], [ 81.85782, 17.29687 ], [ 81.85999, 17.28916 ], [ 81.86165, 17.28931 ], [ 81.86289, 17.29173 ], [ 81.86422, 17.29178 ], [ 81.86754, 17.28843 ], [ 81.87073, 17.29149 ], [ 81.87124, 17.29303 ], [ 81.87455, 17.29424 ], [ 81.87896, 17.2938 ], [ 81.87904, 17.295 ], [ 81.8805, 17.29573 ], [ 81.8812, 17.29739 ], [ 81.88226, 17.2971 ], [ 81.88163, 17.30487 ], [ 81.87889, 17.30828 ], [ 81.87924, 17.31077 ], [ 81.88094, 17.31198 ], [ 81.88008, 17.31364 ], [ 81.88411, 17.31539 ], [ 81.88685, 17.31561 ], [ 81.89159, 17.31852 ] ] ] } },
{ "type": "Feature", "properties": { "OBJECTID": 723, "state_lgd": "28", "state_name": "ANDHRA PRADESH", "district_lgd": "545", "district_name": "EAST GODAVARI", "district_name_source": "district_table", "subdistrict_lgd": "4951", "subdistrict_name": "GOPALAPURAM", "subdistrict_type": "Mandal", "name_corrupted": false, "remarks": "", "label_lon": 81.542330941778999, "label_lat": 17.135020292311232 }, "geometry": { "type": "Polygon", "coordinates": [ [ [ 81.55042, 17.21295 ], [ 81.55413, 17.21236 ], [ 81.55756, 17.21054 ], [ 81.57111, 17.20748 ], [ 81.57897, 17.2085 ], [ 81.59181, 17.21276 ], [ 81.59188, 17.21019 ], [ 81.59387, 17.20823 ], [ 81.59401, 17.20673 ], [ 81.59345, 17.20562 ], [ 81.58775, 17.2033 ], [ 81.58686, 17.20201 ], [ 81.58872, 17.19172 ], [ 81.59324, 17.19062 ], [ 81.59321, 17.1836 ], [ 81.59495, 17.18076 ], [ 81.59735, 17.17845 ], [ 81.60019, 17.17795 ], [ 81.60168, 17.18002 ], [ 81.60745, 17.17917 ], [ 81.61113, 17.18188 ], [ 81.61371, 17.18034 ], [ 81.61663, 17.18006 ], [ 81.6185, 17.17681 ], [ 81.61339, 17.16919 ], [ 81.60658, 17.16645 ], [ 81.60413, 17.16378 ], [ 81.60002, 17.16157 ], [ 81.59403, 17.16042 ], [ 81.59038, 17.15864 ], [ 81.58922, 17.1572 ], [ 81.5925, 17.15703 ], [ 81.59236, 17.15585 ], [ 81.5909, 17.15377 ], [ 81.58848, 17.15333 ], [ 81.58446, 17.14881 ], [ 81.58269, 17.14256 ], [ 81.58333, 17.13668 ], [ 81.58671, 17.13235 ], [ 81.58631, 17.1263 ], [ 81.5892, 17.1213 ], [ 81.60109, 17.11783 ], [ 81.60265, 17.11833 ], [ 81.60711, 17.11708 ], [ 81.61182, 17.11744 ], [ 81.61288, 17.11496 ], [ 81.61537, 17.11423 ], [ 81.6105, 17.10828 ], [ 81.6121, 17.1062 ], [ 81.61014, 17.10376 ], [ 81.60909, 17.09944 ], [ 81.61417, 17.09879 ], [ 81.61631, 17.09754 ], [ 81.61946, 17.09895 ], [ 81.62185, 17.09861 ], [ 81.62364, 17.09995 ], [ 81.63047, 17.09778 ], [ 81.62985, 17.0906 ], [ 81.6279, 17.09004 ], [ 81.62695, 17.08516 ], [ 81.62722, 17.07983 ], [ 81.61168, 17.08018 ], [ 81.6088, 17.07726 ], [ 81.61006, 17.07515 ], [ 81.61148, 17.07472 ], [ 81.61442, 17.07471 ], [ 81.61811, 17.07315 ], [ 81.6239, 17.07315 ], [ 81.62838, 17.07216 ], [ 81.62873, 17.06679 ], [ 81.62253, 17.06539 ], [ 81.62036, 17.0622 ], [ 81.60606, 17.05978 ], [ 81.59679, 17.05537 ], [ 81.58968, 17.05427 ], [ 81.58608, 17.05499 ], [ 81.58028, 17.06146 ], [ 81.57779, 17.06808 ], [ 81.57228, 17.07631 ], [ 81.56837, 17.07825 ], [ 81.55702, 17.08017 ], [ 81.55192, 17.08253 ], [ 81.54246, 17.07615 ], [ 81.52975, 17.07759 ], [ 81.52248, 17.07579 ], [ 81.51086, 17.06942 ], [ 81.50145, 17.06987 ], [ 81.49689, 17.0686 ], [ 81.4951, 17.07211 ], [ 81.49537, 17.0779 ], [ 81.4942, 17.08289 ], [ 81.4915, 17.08301 ], [ 81.49182, 17.08499 ], [ 81.49107, 17.08701 ], [ 81.4876, 17.08693 ], [ 81.48811, 17.08848 ], [ 81.48486, 17.08924 ], [ 81.48542, 17.09073 ], [ 81.48656, 17.09077 ], [ 81.48506, 17.09323 ], [ 81.48554, 17.09499 ], [ 81.48795, 17.09746 ], [ 81.48795, 17.09998 ], [ 81.48578, 17.10131 ], [ 81.48832, 17.10325 ], [ 81.4836, 17.10519 ], [ 81.48065, 17.10502 ], [ 81.47948, 17.1038 ], [ 81.46963, 17.10445 ], [ 81.46889, 17.10194 ], [ 81.46929, 17.10009 ], [ 81.47111, 17.09926 ], [ 81.47337, 17.09978 ], [ 81.4744, 17.09894 ], [ 81.47233, 17.09676 ], [ 81.47099, 17.09651 ], [ 81.46654, 17.09725 ], [ 81.46692, 17.09986 ], [ 81.46287, 17.09968 ], [ 81.46236, 17.10189 ], [ 81.46019, 17.10321 ], [ 81.45635, 17.10337 ], [ 81.45358, 17.102 ], [ 81.45172, 17.1034 ], [ 81.44715, 17.1032 ], [ 81.44738, 17.10423 ], [ 81.44557, 17.10835 ], [ 81.44681, 17.1088 ], [ 81.45008, 17.11246 ], [ 81.45204, 17.11351 ], [ 81.45328, 17.11279 ], [ 81.45555, 17.11435 ], [ 81.45684, 17.11364 ], [ 81.45884, 17.11445 ], [ 81.46345, 17.11245 ], [ 81.46664, 17.11449 ], [ 81.46823, 17.12086 ], [ 81.47037, 17.12639 ], [ 81.47144, 17.12697 ], [ 81.47196, 17.13014 ], [ 81.47575, 17.13069 ], [ 81.47387, 17.13777 ], [ 81.47488, 17.14632 ], [ 81.4775, 17.1507 ], [ 81.47011, 17.15874 ], [ 81.47071, 17.16542 ], [ 81.46731, 17.16579 ], [ 81.46635, 17.16409 ], [ 81.46344, 17.16247 ], [ 81.46159, 17.1596 ], [ 81.45301, 17.1591 ], [ 81.45718, 17.16231 ], [ 81.46079, 17.16347 ], [ 81.46431, 17.1689 ], [ 81.46792, 17.17016 ], [ 81.47225, 17.17334 ], [ 81.4695, 17.17626 ], [ 81.47179, 17.17619 ], [ 81.47375, 17.17482 ], [ 81.47591, 17.17506 ], [ 81.47551, 17.17771 ], [ 81.47297, 17.17993 ], [ 81.47571, 17.18256 ], [ 81.47651, 17.18526 ], [ 81.48648, 17.18852 ], [ 81.49175, 17.19316 ], [ 81.49703, 17.19319 ], [ 81.49825, 17.1965 ], [ 81.4987, 17.2017 ], [ 81.49961, 17.20214 ], [ 81.50221, 17.20158 ], [ 81.50493, 17.20229 ], [ 81.50626, 17.20208 ], [ 81.50812, 17.20038 ], [ 81.51023, 17.20098 ], [ 81.51384, 17.19971 ], [ 81.51519, 17.19996 ], [ 81.51851, 17.20267 ], [ 81.5221, 17.20358 ], [ 81.52339, 17.20587 ], [ 81.52728, 17.20759 ], [ 81.52971, 17.20732 ], [ 81.53256, 17.20548 ], [ 81.53782, 17.206 ], [ 81.53964, 17.20751 ], [ 81.53883, 17.21116 ], [ 81.54028, 17.21199 ], [ 81.54303, 17.21138 ], [ 81.54293, 17.2134 ], [ 81.54523, 17.21469 ], [ 81.5475, 17.21541 ], [ 81.55042, 17.21295 ] ] ] } },
{ "type": "Feature", "properties": { "OBJECTID": 771, "state_lgd": "28", "state_name": "ANDHRA PRADESH", "district_lgd": "545", "district_name": "EAST GODAVARI", "district_name_source": "district_table", "subdistrict_lgd": "4918", "subdistrict_name": "KADIAM", "subdistrict_type": "Mandal", "name_corrupted": false, "remarks": "", "label_lon": 81.833273872922845, "label_lat": 16.900741697308209 }, "geometry": { "type": "Polygon", "coordinates": [ [ [ 81.81853, 16.94231 ], [ 81.82662, 16.9386 ], [ 81.82844, 16.93692 ], [ 81.83161, 16.93313 ], [ 81.83309, 16.92844 ], [ 81.83656, 16.92957 ], [ 81.83916, 16.92842 ], [ 81.84312, 16.9285 ], [ 81.85628, 16.93022 ], [ 81.85968, 16.93462 ], [ 81.86254, 16.93581 ], [ 81.86386, 16.93565 ], [ 81.86389, 16.93394 ], [ 81.86511, 16.93333 ], [ 81.86894, 16.93335 ], [ 81.87005, 16.93243 ], [ 81.86796, 16.9305 ], [ 81.86675, 16.92712 ], [ 81.86964, 16.9183 ], [ 81.86757, 16.91635 ], [ 81.86819, 16.91423 ], [ 81.8624, 16.90654 ], [ 81.86258, 16.90517 ], [ 81.87156, 16.90095 ], [ 81.8727, 16.9015 ], [ 81.87307, 16.90342 ], [ 81.87447, 16.90397 ], [ 81.87455, 16.90493 ], [ 81.88207, 16.90114 ], [ 81.88196, 16.89733 ], [ 81.87982, 16.89797 ], [ 81.87836, 16.89315 ], [ 81.88187, 16.89255 ], [ 81.88252, 16.88919 ], [ 81.88152, 16.88305 ], [ 81.87638, 16.88262 ], [ 81.87212, 16.88069 ], [ 81.86935, 16.87746 ], [ 81.86883, 16.87464 ], [ 81.86616, 16.87068 ], [ 81.86526, 16.86777 ], [ 81.86663, 16.86664 ], [ 81.8686, 16.86077 ], [ 81.86757, 16.85972 ], [ 81.86683, 16.85646 ], [ 81.86963, 16.85004 ], [ 81.86816, 16.84854 ], [ 81.86295, 16.84916 ], [ 81.86179, 16.84514 ], [ 81.85697, 16.84673 ], [ 81.85046, 16.84759 ], [ 81.85109, 16.85851 ], [ 81.84866, 16.86391 ], [ 81.84807, 16.86974 ], [ 81.83791, 16.8715 ], [ 81.83411, 16.87368 ], [ 81.83044, 16.87448 ], [ 81.82859, 16.8733 ], [ 81.83094, 16.86675 ], [ 81.83042, 16.8661 ], [ 81.82383, 16.86735 ], [ 81.82323, 16.8683 ], [ 81.81902, 16.86845 ], [ 81.80886, 16.86285 ], [ 81.80814, 16.86723 ], [ 81.80939, 16.86965 ], [ 81.80653, 16.87229 ], [ 81.80385, 16.88321 ], [ 81.80081, 16.88659 ], [ 81.79392, 16.89095 ], [ 81.79168, 16.89453 ], [ 81.79225, 16.89805 ], [ 81.78989, 16.90464 ], [ 81.79076, 16.90827 ], [ 81.79017, 16.91743 ], [ 81.78888, 16.92341 ], [ 81.78931, 16.92569 ], [ 81.78687, 16.933 ], [ 81.79058, 16.93507 ], [ 81.79111, 16.93913 ], [ 81.79443, 16.94161 ], [ 81.79927, 16.94166 ], [ 81.80411, 16.94488 ], [ 81.80892, 16.94513 ], [ 81.81386, 16.94293 ], [ 81.81853, 16.94231 ] ] ] } },
{ "type": "Feature", "properties": { "OBJECTID": 826, "state_lgd": "28", "state_name": "ANDHRA PRADESH", "district_lgd": "545", "district_name": "EAST GODAVARI", "district_name_source": "district_table", "subdistrict_lgd": "4905", "subdistrict_name": "KORUKONDA", "subdistrict_type": "Mandal", "name_corrupted": false, "remarks": "", "label_lon": 81.825782042580954, "label_lat": 17.156724662690731 }, "geometry": { "type": "Polygon", "coordinates": [ [ [ 81.77536, 17.24715 ], [ 81.7729, 17.23839 ], [ 81.77411, 17.23753 ], [ 81.77444, 17.23568 ], [ 81.77924, 17.23321 ], [ 81.78324, 17.22971 ], [ 81.78166, 17.21842 ], [ 81.78455, 17.21834 ], [ 81.79315, 17.22165 ], [ 81.79531, 17.22083 ], [ 81.79686, 17.22184 ], [ 81.80175, 17.21911 ], [ 81.81166, 17.21771 ], [ 81.81129, 17.21261 ], [ 81.80879, 17.21018 ], [ 81.80648, 17.20336 ], [ 81.80275, 17.20001 ], [ 81.80634, 17.1987 ], [ 81.80868, 17.19967 ], [ 81.81206, 17.19722 ], [ 81.81519, 17.19676 ], [ 81.81554, 17.20082 ], [ 81.8194, 17.20157 ], [ 81.82094, 17.20087 ], [ 81.82202, 17.19962 ], [ 81.81978, 17.19527 ], [ 81.81962, 17.19072 ], [ 81.82036, 17.1898 ], [ 81.82419, 17.19196 ], [ 81.83748, 17.18865 ], [ 81.84496, 17.18938 ], [ 81.85116, 17.19437 ], [ 81.86114, 17.19576 ], [ 81.86537, 17.19842 ], [ 81.87061, 17.19775 ], [ 81.87307, 17.21448 ], [ 81.87815, 17.21312 ], [ 81.88322, 17.21863 ], [ 81.90074, 17.22259 ], [ 81.89964, 17.21699 ], [ 81.90038, 17.21611 ], [ 81.90588, 17.21595 ], [ 81.90861, 17.2149 ], [ 81.91377, 17.21605 ], [ 81.91607, 17.21505 ], [ 81.92133, 17.21548 ], [ 81.92116, 17.21389 ], [ 81.92217, 17.21249 ], [ 81.92332, 17.2127 ], [ 81.92396, 17.21198 ], [ 81.92448, 17.21011 ], [ 81.92397, 17.20558 ], [ 81.92147, 17.19909 ], [ 81.91433, 17.19418 ], [ 81.90993, 17.19276 ], [ 81.90753, 17.19282 ], [ 81.90761, 17.191 ], [ 81.90377, 17.18582 ], [ 81.90253, 17.17364 ], [ 81.89858, 17.16923 ], [ 81.90076, 17.16454 ], [ 81.90254, 17.15633 ], [ 81.89738, 17.15138 ], [ 81.89445, 17.14313 ], [ 81.88706, 17.14264 ], [ 81.88591, 17.14331 ], [ 81.88253, 17.14066 ], [ 81.87529, 17.13691 ], [ 81.86584, 17.12876 ], [ 81.86209, 17.12646 ], [ 81.85931, 17.12149 ], [ 81.85262, 17.11335 ], [ 81.84954, 17.1127 ], [ 81.84976, 17.11161 ], [ 81.85211, 17.10995 ], [ 81.85205, 17.10576 ], [ 81.85387, 17.10389 ], [ 81.85365, 17.0976 ], [ 81.85611, 17.09542 ], [ 81.85547, 17.08936 ], [ 81.8564, 17.08631 ], [ 81.85454, 17.08531 ], [ 81.85417, 17.079 ], [ 81.85333, 17.07708 ], [ 81.8514, 17.07577 ], [ 81.84973, 17.07723 ], [ 81.84741, 17.07655 ], [ 81.83815, 17.07984 ], [ 81.8347, 17.0797 ], [ 81.83453, 17.07352 ], [ 81.83541, 17.07061 ], [ 81.835, 17.06644 ], [ 81.82074, 17.06855 ], [ 81.8192, 17.06794 ], [ 81.81684, 17.06889 ], [ 81.81569, 17.06855 ], [ 81.8045, 17.0726 ], [ 81.78551, 17.07574 ], [ 81.7883, 17.08789 ], [ 81.78712, 17.0893 ], [ 81.78171, 17.09212 ], [ 81.7822, 17.09698 ], [ 81.78119, 17.0985 ], [ 81.7798, 17.10849 ], [ 81.78296, 17.12554 ], [ 81.78189, 17.12564 ], [ 81.78292, 17.12649 ], [ 81.78138, 17.12623 ], [ 81.78155, 17.12741 ], [ 81.78072, 17.12805 ], [ 81.78111, 17.12945 ], [ 81.77967, 17.12906 ], [ 81.77921, 17.12793 ], [ 81.77572, 17.12931 ], [ 81.77267, 17.12953 ], [ 81.77063, 17.13185 ], [ 81.76721, 17.13116 ], [ 81.76714, 17.13231 ], [ 81.76538, 17.1341 ], [ 81.7631, 17.13501 ], [ 81.76294, 17.13709 ], [ 81.76166, 17.13718 ], [ 81.76168, 17.13859 ], [ 81.76073, 17.13948 ], [ 81.7621, 17.14006 ], [ 81.7638, 17.1393 ], [ 81.7649, 17.14045 ], [ 81.76496, 17.14229 ], [ 81.7664, 17.14241 ], [ 81.76689, 17.14624 ], [ 81.76485, 17.15014 ], [ 81.76635, 17.1523 ], [ 81.76683, 17.15628 ], [ 81.76569, 17.15729 ], [ 81.76565, 17.15975 ], [ 81.76423, 17.16081 ], [ 81.7632, 17.16062 ], [ 81.76302, 17.16427 ], [ 81.76034, 17.16623 ], [ 81.75675, 17.16659 ], [ 81.75674, 17.17413 ], [ 81.75709, 17.17567 ], [ 81.75777, 17.1756 ], [ 81.75905, 17.1778 ], [ 81.75974, 17.18047 ], [ 81.76058, 17.18034 ], [ 81.7613, 17.18183 ], [ 81.762, 17.18154 ], [ 81.76433, 17.18596 ], [ 81.76584, 17.18783 ], [ 81.76767, 17.18865 ], [ 81.76886, 17.19068 ], [ 81.76757, 17.19854 ], [ 81.76357, 17.19903 ], [ 81.75628, 17.19519 ], [ 81.75445, 17.19548 ], [ 81.75279, 17.19724 ], [ 81.7529, 17.20135 ], [ 81.75617, 17.20615 ], [ 81.75768, 17.20721 ], [ 81.75654, 17.21047 ], [ 81.75469, 17.21142 ], [ 81.75487, 17.21268 ], [ 81.7574, 17.2178 ], [ 81.75862, 17.2179 ], [ 81.76138, 17.22319 ], [ 81.75625, 17.22192 ], [ 81.75571, 17.22289 ], [ 81.75752, 17.22828 ], [ 81.75224, 17.22848 ], [ 81.75172, 17.23117 ], [ 81.75194, 17.23271 ], [ 81.75479, 17.23489 ], [ 81.75552, 17.23765 ], [ 81.75738, 17.23742 ], [ 81.75881, 17.23822 ], [ 81.75701, 17.24058 ], [ 81.7574, 17.24164 ], [ 81.76452, 17.24709 ], [ 81.76549, 17.24958 ], [ 81.76965, 17.24941 ], [ 81.77536, 17.24715 ] ] ] } },
{ "type": "Feature", "properties": { "OBJECTID": 842, "state_lgd": "28", "state_name": "ANDHRA PRADESH", "district_lgd": "545", "district_name": "EAST GODAVARI", "district_name_source": "district_table", "subdistrict_lgd": "4958", "subdistrict_name": "KOVVURU", "subdistrict_type": "Mandal", "name_corrupted": false, "remarks": "", "label_lon": 81.693435589731564, "label_lat": 17.013341279963281 }, "geometry": { "type": "MultiPolygon", "coordinates": [ [ [ [ 81.74485, 16.94487 ], [ 81.74633, 16.94069 ], [ 81.74499, 16.93589 ], [ 81.74666, 16.93278 ], [ 81.7469, 16.92482 ], [ 81.74575, 16.92216 ], [ 81.73988, 16.93299 ], [ 81.74008, 16.93566 ], [ 81.74249, 16.94207 ], [ 81.74223, 16.94428 ], [ 81.74366, 16.9454 ], [ 81.74485, 16.94487 ] ] ], [ [ [ 81.71184, 17.06641 ], [ 81.71863, 17.05965 ], [ 81.72234, 17.05283 ], [ 81.72455, 17.04413 ], [ 81.72419, 17.03711 ], [ 81.72912, 17.0281 ], [ 81.73001, 17.02416 ], [ 81.73132, 17.02324 ], [ 81.73111, 17.0207 ], [ 81.73483, 17.01695 ], [ 81.73876, 17.0156 ], [ 81.74143, 17.01099 ], [ 81.74252, 17.00699 ], [ 81.74377, 16.9919 ], [ 81.74514, 16.98449 ], [ 81.74544, 16.97637 ], [ 81.74422, 16.96342 ], [ 81.7358, 16.95431 ], [ 81.72918, 16.94432 ], [ 81.72744, 16.93808 ], [ 81.72708, 16.92806 ], [ 81.7215, 16.92407 ], [ 81.71931, 16.9244 ], [ 81.71762, 16.92885 ], [ 81.71452, 16.92685 ], [ 81.71257, 16.9267 ], [ 81.70872, 16.92885 ], [ 81.70843, 16.93111 ], [ 81.70304, 16.92981 ], [ 81.7003, 16.93274 ], [ 81.69984, 16.93422 ], [ 81.69864, 16.93461 ], [ 81.69766, 16.93834 ], [ 81.69764, 16.94537 ], [ 81.69922, 16.94682 ], [ 81.70495, 16.94767 ], [ 81.7044, 16.95307 ], [ 81.708, 16.95305 ], [ 81.70786, 16.96538 ], [ 81.70893, 16.96629 ], [ 81.70938, 16.97035 ], [ 81.71096, 16.97187 ], [ 81.71455, 16.97196 ], [ 81.71446, 16.97757 ], [ 81.71565, 16.98367 ], [ 81.70319, 16.98546 ], [ 81.69801, 16.98433 ], [ 81.69644, 16.98509 ], [ 81.69116, 16.9847 ], [ 81.69073, 16.99734 ], [ 81.68966, 17.00282 ], [ 81.6878, 17.00547 ], [ 81.68225, 17.00948 ], [ 81.68037, 17.01618 ], [ 81.67789, 17.01729 ], [ 81.67073, 17.01703 ], [ 81.66903, 17.01631 ], [ 81.66679, 17.01353 ], [ 81.66718, 17.00953 ], [ 81.66639, 17.00704 ], [ 81.66272, 17.00529 ], [ 81.65686, 17.00502 ], [ 81.65363, 17.00339 ], [ 81.62966, 17.00237 ], [ 81.61738, 17.00469 ], [ 81.61299, 17.00369 ], [ 81.59537, 17.0043 ], [ 81.59349, 17.0125 ], [ 81.59474, 17.01677 ], [ 81.61444, 17.01884 ], [ 81.62081, 17.01751 ], [ 81.63014, 17.02083 ], [ 81.63615, 17.01885 ], [ 81.64127, 17.01563 ], [ 81.64272, 17.01612 ], [ 81.64259, 17.02012 ], [ 81.64393, 17.02388 ], [ 81.64665, 17.02656 ], [ 81.64868, 17.02745 ], [ 81.64284, 17.03182 ], [ 81.64386, 17.03374 ], [ 81.64301, 17.03904 ], [ 81.64483, 17.05349 ], [ 81.6557, 17.0537 ], [ 81.66272, 17.05526 ], [ 81.67373, 17.05317 ], [ 81.67279, 17.06042 ], [ 81.67446, 17.06678 ], [ 81.68417, 17.06727 ], [ 81.68457, 17.07291 ], [ 81.68384, 17.07759 ], [ 81.68549, 17.08407 ], [ 81.67823, 17.08958 ], [ 81.67882, 17.09252 ], [ 81.68046, 17.09536 ], [ 81.68093, 17.09444 ], [ 81.68608, 17.09267 ], [ 81.69704, 17.0855 ], [ 81.71184, 17.06641 ] ] ] ] } },
{ "type": "Feature", "properties": { "OBJECTID": 923, "state_lgd": "28", "state_name": "ANDHRA PRADESH", "district_lgd": "545", "district_name": "EAST GODAVARI", "district_name_source": "district_table", "subdistrict_lgd": "4956", "subdistrict_name": "NALLAJERLA", "subdistrict_type": "Mandal", "name_corrupted": false, "remarks": "", "label_lon": 81.404334168589486, "label_lat": 16.95402583059559 }, "geometry": { "type": "Polygon", "coordinates": [ [ [ 81.42963, 17.04423 ], [ 81.43411, 17.04049 ], [ 81.43242, 17.03117 ], [ 81.43735, 17.02765 ], [ 81.43829, 17.01999 ], [ 81.44084, 17.02038 ], [ 81.44293, 17.01459 ], [ 81.44243, 17.01114 ], [ 81.44711, 17.00681 ], [ 81.45781, 17.00641 ], [ 81.46005, 17.007 ], [ 81.46803, 17.00554 ], [ 81.46711, 16.99906 ], [ 81.46757, 16.99331 ], [ 81.46894, 16.99264 ], [ 81.46887, 16.99172 ], [ 81.47531, 16.99002 ], [ 81.47853, 16.98999 ], [ 81.47915, 16.98511 ], [ 81.48452, 16.98216 ], [ 81.48447, 16.98032 ], [ 81.48837, 16.97933 ], [ 81.48814, 16.97674 ], [ 81.48953, 16.97526 ], [ 81.48846, 16.97343 ], [ 81.48955, 16.972 ], [ 81.48874, 16.96742 ], [ 81.49276, 16.95732 ], [ 81.49241, 16.95446 ], [ 81.48806, 16.9506 ], [ 81.48547, 16.94426 ], [ 81.4878, 16.93787 ], [ 81.48661, 16.9302 ], [ 81.48838, 16.92214 ], [ 81.48671, 16.91273 ], [ 81.48485, 16.9095 ], [ 81.4806, 16.90516 ], [ 81.47598, 16.90293 ], [ 81.47182, 16.89763 ], [ 81.46663, 16.8977 ], [ 81.45364, 16.9003 ], [ 81.44249, 16.90064 ], [ 81.44256, 16.89604 ], [ 81.44575, 16.89226 ], [ 81.44738, 16.89336 ], [ 81.4484, 16.89187 ], [ 81.44966, 16.89158 ], [ 81.45173, 16.88781 ], [ 81.45097, 16.8851 ], [ 81.44872, 16.88669 ], [ 81.44702, 16.88674 ], [ 81.43962, 16.87689 ], [ 81.43105, 16.87408 ], [ 81.42444, 16.87002 ], [ 81.4211, 16.86886 ], [ 81.41322, 16.86809 ], [ 81.4011, 16.87058 ], [ 81.39787, 16.86879 ], [ 81.39447, 16.86389 ], [ 81.38974, 16.86562 ], [ 81.38738, 16.87599 ], [ 81.38743, 16.88094 ], [ 81.38957, 16.88668 ], [ 81.38926, 16.8911 ], [ 81.39171, 16.8962 ], [ 81.39288, 16.89694 ], [ 81.3911, 16.89869 ], [ 81.38998, 16.9013 ], [ 81.38906, 16.90717 ], [ 81.38309, 16.90771 ], [ 81.37931, 16.90896 ], [ 81.37209, 16.90923 ], [ 81.36977, 16.9042 ], [ 81.36687, 16.90225 ], [ 81.36607, 16.89945 ], [ 81.36249, 16.8976 ], [ 81.34713, 16.89705 ], [ 81.33587, 16.89856 ], [ 81.33165, 16.90227 ], [ 81.33147, 16.90644 ], [ 81.32514, 16.91855 ], [ 81.32933, 16.92624 ], [ 81.33151, 16.92861 ], [ 81.32486, 16.93038 ], [ 81.30541, 16.93166 ], [ 81.29185, 16.93804 ], [ 81.29392, 16.9408 ], [ 81.2942, 16.94342 ], [ 81.29596, 16.94588 ], [ 81.29765, 16.95251 ], [ 81.30443, 16.95573 ], [ 81.30663, 16.95757 ], [ 81.30977, 16.9616 ], [ 81.31267, 16.9684 ], [ 81.32375, 16.96805 ], [ 81.332, 16.9664 ], [ 81.33144, 16.96775 ], [ 81.32517, 16.97056 ], [ 81.32069, 16.97087 ], [ 81.31258, 16.97291 ], [ 81.3369, 16.9907 ], [ 81.34563, 16.99143 ], [ 81.34643, 16.98961 ], [ 81.34985, 16.98672 ], [ 81.3571, 16.98446 ], [ 81.36362, 16.98457 ], [ 81.36722, 16.98675 ], [ 81.36818, 16.99029 ], [ 81.37083, 16.99312 ], [ 81.37404, 17.00421 ], [ 81.37163, 17.00617 ], [ 81.37134, 17.0097 ], [ 81.36646, 17.02032 ], [ 81.36767, 17.02729 ], [ 81.37029, 17.03114 ], [ 81.37529, 17.03335 ], [ 81.3782, 17.0325 ], [ 81.37966, 17.03288 ], [ 81.38034, 17.03421 ], [ 81.37967, 17.03696 ], [ 81.38146, 17.03621 ], [ 81.38206, 17.03736 ], [ 81.38402, 17.03698 ], [ 81.38457, 17.03839 ], [ 81.38651, 17.03789 ], [ 81.38754, 17.03923 ], [ 81.38633, 17.04008 ], [ 81.38682, 17.04186 ], [ 81.39005, 17.04135 ], [ 81.3931, 17.03896 ], [ 81.39727, 17.04655 ], [ 81.40112, 17.04492 ], [ 81.40337, 17.04473 ], [ 81.40379, 17.04572 ], [ 81.41132, 17.04374 ], [ 81.4128, 17.04902 ], [ 81.41958, 17.04993 ], [ 81.42251, 17.04718 ], [ 81.42963, 17.04423 ] ] ] } },
{ "type": "Feature", "properties": { "OBJECTID": 946, "state_lgd": "28", "state_name": "ANDHRA PRADESH", "district_lgd": "545", "district_name": "EAST GODAVARI", "district_name_source": "district_table", "subdistrict_lgd": "4960", "subdistrict_name": "NIDADAVOLE", "subdistrict_type": "Mandal", "name_corrupted": false, "remarks": "", "label_lon": 81.651771416151149, "label_lat": 16.902037937805009 }, "geometry": { "type": "Polygon", "coordinates": [ [ [ 81.56054, 16.96191 ], [ 81.56863, 16.96153 ], [ 81.57002, 16.95971 ], [ 81.57196, 16.95884 ], [ 81.5718, 16.95737 ], [ 81.57345, 16.9567 ], [ 81.57411, 16.95455 ], [ 81.57841, 16.9537 ], [ 81.57946, 16.94489 ], [ 81.58536, 16.94449 ], [ 81.58513, 16.94224 ], [ 81.58685, 16.93942 ], [ 81.58634, 16.93564 ], [ 81.59521, 16.93525 ], [ 81.59887, 16.93648 ], [ 81.60028, 16.93808 ], [ 81.60498, 16.93402 ], [ 81.60584, 16.93081 ], [ 81.60754, 16.93014 ], [ 81.61108, 16.93143 ], [ 81.61681, 16.93075 ], [ 81.61857, 16.93139 ], [ 81.6263, 16.93052 ], [ 81.62791, 16.92993 ], [ 81.62804, 16.92874 ], [ 81.63168, 16.92927 ], [ 81.64152, 16.9343 ], [ 81.64614, 16.93424 ], [ 81.64921, 16.93624 ], [ 81.65238, 16.93635 ], [ 81.6525, 16.93755 ], [ 81.65496, 16.93753 ], [ 81.65817, 16.93678 ], [ 81.661, 16.93194 ], [ 81.66057, 16.93009 ], [ 81.66197, 16.92656 ], [ 81.66411, 16.92648 ], [ 81.66438, 16.92803 ], [ 81.6812, 16.92843 ], [ 81.68597, 16.91833 ], [ 81.69201, 16.91935 ], [ 81.69118, 16.92349 ], [ 81.6924, 16.92857 ], [ 81.69601, 16.92985 ], [ 81.6968, 16.92941 ], [ 81.6978, 16.93446 ], [ 81.69984, 16.93422 ], [ 81.7003, 16.93274 ], [ 81.70304, 16.92981 ], [ 81.70843, 16.93111 ], [ 81.70872, 16.92885 ], [ 81.71257, 16.9267 ], [ 81.71452, 16.92685 ], [ 81.71762, 16.92885 ], [ 81.7184, 16.92573 ], [ 81.71998, 16.92411 ], [ 81.72217, 16.92416 ], [ 81.72708, 16.92806 ], [ 81.72792, 16.9242 ], [ 81.72757, 16.92091 ], [ 81.72409, 16.91429 ], [ 81.73122, 16.91417 ], [ 81.73042, 16.90271 ], [ 81.73319, 16.88002 ], [ 81.73732, 16.87466 ], [ 81.74668, 16.86653 ], [ 81.75124, 16.85276 ], [ 81.74773, 16.8521 ], [ 81.74249, 16.8531 ], [ 81.74197, 16.85491 ], [ 81.74016, 16.85558 ], [ 81.74, 16.857 ], [ 81.7375, 16.85774 ], [ 81.7366, 16.8639 ], [ 81.73493, 16.86415 ], [ 81.73206, 16.85875 ], [ 81.72313, 16.85983 ], [ 81.71972, 16.85696 ], [ 81.71404, 16.85747 ], [ 81.71527, 16.85137 ], [ 81.7184, 16.84636 ], [ 81.70392, 16.84795 ], [ 81.70464, 16.85148 ], [ 81.70417, 16.85378 ], [ 81.70353, 16.85509 ], [ 81.70111, 16.85644 ], [ 81.70112, 16.85855 ], [ 81.69594, 16.86052 ], [ 81.69384, 16.86215 ], [ 81.68717, 16.86275 ], [ 81.68626, 16.8627 ], [ 81.68424, 16.86047 ], [ 81.68118, 16.85409 ], [ 81.68016, 16.85338 ], [ 81.67646, 16.85384 ], [ 81.66443, 16.85251 ], [ 81.65859, 16.85297 ], [ 81.65634, 16.85134 ], [ 81.65332, 16.85294 ], [ 81.65212, 16.85226 ], [ 81.64954, 16.85259 ], [ 81.64311, 16.85643 ], [ 81.64181, 16.85606 ], [ 81.63997, 16.85683 ], [ 81.63874, 16.8563 ], [ 81.63802, 16.85365 ], [ 81.63733, 16.85346 ], [ 81.63551, 16.8559 ], [ 81.63719, 16.8575 ], [ 81.63546, 16.85817 ], [ 81.63765, 16.8596 ], [ 81.63486, 16.86064 ], [ 81.63319, 16.86282 ], [ 81.63061, 16.86311 ], [ 81.63114, 16.86593 ], [ 81.63056, 16.86668 ], [ 81.63147, 16.86793 ], [ 81.63052, 16.86784 ], [ 81.62949, 16.86968 ], [ 81.62932, 16.87171 ], [ 81.6303, 16.87251 ], [ 81.62945, 16.87459 ], [ 81.63077, 16.87527 ], [ 81.62943, 16.87581 ], [ 81.63006, 16.87917 ], [ 81.62894, 16.8792 ], [ 81.62904, 16.88096 ], [ 81.62726, 16.88125 ], [ 81.62653, 16.88338 ], [ 81.62678, 16.88659 ], [ 81.62552, 16.88702 ], [ 81.62341, 16.89203 ], [ 81.62003, 16.89263 ], [ 81.61734, 16.89433 ], [ 81.61647, 16.89708 ], [ 81.61437, 16.8984 ], [ 81.61254, 16.89788 ], [ 81.60904, 16.89893 ], [ 81.60835, 16.90323 ], [ 81.60686, 16.90451 ], [ 81.60143, 16.90217 ], [ 81.59283, 16.9047 ], [ 81.592, 16.90461 ], [ 81.5899, 16.90136 ], [ 81.58246, 16.90137 ], [ 81.57939, 16.90254 ], [ 81.57395, 16.90115 ], [ 81.569, 16.90966 ], [ 81.56556, 16.91373 ], [ 81.56426, 16.9137 ], [ 81.56072, 16.91601 ], [ 81.55298, 16.9187 ], [ 81.5523, 16.92066 ], [ 81.55256, 16.92325 ], [ 81.55142, 16.92433 ], [ 81.55034, 16.93027 ], [ 81.54901, 16.93222 ], [ 81.55043, 16.9336 ], [ 81.54627, 16.93681 ], [ 81.54485, 16.94284 ], [ 81.54239, 16.94397 ], [ 81.53941, 16.94813 ], [ 81.53798, 16.9484 ], [ 81.53796, 16.95364 ], [ 81.53981, 16.95854 ], [ 81.54206, 16.95936 ], [ 81.54316, 16.95876 ], [ 81.54749, 16.95947 ], [ 81.5508, 16.96355 ], [ 81.55377, 16.96404 ], [ 81.56054, 16.96191 ] ] ] } },
{ "type": "Feature", "properties": { "OBJECTID": 1016, "state_lgd": "28", "state_name": "ANDHRA PRADESH", "district_lgd": "545", "district_name": "EAST GODAVARI", "district_name_source": "district_table", "subdistrict_lgd": "4971", "subdistrict_name": "PERAVALLI", "subdistrict_type": "Mandal", "name_corrupted": false, "remarks": "", "label_lon": 81.750244853493641, "label_lat": 16.765300322990957 }, "geometry": { "type": "Polygon", "coordinates": [ [ [ 81.7366, 16.8639 ], [ 81.7375, 16.85774 ], [ 81.74, 16.857 ], [ 81.74016, 16.85558 ], [ 81.74197, 16.85491 ], [ 81.74249, 16.8531 ], [ 81.74773, 16.8521 ], [ 81.75124, 16.85276 ], [ 81.7516, 16.85107 ], [ 81.75329, 16.82479 ], [ 81.74913, 16.815 ], [ 81.74656, 16.8113 ], [ 81.74637, 16.80966 ], [ 81.74966, 16.80674 ], [ 81.75009, 16.80543 ], [ 81.74465, 16.79778 ], [ 81.74471, 16.793 ], [ 81.74955, 16.78715 ], [ 81.75612, 16.7734 ], [ 81.76503, 16.76143 ], [ 81.78529, 16.75194 ], [ 81.79031, 16.74631 ], [ 81.79442, 16.7377 ], [ 81.79471, 16.73249 ], [ 81.78927, 16.72385 ], [ 81.7855, 16.71389 ], [ 81.78501, 16.70927 ], [ 81.78709, 16.70619 ], [ 81.80146, 16.69462 ], [ 81.7882, 16.69449 ], [ 81.78781, 16.6928 ], [ 81.78901, 16.68484 ], [ 81.78384, 16.68456 ], [ 81.78018, 16.68219 ], [ 81.76842, 16.68105 ], [ 81.76787, 16.67389 ], [ 81.75866, 16.67412 ], [ 81.76024, 16.68076 ], [ 81.75975, 16.69217 ], [ 81.75692, 16.69849 ], [ 81.75409, 16.69805 ], [ 81.75259, 16.70454 ], [ 81.74941, 16.70489 ], [ 81.75037, 16.71745 ], [ 81.75267, 16.72783 ], [ 81.74832, 16.72875 ], [ 81.74493, 16.73058 ], [ 81.74374, 16.73024 ], [ 81.74189, 16.72764 ], [ 81.73982, 16.72792 ], [ 81.73892, 16.72725 ], [ 81.7368, 16.72421 ], [ 81.73376, 16.72682 ], [ 81.73129, 16.72763 ], [ 81.7204, 16.72879 ], [ 81.72293, 16.74227 ], [ 81.72287, 16.74391 ], [ 81.7216, 16.74487 ], [ 81.7239, 16.75842 ], [ 81.72417, 16.75939 ], [ 81.727, 16.76011 ], [ 81.72605, 16.76381 ], [ 81.72574, 16.77176 ], [ 81.72992, 16.774 ], [ 81.73512, 16.77368 ], [ 81.7356, 16.77778 ], [ 81.73425, 16.79106 ], [ 81.7307, 16.80388 ], [ 81.72627, 16.8142 ], [ 81.72622, 16.8185 ], [ 81.72233, 16.81883 ], [ 81.71755, 16.82106 ], [ 81.71224, 16.82526 ], [ 81.71225, 16.8268 ], [ 81.70979, 16.82905 ], [ 81.71082, 16.83176 ], [ 81.71013, 16.83258 ], [ 81.70544, 16.8341 ], [ 81.69326, 16.83459 ], [ 81.69201, 16.83678 ], [ 81.69248, 16.83829 ], [ 81.69611, 16.84083 ], [ 81.69905, 16.84098 ], [ 81.70043, 16.8422 ], [ 81.70392, 16.84795 ], [ 81.7184, 16.84636 ], [ 81.71527, 16.85137 ], [ 81.71404, 16.85747 ], [ 81.71972, 16.85696 ], [ 81.72313, 16.85983 ], [ 81.73206, 16.85875 ], [ 81.73493, 16.86415 ], [ 81.7366, 16.8639 ] ] ] } },
{ "type": "Feature", "properties": { "OBJECTID": 1048, "state_lgd": "28", "state_name": "ANDHRA PRADESH", "district_lgd": "545", "district_name": "EAST GODAVARI", "district_name_source": "district_table", "subdistrict_lgd": "4907", "subdistrict_name": "RAJAMAHENDRAVARAM RURAL", "subdistrict_type": "Mandal", "name_corrupted": false, "remarks": "", "label_lon": 81.785239468831335, "label_lat": 17.062511620379311 }, "geometry": { "type": "MultiPolygon", "coordinates": [ [ [ [ 81.81802, 17.01203 ], [ 81.82205, 17.01201 ], [ 81.82282, 17.01121 ], [ 81.82501, 17.01098 ], [ 81.82501, 17.00965 ], [ 81.835, 17.0083 ], [ 81.83852, 17.00667 ], [ 81.84148, 17.00653 ], [ 81.84338, 17.00484 ], [ 81.84518, 17.00013 ], [ 81.84532, 16.99498 ], [ 81.84422, 16.99006 ], [ 81.84566, 16.98888 ], [ 81.84489, 16.97754 ], [ 81.84437, 16.97649 ], [ 81.83766, 16.97616 ], [ 81.8363, 16.9737 ], [ 81.83105, 16.97328 ], [ 81.82773, 16.97124 ], [ 81.82613, 16.96687 ], [ 81.82738, 16.96519 ], [ 81.82492, 16.96357 ], [ 81.82463, 16.96173 ], [ 81.83004, 16.95933 ], [ 81.83108, 16.94739 ], [ 81.82845, 16.94681 ], [ 81.82572, 16.94469 ], [ 81.82438, 16.94309 ], [ 81.8236, 16.93975 ], [ 81.81853, 16.94231 ], [ 81.81386, 16.94293 ], [ 81.80892, 16.94513 ], [ 81.80411, 16.94488 ], [ 81.79927, 16.94166 ], [ 81.79443, 16.94161 ], [ 81.79111, 16.93913 ], [ 81.79058, 16.93507 ], [ 81.78687, 16.933 ], [ 81.78325, 16.94001 ], [ 81.77747, 16.9462 ], [ 81.77745, 16.94883 ], [ 81.78248, 16.95687 ], [ 81.78433, 16.9573 ], [ 81.78469, 16.96505 ], [ 81.78846, 16.96489 ], [ 81.7888, 16.97236 ], [ 81.79158, 16.97198 ], [ 81.79161, 16.97258 ], [ 81.79359, 16.97273 ], [ 81.79272, 16.97439 ], [ 81.79475, 16.97636 ], [ 81.79779, 16.97546 ], [ 81.80188, 16.97548 ], [ 81.80585, 16.98051 ], [ 81.80343, 16.98148 ], [ 81.80279, 16.98588 ], [ 81.80528, 16.98674 ], [ 81.80807, 16.99419 ], [ 81.81171, 16.99364 ], [ 81.81464, 17.00103 ], [ 81.81791, 17.00639 ], [ 81.81802, 17.01203 ] ] ], [ [ [ 81.76166, 17.09643 ], [ 81.76797, 17.09561 ], [ 81.77198, 17.09396 ], [ 81.78171, 17.09212 ], [ 81.78806, 17.08845 ], [ 81.78835, 17.08645 ], [ 81.78685, 17.08355 ], [ 81.78711, 17.0821 ], [ 81.78574, 17.07884 ], [ 81.78551, 17.07574 ], [ 81.8045, 17.0726 ], [ 81.81569, 17.06855 ], [ 81.81684, 17.06889 ], [ 81.8192, 17.06794 ], [ 81.82074, 17.06855 ], [ 81.835, 17.06644 ], [ 81.83403, 17.06073 ], [ 81.82395, 17.05502 ], [ 81.81857, 17.05007 ], [ 81.81595, 17.04883 ], [ 81.81139, 17.04303 ], [ 81.81034, 17.03955 ], [ 81.80688, 17.03692 ], [ 81.79662, 17.03655 ], [ 81.78579, 17.039 ], [ 81.78555, 17.03763 ], [ 81.78369, 17.03789 ], [ 81.78307, 17.0355 ], [ 81.78171, 17.03573 ], [ 81.77983, 17.03164 ], [ 81.77657, 17.03092 ], [ 81.77059, 17.0319 ], [ 81.76859, 17.03618 ], [ 81.76389, 17.04187 ], [ 81.76359, 17.04915 ], [ 81.75613, 17.06285 ], [ 81.75078, 17.07759 ], [ 81.75173, 17.08399 ], [ 81.7507, 17.08519 ], [ 81.7535, 17.08755 ], [ 81.75544, 17.08743 ], [ 81.75652, 17.08953 ], [ 81.75512, 17.08978 ], [ 81.7548, 17.09343 ], [ 81.76067, 17.09364 ], [ 81.76154, 17.09453 ], [ 81.76166, 17.09643 ] ] ] ] } },
{ "type": "Feature", "properties": { "OBJECTID": 1049, "state_lgd": "28", "state_name": "ANDHRA PRADESH", "district_lgd": "545", "district_name": "EAST GODAVARI", "district_name_source": "district_table", "subdistrict_lgd": "4906", "subdistrict_name": "RAJAMAHENDRAVARAM URBAN", "subdistrict_type": "Mandal", "name_corrupted": false, "remarks": "", "label_lon": 81.773637841768249, "label_lat": 17.013035742318959 }, "geometry": { "type": "Polygon", "coordinates": [ [ [ 81.75316, 17.07047 ], [ 81.75673, 17.06161 ], [ 81.76359, 17.04915 ], [ 81.76389, 17.04187 ], [ 81.76859, 17.03618 ], [ 81.77059, 17.0319 ], [ 81.77657, 17.03092 ], [ 81.77983, 17.03164 ], [ 81.78171, 17.03573 ], [ 81.78307, 17.0355 ], [ 81.78369, 17.03789 ], [ 81.78555, 17.03763 ], [ 81.78579, 17.039 ], [ 81.79559, 17.03666 ], [ 81.80529, 17.03658 ], [ 81.81383, 17.03746 ], [ 81.81611, 17.04102 ], [ 81.82133, 17.03982 ], [ 81.82703, 17.03509 ], [ 81.83371, 17.03133 ], [ 81.8407, 17.0333 ], [ 81.83712, 17.02613 ], [ 81.83476, 17.02543 ], [ 81.83503, 17.02456 ], [ 81.83595, 17.02471 ], [ 81.83501, 17.02019 ], [ 81.83352, 17.01977 ], [ 81.8329, 17.00855 ], [ 81.82501, 17.00965 ], [ 81.82501, 17.01098 ], [ 81.82282, 17.01121 ], [ 81.82205, 17.01201 ], [ 81.81814, 17.01218 ], [ 81.81791, 17.00639 ], [ 81.81464, 17.00103 ], [ 81.81227, 16.99454 ], [ 81.81171, 16.99364 ], [ 81.80807, 16.99419 ], [ 81.80528, 16.98674 ], [ 81.80279, 16.98588 ], [ 81.80343, 16.98148 ], [ 81.80585, 16.98051 ], [ 81.80188, 16.97548 ], [ 81.79779, 16.97546 ], [ 81.79475, 16.97636 ], [ 81.79272, 16.97439 ], [ 81.79359, 16.97273 ], [ 81.79161, 16.97258 ], [ 81.79158, 16.97198 ], [ 81.7888, 16.97236 ], [ 81.78846, 16.96489 ], [ 81.78469, 16.96505 ], [ 81.78433, 16.9573 ], [ 81.78248, 16.95687 ], [ 81.78277, 16.9656 ], [ 81.75254, 16.96241 ], [ 81.74998, 16.96282 ], [ 81.74206, 16.96081 ], [ 81.74486, 16.96516 ], [ 81.74544, 16.97637 ], [ 81.74252, 17.00699 ], [ 81.73995, 17.01437 ], [ 81.73811, 17.01609 ], [ 81.73483, 17.01695 ], [ 81.73111, 17.0207 ], [ 81.73132, 17.02324 ], [ 81.73001, 17.02416 ], [ 81.72912, 17.0281 ], [ 81.72419, 17.03711 ], [ 81.72443, 17.04502 ], [ 81.72166, 17.05413 ], [ 81.73555, 17.06252 ], [ 81.74831, 17.06885 ], [ 81.75316, 17.07047 ] ] ] } },
{ "type": "Feature", "properties": { "OBJECTID": 1051, "state_lgd": "28", "state_name": "ANDHRA PRADESH", "district_lgd": "545", "district_name": "EAST GODAVARI", "district_name_source": "district_table", "subdistrict_lgd": "4908", "subdistrict_name": "RAJANAGARAM", "subdistrict_type": "Mandal", "name_corrupted": false, "remarks": "", "label_lon": 81.887996198588553, "label_lat": 17.033941621478601 }, "geometry": { "type": "Polygon", "coordinates": [ [ [ 81.91233, 17.14232 ], [ 81.91112, 17.13424 ], [ 81.91685, 17.12987 ], [ 81.91833, 17.12743 ], [ 81.91872, 17.11723 ], [ 81.92017, 17.11101 ], [ 81.92485, 17.10298 ], [ 81.92475, 17.09813 ], [ 81.921, 17.09459 ], [ 81.91746, 17.08899 ], [ 81.91719, 17.08594 ], [ 81.91842, 17.08256 ], [ 81.91779, 17.08032 ], [ 81.91704, 17.07913 ], [ 81.91495, 17.07881 ], [ 81.91527, 17.0751 ], [ 81.91446, 17.07233 ], [ 81.91586, 17.06698 ], [ 81.91719, 17.06528 ], [ 81.91669, 17.06343 ], [ 81.91834, 17.0578 ], [ 81.92025, 17.05832 ], [ 81.91993, 17.06107 ], [ 81.92275, 17.06249 ], [ 81.92262, 17.06544 ], [ 81.92424, 17.06572 ], [ 81.92517, 17.06698 ], [ 81.92776, 17.06624 ], [ 81.92901, 17.06909 ], [ 81.92707, 17.07269 ], [ 81.92692, 17.07876 ], [ 81.9292, 17.08007 ], [ 81.93046, 17.07929 ], [ 81.93083, 17.07755 ], [ 81.93193, 17.07736 ], [ 81.93267, 17.07546 ], [ 81.93535, 17.07689 ], [ 81.93774, 17.07599 ], [ 81.93815, 17.07498 ], [ 81.9423, 17.07452 ], [ 81.94223, 17.07215 ], [ 81.94313, 17.07142 ], [ 81.94981, 17.0707 ], [ 81.94976, 17.06899 ], [ 81.95081, 17.0686 ], [ 81.95023, 17.0633 ], [ 81.95424, 17.06127 ], [ 81.95421, 17.05824 ], [ 81.95927, 17.0586 ], [ 81.95999, 17.05838 ], [ 81.9602, 17.0567 ], [ 81.96232, 17.05656 ], [ 81.96155, 17.04835 ], [ 81.9606, 17.04747 ], [ 81.95952, 17.04665 ], [ 81.95734, 17.04738 ], [ 81.95486, 17.04599 ], [ 81.94893, 17.04488 ], [ 81.94659, 17.04517 ], [ 81.94509, 17.04448 ], [ 81.943, 17.04537 ], [ 81.94216, 17.04405 ], [ 81.94074, 17.044 ], [ 81.9371, 17.04121 ], [ 81.93667, 17.04009 ], [ 81.93443, 17.03984 ], [ 81.93092, 17.03638 ], [ 81.93019, 17.03652 ], [ 81.93011, 17.03273 ], [ 81.92663, 17.02599 ], [ 81.92818, 17.02592 ], [ 81.92802, 17.02477 ], [ 81.93459, 17.02386 ], [ 81.93526, 17.02285 ], [ 81.93885, 17.02161 ], [ 81.93948, 17.01781 ], [ 81.94711, 17.01487 ], [ 81.94656, 17.01308 ], [ 81.94957, 17.01054 ], [ 81.95437, 16.99686 ], [ 81.95872, 16.99329 ], [ 81.96312, 16.99262 ], [ 81.968, 16.98899 ], [ 81.97333, 16.98991 ], [ 81.97862, 16.98951 ], [ 81.98261, 16.99062 ], [ 81.98119, 16.98765 ], [ 81.983, 16.98695 ], [ 81.97878, 16.98353 ], [ 81.97799, 16.97966 ], [ 81.97148, 16.98009 ], [ 81.96979, 16.97851 ], [ 81.96763, 16.97991 ], [ 81.96611, 16.97879 ], [ 81.9651, 16.97742 ], [ 81.96615, 16.97263 ], [ 81.96348, 16.9771 ], [ 81.95924, 16.97602 ], [ 81.95813, 16.97431 ], [ 81.95612, 16.97426 ], [ 81.95513, 16.97346 ], [ 81.95186, 16.97292 ], [ 81.94806, 16.97394 ], [ 81.94612, 16.97187 ], [ 81.93869, 16.96833 ], [ 81.93863, 16.96604 ], [ 81.93434, 16.96537 ], [ 81.93143, 16.96609 ], [ 81.93094, 16.97255 ], [ 81.92867, 16.9712 ], [ 81.92647, 16.96768 ], [ 81.92103, 16.96842 ], [ 81.91819, 16.96977 ], [ 81.91755, 16.97087 ], [ 81.9202, 16.98032 ], [ 81.91761, 16.98063 ], [ 81.91454, 16.971 ], [ 81.91466, 16.96703 ], [ 81.9116, 16.96675 ], [ 81.9057, 16.96158 ], [ 81.90533, 16.95671 ], [ 81.90369, 16.9539 ], [ 81.90354, 16.94892 ], [ 81.88678, 16.95138 ], [ 81.88308, 16.94744 ], [ 81.88308, 16.94633 ], [ 81.8801, 16.94488 ], [ 81.87524, 16.9434 ], [ 81.87197, 16.94358 ], [ 81.87085, 16.94234 ], [ 81.86273, 16.94186 ], [ 81.86154, 16.93984 ], [ 81.86128, 16.93551 ], [ 81.85968, 16.93462 ], [ 81.85628, 16.93022 ], [ 81.84312, 16.9285 ], [ 81.83916, 16.92842 ], [ 81.83656, 16.92957 ], [ 81.83309, 16.92844 ], [ 81.83161, 16.93313 ], [ 81.82844, 16.93692 ], [ 81.82662, 16.9386 ], [ 81.8236, 16.93975 ], [ 81.82438, 16.94309 ], [ 81.82572, 16.94469 ], [ 81.82845, 16.94681 ], [ 81.83108, 16.94739 ], [ 81.83004, 16.95933 ], [ 81.82463, 16.96173 ], [ 81.82492, 16.96357 ], [ 81.82738, 16.96519 ], [ 81.82613, 16.96687 ], [ 81.82849, 16.97185 ], [ 81.83238, 16.9736 ], [ 81.8363, 16.9737 ], [ 81.83766, 16.97616 ], [ 81.84437, 16.97649 ], [ 81.84489, 16.97754 ], [ 81.84566, 16.98888 ], [ 81.84423, 16.98974 ], [ 81.84532, 16.99498 ], [ 81.84518, 17.00013 ], [ 81.84401, 17.00338 ], [ 81.84148, 17.00653 ], [ 81.83852, 17.00667 ], [ 81.83634, 17.008 ], [ 81.8329, 17.00855 ], [ 81.83352, 17.01977 ], [ 81.83501, 17.02019 ], [ 81.83595, 17.02471 ], [ 81.83503, 17.02456 ], [ 81.83476, 17.02543 ], [ 81.83712, 17.02613 ], [ 81.8407, 17.0333 ], [ 81.83371, 17.03133 ], [ 81.82703, 17.03509 ], [ 81.82133, 17.03982 ], [ 81.81721, 17.0409 ], [ 81.81611, 17.04102 ], [ 81.81383, 17.03746 ], [ 81.80688, 17.03692 ], [ 81.81034, 17.03955 ], [ 81.81139, 17.04303 ], [ 81.81595, 17.04883 ], [ 81.81857, 17.05007 ], [ 81.82395, 17.05502 ], [ 81.83403, 17.06073 ], [ 81.83534, 17.0676 ], [ 81.83453, 17.07352 ], [ 81.8347, 17.0797 ], [ 81.83815, 17.07984 ], [ 81.84741, 17.07655 ], [ 81.84973, 17.07723 ], [ 81.8514, 17.07577 ], [ 81.85333, 17.07708 ], [ 81.85439, 17.07995 ], [ 81.85454, 17.08531 ], [ 81.8564, 17.08631 ], [ 81.85547, 17.08936 ], [ 81.85611, 17.09542 ], [ 81.85365, 17.0976 ], [ 81.85387, 17.10389 ], [ 81.85205, 17.10576 ], [ 81.85211, 17.10995 ], [ 81.84976, 17.11161 ], [ 81.84954, 17.1127 ], [ 81.85262, 17.11335 ], [ 81.85931, 17.12149 ], [ 81.86209, 17.12646 ], [ 81.86584, 17.12876 ], [ 81.87529, 17.13691 ], [ 81.88253, 17.14066 ], [ 81.88591, 17.14331 ], [ 81.88706, 17.14264 ], [ 81.89445, 17.14313 ], [ 81.89738, 17.15138 ], [ 81.90254, 17.15633 ], [ 81.90001, 17.16597 ], [ 81.90355, 17.17097 ], [ 81.90563, 17.17218 ], [ 81.90944, 17.17282 ], [ 81.91091, 17.17219 ], [ 81.90892, 17.16406 ], [ 81.91395, 17.15782 ], [ 81.91456, 17.14663 ], [ 81.91588, 17.14304 ], [ 81.91233, 17.14232 ] ] ] } },
{ "type": "Feature", "properties": { "OBJECTID": 1065, "state_lgd": "28", "state_name": "ANDHRA PRADESH", "district_lgd": "545", "district_name": "EAST GODAVARI", "district_name_source": "district_table", "subdistrict_lgd": "4909", "subdistrict_name": "RANGAMPETA", "subdistrict_type": "Mandal", "name_corrupted": false, "remarks": "", "label_lon": 81.990484980632971, "label_lat": 17.054162393949515 }, "geometry": { "type": "Polygon", "coordinates": [ [ [ 81.99251, 17.11833 ], [ 82.00105, 17.11905 ], [ 82.02087, 17.10424 ], [ 82.03675, 17.09838 ], [ 82.04045, 17.09322 ], [ 82.04654, 17.09133 ], [ 82.04694, 17.08872 ], [ 82.04606, 17.08642 ], [ 82.04674, 17.08265 ], [ 82.04557, 17.07772 ], [ 82.04757, 17.07417 ], [ 82.04525, 17.07152 ], [ 82.04289, 17.07015 ], [ 82.03891, 17.06928 ], [ 82.03681, 17.06447 ], [ 82.0311, 17.06385 ], [ 82.03298, 17.05689 ], [ 82.03395, 17.04885 ], [ 82.03226, 17.04569 ], [ 82.03243, 17.03948 ], [ 82.03074, 17.03794 ], [ 82.03292, 17.03619 ], [ 82.04222, 17.04105 ], [ 82.04261, 17.03922 ], [ 82.05771, 17.03995 ], [ 82.06141, 17.0393 ], [ 82.06256, 17.03946 ], [ 82.06327, 17.04099 ], [ 82.07143, 17.04132 ], [ 82.07453, 17.04224 ], [ 82.07712, 17.03891 ], [ 82.07813, 17.03167 ], [ 82.07619, 17.0271 ], [ 82.07344, 17.02647 ], [ 82.07133, 17.02446 ], [ 82.07144, 17.02283 ], [ 82.06921, 17.02242 ], [ 82.0677, 17.01341 ], [ 82.06389, 17.01342 ], [ 82.06302, 17.01221 ], [ 82.05592, 17.01177 ], [ 82.05382, 17.01096 ], [ 82.0473, 17.01221 ], [ 82.04278, 17.00885 ], [ 82.04032, 17.00937 ], [ 82.04116, 17.01281 ], [ 82.04256, 17.01336 ], [ 82.04291, 17.01832 ], [ 82.03958, 17.02317 ], [ 82.03945, 17.02661 ], [ 82.03706, 17.02794 ], [ 82.03333, 17.02517 ], [ 82.03316, 17.02245 ], [ 82.03257, 17.02246 ], [ 82.03205, 17.02017 ], [ 82.02853, 17.01659 ], [ 82.02951, 16.99768 ], [ 82.02894, 16.99671 ], [ 82.03044, 16.99736 ], [ 82.03125, 16.99624 ], [ 82.03057, 16.99564 ], [ 82.03105, 16.99494 ], [ 82.02321, 16.99198 ], [ 82.01535, 16.99354 ], [ 82.00673, 16.99789 ], [ 81.99787, 16.99708 ], [ 81.9964, 16.99308 ], [ 81.99729, 16.99073 ], [ 81.99677, 16.98725 ], [ 81.99786, 16.98126 ], [ 81.9945, 16.97914 ], [ 81.98407, 16.98325 ], [ 81.98307, 16.98474 ], [ 81.983, 16.98695 ], [ 81.98119, 16.98765 ], [ 81.98261, 16.99062 ], [ 81.97862, 16.98951 ], [ 81.97333, 16.98991 ], [ 81.968, 16.98899 ], [ 81.96312, 16.99262 ], [ 81.95872, 16.99329 ], [ 81.95437, 16.99686 ], [ 81.94957, 17.01054 ], [ 81.94656, 17.01308 ], [ 81.94711, 17.01487 ], [ 81.93948, 17.01781 ], [ 81.93885, 17.02161 ], [ 81.93526, 17.02285 ], [ 81.93459, 17.02386 ], [ 81.92802, 17.02477 ], [ 81.92818, 17.02592 ], [ 81.92663, 17.02599 ], [ 81.93011, 17.03273 ], [ 81.93019, 17.03652 ], [ 81.93092, 17.03638 ], [ 81.93443, 17.03984 ], [ 81.93667, 17.04009 ], [ 81.9371, 17.04121 ], [ 81.94074, 17.044 ], [ 81.94216, 17.04405 ], [ 81.943, 17.04537 ], [ 81.94509, 17.04448 ], [ 81.94659, 17.04517 ], [ 81.94893, 17.04488 ], [ 81.95486, 17.04599 ], [ 81.95734, 17.04738 ], [ 81.95952, 17.04665 ], [ 81.9606, 17.04747 ], [ 81.96155, 17.04835 ], [ 81.96232, 17.05656 ], [ 81.9602, 17.0567 ], [ 81.95999, 17.05838 ], [ 81.95927, 17.0586 ], [ 81.95421, 17.05824 ], [ 81.95424, 17.06127 ], [ 81.95023, 17.0633 ], [ 81.95081, 17.0686 ], [ 81.94976, 17.06899 ], [ 81.94981, 17.0707 ], [ 81.94313, 17.07142 ], [ 81.94223, 17.07215 ], [ 81.9423, 17.07452 ], [ 81.93815, 17.07498 ], [ 81.93774, 17.07599 ], [ 81.93535, 17.07689 ], [ 81.93267, 17.07546 ], [ 81.93193, 17.07736 ], [ 81.93083, 17.07755 ], [ 81.93046, 17.07929 ], [ 81.9292, 17.08007 ], [ 81.92692, 17.07876 ], [ 81.92707, 17.07269 ], [ 81.92901, 17.06909 ], [ 81.92776, 17.06624 ], [ 81.92517, 17.06698 ], [ 81.92424, 17.06572 ], [ 81.92262, 17.06544 ], [ 81.92275, 17.06249 ], [ 81.91993, 17.06107 ], [ 81.92025, 17.05832 ], [ 81.91834, 17.0578 ], [ 81.91669, 17.06343 ], [ 81.91719, 17.06528 ], [ 81.91586, 17.06698 ], [ 81.91446, 17.07233 ], [ 81.91527, 17.0751 ], [ 81.91495, 17.07881 ], [ 81.91737, 17.07936 ], [ 81.9183, 17.08174 ], [ 81.91719, 17.08594 ], [ 81.91746, 17.08899 ], [ 81.921, 17.09459 ], [ 81.92457, 17.09782 ], [ 81.92485, 17.10298 ], [ 81.92696, 17.10468 ], [ 81.93463, 17.10467 ], [ 81.93586, 17.10401 ], [ 81.93626, 17.10484 ], [ 81.93964, 17.10474 ], [ 81.94094, 17.10787 ], [ 81.94181, 17.10784 ], [ 81.94187, 17.10945 ], [ 81.94643, 17.10921 ], [ 81.9468, 17.1102 ], [ 81.95078, 17.11055 ], [ 81.95291, 17.11438 ], [ 81.95278, 17.11582 ], [ 81.95688, 17.11698 ], [ 81.95803, 17.11828 ], [ 81.96095, 17.11769 ], [ 81.97342, 17.11848 ], [ 81.98178, 17.12052 ], [ 81.99251, 17.11833 ] ] ] } },
{ "type": "Feature", "properties": { "OBJECTID": 1107, "state_lgd": "28", "state_name": "ANDHRA PRADESH", "district_lgd": "545", "district_name": "EAST GODAVARI", "district_name_source": "district_table", "subdistrict_lgd": "04896", "subdistrict_name": "SEETHANAGARAM", "subdistrict_type": "Mandal", "name_corrupted": false, "remarks": "", "label_lon": 81.710426464233336, "label_lat": 17.163050712853071 }, "geometry": { "type": "Polygon", "coordinates": [ [ [ 81.68243, 17.27227 ], [ 81.68561, 17.27317 ], [ 81.68666, 17.27057 ], [ 81.68636, 17.26497 ], [ 81.68118, 17.2587 ], [ 81.6801, 17.25494 ], [ 81.68092, 17.251 ], [ 81.68402, 17.24854 ], [ 81.68571, 17.24001 ], [ 81.68413, 17.23725 ], [ 81.68102, 17.23527 ], [ 81.68092, 17.23406 ], [ 81.68184, 17.23315 ], [ 81.68649, 17.23122 ], [ 81.69312, 17.23003 ], [ 81.69686, 17.23173 ], [ 81.70208, 17.232 ], [ 81.70365, 17.22948 ], [ 81.70938, 17.2247 ], [ 81.71944, 17.22228 ], [ 81.71906, 17.2338 ], [ 81.72148, 17.2347 ], [ 81.72972, 17.23376 ], [ 81.73862, 17.23608 ], [ 81.74071, 17.23545 ], [ 81.74284, 17.23712 ], [ 81.74394, 17.23915 ], [ 81.75151, 17.23858 ], [ 81.75167, 17.23554 ], [ 81.7536, 17.23407 ], [ 81.75194, 17.23271 ], [ 81.75199, 17.22882 ], [ 81.75752, 17.22828 ], [ 81.75571, 17.22289 ], [ 81.75625, 17.22192 ], [ 81.76138, 17.22319 ], [ 81.75862, 17.2179 ], [ 81.7574, 17.2178 ], [ 81.75487, 17.21268 ], [ 81.75469, 17.21142 ], [ 81.75654, 17.21047 ], [ 81.75768, 17.20721 ], [ 81.75617, 17.20615 ], [ 81.7529, 17.20135 ], [ 81.75279, 17.19724 ], [ 81.75445, 17.19548 ], [ 81.75628, 17.19519 ], [ 81.76357, 17.19903 ], [ 81.76757, 17.19854 ], [ 81.76886, 17.19068 ], [ 81.76767, 17.18865 ], [ 81.76584, 17.18783 ], [ 81.76433, 17.18596 ], [ 81.762, 17.18154 ], [ 81.7613, 17.18183 ], [ 81.76058, 17.18034 ], [ 81.75974, 17.18047 ], [ 81.75905, 17.1778 ], [ 81.75777, 17.1756 ], [ 81.75709, 17.17567 ], [ 81.75674, 17.17413 ], [ 81.75675, 17.16659 ], [ 81.76034, 17.16623 ], [ 81.76302, 17.16427 ], [ 81.7632, 17.16062 ], [ 81.76423, 17.16081 ], [ 81.76565, 17.15975 ], [ 81.76569, 17.15729 ], [ 81.76683, 17.15628 ], [ 81.76635, 17.1523 ], [ 81.76485, 17.15014 ], [ 81.76689, 17.14624 ], [ 81.7664, 17.14241 ], [ 81.76496, 17.14229 ], [ 81.7649, 17.14045 ], [ 81.7638, 17.1393 ], [ 81.7621, 17.14006 ], [ 81.76073, 17.13948 ], [ 81.76168, 17.13859 ], [ 81.76166, 17.13718 ], [ 81.76294, 17.13709 ], [ 81.7631, 17.13501 ], [ 81.76538, 17.1341 ], [ 81.76714, 17.13231 ], [ 81.76721, 17.13116 ], [ 81.77063, 17.13185 ], [ 81.77267, 17.12953 ], [ 81.77572, 17.12931 ], [ 81.77921, 17.12793 ], [ 81.77967, 17.12906 ], [ 81.78111, 17.12945 ], [ 81.78072, 17.12805 ], [ 81.78155, 17.12741 ], [ 81.78138, 17.12623 ], [ 81.78295, 17.12639 ], [ 81.78189, 17.12564 ], [ 81.78296, 17.12554 ], [ 81.7798, 17.10849 ], [ 81.78119, 17.0985 ], [ 81.7822, 17.09698 ], [ 81.78171, 17.09212 ], [ 81.76356, 17.09649 ], [ 81.76166, 17.09643 ], [ 81.76154, 17.09453 ], [ 81.76067, 17.09364 ], [ 81.7548, 17.09343 ], [ 81.75512, 17.08978 ], [ 81.75652, 17.08953 ], [ 81.75627, 17.08868 ], [ 81.75544, 17.08743 ], [ 81.7535, 17.08755 ], [ 81.7507, 17.08519 ], [ 81.75173, 17.08399 ], [ 81.75091, 17.08131 ], [ 81.75091, 17.07631 ], [ 81.75316, 17.07047 ], [ 81.74831, 17.06885 ], [ 81.73626, 17.0629 ], [ 81.72166, 17.05413 ], [ 81.71863, 17.05965 ], [ 81.71095, 17.06733 ], [ 81.70905, 17.07071 ], [ 81.70365, 17.07629 ], [ 81.69704, 17.0855 ], [ 81.68608, 17.09267 ], [ 81.68071, 17.09477 ], [ 81.67714, 17.10301 ], [ 81.67581, 17.10914 ], [ 81.67574, 17.11485 ], [ 81.67458, 17.11843 ], [ 81.66962, 17.12361 ], [ 81.6689, 17.12659 ], [ 81.66555, 17.13114 ], [ 81.66478, 17.13353 ], [ 81.66339, 17.14104 ], [ 81.66353, 17.15295 ], [ 81.65812, 17.17055 ], [ 81.65253, 17.18519 ], [ 81.64605, 17.19392 ], [ 81.64643, 17.19459 ], [ 81.64066, 17.20726 ], [ 81.64212, 17.21393 ], [ 81.64163, 17.23006 ], [ 81.6554, 17.24948 ], [ 81.65519, 17.25374 ], [ 81.6565, 17.25992 ], [ 81.65677, 17.26649 ], [ 81.65937, 17.27389 ], [ 81.66289, 17.27478 ], [ 81.67232, 17.27457 ], [ 81.68243, 17.27227 ] ] ] } },
{ "type": "Feature", "properties": { "OBJECTID": 1146, "state_lgd": "28", "state_name": "ANDHRA PRADESH", "district_lgd": "545", "district_name": "EAST GODAVARI", "district_name_source": "district_table", "subdistrict_lgd": "4950", "subdistrict_name": "THALLAPUDI", "subdistrict_type": "Mandal", "name_corrupted": false, "remarks": "", "label_lon": 81.637950455230126, "label_lat": 17.116334772604297 }, "geometry": { "type": "Polygon", "coordinates": [ [ [ 81.62286, 17.17521 ], [ 81.62821, 17.17442 ], [ 81.6433, 17.16834 ], [ 81.64671, 17.16816 ], [ 81.64859, 17.16605 ], [ 81.6511, 17.16956 ], [ 81.6537, 17.1692 ], [ 81.65824, 17.17013 ], [ 81.66353, 17.15295 ], [ 81.66339, 17.14104 ], [ 81.66478, 17.13353 ], [ 81.66555, 17.13114 ], [ 81.6689, 17.12659 ], [ 81.66962, 17.12361 ], [ 81.67414, 17.11924 ], [ 81.67574, 17.11485 ], [ 81.67581, 17.10914 ], [ 81.67714, 17.10301 ], [ 81.68046, 17.09536 ], [ 81.67882, 17.09252 ], [ 81.67823, 17.08958 ], [ 81.68549, 17.08407 ], [ 81.68384, 17.07759 ], [ 81.68457, 17.07291 ], [ 81.68417, 17.06727 ], [ 81.67446, 17.06678 ], [ 81.67279, 17.06042 ], [ 81.67373, 17.05317 ], [ 81.66272, 17.05526 ], [ 81.6557, 17.0537 ], [ 81.63942, 17.05384 ], [ 81.63377, 17.05207 ], [ 81.63164, 17.05749 ], [ 81.63166, 17.06309 ], [ 81.62873, 17.06679 ], [ 81.62838, 17.07216 ], [ 81.6239, 17.07315 ], [ 81.61811, 17.07315 ], [ 81.61442, 17.07471 ], [ 81.61148, 17.07472 ], [ 81.61006, 17.07515 ], [ 81.6088, 17.07726 ], [ 81.61168, 17.08018 ], [ 81.62722, 17.07983 ], [ 81.62695, 17.08516 ], [ 81.6279, 17.09004 ], [ 81.62985, 17.0906 ], [ 81.63047, 17.09778 ], [ 81.62364, 17.09995 ], [ 81.62185, 17.09861 ], [ 81.61946, 17.09895 ], [ 81.61631, 17.09754 ], [ 81.61417, 17.09879 ], [ 81.60909, 17.09944 ], [ 81.61014, 17.10376 ], [ 81.6121, 17.1062 ], [ 81.6105, 17.10828 ], [ 81.61537, 17.11423 ], [ 81.61288, 17.11496 ], [ 81.61182, 17.11744 ], [ 81.60711, 17.11708 ], [ 81.60265, 17.11833 ], [ 81.60109, 17.11783 ], [ 81.5892, 17.1213 ], [ 81.58631, 17.1263 ], [ 81.58671, 17.13235 ], [ 81.58333, 17.13668 ], [ 81.58269, 17.14256 ], [ 81.58446, 17.14881 ], [ 81.58848, 17.15333 ], [ 81.5909, 17.15377 ], [ 81.59236, 17.15585 ], [ 81.5925, 17.15703 ], [ 81.58922, 17.1572 ], [ 81.59189, 17.15961 ], [ 81.60002, 17.16157 ], [ 81.60413, 17.16378 ], [ 81.60658, 17.16645 ], [ 81.61339, 17.16919 ], [ 81.6185, 17.17681 ], [ 81.62286, 17.17521 ] ] ] } },
{ "type": "Feature", "properties": { "OBJECTID": 1165, "state_lgd": "28", "state_name": "ANDHRA PRADESH", "district_lgd": "545", "district_name": "EAST GODAVARI", "district_name_source": "district_table", "subdistrict_lgd": "4970", "subdistrict_name": "UNDRAJAVARAM", "subdistrict_type": "Mandal", "name_corrupted": false, "remarks": "", "label_lon": 81.68308040487625, "label_lat": 16.806928339090767 }, "geometry": { "type": "Polygon", "coordinates": [ [ [ 81.68626, 16.8627 ], [ 81.69384, 16.86215 ], [ 81.69594, 16.86052 ], [ 81.70112, 16.85855 ], [ 81.70111, 16.85644 ], [ 81.70353, 16.85509 ], [ 81.70464, 16.85148 ], [ 81.70392, 16.84795 ], [ 81.70043, 16.8422 ], [ 81.69905, 16.84098 ], [ 81.69611, 16.84083 ], [ 81.69248, 16.83829 ], [ 81.69201, 16.83678 ], [ 81.69326, 16.83459 ], [ 81.70544, 16.8341 ], [ 81.71013, 16.83258 ], [ 81.71082, 16.83176 ], [ 81.70979, 16.82905 ], [ 81.71225, 16.8268 ], [ 81.71224, 16.82526 ], [ 81.71755, 16.82106 ], [ 81.72233, 16.81883 ], [ 81.72622, 16.8185 ], [ 81.72627, 16.8142 ], [ 81.73195, 16.79978 ], [ 81.73497, 16.78684 ], [ 81.7356, 16.77778 ], [ 81.73512, 16.77368 ], [ 81.72992, 16.774 ], [ 81.72398, 16.77077 ], [ 81.72033, 16.77062 ], [ 81.72134, 16.76439 ], [ 81.70992, 16.76591 ], [ 81.70506, 16.76473 ], [ 81.69772, 16.76586 ], [ 81.69603, 16.76687 ], [ 81.6953, 16.76477 ], [ 81.6936, 16.76424 ], [ 81.69198, 16.76438 ], [ 81.69192, 16.76599 ], [ 81.6899, 16.76665 ], [ 81.68764, 16.76109 ], [ 81.68588, 16.76168 ], [ 81.6861, 16.76677 ], [ 81.68212, 16.76741 ], [ 81.68162, 16.76396 ], [ 81.68031, 16.7613 ], [ 81.67879, 16.76202 ], [ 81.67657, 16.76483 ], [ 81.67685, 16.76586 ], [ 81.67588, 16.76787 ], [ 81.67428, 16.76861 ], [ 81.67414, 16.76653 ], [ 81.66988, 16.76663 ], [ 81.66837, 16.7745 ], [ 81.65667, 16.77545 ], [ 81.64522, 16.7785 ], [ 81.64588, 16.7842 ], [ 81.64414, 16.78563 ], [ 81.6417, 16.78494 ], [ 81.63648, 16.78542 ], [ 81.63653, 16.78879 ], [ 81.63135, 16.7902 ], [ 81.62942, 16.79458 ], [ 81.62497, 16.79544 ], [ 81.63216, 16.80224 ], [ 81.63629, 16.8143 ], [ 81.63886, 16.82642 ], [ 81.64002, 16.82839 ], [ 81.64199, 16.83049 ], [ 81.64847, 16.83241 ], [ 81.65232, 16.83783 ], [ 81.65369, 16.84439 ], [ 81.65242, 16.8468 ], [ 81.65438, 16.84686 ], [ 81.65634, 16.85134 ], [ 81.65859, 16.85297 ], [ 81.66443, 16.85251 ], [ 81.67646, 16.85384 ], [ 81.68016, 16.85338 ], [ 81.68626, 16.8627 ] ] ] } }
]
}
