{
"type": "FeatureCollection",
"name": "546_WEST_GODAVARI",
"crs": { "type": "name", "properties": { "name": "urn:ogc:def:crs:OGC:1.3:CRS84" } },
"xy_coordinate_resolution": 1e-05,
"features": [
{ "type": "Feature", "properties": { "OBJECTID": 545, "state_lgd": "28", "state_name": "ANDHRA PRADESH", "district_lgd": "546", "district_name": "WEST GODAVARI", "district_name_source": "district_table", "subdistrict_lgd": "4981", "subdistrict_name": "ACHANTA", "subdistrict_type": "Mandal", "name_corrupted": false, "remarks": "", "label_lon": 81.818369363486084, "label_lat": 16.586141177703897 }, "geometry": { "type": "Polygon", "coordinates": [ [ [ 81.84953, 16.62725 ], [ 81.85708, 16.61104 ], [ 81.85837, 16.59606 ], [ 81.85529, 16.58 ], [ 81.85401, 16.55904 ], [ 81.85169, 16.54753 ], [ 81.8479, 16.53936 ], [ 81.84648, 16.53442 ], [ 81.84344, 16.53934 ], [ 81.83499, 16.53711 ], [ 81.83352, 16.53915 ], [ 81.83199, 16.53844 ], [ 81.82308, 16.53892 ], [ 81.82202, 16.53597 ], [ 81.81752, 16.53534 ], [ 81.8188, 16.54008 ], [ 81.82063, 16.54318 ], [ 81.82025, 16.55019 ], [ 81.81909, 16.55087 ], [ 81.81892, 16.55194 ], [ 81.80809, 16.55447 ], [ 81.79957, 16.55543 ], [ 81.79479, 16.55731 ], [ 81.79201, 16.55634 ], [ 81.79055, 16.55961 ], [ 81.79318, 16.56418 ], [ 81.7922, 16.56713 ], [ 81.7892, 16.56908 ], [ 81.78803, 16.56559 ], [ 81.78492, 16.56423 ], [ 81.7797, 16.56874 ], [ 81.77644, 16.5733 ], [ 81.77564, 16.57575 ], [ 81.77603, 16.5778 ], [ 81.77778, 16.5786 ], [ 81.77984, 16.57761 ], [ 81.77961, 16.57957 ], [ 81.783, 16.5821 ], [ 81.78364, 16.58381 ], [ 81.78089, 16.58573 ], [ 81.7819, 16.58636 ], [ 81.78207, 16.58797 ], [ 81.77563, 16.58971 ], [ 81.77595, 16.59831 ], [ 81.77436, 16.60237 ], [ 81.77507, 16.60971 ], [ 81.77148, 16.61186 ], [ 81.76949, 16.61428 ], [ 81.76914, 16.61637 ], [ 81.76699, 16.61781 ], [ 81.76724, 16.62135 ], [ 81.76886, 16.62271 ], [ 81.76747, 16.62629 ], [ 81.77227, 16.62466 ], [ 81.77558, 16.62442 ], [ 81.77859, 16.623 ], [ 81.79077, 16.62163 ], [ 81.80168, 16.62196 ], [ 81.80272, 16.62289 ], [ 81.80478, 16.62298 ], [ 81.81268, 16.62018 ], [ 81.81782, 16.62144 ], [ 81.82567, 16.61842 ], [ 81.83197, 16.61994 ], [ 81.84525, 16.61881 ], [ 81.84638, 16.62359 ], [ 81.84569, 16.62541 ], [ 81.84557, 16.63191 ], [ 81.84674, 16.63522 ], [ 81.84953, 16.62725 ] ] ] } },
{ "type": "Feature", "properties": { "OBJECTID": 553, "state_lgd": "28", "state_name": "ANDHRA PRADESH", "district_lgd": "546", "district_name": "WEST GODAVARI", "district_name_source": "district_table", "subdistrict_lgd": "4975", "subdistrict_name": "AKIVIDU", "subdistrict_type": "Mandal", "name_corrupted": false, "remarks": "", "label_lon": 81.378196644154656, "label_lat": 16.614651298750012 }, "geometry": { "type": "Polygon", "coordinates": [ [ [ 81.44407, 16.66386 ], [ 81.44537, 16.65406 ], [ 81.44364, 16.65179 ], [ 81.44318, 16.64865 ], [ 81.43979, 16.64403 ], [ 81.43615, 16.64262 ], [ 81.43447, 16.63986 ], [ 81.43576, 16.63679 ], [ 81.43404, 16.62817 ], [ 81.43112, 16.6292 ], [ 81.42662, 16.62725 ], [ 81.42077, 16.62778 ], [ 81.41958, 16.62501 ], [ 81.42163, 16.61581 ], [ 81.41992, 16.61405 ], [ 81.41703, 16.61459 ], [ 81.4161, 16.61358 ], [ 81.41605, 16.61135 ], [ 81.41118, 16.60026 ], [ 81.41375, 16.59904 ], [ 81.41038, 16.59055 ], [ 81.40958, 16.58473 ], [ 81.40623, 16.58453 ], [ 81.40581, 16.58389 ], [ 81.40763, 16.57518 ], [ 81.40646, 16.57272 ], [ 81.40964, 16.57124 ], [ 81.40976, 16.56905 ], [ 81.40774, 16.56445 ], [ 81.40466, 16.56138 ], [ 81.39999, 16.55047 ], [ 81.3982, 16.5479 ], [ 81.39392, 16.55159 ], [ 81.39076, 16.55121 ], [ 81.37309, 16.55261 ], [ 81.37167, 16.54604 ], [ 81.374, 16.53385 ], [ 81.3709, 16.53007 ], [ 81.36583, 16.52719 ], [ 81.36062, 16.52759 ], [ 81.35528, 16.52932 ], [ 81.34485, 16.53495 ], [ 81.3427, 16.5349 ], [ 81.3426, 16.53866 ], [ 81.34447, 16.54416 ], [ 81.34476, 16.54927 ], [ 81.34733, 16.55346 ], [ 81.34609, 16.55966 ], [ 81.34896, 16.5651 ], [ 81.34838, 16.57102 ], [ 81.34623, 16.57484 ], [ 81.34793, 16.58086 ], [ 81.34628, 16.5843 ], [ 81.34752, 16.58763 ], [ 81.3462, 16.59136 ], [ 81.34809, 16.59254 ], [ 81.35328, 16.59195 ], [ 81.35357, 16.59435 ], [ 81.35058, 16.59742 ], [ 81.35224, 16.59778 ], [ 81.35492, 16.59654 ], [ 81.35734, 16.59643 ], [ 81.35731, 16.59854 ], [ 81.35449, 16.61056 ], [ 81.34882, 16.60885 ], [ 81.34828, 16.60655 ], [ 81.34526, 16.60417 ], [ 81.34255, 16.6086 ], [ 81.33684, 16.6107 ], [ 81.32763, 16.61963 ], [ 81.32629, 16.62615 ], [ 81.32945, 16.63201 ], [ 81.33017, 16.63522 ], [ 81.33095, 16.65441 ], [ 81.33375, 16.67059 ], [ 81.33287, 16.68023 ], [ 81.32891, 16.68918 ], [ 81.33599, 16.69089 ], [ 81.34575, 16.69152 ], [ 81.34905, 16.6941 ], [ 81.35113, 16.6913 ], [ 81.3533, 16.69259 ], [ 81.35324, 16.67895 ], [ 81.34013, 16.67428 ], [ 81.34146, 16.67121 ], [ 81.33911, 16.67021 ], [ 81.34322, 16.65789 ], [ 81.34798, 16.66092 ], [ 81.35503, 16.66325 ], [ 81.35533, 16.66238 ], [ 81.35646, 16.66272 ], [ 81.35789, 16.66407 ], [ 81.3778, 16.66657 ], [ 81.38374, 16.66621 ], [ 81.397, 16.66721 ], [ 81.41748, 16.66469 ], [ 81.41863, 16.66583 ], [ 81.43051, 16.66318 ], [ 81.43175, 16.66095 ], [ 81.44218, 16.66426 ], [ 81.44407, 16.66386 ] ] ] } },
{ "type": "Feature", "properties": { "OBJECTID": 584, "state_lgd": "28", "state_name": "ANDHRA PRADESH", "district_lgd": "546", "district_name": "WEST GODAVARI", "district_name_source": "district_table", "subdistrict_lgd": "4973", "subdistrict_name": "ATTILI", "subdistrict_type": "Mandal", "name_corrupted": false, "remarks": "", "label_lon": 81.600094609036503, "label_lat": 16.674109187691741 }, "geometry": { "type": "Polygon", "coordinates": [ [ [ 81.6126, 16.75385 ], [ 81.63552, 16.75106 ], [ 81.63532, 16.73912 ], [ 81.63371, 16.72898 ], [ 81.63505, 16.72879 ], [ 81.63542, 16.72714 ], [ 81.64042, 16.7265 ], [ 81.64056, 16.72458 ], [ 81.64238, 16.72323 ], [ 81.64109, 16.71852 ], [ 81.63377, 16.71497 ], [ 81.62693, 16.71419 ], [ 81.62526, 16.71323 ], [ 81.62009, 16.70852 ], [ 81.61768, 16.70472 ], [ 81.62477, 16.69684 ], [ 81.62394, 16.69068 ], [ 81.62669, 16.68248 ], [ 81.62872, 16.68065 ], [ 81.62934, 16.68022 ], [ 81.62986, 16.68195 ], [ 81.6326, 16.68294 ], [ 81.6352, 16.68229 ], [ 81.63832, 16.67994 ], [ 81.64087, 16.68073 ], [ 81.64299, 16.68299 ], [ 81.64712, 16.68191 ], [ 81.648, 16.66906 ], [ 81.63279, 16.67011 ], [ 81.63008, 16.66821 ], [ 81.62905, 16.66621 ], [ 81.62669, 16.66755 ], [ 81.62513, 16.66661 ], [ 81.6237, 16.66392 ], [ 81.62775, 16.66196 ], [ 81.62824, 16.66089 ], [ 81.62474, 16.65471 ], [ 81.62452, 16.65302 ], [ 81.61988, 16.64813 ], [ 81.6209, 16.64723 ], [ 81.61872, 16.64306 ], [ 81.61824, 16.64041 ], [ 81.61548, 16.63869 ], [ 81.61404, 16.63378 ], [ 81.61213, 16.63075 ], [ 81.61426, 16.62518 ], [ 81.61028, 16.62405 ], [ 81.60556, 16.60876 ], [ 81.59467, 16.58971 ], [ 81.5927, 16.59043 ], [ 81.596, 16.59407 ], [ 81.59603, 16.59521 ], [ 81.59514, 16.59567 ], [ 81.59337, 16.595 ], [ 81.59052, 16.59552 ], [ 81.58725, 16.58999 ], [ 81.58084, 16.59187 ], [ 81.58409, 16.59936 ], [ 81.57729, 16.60031 ], [ 81.57719, 16.60151 ], [ 81.57856, 16.61442 ], [ 81.58015, 16.61598 ], [ 81.58141, 16.62166 ], [ 81.58436, 16.62772 ], [ 81.57732, 16.6298 ], [ 81.57684, 16.63605 ], [ 81.56703, 16.63654 ], [ 81.55188, 16.63551 ], [ 81.55136, 16.64388 ], [ 81.55592, 16.64438 ], [ 81.5611, 16.64913 ], [ 81.56398, 16.65651 ], [ 81.55968, 16.65873 ], [ 81.55409, 16.66717 ], [ 81.55407, 16.67074 ], [ 81.55628, 16.68001 ], [ 81.56571, 16.67984 ], [ 81.56681, 16.68102 ], [ 81.57165, 16.6826 ], [ 81.57115, 16.69129 ], [ 81.57623, 16.69178 ], [ 81.57919, 16.69366 ], [ 81.58111, 16.69854 ], [ 81.5829, 16.69918 ], [ 81.58451, 16.70372 ], [ 81.58912, 16.702 ], [ 81.59056, 16.70219 ], [ 81.59278, 16.70414 ], [ 81.59933, 16.70317 ], [ 81.59923, 16.70859 ], [ 81.5957, 16.70969 ], [ 81.59643, 16.72081 ], [ 81.59435, 16.72184 ], [ 81.59671, 16.72822 ], [ 81.59525, 16.73419 ], [ 81.59704, 16.74067 ], [ 81.5987, 16.74322 ], [ 81.59707, 16.74542 ], [ 81.59754, 16.74685 ], [ 81.59916, 16.74554 ], [ 81.60092, 16.74603 ], [ 81.60358, 16.74505 ], [ 81.60579, 16.7452 ], [ 81.60847, 16.7508 ], [ 81.61012, 16.75049 ], [ 81.61016, 16.75196 ], [ 81.6126, 16.75385 ] ] ] } },
{ "type": "Feature", "properties": { "OBJECTID": 608, "state_lgd": "28", "state_name": "ANDHRA PRADESH", "district_lgd": "546", "district_name": "WEST GODAVARI", "district_name_source": "district_table", "subdistrict_lgd": "4984", "subdistrict_name": "BHIMAVARAM", "subdistrict_type": "Mandal", "name_corrupted": false, "remarks": "", "label_lon": 81.516960107195644, "label_lat": 16.476374912435301 }, "geometry": { "type": "Polygon", "coordinates": [ [ [ 81.55592, 16.55823 ], [ 81.55741, 16.55744 ], [ 81.55806, 16.5493 ], [ 81.5575, 16.54348 ], [ 81.55826, 16.5375 ], [ 81.5572, 16.53254 ], [ 81.55778, 16.52879 ], [ 81.55698, 16.5234 ], [ 81.5647, 16.52032 ], [ 81.565, 16.51833 ], [ 81.57108, 16.51707 ], [ 81.57183, 16.51412 ], [ 81.56928, 16.50932 ], [ 81.57257, 16.50896 ], [ 81.57939, 16.50992 ], [ 81.5774, 16.5008 ], [ 81.57469, 16.49511 ], [ 81.58318, 16.49298 ], [ 81.58701, 16.50005 ], [ 81.59052, 16.49744 ], [ 81.60127, 16.49504 ], [ 81.60087, 16.49107 ], [ 81.59756, 16.47923 ], [ 81.59874, 16.45782 ], [ 81.59296, 16.45954 ], [ 81.58378, 16.45589 ], [ 81.58236, 16.45454 ], [ 81.58336, 16.45078 ], [ 81.58602, 16.45066 ], [ 81.58706, 16.44947 ], [ 81.58522, 16.44348 ], [ 81.58474, 16.43869 ], [ 81.58026, 16.43322 ], [ 81.58031, 16.42915 ], [ 81.57355, 16.42571 ], [ 81.56573, 16.42531 ], [ 81.55636, 16.42075 ], [ 81.55515, 16.42898 ], [ 81.54616, 16.42975 ], [ 81.54693, 16.43467 ], [ 81.54525, 16.44077 ], [ 81.54567, 16.44878 ], [ 81.54133, 16.4536 ], [ 81.52884, 16.44546 ], [ 81.52193, 16.43296 ], [ 81.5177, 16.43008 ], [ 81.51446, 16.43188 ], [ 81.50948, 16.41997 ], [ 81.50742, 16.42039 ], [ 81.50179, 16.41613 ], [ 81.50024, 16.41633 ], [ 81.49734, 16.41473 ], [ 81.49671, 16.41298 ], [ 81.49922, 16.40508 ], [ 81.49829, 16.40413 ], [ 81.49385, 16.40352 ], [ 81.49128, 16.40107 ], [ 81.48847, 16.39615 ], [ 81.48155, 16.39191 ], [ 81.47837, 16.39334 ], [ 81.47392, 16.3976 ], [ 81.46276, 16.39876 ], [ 81.45659, 16.40413 ], [ 81.45369, 16.40503 ], [ 81.45005, 16.40451 ], [ 81.44684, 16.4013 ], [ 81.44225, 16.39853 ], [ 81.43958, 16.39804 ], [ 81.43633, 16.39928 ], [ 81.43388, 16.40215 ], [ 81.42966, 16.40963 ], [ 81.43214, 16.41186 ], [ 81.43225, 16.41419 ], [ 81.43179, 16.41638 ], [ 81.42933, 16.41921 ], [ 81.42897, 16.42436 ], [ 81.42735, 16.42917 ], [ 81.42915, 16.43022 ], [ 81.43489, 16.4292 ], [ 81.43685, 16.43076 ], [ 81.43958, 16.43589 ], [ 81.44066, 16.4437 ], [ 81.44132, 16.44442 ], [ 81.44643, 16.4456 ], [ 81.44894, 16.44815 ], [ 81.45418, 16.4465 ], [ 81.45745, 16.45136 ], [ 81.45985, 16.45207 ], [ 81.46291, 16.45183 ], [ 81.46287, 16.45565 ], [ 81.4603, 16.45887 ], [ 81.45766, 16.45924 ], [ 81.45348, 16.46393 ], [ 81.45155, 16.47264 ], [ 81.45202, 16.47728 ], [ 81.45924, 16.47381 ], [ 81.46234, 16.48225 ], [ 81.46751, 16.48142 ], [ 81.4725, 16.48722 ], [ 81.47425, 16.495 ], [ 81.47854, 16.49885 ], [ 81.48315, 16.50105 ], [ 81.48406, 16.50693 ], [ 81.48224, 16.51594 ], [ 81.48833, 16.51618 ], [ 81.48765, 16.52303 ], [ 81.48847, 16.52966 ], [ 81.48508, 16.53418 ], [ 81.48463, 16.53958 ], [ 81.48573, 16.53964 ], [ 81.48574, 16.54107 ], [ 81.49139, 16.54141 ], [ 81.49265, 16.54407 ], [ 81.49421, 16.54425 ], [ 81.49818, 16.54755 ], [ 81.50124, 16.54805 ], [ 81.50003, 16.55477 ], [ 81.49869, 16.55536 ], [ 81.49881, 16.55885 ], [ 81.50022, 16.56612 ], [ 81.50242, 16.57133 ], [ 81.50817, 16.57065 ], [ 81.50869, 16.56272 ], [ 81.51414, 16.56194 ], [ 81.51415, 16.55874 ], [ 81.50893, 16.55697 ], [ 81.50938, 16.55482 ], [ 81.50867, 16.55353 ], [ 81.50961, 16.55079 ], [ 81.51613, 16.55116 ], [ 81.51712, 16.5603 ], [ 81.51841, 16.56276 ], [ 81.52245, 16.56325 ], [ 81.52424, 16.56735 ], [ 81.52611, 16.56841 ], [ 81.52633, 16.5709 ], [ 81.52845, 16.57063 ], [ 81.53217, 16.56732 ], [ 81.53155, 16.56556 ], [ 81.52763, 16.56673 ], [ 81.52724, 16.56433 ], [ 81.52848, 16.56382 ], [ 81.52845, 16.56206 ], [ 81.5297, 16.56174 ], [ 81.53025, 16.56045 ], [ 81.53298, 16.56016 ], [ 81.53463, 16.55614 ], [ 81.53563, 16.55628 ], [ 81.53619, 16.55805 ], [ 81.53923, 16.558 ], [ 81.54053, 16.55718 ], [ 81.5433, 16.55763 ], [ 81.54253, 16.56309 ], [ 81.54487, 16.56431 ], [ 81.54543, 16.56652 ], [ 81.55343, 16.57048 ], [ 81.55363, 16.57163 ], [ 81.55506, 16.57198 ], [ 81.55592, 16.55823 ] ] ] } },
{ "type": "Feature", "properties": { "OBJECTID": 691, "state_lgd": "28", "state_name": "ANDHRA PRADESH", "district_lgd": "546", "district_name": "WEST GODAVARI", "district_name_source": "district_table", "subdistrict_lgd": "4989", "subdistrict_name": "ELAMANCHILI", "subdistrict_type": "Mandal", "name_corrupted": false, "remarks": "", "label_lon": 81.785269586461879, "label_lat": 16.48969025164665 }, "geometry": { "type": "Polygon", "coordinates": [ [ [ 81.84344, 16.53934 ], [ 81.84638, 16.53418 ], [ 81.84476, 16.52723 ], [ 81.84569, 16.51753 ], [ 81.84748, 16.51218 ], [ 81.84853, 16.50441 ], [ 81.84641, 16.49592 ], [ 81.84182, 16.49344 ], [ 81.82908, 16.49102 ], [ 81.81981, 16.49039 ], [ 81.81707, 16.48903 ], [ 81.8115, 16.48373 ], [ 81.80687, 16.48348 ], [ 81.80485, 16.48041 ], [ 81.79921, 16.47716 ], [ 81.78889, 16.46315 ], [ 81.78538, 16.46357 ], [ 81.78385, 16.45987 ], [ 81.78209, 16.45065 ], [ 81.76843, 16.43942 ], [ 81.76166, 16.42832 ], [ 81.75548, 16.42344 ], [ 81.74952, 16.42274 ], [ 81.74626, 16.42016 ], [ 81.73826, 16.4216 ], [ 81.73564, 16.4229 ], [ 81.73229, 16.42823 ], [ 81.72837, 16.44064 ], [ 81.72472, 16.44523 ], [ 81.72807, 16.4459 ], [ 81.73154, 16.44385 ], [ 81.73538, 16.44527 ], [ 81.73819, 16.4473 ], [ 81.7464, 16.44873 ], [ 81.74889, 16.45028 ], [ 81.74881, 16.45366 ], [ 81.75022, 16.4566 ], [ 81.74843, 16.45722 ], [ 81.74832, 16.46037 ], [ 81.74955, 16.45973 ], [ 81.75011, 16.46139 ], [ 81.74832, 16.46165 ], [ 81.74832, 16.46342 ], [ 81.74908, 16.46346 ], [ 81.74712, 16.46793 ], [ 81.73837, 16.47302 ], [ 81.74143, 16.47964 ], [ 81.74168, 16.4818 ], [ 81.74593, 16.48965 ], [ 81.74604, 16.49968 ], [ 81.74764, 16.50574 ], [ 81.74631, 16.51378 ], [ 81.74706, 16.5171 ], [ 81.74883, 16.51916 ], [ 81.7498, 16.52262 ], [ 81.76198, 16.51945 ], [ 81.76767, 16.51631 ], [ 81.77024, 16.51345 ], [ 81.77395, 16.51243 ], [ 81.77697, 16.5203 ], [ 81.7735, 16.52367 ], [ 81.77604, 16.52849 ], [ 81.77823, 16.5354 ], [ 81.78743, 16.53224 ], [ 81.79517, 16.52795 ], [ 81.79818, 16.53385 ], [ 81.79972, 16.53539 ], [ 81.79978, 16.53205 ], [ 81.80186, 16.53101 ], [ 81.80313, 16.53132 ], [ 81.80392, 16.53336 ], [ 81.80905, 16.53342 ], [ 81.81008, 16.53527 ], [ 81.82155, 16.53576 ], [ 81.82308, 16.53892 ], [ 81.83199, 16.53844 ], [ 81.83352, 16.53915 ], [ 81.83499, 16.53711 ], [ 81.84344, 16.53934 ] ] ] } },
{ "type": "Feature", "properties": { "OBJECTID": 702, "state_lgd": "28", "state_name": "ANDHRA PRADESH", "district_lgd": "546", "district_name": "WEST GODAVARI", "district_name_source": "district_table", "subdistrict_lgd": "4974", "subdistrict_name": "GANAPAVARAM", "subdistrict_type": "Mandal", "name_corrupted": false, "remarks": "", "label_lon": 81.522181646540304, "label_lat": 16.703076612970829 }, "geometry": { "type": "Polygon", "coordinates": [ [ [ 81.5611, 16.75874 ], [ 81.56456, 16.75918 ], [ 81.56732, 16.74488 ], [ 81.57014, 16.74172 ], [ 81.56675, 16.73333 ], [ 81.56875, 16.72369 ], [ 81.58325, 16.72384 ], [ 81.59366, 16.72255 ], [ 81.59606, 16.72115 ], [ 81.5957, 16.70969 ], [ 81.59923, 16.70859 ], [ 81.59939, 16.70363 ], [ 81.59793, 16.70303 ], [ 81.59278, 16.70414 ], [ 81.59056, 16.70219 ], [ 81.58912, 16.702 ], [ 81.58451, 16.70372 ], [ 81.5829, 16.69918 ], [ 81.58111, 16.69854 ], [ 81.57919, 16.69366 ], [ 81.57623, 16.69178 ], [ 81.57115, 16.69129 ], [ 81.57165, 16.6826 ], [ 81.56681, 16.68102 ], [ 81.56571, 16.67984 ], [ 81.55628, 16.68001 ], [ 81.55366, 16.66822 ], [ 81.55968, 16.65873 ], [ 81.56398, 16.65651 ], [ 81.5611, 16.64913 ], [ 81.55592, 16.64438 ], [ 81.55136, 16.64388 ], [ 81.54918, 16.64466 ], [ 81.54475, 16.64791 ], [ 81.54488, 16.65141 ], [ 81.54387, 16.65323 ], [ 81.53939, 16.65387 ], [ 81.54064, 16.65811 ], [ 81.54038, 16.66566 ], [ 81.53248, 16.66652 ], [ 81.53248, 16.67247 ], [ 81.52644, 16.67252 ], [ 81.51432, 16.67413 ], [ 81.51347, 16.67368 ], [ 81.514, 16.66912 ], [ 81.51239, 16.66877 ], [ 81.51192, 16.666 ], [ 81.50692, 16.66687 ], [ 81.50674, 16.66289 ], [ 81.49909, 16.66478 ], [ 81.50045, 16.67028 ], [ 81.49607, 16.67104 ], [ 81.4949, 16.67322 ], [ 81.48907, 16.67391 ], [ 81.483, 16.67309 ], [ 81.48232, 16.67485 ], [ 81.47772, 16.67626 ], [ 81.47608, 16.67509 ], [ 81.47327, 16.67967 ], [ 81.46964, 16.67784 ], [ 81.45933, 16.67547 ], [ 81.45807, 16.67719 ], [ 81.45829, 16.68019 ], [ 81.45743, 16.68322 ], [ 81.45106, 16.68472 ], [ 81.44713, 16.6866 ], [ 81.44648, 16.68803 ], [ 81.44281, 16.68837 ], [ 81.44235, 16.689 ], [ 81.4412, 16.69657 ], [ 81.44697, 16.69547 ], [ 81.44894, 16.70015 ], [ 81.45071, 16.70015 ], [ 81.45229, 16.69874 ], [ 81.45635, 16.69916 ], [ 81.45772, 16.70021 ], [ 81.45806, 16.70249 ], [ 81.45651, 16.70295 ], [ 81.45698, 16.70427 ], [ 81.45628, 16.7056 ], [ 81.45802, 16.71089 ], [ 81.45218, 16.7172 ], [ 81.45188, 16.71671 ], [ 81.44865, 16.72284 ], [ 81.45095, 16.72561 ], [ 81.45952, 16.7247 ], [ 81.46191, 16.72758 ], [ 81.46586, 16.72718 ], [ 81.46731, 16.72596 ], [ 81.46927, 16.72622 ], [ 81.46996, 16.73173 ], [ 81.47439, 16.73047 ], [ 81.4756, 16.73088 ], [ 81.47637, 16.73518 ], [ 81.47779, 16.73643 ], [ 81.49017, 16.73493 ], [ 81.49225, 16.73337 ], [ 81.49443, 16.73007 ], [ 81.49835, 16.72982 ], [ 81.50164, 16.72664 ], [ 81.50368, 16.72584 ], [ 81.50811, 16.72851 ], [ 81.51178, 16.72928 ], [ 81.51421, 16.73425 ], [ 81.51738, 16.73761 ], [ 81.51873, 16.73752 ], [ 81.51926, 16.73665 ], [ 81.51817, 16.7331 ], [ 81.51859, 16.73221 ], [ 81.51997, 16.7343 ], [ 81.52276, 16.73413 ], [ 81.5218, 16.73165 ], [ 81.52236, 16.73084 ], [ 81.52272, 16.73238 ], [ 81.52407, 16.73319 ], [ 81.52534, 16.73127 ], [ 81.52817, 16.73152 ], [ 81.52666, 16.73354 ], [ 81.52711, 16.73591 ], [ 81.52827, 16.73439 ], [ 81.52927, 16.73608 ], [ 81.53024, 16.73619 ], [ 81.5319, 16.73411 ], [ 81.53215, 16.73832 ], [ 81.53659, 16.73703 ], [ 81.5409, 16.73739 ], [ 81.54243, 16.73453 ], [ 81.54468, 16.73672 ], [ 81.54564, 16.73679 ], [ 81.54611, 16.73588 ], [ 81.5473, 16.7366 ], [ 81.55371, 16.76321 ], [ 81.55519, 16.75981 ], [ 81.5611, 16.75874 ] ] ] } },
{ "type": "Feature", "properties": { "OBJECTID": 757, "state_lgd": "28", "state_name": "ANDHRA PRADESH", "district_lgd": "546", "district_name": "WEST GODAVARI", "district_name_source": "district_table", "subdistrict_lgd": "4979", "subdistrict_name": "IRAGAVARAM", "subdistrict_type": "Mandal", "name_corrupted": false, "remarks": "", "label_lon": 81.699928261836092, "label_lat": 16.691269196709442 }, "geometry": { "type": "Polygon", "coordinates": [ [ [ 81.75281, 16.72756 ], [ 81.75037, 16.71745 ], [ 81.74941, 16.70489 ], [ 81.75259, 16.70454 ], [ 81.75409, 16.69805 ], [ 81.75692, 16.69849 ], [ 81.75975, 16.69217 ], [ 81.76024, 16.68076 ], [ 81.75866, 16.67412 ], [ 81.74527, 16.67353 ], [ 81.74233, 16.6748 ], [ 81.7396, 16.67445 ], [ 81.73823, 16.6691 ], [ 81.73342, 16.66928 ], [ 81.7326, 16.66126 ], [ 81.72558, 16.66284 ], [ 81.72498, 16.65961 ], [ 81.73054, 16.65838 ], [ 81.73178, 16.65689 ], [ 81.72992, 16.64507 ], [ 81.7214, 16.64585 ], [ 81.71868, 16.64691 ], [ 81.71857, 16.64783 ], [ 81.70754, 16.6528 ], [ 81.70335, 16.64364 ], [ 81.69907, 16.64197 ], [ 81.6987, 16.63722 ], [ 81.69673, 16.6379 ], [ 81.69528, 16.63745 ], [ 81.69204, 16.64005 ], [ 81.68516, 16.64296 ], [ 81.68515, 16.64654 ], [ 81.68419, 16.65001 ], [ 81.68263, 16.6515 ], [ 81.68269, 16.65283 ], [ 81.68402, 16.65642 ], [ 81.68465, 16.66344 ], [ 81.68691, 16.66839 ], [ 81.68609, 16.66949 ], [ 81.67996, 16.67073 ], [ 81.68016, 16.67688 ], [ 81.67666, 16.6781 ], [ 81.67868, 16.68312 ], [ 81.67888, 16.68695 ], [ 81.67516, 16.68909 ], [ 81.67313, 16.69188 ], [ 81.66815, 16.69386 ], [ 81.66595, 16.69249 ], [ 81.66226, 16.69222 ], [ 81.66169, 16.69353 ], [ 81.65646, 16.69563 ], [ 81.64976, 16.68851 ], [ 81.6479, 16.68167 ], [ 81.64299, 16.68299 ], [ 81.64087, 16.68073 ], [ 81.63832, 16.67994 ], [ 81.6352, 16.68229 ], [ 81.6326, 16.68294 ], [ 81.62986, 16.68195 ], [ 81.62934, 16.68022 ], [ 81.62669, 16.68248 ], [ 81.62394, 16.69068 ], [ 81.62477, 16.69684 ], [ 81.61768, 16.70472 ], [ 81.62009, 16.70852 ], [ 81.62526, 16.71323 ], [ 81.62693, 16.71419 ], [ 81.63188, 16.71441 ], [ 81.63871, 16.71715 ], [ 81.6497, 16.72598 ], [ 81.65578, 16.729 ], [ 81.65928, 16.72792 ], [ 81.66133, 16.72605 ], [ 81.65798, 16.72386 ], [ 81.65607, 16.72116 ], [ 81.65711, 16.7196 ], [ 81.65784, 16.71454 ], [ 81.65666, 16.71094 ], [ 81.67534, 16.70878 ], [ 81.68694, 16.70362 ], [ 81.69145, 16.70325 ], [ 81.694, 16.70906 ], [ 81.69399, 16.71215 ], [ 81.68881, 16.71356 ], [ 81.68854, 16.71488 ], [ 81.69024, 16.71699 ], [ 81.69285, 16.72306 ], [ 81.69814, 16.7224 ], [ 81.6998, 16.72071 ], [ 81.7036, 16.72047 ], [ 81.70525, 16.72624 ], [ 81.70837, 16.72604 ], [ 81.70992, 16.72749 ], [ 81.71369, 16.7271 ], [ 81.71497, 16.7283 ], [ 81.7204, 16.72879 ], [ 81.73129, 16.72763 ], [ 81.73376, 16.72682 ], [ 81.7368, 16.72421 ], [ 81.73892, 16.72725 ], [ 81.73982, 16.72792 ], [ 81.74189, 16.72764 ], [ 81.74374, 16.73024 ], [ 81.74493, 16.73058 ], [ 81.75281, 16.72756 ] ] ] } },
{ "type": "Feature", "properties": { "OBJECTID": 783, "state_lgd": "28", "state_name": "ANDHRA PRADESH", "district_lgd": "546", "district_name": "WEST GODAVARI", "district_name_source": "district_table", "subdistrict_lgd": "4985", "subdistrict_name": "KALLA", "subdistrict_type": "Mandal", "name_corrupted": false, "remarks": "", "label_lon": 81.42459102500149, "label_lat": 16.504927744248242 }, "geometry": { "type": "Polygon", "coordinates": [ [ [ 81.51135, 16.58362 ], [ 81.51384, 16.58234 ], [ 81.51965, 16.5815 ], [ 81.52051, 16.57537 ], [ 81.52367, 16.57019 ], [ 81.52633, 16.5709 ], [ 81.52611, 16.56841 ], [ 81.52424, 16.56735 ], [ 81.52245, 16.56325 ], [ 81.51841, 16.56276 ], [ 81.51695, 16.55966 ], [ 81.51613, 16.55116 ], [ 81.50961, 16.55079 ], [ 81.50867, 16.55353 ], [ 81.50938, 16.55482 ], [ 81.50893, 16.55697 ], [ 81.51415, 16.55874 ], [ 81.51414, 16.56194 ], [ 81.50869, 16.56272 ], [ 81.50817, 16.57065 ], [ 81.50242, 16.57133 ], [ 81.50022, 16.56612 ], [ 81.49881, 16.55885 ], [ 81.49869, 16.55536 ], [ 81.50003, 16.55477 ], [ 81.50124, 16.54805 ], [ 81.49818, 16.54755 ], [ 81.49421, 16.54425 ], [ 81.49265, 16.54407 ], [ 81.49139, 16.54141 ], [ 81.48574, 16.54107 ], [ 81.48573, 16.53964 ], [ 81.48463, 16.53958 ], [ 81.48508, 16.53418 ], [ 81.48847, 16.52966 ], [ 81.48765, 16.52303 ], [ 81.48833, 16.51618 ], [ 81.48224, 16.51594 ], [ 81.48406, 16.50693 ], [ 81.48315, 16.50105 ], [ 81.47854, 16.49885 ], [ 81.47425, 16.495 ], [ 81.4725, 16.48722 ], [ 81.46751, 16.48142 ], [ 81.46234, 16.48225 ], [ 81.45924, 16.47381 ], [ 81.45202, 16.47728 ], [ 81.45155, 16.47264 ], [ 81.45348, 16.46393 ], [ 81.45766, 16.45924 ], [ 81.4603, 16.45887 ], [ 81.46287, 16.45565 ], [ 81.46291, 16.45183 ], [ 81.45985, 16.45207 ], [ 81.45745, 16.45136 ], [ 81.45418, 16.4465 ], [ 81.44894, 16.44815 ], [ 81.44643, 16.4456 ], [ 81.44132, 16.44442 ], [ 81.44066, 16.4437 ], [ 81.43958, 16.43589 ], [ 81.43685, 16.43076 ], [ 81.43489, 16.4292 ], [ 81.42915, 16.43022 ], [ 81.42753, 16.42963 ], [ 81.42929, 16.42255 ], [ 81.42933, 16.41921 ], [ 81.43179, 16.41638 ], [ 81.43225, 16.41419 ], [ 81.43214, 16.41186 ], [ 81.42966, 16.40963 ], [ 81.42664, 16.41157 ], [ 81.42584, 16.41935 ], [ 81.42256, 16.42075 ], [ 81.41558, 16.4193 ], [ 81.412, 16.42046 ], [ 81.39978, 16.43061 ], [ 81.39916, 16.434 ], [ 81.40127, 16.43767 ], [ 81.40091, 16.4392 ], [ 81.39737, 16.43896 ], [ 81.39139, 16.44025 ], [ 81.38914, 16.44278 ], [ 81.38436, 16.44355 ], [ 81.38833, 16.44522 ], [ 81.38841, 16.4464 ], [ 81.38274, 16.44862 ], [ 81.37856, 16.45252 ], [ 81.37596, 16.45716 ], [ 81.37318, 16.45904 ], [ 81.37373, 16.46133 ], [ 81.37814, 16.46547 ], [ 81.37852, 16.46735 ], [ 81.37771, 16.46915 ], [ 81.3727, 16.47442 ], [ 81.36894, 16.47565 ], [ 81.36787, 16.48383 ], [ 81.36964, 16.48656 ], [ 81.36982, 16.49111 ], [ 81.37192, 16.49495 ], [ 81.37184, 16.49735 ], [ 81.37072, 16.49969 ], [ 81.3653, 16.50106 ], [ 81.36452, 16.50526 ], [ 81.36285, 16.50732 ], [ 81.35685, 16.50757 ], [ 81.35076, 16.50543 ], [ 81.34837, 16.50575 ], [ 81.34562, 16.50737 ], [ 81.34263, 16.50484 ], [ 81.33837, 16.50518 ], [ 81.33258, 16.51073 ], [ 81.33479, 16.51346 ], [ 81.33749, 16.51274 ], [ 81.33898, 16.51315 ], [ 81.33792, 16.5192 ], [ 81.33952, 16.52746 ], [ 81.34352, 16.53003 ], [ 81.3427, 16.5349 ], [ 81.34485, 16.53495 ], [ 81.35528, 16.52932 ], [ 81.36062, 16.52759 ], [ 81.36583, 16.52719 ], [ 81.36725, 16.52777 ], [ 81.3709, 16.53007 ], [ 81.374, 16.53385 ], [ 81.37167, 16.54604 ], [ 81.37309, 16.55261 ], [ 81.39076, 16.55121 ], [ 81.39392, 16.55159 ], [ 81.39797, 16.54769 ], [ 81.39999, 16.55047 ], [ 81.40466, 16.56138 ], [ 81.40774, 16.56445 ], [ 81.40993, 16.57015 ], [ 81.41684, 16.56914 ], [ 81.42781, 16.56608 ], [ 81.42964, 16.56521 ], [ 81.42804, 16.56376 ], [ 81.42813, 16.56102 ], [ 81.43398, 16.55954 ], [ 81.43856, 16.55944 ], [ 81.43733, 16.54475 ], [ 81.44999, 16.54128 ], [ 81.45135, 16.54416 ], [ 81.45255, 16.54458 ], [ 81.45401, 16.55076 ], [ 81.45541, 16.55046 ], [ 81.45623, 16.55434 ], [ 81.46633, 16.55177 ], [ 81.46437, 16.5495 ], [ 81.46404, 16.55046 ], [ 81.46316, 16.55046 ], [ 81.46349, 16.54936 ], [ 81.46994, 16.5451 ], [ 81.47187, 16.54647 ], [ 81.47307, 16.55871 ], [ 81.47385, 16.56046 ], [ 81.47705, 16.5599 ], [ 81.4769, 16.56098 ], [ 81.48342, 16.56094 ], [ 81.4856, 16.57306 ], [ 81.49449, 16.57451 ], [ 81.49552, 16.5764 ], [ 81.4991, 16.57597 ], [ 81.50011, 16.58388 ], [ 81.51135, 16.58362 ] ] ] } },
{ "type": "Feature", "properties": { "OBJECTID": 898, "state_lgd": "28", "state_name": "ANDHRA PRADESH", "district_lgd": "546", "district_name": "WEST GODAVARI", "district_name_source": "district_table", "subdistrict_lgd": "4986", "subdistrict_name": "MOGALTURRU", "subdistrict_type": "Mandal", "name_corrupted": false, "remarks": "", "label_lon": 81.574009245154699, "label_lat": 16.397257791214955 }, "geometry": { "type": "Polygon", "coordinates": [ [ [ 81.61136, 16.45976 ], [ 81.61325, 16.4538 ], [ 81.61595, 16.45197 ], [ 81.62156, 16.4487 ], [ 81.63033, 16.44677 ], [ 81.62762, 16.43656 ], [ 81.62368, 16.43086 ], [ 81.61689, 16.4258 ], [ 81.61708, 16.42347 ], [ 81.62376, 16.42484 ], [ 81.63329, 16.4228 ], [ 81.63818, 16.42289 ], [ 81.63789, 16.41961 ], [ 81.64058, 16.41839 ], [ 81.64162, 16.41913 ], [ 81.64332, 16.41889 ], [ 81.64343, 16.41588 ], [ 81.64487, 16.41594 ], [ 81.64473, 16.4149 ], [ 81.64533, 16.415 ], [ 81.64512, 16.41262 ], [ 81.65874, 16.41217 ], [ 81.6581, 16.40607 ], [ 81.65621, 16.40211 ], [ 81.65394, 16.40147 ], [ 81.65188, 16.3942 ], [ 81.64338, 16.39589 ], [ 81.64302, 16.39318 ], [ 81.64383, 16.39179 ], [ 81.64127, 16.39042 ], [ 81.63876, 16.39089 ], [ 81.63531, 16.38902 ], [ 81.63418, 16.39017 ], [ 81.63457, 16.39326 ], [ 81.63111, 16.39189 ], [ 81.62466, 16.39269 ], [ 81.62002, 16.39434 ], [ 81.61738, 16.39401 ], [ 81.61589, 16.39675 ], [ 81.61009, 16.39671 ], [ 81.60861, 16.3981 ], [ 81.60738, 16.39804 ], [ 81.60582, 16.39583 ], [ 81.60492, 16.39651 ], [ 81.60156, 16.39563 ], [ 81.60784, 16.38661 ], [ 81.60758, 16.38129 ], [ 81.60998, 16.3808 ], [ 81.61239, 16.37907 ], [ 81.6146, 16.38055 ], [ 81.61438, 16.38179 ], [ 81.61545, 16.38284 ], [ 81.62226, 16.38449 ], [ 81.62485, 16.38286 ], [ 81.62396, 16.38046 ], [ 81.62436, 16.3797 ], [ 81.62941, 16.37797 ], [ 81.63631, 16.37808 ], [ 81.63964, 16.37459 ], [ 81.63931, 16.37351 ], [ 81.63758, 16.37417 ], [ 81.63616, 16.37094 ], [ 81.63841, 16.37012 ], [ 81.63818, 16.36917 ], [ 81.63434, 16.36767 ], [ 81.63384, 16.36637 ], [ 81.63148, 16.35514 ], [ 81.63153, 16.34824 ], [ 81.62966, 16.3374 ], [ 81.57727, 16.34474 ], [ 81.55254, 16.34714 ], [ 81.55453, 16.35604 ], [ 81.55159, 16.36936 ], [ 81.54669, 16.37828 ], [ 81.53441, 16.3788 ], [ 81.52271, 16.38097 ], [ 81.51271, 16.37027 ], [ 81.50721, 16.3695 ], [ 81.49478, 16.37017 ], [ 81.48827, 16.37336 ], [ 81.48523, 16.37728 ], [ 81.4804, 16.38803 ], [ 81.47785, 16.39083 ], [ 81.47443, 16.39209 ], [ 81.47242, 16.39381 ], [ 81.46993, 16.39848 ], [ 81.47392, 16.3976 ], [ 81.47837, 16.39334 ], [ 81.48095, 16.39195 ], [ 81.48847, 16.39615 ], [ 81.49128, 16.40107 ], [ 81.49385, 16.40352 ], [ 81.49829, 16.40413 ], [ 81.49922, 16.40508 ], [ 81.49671, 16.41298 ], [ 81.49734, 16.41473 ], [ 81.50024, 16.41633 ], [ 81.50179, 16.41613 ], [ 81.50742, 16.42039 ], [ 81.50948, 16.41997 ], [ 81.51446, 16.43188 ], [ 81.5177, 16.43008 ], [ 81.52193, 16.43296 ], [ 81.52884, 16.44546 ], [ 81.54133, 16.4536 ], [ 81.54567, 16.44878 ], [ 81.54525, 16.44077 ], [ 81.54693, 16.43467 ], [ 81.54616, 16.42975 ], [ 81.55515, 16.42898 ], [ 81.55636, 16.42075 ], [ 81.55697, 16.42058 ], [ 81.56573, 16.42531 ], [ 81.57355, 16.42571 ], [ 81.58031, 16.42915 ], [ 81.58026, 16.43322 ], [ 81.58474, 16.43869 ], [ 81.58522, 16.44348 ], [ 81.58706, 16.44947 ], [ 81.58602, 16.45066 ], [ 81.58336, 16.45078 ], [ 81.58219, 16.45396 ], [ 81.58294, 16.45542 ], [ 81.59296, 16.45954 ], [ 81.60117, 16.45764 ], [ 81.61136, 16.45976 ] ] ] } },
{ "type": "Feature", "properties": { "OBJECTID": 935, "state_lgd": "28", "state_name": "ANDHRA PRADESH", "district_lgd": "546", "district_name": "WEST GODAVARI", "district_name_source": "district_table", "subdistrict_lgd": "4987", "subdistrict_name": "NARASAPUR", "subdistrict_type": "Mandal", "name_corrupted": false, "remarks": "", "label_lon": 81.672509697932639, "label_lat": 16.412524359748673 }, "geometry": { "type": "Polygon", "coordinates": [ [ [ 81.65094, 16.49118 ], [ 81.65145, 16.48596 ], [ 81.65759, 16.48757 ], [ 81.66181, 16.48961 ], [ 81.66789, 16.48739 ], [ 81.67281, 16.48379 ], [ 81.67628, 16.48645 ], [ 81.68121, 16.48554 ], [ 81.68278, 16.48381 ], [ 81.6837, 16.47973 ], [ 81.68536, 16.4766 ], [ 81.68915, 16.47444 ], [ 81.69502, 16.47401 ], [ 81.70065, 16.47117 ], [ 81.70339, 16.478 ], [ 81.70868, 16.47532 ], [ 81.712, 16.48528 ], [ 81.72682, 16.47929 ], [ 81.72843, 16.48012 ], [ 81.7313, 16.47918 ], [ 81.73994, 16.47163 ], [ 81.74712, 16.46793 ], [ 81.74908, 16.46346 ], [ 81.74832, 16.46342 ], [ 81.74832, 16.46165 ], [ 81.75011, 16.46139 ], [ 81.74955, 16.45973 ], [ 81.74832, 16.46037 ], [ 81.74843, 16.45722 ], [ 81.75022, 16.4566 ], [ 81.74881, 16.45366 ], [ 81.74832, 16.44944 ], [ 81.73819, 16.4473 ], [ 81.73538, 16.44527 ], [ 81.73154, 16.44385 ], [ 81.72807, 16.4459 ], [ 81.72472, 16.44523 ], [ 81.7215, 16.44712 ], [ 81.7188, 16.44733 ], [ 81.71118, 16.44411 ], [ 81.69992, 16.42309 ], [ 81.69801, 16.41757 ], [ 81.69754, 16.41373 ], [ 81.69882, 16.40722 ], [ 81.70239, 16.3994 ], [ 81.70669, 16.39241 ], [ 81.71008, 16.37686 ], [ 81.71696, 16.35884 ], [ 81.71736, 16.35212 ], [ 81.7157, 16.34269 ], [ 81.71443, 16.34055 ], [ 81.71337, 16.33545 ], [ 81.71319, 16.33112 ], [ 81.71352, 16.32689 ], [ 81.71656, 16.32682 ], [ 81.71598, 16.32544 ], [ 81.7166, 16.32324 ], [ 81.71601, 16.32156 ], [ 81.71065, 16.31649 ], [ 81.70706, 16.31782 ], [ 81.69908, 16.32443 ], [ 81.69064, 16.32747 ], [ 81.68231, 16.3288 ], [ 81.67551, 16.32869 ], [ 81.65147, 16.33337 ], [ 81.6423, 16.33426 ], [ 81.62966, 16.3374 ], [ 81.63153, 16.34824 ], [ 81.63148, 16.35514 ], [ 81.63384, 16.36637 ], [ 81.63434, 16.36767 ], [ 81.63818, 16.36917 ], [ 81.63841, 16.37012 ], [ 81.63616, 16.37094 ], [ 81.63758, 16.37417 ], [ 81.63931, 16.37351 ], [ 81.63964, 16.37459 ], [ 81.63631, 16.37808 ], [ 81.62941, 16.37797 ], [ 81.62436, 16.3797 ], [ 81.62396, 16.38046 ], [ 81.62485, 16.38286 ], [ 81.62226, 16.38449 ], [ 81.61545, 16.38284 ], [ 81.61438, 16.38179 ], [ 81.6146, 16.38055 ], [ 81.61239, 16.37907 ], [ 81.60998, 16.3808 ], [ 81.60758, 16.38129 ], [ 81.60784, 16.38661 ], [ 81.60156, 16.39563 ], [ 81.60492, 16.39651 ], [ 81.60582, 16.39583 ], [ 81.60738, 16.39804 ], [ 81.60861, 16.3981 ], [ 81.61009, 16.39671 ], [ 81.61589, 16.39675 ], [ 81.61738, 16.39401 ], [ 81.62002, 16.39434 ], [ 81.62466, 16.39269 ], [ 81.63111, 16.39189 ], [ 81.63457, 16.39326 ], [ 81.63433, 16.38964 ], [ 81.63614, 16.38904 ], [ 81.63876, 16.39089 ], [ 81.64127, 16.39042 ], [ 81.64368, 16.39151 ], [ 81.64302, 16.39318 ], [ 81.64338, 16.39589 ], [ 81.65188, 16.3942 ], [ 81.65394, 16.40147 ], [ 81.65668, 16.40264 ], [ 81.65834, 16.40686 ], [ 81.65874, 16.41217 ], [ 81.64512, 16.41262 ], [ 81.64533, 16.415 ], [ 81.64473, 16.4149 ], [ 81.64487, 16.41594 ], [ 81.64343, 16.41588 ], [ 81.64332, 16.41889 ], [ 81.64162, 16.41913 ], [ 81.64058, 16.41839 ], [ 81.63789, 16.41961 ], [ 81.63818, 16.42289 ], [ 81.63329, 16.4228 ], [ 81.62376, 16.42484 ], [ 81.61708, 16.42347 ], [ 81.61689, 16.4258 ], [ 81.62368, 16.43086 ], [ 81.62762, 16.43656 ], [ 81.63033, 16.44677 ], [ 81.62156, 16.4487 ], [ 81.61361, 16.45343 ], [ 81.61136, 16.45976 ], [ 81.60425, 16.45795 ], [ 81.59874, 16.45782 ], [ 81.59778, 16.46953 ], [ 81.59756, 16.47923 ], [ 81.59889, 16.48415 ], [ 81.60518, 16.48325 ], [ 81.60459, 16.47843 ], [ 81.6051, 16.47662 ], [ 81.60791, 16.47686 ], [ 81.60881, 16.47252 ], [ 81.6121, 16.47313 ], [ 81.61475, 16.47005 ], [ 81.61323, 16.46768 ], [ 81.61409, 16.46417 ], [ 81.61353, 16.46411 ], [ 81.61304, 16.46047 ], [ 81.61734, 16.46343 ], [ 81.62037, 16.46432 ], [ 81.62426, 16.46801 ], [ 81.63351, 16.4716 ], [ 81.63415, 16.48063 ], [ 81.63622, 16.48807 ], [ 81.63587, 16.49034 ], [ 81.63814, 16.49161 ], [ 81.63822, 16.49253 ], [ 81.64028, 16.4924 ], [ 81.64026, 16.4912 ], [ 81.64451, 16.49098 ], [ 81.64528, 16.49437 ], [ 81.64685, 16.49446 ], [ 81.6486, 16.49417 ], [ 81.65094, 16.49118 ] ] ] } },
{ "type": "Feature", "properties": { "OBJECTID": 966, "state_lgd": "28", "state_name": "ANDHRA PRADESH", "district_lgd": "546", "district_name": "WEST GODAVARI", "district_name_source": "district_table", "subdistrict_lgd": "4977", "subdistrict_name": "PALAKODERU", "subdistrict_type": "Mandal", "name_corrupted": false, "remarks": "", "label_lon": 81.56376099674975, "label_lat": 16.580286541338491 }, "geometry": { "type": "Polygon", "coordinates": [ [ [ 81.55165, 16.64117 ], [ 81.55188, 16.63551 ], [ 81.56703, 16.63654 ], [ 81.57684, 16.63605 ], [ 81.57732, 16.6298 ], [ 81.58436, 16.62772 ], [ 81.58141, 16.62166 ], [ 81.58015, 16.61598 ], [ 81.57856, 16.61442 ], [ 81.57752, 16.60599 ], [ 81.57729, 16.60031 ], [ 81.58409, 16.59936 ], [ 81.58084, 16.59187 ], [ 81.58725, 16.58999 ], [ 81.59052, 16.59552 ], [ 81.59337, 16.595 ], [ 81.59514, 16.59567 ], [ 81.59603, 16.59521 ], [ 81.596, 16.59407 ], [ 81.5927, 16.59043 ], [ 81.59467, 16.58971 ], [ 81.60415, 16.60605 ], [ 81.60714, 16.60429 ], [ 81.60728, 16.60328 ], [ 81.61045, 16.6021 ], [ 81.61158, 16.5952 ], [ 81.61813, 16.59397 ], [ 81.61461, 16.58572 ], [ 81.61074, 16.58605 ], [ 81.60777, 16.58337 ], [ 81.60673, 16.5833 ], [ 81.60289, 16.58469 ], [ 81.59793, 16.58464 ], [ 81.59708, 16.58263 ], [ 81.59462, 16.57413 ], [ 81.59695, 16.57128 ], [ 81.60541, 16.56891 ], [ 81.61351, 16.56938 ], [ 81.61366, 16.5712 ], [ 81.61186, 16.5737 ], [ 81.61383, 16.57426 ], [ 81.6163, 16.57265 ], [ 81.61642, 16.56754 ], [ 81.61383, 16.56327 ], [ 81.61239, 16.55558 ], [ 81.61107, 16.55438 ], [ 81.61065, 16.55137 ], [ 81.60941, 16.55079 ], [ 81.60879, 16.54767 ], [ 81.60944, 16.54515 ], [ 81.60512, 16.53994 ], [ 81.60431, 16.53651 ], [ 81.60225, 16.53412 ], [ 81.60163, 16.53079 ], [ 81.59882, 16.52551 ], [ 81.59987, 16.52406 ], [ 81.59753, 16.52185 ], [ 81.59312, 16.52263 ], [ 81.59362, 16.51913 ], [ 81.59264, 16.51741 ], [ 81.5899, 16.51813 ], [ 81.58629, 16.50718 ], [ 81.58311, 16.5089 ], [ 81.57835, 16.51009 ], [ 81.57257, 16.50896 ], [ 81.56928, 16.50932 ], [ 81.57183, 16.51412 ], [ 81.57108, 16.51707 ], [ 81.565, 16.51833 ], [ 81.5647, 16.52032 ], [ 81.55698, 16.5234 ], [ 81.55778, 16.52879 ], [ 81.5572, 16.53254 ], [ 81.55826, 16.5375 ], [ 81.5575, 16.54348 ], [ 81.55806, 16.5493 ], [ 81.55741, 16.55744 ], [ 81.55564, 16.55894 ], [ 81.55506, 16.57198 ], [ 81.55363, 16.57163 ], [ 81.55343, 16.57048 ], [ 81.54543, 16.56652 ], [ 81.54487, 16.56431 ], [ 81.54253, 16.56309 ], [ 81.5433, 16.55763 ], [ 81.54053, 16.55718 ], [ 81.53923, 16.558 ], [ 81.53619, 16.55805 ], [ 81.53563, 16.55628 ], [ 81.53463, 16.55614 ], [ 81.53298, 16.56016 ], [ 81.53025, 16.56045 ], [ 81.5297, 16.56174 ], [ 81.52845, 16.56206 ], [ 81.52848, 16.56382 ], [ 81.52724, 16.56433 ], [ 81.52763, 16.56673 ], [ 81.53155, 16.56556 ], [ 81.53217, 16.56732 ], [ 81.52845, 16.57063 ], [ 81.52367, 16.57019 ], [ 81.5201, 16.57647 ], [ 81.51965, 16.5815 ], [ 81.51384, 16.58234 ], [ 81.51135, 16.58362 ], [ 81.51165, 16.58661 ], [ 81.51077, 16.58683 ], [ 81.51069, 16.58815 ], [ 81.5119, 16.58961 ], [ 81.51405, 16.60012 ], [ 81.51409, 16.60306 ], [ 81.51174, 16.60431 ], [ 81.51159, 16.60623 ], [ 81.51162, 16.61168 ], [ 81.51333, 16.61529 ], [ 81.51254, 16.61722 ], [ 81.51304, 16.62461 ], [ 81.51854, 16.63096 ], [ 81.52022, 16.63462 ], [ 81.52531, 16.62907 ], [ 81.53184, 16.62849 ], [ 81.5342, 16.62694 ], [ 81.53664, 16.63425 ], [ 81.54227, 16.63659 ], [ 81.54294, 16.6406 ], [ 81.55165, 16.64117 ] ] ] } },
{ "type": "Feature", "properties": { "OBJECTID": 967, "state_lgd": "28", "state_name": "ANDHRA PRADESH", "district_lgd": "546", "district_name": "WEST GODAVARI", "district_name_source": "district_table", "subdistrict_lgd": "4988", "subdistrict_name": "PALAKOLLU", "subdistrict_type": "Mandal", "name_corrupted": false, "remarks": "", "label_lon": 81.691950747881208, "label_lat": 16.517991510624455 }, "geometry": { "type": "Polygon", "coordinates": [ [ [ 81.67986, 16.58742 ], [ 81.68655, 16.58589 ], [ 81.68532, 16.58548 ], [ 81.68463, 16.58127 ], [ 81.68642, 16.57598 ], [ 81.68639, 16.57043 ], [ 81.68991, 16.5691 ], [ 81.69154, 16.56987 ], [ 81.69336, 16.56943 ], [ 81.69473, 16.57138 ], [ 81.70302, 16.56877 ], [ 81.7006, 16.56707 ], [ 81.69965, 16.56528 ], [ 81.69884, 16.55808 ], [ 81.70044, 16.55734 ], [ 81.70098, 16.55405 ], [ 81.70356, 16.54945 ], [ 81.70323, 16.54754 ], [ 81.70953, 16.54595 ], [ 81.71258, 16.54296 ], [ 81.72469, 16.5415 ], [ 81.73243, 16.53909 ], [ 81.73583, 16.53894 ], [ 81.73401, 16.52808 ], [ 81.73988, 16.52473 ], [ 81.7498, 16.52262 ], [ 81.74883, 16.51916 ], [ 81.74706, 16.5171 ], [ 81.74631, 16.51378 ], [ 81.74764, 16.50574 ], [ 81.74604, 16.49968 ], [ 81.74593, 16.48965 ], [ 81.74168, 16.4818 ], [ 81.74143, 16.47964 ], [ 81.73837, 16.47302 ], [ 81.7313, 16.47918 ], [ 81.72843, 16.48012 ], [ 81.72682, 16.47929 ], [ 81.712, 16.48528 ], [ 81.70868, 16.47532 ], [ 81.70339, 16.478 ], [ 81.70065, 16.47117 ], [ 81.69502, 16.47401 ], [ 81.68915, 16.47444 ], [ 81.68536, 16.4766 ], [ 81.6837, 16.47973 ], [ 81.68278, 16.48381 ], [ 81.68121, 16.48554 ], [ 81.67628, 16.48645 ], [ 81.67281, 16.48379 ], [ 81.66789, 16.48739 ], [ 81.66181, 16.48961 ], [ 81.65759, 16.48757 ], [ 81.65145, 16.48596 ], [ 81.65094, 16.49118 ], [ 81.6486, 16.49417 ], [ 81.64685, 16.49446 ], [ 81.64528, 16.49437 ], [ 81.64451, 16.49098 ], [ 81.64026, 16.4912 ], [ 81.64028, 16.4924 ], [ 81.63822, 16.49253 ], [ 81.63814, 16.49161 ], [ 81.63587, 16.49034 ], [ 81.63672, 16.49724 ], [ 81.63969, 16.49676 ], [ 81.64019, 16.49787 ], [ 81.63939, 16.4991 ], [ 81.63706, 16.49992 ], [ 81.63558, 16.50205 ], [ 81.63713, 16.50292 ], [ 81.63819, 16.50613 ], [ 81.63791, 16.50964 ], [ 81.63578, 16.51455 ], [ 81.64005, 16.51688 ], [ 81.64084, 16.51884 ], [ 81.6401, 16.52369 ], [ 81.64091, 16.52391 ], [ 81.64205, 16.52681 ], [ 81.6419, 16.52838 ], [ 81.63967, 16.52968 ], [ 81.63756, 16.52716 ], [ 81.63621, 16.52901 ], [ 81.63574, 16.53265 ], [ 81.63649, 16.53399 ], [ 81.63845, 16.53489 ], [ 81.63908, 16.53203 ], [ 81.64173, 16.53138 ], [ 81.64343, 16.54224 ], [ 81.64417, 16.53892 ], [ 81.65047, 16.53906 ], [ 81.65076, 16.54281 ], [ 81.65241, 16.54387 ], [ 81.65253, 16.54717 ], [ 81.65659, 16.5498 ], [ 81.65981, 16.54904 ], [ 81.66404, 16.54972 ], [ 81.66455, 16.54817 ], [ 81.66498, 16.54959 ], [ 81.66779, 16.55056 ], [ 81.66853, 16.54996 ], [ 81.66839, 16.55068 ], [ 81.67102, 16.55212 ], [ 81.67255, 16.55566 ], [ 81.67448, 16.55685 ], [ 81.67377, 16.55721 ], [ 81.6776, 16.56441 ], [ 81.67607, 16.57478 ], [ 81.67473, 16.57898 ], [ 81.6746, 16.58552 ], [ 81.67574, 16.58646 ], [ 81.67883, 16.58633 ], [ 81.67892, 16.5873 ], [ 81.67986, 16.58742 ] ] ] } },
{ "type": "Feature", "properties": { "OBJECTID": 1009, "state_lgd": "28", "state_name": "ANDHRA PRADESH", "district_lgd": "546", "district_name": "WEST GODAVARI", "district_name_source": "district_table", "subdistrict_lgd": "4969", "subdistrict_name": "PENTAPADU", "subdistrict_type": "Mandal", "name_corrupted": false, "remarks": "", "label_lon": 81.537369342785908, "label_lat": 16.767381562980599 }, "geometry": { "type": "Polygon", "coordinates": [ [ [ 81.57078, 16.82069 ], [ 81.59235, 16.81888 ], [ 81.59232, 16.81747 ], [ 81.58946, 16.81372 ], [ 81.59646, 16.81128 ], [ 81.59861, 16.80748 ], [ 81.60235, 16.80492 ], [ 81.60476, 16.79813 ], [ 81.60483, 16.79558 ], [ 81.60273, 16.79134 ], [ 81.59644, 16.78555 ], [ 81.60084, 16.78458 ], [ 81.60579, 16.78207 ], [ 81.61223, 16.78167 ], [ 81.60525, 16.77475 ], [ 81.60509, 16.77326 ], [ 81.6074, 16.77065 ], [ 81.60569, 16.76956 ], [ 81.60507, 16.76761 ], [ 81.60751, 16.76694 ], [ 81.60647, 16.76549 ], [ 81.60955, 16.76374 ], [ 81.60903, 16.75903 ], [ 81.61358, 16.75813 ], [ 81.61335, 16.75589 ], [ 81.6126, 16.75385 ], [ 81.61016, 16.75196 ], [ 81.61012, 16.75049 ], [ 81.60847, 16.7508 ], [ 81.60791, 16.75004 ], [ 81.60579, 16.7452 ], [ 81.60358, 16.74505 ], [ 81.60092, 16.74603 ], [ 81.59916, 16.74554 ], [ 81.59754, 16.74685 ], [ 81.59712, 16.74623 ], [ 81.5987, 16.74322 ], [ 81.59704, 16.74067 ], [ 81.59525, 16.73419 ], [ 81.59671, 16.72822 ], [ 81.59435, 16.72184 ], [ 81.59366, 16.72255 ], [ 81.58325, 16.72384 ], [ 81.5691, 16.72327 ], [ 81.56669, 16.73254 ], [ 81.56814, 16.73807 ], [ 81.57014, 16.74172 ], [ 81.56732, 16.74488 ], [ 81.56456, 16.75918 ], [ 81.56207, 16.75845 ], [ 81.55519, 16.75981 ], [ 81.55371, 16.76321 ], [ 81.5469, 16.73598 ], [ 81.54468, 16.73672 ], [ 81.54243, 16.73453 ], [ 81.5409, 16.73739 ], [ 81.53659, 16.73703 ], [ 81.53215, 16.73832 ], [ 81.5319, 16.73411 ], [ 81.53024, 16.73619 ], [ 81.52927, 16.73608 ], [ 81.52827, 16.73439 ], [ 81.52711, 16.73591 ], [ 81.52666, 16.73354 ], [ 81.52817, 16.73152 ], [ 81.52534, 16.73127 ], [ 81.52407, 16.73319 ], [ 81.52272, 16.73238 ], [ 81.52236, 16.73084 ], [ 81.5218, 16.73165 ], [ 81.52276, 16.73413 ], [ 81.51997, 16.7343 ], [ 81.51859, 16.73221 ], [ 81.51817, 16.7331 ], [ 81.51926, 16.73665 ], [ 81.51873, 16.73752 ], [ 81.51738, 16.73761 ], [ 81.51421, 16.73425 ], [ 81.51178, 16.72928 ], [ 81.50811, 16.72851 ], [ 81.50368, 16.72584 ], [ 81.50164, 16.72664 ], [ 81.49835, 16.72982 ], [ 81.49443, 16.73007 ], [ 81.49225, 16.73337 ], [ 81.49017, 16.73493 ], [ 81.47779, 16.73643 ], [ 81.47637, 16.73518 ], [ 81.4756, 16.73088 ], [ 81.47439, 16.73047 ], [ 81.46996, 16.73173 ], [ 81.46927, 16.72622 ], [ 81.46731, 16.72596 ], [ 81.46586, 16.72718 ], [ 81.46191, 16.72758 ], [ 81.45952, 16.7247 ], [ 81.45095, 16.72561 ], [ 81.44928, 16.72315 ], [ 81.44676, 16.72689 ], [ 81.44648, 16.72867 ], [ 81.4482, 16.73217 ], [ 81.4481, 16.73393 ], [ 81.44317, 16.73446 ], [ 81.44214, 16.74864 ], [ 81.44066, 16.74926 ], [ 81.4405, 16.75033 ], [ 81.44194, 16.75365 ], [ 81.43983, 16.75721 ], [ 81.4549, 16.75576 ], [ 81.46297, 16.75398 ], [ 81.4658, 16.7544 ], [ 81.46619, 16.75656 ], [ 81.46752, 16.75806 ], [ 81.46981, 16.75777 ], [ 81.47051, 16.75927 ], [ 81.47135, 16.75934 ], [ 81.4796, 16.75761 ], [ 81.4811, 16.75621 ], [ 81.48088, 16.75929 ], [ 81.47754, 16.76073 ], [ 81.47697, 16.764 ], [ 81.47529, 16.76636 ], [ 81.4763, 16.77624 ], [ 81.47237, 16.77956 ], [ 81.47891, 16.78982 ], [ 81.48129, 16.79658 ], [ 81.4829, 16.79753 ], [ 81.48481, 16.7973 ], [ 81.49863, 16.79338 ], [ 81.50217, 16.79319 ], [ 81.50225, 16.7939 ], [ 81.50498, 16.79413 ], [ 81.50871, 16.7926 ], [ 81.50877, 16.78954 ], [ 81.51332, 16.78947 ], [ 81.52017, 16.7918 ], [ 81.52127, 16.79831 ], [ 81.52217, 16.79982 ], [ 81.52126, 16.79084 ], [ 81.52693, 16.78898 ], [ 81.53402, 16.78808 ], [ 81.53448, 16.78971 ], [ 81.53406, 16.7926 ], [ 81.53291, 16.79449 ], [ 81.53286, 16.79795 ], [ 81.53497, 16.80044 ], [ 81.53696, 16.80146 ], [ 81.53961, 16.80526 ], [ 81.54239, 16.81612 ], [ 81.54452, 16.81655 ], [ 81.54438, 16.81328 ], [ 81.55111, 16.81358 ], [ 81.5541, 16.81161 ], [ 81.55514, 16.8117 ], [ 81.56048, 16.81628 ], [ 81.56291, 16.82266 ], [ 81.57078, 16.82069 ] ] ] } },
{ "type": "Feature", "properties": { "OBJECTID": 1011, "state_lgd": "28", "state_name": "ANDHRA PRADESH", "district_lgd": "546", "district_name": "WEST GODAVARI", "district_name_source": "district_table", "subdistrict_lgd": "4980", "subdistrict_name": "PENUGONDA", "subdistrict_type": "Mandal", "name_corrupted": false, "remarks": "", "label_lon": 81.789069290009934, "label_lat": 16.651226493680827 }, "geometry": { "type": "Polygon", "coordinates": [ [ [ 81.80146, 16.69462 ], [ 81.80605, 16.68963 ], [ 81.81109, 16.67913 ], [ 81.83905, 16.65127 ], [ 81.84194, 16.64726 ], [ 81.84674, 16.63522 ], [ 81.84557, 16.63191 ], [ 81.84569, 16.62541 ], [ 81.84638, 16.62359 ], [ 81.84525, 16.61881 ], [ 81.83197, 16.61994 ], [ 81.82567, 16.61842 ], [ 81.81782, 16.62144 ], [ 81.81268, 16.62018 ], [ 81.80478, 16.62298 ], [ 81.80272, 16.62289 ], [ 81.80168, 16.62196 ], [ 81.79394, 16.62141 ], [ 81.77859, 16.623 ], [ 81.77558, 16.62442 ], [ 81.76798, 16.62586 ], [ 81.76514, 16.62815 ], [ 81.75832, 16.62906 ], [ 81.74589, 16.63423 ], [ 81.73948, 16.63521 ], [ 81.7325, 16.6382 ], [ 81.73271, 16.6439 ], [ 81.72992, 16.64507 ], [ 81.73178, 16.65689 ], [ 81.73054, 16.65838 ], [ 81.72498, 16.65961 ], [ 81.72558, 16.66284 ], [ 81.7326, 16.66126 ], [ 81.73342, 16.66928 ], [ 81.73823, 16.6691 ], [ 81.7396, 16.67445 ], [ 81.74233, 16.6748 ], [ 81.74527, 16.67353 ], [ 81.76787, 16.67389 ], [ 81.76842, 16.68105 ], [ 81.78018, 16.68219 ], [ 81.78384, 16.68456 ], [ 81.78901, 16.68484 ], [ 81.78781, 16.6928 ], [ 81.7882, 16.69449 ], [ 81.80146, 16.69462 ] ] ] } },
{ "type": "Feature", "properties": { "OBJECTID": 1013, "state_lgd": "28", "state_name": "ANDHRA PRADESH", "district_lgd": "546", "district_name": "WEST GODAVARI", "district_name_source": "district_table", "subdistrict_lgd": "4978", "subdistrict_name": "PENUMANTRA", "subdistrict_type": "Mandal", "name_corrupted": false, "remarks": "", "label_lon": 81.67623243835412, "label_lat": 16.637244913999535 }, "geometry": { "type": "Polygon", "coordinates": [ [ [ 81.66284, 16.69209 ], [ 81.66595, 16.69249 ], [ 81.66815, 16.69386 ], [ 81.67313, 16.69188 ], [ 81.67516, 16.68909 ], [ 81.67888, 16.68695 ], [ 81.67868, 16.68312 ], [ 81.67666, 16.6781 ], [ 81.68016, 16.67688 ], [ 81.67996, 16.67073 ], [ 81.68609, 16.66949 ], [ 81.68691, 16.66839 ], [ 81.68465, 16.66344 ], [ 81.68402, 16.65642 ], [ 81.68269, 16.65283 ], [ 81.68263, 16.6515 ], [ 81.68419, 16.65001 ], [ 81.68515, 16.64654 ], [ 81.68531, 16.64273 ], [ 81.68645, 16.64286 ], [ 81.68904, 16.64092 ], [ 81.69204, 16.64005 ], [ 81.69528, 16.63745 ], [ 81.69673, 16.6379 ], [ 81.6987, 16.63722 ], [ 81.69907, 16.64197 ], [ 81.70335, 16.64364 ], [ 81.70754, 16.6528 ], [ 81.71857, 16.64783 ], [ 81.71868, 16.64691 ], [ 81.7214, 16.64585 ], [ 81.72869, 16.64556 ], [ 81.73244, 16.64422 ], [ 81.7325, 16.6382 ], [ 81.7343, 16.637 ], [ 81.73948, 16.63521 ], [ 81.74589, 16.63423 ], [ 81.75832, 16.62906 ], [ 81.76514, 16.62815 ], [ 81.76747, 16.62629 ], [ 81.76886, 16.62271 ], [ 81.76724, 16.62135 ], [ 81.76704, 16.61934 ], [ 81.76461, 16.61825 ], [ 81.75931, 16.62013 ], [ 81.75298, 16.62044 ], [ 81.74831, 16.61732 ], [ 81.74589, 16.61724 ], [ 81.7254, 16.61948 ], [ 81.72442, 16.61929 ], [ 81.72363, 16.6176 ], [ 81.71799, 16.61827 ], [ 81.71732, 16.61285 ], [ 81.71461, 16.60501 ], [ 81.70968, 16.5983 ], [ 81.70586, 16.59673 ], [ 81.70515, 16.5949 ], [ 81.70054, 16.59577 ], [ 81.69967, 16.59496 ], [ 81.69527, 16.58669 ], [ 81.68738, 16.58871 ], [ 81.68655, 16.58589 ], [ 81.67892, 16.5873 ], [ 81.67821, 16.59521 ], [ 81.67901, 16.59817 ], [ 81.67763, 16.60373 ], [ 81.67936, 16.61015 ], [ 81.68028, 16.61046 ], [ 81.68131, 16.61244 ], [ 81.68003, 16.62024 ], [ 81.66527, 16.61834 ], [ 81.66526, 16.61352 ], [ 81.66673, 16.61172 ], [ 81.66753, 16.60738 ], [ 81.65151, 16.61339 ], [ 81.64464, 16.60847 ], [ 81.63973, 16.60656 ], [ 81.63848, 16.60698 ], [ 81.63673, 16.60855 ], [ 81.63272, 16.61715 ], [ 81.62624, 16.61925 ], [ 81.62177, 16.61975 ], [ 81.61751, 16.62401 ], [ 81.61426, 16.62518 ], [ 81.61213, 16.63075 ], [ 81.61404, 16.63378 ], [ 81.61548, 16.63869 ], [ 81.61824, 16.64041 ], [ 81.61872, 16.64306 ], [ 81.6209, 16.64723 ], [ 81.61988, 16.64813 ], [ 81.62452, 16.65302 ], [ 81.62474, 16.65471 ], [ 81.62824, 16.66089 ], [ 81.62775, 16.66196 ], [ 81.6237, 16.66392 ], [ 81.62513, 16.66661 ], [ 81.62669, 16.66755 ], [ 81.62905, 16.66621 ], [ 81.63008, 16.66821 ], [ 81.63279, 16.67011 ], [ 81.648, 16.66906 ], [ 81.64712, 16.68191 ], [ 81.6479, 16.68167 ], [ 81.64976, 16.68851 ], [ 81.65646, 16.69563 ], [ 81.66169, 16.69353 ], [ 81.66284, 16.69209 ] ] ] } },
{ "type": "Feature", "properties": { "OBJECTID": 1025, "state_lgd": "28", "state_name": "ANDHRA PRADESH", "district_lgd": "546", "district_name": "WEST GODAVARI", "district_name_source": "district_table", "subdistrict_lgd": "4982", "subdistrict_name": "PODURU", "subdistrict_type": "Mandal", "name_corrupted": false, "remarks": "", "label_lon": 81.74875813847062, "label_lat": 16.568509855665155 }, "geometry": { "type": "Polygon", "coordinates": [ [ [ 81.76404, 16.6183 ], [ 81.76704, 16.61934 ], [ 81.76699, 16.61781 ], [ 81.76914, 16.61637 ], [ 81.77022, 16.61316 ], [ 81.77507, 16.60971 ], [ 81.77436, 16.60237 ], [ 81.77595, 16.59831 ], [ 81.77563, 16.58971 ], [ 81.78207, 16.58797 ], [ 81.7819, 16.58636 ], [ 81.78089, 16.58573 ], [ 81.78364, 16.58381 ], [ 81.783, 16.5821 ], [ 81.77961, 16.57957 ], [ 81.77984, 16.57761 ], [ 81.77723, 16.57858 ], [ 81.77573, 16.57706 ], [ 81.77579, 16.57469 ], [ 81.77863, 16.57001 ], [ 81.78492, 16.56423 ], [ 81.78803, 16.56559 ], [ 81.7892, 16.56908 ], [ 81.7922, 16.56713 ], [ 81.79318, 16.56418 ], [ 81.79055, 16.55961 ], [ 81.79201, 16.55634 ], [ 81.79479, 16.55731 ], [ 81.79957, 16.55543 ], [ 81.80809, 16.55447 ], [ 81.81892, 16.55194 ], [ 81.81909, 16.55087 ], [ 81.82025, 16.55019 ], [ 81.82063, 16.54318 ], [ 81.8188, 16.54008 ], [ 81.81752, 16.53534 ], [ 81.81008, 16.53527 ], [ 81.80905, 16.53342 ], [ 81.80392, 16.53336 ], [ 81.80313, 16.53132 ], [ 81.8011, 16.53099 ], [ 81.79978, 16.53205 ], [ 81.79972, 16.53539 ], [ 81.79818, 16.53385 ], [ 81.79517, 16.52795 ], [ 81.78743, 16.53224 ], [ 81.77823, 16.5354 ], [ 81.77604, 16.52849 ], [ 81.7735, 16.52367 ], [ 81.77697, 16.5203 ], [ 81.77395, 16.51243 ], [ 81.77024, 16.51345 ], [ 81.76767, 16.51631 ], [ 81.76198, 16.51945 ], [ 81.73988, 16.52473 ], [ 81.73442, 16.52766 ], [ 81.73457, 16.53322 ], [ 81.73583, 16.53894 ], [ 81.73243, 16.53909 ], [ 81.72469, 16.5415 ], [ 81.71258, 16.54296 ], [ 81.70953, 16.54595 ], [ 81.70323, 16.54754 ], [ 81.70356, 16.54945 ], [ 81.70098, 16.55405 ], [ 81.70044, 16.55734 ], [ 81.69884, 16.55808 ], [ 81.69965, 16.56528 ], [ 81.7006, 16.56707 ], [ 81.70302, 16.56877 ], [ 81.69473, 16.57138 ], [ 81.69336, 16.56943 ], [ 81.69154, 16.56987 ], [ 81.68991, 16.5691 ], [ 81.68639, 16.57043 ], [ 81.68642, 16.57598 ], [ 81.68463, 16.58127 ], [ 81.68532, 16.58548 ], [ 81.68655, 16.58589 ], [ 81.68738, 16.58871 ], [ 81.69527, 16.58669 ], [ 81.70054, 16.59577 ], [ 81.70515, 16.5949 ], [ 81.70586, 16.59673 ], [ 81.70968, 16.5983 ], [ 81.71461, 16.60501 ], [ 81.71732, 16.61285 ], [ 81.71799, 16.61827 ], [ 81.72363, 16.6176 ], [ 81.72442, 16.61929 ], [ 81.7254, 16.61948 ], [ 81.74831, 16.61732 ], [ 81.75298, 16.62044 ], [ 81.75428, 16.62049 ], [ 81.75989, 16.62001 ], [ 81.76404, 16.6183 ] ] ] } },
{ "type": "Feature", "properties": { "OBJECTID": 1131, "state_lgd": "28", "state_name": "ANDHRA PRADESH", "district_lgd": "546", "district_name": "WEST GODAVARI", "district_name_source": "district_table", "subdistrict_lgd": "4961", "subdistrict_name": "TADEPALLIGUDEM", "subdistrict_type": "Mandal", "name_corrupted": false, "remarks": "", "label_lon": 81.54519236384607, "label_lat": 16.86822280601298 }, "geometry": { "type": "Polygon", "coordinates": [ [ [ 81.48955, 16.972 ], [ 81.49444, 16.97168 ], [ 81.49486, 16.96797 ], [ 81.49379, 16.96532 ], [ 81.49608, 16.96314 ], [ 81.49922, 16.96323 ], [ 81.50066, 16.96153 ], [ 81.50263, 16.95583 ], [ 81.51072, 16.95346 ], [ 81.51501, 16.94908 ], [ 81.51832, 16.94721 ], [ 81.52011, 16.94731 ], [ 81.52209, 16.94585 ], [ 81.52407, 16.9456 ], [ 81.52717, 16.94298 ], [ 81.52918, 16.94238 ], [ 81.53111, 16.94483 ], [ 81.53259, 16.9444 ], [ 81.53394, 16.94506 ], [ 81.53664, 16.9481 ], [ 81.53941, 16.94813 ], [ 81.54239, 16.94397 ], [ 81.54485, 16.94284 ], [ 81.54483, 16.94077 ], [ 81.54678, 16.93601 ], [ 81.55043, 16.9336 ], [ 81.54901, 16.93222 ], [ 81.55034, 16.93027 ], [ 81.55142, 16.92433 ], [ 81.55256, 16.92325 ], [ 81.5523, 16.92066 ], [ 81.55298, 16.9187 ], [ 81.56072, 16.91601 ], [ 81.56426, 16.9137 ], [ 81.56556, 16.91373 ], [ 81.569, 16.90966 ], [ 81.57395, 16.90115 ], [ 81.57939, 16.90254 ], [ 81.58246, 16.90137 ], [ 81.5899, 16.90136 ], [ 81.592, 16.90461 ], [ 81.59283, 16.9047 ], [ 81.60143, 16.90217 ], [ 81.60686, 16.90451 ], [ 81.60835, 16.90323 ], [ 81.60904, 16.89893 ], [ 81.61254, 16.89788 ], [ 81.61437, 16.8984 ], [ 81.61647, 16.89708 ], [ 81.61734, 16.89433 ], [ 81.62003, 16.89263 ], [ 81.62341, 16.89203 ], [ 81.62552, 16.88702 ], [ 81.62678, 16.88659 ], [ 81.62653, 16.88338 ], [ 81.62726, 16.88125 ], [ 81.62904, 16.88096 ], [ 81.62894, 16.8792 ], [ 81.63006, 16.87917 ], [ 81.62943, 16.87581 ], [ 81.63077, 16.87527 ], [ 81.62945, 16.87459 ], [ 81.6303, 16.87251 ], [ 81.62932, 16.87171 ], [ 81.62949, 16.86968 ], [ 81.63052, 16.86784 ], [ 81.63147, 16.86793 ], [ 81.63056, 16.86668 ], [ 81.63114, 16.86593 ], [ 81.63061, 16.86311 ], [ 81.63319, 16.86282 ], [ 81.63486, 16.86064 ], [ 81.63765, 16.8596 ], [ 81.63546, 16.85817 ], [ 81.63739, 16.85702 ], [ 81.63551, 16.8559 ], [ 81.6366, 16.85388 ], [ 81.63802, 16.85365 ], [ 81.63927, 16.85664 ], [ 81.64311, 16.85643 ], [ 81.64954, 16.85259 ], [ 81.65212, 16.85226 ], [ 81.65332, 16.85294 ], [ 81.65634, 16.85134 ], [ 81.65438, 16.84686 ], [ 81.65242, 16.8468 ], [ 81.65369, 16.84439 ], [ 81.65232, 16.83783 ], [ 81.64847, 16.83241 ], [ 81.64132, 16.83002 ], [ 81.63886, 16.82642 ], [ 81.63784, 16.82251 ], [ 81.63194, 16.82526 ], [ 81.61359, 16.82692 ], [ 81.61432, 16.81473 ], [ 81.61427, 16.81065 ], [ 81.61302, 16.80938 ], [ 81.61342, 16.80767 ], [ 81.60811, 16.80868 ], [ 81.6069, 16.80541 ], [ 81.60414, 16.80641 ], [ 81.60235, 16.80492 ], [ 81.59861, 16.80748 ], [ 81.59567, 16.81184 ], [ 81.58946, 16.81372 ], [ 81.59232, 16.81747 ], [ 81.59235, 16.81888 ], [ 81.59167, 16.81913 ], [ 81.57078, 16.82069 ], [ 81.56291, 16.82266 ], [ 81.56048, 16.81628 ], [ 81.55514, 16.8117 ], [ 81.5541, 16.81161 ], [ 81.55111, 16.81358 ], [ 81.54438, 16.81328 ], [ 81.54452, 16.81655 ], [ 81.54313, 16.81654 ], [ 81.54136, 16.81373 ], [ 81.53961, 16.80526 ], [ 81.53696, 16.80146 ], [ 81.53497, 16.80044 ], [ 81.53286, 16.79795 ], [ 81.53291, 16.79449 ], [ 81.53406, 16.7926 ], [ 81.53448, 16.78971 ], [ 81.53402, 16.78808 ], [ 81.52693, 16.78898 ], [ 81.52126, 16.79084 ], [ 81.52217, 16.79982 ], [ 81.52127, 16.79831 ], [ 81.52017, 16.7918 ], [ 81.51332, 16.78947 ], [ 81.50877, 16.78954 ], [ 81.50871, 16.7926 ], [ 81.50633, 16.79378 ], [ 81.50321, 16.79419 ], [ 81.50217, 16.79319 ], [ 81.49863, 16.79338 ], [ 81.49018, 16.79551 ], [ 81.49114, 16.80055 ], [ 81.49347, 16.80393 ], [ 81.49794, 16.81421 ], [ 81.49665, 16.81361 ], [ 81.49306, 16.81486 ], [ 81.48669, 16.81819 ], [ 81.48818, 16.82506 ], [ 81.48256, 16.8315 ], [ 81.48132, 16.83447 ], [ 81.48133, 16.8399 ], [ 81.47843, 16.84193 ], [ 81.47906, 16.84788 ], [ 81.47687, 16.8533 ], [ 81.47671, 16.85639 ], [ 81.47568, 16.85758 ], [ 81.47509, 16.86486 ], [ 81.47137, 16.86339 ], [ 81.46809, 16.86564 ], [ 81.46525, 16.8658 ], [ 81.46104, 16.86933 ], [ 81.45716, 16.87032 ], [ 81.46067, 16.87916 ], [ 81.46025, 16.88246 ], [ 81.4614, 16.89047 ], [ 81.46042, 16.89911 ], [ 81.46663, 16.8977 ], [ 81.47182, 16.89763 ], [ 81.47598, 16.90293 ], [ 81.4806, 16.90516 ], [ 81.48485, 16.9095 ], [ 81.48671, 16.91273 ], [ 81.48838, 16.92214 ], [ 81.48661, 16.9302 ], [ 81.4878, 16.93787 ], [ 81.48547, 16.94426 ], [ 81.48806, 16.9506 ], [ 81.49257, 16.95491 ], [ 81.49271, 16.95763 ], [ 81.49044, 16.96183 ], [ 81.48874, 16.96742 ], [ 81.48955, 16.972 ] ] ] } },
{ "type": "Feature", "properties": { "OBJECTID": 1141, "state_lgd": "28", "state_name": "ANDHRA PRADESH", "district_lgd": "546", "district_name": "WEST GODAVARI", "district_name_source": "district_table", "subdistrict_lgd": "4972", "subdistrict_name": "TANUKU", "subdistrict_type": "Mandal", "name_corrupted": false, "remarks": "", "label_lon": 81.659553930445838, "label_lat": 16.757435440817073 }, "geometry": { "type": "Polygon", "coordinates": [ [ [ 81.61359, 16.82692 ], [ 81.63194, 16.82526 ], [ 81.63784, 16.82251 ], [ 81.63629, 16.8143 ], [ 81.63216, 16.80224 ], [ 81.62497, 16.79544 ], [ 81.62942, 16.79458 ], [ 81.63135, 16.7902 ], [ 81.63653, 16.78879 ], [ 81.63648, 16.78542 ], [ 81.6417, 16.78494 ], [ 81.64414, 16.78563 ], [ 81.64588, 16.7842 ], [ 81.64522, 16.7785 ], [ 81.65667, 16.77545 ], [ 81.66837, 16.7745 ], [ 81.66988, 16.76663 ], [ 81.67414, 16.76653 ], [ 81.67428, 16.76861 ], [ 81.67588, 16.76787 ], [ 81.67685, 16.76586 ], [ 81.67657, 16.76483 ], [ 81.67879, 16.76202 ], [ 81.68031, 16.7613 ], [ 81.68162, 16.76396 ], [ 81.68212, 16.76741 ], [ 81.6861, 16.76677 ], [ 81.68588, 16.76168 ], [ 81.68764, 16.76109 ], [ 81.6899, 16.76665 ], [ 81.69192, 16.76599 ], [ 81.69198, 16.76438 ], [ 81.6936, 16.76424 ], [ 81.6953, 16.76477 ], [ 81.69603, 16.76687 ], [ 81.69772, 16.76586 ], [ 81.70506, 16.76473 ], [ 81.70992, 16.76591 ], [ 81.72134, 16.76439 ], [ 81.72001, 16.77019 ], [ 81.72574, 16.77176 ], [ 81.72605, 16.76381 ], [ 81.727, 16.76011 ], [ 81.72417, 16.75939 ], [ 81.7239, 16.75842 ], [ 81.7216, 16.74487 ], [ 81.72287, 16.74391 ], [ 81.72293, 16.74227 ], [ 81.7204, 16.72879 ], [ 81.71497, 16.7283 ], [ 81.71369, 16.7271 ], [ 81.70992, 16.72749 ], [ 81.70837, 16.72604 ], [ 81.70525, 16.72624 ], [ 81.7036, 16.72047 ], [ 81.6998, 16.72071 ], [ 81.69814, 16.7224 ], [ 81.69285, 16.72306 ], [ 81.69024, 16.71699 ], [ 81.68854, 16.71488 ], [ 81.68881, 16.71356 ], [ 81.69399, 16.71215 ], [ 81.694, 16.70906 ], [ 81.69145, 16.70325 ], [ 81.68694, 16.70362 ], [ 81.67534, 16.70878 ], [ 81.65666, 16.71094 ], [ 81.65784, 16.71454 ], [ 81.65711, 16.7196 ], [ 81.65607, 16.72116 ], [ 81.65798, 16.72386 ], [ 81.66133, 16.72605 ], [ 81.65767, 16.72863 ], [ 81.65578, 16.729 ], [ 81.65044, 16.72643 ], [ 81.6419, 16.72018 ], [ 81.64239, 16.72379 ], [ 81.64056, 16.72458 ], [ 81.64042, 16.7265 ], [ 81.63542, 16.72714 ], [ 81.63505, 16.72879 ], [ 81.63371, 16.72898 ], [ 81.63532, 16.73912 ], [ 81.63552, 16.75106 ], [ 81.6126, 16.75385 ], [ 81.61358, 16.75813 ], [ 81.60903, 16.75903 ], [ 81.60955, 16.76374 ], [ 81.60647, 16.76549 ], [ 81.60751, 16.76694 ], [ 81.60507, 16.76761 ], [ 81.60569, 16.76956 ], [ 81.6074, 16.77065 ], [ 81.60509, 16.77326 ], [ 81.60525, 16.77475 ], [ 81.61223, 16.78167 ], [ 81.60579, 16.78207 ], [ 81.60084, 16.78458 ], [ 81.59644, 16.78555 ], [ 81.60273, 16.79134 ], [ 81.60483, 16.79558 ], [ 81.60476, 16.79813 ], [ 81.60235, 16.80492 ], [ 81.60274, 16.80568 ], [ 81.60414, 16.80641 ], [ 81.6069, 16.80541 ], [ 81.60811, 16.80868 ], [ 81.61342, 16.80767 ], [ 81.61302, 16.80938 ], [ 81.61427, 16.81065 ], [ 81.61432, 16.81473 ], [ 81.61359, 16.82692 ] ] ] } },
{ "type": "Feature", "properties": { "OBJECTID": 1164, "state_lgd": "28", "state_name": "ANDHRA PRADESH", "district_lgd": "546", "district_name": "WEST GODAVARI", "district_name_source": "district_table", "subdistrict_lgd": "4976", "subdistrict_name": "UNDI", "subdistrict_type": "Mandal", "name_corrupted": false, "remarks": "", "label_lon": 81.471919849070559, "label_lat": 16.616012787051336 }, "geometry": { "type": "Polygon", "coordinates": [ [ [ 81.47327, 16.67967 ], [ 81.47608, 16.67509 ], [ 81.47772, 16.67626 ], [ 81.48232, 16.67485 ], [ 81.483, 16.67309 ], [ 81.48907, 16.67391 ], [ 81.4949, 16.67322 ], [ 81.49607, 16.67104 ], [ 81.50045, 16.67028 ], [ 81.49909, 16.66478 ], [ 81.50674, 16.66289 ], [ 81.50692, 16.66687 ], [ 81.51192, 16.666 ], [ 81.51239, 16.66877 ], [ 81.514, 16.66912 ], [ 81.51347, 16.67368 ], [ 81.51432, 16.67413 ], [ 81.52644, 16.67252 ], [ 81.53248, 16.67247 ], [ 81.53248, 16.66652 ], [ 81.54038, 16.66566 ], [ 81.54064, 16.65811 ], [ 81.53939, 16.65387 ], [ 81.54387, 16.65323 ], [ 81.54488, 16.65141 ], [ 81.54475, 16.64791 ], [ 81.54918, 16.64466 ], [ 81.55093, 16.6445 ], [ 81.55193, 16.64158 ], [ 81.54294, 16.6406 ], [ 81.54227, 16.63659 ], [ 81.53664, 16.63425 ], [ 81.5342, 16.62694 ], [ 81.53184, 16.62849 ], [ 81.52531, 16.62907 ], [ 81.52022, 16.63462 ], [ 81.51854, 16.63096 ], [ 81.51265, 16.62385 ], [ 81.51254, 16.61722 ], [ 81.51333, 16.61529 ], [ 81.51162, 16.61168 ], [ 81.51159, 16.60623 ], [ 81.51174, 16.60431 ], [ 81.51409, 16.60306 ], [ 81.51405, 16.60012 ], [ 81.5119, 16.58961 ], [ 81.51069, 16.58815 ], [ 81.51077, 16.58683 ], [ 81.51165, 16.58661 ], [ 81.51135, 16.58362 ], [ 81.50011, 16.58388 ], [ 81.4991, 16.57597 ], [ 81.49552, 16.5764 ], [ 81.49449, 16.57451 ], [ 81.4856, 16.57306 ], [ 81.48342, 16.56094 ], [ 81.4769, 16.56098 ], [ 81.47705, 16.5599 ], [ 81.47385, 16.56046 ], [ 81.47307, 16.55871 ], [ 81.47187, 16.54647 ], [ 81.46994, 16.5451 ], [ 81.46349, 16.54936 ], [ 81.46316, 16.55046 ], [ 81.46404, 16.55046 ], [ 81.46437, 16.5495 ], [ 81.46633, 16.55177 ], [ 81.45623, 16.55434 ], [ 81.45541, 16.55046 ], [ 81.45401, 16.55076 ], [ 81.45255, 16.54458 ], [ 81.45135, 16.54416 ], [ 81.44999, 16.54128 ], [ 81.43733, 16.54475 ], [ 81.43856, 16.55944 ], [ 81.43398, 16.55954 ], [ 81.42813, 16.56102 ], [ 81.42804, 16.56376 ], [ 81.42941, 16.56541 ], [ 81.41684, 16.56914 ], [ 81.40993, 16.57015 ], [ 81.40964, 16.57124 ], [ 81.40646, 16.57272 ], [ 81.40763, 16.57518 ], [ 81.40581, 16.58389 ], [ 81.40623, 16.58453 ], [ 81.40958, 16.58473 ], [ 81.41038, 16.59055 ], [ 81.41375, 16.59904 ], [ 81.41118, 16.60026 ], [ 81.41605, 16.61135 ], [ 81.4161, 16.61358 ], [ 81.41703, 16.61459 ], [ 81.41992, 16.61405 ], [ 81.42163, 16.61581 ], [ 81.4195, 16.6247 ], [ 81.42077, 16.62778 ], [ 81.42662, 16.62725 ], [ 81.43112, 16.6292 ], [ 81.43404, 16.62817 ], [ 81.43576, 16.63679 ], [ 81.43447, 16.63986 ], [ 81.43615, 16.64262 ], [ 81.43979, 16.64403 ], [ 81.44318, 16.64865 ], [ 81.44364, 16.65179 ], [ 81.44537, 16.65406 ], [ 81.44381, 16.66313 ], [ 81.44612, 16.66634 ], [ 81.44558, 16.66941 ], [ 81.44821, 16.67148 ], [ 81.45118, 16.67191 ], [ 81.45325, 16.67319 ], [ 81.45309, 16.67701 ], [ 81.45375, 16.67736 ], [ 81.45659, 16.67577 ], [ 81.45826, 16.67673 ], [ 81.45978, 16.67541 ], [ 81.46964, 16.67784 ], [ 81.47327, 16.67967 ] ] ] } },
{ "type": "Feature", "properties": { "OBJECTID": 1210, "state_lgd": "28", "state_name": "ANDHRA PRADESH", "district_lgd": "546", "district_name": "WEST GODAVARI", "district_name_source": "district_table", "subdistrict_lgd": "4983", "subdistrict_name": "VIRAVASARAM", "subdistrict_type": "Mandal", "name_corrupted": false, "remarks": "", "label_lon": 81.63115164158792, "label_lat": 16.552561917495339 }, "geometry": { "type": "Polygon", "coordinates": [ [ [ 81.61323, 16.62532 ], [ 81.61751, 16.62401 ], [ 81.62177, 16.61975 ], [ 81.62624, 16.61925 ], [ 81.63272, 16.61715 ], [ 81.63673, 16.60855 ], [ 81.63973, 16.60656 ], [ 81.64464, 16.60847 ], [ 81.65151, 16.61339 ], [ 81.66753, 16.60738 ], [ 81.66673, 16.61172 ], [ 81.66526, 16.61352 ], [ 81.66544, 16.61844 ], [ 81.68003, 16.62024 ], [ 81.68134, 16.61386 ], [ 81.68113, 16.61163 ], [ 81.67936, 16.61015 ], [ 81.67763, 16.60373 ], [ 81.67901, 16.59817 ], [ 81.67821, 16.59521 ], [ 81.67883, 16.58633 ], [ 81.67574, 16.58646 ], [ 81.6746, 16.58552 ], [ 81.67473, 16.57898 ], [ 81.67774, 16.56604 ], [ 81.67651, 16.56134 ], [ 81.67377, 16.55721 ], [ 81.67448, 16.55685 ], [ 81.67255, 16.55566 ], [ 81.67102, 16.55212 ], [ 81.66839, 16.55068 ], [ 81.66853, 16.54996 ], [ 81.66779, 16.55056 ], [ 81.66498, 16.54959 ], [ 81.66455, 16.54817 ], [ 81.66404, 16.54972 ], [ 81.65981, 16.54904 ], [ 81.65704, 16.54989 ], [ 81.65293, 16.54755 ], [ 81.65219, 16.54639 ], [ 81.65241, 16.54387 ], [ 81.65076, 16.54281 ], [ 81.65047, 16.53906 ], [ 81.64417, 16.53892 ], [ 81.64343, 16.54224 ], [ 81.64173, 16.53138 ], [ 81.63908, 16.53203 ], [ 81.63845, 16.53489 ], [ 81.63649, 16.53399 ], [ 81.63563, 16.53216 ], [ 81.63586, 16.53035 ], [ 81.63756, 16.52716 ], [ 81.63967, 16.52968 ], [ 81.6419, 16.52838 ], [ 81.64205, 16.52681 ], [ 81.64091, 16.52391 ], [ 81.6401, 16.52369 ], [ 81.64084, 16.51884 ], [ 81.64005, 16.51688 ], [ 81.63578, 16.51455 ], [ 81.63791, 16.50964 ], [ 81.63819, 16.50613 ], [ 81.63713, 16.50292 ], [ 81.63558, 16.50205 ], [ 81.63706, 16.49992 ], [ 81.63939, 16.4991 ], [ 81.64019, 16.49787 ], [ 81.63969, 16.49676 ], [ 81.63672, 16.49724 ], [ 81.63566, 16.49215 ], [ 81.63622, 16.48807 ], [ 81.63415, 16.48063 ], [ 81.63351, 16.4716 ], [ 81.62426, 16.46801 ], [ 81.62037, 16.46432 ], [ 81.61734, 16.46343 ], [ 81.61304, 16.46047 ], [ 81.61353, 16.46411 ], [ 81.61409, 16.46417 ], [ 81.61323, 16.46768 ], [ 81.61472, 16.47014 ], [ 81.6121, 16.47313 ], [ 81.60881, 16.47252 ], [ 81.60791, 16.47686 ], [ 81.6051, 16.47662 ], [ 81.60459, 16.47843 ], [ 81.60518, 16.48325 ], [ 81.59889, 16.48415 ], [ 81.60087, 16.49107 ], [ 81.6012, 16.49542 ], [ 81.59052, 16.49744 ], [ 81.58701, 16.50005 ], [ 81.58318, 16.49298 ], [ 81.57469, 16.49511 ], [ 81.5774, 16.5008 ], [ 81.57939, 16.50992 ], [ 81.58657, 16.50743 ], [ 81.5899, 16.51813 ], [ 81.59264, 16.51741 ], [ 81.59362, 16.51913 ], [ 81.59312, 16.52263 ], [ 81.59753, 16.52185 ], [ 81.59987, 16.52406 ], [ 81.59882, 16.52551 ], [ 81.60163, 16.53079 ], [ 81.60225, 16.53412 ], [ 81.60431, 16.53651 ], [ 81.60587, 16.54111 ], [ 81.60944, 16.54515 ], [ 81.60879, 16.54767 ], [ 81.60941, 16.55079 ], [ 81.61065, 16.55137 ], [ 81.61107, 16.55438 ], [ 81.61239, 16.55558 ], [ 81.61383, 16.56327 ], [ 81.61642, 16.56754 ], [ 81.6163, 16.57265 ], [ 81.61277, 16.57446 ], [ 81.6119, 16.57317 ], [ 81.61366, 16.5712 ], [ 81.61351, 16.56938 ], [ 81.61154, 16.5697 ], [ 81.6091, 16.5688 ], [ 81.60762, 16.5695 ], [ 81.60573, 16.56888 ], [ 81.59695, 16.57128 ], [ 81.59462, 16.57413 ], [ 81.59793, 16.58464 ], [ 81.60289, 16.58469 ], [ 81.60777, 16.58337 ], [ 81.61074, 16.58605 ], [ 81.61461, 16.58572 ], [ 81.61722, 16.59128 ], [ 81.61813, 16.59397 ], [ 81.61158, 16.5952 ], [ 81.61045, 16.6021 ], [ 81.60728, 16.60328 ], [ 81.60714, 16.60429 ], [ 81.60415, 16.60605 ], [ 81.61028, 16.62405 ], [ 81.61282, 16.6246 ], [ 81.61323, 16.62532 ] ] ] } }
]
}
