{
"type": "FeatureCollection",
"name": "261_MON",
"crs": { "type": "name", "properties": { "name": "urn:ogc:def:crs:OGC:1.3:CRS84" } },
"xy_coordinate_resolution": 1e-05,
"features": [
{ "type": "Feature", "properties": { "OBJECTID": 6044, "state_lgd": "13", "state_name": "NAGALAND", "district_lgd": "261", "district_name": "MON", "district_name_source": "district_table", "subdistrict_lgd": "01748", "subdistrict_name": "MON SADAR", "subdistrict_type": "", "name_corrupted": false, "remarks": "", "label_lon": 94.997539513778165, "label_lat": 26.763491029791666 }, "geometry": { "type": "Polygon", "coordinates": [ [ [ 95.09856, 26.80009 ], [ 95.09656, 26.79442 ], [ 95.09413, 26.79343 ], [ 95.09507, 26.78665 ], [ 95.0958, 26.78576 ], [ 95.09435, 26.78126 ], [ 95.09547, 26.77734 ], [ 95.09363, 26.77582 ], [ 95.09359, 26.77349 ], [ 95.09025, 26.76928 ], [ 95.09365, 26.76299 ], [ 95.09174, 26.76322 ], [ 95.08931, 26.76071 ], [ 95.0932, 26.75679 ], [ 95.09316, 26.75482 ], [ 95.09472, 26.75402 ], [ 95.09412, 26.75225 ], [ 95.09821, 26.75399 ], [ 95.10101, 26.75374 ], [ 95.10174, 26.75143 ], [ 95.1001, 26.75106 ], [ 95.09971, 26.75018 ], [ 95.10045, 26.74631 ], [ 95.0997, 26.74382 ], [ 95.10074, 26.73896 ], [ 95.09836, 26.73693 ], [ 95.09713, 26.73751 ], [ 95.09445, 26.73339 ], [ 95.0916, 26.73408 ], [ 95.09143, 26.72917 ], [ 95.08861, 26.72785 ], [ 95.08775, 26.7261 ], [ 95.08563, 26.7268 ], [ 95.08577, 26.7243 ], [ 95.08358, 26.72489 ], [ 95.08058, 26.72357 ], [ 95.07844, 26.72045 ], [ 95.07659, 26.71972 ], [ 95.07529, 26.71805 ], [ 95.07474, 26.71502 ], [ 95.073, 26.71356 ], [ 95.07258, 26.71143 ], [ 95.07164, 26.71141 ], [ 95.07101, 26.714 ], [ 95.07017, 26.71437 ], [ 95.06563, 26.71065 ], [ 95.05821, 26.71073 ], [ 95.05861, 26.7092 ], [ 95.05528, 26.7092 ], [ 95.05717, 26.70631 ], [ 95.05767, 26.7008 ], [ 95.05574, 26.70044 ], [ 95.0534, 26.69844 ], [ 95.05283, 26.69695 ], [ 95.05381, 26.69555 ], [ 95.05209, 26.69443 ], [ 95.05154, 26.69209 ], [ 95.04737, 26.6919 ], [ 95.04818, 26.68987 ], [ 95.04644, 26.68941 ], [ 95.04598, 26.68755 ], [ 95.04681, 26.68576 ], [ 95.04872, 26.68481 ], [ 95.04764, 26.68282 ], [ 95.04829, 26.68108 ], [ 95.0474, 26.6799 ], [ 95.04976, 26.67856 ], [ 95.05641, 26.68254 ], [ 95.05929, 26.6822 ], [ 95.0594, 26.68118 ], [ 95.05483, 26.67511 ], [ 95.06061, 26.67538 ], [ 95.06317, 26.67373 ], [ 95.05795, 26.66995 ], [ 95.05787, 26.66509 ], [ 95.05605, 26.66577 ], [ 95.05237, 26.67004 ], [ 95.05026, 26.66956 ], [ 95.05199, 26.66775 ], [ 95.05217, 26.66553 ], [ 95.05313, 26.66425 ], [ 95.05036, 26.66417 ], [ 95.0522, 26.6621 ], [ 95.05047, 26.66142 ], [ 95.05035, 26.65986 ], [ 95.05106, 26.65961 ], [ 95.05409, 26.66158 ], [ 95.05501, 26.6589 ], [ 95.0549, 26.65819 ], [ 95.05295, 26.65767 ], [ 95.05277, 26.6556 ], [ 95.05056, 26.65665 ], [ 95.04972, 26.65629 ], [ 95.04976, 26.6547 ], [ 95.05158, 26.65315 ], [ 95.04961, 26.65113 ], [ 95.05039, 26.65065 ], [ 95.05363, 26.6521 ], [ 95.05469, 26.65055 ], [ 95.05242, 26.65039 ], [ 95.05245, 26.6484 ], [ 95.04843, 26.64886 ], [ 95.0475, 26.64823 ], [ 95.04717, 26.64522 ], [ 95.04927, 26.64218 ], [ 95.04866, 26.64131 ], [ 95.04596, 26.64097 ], [ 95.04454, 26.64246 ], [ 95.04139, 26.64069 ], [ 95.04168, 26.63967 ], [ 95.04698, 26.638 ], [ 95.04776, 26.63691 ], [ 95.04557, 26.63487 ], [ 95.04148, 26.63559 ], [ 95.04338, 26.63212 ], [ 95.04294, 26.62893 ], [ 95.04061, 26.62824 ], [ 95.03886, 26.62482 ], [ 95.0363, 26.62385 ], [ 95.03257, 26.62388 ], [ 95.03385, 26.62584 ], [ 95.03226, 26.62682 ], [ 95.02568, 26.62326 ], [ 95.0224, 26.623 ], [ 95.02078, 26.62031 ], [ 95.01813, 26.6192 ], [ 95.01759, 26.61976 ], [ 95.01831, 26.62336 ], [ 95.01463, 26.62297 ], [ 95.0134, 26.62432 ], [ 95.01303, 26.62863 ], [ 95.01442, 26.6309 ], [ 95.01224, 26.63414 ], [ 95.01065, 26.63469 ], [ 95.00445, 26.63213 ], [ 95.00225, 26.63366 ], [ 94.99694, 26.63527 ], [ 94.99262, 26.63459 ], [ 94.98973, 26.63517 ], [ 94.98678, 26.63361 ], [ 94.98598, 26.63423 ], [ 94.986, 26.63638 ], [ 94.98417, 26.63597 ], [ 94.97245, 26.63775 ], [ 94.96774, 26.63699 ], [ 94.96657, 26.64065 ], [ 94.96133, 26.64123 ], [ 94.95968, 26.64218 ], [ 94.95506, 26.64072 ], [ 94.95397, 26.6433 ], [ 94.95152, 26.64326 ], [ 94.95022, 26.64648 ], [ 94.94853, 26.64624 ], [ 94.94648, 26.64743 ], [ 94.94301, 26.64502 ], [ 94.94112, 26.64679 ], [ 94.93362, 26.64737 ], [ 94.93261, 26.64404 ], [ 94.93091, 26.64288 ], [ 94.92797, 26.6435 ], [ 94.92443, 26.64277 ], [ 94.92285, 26.64379 ], [ 94.92144, 26.64542 ], [ 94.92258, 26.64758 ], [ 94.92227, 26.65027 ], [ 94.92529, 26.65205 ], [ 94.92498, 26.65412 ], [ 94.92656, 26.65403 ], [ 94.92952, 26.65634 ], [ 94.92888, 26.65923 ], [ 94.93202, 26.66364 ], [ 94.93469, 26.66449 ], [ 94.93523, 26.66751 ], [ 94.93784, 26.67052 ], [ 94.93823, 26.67462 ], [ 94.94069, 26.67426 ], [ 94.94242, 26.67648 ], [ 94.94165, 26.67972 ], [ 94.94475, 26.68091 ], [ 94.94371, 26.68491 ], [ 94.94621, 26.68511 ], [ 94.94701, 26.68828 ], [ 94.9487, 26.68996 ], [ 94.94733, 26.69213 ], [ 94.94937, 26.69333 ], [ 94.9512, 26.69167 ], [ 94.95275, 26.69357 ], [ 94.95532, 26.69195 ], [ 94.95601, 26.69359 ], [ 94.95532, 26.69475 ], [ 94.95365, 26.69546 ], [ 94.95087, 26.69515 ], [ 94.95034, 26.69583 ], [ 94.95448, 26.6966 ], [ 94.95817, 26.69864 ], [ 94.95727, 26.69969 ], [ 94.9578, 26.7008 ], [ 94.96042, 26.70057 ], [ 94.9631, 26.7019 ], [ 94.96322, 26.70347 ], [ 94.96005, 26.70442 ], [ 94.96102, 26.70678 ], [ 94.95743, 26.70983 ], [ 94.95833, 26.71177 ], [ 94.95953, 26.7108 ], [ 94.96277, 26.71272 ], [ 94.96245, 26.71363 ], [ 94.95998, 26.71324 ], [ 94.95881, 26.71423 ], [ 94.96194, 26.71698 ], [ 94.96338, 26.71976 ], [ 94.96525, 26.72036 ], [ 94.96615, 26.72153 ], [ 94.96574, 26.72241 ], [ 94.96669, 26.7234 ], [ 94.96513, 26.72572 ], [ 94.96582, 26.7278 ], [ 94.96538, 26.72927 ], [ 94.9688, 26.73288 ], [ 94.96555, 26.73933 ], [ 94.96698, 26.74277 ], [ 94.96267, 26.74562 ], [ 94.95972, 26.74625 ], [ 94.95506, 26.74593 ], [ 94.9486, 26.74874 ], [ 94.94693, 26.75065 ], [ 94.94239, 26.75043 ], [ 94.93988, 26.74882 ], [ 94.93751, 26.74993 ], [ 94.93623, 26.74899 ], [ 94.93204, 26.74868 ], [ 94.92766, 26.74603 ], [ 94.92532, 26.74541 ], [ 94.92193, 26.7463 ], [ 94.91926, 26.74424 ], [ 94.91429, 26.74596 ], [ 94.91055, 26.7454 ], [ 94.90957, 26.74643 ], [ 94.90725, 26.74571 ], [ 94.90575, 26.74717 ], [ 94.90488, 26.74433 ], [ 94.90347, 26.74388 ], [ 94.90189, 26.74578 ], [ 94.90045, 26.74614 ], [ 94.89911, 26.74903 ], [ 94.90439, 26.75067 ], [ 94.90383, 26.75384 ], [ 94.89949, 26.75759 ], [ 94.89737, 26.75676 ], [ 94.89416, 26.75837 ], [ 94.89217, 26.76276 ], [ 94.88526, 26.76556 ], [ 94.88605, 26.76779 ], [ 94.88391, 26.76982 ], [ 94.88053, 26.77125 ], [ 94.88103, 26.77326 ], [ 94.87907, 26.77341 ], [ 94.87986, 26.77589 ], [ 94.88182, 26.77717 ], [ 94.88207, 26.77996 ], [ 94.88456, 26.78124 ], [ 94.88485, 26.78642 ], [ 94.88741, 26.78837 ], [ 94.88732, 26.79152 ], [ 94.88913, 26.79595 ], [ 94.89497, 26.80262 ], [ 94.89608, 26.8074 ], [ 94.89798, 26.80764 ], [ 94.89754, 26.81106 ], [ 94.89945, 26.81327 ], [ 94.90261, 26.82005 ], [ 94.90223, 26.8216 ], [ 94.90376, 26.82593 ], [ 94.90642, 26.82816 ], [ 94.90568, 26.83048 ], [ 94.9076, 26.83521 ], [ 94.90737, 26.83663 ], [ 94.90885, 26.83732 ], [ 94.91017, 26.83924 ], [ 94.90995, 26.84144 ], [ 94.912, 26.84318 ], [ 94.91145, 26.84424 ], [ 94.91187, 26.84613 ], [ 94.91395, 26.84679 ], [ 94.9113, 26.84809 ], [ 94.9104, 26.85191 ], [ 94.91301, 26.85351 ], [ 94.91579, 26.85305 ], [ 94.9188, 26.85444 ], [ 94.91873, 26.85741 ], [ 94.92391, 26.85844 ], [ 94.92487, 26.85961 ], [ 94.92328, 26.86093 ], [ 94.92332, 26.86288 ], [ 94.92407, 26.86366 ], [ 94.92747, 26.86396 ], [ 94.92852, 26.86576 ], [ 94.93059, 26.86392 ], [ 94.93062, 26.86663 ], [ 94.92985, 26.86781 ], [ 94.93158, 26.86839 ], [ 94.93157, 26.86946 ], [ 94.93302, 26.87017 ], [ 94.93396, 26.87367 ], [ 94.93575, 26.87411 ], [ 94.93601, 26.87734 ], [ 94.93858, 26.8759 ], [ 94.93879, 26.87839 ], [ 94.94072, 26.87868 ], [ 94.94005, 26.87954 ], [ 94.94004, 26.88284 ], [ 94.94117, 26.88431 ], [ 94.94311, 26.8855 ], [ 94.94488, 26.88453 ], [ 94.94621, 26.8825 ], [ 94.94658, 26.884 ], [ 94.94762, 26.8829 ], [ 94.94737, 26.88204 ], [ 94.94927, 26.8821 ], [ 94.95127, 26.88069 ], [ 94.95326, 26.88157 ], [ 94.95198, 26.88028 ], [ 94.95234, 26.87863 ], [ 94.95164, 26.8774 ], [ 94.95625, 26.87716 ], [ 94.95725, 26.87775 ], [ 94.95706, 26.87873 ], [ 94.9601, 26.87837 ], [ 94.96175, 26.87897 ], [ 94.96242, 26.87747 ], [ 94.96401, 26.87824 ], [ 94.96723, 26.87515 ], [ 94.96963, 26.87434 ], [ 94.97037, 26.87256 ], [ 94.9744, 26.87267 ], [ 94.97635, 26.87132 ], [ 94.98652, 26.87286 ], [ 94.99289, 26.87111 ], [ 95.00115, 26.87809 ], [ 95.00789, 26.88159 ], [ 95.00882, 26.87641 ], [ 95.00723, 26.87063 ], [ 95.01156, 26.86561 ], [ 95.0156, 26.86414 ], [ 95.01669, 26.86279 ], [ 95.01764, 26.8641 ], [ 95.01831, 26.86204 ], [ 95.02004, 26.86286 ], [ 95.01998, 26.86426 ], [ 95.02147, 26.8637 ], [ 95.022, 26.86463 ], [ 95.0225, 26.86397 ], [ 95.02079, 26.86147 ], [ 95.02451, 26.86047 ], [ 95.02332, 26.86237 ], [ 95.02648, 26.86184 ], [ 95.0265, 26.86397 ], [ 95.02848, 26.86468 ], [ 95.02784, 26.86718 ], [ 95.03193, 26.86686 ], [ 95.03105, 26.8681 ], [ 95.03324, 26.86809 ], [ 95.03422, 26.87038 ], [ 95.03554, 26.86875 ], [ 95.03499, 26.86677 ], [ 95.0339, 26.86688 ], [ 95.03332, 26.86446 ], [ 95.03532, 26.86274 ], [ 95.03835, 26.8625 ], [ 95.04015, 26.86326 ], [ 95.03903, 26.86032 ], [ 95.04088, 26.85984 ], [ 95.04273, 26.8579 ], [ 95.04496, 26.85776 ], [ 95.04843, 26.85988 ], [ 95.05039, 26.85812 ], [ 95.05245, 26.85785 ], [ 95.05548, 26.85897 ], [ 95.05774, 26.8572 ], [ 95.06457, 26.85968 ], [ 95.06651, 26.85598 ], [ 95.06648, 26.85286 ], [ 95.06457, 26.84613 ], [ 95.06347, 26.84544 ], [ 95.06486, 26.84339 ], [ 95.06746, 26.84193 ], [ 95.06957, 26.84381 ], [ 95.07043, 26.84335 ], [ 95.07229, 26.83976 ], [ 95.07055, 26.83657 ], [ 95.07254, 26.83514 ], [ 95.07309, 26.83267 ], [ 95.07814, 26.8318 ], [ 95.0807, 26.83405 ], [ 95.08187, 26.83418 ], [ 95.08151, 26.83511 ], [ 95.08443, 26.83529 ], [ 95.08455, 26.83368 ], [ 95.08782, 26.83208 ], [ 95.08805, 26.8301 ], [ 95.08652, 26.82979 ], [ 95.08611, 26.82826 ], [ 95.08696, 26.82782 ], [ 95.0863, 26.82708 ], [ 95.08842, 26.82379 ], [ 95.08874, 26.82168 ], [ 95.08989, 26.82125 ], [ 95.08943, 26.81879 ], [ 95.09101, 26.81631 ], [ 95.09061, 26.81482 ], [ 95.09326, 26.81417 ], [ 95.09304, 26.81302 ], [ 95.09379, 26.8126 ], [ 95.0923, 26.81057 ], [ 95.09428, 26.80803 ], [ 95.09435, 26.8047 ], [ 95.09608, 26.80324 ], [ 95.09491, 26.80059 ], [ 95.09638, 26.7997 ], [ 95.09856, 26.80009 ] ] ] } },
{ "type": "Feature", "properties": { "OBJECTID": 6045, "state_lgd": "13", "state_name": "NAGALAND", "district_lgd": "261", "district_name": "MON", "district_name_source": "district_table", "subdistrict_lgd": "01746", "subdistrict_name": "HUNTA", "subdistrict_type": "", "name_corrupted": false, "remarks": "", "label_lon": 95.178357845116722, "label_lat": 26.92931257886131 }, "geometry": { "type": "Polygon", "coordinates": [ [ [ 95.19318, 27.03222 ], [ 95.19461, 27.03261 ], [ 95.19726, 26.99772 ], [ 95.19542, 26.9949 ], [ 95.19095, 26.99337 ], [ 95.19087, 26.99262 ], [ 95.19215, 26.9918 ], [ 95.19123, 26.98951 ], [ 95.19136, 26.98693 ], [ 95.19317, 26.98666 ], [ 95.19173, 26.98524 ], [ 95.19587, 26.98197 ], [ 95.19761, 26.98345 ], [ 95.20032, 26.98087 ], [ 95.20101, 26.98296 ], [ 95.20267, 26.98214 ], [ 95.20296, 26.98011 ], [ 95.20507, 26.97908 ], [ 95.20377, 26.97753 ], [ 95.20287, 26.97828 ], [ 95.20135, 26.97721 ], [ 95.2021, 26.97565 ], [ 95.20179, 26.97423 ], [ 95.2039, 26.97415 ], [ 95.20328, 26.97158 ], [ 95.20539, 26.97083 ], [ 95.20516, 26.96967 ], [ 95.20675, 26.97001 ], [ 95.20667, 26.96899 ], [ 95.2093, 26.96783 ], [ 95.2102, 26.96633 ], [ 95.21156, 26.96653 ], [ 95.2114, 26.96443 ], [ 95.20883, 26.9639 ], [ 95.20821, 26.96147 ], [ 95.20533, 26.96142 ], [ 95.20373, 26.95811 ], [ 95.20214, 26.95852 ], [ 95.20273, 26.95602 ], [ 95.20537, 26.95444 ], [ 95.20869, 26.95402 ], [ 95.20921, 26.95307 ], [ 95.20709, 26.95166 ], [ 95.20935, 26.9509 ], [ 95.20889, 26.94942 ], [ 95.20971, 26.94813 ], [ 95.20797, 26.94787 ], [ 95.20706, 26.94633 ], [ 95.2078, 26.94441 ], [ 95.20665, 26.94225 ], [ 95.20868, 26.94048 ], [ 95.20956, 26.93581 ], [ 95.21202, 26.93065 ], [ 95.2151, 26.92935 ], [ 95.22167, 26.92864 ], [ 95.22656, 26.92652 ], [ 95.22588, 26.92564 ], [ 95.22633, 26.92449 ], [ 95.23009, 26.92285 ], [ 95.22956, 26.92163 ], [ 95.23015, 26.92021 ], [ 95.23196, 26.9202 ], [ 95.23239, 26.91627 ], [ 95.23118, 26.91587 ], [ 95.23102, 26.91458 ], [ 95.23011, 26.91425 ], [ 95.23049, 26.91357 ], [ 95.22889, 26.91277 ], [ 95.23047, 26.91195 ], [ 95.22902, 26.9083 ], [ 95.2309, 26.907 ], [ 95.2323, 26.90287 ], [ 95.23002, 26.90071 ], [ 95.23055, 26.89936 ], [ 95.22871, 26.89625 ], [ 95.22689, 26.89531 ], [ 95.22974, 26.89165 ], [ 95.23052, 26.88406 ], [ 95.22816, 26.88103 ], [ 95.22423, 26.8803 ], [ 95.22152, 26.88079 ], [ 95.21821, 26.88311 ], [ 95.21497, 26.88394 ], [ 95.2084, 26.88268 ], [ 95.20837, 26.87923 ], [ 95.20064, 26.87311 ], [ 95.19995, 26.87149 ], [ 95.19428, 26.86996 ], [ 95.19117, 26.86767 ], [ 95.18936, 26.86782 ], [ 95.1892, 26.86687 ], [ 95.18587, 26.86587 ], [ 95.18268, 26.86203 ], [ 95.18059, 26.8617 ], [ 95.17902, 26.85981 ], [ 95.17741, 26.86099 ], [ 95.17396, 26.85984 ], [ 95.17171, 26.86228 ], [ 95.1696, 26.86019 ], [ 95.16908, 26.86476 ], [ 95.16799, 26.86544 ], [ 95.16677, 26.86439 ], [ 95.16577, 26.86552 ], [ 95.16418, 26.86518 ], [ 95.16277, 26.86629 ], [ 95.16204, 26.86949 ], [ 95.16101, 26.87057 ], [ 95.15912, 26.86876 ], [ 95.15452, 26.86983 ], [ 95.15203, 26.86379 ], [ 95.14835, 26.86397 ], [ 95.14872, 26.86664 ], [ 95.14753, 26.86722 ], [ 95.14564, 26.86656 ], [ 95.14671, 26.86407 ], [ 95.14391, 26.86454 ], [ 95.14298, 26.8631 ], [ 95.13662, 26.86175 ], [ 95.13577, 26.86477 ], [ 95.13321, 26.86502 ], [ 95.13478, 26.86735 ], [ 95.13218, 26.87076 ], [ 95.12938, 26.87133 ], [ 95.12757, 26.87286 ], [ 95.12941, 26.87727 ], [ 95.13342, 26.8795 ], [ 95.13634, 26.88277 ], [ 95.13898, 26.88408 ], [ 95.14267, 26.8844 ], [ 95.14041, 26.88973 ], [ 95.14176, 26.89319 ], [ 95.14381, 26.89443 ], [ 95.14445, 26.89851 ], [ 95.14589, 26.89976 ], [ 95.14392, 26.9039 ], [ 95.14621, 26.90638 ], [ 95.14641, 26.90982 ], [ 95.14791, 26.9107 ], [ 95.14698, 26.91252 ], [ 95.14856, 26.91455 ], [ 95.14633, 26.91514 ], [ 95.14497, 26.91794 ], [ 95.14301, 26.91971 ], [ 95.14168, 26.91862 ], [ 95.14068, 26.91906 ], [ 95.14173, 26.91966 ], [ 95.14141, 26.92085 ], [ 95.13858, 26.92281 ], [ 95.13633, 26.92692 ], [ 95.12976, 26.92765 ], [ 95.13005, 26.9294 ], [ 95.12746, 26.92943 ], [ 95.12641, 26.93161 ], [ 95.12367, 26.93201 ], [ 95.12419, 26.93367 ], [ 95.12081, 26.93587 ], [ 95.12299, 26.93972 ], [ 95.12303, 26.94502 ], [ 95.12509, 26.94479 ], [ 95.12671, 26.94655 ], [ 95.12952, 26.9466 ], [ 95.12932, 26.94837 ], [ 95.13108, 26.94732 ], [ 95.13185, 26.9477 ], [ 95.13056, 26.94928 ], [ 95.13192, 26.95123 ], [ 95.13119, 26.95175 ], [ 95.13244, 26.95293 ], [ 95.13406, 26.95246 ], [ 95.13452, 26.9549 ], [ 95.13655, 26.95556 ], [ 95.13565, 26.95682 ], [ 95.13821, 26.95642 ], [ 95.13847, 26.95788 ], [ 95.14028, 26.95811 ], [ 95.14066, 26.9593 ], [ 95.14238, 26.96003 ], [ 95.14302, 26.95872 ], [ 95.14437, 26.95969 ], [ 95.14427, 26.96095 ], [ 95.14603, 26.9611 ], [ 95.14754, 26.96006 ], [ 95.1484, 26.96081 ], [ 95.14894, 26.96018 ], [ 95.14948, 26.96232 ], [ 95.15112, 26.96367 ], [ 95.15308, 26.96777 ], [ 95.15577, 26.96853 ], [ 95.16407, 26.97532 ], [ 95.16508, 26.97773 ], [ 95.16412, 26.98034 ], [ 95.17139, 26.98562 ], [ 95.17731, 26.98562 ], [ 95.17953, 26.98761 ], [ 95.18009, 26.98997 ], [ 95.17745, 26.99204 ], [ 95.17764, 26.99407 ], [ 95.1762, 26.99538 ], [ 95.17311, 26.9955 ], [ 95.17352, 26.99765 ], [ 95.17052, 26.99843 ], [ 95.16984, 26.99931 ], [ 95.16993, 27.00275 ], [ 95.16231, 27.00315 ], [ 95.15715, 27.00526 ], [ 95.18438, 27.02777 ], [ 95.19242, 27.03562 ], [ 95.19423, 27.03495 ], [ 95.19272, 27.03308 ], [ 95.19318, 27.03222 ] ] ] } },
{ "type": "Feature", "properties": { "OBJECTID": 6046, "state_lgd": "13", "state_name": "NAGALAND", "district_lgd": "261", "district_name": "MON", "district_name_source": "district_table", "subdistrict_lgd": "01745", "subdistrict_name": "TIZIT", "subdistrict_type": "", "name_corrupted": false, "remarks": "", "label_lon": 95.081859713335902, "label_lat": 26.897227021357548 }, "geometry": { "type": "Polygon", "coordinates": [ [ [ 95.15717, 27.00525 ], [ 95.16231, 27.00315 ], [ 95.16993, 27.00275 ], [ 95.16984, 26.99931 ], [ 95.17052, 26.99843 ], [ 95.17352, 26.99765 ], [ 95.17311, 26.9955 ], [ 95.1762, 26.99538 ], [ 95.17764, 26.99407 ], [ 95.17745, 26.99204 ], [ 95.18009, 26.98997 ], [ 95.17979, 26.9881 ], [ 95.17731, 26.98562 ], [ 95.17139, 26.98562 ], [ 95.16412, 26.98034 ], [ 95.16508, 26.97773 ], [ 95.16407, 26.97532 ], [ 95.15577, 26.96853 ], [ 95.15308, 26.96777 ], [ 95.15112, 26.96367 ], [ 95.14948, 26.96232 ], [ 95.14894, 26.96018 ], [ 95.1484, 26.96081 ], [ 95.14754, 26.96006 ], [ 95.14603, 26.9611 ], [ 95.14427, 26.96095 ], [ 95.14437, 26.95969 ], [ 95.14302, 26.95872 ], [ 95.14238, 26.96003 ], [ 95.14066, 26.9593 ], [ 95.14028, 26.95811 ], [ 95.13847, 26.95788 ], [ 95.13821, 26.95642 ], [ 95.13565, 26.95682 ], [ 95.13655, 26.95556 ], [ 95.13452, 26.9549 ], [ 95.13406, 26.95246 ], [ 95.13244, 26.95293 ], [ 95.13119, 26.95175 ], [ 95.13192, 26.95123 ], [ 95.13056, 26.94928 ], [ 95.13185, 26.9477 ], [ 95.13108, 26.94732 ], [ 95.12932, 26.94837 ], [ 95.12952, 26.9466 ], [ 95.12671, 26.94655 ], [ 95.12509, 26.94479 ], [ 95.12303, 26.94502 ], [ 95.12299, 26.93972 ], [ 95.12081, 26.93587 ], [ 95.12419, 26.93367 ], [ 95.12367, 26.93201 ], [ 95.12641, 26.93161 ], [ 95.12746, 26.92943 ], [ 95.13005, 26.9294 ], [ 95.12976, 26.92765 ], [ 95.13633, 26.92692 ], [ 95.13858, 26.92281 ], [ 95.14141, 26.92085 ], [ 95.14173, 26.91966 ], [ 95.14068, 26.91906 ], [ 95.14168, 26.91862 ], [ 95.14301, 26.91971 ], [ 95.14497, 26.91794 ], [ 95.14633, 26.91514 ], [ 95.14856, 26.91455 ], [ 95.14698, 26.91252 ], [ 95.14791, 26.9107 ], [ 95.14641, 26.90982 ], [ 95.14621, 26.90638 ], [ 95.14392, 26.9039 ], [ 95.14589, 26.89976 ], [ 95.14445, 26.89851 ], [ 95.14381, 26.89443 ], [ 95.14176, 26.89319 ], [ 95.14041, 26.88973 ], [ 95.14267, 26.8844 ], [ 95.13898, 26.88408 ], [ 95.13634, 26.88277 ], [ 95.13342, 26.8795 ], [ 95.12941, 26.87727 ], [ 95.12757, 26.87286 ], [ 95.12938, 26.87133 ], [ 95.13218, 26.87076 ], [ 95.13478, 26.86735 ], [ 95.13321, 26.86502 ], [ 95.13577, 26.86477 ], [ 95.13662, 26.86175 ], [ 95.14056, 26.86267 ], [ 95.14138, 26.86101 ], [ 95.14568, 26.86014 ], [ 95.14946, 26.85792 ], [ 95.14925, 26.85689 ], [ 95.14626, 26.85636 ], [ 95.14761, 26.85399 ], [ 95.14557, 26.85249 ], [ 95.14623, 26.84907 ], [ 95.14579, 26.8467 ], [ 95.14467, 26.84637 ], [ 95.14521, 26.84524 ], [ 95.14434, 26.84281 ], [ 95.1423, 26.84249 ], [ 95.14052, 26.84112 ], [ 95.14209, 26.84009 ], [ 95.14193, 26.83672 ], [ 95.14311, 26.83676 ], [ 95.14285, 26.8341 ], [ 95.14416, 26.83192 ], [ 95.14508, 26.82635 ], [ 95.14459, 26.82445 ], [ 95.14637, 26.81983 ], [ 95.14437, 26.81848 ], [ 95.14531, 26.81695 ], [ 95.14422, 26.81376 ], [ 95.14343, 26.81353 ], [ 95.13594, 26.81709 ], [ 95.13277, 26.81709 ], [ 95.13034, 26.81213 ], [ 95.12539, 26.81061 ], [ 95.1205, 26.80679 ], [ 95.11904, 26.80425 ], [ 95.11633, 26.80269 ], [ 95.11222, 26.79328 ], [ 95.10326, 26.79523 ], [ 95.10267, 26.79587 ], [ 95.10428, 26.79702 ], [ 95.10194, 26.79715 ], [ 95.10207, 26.79897 ], [ 95.09938, 26.79692 ], [ 95.09856, 26.80009 ], [ 95.09638, 26.7997 ], [ 95.09508, 26.80035 ], [ 95.09608, 26.80324 ], [ 95.09435, 26.8047 ], [ 95.09428, 26.80803 ], [ 95.0923, 26.81057 ], [ 95.09379, 26.8126 ], [ 95.09304, 26.81302 ], [ 95.09326, 26.81417 ], [ 95.09061, 26.81482 ], [ 95.09101, 26.81631 ], [ 95.08943, 26.81879 ], [ 95.08989, 26.82125 ], [ 95.08874, 26.82168 ], [ 95.08842, 26.82379 ], [ 95.0863, 26.82708 ], [ 95.08696, 26.82782 ], [ 95.08611, 26.82826 ], [ 95.08627, 26.82914 ], [ 95.08805, 26.8301 ], [ 95.08802, 26.8317 ], [ 95.08455, 26.83368 ], [ 95.08443, 26.83529 ], [ 95.08151, 26.83511 ], [ 95.08187, 26.83418 ], [ 95.0807, 26.83405 ], [ 95.07814, 26.8318 ], [ 95.07274, 26.83304 ], [ 95.07254, 26.83514 ], [ 95.07055, 26.83657 ], [ 95.07229, 26.83976 ], [ 95.07043, 26.84335 ], [ 95.06957, 26.84381 ], [ 95.06746, 26.84193 ], [ 95.06486, 26.84339 ], [ 95.06347, 26.84544 ], [ 95.06457, 26.84613 ], [ 95.06648, 26.85286 ], [ 95.06651, 26.85598 ], [ 95.06457, 26.85968 ], [ 95.05774, 26.8572 ], [ 95.05548, 26.85897 ], [ 95.05245, 26.85785 ], [ 95.05039, 26.85812 ], [ 95.04843, 26.85988 ], [ 95.04496, 26.85776 ], [ 95.04273, 26.8579 ], [ 95.04088, 26.85984 ], [ 95.03903, 26.86032 ], [ 95.04015, 26.86326 ], [ 95.03835, 26.8625 ], [ 95.03532, 26.86274 ], [ 95.03332, 26.86446 ], [ 95.0339, 26.86688 ], [ 95.03499, 26.86677 ], [ 95.03554, 26.86875 ], [ 95.03422, 26.87038 ], [ 95.03324, 26.86809 ], [ 95.03105, 26.8681 ], [ 95.03193, 26.86686 ], [ 95.02784, 26.86718 ], [ 95.02848, 26.86468 ], [ 95.0265, 26.86397 ], [ 95.02648, 26.86184 ], [ 95.02332, 26.86237 ], [ 95.02451, 26.86047 ], [ 95.02079, 26.86147 ], [ 95.0225, 26.86397 ], [ 95.022, 26.86463 ], [ 95.02147, 26.8637 ], [ 95.01998, 26.86426 ], [ 95.02004, 26.86286 ], [ 95.01831, 26.86204 ], [ 95.01764, 26.8641 ], [ 95.01669, 26.86279 ], [ 95.0156, 26.86414 ], [ 95.01156, 26.86561 ], [ 95.00723, 26.87063 ], [ 95.00882, 26.87641 ], [ 95.00789, 26.88159 ], [ 95.00115, 26.87809 ], [ 94.99289, 26.87111 ], [ 94.98828, 26.87284 ], [ 94.97861, 26.87126 ], [ 94.97563, 26.87147 ], [ 94.9744, 26.87267 ], [ 94.97069, 26.87247 ], [ 94.96963, 26.87434 ], [ 94.96723, 26.87515 ], [ 94.96401, 26.87824 ], [ 94.96242, 26.87747 ], [ 94.96175, 26.87897 ], [ 94.9601, 26.87837 ], [ 94.95706, 26.87873 ], [ 94.95725, 26.87775 ], [ 94.95625, 26.87716 ], [ 94.9515, 26.87753 ], [ 94.95234, 26.87863 ], [ 94.95213, 26.88058 ], [ 94.9559, 26.88324 ], [ 94.95431, 26.89027 ], [ 94.95642, 26.89661 ], [ 94.95832, 26.89881 ], [ 94.96175, 26.90014 ], [ 94.9676, 26.89947 ], [ 94.96957, 26.90068 ], [ 94.97129, 26.90389 ], [ 94.97373, 26.90585 ], [ 94.97665, 26.90517 ], [ 94.97891, 26.90354 ], [ 94.98004, 26.9042 ], [ 94.98036, 26.90748 ], [ 94.98129, 26.90844 ], [ 94.98264, 26.90849 ], [ 94.9875, 26.90592 ], [ 94.9882, 26.90653 ], [ 94.99086, 26.90616 ], [ 94.99155, 26.90736 ], [ 94.99119, 26.91118 ], [ 94.98902, 26.91396 ], [ 94.98998, 26.91421 ], [ 94.99096, 26.92061 ], [ 94.99315, 26.92111 ], [ 95.00186, 26.9198 ], [ 95.00467, 26.92115 ], [ 95.01476, 26.92203 ], [ 95.02212, 26.92581 ], [ 95.02391, 26.92853 ], [ 95.03176, 26.93299 ], [ 95.03413, 26.9356 ], [ 95.04026, 26.93694 ], [ 95.04408, 26.93874 ], [ 95.04696, 26.93822 ], [ 95.04969, 26.93876 ], [ 95.05706, 26.94242 ], [ 95.05987, 26.94513 ], [ 95.06786, 26.9483 ], [ 95.07192, 26.9493 ], [ 95.07904, 26.94966 ], [ 95.08504, 26.95164 ], [ 95.10181, 26.96179 ], [ 95.10608, 26.96549 ], [ 95.10792, 26.97594 ], [ 95.11196, 26.98066 ], [ 95.12421, 26.98544 ], [ 95.1388, 26.99485 ], [ 95.14563, 26.99625 ], [ 95.15717, 27.00525 ] ] ] } },
{ "type": "Feature", "properties": { "OBJECTID": 6047, "state_lgd": "13", "state_name": "NAGALAND", "district_lgd": "261", "district_name": "MON", "district_name_source": "district_table", "subdistrict_lgd": "01747", "subdistrict_name": "SHANGNYU", "subdistrict_type": "", "name_corrupted": false, "remarks": "", "label_lon": 95.160013855484195, "label_lat": 26.788951042294659 }, "geometry": { "type": "Polygon", "coordinates": [ [ [ 95.18177, 26.86149 ], [ 95.18198, 26.85824 ], [ 95.18106, 26.85649 ], [ 95.18355, 26.856 ], [ 95.18536, 26.85457 ], [ 95.18526, 26.85166 ], [ 95.1872, 26.84806 ], [ 95.19142, 26.84703 ], [ 95.1936, 26.84526 ], [ 95.19436, 26.84566 ], [ 95.19308, 26.84749 ], [ 95.19354, 26.8483 ], [ 95.20001, 26.84495 ], [ 95.20206, 26.84684 ], [ 95.20304, 26.84656 ], [ 95.2037, 26.84406 ], [ 95.19832, 26.83901 ], [ 95.19702, 26.83624 ], [ 95.19814, 26.83535 ], [ 95.197, 26.83353 ], [ 95.19782, 26.83238 ], [ 95.19683, 26.83076 ], [ 95.19834, 26.83034 ], [ 95.19961, 26.8277 ], [ 95.19739, 26.82317 ], [ 95.19978, 26.81991 ], [ 95.2002, 26.81429 ], [ 95.20512, 26.80418 ], [ 95.20851, 26.80403 ], [ 95.2094, 26.80118 ], [ 95.21203, 26.79914 ], [ 95.21172, 26.79812 ], [ 95.20735, 26.79808 ], [ 95.20846, 26.79496 ], [ 95.21146, 26.79264 ], [ 95.21409, 26.79175 ], [ 95.21499, 26.78992 ], [ 95.21921, 26.78963 ], [ 95.22229, 26.78812 ], [ 95.22448, 26.78838 ], [ 95.22575, 26.78668 ], [ 95.22786, 26.78586 ], [ 95.23269, 26.78692 ], [ 95.23804, 26.78588 ], [ 95.23924, 26.78472 ], [ 95.23735, 26.78446 ], [ 95.2378, 26.78297 ], [ 95.2415, 26.78383 ], [ 95.24247, 26.78267 ], [ 95.24149, 26.78213 ], [ 95.24216, 26.78139 ], [ 95.23551, 26.77932 ], [ 95.23512, 26.77689 ], [ 95.23181, 26.77785 ], [ 95.23225, 26.77616 ], [ 95.23021, 26.77576 ], [ 95.22976, 26.77631 ], [ 95.22855, 26.77523 ], [ 95.22777, 26.77137 ], [ 95.22934, 26.77028 ], [ 95.23048, 26.77075 ], [ 95.2307, 26.76926 ], [ 95.23242, 26.76824 ], [ 95.23196, 26.76702 ], [ 95.23106, 26.76662 ], [ 95.23105, 26.76527 ], [ 95.22832, 26.76406 ], [ 95.22703, 26.76204 ], [ 95.22401, 26.76165 ], [ 95.22271, 26.75834 ], [ 95.2208, 26.75641 ], [ 95.21564, 26.75645 ], [ 95.21142, 26.7579 ], [ 95.20796, 26.75768 ], [ 95.20379, 26.7546 ], [ 95.19853, 26.75304 ], [ 95.19626, 26.75414 ], [ 95.19141, 26.75298 ], [ 95.18784, 26.75083 ], [ 95.18287, 26.75117 ], [ 95.17952, 26.75032 ], [ 95.17734, 26.74847 ], [ 95.17492, 26.74775 ], [ 95.17118, 26.74374 ], [ 95.17417, 26.74308 ], [ 95.17462, 26.73639 ], [ 95.17311, 26.73453 ], [ 95.17293, 26.73296 ], [ 95.17122, 26.7325 ], [ 95.16927, 26.73041 ], [ 95.16732, 26.73148 ], [ 95.16434, 26.73159 ], [ 95.16161, 26.72957 ], [ 95.15855, 26.72985 ], [ 95.1536, 26.73196 ], [ 95.15257, 26.7348 ], [ 95.15041, 26.73509 ], [ 95.14866, 26.73431 ], [ 95.14389, 26.73454 ], [ 95.14149, 26.73147 ], [ 95.14039, 26.73153 ], [ 95.13854, 26.73386 ], [ 95.13737, 26.73324 ], [ 95.13453, 26.73404 ], [ 95.13216, 26.73204 ], [ 95.1288, 26.73627 ], [ 95.1264, 26.73555 ], [ 95.12588, 26.73745 ], [ 95.12406, 26.73692 ], [ 95.12181, 26.73373 ], [ 95.11606, 26.73631 ], [ 95.11514, 26.73886 ], [ 95.11404, 26.73939 ], [ 95.11191, 26.73927 ], [ 95.10947, 26.73697 ], [ 95.10744, 26.7402 ], [ 95.10271, 26.73742 ], [ 95.10027, 26.73995 ], [ 95.09971, 26.74377 ], [ 95.10045, 26.74631 ], [ 95.09975, 26.75045 ], [ 95.10174, 26.75143 ], [ 95.10101, 26.75374 ], [ 95.09821, 26.75399 ], [ 95.09412, 26.75225 ], [ 95.09472, 26.75402 ], [ 95.09316, 26.75482 ], [ 95.0932, 26.75679 ], [ 95.08931, 26.76071 ], [ 95.09174, 26.76322 ], [ 95.09365, 26.76299 ], [ 95.09025, 26.76928 ], [ 95.09359, 26.77349 ], [ 95.09363, 26.77582 ], [ 95.09547, 26.77734 ], [ 95.09435, 26.78126 ], [ 95.0958, 26.78576 ], [ 95.09507, 26.78665 ], [ 95.09413, 26.79343 ], [ 95.09656, 26.79442 ], [ 95.09853, 26.79888 ], [ 95.09938, 26.79692 ], [ 95.10207, 26.79897 ], [ 95.10194, 26.79715 ], [ 95.10431, 26.79687 ], [ 95.10278, 26.79543 ], [ 95.11222, 26.79328 ], [ 95.11633, 26.80269 ], [ 95.11904, 26.80425 ], [ 95.1205, 26.80679 ], [ 95.12539, 26.81061 ], [ 95.13034, 26.81213 ], [ 95.13277, 26.81709 ], [ 95.13594, 26.81709 ], [ 95.14253, 26.81357 ], [ 95.14422, 26.81376 ], [ 95.14539, 26.81774 ], [ 95.14437, 26.81848 ], [ 95.14607, 26.8192 ], [ 95.1463, 26.82062 ], [ 95.14459, 26.82445 ], [ 95.14508, 26.82635 ], [ 95.14416, 26.83192 ], [ 95.14285, 26.8341 ], [ 95.14311, 26.83676 ], [ 95.14193, 26.83672 ], [ 95.14209, 26.84009 ], [ 95.14052, 26.84112 ], [ 95.1423, 26.84249 ], [ 95.14434, 26.84281 ], [ 95.14521, 26.84524 ], [ 95.14467, 26.84637 ], [ 95.14579, 26.8467 ], [ 95.14623, 26.84907 ], [ 95.14557, 26.85249 ], [ 95.14761, 26.85399 ], [ 95.14626, 26.85636 ], [ 95.14925, 26.85689 ], [ 95.14946, 26.85792 ], [ 95.14568, 26.86014 ], [ 95.14138, 26.86101 ], [ 95.14056, 26.86267 ], [ 95.14298, 26.8631 ], [ 95.14391, 26.86454 ], [ 95.14671, 26.86407 ], [ 95.14585, 26.86693 ], [ 95.14854, 26.86709 ], [ 95.14807, 26.86462 ], [ 95.14882, 26.86368 ], [ 95.15203, 26.86379 ], [ 95.15452, 26.86983 ], [ 95.15912, 26.86876 ], [ 95.16101, 26.87057 ], [ 95.16204, 26.86949 ], [ 95.16277, 26.86629 ], [ 95.16418, 26.86518 ], [ 95.16577, 26.86552 ], [ 95.16677, 26.86439 ], [ 95.16799, 26.86544 ], [ 95.16908, 26.86476 ], [ 95.1696, 26.86019 ], [ 95.17171, 26.86228 ], [ 95.17437, 26.85974 ], [ 95.17741, 26.86099 ], [ 95.17902, 26.85981 ], [ 95.18059, 26.8617 ], [ 95.18177, 26.86149 ] ] ] } },
{ "type": "Feature", "properties": { "OBJECTID": 6048, "state_lgd": "13", "state_name": "NAGALAND", "district_lgd": "261", "district_name": "MON", "district_name_source": "district_table", "subdistrict_lgd": "01752", "subdistrict_name": "PHOMCHING", "subdistrict_type": "", "name_corrupted": false, "remarks": "", "label_lon": 95.188531220006311, "label_lat": 26.69203356356082 }, "geometry": { "type": "Polygon", "coordinates": [ [ [ 95.22066, 26.75625 ], [ 95.21644, 26.75593 ], [ 95.21465, 26.74829 ], [ 95.2157, 26.74659 ], [ 95.21886, 26.74651 ], [ 95.21901, 26.7457 ], [ 95.21566, 26.73989 ], [ 95.21503, 26.73678 ], [ 95.2104, 26.73193 ], [ 95.20948, 26.7291 ], [ 95.22226, 26.7226 ], [ 95.22786, 26.71634 ], [ 95.22651, 26.71034 ], [ 95.22824, 26.70913 ], [ 95.23186, 26.70893 ], [ 95.23317, 26.70413 ], [ 95.23028, 26.70088 ], [ 95.23117, 26.6974 ], [ 95.23008, 26.69359 ], [ 95.23261, 26.6837 ], [ 95.23376, 26.68208 ], [ 95.23234, 26.67877 ], [ 95.22947, 26.6761 ], [ 95.22924, 26.67366 ], [ 95.22188, 26.66617 ], [ 95.21964, 26.66084 ], [ 95.21403, 26.65705 ], [ 95.21405, 26.65421 ], [ 95.21225, 26.65123 ], [ 95.2096, 26.64885 ], [ 95.20727, 26.64741 ], [ 95.20049, 26.64545 ], [ 95.19961, 26.64479 ], [ 95.19972, 26.64267 ], [ 95.19912, 26.64246 ], [ 95.19573, 26.6426 ], [ 95.19178, 26.64149 ], [ 95.18762, 26.6428 ], [ 95.18358, 26.64141 ], [ 95.18317, 26.64254 ], [ 95.18068, 26.64276 ], [ 95.18001, 26.64149 ], [ 95.17482, 26.63901 ], [ 95.17126, 26.63574 ], [ 95.16686, 26.63444 ], [ 95.16652, 26.63253 ], [ 95.16763, 26.62796 ], [ 95.16411, 26.62347 ], [ 95.15976, 26.62594 ], [ 95.1593, 26.6277 ], [ 95.15543, 26.62939 ], [ 95.15533, 26.63382 ], [ 95.1541, 26.63527 ], [ 95.15115, 26.63579 ], [ 95.15137, 26.63862 ], [ 95.1497, 26.64501 ], [ 95.15107, 26.65022 ], [ 95.14751, 26.65275 ], [ 95.14675, 26.65414 ], [ 95.14709, 26.65579 ], [ 95.14873, 26.65639 ], [ 95.14899, 26.65932 ], [ 95.15028, 26.66185 ], [ 95.14944, 26.66532 ], [ 95.15177, 26.66866 ], [ 95.15082, 26.67061 ], [ 95.15338, 26.67407 ], [ 95.14706, 26.67519 ], [ 95.14064, 26.67909 ], [ 95.14149, 26.68043 ], [ 95.14323, 26.67941 ], [ 95.14332, 26.68078 ], [ 95.14474, 26.68198 ], [ 95.14457, 26.68266 ], [ 95.14249, 26.68257 ], [ 95.14317, 26.68431 ], [ 95.14697, 26.68415 ], [ 95.14824, 26.68552 ], [ 95.15007, 26.68588 ], [ 95.1527, 26.68351 ], [ 95.15404, 26.68342 ], [ 95.15686, 26.68548 ], [ 95.15886, 26.68517 ], [ 95.15929, 26.68799 ], [ 95.16134, 26.6897 ], [ 95.16134, 26.69069 ], [ 95.15972, 26.69244 ], [ 95.16072, 26.69705 ], [ 95.15919, 26.69843 ], [ 95.16039, 26.70104 ], [ 95.15862, 26.70011 ], [ 95.15786, 26.70353 ], [ 95.15613, 26.70275 ], [ 95.1552, 26.70396 ], [ 95.1531, 26.70399 ], [ 95.15267, 26.7047 ], [ 95.15295, 26.7068 ], [ 95.15386, 26.70721 ], [ 95.15443, 26.70646 ], [ 95.15643, 26.70792 ], [ 95.15431, 26.70995 ], [ 95.15332, 26.71225 ], [ 95.15382, 26.71543 ], [ 95.15439, 26.7157 ], [ 95.15508, 26.71403 ], [ 95.15691, 26.71277 ], [ 95.15785, 26.71406 ], [ 95.15623, 26.71802 ], [ 95.15433, 26.71915 ], [ 95.15529, 26.72061 ], [ 95.15505, 26.7225 ], [ 95.15734, 26.72468 ], [ 95.15564, 26.72489 ], [ 95.15211, 26.72969 ], [ 95.155, 26.73114 ], [ 95.16141, 26.72953 ], [ 95.16434, 26.73159 ], [ 95.16732, 26.73148 ], [ 95.16883, 26.73037 ], [ 95.17059, 26.73113 ], [ 95.17107, 26.73239 ], [ 95.17293, 26.73296 ], [ 95.17311, 26.73453 ], [ 95.17462, 26.73639 ], [ 95.17417, 26.74308 ], [ 95.17118, 26.74374 ], [ 95.17492, 26.74775 ], [ 95.17734, 26.74847 ], [ 95.17952, 26.75032 ], [ 95.18319, 26.75123 ], [ 95.18784, 26.75083 ], [ 95.19141, 26.75298 ], [ 95.19626, 26.75414 ], [ 95.19853, 26.75304 ], [ 95.205, 26.75516 ], [ 95.20796, 26.75768 ], [ 95.21142, 26.7579 ], [ 95.21564, 26.75645 ], [ 95.22066, 26.75625 ] ] ] } },
{ "type": "Feature", "properties": { "OBJECTID": 6049, "state_lgd": "13", "state_name": "NAGALAND", "district_lgd": "261", "district_name": "MON", "district_name_source": "district_table", "subdistrict_lgd": "01751", "subdistrict_name": "LONGSHEN", "subdistrict_type": "", "name_corrupted": false, "remarks": "", "label_lon": 95.10845062860605, "label_lat": 26.66864157635349 }, "geometry": { "type": "Polygon", "coordinates": [ [ [ 95.15503, 26.73098 ], [ 95.15286, 26.73053 ], [ 95.1521, 26.72939 ], [ 95.15564, 26.72489 ], [ 95.15734, 26.72468 ], [ 95.15505, 26.7225 ], [ 95.15529, 26.72061 ], [ 95.15433, 26.71915 ], [ 95.15623, 26.71802 ], [ 95.15784, 26.71322 ], [ 95.15599, 26.71315 ], [ 95.15439, 26.7157 ], [ 95.15382, 26.71543 ], [ 95.15332, 26.71225 ], [ 95.15431, 26.70995 ], [ 95.15643, 26.70792 ], [ 95.15443, 26.70646 ], [ 95.15386, 26.70721 ], [ 95.15295, 26.7068 ], [ 95.15267, 26.7047 ], [ 95.1531, 26.70399 ], [ 95.1552, 26.70396 ], [ 95.15613, 26.70275 ], [ 95.15786, 26.70353 ], [ 95.15862, 26.70011 ], [ 95.16039, 26.70104 ], [ 95.15919, 26.69843 ], [ 95.16072, 26.69705 ], [ 95.15972, 26.69244 ], [ 95.16134, 26.69069 ], [ 95.16134, 26.6897 ], [ 95.15929, 26.68799 ], [ 95.15886, 26.68517 ], [ 95.15686, 26.68548 ], [ 95.15404, 26.68342 ], [ 95.1527, 26.68351 ], [ 95.15007, 26.68588 ], [ 95.14824, 26.68552 ], [ 95.14697, 26.68415 ], [ 95.14317, 26.68431 ], [ 95.14249, 26.68257 ], [ 95.14457, 26.68266 ], [ 95.14474, 26.68198 ], [ 95.14332, 26.68078 ], [ 95.14323, 26.67941 ], [ 95.14149, 26.68043 ], [ 95.14064, 26.67909 ], [ 95.14706, 26.67519 ], [ 95.15338, 26.67407 ], [ 95.15082, 26.67061 ], [ 95.15177, 26.66866 ], [ 95.14944, 26.66532 ], [ 95.15028, 26.66185 ], [ 95.14899, 26.65932 ], [ 95.14873, 26.65639 ], [ 95.14709, 26.65579 ], [ 95.14675, 26.65414 ], [ 95.14751, 26.65275 ], [ 95.15107, 26.65022 ], [ 95.1497, 26.64501 ], [ 95.15137, 26.63862 ], [ 95.15115, 26.63579 ], [ 95.1541, 26.63527 ], [ 95.15533, 26.63382 ], [ 95.15543, 26.62939 ], [ 95.1593, 26.6277 ], [ 95.15976, 26.62594 ], [ 95.16409, 26.62332 ], [ 95.16322, 26.62166 ], [ 95.15858, 26.61925 ], [ 95.14893, 26.61587 ], [ 95.14891, 26.61354 ], [ 95.14728, 26.61033 ], [ 95.1482, 26.60647 ], [ 95.14786, 26.60234 ], [ 95.14661, 26.601 ], [ 95.1479, 26.59711 ], [ 95.14656, 26.59305 ], [ 95.14863, 26.58987 ], [ 95.15029, 26.58872 ], [ 95.1478, 26.58856 ], [ 95.14144, 26.58563 ], [ 95.13581, 26.58429 ], [ 95.13002, 26.58427 ], [ 95.12796, 26.58473 ], [ 95.12473, 26.58693 ], [ 95.12044, 26.59475 ], [ 95.11438, 26.59719 ], [ 95.11587, 26.60202 ], [ 95.11565, 26.60561 ], [ 95.11378, 26.60827 ], [ 95.11412, 26.61261 ], [ 95.11323, 26.61514 ], [ 95.11021, 26.61968 ], [ 95.10804, 26.61884 ], [ 95.10586, 26.61668 ], [ 95.10478, 26.61737 ], [ 95.10417, 26.61947 ], [ 95.10217, 26.62043 ], [ 95.09689, 26.61904 ], [ 95.09247, 26.61949 ], [ 95.08913, 26.61705 ], [ 95.08462, 26.61631 ], [ 95.08117, 26.61846 ], [ 95.07498, 26.61953 ], [ 95.07498, 26.62153 ], [ 95.07059, 26.62318 ], [ 95.07082, 26.62504 ], [ 95.06889, 26.6276 ], [ 95.06655, 26.62851 ], [ 95.06315, 26.62811 ], [ 95.06201, 26.62976 ], [ 95.05991, 26.63037 ], [ 95.05868, 26.63246 ], [ 95.05626, 26.63281 ], [ 95.05505, 26.63533 ], [ 95.05133, 26.63792 ], [ 95.04776, 26.63691 ], [ 95.04698, 26.638 ], [ 95.04168, 26.63967 ], [ 95.04139, 26.64069 ], [ 95.04454, 26.64246 ], [ 95.04596, 26.64097 ], [ 95.04866, 26.64131 ], [ 95.04927, 26.64218 ], [ 95.04717, 26.64522 ], [ 95.0475, 26.64823 ], [ 95.04843, 26.64886 ], [ 95.05245, 26.6484 ], [ 95.05242, 26.65039 ], [ 95.05469, 26.65055 ], [ 95.05363, 26.6521 ], [ 95.05039, 26.65065 ], [ 95.04961, 26.65113 ], [ 95.05158, 26.65315 ], [ 95.04976, 26.6547 ], [ 95.04972, 26.65629 ], [ 95.05056, 26.65665 ], [ 95.05277, 26.6556 ], [ 95.05295, 26.65767 ], [ 95.0549, 26.65819 ], [ 95.05501, 26.6589 ], [ 95.05409, 26.66158 ], [ 95.05106, 26.65961 ], [ 95.05035, 26.65986 ], [ 95.05047, 26.66142 ], [ 95.0522, 26.6621 ], [ 95.05036, 26.66417 ], [ 95.05313, 26.66425 ], [ 95.05217, 26.66553 ], [ 95.05199, 26.66775 ], [ 95.05026, 26.66956 ], [ 95.05237, 26.67004 ], [ 95.05605, 26.66577 ], [ 95.05787, 26.66509 ], [ 95.05795, 26.66995 ], [ 95.06317, 26.67373 ], [ 95.06061, 26.67538 ], [ 95.05483, 26.67511 ], [ 95.0594, 26.68118 ], [ 95.05929, 26.6822 ], [ 95.05641, 26.68254 ], [ 95.04995, 26.67863 ], [ 95.0478, 26.67913 ], [ 95.04736, 26.68014 ], [ 95.04829, 26.68118 ], [ 95.04764, 26.68282 ], [ 95.04872, 26.68481 ], [ 95.04681, 26.68576 ], [ 95.04608, 26.68858 ], [ 95.04661, 26.68957 ], [ 95.04818, 26.68987 ], [ 95.04767, 26.69218 ], [ 95.05161, 26.69216 ], [ 95.05209, 26.69443 ], [ 95.05381, 26.69555 ], [ 95.05283, 26.69695 ], [ 95.0534, 26.69844 ], [ 95.05574, 26.70044 ], [ 95.05762, 26.70069 ], [ 95.05717, 26.70631 ], [ 95.05547, 26.70812 ], [ 95.05545, 26.70937 ], [ 95.05861, 26.7092 ], [ 95.05821, 26.71073 ], [ 95.06563, 26.71065 ], [ 95.07017, 26.71437 ], [ 95.07101, 26.714 ], [ 95.07164, 26.71141 ], [ 95.07258, 26.71143 ], [ 95.073, 26.71356 ], [ 95.07474, 26.71502 ], [ 95.07529, 26.71805 ], [ 95.07659, 26.71972 ], [ 95.07844, 26.72045 ], [ 95.08058, 26.72357 ], [ 95.08358, 26.72489 ], [ 95.08577, 26.7243 ], [ 95.08563, 26.7268 ], [ 95.08775, 26.7261 ], [ 95.08861, 26.72785 ], [ 95.09143, 26.72917 ], [ 95.0916, 26.73408 ], [ 95.09445, 26.73339 ], [ 95.09713, 26.73751 ], [ 95.09836, 26.73693 ], [ 95.10037, 26.73889 ], [ 95.10315, 26.73735 ], [ 95.10767, 26.74016 ], [ 95.10974, 26.73688 ], [ 95.11191, 26.73927 ], [ 95.11404, 26.73939 ], [ 95.11514, 26.73886 ], [ 95.11606, 26.73631 ], [ 95.12205, 26.7337 ], [ 95.12406, 26.73692 ], [ 95.12588, 26.73745 ], [ 95.1264, 26.73555 ], [ 95.1288, 26.73627 ], [ 95.13216, 26.73204 ], [ 95.13453, 26.73404 ], [ 95.13737, 26.73324 ], [ 95.13854, 26.73386 ], [ 95.14039, 26.73153 ], [ 95.14149, 26.73147 ], [ 95.14389, 26.73454 ], [ 95.1523, 26.73484 ], [ 95.15324, 26.73406 ], [ 95.15327, 26.73232 ], [ 95.15503, 26.73098 ] ] ] } },
{ "type": "Feature", "properties": { "OBJECTID": 6050, "state_lgd": "13", "state_name": "NAGALAND", "district_lgd": "261", "district_name": "MON", "district_name_source": "district_table", "subdistrict_lgd": "01756", "subdistrict_name": "TOBU", "subdistrict_type": "", "name_corrupted": false, "remarks": "", "label_lon": 94.961833769919849, "label_lat": 26.351626170986506 }, "geometry": { "type": "Polygon", "coordinates": [ [ [ 95.0078, 26.32016 ], [ 95.00806, 26.31818 ], [ 95.01323, 26.31375 ], [ 95.01423, 26.31158 ], [ 95.00789, 26.31228 ], [ 95.00724, 26.31115 ], [ 95.00729, 26.30723 ], [ 95.00503, 26.30802 ], [ 95.00377, 26.30594 ], [ 95.00209, 26.30526 ], [ 94.99897, 26.30556 ], [ 94.99686, 26.30788 ], [ 94.99514, 26.30816 ], [ 94.99144, 26.3038 ], [ 94.99245, 26.29936 ], [ 94.98857, 26.29912 ], [ 94.98713, 26.29817 ], [ 94.98546, 26.29441 ], [ 94.98294, 26.29352 ], [ 94.97971, 26.29401 ], [ 94.97777, 26.29726 ], [ 94.97483, 26.29789 ], [ 94.97278, 26.30031 ], [ 94.96598, 26.30188 ], [ 94.96037, 26.30472 ], [ 94.95638, 26.30942 ], [ 94.9493, 26.31295 ], [ 94.94793, 26.31433 ], [ 94.94506, 26.31195 ], [ 94.94441, 26.30947 ], [ 94.94294, 26.31054 ], [ 94.94164, 26.31304 ], [ 94.93935, 26.31213 ], [ 94.93634, 26.30945 ], [ 94.93509, 26.30945 ], [ 94.92992, 26.3112 ], [ 94.92746, 26.31116 ], [ 94.92168, 26.31431 ], [ 94.91951, 26.31671 ], [ 94.913, 26.32004 ], [ 94.9112, 26.32527 ], [ 94.90229, 26.33754 ], [ 94.901, 26.34211 ], [ 94.90261, 26.34615 ], [ 94.9002, 26.34886 ], [ 94.90051, 26.3501 ], [ 94.89837, 26.34927 ], [ 94.89775, 26.34681 ], [ 94.89575, 26.34716 ], [ 94.89907, 26.35588 ], [ 94.90245, 26.35743 ], [ 94.90364, 26.36193 ], [ 94.90491, 26.36298 ], [ 94.90786, 26.36359 ], [ 94.90899, 26.36523 ], [ 94.90893, 26.3678 ], [ 94.91054, 26.3728 ], [ 94.90964, 26.37501 ], [ 94.91061, 26.37714 ], [ 94.91015, 26.37848 ], [ 94.90799, 26.37943 ], [ 94.90772, 26.38072 ], [ 94.91313, 26.38209 ], [ 94.91602, 26.38457 ], [ 94.91503, 26.38757 ], [ 94.90994, 26.39342 ], [ 94.91313, 26.39884 ], [ 94.91967, 26.4034 ], [ 94.92286, 26.40371 ], [ 94.92543, 26.40107 ], [ 94.92804, 26.40144 ], [ 94.9323, 26.39991 ], [ 94.93368, 26.39709 ], [ 94.93613, 26.39605 ], [ 94.93721, 26.39449 ], [ 94.93919, 26.39374 ], [ 94.94679, 26.38734 ], [ 94.94917, 26.3866 ], [ 94.95133, 26.38839 ], [ 94.95948, 26.3873 ], [ 94.9636, 26.38799 ], [ 94.96878, 26.38681 ], [ 94.97081, 26.38723 ], [ 94.97693, 26.39231 ], [ 94.97883, 26.39501 ], [ 94.98453, 26.39636 ], [ 94.98732, 26.39631 ], [ 94.98598, 26.393 ], [ 94.98676, 26.39224 ], [ 94.98797, 26.39215 ], [ 94.9891, 26.39089 ], [ 94.99188, 26.39067 ], [ 94.99949, 26.39373 ], [ 95.00288, 26.39591 ], [ 95.00182, 26.39787 ], [ 95.0024, 26.39946 ], [ 95.00642, 26.39997 ], [ 95.00859, 26.3992 ], [ 95.00914, 26.39684 ], [ 95.0114, 26.39583 ], [ 95.01429, 26.39143 ], [ 95.01622, 26.39253 ], [ 95.0182, 26.38968 ], [ 95.02187, 26.38963 ], [ 95.02457, 26.3836 ], [ 95.02336, 26.37359 ], [ 95.01726, 26.36046 ], [ 95.01373, 26.35672 ], [ 95.01264, 26.34659 ], [ 95.00874, 26.33791 ], [ 95.00439, 26.33188 ], [ 95.00393, 26.32388 ], [ 95.00489, 26.32177 ], [ 95.0078, 26.32016 ] ] ] } },
{ "type": "Feature", "properties": { "OBJECTID": 6051, "state_lgd": "13", "state_name": "NAGALAND", "district_lgd": "261", "district_name": "MON", "district_name_source": "district_table", "subdistrict_lgd": "01757", "subdistrict_name": "MONYAKSHU", "subdistrict_type": "", "name_corrupted": false, "remarks": "", "label_lon": 95.0491689491475, "label_lat": 26.391376153766874 }, "geometry": { "type": "Polygon", "coordinates": [ [ [ 95.07281, 26.47243 ], [ 95.0729, 26.46932 ], [ 95.07176, 26.46759 ], [ 95.07161, 26.46402 ], [ 95.06805, 26.46229 ], [ 95.06656, 26.45735 ], [ 95.06201, 26.45044 ], [ 95.06391, 26.44346 ], [ 95.06648, 26.44186 ], [ 95.06732, 26.44393 ], [ 95.07133, 26.44565 ], [ 95.07313, 26.44796 ], [ 95.07668, 26.44586 ], [ 95.08445, 26.44705 ], [ 95.08429, 26.44456 ], [ 95.08581, 26.44274 ], [ 95.08715, 26.44304 ], [ 95.08697, 26.44119 ], [ 95.09408, 26.43542 ], [ 95.0956, 26.43267 ], [ 95.0949, 26.43108 ], [ 95.09689, 26.43017 ], [ 95.09887, 26.42571 ], [ 95.10386, 26.42066 ], [ 95.10238, 26.41358 ], [ 95.1031, 26.41244 ], [ 95.09881, 26.40676 ], [ 95.09812, 26.40249 ], [ 95.09645, 26.40105 ], [ 95.09981, 26.39517 ], [ 95.09977, 26.39373 ], [ 95.10461, 26.39563 ], [ 95.10789, 26.3954 ], [ 95.11307, 26.39282 ], [ 95.11409, 26.39127 ], [ 95.11701, 26.39082 ], [ 95.12078, 26.38643 ], [ 95.12563, 26.38778 ], [ 95.12948, 26.38453 ], [ 95.13019, 26.38121 ], [ 95.13219, 26.37751 ], [ 95.13057, 26.37466 ], [ 95.13081, 26.37073 ], [ 95.12826, 26.36514 ], [ 95.12432, 26.36105 ], [ 95.12248, 26.35766 ], [ 95.12349, 26.35542 ], [ 95.12269, 26.35099 ], [ 95.12032, 26.3501 ], [ 95.11342, 26.35367 ], [ 95.11093, 26.35332 ], [ 95.10951, 26.35185 ], [ 95.10913, 26.34902 ], [ 95.10738, 26.34717 ], [ 95.10126, 26.34665 ], [ 95.10061, 26.34243 ], [ 95.09767, 26.34211 ], [ 95.09691, 26.33666 ], [ 95.09846, 26.33233 ], [ 95.09216, 26.33326 ], [ 95.09375, 26.32561 ], [ 95.0927, 26.32262 ], [ 95.09569, 26.31845 ], [ 95.09515, 26.31735 ], [ 95.09048, 26.31437 ], [ 95.0809, 26.31201 ], [ 95.0781, 26.30857 ], [ 95.07056, 26.30918 ], [ 95.06773, 26.3069 ], [ 95.06462, 26.30597 ], [ 95.06346, 26.3037 ], [ 95.06151, 26.30326 ], [ 95.05954, 26.3044 ], [ 95.05823, 26.30666 ], [ 95.05872, 26.30982 ], [ 95.05752, 26.31392 ], [ 95.05412, 26.31728 ], [ 95.05156, 26.31836 ], [ 95.04973, 26.31737 ], [ 95.04807, 26.31501 ], [ 95.04217, 26.31313 ], [ 95.03905, 26.31705 ], [ 95.0373, 26.31788 ], [ 95.03486, 26.31761 ], [ 95.03493, 26.31886 ], [ 95.03822, 26.32161 ], [ 95.03785, 26.32292 ], [ 95.03474, 26.3226 ], [ 95.03104, 26.32486 ], [ 95.02721, 26.32853 ], [ 95.02468, 26.32455 ], [ 95.02368, 26.32416 ], [ 95.01502, 26.32316 ], [ 95.0078, 26.32016 ], [ 95.00489, 26.32177 ], [ 95.00393, 26.32388 ], [ 95.00439, 26.33188 ], [ 95.00874, 26.33791 ], [ 95.01264, 26.34659 ], [ 95.01373, 26.35672 ], [ 95.01726, 26.36046 ], [ 95.02336, 26.37359 ], [ 95.02457, 26.3836 ], [ 95.02187, 26.38963 ], [ 95.0182, 26.38968 ], [ 95.01622, 26.39253 ], [ 95.01429, 26.39143 ], [ 95.0114, 26.39583 ], [ 95.00914, 26.39684 ], [ 95.00859, 26.3992 ], [ 95.007, 26.39994 ], [ 95.0024, 26.39946 ], [ 95.00182, 26.39787 ], [ 95.00288, 26.39591 ], [ 94.99949, 26.39373 ], [ 94.99188, 26.39067 ], [ 94.98868, 26.39104 ], [ 94.98598, 26.393 ], [ 94.98732, 26.39631 ], [ 94.98045, 26.39572 ], [ 94.97826, 26.3945 ], [ 94.97693, 26.39231 ], [ 94.97203, 26.388 ], [ 94.96878, 26.38681 ], [ 94.9636, 26.38799 ], [ 94.95948, 26.3873 ], [ 94.95133, 26.38839 ], [ 94.94917, 26.3866 ], [ 94.94679, 26.38734 ], [ 94.94287, 26.39015 ], [ 94.9362, 26.39597 ], [ 94.95566, 26.40695 ], [ 94.95749, 26.40919 ], [ 94.96182, 26.41039 ], [ 94.97125, 26.41868 ], [ 94.97669, 26.42136 ], [ 94.9777, 26.42505 ], [ 94.98136, 26.42606 ], [ 94.98785, 26.43128 ], [ 94.99765, 26.43749 ], [ 95.00016, 26.43832 ], [ 95.00042, 26.43932 ], [ 95.00222, 26.44036 ], [ 95.0053, 26.44192 ], [ 95.0091, 26.44216 ], [ 95.01094, 26.44558 ], [ 95.01267, 26.44635 ], [ 95.01262, 26.45507 ], [ 95.0205, 26.4665 ], [ 95.02135, 26.46993 ], [ 95.02434, 26.47333 ], [ 95.04135, 26.47822 ], [ 95.04664, 26.47554 ], [ 95.05022, 26.47849 ], [ 95.05356, 26.4793 ], [ 95.06049, 26.47563 ], [ 95.06395, 26.47516 ], [ 95.06686, 26.47352 ], [ 95.07022, 26.47373 ], [ 95.07281, 26.47243 ] ] ] } },
{ "type": "Feature", "properties": { "OBJECTID": 6052, "state_lgd": "13", "state_name": "NAGALAND", "district_lgd": "261", "district_name": "MON", "district_name_source": "district_table", "subdistrict_lgd": "01755", "subdistrict_name": "MOPONG", "subdistrict_type": "", "name_corrupted": false, "remarks": "", "label_lon": 94.968391974181145, "label_lat": 26.444391011783761 }, "geometry": { "type": "Polygon", "coordinates": [ [ [ 95.05329, 26.49986 ], [ 95.05558, 26.49977 ], [ 95.057, 26.49832 ], [ 95.05747, 26.49585 ], [ 95.0543, 26.4913 ], [ 95.04974, 26.48705 ], [ 95.04682, 26.48633 ], [ 95.04255, 26.48801 ], [ 95.0401, 26.48629 ], [ 95.04135, 26.47822 ], [ 95.02494, 26.47356 ], [ 95.02187, 26.47069 ], [ 95.0205, 26.4665 ], [ 95.01262, 26.45507 ], [ 95.01267, 26.44635 ], [ 95.01094, 26.44558 ], [ 95.0091, 26.44216 ], [ 95.0053, 26.44192 ], [ 95.00222, 26.44036 ], [ 95.00042, 26.43932 ], [ 95.00016, 26.43832 ], [ 94.99765, 26.43749 ], [ 94.98785, 26.43128 ], [ 94.98136, 26.42606 ], [ 94.9777, 26.42505 ], [ 94.97669, 26.42136 ], [ 94.97125, 26.41868 ], [ 94.96182, 26.41039 ], [ 94.95749, 26.40919 ], [ 94.95566, 26.40695 ], [ 94.9362, 26.39597 ], [ 94.93368, 26.39709 ], [ 94.932, 26.40009 ], [ 94.92804, 26.40144 ], [ 94.92543, 26.40107 ], [ 94.92286, 26.40371 ], [ 94.91967, 26.4034 ], [ 94.9145, 26.40023 ], [ 94.90912, 26.40236 ], [ 94.90473, 26.40289 ], [ 94.90401, 26.40432 ], [ 94.90418, 26.40715 ], [ 94.90627, 26.41035 ], [ 94.9044, 26.41262 ], [ 94.9015, 26.41332 ], [ 94.90138, 26.41765 ], [ 94.89565, 26.41863 ], [ 94.89672, 26.42165 ], [ 94.89659, 26.42391 ], [ 94.89313, 26.42333 ], [ 94.89261, 26.42394 ], [ 94.89311, 26.42665 ], [ 94.89527, 26.42926 ], [ 94.90051, 26.42992 ], [ 94.90066, 26.43082 ], [ 94.89844, 26.43305 ], [ 94.8984, 26.43437 ], [ 94.90134, 26.43606 ], [ 94.90169, 26.43515 ], [ 94.90268, 26.43506 ], [ 94.90365, 26.437 ], [ 94.90805, 26.43517 ], [ 94.91036, 26.43639 ], [ 94.91661, 26.43495 ], [ 94.92021, 26.43608 ], [ 94.92373, 26.43602 ], [ 94.92539, 26.43727 ], [ 94.93085, 26.43846 ], [ 94.93391, 26.43996 ], [ 94.93497, 26.44315 ], [ 94.93771, 26.4452 ], [ 94.93771, 26.44687 ], [ 94.93988, 26.4479 ], [ 94.94033, 26.45136 ], [ 94.94374, 26.45324 ], [ 94.9456, 26.45237 ], [ 94.95146, 26.45338 ], [ 94.95329, 26.45519 ], [ 94.9577, 26.45608 ], [ 94.95946, 26.45807 ], [ 94.96217, 26.4595 ], [ 94.96366, 26.46546 ], [ 94.96796, 26.47001 ], [ 94.97065, 26.47213 ], [ 94.97237, 26.47253 ], [ 94.98247, 26.48099 ], [ 94.98763, 26.48315 ], [ 95.00149, 26.47985 ], [ 95.00565, 26.48143 ], [ 95.00685, 26.48318 ], [ 95.00716, 26.48665 ], [ 95.0101, 26.49188 ], [ 95.01505, 26.4979 ], [ 95.01659, 26.49857 ], [ 95.01771, 26.49732 ], [ 95.0164, 26.49368 ], [ 95.01689, 26.49275 ], [ 95.03104, 26.49087 ], [ 95.03947, 26.4888 ], [ 95.04487, 26.49632 ], [ 95.05277, 26.50262 ], [ 95.05259, 26.50072 ], [ 95.05329, 26.49986 ] ] ] } },
{ "type": "Feature", "properties": { "OBJECTID": 6053, "state_lgd": "13", "state_name": "NAGALAND", "district_lgd": "261", "district_name": "MON", "district_name_source": "district_table", "subdistrict_lgd": "01754", "subdistrict_name": "ANGJANGYANG", "subdistrict_type": "", "name_corrupted": false, "remarks": "", "label_lon": 94.954009640248998, "label_lat": 26.484708774323916 }, "geometry": { "type": "Polygon", "coordinates": [ [ [ 95.01659, 26.49857 ], [ 95.01447, 26.49743 ], [ 95.01386, 26.49586 ], [ 95.0101, 26.49188 ], [ 95.00716, 26.48665 ], [ 95.00685, 26.48318 ], [ 95.00565, 26.48143 ], [ 95.00149, 26.47985 ], [ 94.98763, 26.48315 ], [ 94.98204, 26.48076 ], [ 94.97237, 26.47253 ], [ 94.97065, 26.47213 ], [ 94.96796, 26.47001 ], [ 94.96366, 26.46546 ], [ 94.96217, 26.4595 ], [ 94.95946, 26.45807 ], [ 94.9577, 26.45608 ], [ 94.95329, 26.45519 ], [ 94.95146, 26.45338 ], [ 94.9456, 26.45237 ], [ 94.94374, 26.45324 ], [ 94.94033, 26.45136 ], [ 94.93972, 26.44762 ], [ 94.93771, 26.44687 ], [ 94.93771, 26.4452 ], [ 94.93497, 26.44315 ], [ 94.93431, 26.44038 ], [ 94.93274, 26.43936 ], [ 94.92539, 26.43727 ], [ 94.92373, 26.43602 ], [ 94.92021, 26.43608 ], [ 94.91661, 26.43495 ], [ 94.91036, 26.43639 ], [ 94.90805, 26.43517 ], [ 94.90374, 26.437 ], [ 94.90296, 26.43529 ], [ 94.90189, 26.43503 ], [ 94.90147, 26.43779 ], [ 94.8982, 26.43906 ], [ 94.89829, 26.4409 ], [ 94.90175, 26.44208 ], [ 94.90247, 26.44311 ], [ 94.90225, 26.44533 ], [ 94.89846, 26.4463 ], [ 94.90223, 26.44982 ], [ 94.902, 26.45401 ], [ 94.90323, 26.45459 ], [ 94.90525, 26.45386 ], [ 94.90581, 26.45465 ], [ 94.9034, 26.45723 ], [ 94.90221, 26.46108 ], [ 94.90263, 26.46432 ], [ 94.89961, 26.4676 ], [ 94.89661, 26.46946 ], [ 94.89684, 26.4729 ], [ 94.89408, 26.47358 ], [ 94.8933, 26.47663 ], [ 94.89071, 26.47558 ], [ 94.88926, 26.47587 ], [ 94.88932, 26.47676 ], [ 94.89176, 26.47776 ], [ 94.89283, 26.48026 ], [ 94.89649, 26.4816 ], [ 94.8963, 26.48581 ], [ 94.90483, 26.4839 ], [ 94.91097, 26.47981 ], [ 94.91349, 26.48264 ], [ 94.91308, 26.48489 ], [ 94.91509, 26.48954 ], [ 94.91329, 26.49596 ], [ 94.91562, 26.49527 ], [ 94.92188, 26.49649 ], [ 94.92595, 26.4962 ], [ 94.92958, 26.49828 ], [ 94.9328, 26.49876 ], [ 94.9353, 26.50095 ], [ 94.94704, 26.50329 ], [ 94.96046, 26.51805 ], [ 94.96347, 26.52535 ], [ 94.9714, 26.52148 ], [ 94.97802, 26.52579 ], [ 94.97892, 26.52884 ], [ 94.97759, 26.53273 ], [ 94.98382, 26.53291 ], [ 94.98703, 26.53133 ], [ 94.99895, 26.53034 ], [ 95.0037, 26.52886 ], [ 95.00822, 26.53093 ], [ 95.00926, 26.53044 ], [ 95.00881, 26.52911 ], [ 95.00498, 26.52534 ], [ 95.0062, 26.52251 ], [ 95.0048, 26.51734 ], [ 95.00854, 26.5199 ], [ 95.01341, 26.51935 ], [ 95.01343, 26.51732 ], [ 95.01172, 26.51485 ], [ 95.01156, 26.51266 ], [ 95.01309, 26.50383 ], [ 95.01401, 26.5014 ], [ 95.01666, 26.5 ], [ 95.01659, 26.49857 ] ] ] } },
{ "type": "Feature", "properties": { "OBJECTID": 6054, "state_lgd": "13", "state_name": "NAGALAND", "district_lgd": "261", "district_name": "MON", "district_name_source": "district_table", "subdistrict_lgd": "05971", "subdistrict_name": "LONGCHING", "subdistrict_type": "", "name_corrupted": false, "remarks": "", "label_lon": 94.923856560707534, "label_lat": 26.533147036454178 }, "geometry": { "type": "Polygon", "coordinates": [ [ [ 94.88395, 26.57871 ], [ 94.89043, 26.57172 ], [ 94.89423, 26.57065 ], [ 94.89702, 26.57013 ], [ 94.89955, 26.57065 ], [ 94.90122, 26.56928 ], [ 94.90309, 26.5702 ], [ 94.90489, 26.56985 ], [ 94.91371, 26.56226 ], [ 94.92027, 26.5619 ], [ 94.9225, 26.56262 ], [ 94.92656, 26.56169 ], [ 94.9436, 26.5672 ], [ 94.94322, 26.56832 ], [ 94.94653, 26.57599 ], [ 94.94434, 26.57748 ], [ 94.9454, 26.57918 ], [ 94.94818, 26.57835 ], [ 94.94872, 26.57555 ], [ 94.94769, 26.57281 ], [ 94.9484, 26.57195 ], [ 94.95301, 26.57293 ], [ 94.9502, 26.57321 ], [ 94.95074, 26.57528 ], [ 94.9518, 26.57611 ], [ 94.95149, 26.57675 ], [ 94.95418, 26.58012 ], [ 94.95528, 26.57827 ], [ 94.95678, 26.57978 ], [ 94.95562, 26.5756 ], [ 94.95644, 26.57195 ], [ 94.95751, 26.57061 ], [ 94.95766, 26.56732 ], [ 94.96137, 26.56179 ], [ 94.96061, 26.55736 ], [ 94.96161, 26.55433 ], [ 94.96536, 26.5503 ], [ 94.96846, 26.54996 ], [ 94.96896, 26.54917 ], [ 94.96833, 26.54753 ], [ 94.97086, 26.54642 ], [ 94.97104, 26.5452 ], [ 94.96983, 26.54446 ], [ 94.97099, 26.53993 ], [ 94.97308, 26.53849 ], [ 94.97413, 26.53622 ], [ 94.97632, 26.53447 ], [ 94.9784, 26.53132 ], [ 94.97892, 26.52884 ], [ 94.97802, 26.52579 ], [ 94.9714, 26.52148 ], [ 94.96347, 26.52535 ], [ 94.96046, 26.51805 ], [ 94.94704, 26.50329 ], [ 94.9353, 26.50095 ], [ 94.9328, 26.49876 ], [ 94.92958, 26.49828 ], [ 94.92595, 26.4962 ], [ 94.92188, 26.49649 ], [ 94.91562, 26.49527 ], [ 94.91329, 26.49596 ], [ 94.91509, 26.48954 ], [ 94.91308, 26.48489 ], [ 94.91349, 26.48264 ], [ 94.91097, 26.47981 ], [ 94.90483, 26.4839 ], [ 94.8928, 26.48721 ], [ 94.89117, 26.48634 ], [ 94.893, 26.48874 ], [ 94.89367, 26.49168 ], [ 94.89158, 26.49272 ], [ 94.89301, 26.49517 ], [ 94.89044, 26.49777 ], [ 94.89145, 26.50005 ], [ 94.89062, 26.50237 ], [ 94.89255, 26.50383 ], [ 94.89317, 26.50214 ], [ 94.89285, 26.49919 ], [ 94.8942, 26.49878 ], [ 94.89724, 26.50299 ], [ 94.89762, 26.50543 ], [ 94.89357, 26.50715 ], [ 94.88863, 26.5075 ], [ 94.88462, 26.50972 ], [ 94.88655, 26.51929 ], [ 94.88998, 26.5227 ], [ 94.88989, 26.52363 ], [ 94.88197, 26.53859 ], [ 94.88242, 26.54552 ], [ 94.88034, 26.55129 ], [ 94.88112, 26.55316 ], [ 94.88476, 26.55627 ], [ 94.88806, 26.5559 ], [ 94.89244, 26.55661 ], [ 94.89385, 26.56021 ], [ 94.88804, 26.55954 ], [ 94.88757, 26.56087 ], [ 94.88134, 26.55923 ], [ 94.88232, 26.5644 ], [ 94.88606, 26.56502 ], [ 94.88724, 26.5661 ], [ 94.88327, 26.57276 ], [ 94.88035, 26.57364 ], [ 94.88057, 26.57566 ], [ 94.87944, 26.57748 ], [ 94.88131, 26.57942 ], [ 94.87991, 26.58204 ], [ 94.88089, 26.58375 ], [ 94.88263, 26.58419 ], [ 94.88395, 26.57871 ] ] ] } },
{ "type": "Feature", "properties": { "OBJECTID": 6055, "state_lgd": "13", "state_name": "NAGALAND", "district_lgd": "261", "district_name": "MON", "district_name_source": "district_table", "subdistrict_lgd": "01753", "subdistrict_name": "CHEN", "subdistrict_type": "", "name_corrupted": false, "remarks": "", "label_lon": 95.068847012299926, "label_lat": 26.556819414798763 }, "geometry": { "type": "Polygon", "coordinates": [ [ [ 95.15017, 26.58841 ], [ 95.15108, 26.58595 ], [ 95.15419, 26.58314 ], [ 95.14786, 26.57915 ], [ 95.14643, 26.57621 ], [ 95.14727, 26.57478 ], [ 95.14096, 26.56741 ], [ 95.14138, 26.56507 ], [ 95.13851, 26.56052 ], [ 95.13908, 26.55672 ], [ 95.13241, 26.5566 ], [ 95.12959, 26.55862 ], [ 95.1256, 26.55809 ], [ 95.12296, 26.55552 ], [ 95.12336, 26.55281 ], [ 95.12243, 26.5515 ], [ 95.11585, 26.54788 ], [ 95.11353, 26.54753 ], [ 95.10755, 26.54154 ], [ 95.10774, 26.53959 ], [ 95.11047, 26.53826 ], [ 95.11084, 26.53661 ], [ 95.11332, 26.53583 ], [ 95.11405, 26.53224 ], [ 95.11364, 26.52919 ], [ 95.11617, 26.524 ], [ 95.11456, 26.52132 ], [ 95.11454, 26.51851 ], [ 95.1057, 26.50822 ], [ 95.10025, 26.50579 ], [ 95.09934, 26.49785 ], [ 95.09648, 26.49277 ], [ 95.09157, 26.49038 ], [ 95.08953, 26.49029 ], [ 95.08629, 26.48774 ], [ 95.0841, 26.48524 ], [ 95.0846, 26.48332 ], [ 95.08327, 26.48353 ], [ 95.08246, 26.48261 ], [ 95.08298, 26.47962 ], [ 95.07673, 26.47645 ], [ 95.07658, 26.47507 ], [ 95.07448, 26.47332 ], [ 95.07281, 26.47243 ], [ 95.07022, 26.47373 ], [ 95.06686, 26.47352 ], [ 95.06395, 26.47516 ], [ 95.06049, 26.47563 ], [ 95.05356, 26.4793 ], [ 95.05022, 26.47849 ], [ 95.04664, 26.47554 ], [ 95.04135, 26.47822 ], [ 95.0401, 26.48629 ], [ 95.04255, 26.48801 ], [ 95.04682, 26.48633 ], [ 95.04974, 26.48705 ], [ 95.0543, 26.4913 ], [ 95.05747, 26.49585 ], [ 95.057, 26.49832 ], [ 95.05558, 26.49977 ], [ 95.05289, 26.50008 ], [ 95.05277, 26.50262 ], [ 95.04487, 26.49632 ], [ 95.03947, 26.4888 ], [ 95.01635, 26.49329 ], [ 95.01771, 26.49732 ], [ 95.01614, 26.50066 ], [ 95.01401, 26.5014 ], [ 95.01156, 26.51266 ], [ 95.01172, 26.51485 ], [ 95.01343, 26.51732 ], [ 95.01341, 26.51935 ], [ 95.00854, 26.5199 ], [ 95.0048, 26.51734 ], [ 95.0062, 26.52251 ], [ 95.00498, 26.52534 ], [ 95.00881, 26.52911 ], [ 95.00926, 26.53044 ], [ 95.00852, 26.53099 ], [ 95.01123, 26.53105 ], [ 95.0131, 26.53293 ], [ 95.01316, 26.53749 ], [ 95.01587, 26.54031 ], [ 95.01815, 26.54449 ], [ 95.02301, 26.54794 ], [ 95.02341, 26.55206 ], [ 95.02522, 26.55533 ], [ 95.02374, 26.55588 ], [ 95.02401, 26.55803 ], [ 95.02307, 26.5585 ], [ 95.02902, 26.56001 ], [ 95.03315, 26.56293 ], [ 95.03201, 26.56897 ], [ 95.03317, 26.57069 ], [ 95.03125, 26.57618 ], [ 95.02839, 26.57956 ], [ 95.02621, 26.58025 ], [ 95.0262, 26.58154 ], [ 95.02505, 26.58273 ], [ 95.02567, 26.58417 ], [ 95.02464, 26.58531 ], [ 95.02312, 26.59095 ], [ 95.01988, 26.59407 ], [ 95.01627, 26.60106 ], [ 95.01467, 26.60216 ], [ 95.01382, 26.60392 ], [ 95.01114, 26.60551 ], [ 95.0104, 26.61012 ], [ 95.01085, 26.61176 ], [ 95.00964, 26.61289 ], [ 95.00894, 26.6162 ], [ 95.01303, 26.6193 ], [ 95.01463, 26.62297 ], [ 95.01831, 26.62336 ], [ 95.01759, 26.61976 ], [ 95.01868, 26.61912 ], [ 95.02078, 26.62031 ], [ 95.0224, 26.623 ], [ 95.02568, 26.62326 ], [ 95.03226, 26.62682 ], [ 95.03385, 26.62584 ], [ 95.03241, 26.62394 ], [ 95.0373, 26.62412 ], [ 95.03886, 26.62482 ], [ 95.04089, 26.62849 ], [ 95.04294, 26.62893 ], [ 95.04338, 26.63212 ], [ 95.04148, 26.63559 ], [ 95.04557, 26.63487 ], [ 95.04804, 26.63716 ], [ 95.05112, 26.638 ], [ 95.05505, 26.63533 ], [ 95.05626, 26.63281 ], [ 95.05868, 26.63246 ], [ 95.05991, 26.63037 ], [ 95.06201, 26.62976 ], [ 95.06315, 26.62811 ], [ 95.06655, 26.62851 ], [ 95.06889, 26.6276 ], [ 95.07082, 26.62504 ], [ 95.07059, 26.62318 ], [ 95.07498, 26.62153 ], [ 95.07498, 26.61953 ], [ 95.08117, 26.61846 ], [ 95.08462, 26.61631 ], [ 95.08913, 26.61705 ], [ 95.09247, 26.61949 ], [ 95.09689, 26.61904 ], [ 95.10217, 26.62043 ], [ 95.10417, 26.61947 ], [ 95.10478, 26.61737 ], [ 95.10586, 26.61668 ], [ 95.10804, 26.61884 ], [ 95.11021, 26.61968 ], [ 95.11323, 26.61514 ], [ 95.11412, 26.61261 ], [ 95.11378, 26.60827 ], [ 95.11565, 26.60561 ], [ 95.11587, 26.60202 ], [ 95.11438, 26.59719 ], [ 95.12044, 26.59475 ], [ 95.12473, 26.58693 ], [ 95.12796, 26.58473 ], [ 95.13581, 26.58429 ], [ 95.14144, 26.58563 ], [ 95.1478, 26.58856 ], [ 95.15017, 26.58841 ] ] ] } },
{ "type": "Feature", "properties": { "OBJECTID": 6056, "state_lgd": "13", "state_name": "NAGALAND", "district_lgd": "261", "district_name": "MON", "district_name_source": "district_table", "subdistrict_lgd": "01750", "subdistrict_name": "ABOI", "subdistrict_type": "", "name_corrupted": false, "remarks": "", "label_lon": 94.960819748035604, "label_lat": 26.593064667484366 }, "geometry": { "type": "Polygon", "coordinates": [ [ [ 94.9458, 26.64736 ], [ 94.95022, 26.64648 ], [ 94.95152, 26.64326 ], [ 94.95397, 26.6433 ], [ 94.95506, 26.64072 ], [ 94.95968, 26.64218 ], [ 94.96133, 26.64123 ], [ 94.96657, 26.64065 ], [ 94.96774, 26.63699 ], [ 94.97245, 26.63775 ], [ 94.98417, 26.63597 ], [ 94.986, 26.63638 ], [ 94.98598, 26.63423 ], [ 94.98678, 26.63361 ], [ 94.98973, 26.63517 ], [ 94.99262, 26.63459 ], [ 94.99694, 26.63527 ], [ 95.00225, 26.63366 ], [ 95.00445, 26.63213 ], [ 95.01033, 26.63474 ], [ 95.01224, 26.63414 ], [ 95.01442, 26.6309 ], [ 95.01303, 26.62863 ], [ 95.0134, 26.62432 ], [ 95.01463, 26.62297 ], [ 95.01303, 26.6193 ], [ 95.00888, 26.61583 ], [ 95.00964, 26.61289 ], [ 95.01085, 26.61176 ], [ 95.0104, 26.61012 ], [ 95.01103, 26.60591 ], [ 95.01627, 26.60106 ], [ 95.01988, 26.59407 ], [ 95.02312, 26.59095 ], [ 95.02464, 26.58531 ], [ 95.02567, 26.58417 ], [ 95.02505, 26.58273 ], [ 95.0262, 26.58154 ], [ 95.02621, 26.58025 ], [ 95.02839, 26.57956 ], [ 95.03125, 26.57618 ], [ 95.03317, 26.57094 ], [ 95.03201, 26.56897 ], [ 95.03315, 26.56293 ], [ 95.02902, 26.56001 ], [ 95.02307, 26.5585 ], [ 95.02401, 26.55803 ], [ 95.02374, 26.55588 ], [ 95.02522, 26.55533 ], [ 95.02341, 26.55206 ], [ 95.02301, 26.54794 ], [ 95.02096, 26.5461 ], [ 95.01949, 26.54585 ], [ 95.01587, 26.54031 ], [ 95.01374, 26.53852 ], [ 95.01276, 26.53549 ], [ 95.0131, 26.53293 ], [ 95.01202, 26.53249 ], [ 95.01155, 26.53122 ], [ 95.00822, 26.53093 ], [ 95.00374, 26.52886 ], [ 94.99895, 26.53034 ], [ 94.98703, 26.53133 ], [ 94.98382, 26.53291 ], [ 94.97759, 26.53273 ], [ 94.97413, 26.53622 ], [ 94.97308, 26.53849 ], [ 94.97099, 26.53993 ], [ 94.96983, 26.54446 ], [ 94.97104, 26.5452 ], [ 94.97086, 26.54642 ], [ 94.96833, 26.54753 ], [ 94.96896, 26.54917 ], [ 94.96846, 26.54996 ], [ 94.96536, 26.5503 ], [ 94.96167, 26.5542 ], [ 94.96061, 26.55736 ], [ 94.96137, 26.56179 ], [ 94.95766, 26.56732 ], [ 94.95751, 26.57061 ], [ 94.95644, 26.57195 ], [ 94.95562, 26.5756 ], [ 94.95678, 26.57978 ], [ 94.95528, 26.57827 ], [ 94.95418, 26.58012 ], [ 94.95149, 26.57675 ], [ 94.9518, 26.57611 ], [ 94.95074, 26.57528 ], [ 94.9502, 26.57321 ], [ 94.95301, 26.57293 ], [ 94.9484, 26.57195 ], [ 94.94769, 26.57281 ], [ 94.94872, 26.57555 ], [ 94.94818, 26.57835 ], [ 94.9454, 26.57918 ], [ 94.94434, 26.57748 ], [ 94.94653, 26.57599 ], [ 94.94322, 26.56832 ], [ 94.9436, 26.5672 ], [ 94.92656, 26.56169 ], [ 94.9225, 26.56262 ], [ 94.92027, 26.5619 ], [ 94.91293, 26.56252 ], [ 94.91156, 26.5644 ], [ 94.90444, 26.57004 ], [ 94.90122, 26.56928 ], [ 94.89955, 26.57065 ], [ 94.89702, 26.57013 ], [ 94.89043, 26.57172 ], [ 94.88395, 26.57871 ], [ 94.88263, 26.58419 ], [ 94.88566, 26.5846 ], [ 94.88641, 26.58709 ], [ 94.88795, 26.58869 ], [ 94.89242, 26.58869 ], [ 94.89334, 26.58949 ], [ 94.89267, 26.59128 ], [ 94.89003, 26.59227 ], [ 94.88505, 26.58933 ], [ 94.88376, 26.59485 ], [ 94.88455, 26.59579 ], [ 94.88743, 26.59576 ], [ 94.88902, 26.5978 ], [ 94.89141, 26.59718 ], [ 94.89294, 26.59874 ], [ 94.89388, 26.60099 ], [ 94.89016, 26.60258 ], [ 94.88996, 26.60398 ], [ 94.89117, 26.60414 ], [ 94.89336, 26.60284 ], [ 94.89477, 26.60364 ], [ 94.89419, 26.60504 ], [ 94.89039, 26.60634 ], [ 94.88839, 26.60523 ], [ 94.88651, 26.6052 ], [ 94.88398, 26.60739 ], [ 94.88593, 26.60987 ], [ 94.88592, 26.611 ], [ 94.88764, 26.61207 ], [ 94.89058, 26.61265 ], [ 94.89506, 26.61182 ], [ 94.89619, 26.61316 ], [ 94.89393, 26.617 ], [ 94.89377, 26.6186 ], [ 94.89465, 26.61969 ], [ 94.89635, 26.61962 ], [ 94.89666, 26.62061 ], [ 94.89323, 26.62217 ], [ 94.89222, 26.62409 ], [ 94.89372, 26.6279 ], [ 94.89255, 26.63073 ], [ 94.89295, 26.6316 ], [ 94.89441, 26.63222 ], [ 94.89824, 26.632 ], [ 94.90005, 26.63764 ], [ 94.90117, 26.63826 ], [ 94.90452, 26.63713 ], [ 94.90622, 26.63499 ], [ 94.90836, 26.63514 ], [ 94.90892, 26.63619 ], [ 94.90819, 26.63913 ], [ 94.91682, 26.64159 ], [ 94.92144, 26.64542 ], [ 94.92443, 26.64277 ], [ 94.92797, 26.6435 ], [ 94.93091, 26.64288 ], [ 94.93261, 26.64404 ], [ 94.9329, 26.64654 ], [ 94.93411, 26.64748 ], [ 94.94112, 26.64679 ], [ 94.94301, 26.64502 ], [ 94.9458, 26.64736 ] ] ] } },
{ "type": "Feature", "properties": { "OBJECTID": 6057, "state_lgd": "13", "state_name": "NAGALAND", "district_lgd": "261", "district_name": "MON", "district_name_source": "district_table", "subdistrict_lgd": "01749", "subdistrict_name": "WAKCHING", "subdistrict_type": "", "name_corrupted": false, "remarks": "", "label_lon": 94.874651445390782, "label_lat": 26.684807399165503 }, "geometry": { "type": "MultiPolygon", "coordinates": [ [ [ [ 94.88106, 26.77676 ], [ 94.87986, 26.77589 ], [ 94.87907, 26.77341 ], [ 94.88103, 26.77326 ], [ 94.88053, 26.77125 ], [ 94.88391, 26.76982 ], [ 94.88605, 26.76779 ], [ 94.88526, 26.76556 ], [ 94.89156, 26.76329 ], [ 94.89416, 26.75837 ], [ 94.89737, 26.75676 ], [ 94.89949, 26.75759 ], [ 94.90403, 26.75356 ], [ 94.90439, 26.75067 ], [ 94.89911, 26.74903 ], [ 94.90045, 26.74614 ], [ 94.90189, 26.74578 ], [ 94.90347, 26.74388 ], [ 94.90488, 26.74433 ], [ 94.90575, 26.74717 ], [ 94.90725, 26.74571 ], [ 94.90957, 26.74643 ], [ 94.91055, 26.7454 ], [ 94.91429, 26.74596 ], [ 94.91926, 26.74424 ], [ 94.92193, 26.7463 ], [ 94.92532, 26.74541 ], [ 94.92766, 26.74603 ], [ 94.93204, 26.74868 ], [ 94.93623, 26.74899 ], [ 94.93751, 26.74993 ], [ 94.93988, 26.74882 ], [ 94.94239, 26.75043 ], [ 94.94693, 26.75065 ], [ 94.9486, 26.74874 ], [ 94.95506, 26.74593 ], [ 94.95972, 26.74625 ], [ 94.96267, 26.74562 ], [ 94.96698, 26.74277 ], [ 94.96555, 26.73933 ], [ 94.9688, 26.73288 ], [ 94.96538, 26.72927 ], [ 94.96582, 26.7278 ], [ 94.96513, 26.72572 ], [ 94.96669, 26.7234 ], [ 94.96574, 26.72241 ], [ 94.96615, 26.72153 ], [ 94.96525, 26.72036 ], [ 94.96338, 26.71976 ], [ 94.96194, 26.71698 ], [ 94.95881, 26.71423 ], [ 94.95998, 26.71324 ], [ 94.96245, 26.71363 ], [ 94.96277, 26.71272 ], [ 94.95953, 26.7108 ], [ 94.95833, 26.71177 ], [ 94.95743, 26.70983 ], [ 94.96102, 26.70678 ], [ 94.96005, 26.70442 ], [ 94.96322, 26.70347 ], [ 94.9631, 26.7019 ], [ 94.96042, 26.70057 ], [ 94.9578, 26.7008 ], [ 94.95727, 26.69969 ], [ 94.95817, 26.69864 ], [ 94.95448, 26.6966 ], [ 94.95034, 26.69583 ], [ 94.95087, 26.69515 ], [ 94.95365, 26.69546 ], [ 94.95532, 26.69475 ], [ 94.95601, 26.69359 ], [ 94.95532, 26.69195 ], [ 94.95275, 26.69357 ], [ 94.9512, 26.69167 ], [ 94.94937, 26.69333 ], [ 94.94733, 26.69213 ], [ 94.9487, 26.68996 ], [ 94.94701, 26.68828 ], [ 94.94621, 26.68511 ], [ 94.94371, 26.68491 ], [ 94.94475, 26.68091 ], [ 94.94165, 26.67972 ], [ 94.94242, 26.67648 ], [ 94.94069, 26.67426 ], [ 94.93823, 26.67462 ], [ 94.93784, 26.67052 ], [ 94.93523, 26.66751 ], [ 94.93469, 26.66449 ], [ 94.93202, 26.66364 ], [ 94.92917, 26.65973 ], [ 94.92931, 26.65609 ], [ 94.92656, 26.65403 ], [ 94.92485, 26.65398 ], [ 94.92529, 26.65205 ], [ 94.92227, 26.65027 ], [ 94.92258, 26.64758 ], [ 94.92084, 26.64481 ], [ 94.91682, 26.64159 ], [ 94.90819, 26.63913 ], [ 94.90892, 26.63619 ], [ 94.90836, 26.63514 ], [ 94.90622, 26.63499 ], [ 94.90452, 26.63713 ], [ 94.90117, 26.63826 ], [ 94.90005, 26.63764 ], [ 94.89824, 26.632 ], [ 94.89441, 26.63222 ], [ 94.89267, 26.63127 ], [ 94.89372, 26.6279 ], [ 94.89222, 26.62518 ], [ 94.89247, 26.62341 ], [ 94.89323, 26.62217 ], [ 94.89614, 26.6213 ], [ 94.89675, 26.62019 ], [ 94.89385, 26.61914 ], [ 94.89393, 26.617 ], [ 94.89623, 26.61356 ], [ 94.89506, 26.61182 ], [ 94.89058, 26.61265 ], [ 94.88592, 26.611 ], [ 94.88422, 26.61527 ], [ 94.88308, 26.61591 ], [ 94.88204, 26.61545 ], [ 94.87995, 26.612 ], [ 94.87437, 26.60906 ], [ 94.87167, 26.60976 ], [ 94.87025, 26.61366 ], [ 94.86797, 26.61161 ], [ 94.86518, 26.61317 ], [ 94.86038, 26.614 ], [ 94.85524, 26.6102 ], [ 94.85257, 26.61399 ], [ 94.84765, 26.61259 ], [ 94.84077, 26.61478 ], [ 94.83908, 26.61733 ], [ 94.83519, 26.61881 ], [ 94.83071, 26.62244 ], [ 94.82224, 26.62236 ], [ 94.81923, 26.62451 ], [ 94.81475, 26.62232 ], [ 94.81296, 26.62441 ], [ 94.80681, 26.62586 ], [ 94.80366, 26.63043 ], [ 94.80046, 26.63129 ], [ 94.79303, 26.63088 ], [ 94.79055, 26.63311 ], [ 94.78715, 26.63317 ], [ 94.78667, 26.63449 ], [ 94.78831, 26.63729 ], [ 94.78659, 26.64037 ], [ 94.78638, 26.64257 ], [ 94.78799, 26.64903 ], [ 94.78712, 26.652 ], [ 94.78752, 26.65503 ], [ 94.78393, 26.65699 ], [ 94.78, 26.65778 ], [ 94.7795, 26.65873 ], [ 94.78622, 26.66785 ], [ 94.78587, 26.6693 ], [ 94.78133, 26.67194 ], [ 94.78111, 26.67314 ], [ 94.78267, 26.67529 ], [ 94.78587, 26.67651 ], [ 94.78746, 26.67799 ], [ 94.7901, 26.68843 ], [ 94.78921, 26.68982 ], [ 94.78003, 26.69535 ], [ 94.77997, 26.69842 ], [ 94.78317, 26.69964 ], [ 94.78814, 26.69868 ], [ 94.79187, 26.69481 ], [ 94.79833, 26.6933 ], [ 94.80431, 26.6892 ], [ 94.80643, 26.69071 ], [ 94.80473, 26.69612 ], [ 94.80551, 26.69751 ], [ 94.80723, 26.69757 ], [ 94.8125, 26.69511 ], [ 94.81491, 26.69584 ], [ 94.81886, 26.70271 ], [ 94.82358, 26.70725 ], [ 94.82566, 26.71207 ], [ 94.82965, 26.71414 ], [ 94.83396, 26.71779 ], [ 94.8341, 26.71896 ], [ 94.83172, 26.72015 ], [ 94.83214, 26.72064 ], [ 94.83537, 26.72178 ], [ 94.84038, 26.72631 ], [ 94.84415, 26.72623 ], [ 94.84608, 26.72725 ], [ 94.84904, 26.73112 ], [ 94.85018, 26.73106 ], [ 94.85202, 26.72941 ], [ 94.8538, 26.7299 ], [ 94.8554, 26.73383 ], [ 94.85962, 26.73577 ], [ 94.86094, 26.7399 ], [ 94.86386, 26.74106 ], [ 94.8636, 26.74837 ], [ 94.86607, 26.75063 ], [ 94.86898, 26.74969 ], [ 94.87025, 26.75541 ], [ 94.87369, 26.75558 ], [ 94.8735, 26.75666 ], [ 94.87495, 26.75825 ], [ 94.87563, 26.76383 ], [ 94.87376, 26.76524 ], [ 94.8743, 26.76808 ], [ 94.8731, 26.76988 ], [ 94.87537, 26.76982 ], [ 94.8765, 26.77144 ], [ 94.87595, 26.77331 ], [ 94.8793, 26.77701 ], [ 94.88106, 26.77676 ] ] ], [ [ [ 94.84645, 26.72808 ], [ 94.84646, 26.72812 ], [ 94.84641, 26.72785 ], [ 94.84645, 26.72808 ] ] ] ] } },
{ "type": "Feature", "properties": { "OBJECTID": 6058, "state_lgd": "13", "state_name": "NAGALAND", "district_lgd": "261", "district_name": "MON", "district_name_source": "district_table", "subdistrict_lgd": "01744", "subdistrict_name": "NAGINIMORA", "subdistrict_type": "", "name_corrupted": false, "remarks": "", "label_lon": 94.875885174676256, "label_lat": 26.841357624631272 }, "geometry": { "type": "Polygon", "coordinates": [ [ [ 94.98902, 26.91396 ], [ 94.99105, 26.91158 ], [ 94.99153, 26.90803 ], [ 94.9904, 26.9059 ], [ 94.9882, 26.90653 ], [ 94.98692, 26.90607 ], [ 94.98264, 26.90849 ], [ 94.98129, 26.90844 ], [ 94.98036, 26.90748 ], [ 94.98004, 26.9042 ], [ 94.97891, 26.90354 ], [ 94.97665, 26.90517 ], [ 94.97373, 26.90585 ], [ 94.97129, 26.90389 ], [ 94.96957, 26.90068 ], [ 94.9676, 26.89947 ], [ 94.96175, 26.90014 ], [ 94.95832, 26.89881 ], [ 94.95642, 26.89661 ], [ 94.95431, 26.89027 ], [ 94.95611, 26.8845 ], [ 94.95538, 26.88272 ], [ 94.95102, 26.88072 ], [ 94.94927, 26.8821 ], [ 94.94737, 26.88204 ], [ 94.94762, 26.8829 ], [ 94.94641, 26.88413 ], [ 94.94598, 26.88262 ], [ 94.94488, 26.88453 ], [ 94.94276, 26.88541 ], [ 94.94011, 26.88314 ], [ 94.93997, 26.88012 ], [ 94.94072, 26.87868 ], [ 94.93879, 26.87839 ], [ 94.93858, 26.8759 ], [ 94.93601, 26.87734 ], [ 94.93575, 26.87411 ], [ 94.93396, 26.87367 ], [ 94.93302, 26.87017 ], [ 94.93157, 26.86946 ], [ 94.93158, 26.86839 ], [ 94.92985, 26.86781 ], [ 94.93062, 26.86663 ], [ 94.93059, 26.86392 ], [ 94.92852, 26.86576 ], [ 94.92747, 26.86396 ], [ 94.92407, 26.86366 ], [ 94.92332, 26.86288 ], [ 94.92328, 26.86093 ], [ 94.92487, 26.85961 ], [ 94.92391, 26.85844 ], [ 94.91873, 26.85741 ], [ 94.9188, 26.85444 ], [ 94.91579, 26.85305 ], [ 94.91301, 26.85351 ], [ 94.9104, 26.85191 ], [ 94.9113, 26.84809 ], [ 94.91395, 26.84679 ], [ 94.91187, 26.84613 ], [ 94.91145, 26.84424 ], [ 94.912, 26.84318 ], [ 94.90995, 26.84144 ], [ 94.91017, 26.83924 ], [ 94.90885, 26.83732 ], [ 94.90737, 26.83663 ], [ 94.9076, 26.83521 ], [ 94.90568, 26.83048 ], [ 94.90642, 26.82816 ], [ 94.90376, 26.82593 ], [ 94.90223, 26.8216 ], [ 94.90261, 26.82005 ], [ 94.89945, 26.81327 ], [ 94.89754, 26.81106 ], [ 94.89816, 26.80803 ], [ 94.89608, 26.8074 ], [ 94.89497, 26.80262 ], [ 94.88913, 26.79595 ], [ 94.88732, 26.79152 ], [ 94.88741, 26.78837 ], [ 94.88485, 26.78642 ], [ 94.88456, 26.78124 ], [ 94.88207, 26.77996 ], [ 94.88182, 26.77717 ], [ 94.8793, 26.77701 ], [ 94.87595, 26.77331 ], [ 94.8765, 26.77144 ], [ 94.87537, 26.76982 ], [ 94.8731, 26.76988 ], [ 94.8743, 26.76808 ], [ 94.8736, 26.76565 ], [ 94.87566, 26.76351 ], [ 94.87495, 26.75825 ], [ 94.8735, 26.75666 ], [ 94.87405, 26.75599 ], [ 94.87025, 26.75541 ], [ 94.86898, 26.74969 ], [ 94.86607, 26.75063 ], [ 94.8636, 26.74837 ], [ 94.86386, 26.74106 ], [ 94.86094, 26.7399 ], [ 94.85916, 26.73536 ], [ 94.8554, 26.73383 ], [ 94.8538, 26.7299 ], [ 94.85202, 26.72941 ], [ 94.85018, 26.73106 ], [ 94.84904, 26.73112 ], [ 94.84608, 26.72725 ], [ 94.84415, 26.72623 ], [ 94.84038, 26.72631 ], [ 94.83537, 26.72178 ], [ 94.83172, 26.72015 ], [ 94.82727, 26.72333 ], [ 94.82541, 26.72597 ], [ 94.82574, 26.731 ], [ 94.82488, 26.73227 ], [ 94.81815, 26.73956 ], [ 94.81525, 26.74404 ], [ 94.81332, 26.7448 ], [ 94.80792, 26.74477 ], [ 94.80727, 26.74732 ], [ 94.80418, 26.74952 ], [ 94.80271, 26.75526 ], [ 94.79817, 26.76001 ], [ 94.79886, 26.76221 ], [ 94.80492, 26.76451 ], [ 94.80558, 26.76632 ], [ 94.80494, 26.76781 ], [ 94.80364, 26.76882 ], [ 94.80123, 26.7687 ], [ 94.79837, 26.76512 ], [ 94.79704, 26.76566 ], [ 94.79583, 26.76788 ], [ 94.79361, 26.76847 ], [ 94.79368, 26.76953 ], [ 94.79516, 26.77066 ], [ 94.80675, 26.7745 ], [ 94.81256, 26.77352 ], [ 94.81452, 26.77453 ], [ 94.81614, 26.77841 ], [ 94.81532, 26.78407 ], [ 94.81456, 26.78466 ], [ 94.81123, 26.78359 ], [ 94.80882, 26.78521 ], [ 94.81243, 26.78912 ], [ 94.81336, 26.79213 ], [ 94.81042, 26.79235 ], [ 94.80735, 26.79484 ], [ 94.80347, 26.79612 ], [ 94.79904, 26.79633 ], [ 94.79233, 26.79499 ], [ 94.78947, 26.79565 ], [ 94.78859, 26.79725 ], [ 94.78946, 26.79896 ], [ 94.79127, 26.8001 ], [ 94.80119, 26.80031 ], [ 94.80298, 26.80219 ], [ 94.8038, 26.80439 ], [ 94.80319, 26.80617 ], [ 94.80079, 26.80851 ], [ 94.79536, 26.81067 ], [ 94.79496, 26.81441 ], [ 94.79719, 26.8154 ], [ 94.804, 26.81396 ], [ 94.80632, 26.81586 ], [ 94.8064, 26.81833 ], [ 94.80717, 26.8188 ], [ 94.81443, 26.81979 ], [ 94.81318, 26.83365 ], [ 94.81562, 26.8373 ], [ 94.81945, 26.83759 ], [ 94.82112, 26.8417 ], [ 94.82076, 26.84362 ], [ 94.81736, 26.84777 ], [ 94.82417, 26.85452 ], [ 94.82833, 26.8554 ], [ 94.83404, 26.86022 ], [ 94.83486, 26.86211 ], [ 94.83527, 26.86767 ], [ 94.83607, 26.86878 ], [ 94.83919, 26.8699 ], [ 94.84261, 26.86855 ], [ 94.84956, 26.87448 ], [ 94.85056, 26.87659 ], [ 94.85107, 26.8811 ], [ 94.85464, 26.88614 ], [ 94.85783, 26.88848 ], [ 94.85845, 26.89221 ], [ 94.86253, 26.89759 ], [ 94.86245, 26.90045 ], [ 94.86361, 26.90075 ], [ 94.86523, 26.90398 ], [ 94.86629, 26.9091 ], [ 94.87278, 26.91513 ], [ 94.87379, 26.91772 ], [ 94.87808, 26.91989 ], [ 94.87919, 26.92185 ], [ 94.88311, 26.92385 ], [ 94.8894, 26.92888 ], [ 94.89782, 26.93125 ], [ 94.90245, 26.93467 ], [ 94.91437, 26.93678 ], [ 94.91766, 26.94222 ], [ 94.92396, 26.9465 ], [ 94.92561, 26.94079 ], [ 94.92888, 26.93728 ], [ 94.93085, 26.9369 ], [ 94.93085, 26.93256 ], [ 94.94026, 26.93356 ], [ 94.94186, 26.93531 ], [ 94.94604, 26.93539 ], [ 94.95044, 26.93768 ], [ 94.95324, 26.93761 ], [ 94.9555, 26.9401 ], [ 94.9575, 26.93748 ], [ 94.96152, 26.93677 ], [ 94.9646, 26.93132 ], [ 94.96777, 26.92295 ], [ 94.9765, 26.92128 ], [ 94.98231, 26.91311 ], [ 94.98902, 26.91396 ] ], [ [ 94.84646, 26.72812 ], [ 94.84645, 26.72808 ], [ 94.84641, 26.72785 ], [ 94.84646, 26.72812 ] ] ] } }
]
}
