{
"type": "FeatureCollection",
"name": "263_ZUNHEBOTO",
"crs": { "type": "name", "properties": { "name": "urn:ogc:def:crs:OGC:1.3:CRS84" } },
"xy_coordinate_resolution": 1e-05,
"features": [
{ "type": "Feature", "properties": { "OBJECTID": 6073, "state_lgd": "13", "state_name": "NAGALAND", "district_lgd": "263", "district_name": "ZUNHEBOTO", "district_name_source": "district_table", "subdistrict_lgd": "01775", "subdistrict_name": "PUNHOBOTO", "subdistrict_type": "", "name_corrupted": false, "remarks": "", "label_lon": 94.28810444469282, "label_lat": 25.898064905935811 }, "geometry": { "type": "Polygon", "coordinates": [ [ [ 94.32635, 26.00733 ], [ 94.32564, 26.00427 ], [ 94.32773, 26.00114 ], [ 94.32489, 25.99608 ], [ 94.32611, 25.9944 ], [ 94.3308, 25.99515 ], [ 94.33364, 25.99391 ], [ 94.33554, 25.99442 ], [ 94.33836, 25.99733 ], [ 94.34433, 25.99987 ], [ 94.34633, 25.99988 ], [ 94.35001, 26.00223 ], [ 94.36064, 26.004 ], [ 94.36174, 26.00196 ], [ 94.36109, 25.99667 ], [ 94.35888, 25.99327 ], [ 94.35901, 25.99178 ], [ 94.36059, 25.98978 ], [ 94.35626, 25.98599 ], [ 94.35626, 25.98347 ], [ 94.35351, 25.98134 ], [ 94.35267, 25.9778 ], [ 94.34977, 25.97838 ], [ 94.34888, 25.9777 ], [ 94.34977, 25.97473 ], [ 94.34371, 25.96808 ], [ 94.34265, 25.96462 ], [ 94.33927, 25.96051 ], [ 94.33838, 25.95683 ], [ 94.33938, 25.95405 ], [ 94.33603, 25.95428 ], [ 94.33495, 25.952 ], [ 94.33272, 25.95087 ], [ 94.33308, 25.94954 ], [ 94.33654, 25.94633 ], [ 94.33603, 25.94393 ], [ 94.33111, 25.94426 ], [ 94.32745, 25.93917 ], [ 94.32655, 25.93601 ], [ 94.32404, 25.93448 ], [ 94.32217, 25.93473 ], [ 94.32091, 25.93262 ], [ 94.31815, 25.9324 ], [ 94.31883, 25.92965 ], [ 94.3249, 25.9245 ], [ 94.32572, 25.92205 ], [ 94.3241, 25.91869 ], [ 94.32595, 25.91205 ], [ 94.32507, 25.91115 ], [ 94.32266, 25.91109 ], [ 94.32221, 25.91018 ], [ 94.32645, 25.9052 ], [ 94.32345, 25.9028 ], [ 94.3246, 25.90161 ], [ 94.3226, 25.898 ], [ 94.32125, 25.89197 ], [ 94.32202, 25.88894 ], [ 94.32166, 25.88695 ], [ 94.32267, 25.8854 ], [ 94.32158, 25.88422 ], [ 94.32191, 25.88164 ], [ 94.32031, 25.8819 ], [ 94.31977, 25.88117 ], [ 94.32123, 25.87733 ], [ 94.31884, 25.87498 ], [ 94.32067, 25.8732 ], [ 94.32215, 25.86879 ], [ 94.32115, 25.86762 ], [ 94.31766, 25.86652 ], [ 94.31759, 25.86359 ], [ 94.31605, 25.86186 ], [ 94.31627, 25.85998 ], [ 94.31357, 25.8579 ], [ 94.3127, 25.85466 ], [ 94.30967, 25.85333 ], [ 94.31067, 25.84933 ], [ 94.3067, 25.84459 ], [ 94.30904, 25.84206 ], [ 94.30596, 25.84101 ], [ 94.30536, 25.83971 ], [ 94.30547, 25.8369 ], [ 94.30734, 25.83651 ], [ 94.30741, 25.8359 ], [ 94.30503, 25.83482 ], [ 94.30446, 25.83365 ], [ 94.30341, 25.83421 ], [ 94.30228, 25.8321 ], [ 94.29767, 25.82958 ], [ 94.30058, 25.8275 ], [ 94.30021, 25.826 ], [ 94.29739, 25.82537 ], [ 94.29999, 25.8206 ], [ 94.29909, 25.81997 ], [ 94.29531, 25.82038 ], [ 94.29691, 25.81827 ], [ 94.29523, 25.81767 ], [ 94.29502, 25.81669 ], [ 94.29257, 25.81507 ], [ 94.29582, 25.81494 ], [ 94.29687, 25.81294 ], [ 94.29541, 25.81108 ], [ 94.29642, 25.80927 ], [ 94.29555, 25.80857 ], [ 94.29328, 25.80863 ], [ 94.29055, 25.80628 ], [ 94.28955, 25.80423 ], [ 94.28496, 25.80314 ], [ 94.28061, 25.80363 ], [ 94.27657, 25.8003 ], [ 94.27716, 25.79662 ], [ 94.2753, 25.7949 ], [ 94.27288, 25.79478 ], [ 94.27342, 25.79367 ], [ 94.2762, 25.79322 ], [ 94.27519, 25.7921 ], [ 94.27553, 25.78989 ], [ 94.2738, 25.78979 ], [ 94.27161, 25.78759 ], [ 94.26628, 25.79096 ], [ 94.26596, 25.7919 ], [ 94.26763, 25.79278 ], [ 94.26722, 25.79352 ], [ 94.26187, 25.79575 ], [ 94.25704, 25.79675 ], [ 94.25357, 25.79892 ], [ 94.25636, 25.80198 ], [ 94.26004, 25.80339 ], [ 94.2588, 25.80475 ], [ 94.2557, 25.80538 ], [ 94.25571, 25.80705 ], [ 94.25367, 25.80996 ], [ 94.25436, 25.81117 ], [ 94.24773, 25.81696 ], [ 94.24819, 25.82008 ], [ 94.24308, 25.8269 ], [ 94.24151, 25.82658 ], [ 94.22826, 25.83398 ], [ 94.22623, 25.83304 ], [ 94.2245, 25.83546 ], [ 94.22404, 25.83792 ], [ 94.2215, 25.83821 ], [ 94.2194, 25.83966 ], [ 94.21891, 25.84071 ], [ 94.21976, 25.84443 ], [ 94.22305, 25.84842 ], [ 94.2208, 25.85232 ], [ 94.2176, 25.85435 ], [ 94.21546, 25.85471 ], [ 94.21487, 25.856 ], [ 94.2195, 25.86172 ], [ 94.2202, 25.86379 ], [ 94.22236, 25.86249 ], [ 94.22875, 25.86377 ], [ 94.23089, 25.86325 ], [ 94.23013, 25.86596 ], [ 94.2274, 25.86764 ], [ 94.2344, 25.86821 ], [ 94.23466, 25.86874 ], [ 94.23016, 25.87454 ], [ 94.22971, 25.87701 ], [ 94.22777, 25.88038 ], [ 94.23157, 25.88164 ], [ 94.2374, 25.87972 ], [ 94.23997, 25.88025 ], [ 94.24, 25.88784 ], [ 94.24095, 25.8932 ], [ 94.2486, 25.89907 ], [ 94.24734, 25.91218 ], [ 94.2492, 25.91186 ], [ 94.25777, 25.91502 ], [ 94.26132, 25.91979 ], [ 94.2607, 25.92172 ], [ 94.26417, 25.92252 ], [ 94.26895, 25.92169 ], [ 94.27189, 25.9203 ], [ 94.272, 25.92184 ], [ 94.27617, 25.92246 ], [ 94.2799, 25.92517 ], [ 94.27724, 25.9297 ], [ 94.27355, 25.93374 ], [ 94.27316, 25.93534 ], [ 94.27408, 25.9377 ], [ 94.27974, 25.93826 ], [ 94.27979, 25.93703 ], [ 94.27827, 25.9346 ], [ 94.27979, 25.93072 ], [ 94.28468, 25.92992 ], [ 94.29052, 25.93352 ], [ 94.29136, 25.94054 ], [ 94.2873, 25.94243 ], [ 94.2854, 25.94598 ], [ 94.29005, 25.94621 ], [ 94.29027, 25.9481 ], [ 94.2891, 25.95364 ], [ 94.28483, 25.95824 ], [ 94.28584, 25.96145 ], [ 94.2839, 25.9687 ], [ 94.2874, 25.97042 ], [ 94.28673, 25.97256 ], [ 94.28769, 25.97611 ], [ 94.28676, 25.97931 ], [ 94.28298, 25.98281 ], [ 94.28339, 25.98411 ], [ 94.28778, 25.9871 ], [ 94.28867, 25.98893 ], [ 94.29189, 25.99109 ], [ 94.29499, 25.99483 ], [ 94.2986, 25.9971 ], [ 94.29862, 26.00301 ], [ 94.30132, 26.00195 ], [ 94.30422, 26.00438 ], [ 94.30762, 26.00553 ], [ 94.30806, 26.00652 ], [ 94.31042, 26.00765 ], [ 94.31271, 26.01185 ], [ 94.31421, 26.00784 ], [ 94.31543, 26.0067 ], [ 94.31722, 26.00718 ], [ 94.31919, 26.0096 ], [ 94.32304, 26.0119 ], [ 94.32552, 26.01037 ], [ 94.32481, 26.00876 ], [ 94.32635, 26.00733 ] ] ] } },
{ "type": "Feature", "properties": { "OBJECTID": 6074, "state_lgd": "13", "state_name": "NAGALAND", "district_lgd": "263", "district_name": "ZUNHEBOTO", "district_name_source": "district_table", "subdistrict_lgd": "01776", "subdistrict_name": "GHATHASHI", "subdistrict_type": "", "name_corrupted": false, "remarks": "", "label_lon": 94.352605109562163, "label_lat": 25.860546190571341 }, "geometry": { "type": "Polygon", "coordinates": [ [ [ 94.34812, 25.96314 ], [ 94.3523, 25.96391 ], [ 94.35582, 25.96277 ], [ 94.35608, 25.96144 ], [ 94.36003, 25.95629 ], [ 94.36214, 25.95555 ], [ 94.36931, 25.94956 ], [ 94.37253, 25.94956 ], [ 94.37381, 25.95537 ], [ 94.37578, 25.95814 ], [ 94.37704, 25.95798 ], [ 94.37968, 25.95484 ], [ 94.38132, 25.95467 ], [ 94.38372, 25.95592 ], [ 94.38356, 25.95354 ], [ 94.37971, 25.94952 ], [ 94.38107, 25.94195 ], [ 94.37853, 25.94067 ], [ 94.37809, 25.93601 ], [ 94.37543, 25.93186 ], [ 94.37119, 25.92826 ], [ 94.3693, 25.92514 ], [ 94.36737, 25.92446 ], [ 94.36943, 25.92296 ], [ 94.37114, 25.92316 ], [ 94.37866, 25.91467 ], [ 94.38098, 25.9134 ], [ 94.38367, 25.9127 ], [ 94.3848, 25.91155 ], [ 94.38675, 25.91193 ], [ 94.38904, 25.91109 ], [ 94.39699, 25.90594 ], [ 94.40891, 25.90291 ], [ 94.41166, 25.90308 ], [ 94.41616, 25.89768 ], [ 94.42398, 25.89866 ], [ 94.42669, 25.89721 ], [ 94.42989, 25.89375 ], [ 94.43276, 25.89259 ], [ 94.43254, 25.8909 ], [ 94.43469, 25.88925 ], [ 94.43535, 25.88896 ], [ 94.43588, 25.88985 ], [ 94.4369, 25.88866 ], [ 94.43954, 25.88809 ], [ 94.44124, 25.88552 ], [ 94.441, 25.8825 ], [ 94.4455, 25.88041 ], [ 94.4437, 25.8782 ], [ 94.44616, 25.87423 ], [ 94.44581, 25.87013 ], [ 94.44697, 25.86819 ], [ 94.44639, 25.86687 ], [ 94.45014, 25.85989 ], [ 94.45399, 25.85481 ], [ 94.45509, 25.85399 ], [ 94.45661, 25.8541 ], [ 94.4574, 25.85274 ], [ 94.44925, 25.84842 ], [ 94.4484, 25.84668 ], [ 94.44097, 25.84498 ], [ 94.43904, 25.84573 ], [ 94.43388, 25.84398 ], [ 94.43026, 25.84586 ], [ 94.42784, 25.84447 ], [ 94.42015, 25.84456 ], [ 94.41303, 25.84551 ], [ 94.40813, 25.84821 ], [ 94.40292, 25.84806 ], [ 94.40216, 25.84987 ], [ 94.39461, 25.85072 ], [ 94.39044, 25.85305 ], [ 94.38592, 25.85392 ], [ 94.38253, 25.85614 ], [ 94.38014, 25.85548 ], [ 94.37651, 25.85671 ], [ 94.37121, 25.85662 ], [ 94.36973, 25.8518 ], [ 94.37181, 25.85078 ], [ 94.37242, 25.84769 ], [ 94.37395, 25.84737 ], [ 94.37469, 25.84342 ], [ 94.37426, 25.83867 ], [ 94.37619, 25.83575 ], [ 94.3805, 25.83186 ], [ 94.37826, 25.82664 ], [ 94.37566, 25.82507 ], [ 94.37232, 25.82471 ], [ 94.36822, 25.82667 ], [ 94.36524, 25.82672 ], [ 94.36133, 25.82125 ], [ 94.35393, 25.81875 ], [ 94.35335, 25.81907 ], [ 94.35398, 25.82075 ], [ 94.34947, 25.81943 ], [ 94.34787, 25.82068 ], [ 94.34364, 25.81907 ], [ 94.34189, 25.82248 ], [ 94.33956, 25.82495 ], [ 94.33666, 25.82633 ], [ 94.33602, 25.8256 ], [ 94.3366, 25.82327 ], [ 94.33541, 25.8204 ], [ 94.33114, 25.82262 ], [ 94.32275, 25.81542 ], [ 94.32074, 25.81465 ], [ 94.32127, 25.81238 ], [ 94.3202, 25.8113 ], [ 94.32245, 25.80821 ], [ 94.3225, 25.80671 ], [ 94.32389, 25.80469 ], [ 94.32638, 25.80511 ], [ 94.32649, 25.80379 ], [ 94.32475, 25.79976 ], [ 94.3245, 25.79368 ], [ 94.32282, 25.78854 ], [ 94.31806, 25.78452 ], [ 94.31573, 25.77939 ], [ 94.31733, 25.77694 ], [ 94.31711, 25.77276 ], [ 94.31947, 25.77149 ], [ 94.32022, 25.77049 ], [ 94.31987, 25.76901 ], [ 94.32423, 25.76431 ], [ 94.32205, 25.7593 ], [ 94.31847, 25.75849 ], [ 94.31259, 25.75851 ], [ 94.31207, 25.75625 ], [ 94.31268, 25.75459 ], [ 94.3119, 25.75334 ], [ 94.3066, 25.74922 ], [ 94.29972, 25.74924 ], [ 94.29348, 25.75168 ], [ 94.29143, 25.75108 ], [ 94.28839, 25.75206 ], [ 94.28785, 25.75746 ], [ 94.28164, 25.7541 ], [ 94.27569, 25.75211 ], [ 94.26793, 25.75307 ], [ 94.26376, 25.75559 ], [ 94.26989, 25.76098 ], [ 94.26754, 25.76248 ], [ 94.26841, 25.76329 ], [ 94.2679, 25.76662 ], [ 94.26861, 25.76785 ], [ 94.26755, 25.772 ], [ 94.2652, 25.77393 ], [ 94.26627, 25.77515 ], [ 94.26484, 25.77728 ], [ 94.26715, 25.77807 ], [ 94.26716, 25.78103 ], [ 94.26987, 25.78386 ], [ 94.26972, 25.78495 ], [ 94.27108, 25.7872 ], [ 94.2738, 25.78979 ], [ 94.27553, 25.78989 ], [ 94.27519, 25.7921 ], [ 94.2762, 25.79322 ], [ 94.27342, 25.79367 ], [ 94.27288, 25.79478 ], [ 94.2753, 25.7949 ], [ 94.27716, 25.79662 ], [ 94.27734, 25.79806 ], [ 94.27633, 25.80007 ], [ 94.28061, 25.80363 ], [ 94.28496, 25.80314 ], [ 94.28918, 25.80407 ], [ 94.29328, 25.80863 ], [ 94.29555, 25.80857 ], [ 94.29642, 25.80927 ], [ 94.29541, 25.81108 ], [ 94.29687, 25.81294 ], [ 94.29582, 25.81494 ], [ 94.29257, 25.81507 ], [ 94.29502, 25.81669 ], [ 94.29523, 25.81767 ], [ 94.29691, 25.81827 ], [ 94.29531, 25.82038 ], [ 94.29909, 25.81997 ], [ 94.29999, 25.8206 ], [ 94.29739, 25.82537 ], [ 94.30021, 25.826 ], [ 94.30058, 25.8275 ], [ 94.29767, 25.82958 ], [ 94.30228, 25.8321 ], [ 94.30341, 25.83421 ], [ 94.30446, 25.83365 ], [ 94.30503, 25.83482 ], [ 94.30741, 25.8359 ], [ 94.30734, 25.83651 ], [ 94.30547, 25.8369 ], [ 94.30536, 25.83971 ], [ 94.30596, 25.84101 ], [ 94.30904, 25.84206 ], [ 94.3067, 25.84459 ], [ 94.31067, 25.84933 ], [ 94.30967, 25.85333 ], [ 94.3127, 25.85466 ], [ 94.31357, 25.8579 ], [ 94.31627, 25.85998 ], [ 94.31605, 25.86186 ], [ 94.31759, 25.86359 ], [ 94.31766, 25.86652 ], [ 94.32115, 25.86762 ], [ 94.32215, 25.86879 ], [ 94.32067, 25.8732 ], [ 94.31884, 25.87498 ], [ 94.32123, 25.87733 ], [ 94.31977, 25.88117 ], [ 94.32031, 25.8819 ], [ 94.32191, 25.88164 ], [ 94.32158, 25.88422 ], [ 94.32267, 25.8854 ], [ 94.32166, 25.88695 ], [ 94.32202, 25.88894 ], [ 94.32125, 25.89197 ], [ 94.3226, 25.898 ], [ 94.3246, 25.90161 ], [ 94.32345, 25.9028 ], [ 94.32645, 25.9052 ], [ 94.32221, 25.91018 ], [ 94.32266, 25.91109 ], [ 94.32507, 25.91115 ], [ 94.32595, 25.91205 ], [ 94.3241, 25.91869 ], [ 94.32572, 25.92205 ], [ 94.3249, 25.9245 ], [ 94.31883, 25.92965 ], [ 94.31815, 25.9324 ], [ 94.32091, 25.93262 ], [ 94.32217, 25.93473 ], [ 94.32404, 25.93448 ], [ 94.32655, 25.93601 ], [ 94.32745, 25.93917 ], [ 94.33111, 25.94426 ], [ 94.33603, 25.94393 ], [ 94.33648, 25.94645 ], [ 94.33261, 25.95062 ], [ 94.33495, 25.952 ], [ 94.33603, 25.95428 ], [ 94.33938, 25.95405 ], [ 94.33838, 25.95683 ], [ 94.33889, 25.95938 ], [ 94.34265, 25.96462 ], [ 94.34315, 25.9672 ], [ 94.34812, 25.96314 ] ] ] } },
{ "type": "Feature", "properties": { "OBJECTID": 6075, "state_lgd": "13", "state_name": "NAGALAND", "district_lgd": "263", "district_name": "ZUNHEBOTO", "district_name_source": "district_table", "subdistrict_lgd": "05968", "subdistrict_name": "HOSHEPU", "subdistrict_type": "", "name_corrupted": false, "remarks": "", "label_lon": 94.548836558995902, "label_lat": 25.921115452138611 }, "geometry": { "type": "Polygon", "coordinates": [ [ [ 94.54058, 25.98322 ], [ 94.54371, 25.98275 ], [ 94.54624, 25.98131 ], [ 94.54852, 25.97718 ], [ 94.55198, 25.97482 ], [ 94.55606, 25.97504 ], [ 94.56045, 25.97722 ], [ 94.56521, 25.97734 ], [ 94.5657, 25.97591 ], [ 94.5685, 25.97513 ], [ 94.56904, 25.97401 ], [ 94.57145, 25.97378 ], [ 94.57062, 25.97041 ], [ 94.56829, 25.96865 ], [ 94.56977, 25.96665 ], [ 94.57366, 25.96627 ], [ 94.57704, 25.96325 ], [ 94.58431, 25.96309 ], [ 94.58357, 25.96148 ], [ 94.58442, 25.95738 ], [ 94.57802, 25.95722 ], [ 94.57687, 25.95006 ], [ 94.57616, 25.94845 ], [ 94.57445, 25.94722 ], [ 94.57274, 25.94683 ], [ 94.56882, 25.95275 ], [ 94.56385, 25.95547 ], [ 94.56332, 25.94251 ], [ 94.55684, 25.93753 ], [ 94.55595, 25.92956 ], [ 94.55653, 25.92848 ], [ 94.56294, 25.92723 ], [ 94.57114, 25.92392 ], [ 94.57259, 25.92264 ], [ 94.57295, 25.919 ], [ 94.57696, 25.91713 ], [ 94.58689, 25.9093 ], [ 94.5868, 25.90692 ], [ 94.5857, 25.90542 ], [ 94.58321, 25.90442 ], [ 94.57911, 25.89863 ], [ 94.57431, 25.89441 ], [ 94.57276, 25.8947 ], [ 94.57152, 25.89398 ], [ 94.56846, 25.88533 ], [ 94.56685, 25.88303 ], [ 94.56268, 25.88193 ], [ 94.56039, 25.87979 ], [ 94.55657, 25.87924 ], [ 94.55324, 25.88044 ], [ 94.55242, 25.87971 ], [ 94.55264, 25.87787 ], [ 94.55006, 25.87794 ], [ 94.54355, 25.87279 ], [ 94.54156, 25.86766 ], [ 94.53889, 25.86672 ], [ 94.53861, 25.86339 ], [ 94.52897, 25.85995 ], [ 94.52816, 25.85723 ], [ 94.52857, 25.85495 ], [ 94.52468, 25.85391 ], [ 94.52429, 25.85817 ], [ 94.52674, 25.86057 ], [ 94.52724, 25.86243 ], [ 94.52486, 25.86526 ], [ 94.52493, 25.86877 ], [ 94.52363, 25.87132 ], [ 94.52451, 25.87651 ], [ 94.52309, 25.87773 ], [ 94.52187, 25.88143 ], [ 94.52333, 25.8836 ], [ 94.52041, 25.88486 ], [ 94.52317, 25.88963 ], [ 94.52106, 25.89131 ], [ 94.52199, 25.89439 ], [ 94.51975, 25.89682 ], [ 94.52323, 25.9022 ], [ 94.5229, 25.90787 ], [ 94.52506, 25.91011 ], [ 94.52506, 25.91677 ], [ 94.52757, 25.91907 ], [ 94.52325, 25.92279 ], [ 94.52573, 25.92418 ], [ 94.52685, 25.92871 ], [ 94.52916, 25.9291 ], [ 94.52999, 25.93059 ], [ 94.5283, 25.93359 ], [ 94.52882, 25.93559 ], [ 94.52797, 25.93918 ], [ 94.52918, 25.94084 ], [ 94.52987, 25.93888 ], [ 94.53099, 25.93885 ], [ 94.53072, 25.94156 ], [ 94.52957, 25.94372 ], [ 94.53072, 25.94482 ], [ 94.53036, 25.94817 ], [ 94.53249, 25.95073 ], [ 94.53198, 25.95327 ], [ 94.53263, 25.9559 ], [ 94.53055, 25.96024 ], [ 94.5305, 25.96197 ], [ 94.53414, 25.96525 ], [ 94.53172, 25.9659 ], [ 94.5351, 25.96919 ], [ 94.53316, 25.97081 ], [ 94.53344, 25.97211 ], [ 94.53601, 25.97499 ], [ 94.53896, 25.97603 ], [ 94.53715, 25.97956 ], [ 94.54012, 25.98151 ], [ 94.54058, 25.98322 ] ] ] } },
{ "type": "Feature", "properties": { "OBJECTID": 6076, "state_lgd": "13", "state_name": "NAGALAND", "district_lgd": "263", "district_name": "ZUNHEBOTO", "district_name_source": "district_table", "subdistrict_lgd": "01771", "subdistrict_name": "AGHUNATO", "subdistrict_type": "", "name_corrupted": false, "remarks": "", "label_lon": 94.606702798848303, "label_lat": 25.992117364676719 }, "geometry": { "type": "Polygon", "coordinates": [ [ [ 94.59772, 26.0845 ], [ 94.60077, 26.08409 ], [ 94.60613, 26.07465 ], [ 94.60974, 26.07427 ], [ 94.61051, 26.07668 ], [ 94.61359, 26.07515 ], [ 94.61365, 26.07 ], [ 94.61465, 26.06768 ], [ 94.62479, 26.06871 ], [ 94.62489, 26.068 ], [ 94.62321, 26.06724 ], [ 94.62384, 26.06553 ], [ 94.62333, 26.06513 ], [ 94.61668, 26.06607 ], [ 94.61515, 26.06508 ], [ 94.62006, 26.06325 ], [ 94.6198, 26.06112 ], [ 94.62228, 26.05786 ], [ 94.62481, 26.05615 ], [ 94.62512, 26.05382 ], [ 94.62664, 26.05381 ], [ 94.62963, 26.05539 ], [ 94.63034, 26.04746 ], [ 94.63769, 26.04613 ], [ 94.63872, 26.04485 ], [ 94.64282, 26.04343 ], [ 94.64598, 26.04094 ], [ 94.64798, 26.04171 ], [ 94.64804, 26.04054 ], [ 94.64644, 26.03984 ], [ 94.64536, 26.03822 ], [ 94.6504, 26.03745 ], [ 94.6544, 26.03549 ], [ 94.65739, 26.03258 ], [ 94.6594, 26.02913 ], [ 94.66167, 26.02815 ], [ 94.66978, 26.02151 ], [ 94.66884, 26.01911 ], [ 94.67483, 26.01282 ], [ 94.67459, 26.01158 ], [ 94.66813, 26.00558 ], [ 94.66226, 26.00192 ], [ 94.65958, 26.00193 ], [ 94.65809, 26.00107 ], [ 94.66085, 25.99971 ], [ 94.66465, 25.99543 ], [ 94.66868, 25.99288 ], [ 94.66849, 25.98953 ], [ 94.66664, 25.9889 ], [ 94.66273, 25.99084 ], [ 94.66006, 25.98878 ], [ 94.6588, 25.98874 ], [ 94.65703, 25.98675 ], [ 94.65011, 25.98607 ], [ 94.64923, 25.9852 ], [ 94.64875, 25.98293 ], [ 94.64974, 25.97973 ], [ 94.64607, 25.97604 ], [ 94.64498, 25.9705 ], [ 94.64313, 25.96617 ], [ 94.64111, 25.96364 ], [ 94.64098, 25.9614 ], [ 94.63925, 25.95957 ], [ 94.6399, 25.95763 ], [ 94.6347, 25.95557 ], [ 94.63289, 25.94979 ], [ 94.63367, 25.94741 ], [ 94.63557, 25.94549 ], [ 94.63488, 25.94305 ], [ 94.6366, 25.94296 ], [ 94.64364, 25.94573 ], [ 94.64542, 25.93923 ], [ 94.63982, 25.93463 ], [ 94.63779, 25.93126 ], [ 94.63276, 25.93197 ], [ 94.63277, 25.92866 ], [ 94.63027, 25.92617 ], [ 94.62853, 25.92626 ], [ 94.62759, 25.92754 ], [ 94.62619, 25.92501 ], [ 94.62281, 25.92305 ], [ 94.60576, 25.92735 ], [ 94.60353, 25.92981 ], [ 94.60238, 25.92895 ], [ 94.6021, 25.92737 ], [ 94.5994, 25.9259 ], [ 94.59895, 25.92288 ], [ 94.59591, 25.92112 ], [ 94.59376, 25.9141 ], [ 94.58768, 25.9109 ], [ 94.58689, 25.9093 ], [ 94.57696, 25.91713 ], [ 94.57295, 25.919 ], [ 94.57259, 25.92264 ], [ 94.57114, 25.92392 ], [ 94.56294, 25.92723 ], [ 94.55653, 25.92848 ], [ 94.55595, 25.92956 ], [ 94.55684, 25.93753 ], [ 94.56332, 25.94251 ], [ 94.56385, 25.95547 ], [ 94.56882, 25.95275 ], [ 94.57274, 25.94683 ], [ 94.57445, 25.94722 ], [ 94.57616, 25.94845 ], [ 94.57687, 25.95006 ], [ 94.57802, 25.95722 ], [ 94.58442, 25.95738 ], [ 94.58357, 25.96148 ], [ 94.58431, 25.96309 ], [ 94.57704, 25.96325 ], [ 94.57366, 25.96627 ], [ 94.56977, 25.96665 ], [ 94.56829, 25.96865 ], [ 94.57062, 25.97041 ], [ 94.57145, 25.97378 ], [ 94.56904, 25.97401 ], [ 94.5685, 25.97513 ], [ 94.5657, 25.97591 ], [ 94.56521, 25.97734 ], [ 94.56045, 25.97722 ], [ 94.55606, 25.97504 ], [ 94.55111, 25.97521 ], [ 94.54852, 25.97718 ], [ 94.54624, 25.98131 ], [ 94.54371, 25.98275 ], [ 94.54058, 25.98322 ], [ 94.54133, 25.98513 ], [ 94.53981, 25.98823 ], [ 94.5407, 25.98975 ], [ 94.545, 25.99148 ], [ 94.54644, 25.99493 ], [ 94.54955, 25.99538 ], [ 94.55101, 25.99754 ], [ 94.55062, 25.99919 ], [ 94.55285, 26.00074 ], [ 94.55334, 26.00255 ], [ 94.55532, 26.00375 ], [ 94.55507, 26.00662 ], [ 94.55877, 26.00868 ], [ 94.55735, 26.01022 ], [ 94.55705, 26.01419 ], [ 94.55997, 26.01462 ], [ 94.5626, 26.0169 ], [ 94.56154, 26.01934 ], [ 94.56473, 26.02335 ], [ 94.56402, 26.02401 ], [ 94.56247, 26.02281 ], [ 94.56254, 26.02383 ], [ 94.567, 26.02543 ], [ 94.56653, 26.0277 ], [ 94.56762, 26.02854 ], [ 94.56739, 26.02988 ], [ 94.56906, 26.03298 ], [ 94.57028, 26.03406 ], [ 94.57335, 26.03441 ], [ 94.57303, 26.03704 ], [ 94.57746, 26.03933 ], [ 94.57806, 26.04153 ], [ 94.58326, 26.04699 ], [ 94.58403, 26.04727 ], [ 94.58516, 26.04615 ], [ 94.58894, 26.05002 ], [ 94.59271, 26.05063 ], [ 94.59396, 26.05173 ], [ 94.59546, 26.05571 ], [ 94.59921, 26.05723 ], [ 94.60312, 26.06068 ], [ 94.60124, 26.06243 ], [ 94.60513, 26.06487 ], [ 94.60563, 26.06645 ], [ 94.60504, 26.0676 ], [ 94.59993, 26.06858 ], [ 94.59508, 26.07359 ], [ 94.59404, 26.0759 ], [ 94.59417, 26.08085 ], [ 94.59521, 26.0829 ], [ 94.59772, 26.0845 ] ] ] } },
{ "type": "Feature", "properties": { "OBJECTID": 6077, "state_lgd": "13", "state_name": "NAGALAND", "district_lgd": "263", "district_name": "ZUNHEBOTO", "district_name_source": "district_table", "subdistrict_lgd": "01770", "subdistrict_name": "ASUTO", "subdistrict_type": "", "name_corrupted": false, "remarks": "", "label_lon": 94.658840890284409, "label_lat": 26.115093234702979 }, "geometry": { "type": "Polygon", "coordinates": [ [ [ 94.68366, 26.1991 ], [ 94.68776, 26.19658 ], [ 94.6885, 26.19859 ], [ 94.68942, 26.19826 ], [ 94.68872, 26.19632 ], [ 94.6904, 26.19289 ], [ 94.68731, 26.19048 ], [ 94.68779, 26.1882 ], [ 94.68973, 26.18821 ], [ 94.69398, 26.18513 ], [ 94.69393, 26.18314 ], [ 94.69668, 26.17864 ], [ 94.69563, 26.17775 ], [ 94.69641, 26.17631 ], [ 94.6958, 26.17543 ], [ 94.69669, 26.17432 ], [ 94.69568, 26.17357 ], [ 94.69631, 26.1719 ], [ 94.69706, 26.17123 ], [ 94.69947, 26.17149 ], [ 94.70035, 26.17304 ], [ 94.7034, 26.17373 ], [ 94.70574, 26.17201 ], [ 94.70312, 26.16969 ], [ 94.70185, 26.16652 ], [ 94.70167, 26.16377 ], [ 94.70231, 26.16267 ], [ 94.69509, 26.15953 ], [ 94.68885, 26.14992 ], [ 94.68771, 26.1444 ], [ 94.68681, 26.14337 ], [ 94.68787, 26.14147 ], [ 94.69106, 26.13918 ], [ 94.68833, 26.13766 ], [ 94.68912, 26.13661 ], [ 94.68756, 26.12922 ], [ 94.68843, 26.12607 ], [ 94.68752, 26.11569 ], [ 94.6886, 26.11616 ], [ 94.69267, 26.11429 ], [ 94.6925, 26.10782 ], [ 94.69504, 26.10529 ], [ 94.69535, 26.10253 ], [ 94.6972, 26.10143 ], [ 94.70019, 26.10208 ], [ 94.70009, 26.10051 ], [ 94.69804, 26.09734 ], [ 94.70096, 26.09582 ], [ 94.69818, 26.09349 ], [ 94.69633, 26.08508 ], [ 94.69347, 26.08217 ], [ 94.69332, 26.0808 ], [ 94.69459, 26.07798 ], [ 94.69345, 26.07501 ], [ 94.69261, 26.0744 ], [ 94.69125, 26.07532 ], [ 94.69266, 26.07749 ], [ 94.69219, 26.07972 ], [ 94.69078, 26.07932 ], [ 94.68668, 26.07537 ], [ 94.68817, 26.07198 ], [ 94.68644, 26.06873 ], [ 94.68741, 26.06674 ], [ 94.68745, 26.06421 ], [ 94.68641, 26.05781 ], [ 94.6847, 26.05681 ], [ 94.68517, 26.06019 ], [ 94.68426, 26.06062 ], [ 94.68176, 26.05983 ], [ 94.68235, 26.06517 ], [ 94.68327, 26.06681 ], [ 94.68287, 26.06756 ], [ 94.67709, 26.06715 ], [ 94.67243, 26.06583 ], [ 94.67251, 26.06264 ], [ 94.67606, 26.06279 ], [ 94.67659, 26.06181 ], [ 94.67641, 26.06017 ], [ 94.67075, 26.06039 ], [ 94.67164, 26.05886 ], [ 94.67083, 26.057 ], [ 94.67182, 26.05691 ], [ 94.672, 26.05587 ], [ 94.67401, 26.05552 ], [ 94.6736, 26.05445 ], [ 94.6695, 26.05301 ], [ 94.66776, 26.0533 ], [ 94.66442, 26.0505 ], [ 94.66179, 26.04957 ], [ 94.65577, 26.0441 ], [ 94.65099, 26.04139 ], [ 94.64938, 26.04147 ], [ 94.64822, 26.04314 ], [ 94.64798, 26.04171 ], [ 94.64598, 26.04094 ], [ 94.64282, 26.04343 ], [ 94.63872, 26.04485 ], [ 94.63769, 26.04613 ], [ 94.63034, 26.04746 ], [ 94.62963, 26.05539 ], [ 94.62664, 26.05381 ], [ 94.62512, 26.05382 ], [ 94.62481, 26.05615 ], [ 94.62228, 26.05786 ], [ 94.6198, 26.06112 ], [ 94.62006, 26.06325 ], [ 94.61515, 26.06508 ], [ 94.61668, 26.06607 ], [ 94.62333, 26.06513 ], [ 94.62384, 26.06553 ], [ 94.62321, 26.06724 ], [ 94.62489, 26.068 ], [ 94.62479, 26.06871 ], [ 94.61465, 26.06768 ], [ 94.61365, 26.07 ], [ 94.61359, 26.07515 ], [ 94.61051, 26.07668 ], [ 94.60974, 26.07427 ], [ 94.60613, 26.07465 ], [ 94.60077, 26.08409 ], [ 94.59887, 26.08395 ], [ 94.59472, 26.0855 ], [ 94.59861, 26.08996 ], [ 94.60128, 26.09486 ], [ 94.60493, 26.09658 ], [ 94.60591, 26.09849 ], [ 94.60716, 26.0989 ], [ 94.61178, 26.09907 ], [ 94.61577, 26.09632 ], [ 94.61765, 26.09656 ], [ 94.61914, 26.09344 ], [ 94.62189, 26.09205 ], [ 94.62383, 26.09356 ], [ 94.62457, 26.09631 ], [ 94.62586, 26.09663 ], [ 94.62432, 26.09872 ], [ 94.6233, 26.1032 ], [ 94.62374, 26.10421 ], [ 94.62598, 26.10565 ], [ 94.62781, 26.10449 ], [ 94.63024, 26.10428 ], [ 94.63103, 26.10556 ], [ 94.63079, 26.10668 ], [ 94.62889, 26.10659 ], [ 94.62981, 26.11061 ], [ 94.62695, 26.11289 ], [ 94.62681, 26.11382 ], [ 94.62931, 26.11476 ], [ 94.62995, 26.11217 ], [ 94.63192, 26.11222 ], [ 94.63127, 26.11372 ], [ 94.63352, 26.11453 ], [ 94.63567, 26.11799 ], [ 94.63587, 26.11964 ], [ 94.63734, 26.12112 ], [ 94.6352, 26.12319 ], [ 94.63536, 26.1258 ], [ 94.63741, 26.12617 ], [ 94.63705, 26.1291 ], [ 94.63963, 26.13092 ], [ 94.63683, 26.13362 ], [ 94.64036, 26.1361 ], [ 94.63778, 26.13862 ], [ 94.63861, 26.13974 ], [ 94.63766, 26.14329 ], [ 94.63846, 26.1439 ], [ 94.63833, 26.14584 ], [ 94.64048, 26.1464 ], [ 94.63863, 26.14909 ], [ 94.64098, 26.15044 ], [ 94.63843, 26.15123 ], [ 94.63608, 26.15513 ], [ 94.63842, 26.15564 ], [ 94.63993, 26.15923 ], [ 94.64147, 26.15835 ], [ 94.64256, 26.15865 ], [ 94.64409, 26.16449 ], [ 94.64764, 26.16542 ], [ 94.64727, 26.16624 ], [ 94.64478, 26.16665 ], [ 94.64477, 26.1704 ], [ 94.64678, 26.17066 ], [ 94.64778, 26.17182 ], [ 94.64472, 26.17533 ], [ 94.64731, 26.1747 ], [ 94.64838, 26.1771 ], [ 94.64664, 26.17806 ], [ 94.64808, 26.17918 ], [ 94.6473, 26.18149 ], [ 94.64998, 26.18318 ], [ 94.65036, 26.18526 ], [ 94.65255, 26.18571 ], [ 94.65042, 26.18685 ], [ 94.65157, 26.18759 ], [ 94.65041, 26.18886 ], [ 94.65205, 26.18946 ], [ 94.6506, 26.19188 ], [ 94.65185, 26.19238 ], [ 94.65189, 26.19439 ], [ 94.65436, 26.19714 ], [ 94.65438, 26.19839 ], [ 94.65654, 26.19828 ], [ 94.66212, 26.19204 ], [ 94.66514, 26.19079 ], [ 94.66779, 26.19357 ], [ 94.67394, 26.19415 ], [ 94.67682, 26.19633 ], [ 94.68005, 26.19638 ], [ 94.68366, 26.1991 ] ] ] } },
{ "type": "Feature", "properties": { "OBJECTID": 6078, "state_lgd": "13", "state_name": "NAGALAND", "district_lgd": "263", "district_name": "ZUNHEBOTO", "district_name_source": "district_table", "subdistrict_lgd": "01769", "subdistrict_name": "SURUHOTO", "subdistrict_type": "", "name_corrupted": false, "remarks": "", "label_lon": 94.590989982241041, "label_lat": 26.149879290521696 }, "geometry": { "type": "Polygon", "coordinates": [ [ [ 94.64574, 26.20339 ], [ 94.64545, 26.19746 ], [ 94.65183, 26.19419 ], [ 94.65185, 26.19238 ], [ 94.6506, 26.19188 ], [ 94.65203, 26.18918 ], [ 94.65041, 26.18886 ], [ 94.65157, 26.18759 ], [ 94.6504, 26.18698 ], [ 94.65255, 26.18571 ], [ 94.65036, 26.18526 ], [ 94.64998, 26.18318 ], [ 94.6473, 26.18149 ], [ 94.64808, 26.17918 ], [ 94.64664, 26.17806 ], [ 94.64838, 26.1771 ], [ 94.64731, 26.1747 ], [ 94.64472, 26.17533 ], [ 94.64778, 26.17182 ], [ 94.64678, 26.17066 ], [ 94.64477, 26.1704 ], [ 94.64478, 26.16665 ], [ 94.64727, 26.16624 ], [ 94.64764, 26.16542 ], [ 94.64409, 26.16449 ], [ 94.64256, 26.15865 ], [ 94.64147, 26.15835 ], [ 94.63993, 26.15923 ], [ 94.63842, 26.15564 ], [ 94.63608, 26.15513 ], [ 94.63843, 26.15123 ], [ 94.64098, 26.15044 ], [ 94.63863, 26.14909 ], [ 94.64048, 26.1464 ], [ 94.63833, 26.14584 ], [ 94.63846, 26.1439 ], [ 94.63766, 26.14329 ], [ 94.63861, 26.13974 ], [ 94.63778, 26.13862 ], [ 94.64036, 26.1361 ], [ 94.63683, 26.13362 ], [ 94.63963, 26.13092 ], [ 94.63705, 26.1291 ], [ 94.63741, 26.12617 ], [ 94.63536, 26.1258 ], [ 94.6352, 26.12319 ], [ 94.63693, 26.12213 ], [ 94.63732, 26.12089 ], [ 94.63587, 26.11964 ], [ 94.63567, 26.11799 ], [ 94.63352, 26.11453 ], [ 94.63127, 26.11372 ], [ 94.63192, 26.11222 ], [ 94.62995, 26.11217 ], [ 94.62931, 26.11476 ], [ 94.62681, 26.11382 ], [ 94.62695, 26.11289 ], [ 94.62981, 26.11061 ], [ 94.62889, 26.10659 ], [ 94.63053, 26.10676 ], [ 94.63111, 26.10597 ], [ 94.63024, 26.10428 ], [ 94.62781, 26.10449 ], [ 94.62598, 26.10565 ], [ 94.62374, 26.10421 ], [ 94.6233, 26.1032 ], [ 94.62432, 26.09872 ], [ 94.62586, 26.09663 ], [ 94.62457, 26.09631 ], [ 94.62355, 26.09319 ], [ 94.62189, 26.09205 ], [ 94.61977, 26.09305 ], [ 94.61765, 26.09656 ], [ 94.61577, 26.09632 ], [ 94.61261, 26.09886 ], [ 94.60591, 26.09849 ], [ 94.60526, 26.09681 ], [ 94.60128, 26.09486 ], [ 94.59861, 26.08996 ], [ 94.59515, 26.08621 ], [ 94.59472, 26.0855 ], [ 94.59772, 26.0845 ], [ 94.59521, 26.0829 ], [ 94.59417, 26.08085 ], [ 94.59066, 26.08247 ], [ 94.58979, 26.0843 ], [ 94.58883, 26.08464 ], [ 94.57911, 26.08668 ], [ 94.57575, 26.08541 ], [ 94.57448, 26.08918 ], [ 94.57355, 26.0891 ], [ 94.57272, 26.08678 ], [ 94.56724, 26.08824 ], [ 94.56715, 26.08981 ], [ 94.56652, 26.09004 ], [ 94.55924, 26.08831 ], [ 94.55267, 26.08926 ], [ 94.54901, 26.08672 ], [ 94.54469, 26.09144 ], [ 94.54662, 26.10237 ], [ 94.54551, 26.10438 ], [ 94.54532, 26.10713 ], [ 94.54201, 26.11032 ], [ 94.54277, 26.11436 ], [ 94.54048, 26.11731 ], [ 94.54222, 26.11881 ], [ 94.54197, 26.11978 ], [ 94.54362, 26.12277 ], [ 94.54333, 26.12554 ], [ 94.54406, 26.12784 ], [ 94.53958, 26.13395 ], [ 94.54135, 26.1353 ], [ 94.54107, 26.13806 ], [ 94.53917, 26.13895 ], [ 94.53999, 26.14104 ], [ 94.53915, 26.14201 ], [ 94.53979, 26.14644 ], [ 94.541, 26.14925 ], [ 94.53787, 26.15287 ], [ 94.53808, 26.15716 ], [ 94.53583, 26.15862 ], [ 94.53671, 26.16162 ], [ 94.53601, 26.16336 ], [ 94.53325, 26.163 ], [ 94.53201, 26.16384 ], [ 94.53124, 26.1649 ], [ 94.53146, 26.16695 ], [ 94.5296, 26.16875 ], [ 94.52836, 26.17251 ], [ 94.52188, 26.17531 ], [ 94.52066, 26.17882 ], [ 94.52305, 26.18079 ], [ 94.5316, 26.18239 ], [ 94.53437, 26.18439 ], [ 94.54099, 26.18493 ], [ 94.54531, 26.18653 ], [ 94.5512, 26.18699 ], [ 94.56614, 26.18546 ], [ 94.56985, 26.18832 ], [ 94.56955, 26.19399 ], [ 94.57512, 26.19785 ], [ 94.57841, 26.20117 ], [ 94.58091, 26.20464 ], [ 94.58376, 26.20678 ], [ 94.58743, 26.21237 ], [ 94.58924, 26.21075 ], [ 94.59968, 26.21564 ], [ 94.60227, 26.21533 ], [ 94.60539, 26.21169 ], [ 94.6067, 26.20652 ], [ 94.60904, 26.20471 ], [ 94.61011, 26.20228 ], [ 94.61406, 26.20078 ], [ 94.61743, 26.19835 ], [ 94.61918, 26.19907 ], [ 94.62158, 26.19868 ], [ 94.62377, 26.19994 ], [ 94.6254, 26.20483 ], [ 94.63155, 26.20789 ], [ 94.6357, 26.21538 ], [ 94.63824, 26.21736 ], [ 94.64319, 26.21384 ], [ 94.64574, 26.20339 ] ] ] } },
{ "type": "Feature", "properties": { "OBJECTID": 6079, "state_lgd": "13", "state_name": "NAGALAND", "district_lgd": "263", "district_name": "ZUNHEBOTO", "district_name_source": "district_table", "subdistrict_lgd": "01772", "subdistrict_name": "ZUNHEBOTO SADAR", "subdistrict_type": "", "name_corrupted": false, "remarks": "", "label_lon": 94.516633498773089, "label_lat": 26.025037532316059 }, "geometry": { "type": "Polygon", "coordinates": [ [ [ 94.54817, 26.08744 ], [ 94.54987, 26.08688 ], [ 94.55135, 26.08881 ], [ 94.55267, 26.08926 ], [ 94.55924, 26.08831 ], [ 94.56652, 26.09004 ], [ 94.56715, 26.08981 ], [ 94.56724, 26.08824 ], [ 94.57062, 26.08765 ], [ 94.57122, 26.08692 ], [ 94.57272, 26.08678 ], [ 94.57355, 26.0891 ], [ 94.57448, 26.08918 ], [ 94.57575, 26.08541 ], [ 94.57911, 26.08668 ], [ 94.58979, 26.0843 ], [ 94.59066, 26.08247 ], [ 94.59417, 26.08085 ], [ 94.59404, 26.0759 ], [ 94.59508, 26.07359 ], [ 94.59993, 26.06858 ], [ 94.60504, 26.0676 ], [ 94.60562, 26.06591 ], [ 94.60452, 26.06435 ], [ 94.60124, 26.06243 ], [ 94.60307, 26.06091 ], [ 94.60286, 26.06033 ], [ 94.59921, 26.05723 ], [ 94.59546, 26.05571 ], [ 94.59339, 26.05111 ], [ 94.58894, 26.05002 ], [ 94.58516, 26.04615 ], [ 94.58403, 26.04727 ], [ 94.58326, 26.04699 ], [ 94.57806, 26.04153 ], [ 94.57746, 26.03933 ], [ 94.57303, 26.03704 ], [ 94.57335, 26.03441 ], [ 94.57028, 26.03406 ], [ 94.56906, 26.03298 ], [ 94.56739, 26.02988 ], [ 94.56762, 26.02854 ], [ 94.56653, 26.0277 ], [ 94.567, 26.02543 ], [ 94.56254, 26.02383 ], [ 94.56247, 26.02281 ], [ 94.56402, 26.02401 ], [ 94.56473, 26.02335 ], [ 94.56154, 26.01934 ], [ 94.5626, 26.0169 ], [ 94.55997, 26.01462 ], [ 94.55705, 26.01419 ], [ 94.55735, 26.01022 ], [ 94.55877, 26.00868 ], [ 94.55507, 26.00662 ], [ 94.55532, 26.00375 ], [ 94.55334, 26.00255 ], [ 94.55285, 26.00074 ], [ 94.55062, 25.99919 ], [ 94.55101, 25.99754 ], [ 94.54955, 25.99538 ], [ 94.54644, 25.99493 ], [ 94.545, 25.99148 ], [ 94.54138, 25.99017 ], [ 94.53993, 25.98883 ], [ 94.54127, 25.98452 ], [ 94.54012, 25.98151 ], [ 94.53707, 25.97936 ], [ 94.53848, 25.97798 ], [ 94.53896, 25.97603 ], [ 94.53601, 25.97499 ], [ 94.53344, 25.97211 ], [ 94.53316, 25.97081 ], [ 94.5351, 25.96919 ], [ 94.53172, 25.9659 ], [ 94.53414, 25.96525 ], [ 94.5305, 25.96197 ], [ 94.53055, 25.96024 ], [ 94.53263, 25.9559 ], [ 94.53198, 25.95327 ], [ 94.53249, 25.95073 ], [ 94.53003, 25.94712 ], [ 94.53069, 25.94519 ], [ 94.52102, 25.94939 ], [ 94.51646, 25.94876 ], [ 94.51075, 25.9458 ], [ 94.50359, 25.94811 ], [ 94.5011, 25.94761 ], [ 94.49789, 25.94572 ], [ 94.48794, 25.94839 ], [ 94.49003, 25.94991 ], [ 94.49015, 25.95337 ], [ 94.4917, 25.95556 ], [ 94.49293, 25.96024 ], [ 94.49617, 25.96497 ], [ 94.49862, 25.96671 ], [ 94.5, 25.96666 ], [ 94.50249, 25.97276 ], [ 94.50156, 25.97513 ], [ 94.50181, 25.97904 ], [ 94.50092, 25.98212 ], [ 94.50394, 25.98509 ], [ 94.5008, 25.98674 ], [ 94.49845, 25.98689 ], [ 94.4977, 25.98841 ], [ 94.49539, 25.98883 ], [ 94.49173, 25.98617 ], [ 94.49058, 25.9841 ], [ 94.48578, 25.9813 ], [ 94.48297, 25.97655 ], [ 94.47895, 25.97359 ], [ 94.47418, 25.96639 ], [ 94.46944, 25.96373 ], [ 94.4668, 25.96334 ], [ 94.45814, 25.96973 ], [ 94.45763, 25.97226 ], [ 94.44748, 25.9743 ], [ 94.4477, 25.97574 ], [ 94.45005, 25.97807 ], [ 94.44831, 25.9806 ], [ 94.44686, 25.98037 ], [ 94.44254, 25.98379 ], [ 94.44097, 25.98344 ], [ 94.43986, 25.98434 ], [ 94.43787, 25.98445 ], [ 94.43427, 25.98658 ], [ 94.43513, 25.9897 ], [ 94.43362, 25.9909 ], [ 94.43353, 25.99399 ], [ 94.43115, 25.99677 ], [ 94.43225, 25.99701 ], [ 94.43186, 25.99889 ], [ 94.43396, 26.00296 ], [ 94.43266, 26.00456 ], [ 94.43212, 26.01053 ], [ 94.43129, 26.01156 ], [ 94.43267, 26.01669 ], [ 94.42574, 26.02495 ], [ 94.4326, 26.02303 ], [ 94.43611, 26.02299 ], [ 94.4368, 26.02431 ], [ 94.44069, 26.02464 ], [ 94.4442, 26.02732 ], [ 94.44752, 26.0249 ], [ 94.4516, 26.02421 ], [ 94.45552, 26.02472 ], [ 94.46004, 26.02201 ], [ 94.46331, 26.02182 ], [ 94.46464, 26.02431 ], [ 94.46693, 26.02599 ], [ 94.46426, 26.02968 ], [ 94.46707, 26.02987 ], [ 94.46699, 26.03114 ], [ 94.46518, 26.03221 ], [ 94.46513, 26.03336 ], [ 94.47254, 26.03387 ], [ 94.47355, 26.03482 ], [ 94.47441, 26.03854 ], [ 94.47665, 26.03881 ], [ 94.48036, 26.04112 ], [ 94.48584, 26.0489 ], [ 94.49709, 26.06127 ], [ 94.49828, 26.0647 ], [ 94.49971, 26.06464 ], [ 94.50152, 26.06585 ], [ 94.50474, 26.07061 ], [ 94.5101, 26.07492 ], [ 94.5108, 26.07703 ], [ 94.51666, 26.08293 ], [ 94.52741, 26.09765 ], [ 94.53371, 26.10203 ], [ 94.537, 26.1069 ], [ 94.54181, 26.11028 ], [ 94.54551, 26.10661 ], [ 94.54531, 26.10509 ], [ 94.54665, 26.10123 ], [ 94.54449, 26.09241 ], [ 94.54529, 26.09031 ], [ 94.54817, 26.08744 ] ] ] } },
{ "type": "Feature", "properties": { "OBJECTID": 6080, "state_lgd": "13", "state_name": "NAGALAND", "district_lgd": "263", "district_name": "ZUNHEBOTO", "district_name_source": "district_table", "subdistrict_lgd": "01778", "subdistrict_name": "SAPTIQA", "subdistrict_type": "", "name_corrupted": false, "remarks": "", "label_lon": 94.388663396471244, "label_lat": 26.005080617062909 }, "geometry": { "type": "Polygon", "coordinates": [ [ [ 94.39693, 26.05674 ], [ 94.40004, 26.05635 ], [ 94.40235, 26.05481 ], [ 94.40449, 26.0551 ], [ 94.40902, 26.0518 ], [ 94.41601, 26.04173 ], [ 94.42088, 26.03842 ], [ 94.4215, 26.03541 ], [ 94.4255, 26.03432 ], [ 94.42685, 26.03313 ], [ 94.42683, 26.02909 ], [ 94.4257, 26.02813 ], [ 94.42534, 26.02568 ], [ 94.43245, 26.0175 ], [ 94.43129, 26.01156 ], [ 94.43212, 26.01053 ], [ 94.43266, 26.00456 ], [ 94.43394, 26.00283 ], [ 94.43186, 25.99889 ], [ 94.4284, 25.99991 ], [ 94.42423, 25.99722 ], [ 94.42075, 25.99805 ], [ 94.4184, 25.99574 ], [ 94.41326, 25.99467 ], [ 94.40683, 25.99451 ], [ 94.40587, 25.9934 ], [ 94.40872, 25.99012 ], [ 94.41332, 25.98895 ], [ 94.41128, 25.98596 ], [ 94.41144, 25.98252 ], [ 94.41052, 25.98096 ], [ 94.40839, 25.98004 ], [ 94.40812, 25.97777 ], [ 94.40541, 25.97708 ], [ 94.40572, 25.97454 ], [ 94.40198, 25.97396 ], [ 94.40111, 25.97196 ], [ 94.39864, 25.97102 ], [ 94.39958, 25.96741 ], [ 94.39516, 25.96142 ], [ 94.39245, 25.95902 ], [ 94.38132, 25.95467 ], [ 94.37968, 25.95484 ], [ 94.37704, 25.95798 ], [ 94.37578, 25.95814 ], [ 94.37381, 25.95537 ], [ 94.37253, 25.94956 ], [ 94.36931, 25.94956 ], [ 94.36214, 25.95555 ], [ 94.36003, 25.95629 ], [ 94.35608, 25.96144 ], [ 94.35582, 25.96277 ], [ 94.3523, 25.96391 ], [ 94.34812, 25.96314 ], [ 94.34315, 25.9672 ], [ 94.34977, 25.97473 ], [ 94.34913, 25.97811 ], [ 94.35267, 25.9778 ], [ 94.35351, 25.98134 ], [ 94.35626, 25.98347 ], [ 94.35626, 25.98599 ], [ 94.36059, 25.98978 ], [ 94.35901, 25.99178 ], [ 94.35888, 25.99327 ], [ 94.36099, 25.99624 ], [ 94.36174, 26.00196 ], [ 94.35925, 26.00637 ], [ 94.36279, 26.00895 ], [ 94.3611, 26.01009 ], [ 94.35752, 26.00901 ], [ 94.35611, 26.00978 ], [ 94.35945, 26.01656 ], [ 94.35778, 26.02164 ], [ 94.35979, 26.02467 ], [ 94.36239, 26.02608 ], [ 94.36025, 26.02797 ], [ 94.3636, 26.03102 ], [ 94.36609, 26.03851 ], [ 94.3703, 26.04692 ], [ 94.37064, 26.04828 ], [ 94.36968, 26.05051 ], [ 94.37073, 26.05369 ], [ 94.37429, 26.05577 ], [ 94.37206, 26.04993 ], [ 94.37214, 26.0476 ], [ 94.37508, 26.04494 ], [ 94.37966, 26.04449 ], [ 94.38065, 26.0456 ], [ 94.38072, 26.04864 ], [ 94.38807, 26.05214 ], [ 94.39041, 26.05461 ], [ 94.3906, 26.05647 ], [ 94.39334, 26.05882 ], [ 94.39562, 26.05861 ], [ 94.39693, 26.05674 ] ] ] } },
{ "type": "Feature", "properties": { "OBJECTID": 6081, "state_lgd": "13", "state_name": "NAGALAND", "district_lgd": "263", "district_name": "ZUNHEBOTO", "district_name_source": "district_table", "subdistrict_lgd": "01767", "subdistrict_name": "V.K", "subdistrict_type": "", "name_corrupted": false, "remarks": "", "label_lon": 94.39787899704352, "label_lat": 26.166712564299456 }, "geometry": { "type": "Polygon", "coordinates": [ [ [ 94.44448, 26.21478 ], [ 94.44352, 26.21303 ], [ 94.44481, 26.21202 ], [ 94.44408, 26.20968 ], [ 94.44587, 26.20981 ], [ 94.44571, 26.20623 ], [ 94.44377, 26.20699 ], [ 94.4427, 26.20558 ], [ 94.44077, 26.20505 ], [ 94.44076, 26.20299 ], [ 94.43933, 26.20289 ], [ 94.44072, 26.20179 ], [ 94.44011, 26.20001 ], [ 94.44235, 26.20136 ], [ 94.44281, 26.20075 ], [ 94.4418, 26.19903 ], [ 94.44314, 26.19812 ], [ 94.4416, 26.19648 ], [ 94.44224, 26.1936 ], [ 94.44069, 26.19174 ], [ 94.4419, 26.19087 ], [ 94.44208, 26.18906 ], [ 94.4375, 26.18424 ], [ 94.43931, 26.18189 ], [ 94.43944, 26.1795 ], [ 94.44162, 26.1782 ], [ 94.44134, 26.17567 ], [ 94.43913, 26.17075 ], [ 94.43716, 26.16923 ], [ 94.43739, 26.16654 ], [ 94.43556, 26.16658 ], [ 94.43448, 26.16557 ], [ 94.43223, 26.16575 ], [ 94.43282, 26.16454 ], [ 94.4343, 26.16439 ], [ 94.43431, 26.16167 ], [ 94.43022, 26.16269 ], [ 94.43011, 26.16185 ], [ 94.43157, 26.16047 ], [ 94.4298, 26.15943 ], [ 94.42976, 26.15686 ], [ 94.42638, 26.157 ], [ 94.4274, 26.15564 ], [ 94.42635, 26.15382 ], [ 94.42812, 26.15359 ], [ 94.42929, 26.1516 ], [ 94.43292, 26.15074 ], [ 94.43573, 26.14807 ], [ 94.43313, 26.14713 ], [ 94.4326, 26.14447 ], [ 94.43042, 26.14445 ], [ 94.42728, 26.14246 ], [ 94.4243, 26.13965 ], [ 94.42425, 26.13873 ], [ 94.42167, 26.13824 ], [ 94.42169, 26.13717 ], [ 94.42424, 26.13695 ], [ 94.42293, 26.13393 ], [ 94.42199, 26.13371 ], [ 94.41967, 26.13577 ], [ 94.4181, 26.1348 ], [ 94.41728, 26.13257 ], [ 94.41984, 26.13219 ], [ 94.42003, 26.13158 ], [ 94.4181, 26.13036 ], [ 94.41967, 26.12978 ], [ 94.41675, 26.12769 ], [ 94.41631, 26.12644 ], [ 94.42064, 26.12181 ], [ 94.42053, 26.11818 ], [ 94.41782, 26.11779 ], [ 94.41737, 26.11544 ], [ 94.41495, 26.11419 ], [ 94.4143, 26.1122 ], [ 94.41284, 26.11137 ], [ 94.41207, 26.10979 ], [ 94.40828, 26.11021 ], [ 94.40595, 26.10951 ], [ 94.40223, 26.11049 ], [ 94.39977, 26.11251 ], [ 94.39857, 26.11049 ], [ 94.39548, 26.11073 ], [ 94.39223, 26.11304 ], [ 94.39158, 26.11289 ], [ 94.39156, 26.11152 ], [ 94.39007, 26.11077 ], [ 94.38994, 26.10843 ], [ 94.38899, 26.10831 ], [ 94.3867, 26.11003 ], [ 94.38695, 26.11587 ], [ 94.38492, 26.12558 ], [ 94.38304, 26.12652 ], [ 94.37896, 26.12655 ], [ 94.37733, 26.12991 ], [ 94.36932, 26.13079 ], [ 94.36793, 26.13156 ], [ 94.36594, 26.13531 ], [ 94.36341, 26.13497 ], [ 94.36269, 26.14039 ], [ 94.36009, 26.14292 ], [ 94.36112, 26.14581 ], [ 94.3607, 26.14724 ], [ 94.35676, 26.15076 ], [ 94.35272, 26.15248 ], [ 94.35069, 26.15559 ], [ 94.34752, 26.15549 ], [ 94.34685, 26.16317 ], [ 94.34772, 26.16977 ], [ 94.34727, 26.17111 ], [ 94.34571, 26.1728 ], [ 94.34294, 26.17187 ], [ 94.33877, 26.17309 ], [ 94.33515, 26.17216 ], [ 94.33481, 26.17276 ], [ 94.33619, 26.17503 ], [ 94.33523, 26.17843 ], [ 94.33728, 26.17912 ], [ 94.33795, 26.17681 ], [ 94.34095, 26.17739 ], [ 94.34418, 26.18009 ], [ 94.34701, 26.18112 ], [ 94.34932, 26.18337 ], [ 94.34769, 26.18445 ], [ 94.35136, 26.18718 ], [ 94.35537, 26.18707 ], [ 94.35711, 26.19025 ], [ 94.35991, 26.18814 ], [ 94.36275, 26.19133 ], [ 94.36539, 26.19285 ], [ 94.36811, 26.19239 ], [ 94.37473, 26.19396 ], [ 94.37726, 26.1964 ], [ 94.38425, 26.19663 ], [ 94.38568, 26.19739 ], [ 94.38736, 26.20023 ], [ 94.39137, 26.20243 ], [ 94.39447, 26.20256 ], [ 94.39548, 26.20188 ], [ 94.39779, 26.20399 ], [ 94.39902, 26.20673 ], [ 94.40545, 26.21171 ], [ 94.40935, 26.21029 ], [ 94.41701, 26.21266 ], [ 94.41972, 26.21907 ], [ 94.42292, 26.21897 ], [ 94.42932, 26.22125 ], [ 94.43423, 26.2215 ], [ 94.43929, 26.21559 ], [ 94.44448, 26.21478 ] ] ] } },
{ "type": "Feature", "properties": { "OBJECTID": 6082, "state_lgd": "13", "state_name": "NAGALAND", "district_lgd": "263", "district_name": "ZUNHEBOTO", "district_name_source": "district_table", "subdistrict_lgd": "01774", "subdistrict_name": "AKUHAITO", "subdistrict_type": "", "name_corrupted": false, "remarks": "", "label_lon": 94.422945329889657, "label_lat": 26.081480949344051 }, "geometry": { "type": "Polygon", "coordinates": [ [ [ 94.42716, 26.03247 ], [ 94.4255, 26.03432 ], [ 94.4215, 26.03541 ], [ 94.42088, 26.03842 ], [ 94.41601, 26.04173 ], [ 94.40902, 26.0518 ], [ 94.40449, 26.0551 ], [ 94.40235, 26.05481 ], [ 94.40004, 26.05635 ], [ 94.39693, 26.05674 ], [ 94.39481, 26.05891 ], [ 94.39334, 26.05882 ], [ 94.3906, 26.05647 ], [ 94.39041, 26.05461 ], [ 94.38807, 26.05214 ], [ 94.38072, 26.04864 ], [ 94.38, 26.04456 ], [ 94.37557, 26.04474 ], [ 94.37214, 26.0476 ], [ 94.37287, 26.05294 ], [ 94.37505, 26.05669 ], [ 94.3784, 26.06726 ], [ 94.38075, 26.06792 ], [ 94.3822, 26.07273 ], [ 94.38514, 26.07316 ], [ 94.38749, 26.07498 ], [ 94.38685, 26.07856 ], [ 94.39057, 26.08405 ], [ 94.39, 26.08553 ], [ 94.38537, 26.08589 ], [ 94.38332, 26.08708 ], [ 94.38533, 26.0897 ], [ 94.3835, 26.09245 ], [ 94.38443, 26.09553 ], [ 94.38347, 26.09577 ], [ 94.38094, 26.09417 ], [ 94.3813, 26.09648 ], [ 94.37995, 26.10108 ], [ 94.38287, 26.10337 ], [ 94.38255, 26.10824 ], [ 94.38585, 26.10912 ], [ 94.3867, 26.11003 ], [ 94.38978, 26.10821 ], [ 94.39007, 26.11077 ], [ 94.39156, 26.11152 ], [ 94.39158, 26.11289 ], [ 94.39259, 26.11301 ], [ 94.39548, 26.11073 ], [ 94.39857, 26.11049 ], [ 94.39977, 26.11251 ], [ 94.40223, 26.11049 ], [ 94.40595, 26.10951 ], [ 94.40828, 26.11021 ], [ 94.41169, 26.10969 ], [ 94.4143, 26.1122 ], [ 94.41495, 26.11419 ], [ 94.41737, 26.11544 ], [ 94.41807, 26.11802 ], [ 94.42207, 26.11911 ], [ 94.42807, 26.1168 ], [ 94.43185, 26.11866 ], [ 94.43559, 26.11905 ], [ 94.43693, 26.11824 ], [ 94.4367, 26.11606 ], [ 94.43789, 26.11447 ], [ 94.43994, 26.11501 ], [ 94.44454, 26.11433 ], [ 94.44727, 26.11528 ], [ 94.45104, 26.11143 ], [ 94.46063, 26.10944 ], [ 94.46128, 26.10828 ], [ 94.46764, 26.10647 ], [ 94.4688, 26.10548 ], [ 94.46799, 26.10359 ], [ 94.46931, 26.09961 ], [ 94.47167, 26.09849 ], [ 94.4713, 26.09712 ], [ 94.47247, 26.09622 ], [ 94.47275, 26.09465 ], [ 94.47508, 26.09428 ], [ 94.48053, 26.09115 ], [ 94.47996, 26.08968 ], [ 94.47783, 26.08798 ], [ 94.47557, 26.08814 ], [ 94.46858, 26.08574 ], [ 94.46672, 26.08739 ], [ 94.46316, 26.0814 ], [ 94.46329, 26.07838 ], [ 94.46494, 26.0755 ], [ 94.46225, 26.07118 ], [ 94.46056, 26.06987 ], [ 94.45832, 26.06597 ], [ 94.4531, 26.06541 ], [ 94.45125, 26.06251 ], [ 94.44908, 26.06182 ], [ 94.44616, 26.05888 ], [ 94.44027, 26.05741 ], [ 94.4362, 26.05036 ], [ 94.43479, 26.04621 ], [ 94.43606, 26.04334 ], [ 94.43381, 26.03871 ], [ 94.43171, 26.03793 ], [ 94.42716, 26.03247 ] ] ] } },
{ "type": "Feature", "properties": { "OBJECTID": 6083, "state_lgd": "13", "state_name": "NAGALAND", "district_lgd": "263", "district_name": "ZUNHEBOTO", "district_name_source": "district_table", "subdistrict_lgd": "01768", "subdistrict_name": "AKULUTO", "subdistrict_type": "", "name_corrupted": false, "remarks": "", "label_lon": 94.472933157270205, "label_lat": 26.192023865719186 }, "geometry": { "type": "Polygon", "coordinates": [ [ [ 94.48842, 26.25415 ], [ 94.49186, 26.25577 ], [ 94.49435, 26.25512 ], [ 94.49819, 26.25587 ], [ 94.49821, 26.25493 ], [ 94.50072, 26.25282 ], [ 94.506, 26.25266 ], [ 94.50659, 26.24869 ], [ 94.50562, 26.24696 ], [ 94.50593, 26.24485 ], [ 94.50798, 26.24299 ], [ 94.50985, 26.24284 ], [ 94.5109, 26.24025 ], [ 94.51401, 26.24152 ], [ 94.51599, 26.23945 ], [ 94.51374, 26.23824 ], [ 94.5122, 26.23917 ], [ 94.5135, 26.2359 ], [ 94.51161, 26.23564 ], [ 94.50868, 26.23263 ], [ 94.50863, 26.23498 ], [ 94.50748, 26.23438 ], [ 94.50591, 26.23492 ], [ 94.50555, 26.23193 ], [ 94.5041, 26.23146 ], [ 94.50224, 26.23239 ], [ 94.50014, 26.22924 ], [ 94.49775, 26.22922 ], [ 94.49888, 26.2273 ], [ 94.50137, 26.2278 ], [ 94.50166, 26.22692 ], [ 94.5008, 26.22535 ], [ 94.49741, 26.22464 ], [ 94.49827, 26.2192 ], [ 94.49628, 26.21933 ], [ 94.49661, 26.21796 ], [ 94.49792, 26.21646 ], [ 94.49922, 26.21643 ], [ 94.49897, 26.21471 ], [ 94.4996, 26.21399 ], [ 94.50065, 26.21379 ], [ 94.50212, 26.21524 ], [ 94.50352, 26.21493 ], [ 94.50389, 26.21329 ], [ 94.50677, 26.21125 ], [ 94.50522, 26.2079 ], [ 94.5029, 26.20747 ], [ 94.5026, 26.20647 ], [ 94.50478, 26.20506 ], [ 94.50846, 26.20578 ], [ 94.51368, 26.2054 ], [ 94.51859, 26.20891 ], [ 94.52132, 26.20817 ], [ 94.52187, 26.20705 ], [ 94.519, 26.20481 ], [ 94.51597, 26.2009 ], [ 94.51007, 26.19947 ], [ 94.51228, 26.19797 ], [ 94.51194, 26.19698 ], [ 94.51343, 26.19629 ], [ 94.51296, 26.19546 ], [ 94.51081, 26.19539 ], [ 94.51161, 26.19202 ], [ 94.51116, 26.19024 ], [ 94.51643, 26.1878 ], [ 94.51475, 26.18311 ], [ 94.51032, 26.18542 ], [ 94.50586, 26.17566 ], [ 94.50067, 26.17046 ], [ 94.50113, 26.16837 ], [ 94.5091, 26.16499 ], [ 94.50628, 26.16245 ], [ 94.49944, 26.16392 ], [ 94.49963, 26.15827 ], [ 94.49658, 26.15857 ], [ 94.49125, 26.16202 ], [ 94.48859, 26.1621 ], [ 94.48759, 26.16138 ], [ 94.48635, 26.15773 ], [ 94.48445, 26.15667 ], [ 94.48369, 26.15421 ], [ 94.48169, 26.15304 ], [ 94.48139, 26.15131 ], [ 94.47829, 26.15287 ], [ 94.47596, 26.15236 ], [ 94.47083, 26.14535 ], [ 94.46995, 26.14213 ], [ 94.47091, 26.13775 ], [ 94.47304, 26.1363 ], [ 94.47268, 26.13515 ], [ 94.47393, 26.13419 ], [ 94.47452, 26.13191 ], [ 94.47959, 26.12688 ], [ 94.48087, 26.12329 ], [ 94.48394, 26.12012 ], [ 94.48372, 26.11891 ], [ 94.48122, 26.11623 ], [ 94.476, 26.11809 ], [ 94.47445, 26.11599 ], [ 94.47247, 26.11921 ], [ 94.46514, 26.12645 ], [ 94.46682, 26.12961 ], [ 94.46161, 26.13138 ], [ 94.45582, 26.13639 ], [ 94.44576, 26.1353 ], [ 94.43548, 26.13996 ], [ 94.43122, 26.14015 ], [ 94.42695, 26.14161 ], [ 94.43042, 26.14445 ], [ 94.4326, 26.14447 ], [ 94.43313, 26.14713 ], [ 94.43573, 26.14807 ], [ 94.4334, 26.15044 ], [ 94.42929, 26.1516 ], [ 94.42812, 26.15359 ], [ 94.4261, 26.1543 ], [ 94.4274, 26.1554 ], [ 94.42643, 26.15715 ], [ 94.42959, 26.15667 ], [ 94.43027, 26.15802 ], [ 94.4298, 26.15943 ], [ 94.43152, 26.16033 ], [ 94.43011, 26.16185 ], [ 94.43022, 26.16269 ], [ 94.43431, 26.16167 ], [ 94.4343, 26.16439 ], [ 94.43282, 26.16454 ], [ 94.43223, 26.16575 ], [ 94.43448, 26.16557 ], [ 94.43556, 26.16658 ], [ 94.43739, 26.16654 ], [ 94.43716, 26.16923 ], [ 94.43913, 26.17075 ], [ 94.44168, 26.17689 ], [ 94.44135, 26.17862 ], [ 94.43944, 26.1795 ], [ 94.43931, 26.18189 ], [ 94.4375, 26.18424 ], [ 94.442, 26.18882 ], [ 94.4419, 26.19087 ], [ 94.44072, 26.19211 ], [ 94.44224, 26.1936 ], [ 94.44162, 26.1967 ], [ 94.44314, 26.19812 ], [ 94.4418, 26.19903 ], [ 94.44257, 26.20133 ], [ 94.44011, 26.20001 ], [ 94.44072, 26.20179 ], [ 94.43933, 26.20289 ], [ 94.44076, 26.20299 ], [ 94.44077, 26.20505 ], [ 94.4427, 26.20558 ], [ 94.44377, 26.20699 ], [ 94.44511, 26.20604 ], [ 94.44579, 26.20672 ], [ 94.44587, 26.20981 ], [ 94.44403, 26.20989 ], [ 94.44481, 26.21202 ], [ 94.44349, 26.21325 ], [ 94.44489, 26.21587 ], [ 94.44394, 26.21732 ], [ 94.4443, 26.2187 ], [ 94.44308, 26.22018 ], [ 94.44419, 26.22078 ], [ 94.44528, 26.21957 ], [ 94.4462, 26.22011 ], [ 94.44879, 26.22547 ], [ 94.45157, 26.22573 ], [ 94.45491, 26.23083 ], [ 94.4542, 26.23319 ], [ 94.45567, 26.23468 ], [ 94.4591, 26.23615 ], [ 94.45858, 26.2373 ], [ 94.45646, 26.23851 ], [ 94.45616, 26.2401 ], [ 94.45749, 26.24063 ], [ 94.45942, 26.23974 ], [ 94.46913, 26.24381 ], [ 94.47167, 26.25016 ], [ 94.47473, 26.25519 ], [ 94.47473, 26.25788 ], [ 94.47342, 26.2599 ], [ 94.47679, 26.26159 ], [ 94.47798, 26.25796 ], [ 94.48688, 26.25567 ], [ 94.48842, 26.25415 ] ] ] } },
{ "type": "Feature", "properties": { "OBJECTID": 6084, "state_lgd": "13", "state_name": "NAGALAND", "district_lgd": "263", "district_name": "ZUNHEBOTO", "district_name_source": "district_table", "subdistrict_lgd": "01773", "subdistrict_name": "ATOIZU", "subdistrict_type": "", "name_corrupted": false, "remarks": "", "label_lon": 94.487265363358546, "label_lat": 26.10510399238143 }, "geometry": { "type": "Polygon", "coordinates": [ [ [ 94.42696, 26.1416 ], [ 94.43122, 26.14015 ], [ 94.43548, 26.13996 ], [ 94.44576, 26.1353 ], [ 94.45582, 26.13639 ], [ 94.46161, 26.13138 ], [ 94.46682, 26.12961 ], [ 94.46514, 26.12645 ], [ 94.47247, 26.11921 ], [ 94.47399, 26.11613 ], [ 94.47475, 26.11609 ], [ 94.476, 26.11809 ], [ 94.4801, 26.11616 ], [ 94.48211, 26.11665 ], [ 94.48394, 26.12012 ], [ 94.48087, 26.12329 ], [ 94.47959, 26.12688 ], [ 94.47452, 26.13191 ], [ 94.47393, 26.13419 ], [ 94.47268, 26.13515 ], [ 94.47304, 26.1363 ], [ 94.47091, 26.13775 ], [ 94.46995, 26.14213 ], [ 94.47083, 26.14535 ], [ 94.47596, 26.15236 ], [ 94.47829, 26.15287 ], [ 94.48139, 26.15131 ], [ 94.48169, 26.15304 ], [ 94.48369, 26.15421 ], [ 94.48445, 26.15667 ], [ 94.48635, 26.15773 ], [ 94.48759, 26.16138 ], [ 94.48859, 26.1621 ], [ 94.49125, 26.16202 ], [ 94.49658, 26.15857 ], [ 94.49963, 26.15827 ], [ 94.49944, 26.16392 ], [ 94.50628, 26.16245 ], [ 94.5091, 26.16499 ], [ 94.50113, 26.16837 ], [ 94.50058, 26.17009 ], [ 94.50586, 26.17566 ], [ 94.51032, 26.18542 ], [ 94.51447, 26.18357 ], [ 94.51418, 26.17994 ], [ 94.5157, 26.17814 ], [ 94.51746, 26.17824 ], [ 94.51778, 26.17974 ], [ 94.5203, 26.17908 ], [ 94.52188, 26.17531 ], [ 94.52836, 26.17251 ], [ 94.5296, 26.16875 ], [ 94.53146, 26.16695 ], [ 94.53151, 26.1644 ], [ 94.53325, 26.163 ], [ 94.53601, 26.16336 ], [ 94.53671, 26.16162 ], [ 94.53583, 26.15862 ], [ 94.53808, 26.15716 ], [ 94.53787, 26.15287 ], [ 94.541, 26.14925 ], [ 94.53979, 26.14644 ], [ 94.53915, 26.14201 ], [ 94.53999, 26.14104 ], [ 94.53917, 26.13895 ], [ 94.54107, 26.13806 ], [ 94.54135, 26.1353 ], [ 94.53958, 26.13395 ], [ 94.54406, 26.12784 ], [ 94.54333, 26.12554 ], [ 94.54362, 26.12277 ], [ 94.54197, 26.11978 ], [ 94.54222, 26.11881 ], [ 94.54048, 26.11731 ], [ 94.54277, 26.11436 ], [ 94.54201, 26.11032 ], [ 94.537, 26.1069 ], [ 94.53371, 26.10203 ], [ 94.52741, 26.09765 ], [ 94.51666, 26.08293 ], [ 94.5108, 26.07703 ], [ 94.5101, 26.07492 ], [ 94.50474, 26.07061 ], [ 94.50152, 26.06585 ], [ 94.49971, 26.06464 ], [ 94.49828, 26.0647 ], [ 94.49709, 26.06127 ], [ 94.48584, 26.0489 ], [ 94.48036, 26.04112 ], [ 94.47665, 26.03881 ], [ 94.47441, 26.03854 ], [ 94.47355, 26.03482 ], [ 94.47254, 26.03387 ], [ 94.46513, 26.03336 ], [ 94.46518, 26.03221 ], [ 94.46699, 26.03114 ], [ 94.46707, 26.02987 ], [ 94.46426, 26.02968 ], [ 94.46693, 26.02599 ], [ 94.46277, 26.02166 ], [ 94.46004, 26.02201 ], [ 94.45552, 26.02472 ], [ 94.4516, 26.02421 ], [ 94.44752, 26.0249 ], [ 94.4442, 26.02732 ], [ 94.44069, 26.02464 ], [ 94.4368, 26.02431 ], [ 94.43611, 26.02299 ], [ 94.4326, 26.02303 ], [ 94.42574, 26.02495 ], [ 94.42534, 26.02568 ], [ 94.4257, 26.02813 ], [ 94.42683, 26.02909 ], [ 94.42716, 26.03247 ], [ 94.43171, 26.03793 ], [ 94.43381, 26.03871 ], [ 94.43511, 26.04122 ], [ 94.43606, 26.04334 ], [ 94.43479, 26.04621 ], [ 94.43631, 26.05061 ], [ 94.44027, 26.05741 ], [ 94.44616, 26.05888 ], [ 94.44908, 26.06182 ], [ 94.45125, 26.06251 ], [ 94.4531, 26.06541 ], [ 94.45686, 26.06544 ], [ 94.45865, 26.06625 ], [ 94.46494, 26.0755 ], [ 94.46329, 26.07838 ], [ 94.46316, 26.0814 ], [ 94.46672, 26.08739 ], [ 94.46858, 26.08574 ], [ 94.47557, 26.08814 ], [ 94.47783, 26.08798 ], [ 94.47996, 26.08968 ], [ 94.48053, 26.09115 ], [ 94.47508, 26.09428 ], [ 94.47275, 26.09465 ], [ 94.47247, 26.09622 ], [ 94.4713, 26.09712 ], [ 94.47167, 26.09849 ], [ 94.46931, 26.09961 ], [ 94.46799, 26.10359 ], [ 94.4688, 26.10548 ], [ 94.46725, 26.10666 ], [ 94.46128, 26.10828 ], [ 94.46063, 26.10944 ], [ 94.45857, 26.11004 ], [ 94.45104, 26.11143 ], [ 94.44727, 26.11528 ], [ 94.44454, 26.11433 ], [ 94.43994, 26.11501 ], [ 94.43789, 26.11447 ], [ 94.4367, 26.11606 ], [ 94.43693, 26.11824 ], [ 94.43559, 26.11905 ], [ 94.43185, 26.11866 ], [ 94.42807, 26.1168 ], [ 94.42207, 26.11911 ], [ 94.42053, 26.11818 ], [ 94.42064, 26.12181 ], [ 94.41631, 26.12644 ], [ 94.41675, 26.12769 ], [ 94.41967, 26.12978 ], [ 94.4182, 26.13008 ], [ 94.41826, 26.13083 ], [ 94.42006, 26.13164 ], [ 94.41745, 26.13246 ], [ 94.41733, 26.13322 ], [ 94.41908, 26.13581 ], [ 94.42214, 26.13364 ], [ 94.42293, 26.13393 ], [ 94.42424, 26.13695 ], [ 94.42131, 26.13775 ], [ 94.42425, 26.13873 ], [ 94.4243, 26.13965 ], [ 94.42696, 26.1416 ] ] ] } },
{ "type": "Feature", "properties": { "OBJECTID": 6087, "state_lgd": "13", "state_name": "NAGALAND", "district_lgd": "263", "district_name": "ZUNHEBOTO", "district_name_source": "district_table", "subdistrict_lgd": "01779", "subdistrict_name": "SATOI", "subdistrict_type": "", "name_corrupted": false, "remarks": "", "label_lon": 94.601463481855546, "label_lat": 25.8092344055772 }, "geometry": { "type": "Polygon", "coordinates": [ [ [ 94.6073, 25.83798 ], [ 94.61119, 25.83553 ], [ 94.61043, 25.83363 ], [ 94.61494, 25.83029 ], [ 94.61882, 25.82345 ], [ 94.62118, 25.82178 ], [ 94.62769, 25.8206 ], [ 94.63108, 25.81905 ], [ 94.63565, 25.81926 ], [ 94.64279, 25.82209 ], [ 94.64454, 25.81969 ], [ 94.64842, 25.81802 ], [ 94.65059, 25.8157 ], [ 94.65672, 25.8136 ], [ 94.6628, 25.80894 ], [ 94.66703, 25.80803 ], [ 94.67068, 25.80557 ], [ 94.6742, 25.80457 ], [ 94.6757, 25.80605 ], [ 94.67873, 25.80705 ], [ 94.6864, 25.80733 ], [ 94.69292, 25.81519 ], [ 94.69579, 25.81699 ], [ 94.69978, 25.81794 ], [ 94.70478, 25.81277 ], [ 94.70382, 25.80985 ], [ 94.70494, 25.80685 ], [ 94.70881, 25.80431 ], [ 94.7093, 25.79943 ], [ 94.71048, 25.7964 ], [ 94.71553, 25.79279 ], [ 94.71725, 25.79053 ], [ 94.71665, 25.78957 ], [ 94.71454, 25.7893 ], [ 94.70188, 25.78282 ], [ 94.70303, 25.77717 ], [ 94.70489, 25.77568 ], [ 94.70709, 25.76913 ], [ 94.70472, 25.76658 ], [ 94.70454, 25.76326 ], [ 94.69686, 25.76584 ], [ 94.69473, 25.76492 ], [ 94.69321, 25.76235 ], [ 94.69, 25.76085 ], [ 94.68352, 25.76722 ], [ 94.67943, 25.76895 ], [ 94.67409, 25.77262 ], [ 94.67097, 25.77686 ], [ 94.659, 25.78359 ], [ 94.65547, 25.7843 ], [ 94.65003, 25.78245 ], [ 94.65584, 25.7777 ], [ 94.64702, 25.77656 ], [ 94.64288, 25.77121 ], [ 94.63517, 25.76409 ], [ 94.63042, 25.76318 ], [ 94.6275, 25.76113 ], [ 94.62072, 25.76001 ], [ 94.61031, 25.76374 ], [ 94.60931, 25.76527 ], [ 94.61064, 25.76808 ], [ 94.61505, 25.76917 ], [ 94.61651, 25.7743 ], [ 94.61252, 25.77744 ], [ 94.60683, 25.7786 ], [ 94.60491, 25.77673 ], [ 94.60098, 25.76962 ], [ 94.60068, 25.77153 ], [ 94.5981, 25.7759 ], [ 94.59575, 25.77533 ], [ 94.59369, 25.77253 ], [ 94.58928, 25.77024 ], [ 94.58814, 25.77039 ], [ 94.58793, 25.77248 ], [ 94.58692, 25.77277 ], [ 94.58169, 25.76239 ], [ 94.57756, 25.7587 ], [ 94.57476, 25.75284 ], [ 94.57171, 25.75055 ], [ 94.56679, 25.74977 ], [ 94.56014, 25.75364 ], [ 94.55729, 25.75141 ], [ 94.55517, 25.74832 ], [ 94.55181, 25.74624 ], [ 94.55245, 25.74131 ], [ 94.54465, 25.74254 ], [ 94.54357, 25.74699 ], [ 94.54379, 25.75357 ], [ 94.54751, 25.77329 ], [ 94.54259, 25.77397 ], [ 94.54085, 25.77517 ], [ 94.54759, 25.79375 ], [ 94.55209, 25.79423 ], [ 94.55343, 25.79363 ], [ 94.55398, 25.79521 ], [ 94.55223, 25.79983 ], [ 94.54975, 25.79922 ], [ 94.54276, 25.80043 ], [ 94.54099, 25.80226 ], [ 94.54316, 25.82073 ], [ 94.54648, 25.82462 ], [ 94.54165, 25.82828 ], [ 94.53257, 25.82909 ], [ 94.52586, 25.83346 ], [ 94.52725, 25.8358 ], [ 94.52778, 25.84163 ], [ 94.52989, 25.84326 ], [ 94.53023, 25.84443 ], [ 94.52962, 25.84484 ], [ 94.53137, 25.84605 ], [ 94.53094, 25.84701 ], [ 94.52671, 25.84697 ], [ 94.52468, 25.8539 ], [ 94.52857, 25.85495 ], [ 94.52816, 25.85723 ], [ 94.52882, 25.85985 ], [ 94.53861, 25.86339 ], [ 94.53889, 25.86672 ], [ 94.54156, 25.86766 ], [ 94.54355, 25.87279 ], [ 94.55006, 25.87794 ], [ 94.55264, 25.87787 ], [ 94.55242, 25.87971 ], [ 94.55324, 25.88044 ], [ 94.55657, 25.87924 ], [ 94.56039, 25.87979 ], [ 94.56268, 25.88193 ], [ 94.56638, 25.88266 ], [ 94.56846, 25.88533 ], [ 94.56982, 25.88967 ], [ 94.57093, 25.88951 ], [ 94.57335, 25.88699 ], [ 94.57397, 25.88362 ], [ 94.57642, 25.88112 ], [ 94.57688, 25.87921 ], [ 94.58048, 25.8767 ], [ 94.58181, 25.8762 ], [ 94.58851, 25.8769 ], [ 94.58919, 25.87903 ], [ 94.59226, 25.87879 ], [ 94.59588, 25.87537 ], [ 94.59901, 25.86723 ], [ 94.59864, 25.86565 ], [ 94.59524, 25.86354 ], [ 94.59388, 25.8612 ], [ 94.59092, 25.86027 ], [ 94.58854, 25.86062 ], [ 94.58933, 25.85687 ], [ 94.59157, 25.85429 ], [ 94.59537, 25.85249 ], [ 94.59783, 25.84846 ], [ 94.60415, 25.84371 ], [ 94.6073, 25.83798 ] ] ] } },
{ "type": "Feature", "properties": { "OBJECTID": 6088, "state_lgd": "13", "state_name": "NAGALAND", "district_lgd": "263", "district_name": "ZUNHEBOTO", "district_name_source": "district_table", "subdistrict_lgd": "01777", "subdistrict_name": "SATAKHA", "subdistrict_type": "", "name_corrupted": false, "remarks": "", "label_lon": 94.462165955640458, "label_lat": 25.912404834971507 }, "geometry": { "type": "Polygon", "coordinates": [ [ [ 94.4284, 25.99991 ], [ 94.43187, 25.99891 ], [ 94.43225, 25.99701 ], [ 94.43133, 25.99709 ], [ 94.43121, 25.99641 ], [ 94.43336, 25.99428 ], [ 94.43343, 25.99123 ], [ 94.43513, 25.9897 ], [ 94.43427, 25.98658 ], [ 94.43787, 25.98445 ], [ 94.43986, 25.98434 ], [ 94.44097, 25.98344 ], [ 94.44254, 25.98379 ], [ 94.44686, 25.98037 ], [ 94.44831, 25.9806 ], [ 94.45005, 25.97807 ], [ 94.4477, 25.97574 ], [ 94.44748, 25.9743 ], [ 94.45763, 25.97226 ], [ 94.45814, 25.96973 ], [ 94.4668, 25.96334 ], [ 94.46944, 25.96373 ], [ 94.47418, 25.96639 ], [ 94.47895, 25.97359 ], [ 94.48297, 25.97655 ], [ 94.48578, 25.9813 ], [ 94.49058, 25.9841 ], [ 94.49173, 25.98617 ], [ 94.49539, 25.98883 ], [ 94.4977, 25.98841 ], [ 94.4987, 25.98676 ], [ 94.5008, 25.98674 ], [ 94.50394, 25.98509 ], [ 94.50092, 25.98212 ], [ 94.50181, 25.97904 ], [ 94.50156, 25.97513 ], [ 94.50249, 25.97276 ], [ 94.50011, 25.96688 ], [ 94.49617, 25.96497 ], [ 94.49293, 25.96024 ], [ 94.4917, 25.95556 ], [ 94.49015, 25.95337 ], [ 94.49003, 25.94991 ], [ 94.48794, 25.94839 ], [ 94.49789, 25.94572 ], [ 94.5011, 25.94761 ], [ 94.50359, 25.94811 ], [ 94.51075, 25.9458 ], [ 94.51646, 25.94876 ], [ 94.52102, 25.94939 ], [ 94.53069, 25.94519 ], [ 94.52957, 25.94372 ], [ 94.53072, 25.94156 ], [ 94.53099, 25.93885 ], [ 94.52987, 25.93888 ], [ 94.52918, 25.94084 ], [ 94.52797, 25.93918 ], [ 94.52882, 25.93559 ], [ 94.5283, 25.93359 ], [ 94.52989, 25.93155 ], [ 94.52986, 25.93006 ], [ 94.52916, 25.9291 ], [ 94.52685, 25.92871 ], [ 94.52573, 25.92418 ], [ 94.52322, 25.92257 ], [ 94.52715, 25.92007 ], [ 94.52757, 25.91907 ], [ 94.52506, 25.91677 ], [ 94.52506, 25.91011 ], [ 94.5229, 25.90787 ], [ 94.52323, 25.9022 ], [ 94.51975, 25.89682 ], [ 94.52199, 25.89439 ], [ 94.52106, 25.89131 ], [ 94.52317, 25.88963 ], [ 94.52041, 25.88486 ], [ 94.52333, 25.8836 ], [ 94.52187, 25.88143 ], [ 94.52309, 25.87773 ], [ 94.52451, 25.87651 ], [ 94.52363, 25.87132 ], [ 94.52493, 25.86877 ], [ 94.52486, 25.86526 ], [ 94.52724, 25.86243 ], [ 94.52674, 25.86057 ], [ 94.52429, 25.85817 ], [ 94.52438, 25.8549 ], [ 94.52671, 25.84697 ], [ 94.53094, 25.84701 ], [ 94.53137, 25.84605 ], [ 94.52962, 25.84484 ], [ 94.52478, 25.84354 ], [ 94.52559, 25.83787 ], [ 94.52252, 25.83578 ], [ 94.51874, 25.83485 ], [ 94.51897, 25.83154 ], [ 94.51813, 25.82981 ], [ 94.51637, 25.82908 ], [ 94.5137, 25.82967 ], [ 94.51259, 25.82735 ], [ 94.51052, 25.82577 ], [ 94.50273, 25.82446 ], [ 94.49901, 25.82711 ], [ 94.4953, 25.82623 ], [ 94.48822, 25.82252 ], [ 94.48461, 25.81811 ], [ 94.48205, 25.81731 ], [ 94.47855, 25.81745 ], [ 94.47496, 25.81919 ], [ 94.47035, 25.81886 ], [ 94.46532, 25.82331 ], [ 94.45862, 25.82262 ], [ 94.45944, 25.82558 ], [ 94.4628, 25.82921 ], [ 94.46391, 25.83645 ], [ 94.46153, 25.84222 ], [ 94.46165, 25.84369 ], [ 94.45954, 25.84601 ], [ 94.45697, 25.8477 ], [ 94.45466, 25.84802 ], [ 94.4484, 25.84668 ], [ 94.44925, 25.84842 ], [ 94.4574, 25.85274 ], [ 94.45661, 25.8541 ], [ 94.45509, 25.85399 ], [ 94.45399, 25.85481 ], [ 94.45014, 25.85989 ], [ 94.44639, 25.86687 ], [ 94.44697, 25.86819 ], [ 94.44581, 25.87013 ], [ 94.44616, 25.87423 ], [ 94.4437, 25.8782 ], [ 94.4455, 25.88041 ], [ 94.441, 25.8825 ], [ 94.44131, 25.88518 ], [ 94.44027, 25.88746 ], [ 94.4369, 25.88866 ], [ 94.43604, 25.8898 ], [ 94.43535, 25.88896 ], [ 94.43469, 25.88925 ], [ 94.43254, 25.8909 ], [ 94.43276, 25.89259 ], [ 94.42989, 25.89375 ], [ 94.42669, 25.89721 ], [ 94.42398, 25.89866 ], [ 94.41616, 25.89768 ], [ 94.41166, 25.90308 ], [ 94.40891, 25.90291 ], [ 94.39699, 25.90594 ], [ 94.38904, 25.91109 ], [ 94.38675, 25.91193 ], [ 94.3848, 25.91155 ], [ 94.38367, 25.9127 ], [ 94.38098, 25.9134 ], [ 94.37866, 25.91467 ], [ 94.37114, 25.92316 ], [ 94.36943, 25.92296 ], [ 94.36737, 25.92446 ], [ 94.3693, 25.92514 ], [ 94.37119, 25.92826 ], [ 94.37543, 25.93186 ], [ 94.37809, 25.93601 ], [ 94.37853, 25.94067 ], [ 94.38107, 25.94195 ], [ 94.37971, 25.94952 ], [ 94.38356, 25.95354 ], [ 94.38372, 25.95592 ], [ 94.39339, 25.95967 ], [ 94.39955, 25.96734 ], [ 94.39864, 25.97102 ], [ 94.40111, 25.97196 ], [ 94.40198, 25.97396 ], [ 94.40572, 25.97454 ], [ 94.40541, 25.97708 ], [ 94.40812, 25.97777 ], [ 94.40839, 25.98004 ], [ 94.41106, 25.98165 ], [ 94.41128, 25.98596 ], [ 94.41332, 25.98895 ], [ 94.40872, 25.99012 ], [ 94.40587, 25.9934 ], [ 94.40827, 25.99489 ], [ 94.41326, 25.99467 ], [ 94.4184, 25.99574 ], [ 94.42075, 25.99805 ], [ 94.42423, 25.99722 ], [ 94.4284, 25.99991 ] ] ] } }
]
}
