{
"type": "FeatureCollection",
"name": "270_KOHIMA",
"crs": { "type": "name", "properties": { "name": "urn:ogc:def:crs:OGC:1.3:CRS84" } },
"xy_coordinate_resolution": 1e-05,
"features": [
{ "type": "Feature", "properties": { "OBJECTID": 6117, "state_lgd": "13", "state_name": "NAGALAND", "district_lgd": "270", "district_name": "KOHIMA", "district_name_source": "district_table", "subdistrict_lgd": "01846", "subdistrict_name": "BOTSA", "subdistrict_type": "", "name_corrupted": false, "remarks": "", "label_lon": 94.192911437958216, "label_lat": 25.8384175 }, "geometry": { "type": "Polygon", "coordinates": [ [ [ 94.09739, 25.89787 ], [ 94.10028, 25.89837 ], [ 94.10428, 25.89729 ], [ 94.10594, 25.89568 ], [ 94.10647, 25.89294 ], [ 94.10749, 25.8918 ], [ 94.11636, 25.88723 ], [ 94.12358, 25.88958 ], [ 94.12566, 25.88947 ], [ 94.1361, 25.89392 ], [ 94.14351, 25.895 ], [ 94.14718, 25.89473 ], [ 94.14783, 25.894 ], [ 94.14738, 25.89119 ], [ 94.14814, 25.89007 ], [ 94.14694, 25.88745 ], [ 94.14679, 25.87971 ], [ 94.1476, 25.87734 ], [ 94.14664, 25.87456 ], [ 94.14453, 25.87186 ], [ 94.1463, 25.86647 ], [ 94.14942, 25.86437 ], [ 94.14842, 25.87447 ], [ 94.15065, 25.87768 ], [ 94.15384, 25.8794 ], [ 94.15584, 25.87545 ], [ 94.15232, 25.87491 ], [ 94.1514, 25.87395 ], [ 94.15237, 25.87294 ], [ 94.15443, 25.87352 ], [ 94.15628, 25.87194 ], [ 94.15926, 25.86439 ], [ 94.16206, 25.86491 ], [ 94.16564, 25.86879 ], [ 94.16664, 25.86332 ], [ 94.17141, 25.86335 ], [ 94.17903, 25.86069 ], [ 94.18637, 25.85955 ], [ 94.192, 25.86088 ], [ 94.19386, 25.86243 ], [ 94.19658, 25.86254 ], [ 94.19834, 25.86449 ], [ 94.2023, 25.86625 ], [ 94.20666, 25.86624 ], [ 94.20928, 25.86392 ], [ 94.20972, 25.86219 ], [ 94.21329, 25.85963 ], [ 94.21282, 25.85862 ], [ 94.21449, 25.8579 ], [ 94.21407, 25.85647 ], [ 94.21514, 25.85491 ], [ 94.2176, 25.85435 ], [ 94.2208, 25.85232 ], [ 94.22305, 25.84842 ], [ 94.21976, 25.84443 ], [ 94.21891, 25.84071 ], [ 94.2194, 25.83966 ], [ 94.2215, 25.83821 ], [ 94.22404, 25.83792 ], [ 94.2245, 25.83546 ], [ 94.22623, 25.83304 ], [ 94.22826, 25.83398 ], [ 94.24151, 25.82658 ], [ 94.24308, 25.8269 ], [ 94.24819, 25.82008 ], [ 94.24773, 25.81696 ], [ 94.25436, 25.81117 ], [ 94.25367, 25.80996 ], [ 94.25571, 25.80705 ], [ 94.2557, 25.80538 ], [ 94.2588, 25.80475 ], [ 94.26004, 25.80339 ], [ 94.25636, 25.80198 ], [ 94.2526, 25.79776 ], [ 94.25251, 25.79617 ], [ 94.25138, 25.79479 ], [ 94.24776, 25.79377 ], [ 94.24767, 25.79152 ], [ 94.2466, 25.7907 ], [ 94.23777, 25.78759 ], [ 94.23395, 25.78836 ], [ 94.23259, 25.78676 ], [ 94.23039, 25.7859 ], [ 94.22904, 25.78118 ], [ 94.22519, 25.77859 ], [ 94.22461, 25.77622 ], [ 94.22282, 25.77543 ], [ 94.22189, 25.77269 ], [ 94.21995, 25.77199 ], [ 94.22081, 25.76909 ], [ 94.2179, 25.76887 ], [ 94.21755, 25.76767 ], [ 94.21841, 25.76567 ], [ 94.21636, 25.76402 ], [ 94.21613, 25.76204 ], [ 94.21067, 25.76147 ], [ 94.20639, 25.76652 ], [ 94.20308, 25.76821 ], [ 94.20099, 25.76781 ], [ 94.19949, 25.76962 ], [ 94.20105, 25.77306 ], [ 94.20536, 25.77622 ], [ 94.20674, 25.77986 ], [ 94.20383, 25.77974 ], [ 94.2027, 25.78188 ], [ 94.19755, 25.78716 ], [ 94.19401, 25.78811 ], [ 94.19542, 25.79078 ], [ 94.19899, 25.80828 ], [ 94.19509, 25.80849 ], [ 94.19214, 25.80757 ], [ 94.18974, 25.80817 ], [ 94.18695, 25.80685 ], [ 94.18319, 25.80723 ], [ 94.18184, 25.8058 ], [ 94.17828, 25.80621 ], [ 94.17751, 25.80748 ], [ 94.17819, 25.80962 ], [ 94.17422, 25.81393 ], [ 94.16868, 25.81529 ], [ 94.16697, 25.81768 ], [ 94.16513, 25.81871 ], [ 94.16307, 25.82396 ], [ 94.16344, 25.82737 ], [ 94.16477, 25.82753 ], [ 94.16551, 25.82916 ], [ 94.16455, 25.83916 ], [ 94.16157, 25.8425 ], [ 94.15498, 25.84566 ], [ 94.15855, 25.84999 ], [ 94.15674, 25.84958 ], [ 94.15313, 25.85055 ], [ 94.15057, 25.8537 ], [ 94.14137, 25.85094 ], [ 94.14302, 25.85451 ], [ 94.14577, 25.85726 ], [ 94.14616, 25.85962 ], [ 94.1426, 25.86043 ], [ 94.14132, 25.86194 ], [ 94.13688, 25.86362 ], [ 94.13362, 25.86613 ], [ 94.13007, 25.86617 ], [ 94.12925, 25.86808 ], [ 94.12749, 25.8692 ], [ 94.12759, 25.86424 ], [ 94.13022, 25.85639 ], [ 94.12978, 25.85427 ], [ 94.12232, 25.84739 ], [ 94.11543, 25.84486 ], [ 94.11242, 25.84502 ], [ 94.11011, 25.8385 ], [ 94.10695, 25.83833 ], [ 94.10567, 25.83742 ], [ 94.11042, 25.8351 ], [ 94.1135, 25.83241 ], [ 94.11218, 25.83152 ], [ 94.11183, 25.82982 ], [ 94.10924, 25.82852 ], [ 94.1072, 25.82857 ], [ 94.10606, 25.82729 ], [ 94.10423, 25.82686 ], [ 94.10324, 25.82501 ], [ 94.10111, 25.82428 ], [ 94.09501, 25.81975 ], [ 94.09215, 25.81904 ], [ 94.08549, 25.82092 ], [ 94.084, 25.8197 ], [ 94.08121, 25.82037 ], [ 94.0793, 25.81992 ], [ 94.07646, 25.8256 ], [ 94.07452, 25.82522 ], [ 94.07299, 25.8264 ], [ 94.07291, 25.82789 ], [ 94.07144, 25.82821 ], [ 94.06917, 25.83067 ], [ 94.0722, 25.83305 ], [ 94.06656, 25.83438 ], [ 94.06483, 25.83754 ], [ 94.0661, 25.84309 ], [ 94.06844, 25.84803 ], [ 94.06838, 25.84974 ], [ 94.06985, 25.85191 ], [ 94.06892, 25.85687 ], [ 94.07095, 25.85836 ], [ 94.07112, 25.86112 ], [ 94.07511, 25.86663 ], [ 94.07418, 25.86881 ], [ 94.07489, 25.87133 ], [ 94.07313, 25.87504 ], [ 94.06926, 25.87811 ], [ 94.06788, 25.87991 ], [ 94.06778, 25.88233 ], [ 94.06543, 25.88272 ], [ 94.06388, 25.88564 ], [ 94.06478, 25.88884 ], [ 94.0639, 25.89203 ], [ 94.06738, 25.89502 ], [ 94.06736, 25.89655 ], [ 94.06978, 25.89618 ], [ 94.0705, 25.89673 ], [ 94.06942, 25.89929 ], [ 94.07288, 25.9039 ], [ 94.07161, 25.90732 ], [ 94.0731, 25.90802 ], [ 94.07777, 25.91533 ], [ 94.08664, 25.90855 ], [ 94.09071, 25.90385 ], [ 94.09352, 25.90197 ], [ 94.09525, 25.89891 ], [ 94.09739, 25.89787 ] ] ] } },
{ "type": "Feature", "properties": { "OBJECTID": 6118, "state_lgd": "13", "state_name": "NAGALAND", "district_lgd": "270", "district_name": "KOHIMA", "district_name_source": "district_table", "subdistrict_lgd": "01849", "subdistrict_name": "KOHIMA", "subdistrict_type": "", "name_corrupted": false, "remarks": "", "label_lon": 94.132695779518372, "label_lat": 25.677646209686017 }, "geometry": { "type": "Polygon", "coordinates": [ [ [ 94.14178, 25.71183 ], [ 94.14551, 25.71152 ], [ 94.14546, 25.7064 ], [ 94.14768, 25.70617 ], [ 94.14901, 25.70503 ], [ 94.15596, 25.70606 ], [ 94.16608, 25.71019 ], [ 94.1678, 25.71214 ], [ 94.17129, 25.70968 ], [ 94.1802, 25.70859 ], [ 94.18265, 25.70963 ], [ 94.18268, 25.70823 ], [ 94.18727, 25.70808 ], [ 94.19132, 25.70648 ], [ 94.1961, 25.70816 ], [ 94.19707, 25.71045 ], [ 94.19902, 25.70998 ], [ 94.20079, 25.70386 ], [ 94.20471, 25.70158 ], [ 94.20198, 25.69786 ], [ 94.20203, 25.69524 ], [ 94.19088, 25.69393 ], [ 94.18781, 25.69455 ], [ 94.18643, 25.69372 ], [ 94.1855, 25.69085 ], [ 94.1858, 25.68792 ], [ 94.18368, 25.68507 ], [ 94.18467, 25.68167 ], [ 94.19152, 25.67932 ], [ 94.19311, 25.67805 ], [ 94.19317, 25.67682 ], [ 94.19198, 25.6762 ], [ 94.19042, 25.67171 ], [ 94.19113, 25.67104 ], [ 94.19111, 25.66921 ], [ 94.19268, 25.66791 ], [ 94.19193, 25.66667 ], [ 94.19326, 25.66481 ], [ 94.19253, 25.66389 ], [ 94.1925, 25.66072 ], [ 94.18856, 25.66184 ], [ 94.18699, 25.6586 ], [ 94.18927, 25.65816 ], [ 94.18781, 25.65429 ], [ 94.18764, 25.65185 ], [ 94.18854, 25.65085 ], [ 94.18406, 25.64919 ], [ 94.17007, 25.64896 ], [ 94.16394, 25.64937 ], [ 94.16155, 25.65084 ], [ 94.16026, 25.65025 ], [ 94.1582, 25.6457 ], [ 94.15672, 25.64518 ], [ 94.15587, 25.64896 ], [ 94.15452, 25.65038 ], [ 94.15467, 25.65222 ], [ 94.15297, 25.65196 ], [ 94.15133, 25.65594 ], [ 94.14468, 25.65571 ], [ 94.14184, 25.65794 ], [ 94.13598, 25.66013 ], [ 94.12974, 25.65653 ], [ 94.1214, 25.64856 ], [ 94.11985, 25.64406 ], [ 94.11647, 25.64057 ], [ 94.11749, 25.63974 ], [ 94.11618, 25.63839 ], [ 94.11246, 25.63624 ], [ 94.11064, 25.639 ], [ 94.10855, 25.63884 ], [ 94.10345, 25.63201 ], [ 94.09734, 25.63505 ], [ 94.08543, 25.63798 ], [ 94.07916, 25.64039 ], [ 94.07637, 25.64447 ], [ 94.07615, 25.65071 ], [ 94.07785, 25.65432 ], [ 94.0811, 25.65559 ], [ 94.08204, 25.65735 ], [ 94.08123, 25.66195 ], [ 94.08238, 25.67108 ], [ 94.08, 25.6744 ], [ 94.07701, 25.68131 ], [ 94.07479, 25.68364 ], [ 94.07463, 25.68701 ], [ 94.07249, 25.68948 ], [ 94.07239, 25.6947 ], [ 94.0714, 25.69641 ], [ 94.07084, 25.70089 ], [ 94.07412, 25.70072 ], [ 94.07814, 25.70275 ], [ 94.08375, 25.70104 ], [ 94.08738, 25.701 ], [ 94.09499, 25.70576 ], [ 94.09826, 25.70902 ], [ 94.10158, 25.70975 ], [ 94.1156, 25.70802 ], [ 94.12149, 25.70994 ], [ 94.12348, 25.70729 ], [ 94.12651, 25.70892 ], [ 94.13496, 25.70936 ], [ 94.13697, 25.71842 ], [ 94.13769, 25.7189 ], [ 94.13899, 25.71837 ], [ 94.13882, 25.71561 ], [ 94.13973, 25.71309 ], [ 94.14178, 25.71183 ] ] ] } },
{ "type": "Feature", "properties": { "OBJECTID": 6119, "state_lgd": "13", "state_name": "NAGALAND", "district_lgd": "270", "district_name": "KOHIMA", "district_name_source": "district_table", "subdistrict_lgd": "01850", "subdistrict_name": "SECHU ZUBZA", "subdistrict_type": "", "name_corrupted": false, "remarks": "", "label_lon": 94.003857002334655, "label_lat": 25.667472876635678 }, "geometry": { "type": "Polygon", "coordinates": [ [ [ 94.07084, 25.70089 ], [ 94.0714, 25.69641 ], [ 94.07239, 25.6947 ], [ 94.07249, 25.68948 ], [ 94.07463, 25.68701 ], [ 94.07479, 25.68364 ], [ 94.07701, 25.68131 ], [ 94.08, 25.6744 ], [ 94.08238, 25.67108 ], [ 94.08123, 25.66195 ], [ 94.08204, 25.65735 ], [ 94.0811, 25.65559 ], [ 94.07785, 25.65432 ], [ 94.07698, 25.65322 ], [ 94.07607, 25.64952 ], [ 94.07637, 25.64447 ], [ 94.07717, 25.64262 ], [ 94.07916, 25.64039 ], [ 94.08222, 25.63908 ], [ 94.07787, 25.63128 ], [ 94.0783, 25.6242 ], [ 94.07681, 25.61995 ], [ 94.0767, 25.6169 ], [ 94.07776, 25.61147 ], [ 94.07293, 25.60153 ], [ 94.06731, 25.59687 ], [ 94.0665, 25.59473 ], [ 94.06818, 25.59204 ], [ 94.0674, 25.5901 ], [ 94.07113, 25.58682 ], [ 94.07155, 25.58459 ], [ 94.07375, 25.58412 ], [ 94.07414, 25.58074 ], [ 94.07582, 25.57872 ], [ 94.07548, 25.57687 ], [ 94.07711, 25.57395 ], [ 94.08227, 25.57006 ], [ 94.08252, 25.5682 ], [ 94.08507, 25.56499 ], [ 94.08444, 25.56092 ], [ 94.08579, 25.55801 ], [ 94.08844, 25.55602 ], [ 94.08556, 25.55354 ], [ 94.08014, 25.55771 ], [ 94.07576, 25.55797 ], [ 94.07461, 25.55539 ], [ 94.07241, 25.55512 ], [ 94.07292, 25.55615 ], [ 94.07212, 25.55634 ], [ 94.06719, 25.55212 ], [ 94.06577, 25.55333 ], [ 94.06551, 25.55669 ], [ 94.06094, 25.55814 ], [ 94.05964, 25.5638 ], [ 94.0569, 25.56522 ], [ 94.05565, 25.56726 ], [ 94.05388, 25.56733 ], [ 94.05318, 25.57075 ], [ 94.0499, 25.5715 ], [ 94.04806, 25.57546 ], [ 94.0445, 25.57495 ], [ 94.04424, 25.57641 ], [ 94.04312, 25.57662 ], [ 94.03827, 25.57004 ], [ 94.03821, 25.57248 ], [ 94.03663, 25.57474 ], [ 94.03687, 25.57878 ], [ 94.03455, 25.57929 ], [ 94.03018, 25.57697 ], [ 94.0297, 25.57795 ], [ 94.03075, 25.58026 ], [ 94.02668, 25.57897 ], [ 94.02705, 25.58491 ], [ 94.02505, 25.58574 ], [ 94.02236, 25.5844 ], [ 94.02198, 25.58986 ], [ 94.01937, 25.59001 ], [ 94.0168, 25.59134 ], [ 94.0136, 25.59077 ], [ 94.01288, 25.59224 ], [ 94.00268, 25.58641 ], [ 94.00235, 25.58455 ], [ 94.00404, 25.58171 ], [ 94.01092, 25.57291 ], [ 94.00784, 25.56749 ], [ 94.00414, 25.56526 ], [ 94.00082, 25.56671 ], [ 94.00209, 25.56932 ], [ 94.00178, 25.57048 ], [ 93.9954, 25.5772 ], [ 93.98626, 25.57842 ], [ 93.98561, 25.58298 ], [ 93.98295, 25.58484 ], [ 93.98285, 25.58794 ], [ 93.98413, 25.59017 ], [ 93.98383, 25.59606 ], [ 93.98461, 25.6002 ], [ 93.98203, 25.59642 ], [ 93.97889, 25.59507 ], [ 93.97911, 25.59623 ], [ 93.97359, 25.59988 ], [ 93.96627, 25.59937 ], [ 93.96266, 25.59669 ], [ 93.95946, 25.593 ], [ 93.95602, 25.59218 ], [ 93.95436, 25.59225 ], [ 93.94989, 25.59449 ], [ 93.94659, 25.59699 ], [ 93.9431, 25.59733 ], [ 93.93775, 25.60133 ], [ 93.93598, 25.60413 ], [ 93.93324, 25.61247 ], [ 93.92827, 25.61748 ], [ 93.92771, 25.61998 ], [ 93.93068, 25.62703 ], [ 93.92769, 25.62934 ], [ 93.92613, 25.62843 ], [ 93.92371, 25.63204 ], [ 93.92246, 25.63593 ], [ 93.91985, 25.63736 ], [ 93.9211, 25.6375 ], [ 93.93035, 25.64368 ], [ 93.93257, 25.64857 ], [ 93.93247, 25.65359 ], [ 93.92737, 25.66064 ], [ 93.91907, 25.66789 ], [ 93.9136, 25.66985 ], [ 93.91207, 25.67332 ], [ 93.90896, 25.67631 ], [ 93.90896, 25.67908 ], [ 93.91188, 25.68172 ], [ 93.91642, 25.68227 ], [ 93.91411, 25.68595 ], [ 93.91621, 25.68719 ], [ 93.91819, 25.69138 ], [ 93.91561, 25.69365 ], [ 93.92342, 25.70484 ], [ 93.92289, 25.70961 ], [ 93.9192, 25.71241 ], [ 93.91466, 25.71757 ], [ 93.90707, 25.71854 ], [ 93.90539, 25.71948 ], [ 93.90529, 25.72058 ], [ 93.90879, 25.72563 ], [ 93.91143, 25.72739 ], [ 93.91182, 25.73018 ], [ 93.91533, 25.73505 ], [ 93.92453, 25.73257 ], [ 93.92631, 25.72856 ], [ 93.93037, 25.72567 ], [ 93.93121, 25.72413 ], [ 93.93342, 25.72325 ], [ 93.9381, 25.7176 ], [ 93.94139, 25.71777 ], [ 93.94492, 25.72091 ], [ 93.94639, 25.72127 ], [ 93.94951, 25.71982 ], [ 93.95239, 25.71699 ], [ 93.95983, 25.7144 ], [ 93.95999, 25.71673 ], [ 93.9642, 25.71928 ], [ 93.97184, 25.72789 ], [ 93.97441, 25.72858 ], [ 93.97767, 25.72599 ], [ 93.9796, 25.72182 ], [ 93.98148, 25.72166 ], [ 93.98469, 25.72726 ], [ 93.98701, 25.72886 ], [ 93.98925, 25.7345 ], [ 93.98802, 25.73685 ], [ 93.98475, 25.73953 ], [ 93.98103, 25.73948 ], [ 93.97992, 25.74123 ], [ 93.97761, 25.74202 ], [ 93.98886, 25.74841 ], [ 93.9897, 25.75394 ], [ 93.98501, 25.75972 ], [ 93.98367, 25.76367 ], [ 93.98175, 25.76406 ], [ 93.98041, 25.76555 ], [ 93.97989, 25.76909 ], [ 93.97734, 25.77201 ], [ 93.97968, 25.77384 ], [ 93.98236, 25.78074 ], [ 93.98444, 25.78154 ], [ 93.98371, 25.78413 ], [ 93.98588, 25.78659 ], [ 93.98598, 25.78834 ], [ 93.98818, 25.78915 ], [ 93.98761, 25.79059 ], [ 93.98866, 25.79165 ], [ 93.99494, 25.79451 ], [ 93.99776, 25.79455 ], [ 94.00184, 25.79299 ], [ 94.00859, 25.79346 ], [ 94.01146, 25.79207 ], [ 94.01219, 25.78976 ], [ 94.01513, 25.78952 ], [ 94.01635, 25.78611 ], [ 94.02025, 25.78582 ], [ 94.0222, 25.78458 ], [ 94.0248, 25.78105 ], [ 94.02645, 25.77653 ], [ 94.02854, 25.77584 ], [ 94.02995, 25.77343 ], [ 94.02881, 25.77173 ], [ 94.0321, 25.7693 ], [ 94.03082, 25.76645 ], [ 94.03377, 25.763 ], [ 94.03363, 25.76092 ], [ 94.03502, 25.75992 ], [ 94.0365, 25.75448 ], [ 94.03834, 25.75194 ], [ 94.03739, 25.74956 ], [ 94.04115, 25.74696 ], [ 94.04386, 25.74196 ], [ 94.04399, 25.7397 ], [ 94.04693, 25.73945 ], [ 94.04699, 25.73481 ], [ 94.05056, 25.73362 ], [ 94.05209, 25.73135 ], [ 94.05595, 25.72021 ], [ 94.05859, 25.71824 ], [ 94.06457, 25.70872 ], [ 94.06839, 25.70487 ], [ 94.07084, 25.70089 ] ] ] } },
{ "type": "Feature", "properties": { "OBJECTID": 6120, "state_lgd": "13", "state_name": "NAGALAND", "district_lgd": "270", "district_name": "KOHIMA", "district_name_source": "district_table", "subdistrict_lgd": "01845", "subdistrict_name": "CHIEPHOBOZOU", "subdistrict_type": "", "name_corrupted": false, "remarks": "", "label_lon": 94.086493344494954, "label_lat": 25.797404550921385 }, "geometry": { "type": "Polygon", "coordinates": [ [ [ 94.02095, 25.90301 ], [ 94.02055, 25.90026 ], [ 94.0193, 25.89952 ], [ 94.01975, 25.89864 ], [ 94.02244, 25.89888 ], [ 94.02355, 25.89812 ], [ 94.02929, 25.90532 ], [ 94.04247, 25.90401 ], [ 94.04389, 25.90539 ], [ 94.04323, 25.90835 ], [ 94.04422, 25.90832 ], [ 94.04856, 25.90767 ], [ 94.05491, 25.90462 ], [ 94.0628, 25.89922 ], [ 94.06565, 25.8984 ], [ 94.0668, 25.89898 ], [ 94.0697, 25.89866 ], [ 94.07029, 25.89792 ], [ 94.07026, 25.89635 ], [ 94.0676, 25.89671 ], [ 94.06738, 25.89502 ], [ 94.06401, 25.89244 ], [ 94.06477, 25.88833 ], [ 94.06375, 25.88609 ], [ 94.06543, 25.88272 ], [ 94.06778, 25.88233 ], [ 94.06788, 25.87991 ], [ 94.06926, 25.87811 ], [ 94.07313, 25.87504 ], [ 94.07489, 25.87133 ], [ 94.07418, 25.86881 ], [ 94.07509, 25.86611 ], [ 94.0736, 25.86513 ], [ 94.07331, 25.86351 ], [ 94.07112, 25.86112 ], [ 94.07095, 25.85836 ], [ 94.06892, 25.85687 ], [ 94.06985, 25.85191 ], [ 94.06838, 25.84974 ], [ 94.06844, 25.84803 ], [ 94.0661, 25.84309 ], [ 94.06483, 25.83754 ], [ 94.06656, 25.83438 ], [ 94.0722, 25.83305 ], [ 94.06917, 25.83067 ], [ 94.07144, 25.82821 ], [ 94.07291, 25.82789 ], [ 94.07299, 25.8264 ], [ 94.07452, 25.82522 ], [ 94.07646, 25.8256 ], [ 94.0793, 25.81992 ], [ 94.08121, 25.82037 ], [ 94.084, 25.8197 ], [ 94.08549, 25.82092 ], [ 94.09215, 25.81904 ], [ 94.09501, 25.81975 ], [ 94.10111, 25.82428 ], [ 94.10324, 25.82501 ], [ 94.10423, 25.82686 ], [ 94.10606, 25.82729 ], [ 94.1072, 25.82857 ], [ 94.10924, 25.82852 ], [ 94.11183, 25.82982 ], [ 94.11218, 25.83152 ], [ 94.1135, 25.83241 ], [ 94.11042, 25.8351 ], [ 94.10567, 25.83742 ], [ 94.10695, 25.83833 ], [ 94.11011, 25.8385 ], [ 94.11242, 25.84502 ], [ 94.11543, 25.84486 ], [ 94.12232, 25.84739 ], [ 94.12978, 25.85427 ], [ 94.13022, 25.85639 ], [ 94.12759, 25.86424 ], [ 94.12749, 25.8692 ], [ 94.12925, 25.86808 ], [ 94.13007, 25.86617 ], [ 94.13362, 25.86613 ], [ 94.13688, 25.86362 ], [ 94.14132, 25.86194 ], [ 94.1426, 25.86043 ], [ 94.14616, 25.85962 ], [ 94.14577, 25.85726 ], [ 94.14302, 25.85451 ], [ 94.14137, 25.85094 ], [ 94.15057, 25.8537 ], [ 94.15313, 25.85055 ], [ 94.15674, 25.84958 ], [ 94.15855, 25.84999 ], [ 94.15498, 25.84566 ], [ 94.16157, 25.8425 ], [ 94.16455, 25.83916 ], [ 94.16551, 25.82916 ], [ 94.16477, 25.82753 ], [ 94.16344, 25.82737 ], [ 94.16307, 25.82396 ], [ 94.16513, 25.81871 ], [ 94.16697, 25.81768 ], [ 94.16868, 25.81529 ], [ 94.17422, 25.81393 ], [ 94.17819, 25.80962 ], [ 94.17751, 25.80748 ], [ 94.17828, 25.80621 ], [ 94.18184, 25.8058 ], [ 94.18319, 25.80723 ], [ 94.18695, 25.80685 ], [ 94.18974, 25.80817 ], [ 94.19214, 25.80757 ], [ 94.19509, 25.80849 ], [ 94.19899, 25.80828 ], [ 94.19542, 25.79078 ], [ 94.19401, 25.78811 ], [ 94.19755, 25.78716 ], [ 94.2027, 25.78188 ], [ 94.20383, 25.77974 ], [ 94.20658, 25.78003 ], [ 94.20667, 25.77939 ], [ 94.20536, 25.77622 ], [ 94.20182, 25.77392 ], [ 94.20009, 25.77141 ], [ 94.19949, 25.76962 ], [ 94.20132, 25.76769 ], [ 94.19955, 25.76585 ], [ 94.19887, 25.76681 ], [ 94.1948, 25.76493 ], [ 94.19438, 25.7628 ], [ 94.19177, 25.75916 ], [ 94.18912, 25.7581 ], [ 94.18896, 25.75524 ], [ 94.18635, 25.75381 ], [ 94.18826, 25.75004 ], [ 94.18647, 25.74885 ], [ 94.18219, 25.73996 ], [ 94.18287, 25.7377 ], [ 94.1861, 25.73606 ], [ 94.18456, 25.73312 ], [ 94.18564, 25.72896 ], [ 94.18948, 25.72552 ], [ 94.18719, 25.72214 ], [ 94.19075, 25.72161 ], [ 94.1897, 25.71645 ], [ 94.19111, 25.7098 ], [ 94.18727, 25.70808 ], [ 94.18268, 25.70823 ], [ 94.18265, 25.70963 ], [ 94.18099, 25.70862 ], [ 94.17695, 25.70871 ], [ 94.17513, 25.70961 ], [ 94.17104, 25.70977 ], [ 94.1678, 25.71214 ], [ 94.16608, 25.71019 ], [ 94.15596, 25.70606 ], [ 94.14901, 25.70503 ], [ 94.14768, 25.70617 ], [ 94.14546, 25.7064 ], [ 94.14551, 25.71152 ], [ 94.14178, 25.71183 ], [ 94.13973, 25.71309 ], [ 94.13882, 25.71561 ], [ 94.13899, 25.71837 ], [ 94.13769, 25.7189 ], [ 94.13697, 25.71842 ], [ 94.13496, 25.70936 ], [ 94.12651, 25.70892 ], [ 94.12348, 25.70729 ], [ 94.12149, 25.70994 ], [ 94.1156, 25.70802 ], [ 94.10158, 25.70975 ], [ 94.09826, 25.70902 ], [ 94.09499, 25.70576 ], [ 94.08738, 25.701 ], [ 94.08375, 25.70104 ], [ 94.07814, 25.70275 ], [ 94.07412, 25.70072 ], [ 94.07084, 25.70089 ], [ 94.06839, 25.70487 ], [ 94.06457, 25.70872 ], [ 94.05859, 25.71824 ], [ 94.05595, 25.72021 ], [ 94.05209, 25.73135 ], [ 94.05056, 25.73362 ], [ 94.04699, 25.73481 ], [ 94.04693, 25.73945 ], [ 94.04399, 25.7397 ], [ 94.04386, 25.74196 ], [ 94.04115, 25.74696 ], [ 94.03739, 25.74956 ], [ 94.03834, 25.75194 ], [ 94.0365, 25.75448 ], [ 94.03502, 25.75992 ], [ 94.03363, 25.76092 ], [ 94.03377, 25.763 ], [ 94.03082, 25.76645 ], [ 94.03214, 25.76838 ], [ 94.03204, 25.76949 ], [ 94.02881, 25.77173 ], [ 94.02992, 25.77358 ], [ 94.02847, 25.77594 ], [ 94.02732, 25.77574 ], [ 94.02645, 25.77653 ], [ 94.0248, 25.78105 ], [ 94.0222, 25.78458 ], [ 94.02025, 25.78582 ], [ 94.01635, 25.78611 ], [ 94.01513, 25.78952 ], [ 94.01219, 25.78976 ], [ 94.01146, 25.79207 ], [ 94.00859, 25.79346 ], [ 94.00184, 25.79299 ], [ 93.99776, 25.79455 ], [ 93.99494, 25.79451 ], [ 93.98866, 25.79165 ], [ 93.98556, 25.79766 ], [ 93.98563, 25.80008 ], [ 93.98219, 25.80613 ], [ 93.98185, 25.80908 ], [ 93.97939, 25.81311 ], [ 93.97888, 25.81869 ], [ 93.97717, 25.823 ], [ 93.9734, 25.82793 ], [ 93.97091, 25.82934 ], [ 93.97176, 25.83366 ], [ 93.97037, 25.836 ], [ 93.97112, 25.83861 ], [ 93.97003, 25.84035 ], [ 93.97145, 25.84541 ], [ 93.97115, 25.8484 ], [ 93.97213, 25.85045 ], [ 93.97227, 25.8538 ], [ 93.97503, 25.85822 ], [ 93.97329, 25.86263 ], [ 93.97463, 25.86417 ], [ 93.97424, 25.86755 ], [ 93.97562, 25.86883 ], [ 93.98309, 25.87038 ], [ 93.98509, 25.87225 ], [ 93.98546, 25.87402 ], [ 93.98811, 25.87552 ], [ 93.98931, 25.87783 ], [ 93.99274, 25.87808 ], [ 93.99454, 25.88092 ], [ 93.9961, 25.87839 ], [ 94.0001, 25.87818 ], [ 94.00175, 25.87871 ], [ 94.00357, 25.88152 ], [ 94.00575, 25.88161 ], [ 94.00693, 25.88325 ], [ 94.00894, 25.88353 ], [ 94.00903, 25.88555 ], [ 94.01, 25.88632 ], [ 94.00912, 25.88829 ], [ 94.00955, 25.89061 ], [ 94.00549, 25.89425 ], [ 94.00123, 25.89471 ], [ 94.0009, 25.89294 ], [ 94.00244, 25.89043 ], [ 94.00183, 25.88911 ], [ 94.00043, 25.88987 ], [ 93.99956, 25.89154 ], [ 93.99883, 25.89376 ], [ 94.00034, 25.89761 ], [ 94.0005, 25.90083 ], [ 94.00371, 25.90421 ], [ 94.00596, 25.90322 ], [ 94.00835, 25.9033 ], [ 94.01384, 25.91039 ], [ 94.01903, 25.91237 ], [ 94.02077, 25.91737 ], [ 94.02363, 25.92215 ], [ 94.02477, 25.9177 ], [ 94.02759, 25.91495 ], [ 94.03066, 25.91383 ], [ 94.02797, 25.90798 ], [ 94.02095, 25.90301 ] ] ] } },
{ "type": "Feature", "properties": { "OBJECTID": 6129, "state_lgd": "13", "state_name": "NAGALAND", "district_lgd": "270", "district_name": "KOHIMA", "district_name_source": "district_table", "subdistrict_lgd": "01848", "subdistrict_name": "JAKHAMA", "subdistrict_type": "", "name_corrupted": false, "remarks": "", "label_lon": 94.125314161652767, "label_lat": 25.59010018100183 }, "geometry": { "type": "Polygon", "coordinates": [ [ [ 94.16394, 25.64937 ], [ 94.16317, 25.64493 ], [ 94.16477, 25.64097 ], [ 94.16415, 25.63847 ], [ 94.17227, 25.63583 ], [ 94.17216, 25.6298 ], [ 94.17562, 25.62846 ], [ 94.17489, 25.62324 ], [ 94.17546, 25.61992 ], [ 94.17828, 25.61911 ], [ 94.18223, 25.61632 ], [ 94.17986, 25.61541 ], [ 94.18053, 25.61291 ], [ 94.17403, 25.60529 ], [ 94.1732, 25.60313 ], [ 94.17099, 25.60196 ], [ 94.16929, 25.59976 ], [ 94.16685, 25.59908 ], [ 94.16649, 25.59817 ], [ 94.16765, 25.5951 ], [ 94.16798, 25.58927 ], [ 94.17264, 25.58852 ], [ 94.17554, 25.58606 ], [ 94.17612, 25.58426 ], [ 94.17522, 25.58232 ], [ 94.17561, 25.57998 ], [ 94.17389, 25.57832 ], [ 94.1742, 25.57626 ], [ 94.17244, 25.57365 ], [ 94.17261, 25.57205 ], [ 94.17127, 25.57263 ], [ 94.16832, 25.56671 ], [ 94.16621, 25.56565 ], [ 94.16681, 25.56097 ], [ 94.16598, 25.55707 ], [ 94.16203, 25.55563 ], [ 94.16268, 25.5522 ], [ 94.16228, 25.54988 ], [ 94.16071, 25.54789 ], [ 94.15816, 25.5495 ], [ 94.15676, 25.55153 ], [ 94.15502, 25.54996 ], [ 94.15339, 25.54522 ], [ 94.14974, 25.54309 ], [ 94.14942, 25.53976 ], [ 94.14736, 25.53702 ], [ 94.14609, 25.53233 ], [ 94.1436, 25.52955 ], [ 94.1437, 25.52235 ], [ 94.14038, 25.51921 ], [ 94.13727, 25.51805 ], [ 94.13303, 25.51853 ], [ 94.1219, 25.5228 ], [ 94.11174, 25.52324 ], [ 94.10945, 25.52306 ], [ 94.10813, 25.5217 ], [ 94.10751, 25.52377 ], [ 94.10358, 25.52615 ], [ 94.08827, 25.5305 ], [ 94.08482, 25.53021 ], [ 94.09068, 25.53226 ], [ 94.09368, 25.53635 ], [ 94.09409, 25.5371 ], [ 94.09275, 25.54242 ], [ 94.0919, 25.54441 ], [ 94.08729, 25.54934 ], [ 94.0855, 25.55365 ], [ 94.08844, 25.55602 ], [ 94.08579, 25.55801 ], [ 94.08444, 25.56092 ], [ 94.08507, 25.56499 ], [ 94.08252, 25.5682 ], [ 94.08227, 25.57007 ], [ 94.07711, 25.57395 ], [ 94.07548, 25.57687 ], [ 94.07582, 25.57872 ], [ 94.07414, 25.58074 ], [ 94.07375, 25.58412 ], [ 94.07155, 25.58459 ], [ 94.07113, 25.58682 ], [ 94.0674, 25.5901 ], [ 94.06818, 25.59204 ], [ 94.06639, 25.59559 ], [ 94.07293, 25.60153 ], [ 94.07776, 25.61147 ], [ 94.0767, 25.6169 ], [ 94.07681, 25.61995 ], [ 94.0783, 25.6242 ], [ 94.07787, 25.63128 ], [ 94.08222, 25.63908 ], [ 94.09442, 25.63605 ], [ 94.10203, 25.63246 ], [ 94.10404, 25.63224 ], [ 94.10855, 25.63884 ], [ 94.11064, 25.639 ], [ 94.11246, 25.63624 ], [ 94.11618, 25.63839 ], [ 94.11749, 25.63974 ], [ 94.11647, 25.64057 ], [ 94.11985, 25.64406 ], [ 94.1214, 25.64856 ], [ 94.12974, 25.65653 ], [ 94.13598, 25.66013 ], [ 94.14184, 25.65794 ], [ 94.14468, 25.65571 ], [ 94.15133, 25.65594 ], [ 94.15297, 25.65196 ], [ 94.15467, 25.65222 ], [ 94.15452, 25.65038 ], [ 94.15587, 25.64896 ], [ 94.15672, 25.64518 ], [ 94.1582, 25.6457 ], [ 94.16026, 25.65025 ], [ 94.16155, 25.65084 ], [ 94.16394, 25.64937 ] ] ] } },
{ "type": "Feature", "properties": { "OBJECTID": 6130, "state_lgd": "13", "state_name": "NAGALAND", "district_lgd": "270", "district_name": "KOHIMA", "district_name_source": "district_table", "subdistrict_lgd": "01847", "subdistrict_name": "KEZOCHA", "subdistrict_type": "", "name_corrupted": false, "remarks": "", "label_lon": 94.207778102563324, "label_lat": 25.681056910951483 }, "geometry": { "type": "Polygon", "coordinates": [ [ [ 94.27161, 25.78759 ], [ 94.26972, 25.78495 ], [ 94.26987, 25.78386 ], [ 94.26716, 25.78103 ], [ 94.26715, 25.77807 ], [ 94.26484, 25.77728 ], [ 94.26627, 25.77515 ], [ 94.26531, 25.77371 ], [ 94.26789, 25.77113 ], [ 94.26861, 25.76785 ], [ 94.2679, 25.76662 ], [ 94.26834, 25.76307 ], [ 94.26534, 25.76266 ], [ 94.25997, 25.76497 ], [ 94.25895, 25.75912 ], [ 94.25518, 25.75553 ], [ 94.25296, 25.7507 ], [ 94.2491, 25.74918 ], [ 94.24862, 25.7466 ], [ 94.24708, 25.74518 ], [ 94.24727, 25.74252 ], [ 94.24899, 25.74192 ], [ 94.24897, 25.74126 ], [ 94.24618, 25.74147 ], [ 94.24737, 25.73933 ], [ 94.24493, 25.73743 ], [ 94.2434, 25.73284 ], [ 94.24142, 25.73148 ], [ 94.23985, 25.72794 ], [ 94.23776, 25.7266 ], [ 94.23515, 25.72045 ], [ 94.23038, 25.71453 ], [ 94.23008, 25.71338 ], [ 94.23163, 25.71115 ], [ 94.22922, 25.70844 ], [ 94.22575, 25.70848 ], [ 94.22076, 25.70144 ], [ 94.21869, 25.69702 ], [ 94.22682, 25.69094 ], [ 94.22504, 25.68832 ], [ 94.21893, 25.68315 ], [ 94.21678, 25.67878 ], [ 94.21753, 25.6766 ], [ 94.21326, 25.6725 ], [ 94.21393, 25.66884 ], [ 94.21941, 25.66606 ], [ 94.2192, 25.66209 ], [ 94.21772, 25.65851 ], [ 94.2103, 25.65471 ], [ 94.21026, 25.65351 ], [ 94.21304, 25.65402 ], [ 94.21506, 25.65277 ], [ 94.21774, 25.65255 ], [ 94.21864, 25.64957 ], [ 94.21645, 25.64357 ], [ 94.21842, 25.64058 ], [ 94.21608, 25.63891 ], [ 94.21552, 25.63527 ], [ 94.21355, 25.63555 ], [ 94.21421, 25.63127 ], [ 94.21129, 25.63113 ], [ 94.21002, 25.62967 ], [ 94.20883, 25.6297 ], [ 94.20824, 25.62798 ], [ 94.2105, 25.62491 ], [ 94.2082, 25.61858 ], [ 94.2099, 25.61549 ], [ 94.20962, 25.61335 ], [ 94.21266, 25.61293 ], [ 94.2144, 25.61004 ], [ 94.21249, 25.60749 ], [ 94.21268, 25.6051 ], [ 94.21087, 25.60327 ], [ 94.21231, 25.60113 ], [ 94.2122, 25.59974 ], [ 94.2106, 25.59927 ], [ 94.20954, 25.59691 ], [ 94.20706, 25.5955 ], [ 94.20696, 25.59168 ], [ 94.197, 25.58233 ], [ 94.19663, 25.57933 ], [ 94.19726, 25.57772 ], [ 94.19648, 25.57629 ], [ 94.19732, 25.57429 ], [ 94.19522, 25.57375 ], [ 94.19508, 25.57146 ], [ 94.19382, 25.56945 ], [ 94.19452, 25.5646 ], [ 94.19387, 25.56221 ], [ 94.1967, 25.55823 ], [ 94.19483, 25.55358 ], [ 94.19701, 25.55253 ], [ 94.19992, 25.55248 ], [ 94.19774, 25.55033 ], [ 94.19701, 25.54673 ], [ 94.19962, 25.54032 ], [ 94.20022, 25.5363 ], [ 94.18712, 25.53334 ], [ 94.18988, 25.5388 ], [ 94.19117, 25.53976 ], [ 94.19209, 25.54841 ], [ 94.18445, 25.54797 ], [ 94.17805, 25.55057 ], [ 94.17643, 25.54621 ], [ 94.17328, 25.54552 ], [ 94.17173, 25.54385 ], [ 94.16702, 25.54281 ], [ 94.16473, 25.54128 ], [ 94.16312, 25.5418 ], [ 94.16071, 25.54789 ], [ 94.16264, 25.55043 ], [ 94.16203, 25.55563 ], [ 94.16598, 25.55707 ], [ 94.16681, 25.56097 ], [ 94.16621, 25.56565 ], [ 94.16832, 25.56671 ], [ 94.17127, 25.57263 ], [ 94.17261, 25.57205 ], [ 94.17244, 25.57365 ], [ 94.1742, 25.57626 ], [ 94.17389, 25.57832 ], [ 94.17561, 25.57998 ], [ 94.17522, 25.58232 ], [ 94.17615, 25.58464 ], [ 94.1749, 25.58681 ], [ 94.17264, 25.58852 ], [ 94.16798, 25.58927 ], [ 94.16765, 25.5951 ], [ 94.16649, 25.59817 ], [ 94.16685, 25.59908 ], [ 94.16929, 25.59976 ], [ 94.17099, 25.60196 ], [ 94.1732, 25.60313 ], [ 94.17403, 25.60529 ], [ 94.18053, 25.61291 ], [ 94.17986, 25.61541 ], [ 94.18223, 25.61632 ], [ 94.17828, 25.61911 ], [ 94.17546, 25.61992 ], [ 94.17489, 25.62324 ], [ 94.17562, 25.62846 ], [ 94.17216, 25.6298 ], [ 94.17227, 25.63583 ], [ 94.16415, 25.63847 ], [ 94.16477, 25.64097 ], [ 94.16317, 25.64493 ], [ 94.16394, 25.64937 ], [ 94.1823, 25.64904 ], [ 94.18669, 25.64966 ], [ 94.18854, 25.65085 ], [ 94.18764, 25.65185 ], [ 94.18781, 25.65429 ], [ 94.18927, 25.65816 ], [ 94.18699, 25.6586 ], [ 94.18856, 25.66184 ], [ 94.1925, 25.66072 ], [ 94.19253, 25.66389 ], [ 94.19326, 25.66481 ], [ 94.19193, 25.66667 ], [ 94.19268, 25.66791 ], [ 94.19111, 25.66921 ], [ 94.19113, 25.67104 ], [ 94.19042, 25.67171 ], [ 94.19198, 25.6762 ], [ 94.19319, 25.67698 ], [ 94.19233, 25.67897 ], [ 94.18409, 25.6823 ], [ 94.18368, 25.68507 ], [ 94.1858, 25.68792 ], [ 94.18557, 25.69121 ], [ 94.18643, 25.69372 ], [ 94.18781, 25.69455 ], [ 94.19088, 25.69393 ], [ 94.20203, 25.69524 ], [ 94.20198, 25.69786 ], [ 94.20471, 25.70158 ], [ 94.20079, 25.70386 ], [ 94.19834, 25.71058 ], [ 94.19707, 25.71045 ], [ 94.1961, 25.70816 ], [ 94.19132, 25.70648 ], [ 94.18727, 25.70808 ], [ 94.19111, 25.7098 ], [ 94.1897, 25.71645 ], [ 94.19075, 25.72161 ], [ 94.18719, 25.72214 ], [ 94.18948, 25.72552 ], [ 94.18564, 25.72896 ], [ 94.18456, 25.73312 ], [ 94.1861, 25.73606 ], [ 94.18287, 25.7377 ], [ 94.18219, 25.73996 ], [ 94.18647, 25.74885 ], [ 94.18826, 25.75004 ], [ 94.18635, 25.75381 ], [ 94.18896, 25.75524 ], [ 94.18912, 25.7581 ], [ 94.19177, 25.75916 ], [ 94.19438, 25.7628 ], [ 94.1948, 25.76493 ], [ 94.19887, 25.76681 ], [ 94.19955, 25.76585 ], [ 94.20243, 25.76823 ], [ 94.20639, 25.76652 ], [ 94.21067, 25.76147 ], [ 94.21613, 25.76204 ], [ 94.21636, 25.76402 ], [ 94.21841, 25.76567 ], [ 94.21755, 25.76767 ], [ 94.2179, 25.76887 ], [ 94.22081, 25.76909 ], [ 94.21995, 25.77199 ], [ 94.22189, 25.77269 ], [ 94.22282, 25.77543 ], [ 94.22461, 25.77622 ], [ 94.22519, 25.77859 ], [ 94.22904, 25.78118 ], [ 94.23023, 25.78574 ], [ 94.23259, 25.78676 ], [ 94.23395, 25.78836 ], [ 94.23777, 25.78759 ], [ 94.2466, 25.7907 ], [ 94.24767, 25.79152 ], [ 94.24776, 25.79377 ], [ 94.25138, 25.79479 ], [ 94.25357, 25.79892 ], [ 94.25704, 25.79675 ], [ 94.26187, 25.79575 ], [ 94.26722, 25.79352 ], [ 94.26763, 25.79278 ], [ 94.26596, 25.7919 ], [ 94.26628, 25.79096 ], [ 94.27161, 25.78759 ] ] ] } }
]
}
