{
"type": "FeatureCollection",
"name": "712_SHAMATOR",
"crs": { "type": "name", "properties": { "name": "urn:ogc:def:crs:OGC:1.3:CRS84" } },
"xy_coordinate_resolution": 1e-05,
"features": [
{ "type": "Feature", "properties": { "OBJECTID": 6059, "state_lgd": "13", "state_name": "NAGALAND", "district_lgd": "712", "district_name": "SHAMATOR", "district_name_source": "district_table", "subdistrict_lgd": "01820", "subdistrict_name": "SOTOKUR", "subdistrict_type": "", "name_corrupted": false, "remarks": "", "label_lon": 94.766194056989079, "label_lat": 26.154409116724018 }, "geometry": { "type": "Polygon", "coordinates": [ [ [ 94.75795, 26.17893 ], [ 94.76572, 26.1785 ], [ 94.77076, 26.1846 ], [ 94.7769, 26.18841 ], [ 94.77987, 26.18856 ], [ 94.77768, 26.18518 ], [ 94.77423, 26.18263 ], [ 94.77403, 26.18053 ], [ 94.77664, 26.17829 ], [ 94.77827, 26.17421 ], [ 94.78117, 26.1737 ], [ 94.78624, 26.17005 ], [ 94.78635, 26.16522 ], [ 94.78354, 26.16168 ], [ 94.78571, 26.15946 ], [ 94.78914, 26.15787 ], [ 94.79408, 26.15685 ], [ 94.79439, 26.16022 ], [ 94.79643, 26.16457 ], [ 94.79166, 26.17252 ], [ 94.79182, 26.17494 ], [ 94.78994, 26.17632 ], [ 94.7975, 26.18334 ], [ 94.80134, 26.18755 ], [ 94.8022, 26.18961 ], [ 94.8068, 26.19342 ], [ 94.80813, 26.19654 ], [ 94.81535, 26.19566 ], [ 94.81801, 26.19415 ], [ 94.82034, 26.19508 ], [ 94.82336, 26.19473 ], [ 94.82568, 26.19667 ], [ 94.82956, 26.1977 ], [ 94.83586, 26.19748 ], [ 94.84409, 26.19462 ], [ 94.8462, 26.19602 ], [ 94.84889, 26.19432 ], [ 94.85183, 26.19519 ], [ 94.85212, 26.19238 ], [ 94.85377, 26.18952 ], [ 94.85239, 26.18572 ], [ 94.85264, 26.18138 ], [ 94.85477, 26.17663 ], [ 94.85534, 26.1722 ], [ 94.85717, 26.16888 ], [ 94.85478, 26.16683 ], [ 94.85027, 26.16485 ], [ 94.84629, 26.16553 ], [ 94.84439, 26.16499 ], [ 94.84244, 26.16184 ], [ 94.83838, 26.16053 ], [ 94.83356, 26.15537 ], [ 94.82793, 26.15298 ], [ 94.82191, 26.14548 ], [ 94.8188, 26.14388 ], [ 94.81649, 26.14054 ], [ 94.80979, 26.13687 ], [ 94.80806, 26.1336 ], [ 94.80769, 26.13606 ], [ 94.80682, 26.13647 ], [ 94.80543, 26.13499 ], [ 94.79746, 26.13144 ], [ 94.79493, 26.12889 ], [ 94.77865, 26.12839 ], [ 94.7738, 26.12609 ], [ 94.7682, 26.12518 ], [ 94.7669, 26.12225 ], [ 94.76733, 26.11134 ], [ 94.76619, 26.11134 ], [ 94.76082, 26.11522 ], [ 94.76004, 26.11994 ], [ 94.76086, 26.12488 ], [ 94.75861, 26.12509 ], [ 94.74986, 26.12223 ], [ 94.74801, 26.12501 ], [ 94.74745, 26.13139 ], [ 94.74511, 26.1319 ], [ 94.74231, 26.13439 ], [ 94.74108, 26.13458 ], [ 94.73615, 26.13346 ], [ 94.73371, 26.13145 ], [ 94.73187, 26.12577 ], [ 94.73024, 26.12605 ], [ 94.72571, 26.12474 ], [ 94.72234, 26.11896 ], [ 94.72571, 26.11319 ], [ 94.71816, 26.11145 ], [ 94.71303, 26.10888 ], [ 94.70841, 26.10596 ], [ 94.70491, 26.10244 ], [ 94.70148, 26.10258 ], [ 94.6972, 26.10143 ], [ 94.69535, 26.10253 ], [ 94.69504, 26.10529 ], [ 94.69224, 26.10849 ], [ 94.69267, 26.11429 ], [ 94.6886, 26.11616 ], [ 94.68752, 26.11569 ], [ 94.68843, 26.12607 ], [ 94.68756, 26.12922 ], [ 94.68912, 26.13661 ], [ 94.68833, 26.13766 ], [ 94.69106, 26.13918 ], [ 94.68787, 26.14147 ], [ 94.68681, 26.14337 ], [ 94.68771, 26.1444 ], [ 94.68885, 26.14992 ], [ 94.69509, 26.15953 ], [ 94.70231, 26.16267 ], [ 94.70164, 26.16406 ], [ 94.7024, 26.16694 ], [ 94.70679, 26.16617 ], [ 94.71157, 26.16788 ], [ 94.71535, 26.16826 ], [ 94.71799, 26.16743 ], [ 94.72007, 26.16785 ], [ 94.72357, 26.16712 ], [ 94.72542, 26.16811 ], [ 94.72654, 26.1676 ], [ 94.72769, 26.16889 ], [ 94.73171, 26.17063 ], [ 94.73423, 26.1736 ], [ 94.73984, 26.17509 ], [ 94.73981, 26.18358 ], [ 94.74053, 26.18522 ], [ 94.74504, 26.18866 ], [ 94.74541, 26.19284 ], [ 94.74773, 26.19552 ], [ 94.74921, 26.20007 ], [ 94.75264, 26.19857 ], [ 94.7533, 26.19649 ], [ 94.75495, 26.19588 ], [ 94.75554, 26.19332 ], [ 94.7572, 26.19097 ], [ 94.75935, 26.1903 ], [ 94.75642, 26.18665 ], [ 94.75167, 26.18605 ], [ 94.75119, 26.18521 ], [ 94.75613, 26.17978 ], [ 94.75795, 26.17893 ] ] ] } },
{ "type": "Feature", "properties": { "OBJECTID": 6060, "state_lgd": "13", "state_name": "NAGALAND", "district_lgd": "712", "district_name": "SHAMATOR", "district_name_source": "district_table", "subdistrict_lgd": "01826", "subdistrict_name": "TSURUNGTO", "subdistrict_type": "", "name_corrupted": false, "remarks": "", "label_lon": 94.822897684206012, "label_lat": 25.988258168676982 }, "geometry": { "type": "Polygon", "coordinates": [ [ [ 94.84916, 26.02987 ], [ 94.84924, 26.02722 ], [ 94.85553, 26.02188 ], [ 94.8557, 26.01885 ], [ 94.85929, 26.01894 ], [ 94.86356, 26.01546 ], [ 94.86489, 26.01633 ], [ 94.8668, 26.01618 ], [ 94.86995, 26.01823 ], [ 94.8709, 26.01698 ], [ 94.87111, 26.01437 ], [ 94.87783, 26.01319 ], [ 94.87843, 26.01202 ], [ 94.87679, 26.01132 ], [ 94.87941, 26.0085 ], [ 94.88357, 26.00742 ], [ 94.88572, 26.00483 ], [ 94.88805, 26.00486 ], [ 94.88766, 26.00396 ], [ 94.88489, 26.00257 ], [ 94.87922, 26.00175 ], [ 94.87916, 25.99976 ], [ 94.88171, 25.99704 ], [ 94.87998, 25.99623 ], [ 94.87727, 25.99277 ], [ 94.87526, 25.98622 ], [ 94.87111, 25.9845 ], [ 94.87139, 25.98242 ], [ 94.867, 25.97443 ], [ 94.86455, 25.9715 ], [ 94.86414, 25.96835 ], [ 94.86073, 25.96502 ], [ 94.86162, 25.96289 ], [ 94.86136, 25.95999 ], [ 94.85942, 25.95846 ], [ 94.85863, 25.95563 ], [ 94.85648, 25.95438 ], [ 94.85806, 25.95208 ], [ 94.85555, 25.95028 ], [ 94.85229, 25.94614 ], [ 94.85069, 25.93959 ], [ 94.84542, 25.93977 ], [ 94.84672, 25.93861 ], [ 94.84504, 25.93628 ], [ 94.84557, 25.93446 ], [ 94.84338, 25.93314 ], [ 94.8429, 25.93045 ], [ 94.84035, 25.93034 ], [ 94.83953, 25.93095 ], [ 94.83912, 25.93529 ], [ 94.83713, 25.93732 ], [ 94.83725, 25.94034 ], [ 94.8352, 25.94338 ], [ 94.82909, 25.94585 ], [ 94.82724, 25.94795 ], [ 94.81851, 25.94828 ], [ 94.81188, 25.95204 ], [ 94.81176, 25.95482 ], [ 94.81093, 25.95528 ], [ 94.81013, 25.95436 ], [ 94.81027, 25.95179 ], [ 94.80382, 25.95051 ], [ 94.79756, 25.94661 ], [ 94.79351, 25.94021 ], [ 94.78964, 25.93671 ], [ 94.78555, 25.93886 ], [ 94.78448, 25.93999 ], [ 94.78407, 25.94328 ], [ 94.78674, 25.95113 ], [ 94.78336, 25.95332 ], [ 94.78263, 25.95554 ], [ 94.78753, 25.95656 ], [ 94.7921, 25.96165 ], [ 94.79222, 25.96285 ], [ 94.78897, 25.96462 ], [ 94.78449, 25.969 ], [ 94.7818, 25.96916 ], [ 94.78145, 25.97222 ], [ 94.77802, 25.97354 ], [ 94.78067, 25.97485 ], [ 94.77879, 25.97819 ], [ 94.77935, 25.98147 ], [ 94.7785, 25.98366 ], [ 94.77616, 25.98372 ], [ 94.77384, 25.98141 ], [ 94.77141, 25.98084 ], [ 94.77107, 25.97937 ], [ 94.76936, 25.97799 ], [ 94.76641, 25.98204 ], [ 94.76397, 25.98778 ], [ 94.76296, 25.99102 ], [ 94.76316, 25.99382 ], [ 94.75993, 25.99976 ], [ 94.76014, 26.00301 ], [ 94.7625, 26.00392 ], [ 94.76925, 26.00989 ], [ 94.77061, 26.01412 ], [ 94.77268, 26.01542 ], [ 94.77576, 26.01525 ], [ 94.77663, 26.01722 ], [ 94.7805, 26.01932 ], [ 94.78137, 26.0211 ], [ 94.78733, 26.02445 ], [ 94.79558, 26.02258 ], [ 94.79938, 26.01994 ], [ 94.80102, 26.01512 ], [ 94.80224, 26.01448 ], [ 94.80356, 26.0151 ], [ 94.80518, 26.0178 ], [ 94.80689, 26.02366 ], [ 94.81061, 26.02876 ], [ 94.81297, 26.0287 ], [ 94.81503, 26.02718 ], [ 94.82251, 26.02791 ], [ 94.824, 26.02962 ], [ 94.82787, 26.03015 ], [ 94.83092, 26.03165 ], [ 94.83231, 26.03296 ], [ 94.83216, 26.03473 ], [ 94.83589, 26.03535 ], [ 94.8364, 26.0366 ], [ 94.83578, 26.0375 ], [ 94.83832, 26.03967 ], [ 94.83934, 26.03973 ], [ 94.84528, 26.03609 ], [ 94.84607, 26.03293 ], [ 94.84916, 26.02987 ] ] ] } },
{ "type": "Feature", "properties": { "OBJECTID": 6061, "state_lgd": "13", "state_name": "NAGALAND", "district_lgd": "712", "district_name": "SHAMATOR", "district_name_source": "district_table", "subdistrict_lgd": "01825", "subdistrict_name": "SHAMATOR", "subdistrict_type": "", "name_corrupted": false, "remarks": "", "label_lon": 94.86361194956126, "label_lat": 26.093872088117099 }, "geometry": { "type": "Polygon", "coordinates": [ [ [ 94.90295, 26.18444 ], [ 94.90026, 26.18266 ], [ 94.89656, 26.18264 ], [ 94.89203, 26.17786 ], [ 94.88969, 26.17264 ], [ 94.88086, 26.16612 ], [ 94.87873, 26.16533 ], [ 94.87859, 26.1629 ], [ 94.88122, 26.15973 ], [ 94.88272, 26.15493 ], [ 94.887, 26.14883 ], [ 94.88886, 26.14281 ], [ 94.8914, 26.13843 ], [ 94.89117, 26.13327 ], [ 94.89175, 26.13238 ], [ 94.89042, 26.13009 ], [ 94.88461, 26.13104 ], [ 94.8858, 26.12771 ], [ 94.8847, 26.12401 ], [ 94.885, 26.12109 ], [ 94.88347, 26.11878 ], [ 94.88305, 26.11542 ], [ 94.88004, 26.11509 ], [ 94.87923, 26.11334 ], [ 94.88231, 26.10897 ], [ 94.88524, 26.10664 ], [ 94.88995, 26.10551 ], [ 94.89471, 26.10223 ], [ 94.89351, 26.09989 ], [ 94.88968, 26.09751 ], [ 94.88898, 26.09576 ], [ 94.89243, 26.09256 ], [ 94.89329, 26.09045 ], [ 94.89259, 26.08488 ], [ 94.89079, 26.08152 ], [ 94.89119, 26.07395 ], [ 94.8976, 26.06883 ], [ 94.89715, 26.06437 ], [ 94.90023, 26.06161 ], [ 94.89997, 26.0558 ], [ 94.90815, 26.05411 ], [ 94.9129, 26.05717 ], [ 94.91461, 26.06074 ], [ 94.92043, 26.06254 ], [ 94.92593, 26.05724 ], [ 94.92626, 26.05566 ], [ 94.92746, 26.05521 ], [ 94.92911, 26.05198 ], [ 94.93214, 26.04906 ], [ 94.93024, 26.04701 ], [ 94.92766, 26.04777 ], [ 94.92555, 26.04616 ], [ 94.92383, 26.0463 ], [ 94.92314, 26.04477 ], [ 94.92129, 26.04366 ], [ 94.91845, 26.04377 ], [ 94.91687, 26.04065 ], [ 94.91896, 26.03974 ], [ 94.9202, 26.03563 ], [ 94.92475, 26.03148 ], [ 94.92786, 26.02997 ], [ 94.93016, 26.02984 ], [ 94.93513, 26.02691 ], [ 94.92827, 26.02194 ], [ 94.92864, 26.01823 ], [ 94.91895, 26.01549 ], [ 94.91791, 26.01238 ], [ 94.91557, 26.01046 ], [ 94.91673, 26.00746 ], [ 94.91237, 26.00907 ], [ 94.9057, 26.00205 ], [ 94.90063, 26.00444 ], [ 94.89876, 26.00732 ], [ 94.89858, 26.00891 ], [ 94.89548, 26.01008 ], [ 94.89014, 26.00966 ], [ 94.88799, 26.01023 ], [ 94.88513, 26.00956 ], [ 94.88559, 26.00743 ], [ 94.8877, 26.0052 ], [ 94.88572, 26.00483 ], [ 94.88357, 26.00742 ], [ 94.8797, 26.00834 ], [ 94.87842, 26.00938 ], [ 94.87676, 26.01144 ], [ 94.87843, 26.01202 ], [ 94.87798, 26.01309 ], [ 94.87111, 26.01437 ], [ 94.8709, 26.01698 ], [ 94.86995, 26.01823 ], [ 94.8668, 26.01618 ], [ 94.86489, 26.01633 ], [ 94.86356, 26.01546 ], [ 94.85929, 26.01894 ], [ 94.8557, 26.01885 ], [ 94.85553, 26.02188 ], [ 94.85177, 26.02443 ], [ 94.84887, 26.02768 ], [ 94.84916, 26.02987 ], [ 94.84607, 26.03293 ], [ 94.84558, 26.03578 ], [ 94.84468, 26.03662 ], [ 94.83909, 26.0398 ], [ 94.83652, 26.03869 ], [ 94.83578, 26.0375 ], [ 94.83128, 26.03877 ], [ 94.83219, 26.04093 ], [ 94.83151, 26.04313 ], [ 94.83385, 26.04583 ], [ 94.83676, 26.05152 ], [ 94.8357, 26.05205 ], [ 94.83269, 26.05134 ], [ 94.82715, 26.05412 ], [ 94.82719, 26.05543 ], [ 94.82952, 26.05784 ], [ 94.82984, 26.05965 ], [ 94.82849, 26.06071 ], [ 94.82514, 26.06089 ], [ 94.82664, 26.06279 ], [ 94.82461, 26.06308 ], [ 94.82454, 26.06451 ], [ 94.82304, 26.06652 ], [ 94.82676, 26.06907 ], [ 94.82314, 26.07057 ], [ 94.82296, 26.07405 ], [ 94.81486, 26.07416 ], [ 94.81342, 26.07629 ], [ 94.81276, 26.07956 ], [ 94.80988, 26.07911 ], [ 94.80384, 26.08389 ], [ 94.8018, 26.08356 ], [ 94.79991, 26.08503 ], [ 94.79958, 26.08858 ], [ 94.79817, 26.08845 ], [ 94.79778, 26.08965 ], [ 94.79656, 26.08966 ], [ 94.79577, 26.09085 ], [ 94.79716, 26.10058 ], [ 94.79835, 26.10173 ], [ 94.79873, 26.10449 ], [ 94.80265, 26.11042 ], [ 94.80136, 26.11336 ], [ 94.80536, 26.11842 ], [ 94.8056, 26.1207 ], [ 94.80665, 26.12205 ], [ 94.8069, 26.12669 ], [ 94.80828, 26.12873 ], [ 94.80806, 26.1336 ], [ 94.80904, 26.13616 ], [ 94.81705, 26.14099 ], [ 94.8188, 26.14388 ], [ 94.82191, 26.14548 ], [ 94.82793, 26.15298 ], [ 94.83356, 26.15537 ], [ 94.83838, 26.16053 ], [ 94.84244, 26.16184 ], [ 94.84439, 26.16499 ], [ 94.84629, 26.16553 ], [ 94.85027, 26.16485 ], [ 94.85694, 26.16843 ], [ 94.85634, 26.17033 ], [ 94.85887, 26.17397 ], [ 94.86132, 26.17472 ], [ 94.86254, 26.17699 ], [ 94.86734, 26.17975 ], [ 94.87019, 26.18427 ], [ 94.87503, 26.18601 ], [ 94.87724, 26.18974 ], [ 94.88187, 26.19347 ], [ 94.88262, 26.19642 ], [ 94.88584, 26.19797 ], [ 94.88985, 26.20162 ], [ 94.89072, 26.20459 ], [ 94.89419, 26.20943 ], [ 94.90145, 26.21101 ], [ 94.90605, 26.20778 ], [ 94.90791, 26.20467 ], [ 94.90803, 26.20152 ], [ 94.91491, 26.19421 ], [ 94.91056, 26.19001 ], [ 94.90475, 26.18746 ], [ 94.90295, 26.18444 ] ] ] } },
{ "type": "Feature", "properties": { "OBJECTID": 6085, "state_lgd": "13", "state_name": "NAGALAND", "district_lgd": "712", "district_name": "SHAMATOR", "district_name_source": "district_table", "subdistrict_lgd": "01828", "subdistrict_name": "MANGKO", "subdistrict_type": "", "name_corrupted": false, "remarks": "", "label_lon": 94.777477051730671, "label_lat": 26.061604051687283 }, "geometry": { "type": "Polygon", "coordinates": [ [ [ 94.80769, 26.13606 ], [ 94.80828, 26.12873 ], [ 94.8069, 26.12669 ], [ 94.80665, 26.12205 ], [ 94.8056, 26.1207 ], [ 94.80536, 26.11842 ], [ 94.80136, 26.11336 ], [ 94.80265, 26.11042 ], [ 94.79873, 26.10449 ], [ 94.79835, 26.10173 ], [ 94.79716, 26.10058 ], [ 94.79577, 26.09085 ], [ 94.79656, 26.08966 ], [ 94.79778, 26.08965 ], [ 94.79817, 26.08845 ], [ 94.79958, 26.08858 ], [ 94.79991, 26.08503 ], [ 94.8018, 26.08356 ], [ 94.80384, 26.08389 ], [ 94.80988, 26.07911 ], [ 94.81276, 26.07956 ], [ 94.81453, 26.07439 ], [ 94.8229, 26.07411 ], [ 94.82314, 26.07057 ], [ 94.82669, 26.06947 ], [ 94.8263, 26.06829 ], [ 94.823, 26.0661 ], [ 94.82443, 26.06475 ], [ 94.82461, 26.06308 ], [ 94.82664, 26.06279 ], [ 94.82519, 26.06078 ], [ 94.82849, 26.06071 ], [ 94.82984, 26.05965 ], [ 94.82965, 26.05808 ], [ 94.82751, 26.05593 ], [ 94.82705, 26.05429 ], [ 94.83269, 26.05134 ], [ 94.8357, 26.05205 ], [ 94.83676, 26.05152 ], [ 94.83385, 26.04583 ], [ 94.83151, 26.04313 ], [ 94.83219, 26.04093 ], [ 94.83119, 26.03918 ], [ 94.83283, 26.03793 ], [ 94.83578, 26.0375 ], [ 94.8364, 26.0366 ], [ 94.83589, 26.03535 ], [ 94.83234, 26.03485 ], [ 94.83231, 26.03296 ], [ 94.83062, 26.03143 ], [ 94.82787, 26.03015 ], [ 94.824, 26.02962 ], [ 94.82251, 26.02791 ], [ 94.81503, 26.02718 ], [ 94.81297, 26.0287 ], [ 94.81082, 26.0289 ], [ 94.80689, 26.02366 ], [ 94.80518, 26.0178 ], [ 94.80356, 26.0151 ], [ 94.80224, 26.01448 ], [ 94.80102, 26.01512 ], [ 94.79938, 26.01994 ], [ 94.79558, 26.02258 ], [ 94.78733, 26.02445 ], [ 94.78137, 26.0211 ], [ 94.7805, 26.01932 ], [ 94.77663, 26.01722 ], [ 94.77576, 26.01525 ], [ 94.77024, 26.01515 ], [ 94.76845, 26.01769 ], [ 94.76125, 26.02092 ], [ 94.75904, 26.02336 ], [ 94.75453, 26.02408 ], [ 94.74928, 26.02662 ], [ 94.74762, 26.02989 ], [ 94.74781, 26.03484 ], [ 94.74326, 26.03965 ], [ 94.7397, 26.03968 ], [ 94.73733, 26.03785 ], [ 94.73385, 26.03738 ], [ 94.72235, 26.02399 ], [ 94.71614, 26.02649 ], [ 94.71306, 26.02536 ], [ 94.71235, 26.02702 ], [ 94.70966, 26.02807 ], [ 94.70833, 26.03011 ], [ 94.70766, 26.03376 ], [ 94.7084, 26.03689 ], [ 94.70569, 26.04428 ], [ 94.70696, 26.0494 ], [ 94.71169, 26.05312 ], [ 94.71737, 26.0538 ], [ 94.72072, 26.05797 ], [ 94.72549, 26.05868 ], [ 94.73172, 26.06569 ], [ 94.73834, 26.06735 ], [ 94.74112, 26.07049 ], [ 94.74919, 26.07459 ], [ 94.75136, 26.07691 ], [ 94.7535, 26.07749 ], [ 94.75529, 26.07973 ], [ 94.75866, 26.0814 ], [ 94.76063, 26.08358 ], [ 94.76396, 26.08498 ], [ 94.77303, 26.09278 ], [ 94.7824, 26.09631 ], [ 94.77706, 26.09898 ], [ 94.77645, 26.10099 ], [ 94.77346, 26.10329 ], [ 94.7718, 26.10899 ], [ 94.76854, 26.10977 ], [ 94.76746, 26.111 ], [ 94.76666, 26.11576 ], [ 94.7669, 26.12225 ], [ 94.7682, 26.12518 ], [ 94.7738, 26.12609 ], [ 94.77865, 26.12839 ], [ 94.79493, 26.12889 ], [ 94.79746, 26.13144 ], [ 94.80543, 26.13499 ], [ 94.80682, 26.13647 ], [ 94.80769, 26.13606 ] ] ] } },
{ "type": "Feature", "properties": { "OBJECTID": 6086, "state_lgd": "13", "state_name": "NAGALAND", "district_lgd": "712", "district_name": "SHAMATOR", "district_name_source": "district_table", "subdistrict_lgd": "01827", "subdistrict_name": "CHESSORE", "subdistrict_type": "", "name_corrupted": false, "remarks": "", "label_lon": 94.716939309150206, "label_lat": 26.077150437031879 }, "geometry": { "type": "Polygon", "coordinates": [ [ [ 94.74108, 26.13458 ], [ 94.74511, 26.1319 ], [ 94.74745, 26.13139 ], [ 94.74801, 26.12501 ], [ 94.74986, 26.12223 ], [ 94.75861, 26.12509 ], [ 94.76086, 26.12488 ], [ 94.76004, 26.11994 ], [ 94.76082, 26.11522 ], [ 94.76619, 26.11134 ], [ 94.76733, 26.11134 ], [ 94.76854, 26.10977 ], [ 94.77162, 26.10922 ], [ 94.77408, 26.10237 ], [ 94.77645, 26.10099 ], [ 94.77732, 26.09878 ], [ 94.7824, 26.09631 ], [ 94.77303, 26.09278 ], [ 94.76396, 26.08498 ], [ 94.76063, 26.08358 ], [ 94.75866, 26.0814 ], [ 94.75529, 26.07973 ], [ 94.7535, 26.07749 ], [ 94.75136, 26.07691 ], [ 94.74919, 26.07459 ], [ 94.74112, 26.07049 ], [ 94.73834, 26.06735 ], [ 94.73172, 26.06569 ], [ 94.72549, 26.05868 ], [ 94.72072, 26.05797 ], [ 94.71737, 26.0538 ], [ 94.71169, 26.05312 ], [ 94.70696, 26.0494 ], [ 94.70569, 26.04428 ], [ 94.7084, 26.03689 ], [ 94.70766, 26.03376 ], [ 94.70833, 26.03011 ], [ 94.70966, 26.02807 ], [ 94.71235, 26.02702 ], [ 94.71333, 26.02491 ], [ 94.7069, 26.02154 ], [ 94.7044, 26.01861 ], [ 94.70112, 26.01798 ], [ 94.70074, 26.01948 ], [ 94.69627, 26.02249 ], [ 94.69597, 26.02394 ], [ 94.69192, 26.02939 ], [ 94.69045, 26.0299 ], [ 94.68987, 26.03299 ], [ 94.68695, 26.03796 ], [ 94.67991, 26.03372 ], [ 94.68015, 26.03166 ], [ 94.67804, 26.02888 ], [ 94.6734, 26.02639 ], [ 94.67218, 26.02374 ], [ 94.66978, 26.02151 ], [ 94.66167, 26.02815 ], [ 94.6594, 26.02913 ], [ 94.65739, 26.03258 ], [ 94.6544, 26.03549 ], [ 94.6504, 26.03745 ], [ 94.64536, 26.03822 ], [ 94.64822, 26.04079 ], [ 94.64822, 26.04314 ], [ 94.64938, 26.04147 ], [ 94.65099, 26.04139 ], [ 94.65577, 26.0441 ], [ 94.66179, 26.04957 ], [ 94.66442, 26.0505 ], [ 94.66776, 26.0533 ], [ 94.6695, 26.05301 ], [ 94.6736, 26.05445 ], [ 94.67401, 26.05552 ], [ 94.672, 26.05587 ], [ 94.67182, 26.05691 ], [ 94.67083, 26.057 ], [ 94.67164, 26.05886 ], [ 94.67075, 26.06039 ], [ 94.67641, 26.06017 ], [ 94.67655, 26.06219 ], [ 94.67548, 26.06289 ], [ 94.67251, 26.06264 ], [ 94.67232, 26.06578 ], [ 94.67709, 26.06715 ], [ 94.68287, 26.06756 ], [ 94.68327, 26.06681 ], [ 94.68235, 26.06517 ], [ 94.68176, 26.05983 ], [ 94.68426, 26.06062 ], [ 94.68517, 26.06019 ], [ 94.6847, 26.05681 ], [ 94.68641, 26.05781 ], [ 94.68745, 26.06421 ], [ 94.68741, 26.06674 ], [ 94.68644, 26.06873 ], [ 94.68817, 26.07198 ], [ 94.68668, 26.07537 ], [ 94.69078, 26.07932 ], [ 94.69219, 26.07972 ], [ 94.69266, 26.07749 ], [ 94.69125, 26.07532 ], [ 94.6929, 26.07445 ], [ 94.6942, 26.07611 ], [ 94.69459, 26.07798 ], [ 94.69332, 26.0808 ], [ 94.69347, 26.08217 ], [ 94.69633, 26.08508 ], [ 94.69818, 26.09349 ], [ 94.70096, 26.09582 ], [ 94.69804, 26.09734 ], [ 94.70009, 26.10051 ], [ 94.70019, 26.10208 ], [ 94.70491, 26.10244 ], [ 94.70841, 26.10596 ], [ 94.71303, 26.10888 ], [ 94.71816, 26.11145 ], [ 94.72571, 26.11319 ], [ 94.72234, 26.11896 ], [ 94.72571, 26.12474 ], [ 94.73211, 26.12593 ], [ 94.73371, 26.13145 ], [ 94.7357, 26.13323 ], [ 94.74108, 26.13458 ] ] ] } }
]
}
