{
"type": "FeatureCollection",
"name": "704_CHARAIDEO",
"crs": { "type": "name", "properties": { "name": "urn:ogc:def:crs:OGC:1.3:CRS84" } },
"xy_coordinate_resolution": 1e-05,
"features": [
{ "type": "Feature", "properties": { "OBJECTID": 5849, "state_lgd": "18", "state_name": "ASSAM", "district_lgd": "704", "district_name": "CHARAIDEO", "district_name_source": "district_table", "subdistrict_lgd": "06317", "subdistrict_name": "SONARI CIRCLE", "subdistrict_type": "", "name_corrupted": false, "remarks": "", "label_lon": 95.00281561634425, "label_lat": 27.005844722167016 }, "geometry": { "type": "Polygon", "coordinates": [ [ [ 95.10785, 27.11872 ], [ 95.11019, 27.11058 ], [ 95.11232, 27.10927 ], [ 95.12116, 27.10438 ], [ 95.12847, 27.10925 ], [ 95.1304, 27.10892 ], [ 95.13796, 27.10562 ], [ 95.14501, 27.0968 ], [ 95.13709, 27.08824 ], [ 95.13677, 27.08695 ], [ 95.14849, 27.02844 ], [ 95.17105, 27.01639 ], [ 95.14563, 26.99625 ], [ 95.1388, 26.99485 ], [ 95.12421, 26.98544 ], [ 95.11196, 26.98066 ], [ 95.10792, 26.97594 ], [ 95.10608, 26.96549 ], [ 95.09527, 26.95755 ], [ 95.08806, 26.95318 ], [ 95.08096, 26.9501 ], [ 95.07067, 26.94912 ], [ 95.06425, 26.94708 ], [ 95.04969, 26.93876 ], [ 95.04696, 26.93822 ], [ 95.04408, 26.93874 ], [ 95.04026, 26.93694 ], [ 95.03413, 26.9356 ], [ 95.03176, 26.93299 ], [ 95.02391, 26.92853 ], [ 95.02212, 26.92581 ], [ 95.01476, 26.92203 ], [ 95.00467, 26.92115 ], [ 95.00186, 26.9198 ], [ 94.99129, 26.92081 ], [ 94.99052, 26.9197 ], [ 94.98998, 26.91421 ], [ 94.98262, 26.913 ], [ 94.9765, 26.92128 ], [ 94.96909, 26.92236 ], [ 94.96746, 26.92323 ], [ 94.96481, 26.93085 ], [ 94.96152, 26.93677 ], [ 94.9575, 26.93748 ], [ 94.9555, 26.9401 ], [ 94.95324, 26.93761 ], [ 94.95044, 26.93768 ], [ 94.94604, 26.93539 ], [ 94.94186, 26.93531 ], [ 94.94026, 26.93356 ], [ 94.93085, 26.93256 ], [ 94.93085, 26.9369 ], [ 94.92888, 26.93728 ], [ 94.9252, 26.94149 ], [ 94.92422, 26.94585 ], [ 94.92248, 26.94933 ], [ 94.92299, 26.95147 ], [ 94.92606, 26.95009 ], [ 94.92634, 26.95209 ], [ 94.92748, 26.95193 ], [ 94.92816, 26.95283 ], [ 94.92578, 26.95434 ], [ 94.9257, 26.95553 ], [ 94.92953, 26.954 ], [ 94.93021, 26.95519 ], [ 94.92865, 26.95626 ], [ 94.92832, 26.95755 ], [ 94.93098, 26.95623 ], [ 94.93165, 26.95932 ], [ 94.93649, 26.95826 ], [ 94.93649, 26.95989 ], [ 94.93503, 26.96059 ], [ 94.93515, 26.96149 ], [ 94.93777, 26.95878 ], [ 94.93827, 26.96046 ], [ 94.93759, 26.96181 ], [ 94.93983, 26.96235 ], [ 94.94152, 26.96425 ], [ 94.94069, 26.96483 ], [ 94.93861, 26.96393 ], [ 94.93828, 26.9646 ], [ 94.93873, 26.96605 ], [ 94.9406, 26.96728 ], [ 94.94182, 26.97073 ], [ 94.93892, 26.97028 ], [ 94.93797, 26.97286 ], [ 94.9355, 26.9739 ], [ 94.93445, 26.9761 ], [ 94.93505, 26.97691 ], [ 94.93819, 26.97625 ], [ 94.93911, 26.97738 ], [ 94.93721, 26.97789 ], [ 94.93751, 26.9785 ], [ 94.94196, 26.97909 ], [ 94.93549, 26.98274 ], [ 94.93752, 26.98576 ], [ 94.93778, 26.9888 ], [ 94.93595, 26.98915 ], [ 94.93701, 26.99118 ], [ 94.93039, 26.98707 ], [ 94.91904, 26.98167 ], [ 94.89038, 26.96055 ], [ 94.86125, 26.94559 ], [ 94.85312, 26.93877 ], [ 94.8497, 26.93201 ], [ 94.8104, 26.92544 ], [ 94.79236, 26.92423 ], [ 94.79524, 26.93441 ], [ 94.80353, 26.95028 ], [ 94.81686, 26.9679 ], [ 94.82428, 26.98635 ], [ 94.83034, 26.99458 ], [ 94.85038, 27.0101 ], [ 94.86916, 27.01936 ], [ 94.8897, 27.02719 ], [ 94.90553, 27.03564 ], [ 94.9071, 27.04063 ], [ 94.90618, 27.04551 ], [ 94.90673, 27.04627 ], [ 94.90998, 27.04726 ], [ 94.92097, 27.04665 ], [ 94.92314, 27.04448 ], [ 94.92413, 27.04152 ], [ 94.92536, 27.04116 ], [ 94.927, 27.04654 ], [ 94.92996, 27.04884 ], [ 94.93227, 27.04908 ], [ 94.93381, 27.04857 ], [ 94.93434, 27.04738 ], [ 94.932, 27.04557 ], [ 94.9308, 27.04298 ], [ 94.93343, 27.03976 ], [ 94.93804, 27.03648 ], [ 94.93945, 27.03768 ], [ 94.93828, 27.04167 ], [ 94.93834, 27.04688 ], [ 94.94031, 27.04899 ], [ 94.94495, 27.0438 ], [ 94.94677, 27.04406 ], [ 94.94891, 27.04985 ], [ 94.94983, 27.05032 ], [ 94.95273, 27.04997 ], [ 94.95617, 27.04631 ], [ 94.95821, 27.04621 ], [ 94.95547, 27.05358 ], [ 94.95298, 27.05769 ], [ 94.95379, 27.05985 ], [ 94.95465, 27.05984 ], [ 94.95981, 27.0546 ], [ 94.96456, 27.05409 ], [ 94.9656, 27.05505 ], [ 94.96557, 27.05603 ], [ 94.96113, 27.05695 ], [ 94.95815, 27.05884 ], [ 94.95726, 27.06112 ], [ 94.95738, 27.06368 ], [ 94.95818, 27.06448 ], [ 94.96081, 27.06426 ], [ 94.96485, 27.05846 ], [ 94.96656, 27.0575 ], [ 94.9686, 27.05797 ], [ 94.96889, 27.05888 ], [ 94.96551, 27.06334 ], [ 94.96663, 27.0649 ], [ 94.9694, 27.06501 ], [ 94.97615, 27.06032 ], [ 94.97609, 27.06517 ], [ 94.97693, 27.06689 ], [ 94.97795, 27.06793 ], [ 94.98035, 27.06803 ], [ 94.986, 27.06368 ], [ 94.99089, 27.0617 ], [ 94.99237, 27.06191 ], [ 94.99883, 27.06494 ], [ 95.00543, 27.06543 ], [ 95.00517, 27.06863 ], [ 95.00843, 27.07227 ], [ 95.01079, 27.07166 ], [ 95.00979, 27.06474 ], [ 95.0106, 27.06324 ], [ 95.01274, 27.06211 ], [ 95.01458, 27.06301 ], [ 95.01618, 27.06646 ], [ 95.02, 27.06511 ], [ 95.03231, 27.06617 ], [ 95.032, 27.07002 ], [ 95.03256, 27.07112 ], [ 95.03569, 27.07275 ], [ 95.03842, 27.07252 ], [ 95.04168, 27.07352 ], [ 95.03957, 27.0777 ], [ 95.04049, 27.07981 ], [ 95.04194, 27.08005 ], [ 95.04762, 27.07824 ], [ 95.05185, 27.07899 ], [ 95.05243, 27.08055 ], [ 95.04927, 27.08405 ], [ 95.0496, 27.08676 ], [ 95.05143, 27.0877 ], [ 95.05692, 27.08711 ], [ 95.05911, 27.08778 ], [ 95.06047, 27.08942 ], [ 95.06075, 27.09645 ], [ 95.06584, 27.09612 ], [ 95.06857, 27.093 ], [ 95.07084, 27.09216 ], [ 95.07279, 27.09615 ], [ 95.07406, 27.09679 ], [ 95.07867, 27.09677 ], [ 95.07805, 27.09988 ], [ 95.08283, 27.10343 ], [ 95.08582, 27.10468 ], [ 95.09096, 27.10477 ], [ 95.09218, 27.10596 ], [ 95.09195, 27.10725 ], [ 95.08682, 27.11099 ], [ 95.087, 27.11521 ], [ 95.08784, 27.1161 ], [ 95.08988, 27.11582 ], [ 95.09235, 27.11169 ], [ 95.09547, 27.11255 ], [ 95.0964, 27.12147 ], [ 95.09744, 27.12285 ], [ 95.09905, 27.12311 ], [ 95.09998, 27.12241 ], [ 95.10025, 27.11748 ], [ 95.1016, 27.11581 ], [ 95.10513, 27.11547 ], [ 95.10663, 27.11614 ], [ 95.10785, 27.11872 ] ] ] } },
{ "type": "Feature", "properties": { "OBJECTID": 5905, "state_lgd": "18", "state_name": "ASSAM", "district_lgd": "704", "district_name": "CHARAIDEO", "district_name_source": "district_table", "subdistrict_lgd": "02075", "subdistrict_name": "MAHMARA CIRCLE", "subdistrict_type": "", "name_corrupted": false, "remarks": "", "label_lon": 94.947267629473259, "label_lat": 27.110233136045299 }, "geometry": { "type": "Polygon", "coordinates": [ [ [ 94.98146, 27.17731 ], [ 94.98446, 27.16845 ], [ 94.98282, 27.16756 ], [ 94.98047, 27.1683 ], [ 94.97884, 27.16428 ], [ 94.98314, 27.15835 ], [ 94.98342, 27.15635 ], [ 94.97728, 27.14883 ], [ 94.97772, 27.14803 ], [ 94.98898, 27.14629 ], [ 94.99574, 27.14616 ], [ 95.01309, 27.14873 ], [ 95.01638, 27.1499 ], [ 95.03238, 27.14739 ], [ 95.03626, 27.1532 ], [ 95.04898, 27.1554 ], [ 95.05454, 27.14868 ], [ 95.06133, 27.13687 ], [ 95.06399, 27.13772 ], [ 95.06509, 27.13573 ], [ 95.07308, 27.13647 ], [ 95.08518, 27.13464 ], [ 95.08698, 27.13537 ], [ 95.09972, 27.13315 ], [ 95.10078, 27.1383 ], [ 95.10794, 27.13586 ], [ 95.10659, 27.12972 ], [ 95.1072, 27.12765 ], [ 95.10923, 27.12557 ], [ 95.10932, 27.12378 ], [ 95.10768, 27.12055 ], [ 95.1076, 27.11732 ], [ 95.10513, 27.11547 ], [ 95.1016, 27.11581 ], [ 95.10025, 27.11748 ], [ 95.09998, 27.12241 ], [ 95.09905, 27.12311 ], [ 95.09744, 27.12285 ], [ 95.0964, 27.12147 ], [ 95.09547, 27.11255 ], [ 95.09235, 27.11169 ], [ 95.08988, 27.11582 ], [ 95.08784, 27.1161 ], [ 95.087, 27.11521 ], [ 95.08682, 27.11099 ], [ 95.09195, 27.10725 ], [ 95.09218, 27.10596 ], [ 95.09096, 27.10477 ], [ 95.08582, 27.10468 ], [ 95.08283, 27.10343 ], [ 95.07805, 27.09988 ], [ 95.07867, 27.09677 ], [ 95.07406, 27.09679 ], [ 95.07279, 27.09615 ], [ 95.07084, 27.09216 ], [ 95.06857, 27.093 ], [ 95.06584, 27.09612 ], [ 95.06075, 27.09645 ], [ 95.06047, 27.08942 ], [ 95.05911, 27.08778 ], [ 95.05692, 27.08711 ], [ 95.05143, 27.0877 ], [ 95.0496, 27.08676 ], [ 95.04927, 27.08405 ], [ 95.05243, 27.08055 ], [ 95.05185, 27.07899 ], [ 95.04762, 27.07824 ], [ 95.04194, 27.08005 ], [ 95.04049, 27.07981 ], [ 95.03957, 27.0777 ], [ 95.04168, 27.07352 ], [ 95.03842, 27.07252 ], [ 95.03569, 27.07275 ], [ 95.03256, 27.07112 ], [ 95.032, 27.07002 ], [ 95.03231, 27.06617 ], [ 95.02, 27.06511 ], [ 95.01618, 27.06646 ], [ 95.01458, 27.06301 ], [ 95.01274, 27.06211 ], [ 95.0106, 27.06324 ], [ 95.00979, 27.06474 ], [ 95.01079, 27.07166 ], [ 95.00843, 27.07227 ], [ 95.00517, 27.06863 ], [ 95.00543, 27.06543 ], [ 94.99883, 27.06494 ], [ 94.99237, 27.06191 ], [ 94.99089, 27.0617 ], [ 94.986, 27.06368 ], [ 94.98035, 27.06803 ], [ 94.97795, 27.06793 ], [ 94.97693, 27.06689 ], [ 94.97609, 27.06517 ], [ 94.97615, 27.06032 ], [ 94.9694, 27.06501 ], [ 94.96663, 27.0649 ], [ 94.96551, 27.06334 ], [ 94.96889, 27.05888 ], [ 94.9686, 27.05797 ], [ 94.96656, 27.0575 ], [ 94.96485, 27.05846 ], [ 94.96081, 27.06426 ], [ 94.95818, 27.06448 ], [ 94.95738, 27.06368 ], [ 94.95726, 27.06112 ], [ 94.95815, 27.05884 ], [ 94.96113, 27.05695 ], [ 94.96557, 27.05603 ], [ 94.9656, 27.05505 ], [ 94.96456, 27.05409 ], [ 94.95981, 27.0546 ], [ 94.95465, 27.05984 ], [ 94.95379, 27.05985 ], [ 94.95298, 27.05769 ], [ 94.95547, 27.05358 ], [ 94.95821, 27.04621 ], [ 94.95617, 27.04631 ], [ 94.95273, 27.04997 ], [ 94.94983, 27.05032 ], [ 94.94891, 27.04985 ], [ 94.94677, 27.04406 ], [ 94.94495, 27.0438 ], [ 94.94031, 27.04899 ], [ 94.93834, 27.04688 ], [ 94.93828, 27.04167 ], [ 94.93945, 27.03768 ], [ 94.93804, 27.03648 ], [ 94.93343, 27.03976 ], [ 94.9308, 27.04298 ], [ 94.932, 27.04557 ], [ 94.93434, 27.04738 ], [ 94.93381, 27.04857 ], [ 94.93227, 27.04908 ], [ 94.92996, 27.04884 ], [ 94.927, 27.04654 ], [ 94.92536, 27.04116 ], [ 94.92413, 27.04152 ], [ 94.92314, 27.04448 ], [ 94.92097, 27.04665 ], [ 94.90998, 27.04726 ], [ 94.90673, 27.04627 ], [ 94.90618, 27.04551 ], [ 94.9071, 27.04063 ], [ 94.90553, 27.03564 ], [ 94.90434, 27.03548 ], [ 94.89342, 27.03797 ], [ 94.89119, 27.03917 ], [ 94.89007, 27.04096 ], [ 94.89004, 27.04286 ], [ 94.89235, 27.04452 ], [ 94.89539, 27.04473 ], [ 94.89566, 27.0463 ], [ 94.88742, 27.04641 ], [ 94.88568, 27.04572 ], [ 94.88273, 27.04172 ], [ 94.88167, 27.03804 ], [ 94.88258, 27.03487 ], [ 94.88151, 27.03345 ], [ 94.87703, 27.03362 ], [ 94.87268, 27.03804 ], [ 94.8701, 27.03868 ], [ 94.86813, 27.03749 ], [ 94.86637, 27.03351 ], [ 94.86707, 27.02741 ], [ 94.86185, 27.03063 ], [ 94.85225, 27.02823 ], [ 94.8436, 27.02201 ], [ 94.84144, 27.01632 ], [ 94.8407, 27.016 ], [ 94.83803, 27.01669 ], [ 94.83358, 27.01994 ], [ 94.83171, 27.0195 ], [ 94.83142, 27.01835 ], [ 94.82949, 27.01993 ], [ 94.82754, 27.02384 ], [ 94.8281, 27.02771 ], [ 94.8275, 27.04242 ], [ 94.82399, 27.05042 ], [ 94.82419, 27.05436 ], [ 94.82587, 27.06301 ], [ 94.833, 27.0756 ], [ 94.83375, 27.08628 ], [ 94.8363, 27.08835 ], [ 94.83655, 27.09112 ], [ 94.83783, 27.09373 ], [ 94.83696, 27.09792 ], [ 94.87519, 27.14405 ], [ 94.89139, 27.16216 ], [ 94.95603, 27.21935 ], [ 94.96799, 27.22709 ], [ 94.97222, 27.21721 ], [ 94.97272, 27.20764 ], [ 94.974, 27.20435 ], [ 94.97366, 27.20032 ], [ 94.97602, 27.19347 ], [ 94.97577, 27.18292 ], [ 94.97903, 27.18241 ], [ 94.97926, 27.17891 ], [ 94.98146, 27.17731 ] ] ] } },
{ "type": "Feature", "properties": { "OBJECTID": 5954, "state_lgd": "18", "state_name": "ASSAM", "district_lgd": "704", "district_name": "CHARAIDEO", "district_name_source": "district_table", "subdistrict_lgd": "05958", "subdistrict_name": "SAPEKHATI CIRCLE", "subdistrict_type": "", "name_corrupted": false, "remarks": "", "label_lon": 95.243442308472993, "label_lat": 27.110844666412486 }, "geometry": { "type": "Polygon", "coordinates": [ [ [ 95.3684, 27.10721 ], [ 95.3649, 27.10818 ], [ 95.35477, 27.10391 ], [ 95.32927, 27.08766 ], [ 95.31681, 27.08281 ], [ 95.30342, 27.07291 ], [ 95.30191, 27.07248 ], [ 95.30004, 27.07005 ], [ 95.29733, 27.06945 ], [ 95.29183, 27.06649 ], [ 95.28306, 27.05838 ], [ 95.27807, 27.05489 ], [ 95.27632, 27.05219 ], [ 95.27524, 27.04997 ], [ 95.27566, 27.04927 ], [ 95.27675, 27.05003 ], [ 95.27768, 27.04832 ], [ 95.27585, 27.04408 ], [ 95.27743, 27.04297 ], [ 95.27713, 27.04238 ], [ 95.27158, 27.04118 ], [ 95.26339, 27.03507 ], [ 95.26006, 27.03555 ], [ 95.25844, 27.03382 ], [ 95.25935, 27.03198 ], [ 95.25899, 27.03027 ], [ 95.25657, 27.03041 ], [ 95.25376, 27.02785 ], [ 95.25, 27.0264 ], [ 95.24735, 27.02439 ], [ 95.24636, 27.02409 ], [ 95.24544, 27.02583 ], [ 95.2436, 27.02599 ], [ 95.24316, 27.02812 ], [ 95.24158, 27.02949 ], [ 95.23951, 27.03663 ], [ 95.23825, 27.0378 ], [ 95.2343, 27.03754 ], [ 95.23288, 27.03834 ], [ 95.2331, 27.04169 ], [ 95.2321, 27.04333 ], [ 95.2292, 27.04172 ], [ 95.23084, 27.0398 ], [ 95.22813, 27.03765 ], [ 95.22887, 27.03552 ], [ 95.22625, 27.03537 ], [ 95.22461, 27.0369 ], [ 95.22185, 27.03644 ], [ 95.2218, 27.03448 ], [ 95.21669, 27.03142 ], [ 95.21444, 27.03151 ], [ 95.21361, 27.03054 ], [ 95.21052, 27.02979 ], [ 95.20882, 27.03031 ], [ 95.20876, 27.0323 ], [ 95.20551, 27.03202 ], [ 95.20562, 27.03485 ], [ 95.20424, 27.03732 ], [ 95.19736, 27.03724 ], [ 95.19531, 27.03543 ], [ 95.19582, 27.03269 ], [ 95.19374, 27.03222 ], [ 95.19265, 27.03282 ], [ 95.19423, 27.03495 ], [ 95.19242, 27.03562 ], [ 95.19068, 27.03335 ], [ 95.17105, 27.01639 ], [ 95.14849, 27.02844 ], [ 95.13677, 27.08695 ], [ 95.13709, 27.08824 ], [ 95.14501, 27.0968 ], [ 95.13796, 27.10562 ], [ 95.1304, 27.10892 ], [ 95.12847, 27.10925 ], [ 95.12116, 27.10438 ], [ 95.11019, 27.11058 ], [ 95.10768, 27.12055 ], [ 95.10932, 27.12378 ], [ 95.10923, 27.12557 ], [ 95.1072, 27.12765 ], [ 95.10659, 27.12972 ], [ 95.10776, 27.13591 ], [ 95.11321, 27.13613 ], [ 95.11212, 27.13115 ], [ 95.11318, 27.12835 ], [ 95.11511, 27.12726 ], [ 95.11604, 27.12796 ], [ 95.1143, 27.13235 ], [ 95.11618, 27.13617 ], [ 95.11775, 27.13579 ], [ 95.12012, 27.13092 ], [ 95.12384, 27.13035 ], [ 95.12513, 27.13102 ], [ 95.12628, 27.13586 ], [ 95.12871, 27.13849 ], [ 95.13119, 27.13869 ], [ 95.13112, 27.13462 ], [ 95.13198, 27.1338 ], [ 95.1333, 27.13793 ], [ 95.13591, 27.13869 ], [ 95.14096, 27.13696 ], [ 95.14496, 27.13749 ], [ 95.14684, 27.13633 ], [ 95.14832, 27.13438 ], [ 95.14849, 27.13052 ], [ 95.15125, 27.12531 ], [ 95.15343, 27.12432 ], [ 95.15417, 27.12544 ], [ 95.1512, 27.1286 ], [ 95.15053, 27.13102 ], [ 95.15132, 27.13367 ], [ 95.15423, 27.1363 ], [ 95.15533, 27.1366 ], [ 95.15613, 27.13592 ], [ 95.15718, 27.13039 ], [ 95.15815, 27.12887 ], [ 95.16032, 27.1278 ], [ 95.16203, 27.12792 ], [ 95.16404, 27.12919 ], [ 95.16017, 27.13285 ], [ 95.15966, 27.1347 ], [ 95.16339, 27.13216 ], [ 95.16462, 27.13631 ], [ 95.16981, 27.1373 ], [ 95.16882, 27.14303 ], [ 95.17033, 27.14507 ], [ 95.17305, 27.14682 ], [ 95.17434, 27.14612 ], [ 95.17396, 27.14394 ], [ 95.17219, 27.14136 ], [ 95.17209, 27.13946 ], [ 95.17289, 27.13826 ], [ 95.17406, 27.13851 ], [ 95.17622, 27.14089 ], [ 95.1799, 27.14212 ], [ 95.1795, 27.14331 ], [ 95.17653, 27.14482 ], [ 95.17859, 27.14972 ], [ 95.18013, 27.15099 ], [ 95.18523, 27.15131 ], [ 95.18632, 27.15219 ], [ 95.18354, 27.15363 ], [ 95.18192, 27.15589 ], [ 95.18267, 27.16213 ], [ 95.18349, 27.16316 ], [ 95.18498, 27.16294 ], [ 95.18917, 27.15968 ], [ 95.19404, 27.16033 ], [ 95.19393, 27.15904 ], [ 95.18921, 27.15744 ], [ 95.19486, 27.15527 ], [ 95.19878, 27.15888 ], [ 95.19759, 27.16226 ], [ 95.19805, 27.16346 ], [ 95.20872, 27.16251 ], [ 95.21276, 27.16608 ], [ 95.21382, 27.17036 ], [ 95.21039, 27.16863 ], [ 95.20961, 27.16955 ], [ 95.21025, 27.17338 ], [ 95.21107, 27.17435 ], [ 95.21192, 27.17436 ], [ 95.2147, 27.17168 ], [ 95.21895, 27.17062 ], [ 95.21916, 27.16937 ], [ 95.21605, 27.1684 ], [ 95.21597, 27.16761 ], [ 95.21973, 27.1652 ], [ 95.22515, 27.16759 ], [ 95.22653, 27.17242 ], [ 95.2277, 27.17346 ], [ 95.23189, 27.17284 ], [ 95.2357, 27.16972 ], [ 95.23838, 27.17026 ], [ 95.23895, 27.17129 ], [ 95.2384, 27.17214 ], [ 95.23444, 27.17479 ], [ 95.23212, 27.17829 ], [ 95.23284, 27.18093 ], [ 95.23405, 27.18124 ], [ 95.23768, 27.17983 ], [ 95.2416, 27.18328 ], [ 95.24034, 27.18598 ], [ 95.2369, 27.18843 ], [ 95.23702, 27.18983 ], [ 95.24417, 27.18922 ], [ 95.24491, 27.1914 ], [ 95.25, 27.19121 ], [ 95.25448, 27.19324 ], [ 95.25597, 27.1914 ], [ 95.25668, 27.18547 ], [ 95.25765, 27.1842 ], [ 95.25859, 27.1852 ], [ 95.25888, 27.19209 ], [ 95.26583, 27.18663 ], [ 95.26677, 27.18777 ], [ 95.26486, 27.19076 ], [ 95.26796, 27.19368 ], [ 95.27285, 27.1884 ], [ 95.27611, 27.19007 ], [ 95.27864, 27.1887 ], [ 95.2806, 27.19426 ], [ 95.28523, 27.19273 ], [ 95.28613, 27.19316 ], [ 95.28271, 27.19729 ], [ 95.28721, 27.19735 ], [ 95.29126, 27.19533 ], [ 95.30311, 27.19526 ], [ 95.30359, 27.19456 ], [ 95.30197, 27.19158 ], [ 95.30227, 27.19067 ], [ 95.30616, 27.19072 ], [ 95.30813, 27.18999 ], [ 95.31047, 27.18838 ], [ 95.31395, 27.18373 ], [ 95.31629, 27.18691 ], [ 95.31967, 27.18819 ], [ 95.32282, 27.18728 ], [ 95.32519, 27.18819 ], [ 95.33292, 27.18739 ], [ 95.33746, 27.18424 ], [ 95.34233, 27.18335 ], [ 95.34402, 27.1821 ], [ 95.34565, 27.17541 ], [ 95.34728, 27.1728 ], [ 95.34884, 27.17164 ], [ 95.35137, 27.1718 ], [ 95.35816, 27.16684 ], [ 95.35931, 27.16415 ], [ 95.35898, 27.15469 ], [ 95.36532, 27.14525 ], [ 95.36716, 27.13737 ], [ 95.36547, 27.13124 ], [ 95.36143, 27.1277 ], [ 95.36342, 27.12564 ], [ 95.36351, 27.12159 ], [ 95.36481, 27.11918 ], [ 95.36495, 27.1158 ], [ 95.36993, 27.11504 ], [ 95.37195, 27.11346 ], [ 95.37177, 27.11192 ], [ 95.3684, 27.10721 ] ] ] } }
]
}
