{
"type": "FeatureCollection",
"name": "707_MAJULI",
"crs": { "type": "name", "properties": { "name": "urn:ogc:def:crs:OGC:1.3:CRS84" } },
"xy_coordinate_resolution": 1e-05,
"features": [
{ "type": "Feature", "properties": { "OBJECTID": 5957, "state_lgd": "18", "state_name": "ASSAM", "district_lgd": "707", "district_name": "MAJULI", "district_name_source": "district_table", "subdistrict_lgd": "07202", "subdistrict_name": "UPPER MAJULI CIRCLE", "subdistrict_type": "", "name_corrupted": false, "remarks": "", "label_lon": 94.379575696577405, "label_lat": 27.021548160085359 }, "geometry": { "type": "Polygon", "coordinates": [ [ [ 94.56794, 27.1795 ], [ 94.59304, 27.14571 ], [ 94.58241, 27.13674 ], [ 94.58015, 27.1329 ], [ 94.57878, 27.12692 ], [ 94.5729, 27.11751 ], [ 94.56267, 27.10476 ], [ 94.55294, 27.09662 ], [ 94.55098, 27.09278 ], [ 94.54765, 27.0818 ], [ 94.54431, 27.077 ], [ 94.53923, 27.07244 ], [ 94.53285, 27.06978 ], [ 94.51275, 27.04823 ], [ 94.50166, 27.03998 ], [ 94.49181, 27.03617 ], [ 94.47985, 27.0336 ], [ 94.47533, 27.0311 ], [ 94.46631, 27.01881 ], [ 94.46028, 27.00089 ], [ 94.46017, 26.99544 ], [ 94.45256, 26.99066 ], [ 94.4432, 26.98743 ], [ 94.43564, 26.97898 ], [ 94.42957, 26.97433 ], [ 94.42047, 26.97073 ], [ 94.41142, 26.96516 ], [ 94.39785, 26.95917 ], [ 94.39528, 26.95493 ], [ 94.39654, 26.95294 ], [ 94.38352, 26.93793 ], [ 94.37847, 26.92517 ], [ 94.37582, 26.92068 ], [ 94.37123, 26.91604 ], [ 94.36136, 26.90963 ], [ 94.34866, 26.89607 ], [ 94.3411, 26.89009 ], [ 94.33849, 26.89177 ], [ 94.33516, 26.88923 ], [ 94.32786, 26.8876 ], [ 94.32042, 26.88135 ], [ 94.32079, 26.88043 ], [ 94.31996, 26.87948 ], [ 94.30017, 26.87744 ], [ 94.2919, 26.8721 ], [ 94.28463, 26.87327 ], [ 94.27109, 26.8688 ], [ 94.26238, 26.86714 ], [ 94.2553, 26.86633 ], [ 94.2442, 26.86734 ], [ 94.23546, 26.86517 ], [ 94.23355, 26.86526 ], [ 94.22953, 26.87144 ], [ 94.22854, 26.87143 ], [ 94.21819, 26.86734 ], [ 94.20966, 26.8654 ], [ 94.20759, 26.89847 ], [ 94.21756, 26.91069 ], [ 94.2181, 26.91764 ], [ 94.2193, 26.92 ], [ 94.2232, 26.92218 ], [ 94.22843, 26.92236 ], [ 94.24008, 26.91734 ], [ 94.2411, 26.92179 ], [ 94.24479, 26.92676 ], [ 94.24658, 26.92746 ], [ 94.2508, 26.92686 ], [ 94.25813, 26.92981 ], [ 94.26106, 26.92965 ], [ 94.26152, 26.92806 ], [ 94.26968, 26.92967 ], [ 94.27235, 26.92758 ], [ 94.27588, 26.92272 ], [ 94.27668, 26.92359 ], [ 94.27682, 26.92607 ], [ 94.27475, 26.92794 ], [ 94.27523, 26.93036 ], [ 94.27465, 26.9345 ], [ 94.27711, 26.94239 ], [ 94.27639, 26.94641 ], [ 94.2764, 26.95621 ], [ 94.27528, 26.96155 ], [ 94.28, 26.96667 ], [ 94.28364, 26.96648 ], [ 94.28419, 26.96468 ], [ 94.28569, 26.96347 ], [ 94.28837, 26.96278 ], [ 94.29224, 26.96367 ], [ 94.2983, 26.96294 ], [ 94.30008, 26.96532 ], [ 94.29996, 26.96701 ], [ 94.29654, 26.96733 ], [ 94.2948, 26.96855 ], [ 94.29261, 26.97084 ], [ 94.29191, 26.97298 ], [ 94.2923, 26.97478 ], [ 94.295, 26.97808 ], [ 94.30174, 26.98045 ], [ 94.30337, 26.98216 ], [ 94.29066, 26.9899 ], [ 94.28928, 26.99154 ], [ 94.29004, 26.9931 ], [ 94.29574, 26.99715 ], [ 94.2858, 27.00543 ], [ 94.27398, 27.01322 ], [ 94.27392, 27.01504 ], [ 94.27924, 27.01839 ], [ 94.28164, 27.02121 ], [ 94.28065, 27.02308 ], [ 94.27795, 27.02185 ], [ 94.2766, 27.023 ], [ 94.27449, 27.02202 ], [ 94.27115, 27.02233 ], [ 94.25891, 27.02109 ], [ 94.25688, 27.02156 ], [ 94.25288, 27.02409 ], [ 94.24237, 27.02809 ], [ 94.23295, 27.03279 ], [ 94.22434, 27.03527 ], [ 94.22403, 27.0362 ], [ 94.22245, 27.03678 ], [ 94.22679, 27.04621 ], [ 94.22707, 27.05684 ], [ 94.23539, 27.07105 ], [ 94.23638, 27.07407 ], [ 94.24361, 27.07848 ], [ 94.25444, 27.08829 ], [ 94.25842, 27.08888 ], [ 94.27255, 27.09522 ], [ 94.27487, 27.09557 ], [ 94.28014, 27.09483 ], [ 94.29231, 27.08892 ], [ 94.29791, 27.0873 ], [ 94.30012, 27.0848 ], [ 94.30214, 27.07967 ], [ 94.3058, 27.07425 ], [ 94.30767, 27.07255 ], [ 94.31191, 27.07126 ], [ 94.31541, 27.07261 ], [ 94.31825, 27.08337 ], [ 94.32148, 27.08731 ], [ 94.32374, 27.08856 ], [ 94.32652, 27.08914 ], [ 94.33487, 27.08341 ], [ 94.33883, 27.08214 ], [ 94.34908, 27.08546 ], [ 94.36174, 27.09667 ], [ 94.36962, 27.09911 ], [ 94.37674, 27.09882 ], [ 94.3847, 27.09644 ], [ 94.39295, 27.09899 ], [ 94.40292, 27.09725 ], [ 94.41227, 27.09355 ], [ 94.4181, 27.09308 ], [ 94.42204, 27.09506 ], [ 94.42435, 27.09875 ], [ 94.42685, 27.11512 ], [ 94.43523, 27.11982 ], [ 94.4396, 27.11969 ], [ 94.44689, 27.11769 ], [ 94.45071, 27.11774 ], [ 94.46059, 27.11228 ], [ 94.46516, 27.11264 ], [ 94.46811, 27.11419 ], [ 94.46991, 27.11566 ], [ 94.47271, 27.1213 ], [ 94.47505, 27.1345 ], [ 94.47671, 27.13693 ], [ 94.48021, 27.1393 ], [ 94.48833, 27.13365 ], [ 94.49094, 27.12713 ], [ 94.49522, 27.12226 ], [ 94.50378, 27.1208 ], [ 94.50652, 27.12138 ], [ 94.50848, 27.12294 ], [ 94.50987, 27.12541 ], [ 94.51028, 27.13123 ], [ 94.50882, 27.1373 ], [ 94.51064, 27.14239 ], [ 94.51547, 27.14373 ], [ 94.52877, 27.1439 ], [ 94.53316, 27.14784 ], [ 94.53288, 27.15043 ], [ 94.53144, 27.15278 ], [ 94.52423, 27.15805 ], [ 94.52403, 27.15948 ], [ 94.52604, 27.16223 ], [ 94.5288, 27.16445 ], [ 94.53926, 27.16948 ], [ 94.54234, 27.17218 ], [ 94.54701, 27.17384 ], [ 94.55277, 27.17361 ], [ 94.5563, 27.1747 ], [ 94.55875, 27.17741 ], [ 94.56105, 27.18383 ], [ 94.56794, 27.1795 ] ] ] } },
{ "type": "Feature", "properties": { "OBJECTID": 5958, "state_lgd": "18", "state_name": "ASSAM", "district_lgd": "707", "district_name": "MAJULI", "district_name_source": "district_table", "subdistrict_lgd": "02076", "subdistrict_name": "MAJULI CIRCLE", "subdistrict_type": "", "name_corrupted": false, "remarks": "", "label_lon": 94.023842250069094, "label_lat": 26.877977551848229 }, "geometry": { "type": "Polygon", "coordinates": [ [ [ 94.20966, 26.8654 ], [ 94.1992, 26.86445 ], [ 94.19043, 26.85785 ], [ 94.18432, 26.85525 ], [ 94.17822, 26.85472 ], [ 94.16757, 26.85521 ], [ 94.16473, 26.85438 ], [ 94.15168, 26.84767 ], [ 94.13277, 26.8485 ], [ 94.13026, 26.84774 ], [ 94.11042, 26.8389 ], [ 94.09834, 26.83616 ], [ 94.09482, 26.83224 ], [ 94.08184, 26.82334 ], [ 94.0436, 26.80792 ], [ 94.00359, 26.80663 ], [ 93.99421, 26.80206 ], [ 93.98355, 26.7839 ], [ 93.95959, 26.753 ], [ 93.93542, 26.74696 ], [ 93.91026, 26.74285 ], [ 93.89658, 26.7419 ], [ 93.87816, 26.74913 ], [ 93.84965, 26.762 ], [ 93.82118, 26.7873 ], [ 93.80971, 26.79215 ], [ 93.80171, 26.79241 ], [ 93.79378, 26.78514 ], [ 93.78436, 26.77865 ], [ 93.76898, 26.77262 ], [ 93.76103, 26.77258 ], [ 93.75054, 26.77445 ], [ 93.73792, 26.77528 ], [ 93.70806, 26.77246 ], [ 93.69136, 26.77418 ], [ 93.67435, 26.77151 ], [ 93.64994, 26.77396 ], [ 93.64893, 26.7746 ], [ 93.64868, 26.78815 ], [ 93.65905, 26.79275 ], [ 93.67031, 26.801 ], [ 93.67282, 26.79862 ], [ 93.6753, 26.79748 ], [ 93.68933, 26.7976 ], [ 93.69607, 26.80185 ], [ 93.69918, 26.80619 ], [ 93.70499, 26.8097 ], [ 93.70781, 26.81403 ], [ 93.71021, 26.81559 ], [ 93.715, 26.816 ], [ 93.72449, 26.81253 ], [ 93.73233, 26.81116 ], [ 93.7354, 26.80872 ], [ 93.73824, 26.80431 ], [ 93.74379, 26.80166 ], [ 93.75094, 26.80367 ], [ 93.75571, 26.81013 ], [ 93.75744, 26.81725 ], [ 93.7601, 26.82191 ], [ 93.75844, 26.83004 ], [ 93.75868, 26.83201 ], [ 93.7632, 26.83993 ], [ 93.76576, 26.84271 ], [ 93.76991, 26.84487 ], [ 93.77878, 26.84071 ], [ 93.78036, 26.83688 ], [ 93.78723, 26.83066 ], [ 93.80013, 26.8219 ], [ 93.80456, 26.82153 ], [ 93.82384, 26.82529 ], [ 93.82857, 26.83397 ], [ 93.83249, 26.84698 ], [ 93.83513, 26.85106 ], [ 93.84324, 26.85094 ], [ 93.8541, 26.85735 ], [ 93.8741, 26.8568 ], [ 93.88119, 26.85778 ], [ 93.88253, 26.85852 ], [ 93.88487, 26.86247 ], [ 93.88927, 26.86379 ], [ 93.89181, 26.86547 ], [ 93.89442, 26.87052 ], [ 93.8968, 26.87183 ], [ 93.89402, 26.87649 ], [ 93.89049, 26.8851 ], [ 93.89167, 26.89229 ], [ 93.91072, 26.90187 ], [ 93.91654, 26.90748 ], [ 93.91896, 26.91171 ], [ 93.91687, 26.91971 ], [ 93.91718, 26.92284 ], [ 93.9192, 26.92571 ], [ 93.92244, 26.92829 ], [ 93.92612, 26.93036 ], [ 93.93395, 26.93104 ], [ 93.94883, 26.92822 ], [ 93.96136, 26.92716 ], [ 93.96558, 26.92571 ], [ 93.96904, 26.92317 ], [ 93.97365, 26.92268 ], [ 93.98126, 26.92606 ], [ 93.98564, 26.92978 ], [ 93.99482, 26.94021 ], [ 94.0, 26.94209 ], [ 94.00648, 26.93637 ], [ 94.00911, 26.93056 ], [ 94.01066, 26.93004 ], [ 94.02281, 26.932 ], [ 94.02456, 26.93282 ], [ 94.02675, 26.9368 ], [ 94.0269, 26.93851 ], [ 94.02669, 26.94137 ], [ 94.02463, 26.94724 ], [ 94.02435, 26.95654 ], [ 94.02652, 26.95908 ], [ 94.03187, 26.96057 ], [ 94.03395, 26.96252 ], [ 94.0385, 26.96882 ], [ 94.03841, 26.97142 ], [ 94.04082, 26.97573 ], [ 94.04426, 26.9779 ], [ 94.05023, 26.97896 ], [ 94.0602, 26.98301 ], [ 94.06775, 26.97676 ], [ 94.07141, 26.96612 ], [ 94.07331, 26.96339 ], [ 94.07512, 26.9613 ], [ 94.07997, 26.95998 ], [ 94.08634, 26.96047 ], [ 94.09055, 26.96269 ], [ 94.09202, 26.96457 ], [ 94.10271, 26.96992 ], [ 94.11091, 26.97098 ], [ 94.1139, 26.97014 ], [ 94.12002, 26.97076 ], [ 94.12569, 26.97006 ], [ 94.12683, 26.969 ], [ 94.13433, 26.96879 ], [ 94.13998, 26.9753 ], [ 94.13832, 26.97756 ], [ 94.13389, 26.98834 ], [ 94.14162, 26.99186 ], [ 94.15234, 26.99456 ], [ 94.15813, 27.00029 ], [ 94.1689, 27.0004 ], [ 94.17156, 27.00173 ], [ 94.18366, 27.00023 ], [ 94.18771, 27.00286 ], [ 94.19151, 27.00917 ], [ 94.19186, 27.01123 ], [ 94.18895, 27.02621 ], [ 94.18761, 27.02906 ], [ 94.18731, 27.03615 ], [ 94.19378, 27.03625 ], [ 94.20277, 27.03004 ], [ 94.21078, 27.02945 ], [ 94.2181, 27.03013 ], [ 94.2231, 27.03171 ], [ 94.22455, 27.03525 ], [ 94.23295, 27.03279 ], [ 94.25891, 27.02109 ], [ 94.27115, 27.02233 ], [ 94.27449, 27.02202 ], [ 94.2766, 27.023 ], [ 94.27795, 27.02185 ], [ 94.28065, 27.02308 ], [ 94.28164, 27.02121 ], [ 94.27924, 27.01839 ], [ 94.27392, 27.01504 ], [ 94.27398, 27.01322 ], [ 94.2858, 27.00543 ], [ 94.29574, 26.99715 ], [ 94.29004, 26.9931 ], [ 94.28928, 26.99154 ], [ 94.29066, 26.9899 ], [ 94.30337, 26.98216 ], [ 94.30174, 26.98045 ], [ 94.295, 26.97808 ], [ 94.29332, 26.97655 ], [ 94.29191, 26.97298 ], [ 94.29261, 26.97084 ], [ 94.2948, 26.96855 ], [ 94.29654, 26.96733 ], [ 94.29996, 26.96701 ], [ 94.30008, 26.96532 ], [ 94.2983, 26.96294 ], [ 94.29224, 26.96367 ], [ 94.28837, 26.96278 ], [ 94.28569, 26.96347 ], [ 94.28419, 26.96468 ], [ 94.28364, 26.96648 ], [ 94.28, 26.96667 ], [ 94.27528, 26.96155 ], [ 94.2764, 26.95621 ], [ 94.27639, 26.94641 ], [ 94.27711, 26.94239 ], [ 94.27465, 26.9345 ], [ 94.27523, 26.93036 ], [ 94.27475, 26.92794 ], [ 94.27682, 26.92607 ], [ 94.27668, 26.92359 ], [ 94.27588, 26.92272 ], [ 94.27235, 26.92758 ], [ 94.26968, 26.92967 ], [ 94.26152, 26.92806 ], [ 94.26106, 26.92965 ], [ 94.25813, 26.92981 ], [ 94.2508, 26.92686 ], [ 94.24658, 26.92746 ], [ 94.24479, 26.92676 ], [ 94.2411, 26.92179 ], [ 94.24008, 26.91734 ], [ 94.22843, 26.92236 ], [ 94.2232, 26.92218 ], [ 94.2193, 26.92 ], [ 94.2181, 26.91764 ], [ 94.21756, 26.91069 ], [ 94.20759, 26.89847 ], [ 94.20966, 26.8654 ] ] ] } }
]
}
