{
"type": "FeatureCollection",
"name": "349_GIRIDIH",
"crs": { "type": "name", "properties": { "name": "urn:ogc:def:crs:OGC:1.3:CRS84" } },
"xy_coordinate_resolution": 1e-05,
"features": [
{ "type": "Feature", "properties": { "OBJECTID": 5536, "state_lgd": "20", "state_name": "JHARKHAND", "district_lgd": "349", "district_name": "GIRIDIH", "district_name_source": "district_table", "subdistrict_lgd": "02541", "subdistrict_name": "BAGODAR", "subdistrict_type": "", "name_corrupted": false, "remarks": "", "label_lon": 85.852997793666574, "label_lat": 24.087932951254391 }, "geometry": { "type": "Polygon", "coordinates": [ [ [ 85.72777, 24.18802 ], [ 85.73245, 24.18338 ], [ 85.73806, 24.17992 ], [ 85.74079, 24.1735 ], [ 85.7493, 24.16992 ], [ 85.75037, 24.1688 ], [ 85.75982, 24.1706 ], [ 85.76472, 24.16072 ], [ 85.76643, 24.15871 ], [ 85.78022, 24.15321 ], [ 85.78629, 24.15929 ], [ 85.78711, 24.15843 ], [ 85.79329, 24.1501 ], [ 85.77442, 24.14282 ], [ 85.77449, 24.13953 ], [ 85.77346, 24.13715 ], [ 85.77692, 24.13638 ], [ 85.77855, 24.13781 ], [ 85.78004, 24.13772 ], [ 85.78052, 24.1369 ], [ 85.78321, 24.13713 ], [ 85.79517, 24.14084 ], [ 85.80006, 24.1438 ], [ 85.80641, 24.14129 ], [ 85.81202, 24.14088 ], [ 85.81946, 24.14185 ], [ 85.82708, 24.1449 ], [ 85.83275, 24.13712 ], [ 85.84333, 24.12969 ], [ 85.84764, 24.12529 ], [ 85.8554, 24.13246 ], [ 85.85635, 24.1358 ], [ 85.87189, 24.13067 ], [ 85.87672, 24.1346 ], [ 85.88074, 24.13414 ], [ 85.88305, 24.13479 ], [ 85.88494, 24.13802 ], [ 85.88662, 24.13761 ], [ 85.89055, 24.14061 ], [ 85.89346, 24.14075 ], [ 85.89922, 24.13169 ], [ 85.90822, 24.12819 ], [ 85.91129, 24.12606 ], [ 85.91176, 24.12459 ], [ 85.91423, 24.12231 ], [ 85.91385, 24.11997 ], [ 85.91266, 24.11836 ], [ 85.91341, 24.11617 ], [ 85.91204, 24.11334 ], [ 85.91137, 24.11295 ], [ 85.90951, 24.11385 ], [ 85.90759, 24.11155 ], [ 85.90925, 24.10744 ], [ 85.91174, 24.10758 ], [ 85.9186, 24.1047 ], [ 85.92259, 24.10391 ], [ 85.94103, 24.10512 ], [ 85.93818, 24.10106 ], [ 85.93864, 24.09106 ], [ 85.93962, 24.08708 ], [ 85.94121, 24.08369 ], [ 85.94561, 24.08114 ], [ 85.95059, 24.08013 ], [ 85.95632, 24.07124 ], [ 85.96055, 24.07529 ], [ 85.96491, 24.07764 ], [ 85.96736, 24.07792 ], [ 85.97413, 24.07601 ], [ 85.97752, 24.07698 ], [ 85.97896, 24.07986 ], [ 85.98456, 24.08349 ], [ 85.9887, 24.07994 ], [ 85.9914, 24.0819 ], [ 85.99374, 24.0819 ], [ 85.99638, 24.08152 ], [ 85.99822, 24.07991 ], [ 86.00106, 24.07902 ], [ 86.00507, 24.0876 ], [ 86.01479, 24.08445 ], [ 86.01564, 24.08225 ], [ 86.0153, 24.07696 ], [ 86.01232, 24.06859 ], [ 86.01325, 24.06556 ], [ 86.01661, 24.06026 ], [ 86.01564, 24.05523 ], [ 86.01775, 24.05216 ], [ 86.00712, 24.05218 ], [ 86.00537, 24.05107 ], [ 86.00307, 24.04712 ], [ 85.99764, 24.04643 ], [ 85.99182, 24.03905 ], [ 85.99023, 24.03034 ], [ 85.98718, 24.02678 ], [ 85.98278, 24.02848 ], [ 85.98094, 24.02794 ], [ 85.97972, 24.02848 ], [ 85.97722, 24.02619 ], [ 85.9731, 24.0262 ], [ 85.97318, 24.02147 ], [ 85.96881, 24.01492 ], [ 85.96743, 24.01006 ], [ 85.96818, 24.00808 ], [ 85.96964, 24.00702 ], [ 85.96956, 24.00525 ], [ 85.96297, 23.99738 ], [ 85.95897, 23.99 ], [ 85.95627, 23.9898 ], [ 85.95451, 23.99172 ], [ 85.94458, 23.99157 ], [ 85.93827, 23.98899 ], [ 85.93687, 23.99144 ], [ 85.93524, 23.99065 ], [ 85.93062, 23.99083 ], [ 85.92806, 23.99 ], [ 85.92734, 23.98903 ], [ 85.92699, 23.98235 ], [ 85.92572, 23.98209 ], [ 85.92477, 23.98454 ], [ 85.92335, 23.98574 ], [ 85.91962, 23.98389 ], [ 85.9176, 23.98656 ], [ 85.9131, 23.98705 ], [ 85.90983, 23.99002 ], [ 85.90592, 23.99099 ], [ 85.90462, 23.9892 ], [ 85.90341, 23.98934 ], [ 85.8989, 23.99187 ], [ 85.89684, 23.99577 ], [ 85.89888, 23.99782 ], [ 85.89683, 24.00107 ], [ 85.89897, 24.00345 ], [ 85.89793, 24.00577 ], [ 85.89826, 24.00829 ], [ 85.89741, 24.00898 ], [ 85.89703, 24.01235 ], [ 85.89566, 24.01338 ], [ 85.88517, 24.01703 ], [ 85.88553, 24.01382 ], [ 85.88311, 24.00722 ], [ 85.88108, 24.00602 ], [ 85.8795, 24.00591 ], [ 85.87756, 24.00695 ], [ 85.87745, 24.0061 ], [ 85.87665, 24.00603 ], [ 85.87451, 24.00716 ], [ 85.86993, 24.01163 ], [ 85.86716, 24.01306 ], [ 85.86464, 24.01322 ], [ 85.85787, 24.01776 ], [ 85.8583, 24.01997 ], [ 85.86533, 24.02779 ], [ 85.86914, 24.02836 ], [ 85.87125, 24.03073 ], [ 85.87678, 24.03272 ], [ 85.87726, 24.03606 ], [ 85.87929, 24.03864 ], [ 85.87606, 24.04762 ], [ 85.87429, 24.04755 ], [ 85.87307, 24.04508 ], [ 85.87138, 24.04539 ], [ 85.87138, 24.04832 ], [ 85.87334, 24.0509 ], [ 85.87289, 24.05143 ], [ 85.8698, 24.05161 ], [ 85.8649, 24.0459 ], [ 85.85741, 24.05008 ], [ 85.85519, 24.04771 ], [ 85.85443, 24.05035 ], [ 85.85529, 24.05603 ], [ 85.85166, 24.05759 ], [ 85.85379, 24.05951 ], [ 85.84779, 24.06404 ], [ 85.8464, 24.06357 ], [ 85.846, 24.06027 ], [ 85.84507, 24.05923 ], [ 85.83929, 24.06051 ], [ 85.83882, 24.06147 ], [ 85.84099, 24.06368 ], [ 85.84173, 24.06632 ], [ 85.83707, 24.06838 ], [ 85.83642, 24.06969 ], [ 85.8369, 24.07166 ], [ 85.83115, 24.06901 ], [ 85.82956, 24.07194 ], [ 85.82563, 24.07286 ], [ 85.82431, 24.07229 ], [ 85.8239, 24.06936 ], [ 85.81956, 24.06692 ], [ 85.81876, 24.0629 ], [ 85.8167, 24.0618 ], [ 85.80221, 24.06734 ], [ 85.80134, 24.07182 ], [ 85.80206, 24.07386 ], [ 85.80567, 24.07718 ], [ 85.80585, 24.07822 ], [ 85.79795, 24.07834 ], [ 85.78997, 24.08504 ], [ 85.78991, 24.08811 ], [ 85.78619, 24.09 ], [ 85.78153, 24.08974 ], [ 85.77819, 24.08852 ], [ 85.77019, 24.09228 ], [ 85.77117, 24.09399 ], [ 85.76579, 24.09528 ], [ 85.76336, 24.09375 ], [ 85.76256, 24.09085 ], [ 85.76095, 24.09089 ], [ 85.75822, 24.09239 ], [ 85.75701, 24.08962 ], [ 85.75388, 24.08893 ], [ 85.75237, 24.08313 ], [ 85.75011, 24.08621 ], [ 85.74719, 24.08677 ], [ 85.74094, 24.09043 ], [ 85.73634, 24.09098 ], [ 85.7352, 24.09177 ], [ 85.73524, 24.09399 ], [ 85.73296, 24.09466 ], [ 85.73192, 24.09688 ], [ 85.72922, 24.0994 ], [ 85.72233, 24.09677 ], [ 85.71668, 24.09973 ], [ 85.71169, 24.10113 ], [ 85.7129, 24.10257 ], [ 85.71075, 24.10565 ], [ 85.71201, 24.10811 ], [ 85.71106, 24.1112 ], [ 85.71677, 24.11786 ], [ 85.71301, 24.12587 ], [ 85.70345, 24.13162 ], [ 85.69954, 24.13643 ], [ 85.69566, 24.13663 ], [ 85.69413, 24.13901 ], [ 85.68715, 24.14265 ], [ 85.68032, 24.14558 ], [ 85.67543, 24.14658 ], [ 85.67585, 24.15186 ], [ 85.67703, 24.15163 ], [ 85.67823, 24.15731 ], [ 85.678, 24.16044 ], [ 85.67879, 24.16235 ], [ 85.67977, 24.16265 ], [ 85.68043, 24.16736 ], [ 85.67989, 24.17029 ], [ 85.68261, 24.1717 ], [ 85.68281, 24.17514 ], [ 85.68524, 24.17582 ], [ 85.68955, 24.17895 ], [ 85.70118, 24.18098 ], [ 85.70254, 24.1827 ], [ 85.70478, 24.18383 ], [ 85.71645, 24.18287 ], [ 85.7176, 24.18373 ], [ 85.7188, 24.1877 ], [ 85.72286, 24.187 ], [ 85.72777, 24.18802 ] ] ] } },
{ "type": "Feature", "properties": { "OBJECTID": 5554, "state_lgd": "20", "state_name": "JHARKHAND", "district_lgd": "349", "district_name": "GIRIDIH", "district_name_source": "district_table", "subdistrict_lgd": "02537", "subdistrict_name": "BENGABAD", "subdistrict_type": "", "name_corrupted": false, "remarks": "", "label_lon": 86.366648574211155, "label_lat": 24.31362490015162 }, "geometry": { "type": "Polygon", "coordinates": [ [ [ 86.29597, 24.45045 ], [ 86.29972, 24.44773 ], [ 86.31355, 24.44706 ], [ 86.31546, 24.44559 ], [ 86.31592, 24.4422 ], [ 86.3174, 24.44152 ], [ 86.3208, 24.44146 ], [ 86.32385, 24.44221 ], [ 86.32515, 24.44358 ], [ 86.32826, 24.44306 ], [ 86.33144, 24.44437 ], [ 86.33485, 24.44245 ], [ 86.34021, 24.44394 ], [ 86.34394, 24.44398 ], [ 86.34505, 24.44454 ], [ 86.34425, 24.44659 ], [ 86.34498, 24.44724 ], [ 86.3499, 24.44739 ], [ 86.35162, 24.44425 ], [ 86.35276, 24.43922 ], [ 86.35449, 24.43751 ], [ 86.35505, 24.43475 ], [ 86.35725, 24.43245 ], [ 86.35816, 24.42926 ], [ 86.36225, 24.42818 ], [ 86.36422, 24.42589 ], [ 86.36727, 24.42448 ], [ 86.36743, 24.42039 ], [ 86.36857, 24.41869 ], [ 86.37465, 24.41705 ], [ 86.37619, 24.41917 ], [ 86.37746, 24.41958 ], [ 86.37806, 24.41623 ], [ 86.38115, 24.41292 ], [ 86.39675, 24.40374 ], [ 86.39753, 24.4024 ], [ 86.397, 24.39836 ], [ 86.40004, 24.39853 ], [ 86.40242, 24.39677 ], [ 86.40373, 24.39371 ], [ 86.40426, 24.38855 ], [ 86.413, 24.38031 ], [ 86.41841, 24.37994 ], [ 86.42044, 24.37867 ], [ 86.42355, 24.37951 ], [ 86.42778, 24.37715 ], [ 86.43255, 24.38014 ], [ 86.43595, 24.37558 ], [ 86.44066, 24.3723 ], [ 86.44454, 24.36782 ], [ 86.44943, 24.37041 ], [ 86.45537, 24.37186 ], [ 86.4578, 24.37131 ], [ 86.45763, 24.36869 ], [ 86.45906, 24.36464 ], [ 86.45659, 24.35783 ], [ 86.45698, 24.35601 ], [ 86.46272, 24.35404 ], [ 86.47031, 24.35357 ], [ 86.46971, 24.3486 ], [ 86.46694, 24.34573 ], [ 86.46693, 24.34332 ], [ 86.4653, 24.34247 ], [ 86.46338, 24.33927 ], [ 86.46022, 24.33852 ], [ 86.45766, 24.33489 ], [ 86.46052, 24.33392 ], [ 86.46345, 24.33466 ], [ 86.46505, 24.33365 ], [ 86.4656, 24.33181 ], [ 86.47168, 24.33138 ], [ 86.47558, 24.33007 ], [ 86.47557, 24.32715 ], [ 86.47343, 24.32388 ], [ 86.47401, 24.32112 ], [ 86.47218, 24.31366 ], [ 86.47553, 24.31004 ], [ 86.47798, 24.30058 ], [ 86.48095, 24.29827 ], [ 86.48442, 24.29819 ], [ 86.48613, 24.29722 ], [ 86.48612, 24.29112 ], [ 86.48838, 24.28692 ], [ 86.49221, 24.28507 ], [ 86.50181, 24.28475 ], [ 86.50461, 24.28253 ], [ 86.50483, 24.27688 ], [ 86.5065, 24.27483 ], [ 86.50748, 24.27047 ], [ 86.50873, 24.26925 ], [ 86.51115, 24.26265 ], [ 86.51032, 24.26018 ], [ 86.51105, 24.25883 ], [ 86.50915, 24.2574 ], [ 86.50153, 24.25704 ], [ 86.5007, 24.25714 ], [ 86.49954, 24.26065 ], [ 86.49858, 24.26114 ], [ 86.4967, 24.26157 ], [ 86.49264, 24.25898 ], [ 86.48938, 24.25923 ], [ 86.48434, 24.26199 ], [ 86.48028, 24.26014 ], [ 86.47025, 24.25345 ], [ 86.46101, 24.25297 ], [ 86.45989, 24.25498 ], [ 86.45109, 24.25579 ], [ 86.44958, 24.25432 ], [ 86.45167, 24.25041 ], [ 86.44888, 24.24782 ], [ 86.44474, 24.24818 ], [ 86.44197, 24.24729 ], [ 86.43804, 24.24458 ], [ 86.43739, 24.2465 ], [ 86.43341, 24.24717 ], [ 86.4321, 24.24608 ], [ 86.43004, 24.24081 ], [ 86.43013, 24.23908 ], [ 86.42638, 24.23401 ], [ 86.42517, 24.22964 ], [ 86.42195, 24.2316 ], [ 86.4169, 24.23018 ], [ 86.41564, 24.23142 ], [ 86.40919, 24.23279 ], [ 86.40751, 24.23451 ], [ 86.39648, 24.23274 ], [ 86.3936, 24.23102 ], [ 86.39125, 24.22823 ], [ 86.38297, 24.22947 ], [ 86.3805, 24.22667 ], [ 86.3791, 24.22201 ], [ 86.37887, 24.21863 ], [ 86.3796, 24.2168 ], [ 86.37834, 24.21473 ], [ 86.3795, 24.2119 ], [ 86.37881, 24.20964 ], [ 86.37599, 24.20593 ], [ 86.37202, 24.20908 ], [ 86.37066, 24.20657 ], [ 86.36625, 24.20545 ], [ 86.36513, 24.20727 ], [ 86.36508, 24.20969 ], [ 86.36192, 24.21362 ], [ 86.36102, 24.21127 ], [ 86.35922, 24.20973 ], [ 86.35549, 24.21013 ], [ 86.35611, 24.20766 ], [ 86.35554, 24.20682 ], [ 86.3464, 24.2031 ], [ 86.34408, 24.20701 ], [ 86.34398, 24.20815 ], [ 86.34617, 24.211 ], [ 86.34534, 24.21171 ], [ 86.34289, 24.21197 ], [ 86.3411, 24.21076 ], [ 86.33759, 24.2102 ], [ 86.32613, 24.21107 ], [ 86.31632, 24.21484 ], [ 86.31482, 24.21318 ], [ 86.3131, 24.21344 ], [ 86.30341, 24.21756 ], [ 86.30083, 24.21525 ], [ 86.29613, 24.21683 ], [ 86.28989, 24.21639 ], [ 86.2893, 24.21472 ], [ 86.28464, 24.21789 ], [ 86.28001, 24.22344 ], [ 86.27823, 24.22451 ], [ 86.27561, 24.22179 ], [ 86.27499, 24.22227 ], [ 86.27418, 24.22408 ], [ 86.27442, 24.22659 ], [ 86.27815, 24.22875 ], [ 86.27846, 24.23309 ], [ 86.27616, 24.23398 ], [ 86.27488, 24.23717 ], [ 86.27728, 24.23926 ], [ 86.27621, 24.24038 ], [ 86.2748, 24.24527 ], [ 86.27626, 24.24745 ], [ 86.27772, 24.24821 ], [ 86.27693, 24.25079 ], [ 86.27469, 24.25269 ], [ 86.27498, 24.2543 ], [ 86.27788, 24.2553 ], [ 86.28032, 24.25733 ], [ 86.28253, 24.25346 ], [ 86.29411, 24.25613 ], [ 86.29573, 24.26061 ], [ 86.29462, 24.26261 ], [ 86.29236, 24.26307 ], [ 86.28863, 24.26608 ], [ 86.28551, 24.26716 ], [ 86.2835, 24.27002 ], [ 86.28299, 24.27317 ], [ 86.28041, 24.27451 ], [ 86.27428, 24.27357 ], [ 86.27121, 24.27435 ], [ 86.27071, 24.27158 ], [ 86.26851, 24.27038 ], [ 86.26476, 24.27212 ], [ 86.26262, 24.2747 ], [ 86.2611, 24.27352 ], [ 86.26078, 24.27152 ], [ 86.26013, 24.27246 ], [ 86.26053, 24.27517 ], [ 86.26242, 24.27691 ], [ 86.26164, 24.27942 ], [ 86.25769, 24.28156 ], [ 86.25536, 24.28009 ], [ 86.254, 24.28171 ], [ 86.25283, 24.28531 ], [ 86.25384, 24.28759 ], [ 86.25729, 24.28827 ], [ 86.25762, 24.29123 ], [ 86.25577, 24.29412 ], [ 86.25471, 24.30192 ], [ 86.25195, 24.30717 ], [ 86.25232, 24.30967 ], [ 86.25603, 24.31089 ], [ 86.25266, 24.3149 ], [ 86.25544, 24.31578 ], [ 86.252, 24.32025 ], [ 86.25369, 24.32239 ], [ 86.25355, 24.32476 ], [ 86.25597, 24.32489 ], [ 86.25673, 24.32698 ], [ 86.25938, 24.3252 ], [ 86.26157, 24.3258 ], [ 86.26296, 24.32711 ], [ 86.26277, 24.32993 ], [ 86.26546, 24.33249 ], [ 86.26869, 24.3306 ], [ 86.27092, 24.33036 ], [ 86.27263, 24.33128 ], [ 86.27255, 24.33326 ], [ 86.27508, 24.334 ], [ 86.27587, 24.33648 ], [ 86.27956, 24.33906 ], [ 86.27964, 24.34073 ], [ 86.28081, 24.34199 ], [ 86.27904, 24.3482 ], [ 86.2809, 24.34959 ], [ 86.28213, 24.35368 ], [ 86.2809, 24.35537 ], [ 86.28189, 24.35645 ], [ 86.28158, 24.35785 ], [ 86.28035, 24.35954 ], [ 86.28439, 24.36317 ], [ 86.28454, 24.36636 ], [ 86.2858, 24.36898 ], [ 86.28772, 24.36973 ], [ 86.28945, 24.36786 ], [ 86.29157, 24.36804 ], [ 86.29467, 24.37064 ], [ 86.29353, 24.37256 ], [ 86.30071, 24.37952 ], [ 86.30083, 24.38143 ], [ 86.30212, 24.38182 ], [ 86.30236, 24.38266 ], [ 86.30848, 24.38415 ], [ 86.31176, 24.38742 ], [ 86.31564, 24.38869 ], [ 86.31639, 24.39442 ], [ 86.3154, 24.39715 ], [ 86.31909, 24.39883 ], [ 86.31745, 24.40643 ], [ 86.31892, 24.41429 ], [ 86.31578, 24.41343 ], [ 86.31235, 24.41518 ], [ 86.31183, 24.4186 ], [ 86.31068, 24.41945 ], [ 86.30889, 24.42337 ], [ 86.30731, 24.42339 ], [ 86.30724, 24.42571 ], [ 86.30339, 24.42433 ], [ 86.30304, 24.42831 ], [ 86.30107, 24.43045 ], [ 86.30051, 24.43235 ], [ 86.30197, 24.4346 ], [ 86.29858, 24.43713 ], [ 86.29234, 24.43725 ], [ 86.28844, 24.44315 ], [ 86.28819, 24.44547 ], [ 86.29164, 24.44971 ], [ 86.29597, 24.45045 ] ] ] } },
{ "type": "Feature", "properties": { "OBJECTID": 5560, "state_lgd": "20", "state_name": "JHARKHAND", "district_lgd": "349", "district_name": "GIRIDIH", "district_name_source": "district_table", "subdistrict_lgd": "02540", "subdistrict_name": "BIRNI", "subdistrict_type": "", "name_corrupted": false, "remarks": "", "label_lon": 85.994698266443706, "label_lat": 24.24914466716562 }, "geometry": { "type": "Polygon", "coordinates": [ [ [ 85.97398, 24.32701 ], [ 85.98152, 24.3238 ], [ 85.98503, 24.32022 ], [ 85.99355, 24.31726 ], [ 85.99693, 24.31335 ], [ 86.00041, 24.31276 ], [ 86.00505, 24.31408 ], [ 86.00725, 24.31564 ], [ 86.0097, 24.31217 ], [ 86.01448, 24.31469 ], [ 86.02058, 24.31077 ], [ 86.0222, 24.31049 ], [ 86.02471, 24.30478 ], [ 86.02526, 24.30082 ], [ 86.02806, 24.29756 ], [ 86.03393, 24.29733 ], [ 86.03696, 24.29631 ], [ 86.03929, 24.29375 ], [ 86.04103, 24.29435 ], [ 86.04186, 24.29623 ], [ 86.04404, 24.29558 ], [ 86.05858, 24.29951 ], [ 86.06803, 24.29948 ], [ 86.07275, 24.29871 ], [ 86.07465, 24.2974 ], [ 86.08097, 24.29602 ], [ 86.08617, 24.29204 ], [ 86.09286, 24.29071 ], [ 86.09397, 24.28959 ], [ 86.09463, 24.28664 ], [ 86.10078, 24.28308 ], [ 86.1032, 24.2804 ], [ 86.10471, 24.2802 ], [ 86.10734, 24.28185 ], [ 86.11023, 24.28042 ], [ 86.10447, 24.27186 ], [ 86.11712, 24.27092 ], [ 86.12168, 24.26942 ], [ 86.12349, 24.2706 ], [ 86.13932, 24.2663 ], [ 86.13618, 24.26342 ], [ 86.13653, 24.26204 ], [ 86.13517, 24.25966 ], [ 86.13595, 24.255 ], [ 86.13514, 24.25159 ], [ 86.12502, 24.2498 ], [ 86.12034, 24.2531 ], [ 86.11768, 24.25324 ], [ 86.11592, 24.25271 ], [ 86.11533, 24.25069 ], [ 86.11756, 24.24472 ], [ 86.11861, 24.23052 ], [ 86.12631, 24.23363 ], [ 86.12813, 24.23299 ], [ 86.13091, 24.22946 ], [ 86.1317, 24.22702 ], [ 86.13388, 24.22625 ], [ 86.13353, 24.21926 ], [ 86.13154, 24.22066 ], [ 86.12969, 24.22073 ], [ 86.12703, 24.21578 ], [ 86.12574, 24.2151 ], [ 86.12171, 24.21514 ], [ 86.1192, 24.21253 ], [ 86.11826, 24.21264 ], [ 86.11719, 24.21491 ], [ 86.11649, 24.21337 ], [ 86.11515, 24.21385 ], [ 86.11388, 24.21329 ], [ 86.11416, 24.21047 ], [ 86.11144, 24.20404 ], [ 86.10784, 24.2036 ], [ 86.10679, 24.20423 ], [ 86.10571, 24.20256 ], [ 86.1061, 24.19825 ], [ 86.09901, 24.19132 ], [ 86.09655, 24.18131 ], [ 86.09479, 24.17816 ], [ 86.09317, 24.17723 ], [ 86.08819, 24.18404 ], [ 86.08567, 24.1849 ], [ 86.08317, 24.18447 ], [ 86.07936, 24.18287 ], [ 86.05993, 24.1684 ], [ 86.0512, 24.16561 ], [ 86.05148, 24.16686 ], [ 86.0433, 24.16896 ], [ 86.0234, 24.17771 ], [ 86.01712, 24.17944 ], [ 86.01296, 24.18257 ], [ 86.00791, 24.18988 ], [ 86.00487, 24.19168 ], [ 86.00207, 24.19179 ], [ 86.00009, 24.19088 ], [ 85.9986, 24.18783 ], [ 85.99984, 24.17749 ], [ 86.00099, 24.17428 ], [ 86.00067, 24.17098 ], [ 85.99836, 24.16989 ], [ 85.99648, 24.17085 ], [ 85.98779, 24.17141 ], [ 85.98174, 24.16844 ], [ 85.97797, 24.16851 ], [ 85.96841, 24.1706 ], [ 85.96108, 24.17732 ], [ 85.95967, 24.18089 ], [ 85.96125, 24.18408 ], [ 85.97125, 24.18906 ], [ 85.97282, 24.19362 ], [ 85.97088, 24.19619 ], [ 85.96319, 24.20057 ], [ 85.96149, 24.20263 ], [ 85.95993, 24.20622 ], [ 85.95869, 24.21877 ], [ 85.95744, 24.22143 ], [ 85.95214, 24.22634 ], [ 85.94687, 24.22889 ], [ 85.94235, 24.22922 ], [ 85.93459, 24.22671 ], [ 85.93213, 24.22662 ], [ 85.92875, 24.22881 ], [ 85.92544, 24.23384 ], [ 85.92283, 24.23558 ], [ 85.91969, 24.23531 ], [ 85.91838, 24.23374 ], [ 85.9181, 24.22533 ], [ 85.91547, 24.22194 ], [ 85.90862, 24.22094 ], [ 85.88954, 24.22246 ], [ 85.88494, 24.2218 ], [ 85.88446, 24.21879 ], [ 85.88195, 24.21706 ], [ 85.88166, 24.21267 ], [ 85.88054, 24.20956 ], [ 85.87861, 24.20776 ], [ 85.87565, 24.20785 ], [ 85.86644, 24.2113 ], [ 85.86051, 24.21156 ], [ 85.85748, 24.21316 ], [ 85.85604, 24.21549 ], [ 85.85566, 24.21827 ], [ 85.85688, 24.2285 ], [ 85.85784, 24.23098 ], [ 85.85787, 24.23519 ], [ 85.85502, 24.2449 ], [ 85.85433, 24.24531 ], [ 85.85496, 24.24823 ], [ 85.85364, 24.25027 ], [ 85.84987, 24.25244 ], [ 85.84179, 24.25136 ], [ 85.83913, 24.25169 ], [ 85.83692, 24.25328 ], [ 85.83632, 24.25518 ], [ 85.84037, 24.25995 ], [ 85.84491, 24.26254 ], [ 85.85099, 24.26761 ], [ 85.85145, 24.27056 ], [ 85.85318, 24.27055 ], [ 85.85459, 24.27321 ], [ 85.85919, 24.2751 ], [ 85.85958, 24.28038 ], [ 85.86158, 24.2815 ], [ 85.86293, 24.28707 ], [ 85.8692, 24.28793 ], [ 85.87458, 24.28706 ], [ 85.87452, 24.29076 ], [ 85.87259, 24.29394 ], [ 85.87283, 24.296 ], [ 85.87666, 24.29753 ], [ 85.88384, 24.29734 ], [ 85.88985, 24.29478 ], [ 85.89592, 24.29537 ], [ 85.89566, 24.30134 ], [ 85.893, 24.30571 ], [ 85.89285, 24.30774 ], [ 85.89461, 24.31059 ], [ 85.89517, 24.31372 ], [ 85.90205, 24.31679 ], [ 85.90444, 24.3155 ], [ 85.90712, 24.31517 ], [ 85.90965, 24.31867 ], [ 85.91199, 24.31985 ], [ 85.92118, 24.3171 ], [ 85.93733, 24.31719 ], [ 85.93896, 24.31548 ], [ 85.94047, 24.31632 ], [ 85.94924, 24.31501 ], [ 85.94824, 24.31906 ], [ 85.94862, 24.32189 ], [ 85.95279, 24.32375 ], [ 85.95542, 24.32589 ], [ 85.95741, 24.32484 ], [ 85.96036, 24.32136 ], [ 85.9644, 24.32045 ], [ 85.96883, 24.32059 ], [ 85.9697, 24.32197 ], [ 85.96668, 24.32374 ], [ 85.9665, 24.32681 ], [ 85.97163, 24.32999 ], [ 85.97398, 24.32701 ] ] ] } },
{ "type": "Feature", "properties": { "OBJECTID": 5593, "state_lgd": "20", "state_name": "JHARKHAND", "district_lgd": "349", "district_name": "GIRIDIH", "district_name_source": "district_table", "subdistrict_lgd": "02534", "subdistrict_name": "DEORI", "subdistrict_type": "", "name_corrupted": false, "remarks": "", "label_lon": 86.167057987535486, "label_lat": 24.508822864640006 }, "geometry": { "type": "Polygon", "coordinates": [ [ [ 86.21699, 24.61307 ], [ 86.2183, 24.61101 ], [ 86.22216, 24.6109 ], [ 86.22359, 24.60946 ], [ 86.22417, 24.60679 ], [ 86.22954, 24.60572 ], [ 86.23087, 24.6039 ], [ 86.2348, 24.60282 ], [ 86.23686, 24.60053 ], [ 86.23834, 24.60013 ], [ 86.2392, 24.5981 ], [ 86.2408, 24.59696 ], [ 86.24154, 24.59001 ], [ 86.2461, 24.58761 ], [ 86.25179, 24.5865 ], [ 86.25454, 24.58709 ], [ 86.25695, 24.58057 ], [ 86.25921, 24.57867 ], [ 86.26114, 24.57848 ], [ 86.2626, 24.57927 ], [ 86.26365, 24.58142 ], [ 86.26282, 24.58396 ], [ 86.26434, 24.58425 ], [ 86.2677, 24.58055 ], [ 86.27114, 24.57939 ], [ 86.27321, 24.57729 ], [ 86.27467, 24.57713 ], [ 86.27545, 24.57793 ], [ 86.27533, 24.57936 ], [ 86.26995, 24.5841 ], [ 86.26967, 24.58517 ], [ 86.27617, 24.58663 ], [ 86.28152, 24.58511 ], [ 86.28492, 24.58786 ], [ 86.28799, 24.587 ], [ 86.29066, 24.58834 ], [ 86.29238, 24.58831 ], [ 86.29745, 24.5851 ], [ 86.30074, 24.58608 ], [ 86.30184, 24.58384 ], [ 86.30302, 24.58328 ], [ 86.30917, 24.58389 ], [ 86.30811, 24.58759 ], [ 86.30856, 24.58846 ], [ 86.31412, 24.58702 ], [ 86.31748, 24.58823 ], [ 86.31937, 24.58596 ], [ 86.32338, 24.58646 ], [ 86.31613, 24.58128 ], [ 86.31761, 24.5774 ], [ 86.31339, 24.57513 ], [ 86.31131, 24.57307 ], [ 86.30709, 24.57139 ], [ 86.30662, 24.57025 ], [ 86.30744, 24.56723 ], [ 86.30575, 24.56716 ], [ 86.30403, 24.56581 ], [ 86.30084, 24.56012 ], [ 86.3012, 24.55915 ], [ 86.30278, 24.55924 ], [ 86.30278, 24.5565 ], [ 86.30456, 24.55486 ], [ 86.30414, 24.5529 ], [ 86.30804, 24.54881 ], [ 86.30627, 24.54452 ], [ 86.29999, 24.53627 ], [ 86.29713, 24.5361 ], [ 86.29747, 24.53351 ], [ 86.29929, 24.53034 ], [ 86.30569, 24.52769 ], [ 86.30511, 24.52538 ], [ 86.30603, 24.5234 ], [ 86.30557, 24.51941 ], [ 86.30912, 24.51248 ], [ 86.30898, 24.50976 ], [ 86.30331, 24.50545 ], [ 86.30244, 24.5026 ], [ 86.29942, 24.5 ], [ 86.29887, 24.49525 ], [ 86.29549, 24.49145 ], [ 86.29378, 24.48817 ], [ 86.29338, 24.48121 ], [ 86.29042, 24.4789 ], [ 86.28778, 24.47873 ], [ 86.28346, 24.47979 ], [ 86.28183, 24.47911 ], [ 86.27601, 24.4658 ], [ 86.28391, 24.46447 ], [ 86.2864, 24.46243 ], [ 86.288, 24.46283 ], [ 86.29993, 24.4587 ], [ 86.29456, 24.45601 ], [ 86.2942, 24.4522 ], [ 86.29597, 24.45045 ], [ 86.29164, 24.44971 ], [ 86.28819, 24.44547 ], [ 86.28844, 24.44315 ], [ 86.29234, 24.43725 ], [ 86.28795, 24.43757 ], [ 86.28532, 24.439 ], [ 86.28479, 24.43785 ], [ 86.28349, 24.43806 ], [ 86.28274, 24.43925 ], [ 86.2828, 24.44231 ], [ 86.28014, 24.4434 ], [ 86.28045, 24.44604 ], [ 86.27842, 24.44703 ], [ 86.27177, 24.44565 ], [ 86.26916, 24.44402 ], [ 86.27047, 24.44669 ], [ 86.26864, 24.44635 ], [ 86.26655, 24.44404 ], [ 86.26641, 24.44124 ], [ 86.26064, 24.43957 ], [ 86.26008, 24.441 ], [ 86.25909, 24.44112 ], [ 86.25859, 24.44007 ], [ 86.25602, 24.4391 ], [ 86.25418, 24.43655 ], [ 86.24973, 24.43409 ], [ 86.24883, 24.4323 ], [ 86.2481, 24.43043 ], [ 86.24864, 24.42843 ], [ 86.25037, 24.42679 ], [ 86.25098, 24.42461 ], [ 86.25651, 24.42315 ], [ 86.25834, 24.422 ], [ 86.25856, 24.42083 ], [ 86.25447, 24.41844 ], [ 86.25136, 24.41749 ], [ 86.24879, 24.41771 ], [ 86.24423, 24.41515 ], [ 86.24067, 24.41467 ], [ 86.23758, 24.40762 ], [ 86.23314, 24.40814 ], [ 86.22657, 24.40166 ], [ 86.22446, 24.40175 ], [ 86.22367, 24.40393 ], [ 86.22031, 24.40539 ], [ 86.21897, 24.40569 ], [ 86.21701, 24.40428 ], [ 86.21666, 24.40653 ], [ 86.21444, 24.4072 ], [ 86.21553, 24.40914 ], [ 86.21476, 24.40999 ], [ 86.21295, 24.4099 ], [ 86.20835, 24.40629 ], [ 86.2063, 24.40678 ], [ 86.20536, 24.40789 ], [ 86.20491, 24.41304 ], [ 86.20061, 24.41354 ], [ 86.20189, 24.41589 ], [ 86.20126, 24.41955 ], [ 86.198, 24.41927 ], [ 86.19571, 24.41688 ], [ 86.19421, 24.4176 ], [ 86.19396, 24.41984 ], [ 86.19516, 24.42219 ], [ 86.19421, 24.42322 ], [ 86.19392, 24.42637 ], [ 86.18834, 24.428 ], [ 86.18539, 24.42772 ], [ 86.18374, 24.42913 ], [ 86.18097, 24.429 ], [ 86.17553, 24.43096 ], [ 86.17422, 24.43195 ], [ 86.17362, 24.44156 ], [ 86.16511, 24.44055 ], [ 86.16298, 24.44301 ], [ 86.16347, 24.44608 ], [ 86.15877, 24.44885 ], [ 86.15748, 24.4489 ], [ 86.15603, 24.44761 ], [ 86.15283, 24.44758 ], [ 86.15193, 24.44865 ], [ 86.15201, 24.45023 ], [ 86.14971, 24.45088 ], [ 86.14881, 24.44918 ], [ 86.13695, 24.45139 ], [ 86.1367, 24.45337 ], [ 86.12783, 24.45222 ], [ 86.12596, 24.45451 ], [ 86.12132, 24.45642 ], [ 86.11544, 24.45092 ], [ 86.11135, 24.45471 ], [ 86.10887, 24.45352 ], [ 86.10562, 24.4549 ], [ 86.09897, 24.45531 ], [ 86.09691, 24.45386 ], [ 86.09425, 24.45378 ], [ 86.09004, 24.45531 ], [ 86.08988, 24.45901 ], [ 86.08285, 24.45865 ], [ 86.08185, 24.46062 ], [ 86.08063, 24.46124 ], [ 86.08069, 24.46255 ], [ 86.07932, 24.46282 ], [ 86.07851, 24.45943 ], [ 86.07428, 24.45535 ], [ 86.07122, 24.4549 ], [ 86.06479, 24.45587 ], [ 86.06093, 24.4536 ], [ 86.06043, 24.4529 ], [ 86.06096, 24.45074 ], [ 86.0604, 24.45047 ], [ 86.05295, 24.45477 ], [ 86.04901, 24.45549 ], [ 86.04741, 24.45671 ], [ 86.04514, 24.45651 ], [ 86.04368, 24.45543 ], [ 86.04227, 24.45362 ], [ 86.04237, 24.45076 ], [ 86.04117, 24.45009 ], [ 86.03979, 24.45243 ], [ 86.03531, 24.45175 ], [ 86.02626, 24.45661 ], [ 86.02429, 24.45626 ], [ 86.02317, 24.45723 ], [ 86.02231, 24.46114 ], [ 86.01843, 24.4565 ], [ 86.01373, 24.45611 ], [ 86.01142, 24.45692 ], [ 86.00745, 24.46036 ], [ 86.00625, 24.46819 ], [ 86.00257, 24.47233 ], [ 86.00256, 24.47548 ], [ 86.00125, 24.47581 ], [ 85.9991, 24.47493 ], [ 85.9885, 24.48205 ], [ 85.98735, 24.48403 ], [ 85.97934, 24.48813 ], [ 85.97451, 24.4916 ], [ 85.97371, 24.49463 ], [ 85.97576, 24.49662 ], [ 85.97674, 24.50527 ], [ 85.97627, 24.50678 ], [ 85.97772, 24.51198 ], [ 85.97578, 24.51405 ], [ 85.9744, 24.51887 ], [ 85.97601, 24.52286 ], [ 85.97746, 24.52425 ], [ 85.97758, 24.52538 ], [ 85.97599, 24.52714 ], [ 85.97597, 24.52828 ], [ 85.97648, 24.52986 ], [ 85.97749, 24.52998 ], [ 85.9761, 24.53244 ], [ 85.9765, 24.53643 ], [ 85.97247, 24.53779 ], [ 85.97593, 24.54139 ], [ 85.97805, 24.54224 ], [ 85.98277, 24.54046 ], [ 85.98423, 24.53963 ], [ 85.98566, 24.53704 ], [ 85.9877, 24.53682 ], [ 85.98986, 24.53352 ], [ 86.00016, 24.53405 ], [ 86.00074, 24.53476 ], [ 85.9981, 24.53981 ], [ 85.99979, 24.54984 ], [ 86.00484, 24.54903 ], [ 86.00944, 24.54642 ], [ 86.01344, 24.54755 ], [ 86.01654, 24.54714 ], [ 86.01607, 24.5453 ], [ 86.01708, 24.54369 ], [ 86.022, 24.53857 ], [ 86.02117, 24.53589 ], [ 86.01745, 24.53239 ], [ 86.01879, 24.52976 ], [ 86.02, 24.52985 ], [ 86.02233, 24.53296 ], [ 86.02426, 24.53695 ], [ 86.02424, 24.53948 ], [ 86.02538, 24.54033 ], [ 86.0313, 24.53607 ], [ 86.03759, 24.53475 ], [ 86.04693, 24.53433 ], [ 86.04986, 24.53587 ], [ 86.05097, 24.53732 ], [ 86.05328, 24.54304 ], [ 86.05764, 24.54507 ], [ 86.05982, 24.54376 ], [ 86.06401, 24.53852 ], [ 86.0655, 24.5338 ], [ 86.07094, 24.53478 ], [ 86.07312, 24.53317 ], [ 86.07804, 24.53357 ], [ 86.07513, 24.53129 ], [ 86.07736, 24.52957 ], [ 86.07726, 24.52849 ], [ 86.07118, 24.51881 ], [ 86.07576, 24.51653 ], [ 86.07817, 24.51636 ], [ 86.08137, 24.51467 ], [ 86.08219, 24.51542 ], [ 86.08287, 24.51661 ], [ 86.08061, 24.52005 ], [ 86.07888, 24.52661 ], [ 86.08032, 24.52833 ], [ 86.08473, 24.52947 ], [ 86.09087, 24.52565 ], [ 86.09743, 24.52404 ], [ 86.09884, 24.52412 ], [ 86.10201, 24.52671 ], [ 86.10366, 24.52693 ], [ 86.10857, 24.52273 ], [ 86.11427, 24.52024 ], [ 86.12212, 24.52122 ], [ 86.12515, 24.52253 ], [ 86.12704, 24.52438 ], [ 86.12934, 24.53008 ], [ 86.12661, 24.53355 ], [ 86.12504, 24.53818 ], [ 86.11883, 24.53909 ], [ 86.11812, 24.5404 ], [ 86.11925, 24.54285 ], [ 86.11918, 24.54472 ], [ 86.12428, 24.54201 ], [ 86.12111, 24.54764 ], [ 86.12103, 24.54907 ], [ 86.11699, 24.55283 ], [ 86.10949, 24.55473 ], [ 86.1105, 24.55609 ], [ 86.11079, 24.55925 ], [ 86.11272, 24.5608 ], [ 86.11518, 24.56114 ], [ 86.12117, 24.56977 ], [ 86.11896, 24.57175 ], [ 86.11777, 24.57604 ], [ 86.11821, 24.58152 ], [ 86.12189, 24.58727 ], [ 86.12387, 24.58903 ], [ 86.12743, 24.58984 ], [ 86.13353, 24.59346 ], [ 86.13255, 24.5959 ], [ 86.13281, 24.60092 ], [ 86.13192, 24.60376 ], [ 86.13489, 24.605 ], [ 86.13703, 24.607 ], [ 86.14135, 24.60704 ], [ 86.14369, 24.60505 ], [ 86.14758, 24.60414 ], [ 86.1515, 24.60191 ], [ 86.15169, 24.60028 ], [ 86.15001, 24.59761 ], [ 86.15023, 24.59513 ], [ 86.15216, 24.59284 ], [ 86.15446, 24.59245 ], [ 86.16084, 24.58796 ], [ 86.1615, 24.58625 ], [ 86.16954, 24.58587 ], [ 86.17612, 24.58446 ], [ 86.17945, 24.58509 ], [ 86.18048, 24.58368 ], [ 86.18197, 24.58521 ], [ 86.18376, 24.58408 ], [ 86.1858, 24.58595 ], [ 86.18888, 24.58527 ], [ 86.19448, 24.58565 ], [ 86.19727, 24.58824 ], [ 86.20765, 24.59113 ], [ 86.21445, 24.59493 ], [ 86.21497, 24.59707 ], [ 86.21635, 24.59854 ], [ 86.21584, 24.60059 ], [ 86.21336, 24.60235 ], [ 86.21422, 24.60445 ], [ 86.21333, 24.60628 ], [ 86.2143, 24.61379 ], [ 86.21699, 24.61307 ] ] ] } },
{ "type": "Feature", "properties": { "OBJECTID": 5596, "state_lgd": "20", "state_name": "JHARKHAND", "district_lgd": "349", "district_name": "GIRIDIH", "district_name_source": "district_table", "subdistrict_lgd": "02535", "subdistrict_name": "DHANWAR", "subdistrict_type": "", "name_corrupted": false, "remarks": "", "label_lon": 85.93304503779558, "label_lat": 24.40676519716364 }, "geometry": { "type": "Polygon", "coordinates": [ [ [ 85.87047, 24.51959 ], [ 85.87688, 24.51923 ], [ 85.87975, 24.5171 ], [ 85.88034, 24.513 ], [ 85.88298, 24.51189 ], [ 85.88889, 24.50507 ], [ 85.89589, 24.50701 ], [ 85.89771, 24.50888 ], [ 85.89814, 24.5115 ], [ 85.89913, 24.51168 ], [ 85.91082, 24.51304 ], [ 85.91567, 24.51173 ], [ 85.92235, 24.51196 ], [ 85.93608, 24.51503 ], [ 85.94503, 24.51846 ], [ 85.94701, 24.51704 ], [ 85.95424, 24.51571 ], [ 85.95611, 24.51025 ], [ 85.95461, 24.50424 ], [ 85.95616, 24.49944 ], [ 85.95405, 24.49987 ], [ 85.95279, 24.49844 ], [ 85.94704, 24.50059 ], [ 85.94595, 24.49987 ], [ 85.94541, 24.49762 ], [ 85.94499, 24.49327 ], [ 85.94554, 24.49144 ], [ 85.95001, 24.48449 ], [ 85.95075, 24.48446 ], [ 85.95291, 24.487 ], [ 85.95721, 24.48846 ], [ 85.95899, 24.48764 ], [ 85.95816, 24.4852 ], [ 85.95847, 24.48447 ], [ 85.95923, 24.48465 ], [ 85.96218, 24.48721 ], [ 85.96494, 24.48731 ], [ 85.96858, 24.48916 ], [ 85.97173, 24.48925 ], [ 85.97273, 24.49076 ], [ 85.97451, 24.4916 ], [ 85.97934, 24.48813 ], [ 85.98735, 24.48403 ], [ 85.9885, 24.48205 ], [ 85.9991, 24.47493 ], [ 86.00125, 24.47581 ], [ 86.00256, 24.47548 ], [ 86.00257, 24.47233 ], [ 86.00625, 24.46819 ], [ 86.00745, 24.46036 ], [ 86.00825, 24.45911 ], [ 86.01373, 24.45611 ], [ 86.01843, 24.4565 ], [ 86.01833, 24.45328 ], [ 86.01408, 24.45329 ], [ 86.01044, 24.45074 ], [ 86.009, 24.44795 ], [ 86.00358, 24.4431 ], [ 86.00147, 24.44004 ], [ 86.00375, 24.43808 ], [ 86.00555, 24.43793 ], [ 86.00612, 24.44136 ], [ 86.01194, 24.44697 ], [ 86.01685, 24.44513 ], [ 86.01736, 24.44399 ], [ 86.0163, 24.43527 ], [ 86.01279, 24.43109 ], [ 86.01583, 24.42086 ], [ 86.01869, 24.41895 ], [ 86.01978, 24.4152 ], [ 86.0214, 24.41484 ], [ 86.02486, 24.41006 ], [ 86.02926, 24.41161 ], [ 86.03448, 24.40953 ], [ 86.03927, 24.40358 ], [ 86.04502, 24.40762 ], [ 86.04906, 24.40735 ], [ 86.05246, 24.40489 ], [ 86.04987, 24.402 ], [ 86.04436, 24.39169 ], [ 86.04433, 24.39102 ], [ 86.04728, 24.3894 ], [ 86.04778, 24.38789 ], [ 86.045, 24.38275 ], [ 86.04349, 24.38176 ], [ 86.03814, 24.38279 ], [ 86.03673, 24.3824 ], [ 86.03276, 24.37963 ], [ 86.03185, 24.37686 ], [ 86.02407, 24.37477 ], [ 86.0206, 24.37228 ], [ 86.01587, 24.36565 ], [ 86.01552, 24.36413 ], [ 86.01278, 24.36161 ], [ 86.01279, 24.36004 ], [ 86.01988, 24.35422 ], [ 86.02071, 24.35026 ], [ 86.01974, 24.34579 ], [ 86.02199, 24.34263 ], [ 86.02136, 24.33779 ], [ 86.02187, 24.33743 ], [ 86.02447, 24.33883 ], [ 86.02664, 24.33799 ], [ 86.02574, 24.33286 ], [ 86.0214, 24.32734 ], [ 86.02212, 24.32521 ], [ 86.02503, 24.32199 ], [ 86.02536, 24.32033 ], [ 86.02513, 24.31891 ], [ 86.02145, 24.31696 ], [ 86.02081, 24.31556 ], [ 86.0222, 24.31049 ], [ 86.02058, 24.31077 ], [ 86.01448, 24.31469 ], [ 86.0097, 24.31217 ], [ 86.00725, 24.31564 ], [ 86.00505, 24.31408 ], [ 86.00041, 24.31276 ], [ 85.99693, 24.31335 ], [ 85.99355, 24.31726 ], [ 85.98503, 24.32022 ], [ 85.98152, 24.3238 ], [ 85.9754, 24.32591 ], [ 85.97163, 24.32999 ], [ 85.9665, 24.32681 ], [ 85.96668, 24.32374 ], [ 85.9697, 24.32197 ], [ 85.96883, 24.32059 ], [ 85.9644, 24.32045 ], [ 85.96036, 24.32136 ], [ 85.95741, 24.32484 ], [ 85.95542, 24.32589 ], [ 85.95279, 24.32375 ], [ 85.94862, 24.32189 ], [ 85.94824, 24.31906 ], [ 85.94924, 24.31501 ], [ 85.94047, 24.31632 ], [ 85.93896, 24.31548 ], [ 85.93733, 24.31719 ], [ 85.92118, 24.3171 ], [ 85.91199, 24.31985 ], [ 85.90965, 24.31867 ], [ 85.90712, 24.31517 ], [ 85.90444, 24.3155 ], [ 85.90205, 24.31679 ], [ 85.89517, 24.31372 ], [ 85.89461, 24.31059 ], [ 85.89285, 24.30774 ], [ 85.893, 24.30571 ], [ 85.89566, 24.30134 ], [ 85.89592, 24.29537 ], [ 85.88985, 24.29478 ], [ 85.88384, 24.29734 ], [ 85.88034, 24.29769 ], [ 85.87666, 24.29753 ], [ 85.87283, 24.296 ], [ 85.87363, 24.29883 ], [ 85.87268, 24.30262 ], [ 85.87244, 24.3092 ], [ 85.87073, 24.3108 ], [ 85.86842, 24.31588 ], [ 85.87127, 24.32072 ], [ 85.87017, 24.32812 ], [ 85.8522, 24.32749 ], [ 85.85201, 24.33745 ], [ 85.85013, 24.33914 ], [ 85.8462, 24.34019 ], [ 85.84723, 24.34807 ], [ 85.85333, 24.36136 ], [ 85.85204, 24.36889 ], [ 85.85298, 24.37316 ], [ 85.84974, 24.37508 ], [ 85.85238, 24.38746 ], [ 85.85174, 24.39027 ], [ 85.85352, 24.39159 ], [ 85.8555, 24.39491 ], [ 85.85154, 24.39881 ], [ 85.85107, 24.40045 ], [ 85.85182, 24.40284 ], [ 85.85066, 24.40601 ], [ 85.85614, 24.41352 ], [ 85.84402, 24.42123 ], [ 85.83759, 24.42427 ], [ 85.83621, 24.43314 ], [ 85.83201, 24.4401 ], [ 85.83128, 24.44487 ], [ 85.83731, 24.44841 ], [ 85.84667, 24.45735 ], [ 85.84998, 24.4577 ], [ 85.85032, 24.45998 ], [ 85.8515, 24.46128 ], [ 85.85123, 24.46377 ], [ 85.85596, 24.46614 ], [ 85.85733, 24.46759 ], [ 85.85881, 24.47329 ], [ 85.86053, 24.47606 ], [ 85.86002, 24.4785 ], [ 85.86201, 24.48334 ], [ 85.86316, 24.48897 ], [ 85.86628, 24.49094 ], [ 85.86478, 24.49383 ], [ 85.86689, 24.50056 ], [ 85.86576, 24.50842 ], [ 85.86893, 24.5219 ], [ 85.87047, 24.51959 ] ] ] } },
{ "type": "Feature", "properties": { "OBJECTID": 5606, "state_lgd": "20", "state_name": "JHARKHAND", "district_lgd": "349", "district_name": "GIRIDIH", "district_name_source": "district_table", "subdistrict_lgd": "02538", "subdistrict_name": "GANDE", "subdistrict_type": "", "name_corrupted": false, "remarks": "", "label_lon": 86.453341878283481, "label_lat": 24.136887540576822 }, "geometry": { "type": "Polygon", "coordinates": [ [ [ 86.49954, 24.26065 ], [ 86.5007, 24.25714 ], [ 86.50915, 24.2574 ], [ 86.50847, 24.25566 ], [ 86.51059, 24.25372 ], [ 86.5087, 24.25185 ], [ 86.50977, 24.2501 ], [ 86.50998, 24.24775 ], [ 86.51309, 24.24523 ], [ 86.51366, 24.24266 ], [ 86.51611, 24.23941 ], [ 86.51003, 24.23557 ], [ 86.51012, 24.23271 ], [ 86.50868, 24.23078 ], [ 86.51061, 24.22902 ], [ 86.5126, 24.22853 ], [ 86.51263, 24.22546 ], [ 86.51656, 24.22394 ], [ 86.51697, 24.22212 ], [ 86.51554, 24.22201 ], [ 86.51202, 24.21879 ], [ 86.507, 24.20927 ], [ 86.51148, 24.20773 ], [ 86.50487, 24.20256 ], [ 86.50257, 24.20207 ], [ 86.50034, 24.1994 ], [ 86.50199, 24.1981 ], [ 86.50387, 24.19337 ], [ 86.50145, 24.18641 ], [ 86.50221, 24.18363 ], [ 86.50185, 24.18101 ], [ 86.49686, 24.17547 ], [ 86.4946, 24.16746 ], [ 86.49027, 24.1602 ], [ 86.48513, 24.15386 ], [ 86.48515, 24.15201 ], [ 86.48585, 24.15124 ], [ 86.49891, 24.15234 ], [ 86.50198, 24.15136 ], [ 86.50316, 24.14935 ], [ 86.50577, 24.14819 ], [ 86.51561, 24.14988 ], [ 86.52428, 24.15823 ], [ 86.52787, 24.155 ], [ 86.53023, 24.15454 ], [ 86.54805, 24.15328 ], [ 86.55122, 24.15522 ], [ 86.56314, 24.14983 ], [ 86.56915, 24.14585 ], [ 86.57204, 24.14274 ], [ 86.56726, 24.13769 ], [ 86.56499, 24.13653 ], [ 86.56602, 24.13105 ], [ 86.56556, 24.12438 ], [ 86.56123, 24.12101 ], [ 86.5598, 24.10946 ], [ 86.55386, 24.10282 ], [ 86.55274, 24.10025 ], [ 86.55422, 24.09967 ], [ 86.55295, 24.09618 ], [ 86.55169, 24.09411 ], [ 86.55075, 24.09444 ], [ 86.54983, 24.09184 ], [ 86.54843, 24.09225 ], [ 86.54727, 24.09141 ], [ 86.54637, 24.08808 ], [ 86.5455, 24.08737 ], [ 86.54601, 24.08505 ], [ 86.54339, 24.08149 ], [ 86.54524, 24.08017 ], [ 86.54487, 24.07639 ], [ 86.54572, 24.07429 ], [ 86.54419, 24.07291 ], [ 86.54367, 24.07114 ], [ 86.53767, 24.0686 ], [ 86.53617, 24.0651 ], [ 86.53366, 24.06308 ], [ 86.53112, 24.05828 ], [ 86.53029, 24.05387 ], [ 86.52473, 24.05382 ], [ 86.52399, 24.05153 ], [ 86.52188, 24.05233 ], [ 86.51859, 24.04966 ], [ 86.51452, 24.04819 ], [ 86.50577, 24.04825 ], [ 86.49531, 24.04065 ], [ 86.49435, 24.04098 ], [ 86.4924, 24.04461 ], [ 86.48702, 24.04354 ], [ 86.48372, 24.04522 ], [ 86.47816, 24.04077 ], [ 86.47731, 24.03859 ], [ 86.47639, 24.02761 ], [ 86.47727, 24.02687 ], [ 86.47941, 24.02696 ], [ 86.48257, 24.03053 ], [ 86.48392, 24.03044 ], [ 86.48461, 24.02884 ], [ 86.48416, 24.02196 ], [ 86.47093, 24.02234 ], [ 86.4685, 24.02102 ], [ 86.46749, 24.01868 ], [ 86.45602, 24.0222 ], [ 86.44665, 24.02912 ], [ 86.44161, 24.03144 ], [ 86.43251, 24.03185 ], [ 86.42294, 24.02983 ], [ 86.41508, 24.0316 ], [ 86.4011, 24.03986 ], [ 86.39719, 24.04007 ], [ 86.39457, 24.04132 ], [ 86.39045, 24.04592 ], [ 86.38656, 24.05505 ], [ 86.38294, 24.05849 ], [ 86.38085, 24.05934 ], [ 86.3765, 24.05933 ], [ 86.37363, 24.05682 ], [ 86.37252, 24.06063 ], [ 86.37102, 24.06196 ], [ 86.37232, 24.06486 ], [ 86.37391, 24.06627 ], [ 86.37213, 24.06766 ], [ 86.37153, 24.0698 ], [ 86.36919, 24.07066 ], [ 86.3688, 24.07188 ], [ 86.37074, 24.07286 ], [ 86.36889, 24.07448 ], [ 86.3681, 24.07682 ], [ 86.36637, 24.07678 ], [ 86.36707, 24.07762 ], [ 86.3666, 24.08022 ], [ 86.36863, 24.08297 ], [ 86.3677, 24.08533 ], [ 86.3655, 24.08591 ], [ 86.3665, 24.08934 ], [ 86.37001, 24.09127 ], [ 86.37075, 24.09338 ], [ 86.36929, 24.09476 ], [ 86.36885, 24.09655 ], [ 86.36964, 24.09761 ], [ 86.37098, 24.09816 ], [ 86.37532, 24.09764 ], [ 86.37531, 24.10081 ], [ 86.37276, 24.10203 ], [ 86.37188, 24.10588 ], [ 86.37717, 24.1057 ], [ 86.37783, 24.10805 ], [ 86.37725, 24.11017 ], [ 86.37532, 24.11093 ], [ 86.37286, 24.11447 ], [ 86.37423, 24.11681 ], [ 86.37273, 24.11974 ], [ 86.37038, 24.12041 ], [ 86.36932, 24.12158 ], [ 86.37011, 24.12459 ], [ 86.37363, 24.12346 ], [ 86.37709, 24.12351 ], [ 86.37617, 24.12728 ], [ 86.37452, 24.1289 ], [ 86.37608, 24.13057 ], [ 86.37625, 24.13274 ], [ 86.37779, 24.13301 ], [ 86.38264, 24.13726 ], [ 86.38524, 24.13853 ], [ 86.38465, 24.13992 ], [ 86.38281, 24.14109 ], [ 86.37974, 24.13895 ], [ 86.37534, 24.13891 ], [ 86.37605, 24.14077 ], [ 86.37544, 24.1434 ], [ 86.37661, 24.14463 ], [ 86.37561, 24.1469 ], [ 86.37875, 24.14885 ], [ 86.382, 24.14882 ], [ 86.38243, 24.15204 ], [ 86.37903, 24.15316 ], [ 86.37741, 24.15538 ], [ 86.37733, 24.16159 ], [ 86.37561, 24.16268 ], [ 86.37351, 24.16345 ], [ 86.37155, 24.16285 ], [ 86.36952, 24.16422 ], [ 86.36554, 24.16327 ], [ 86.36163, 24.16407 ], [ 86.36069, 24.16585 ], [ 86.36253, 24.16796 ], [ 86.36414, 24.17196 ], [ 86.36058, 24.17229 ], [ 86.35553, 24.17586 ], [ 86.35473, 24.17548 ], [ 86.35455, 24.17182 ], [ 86.35015, 24.17146 ], [ 86.34762, 24.17277 ], [ 86.34407, 24.17239 ], [ 86.34221, 24.17473 ], [ 86.34319, 24.17928 ], [ 86.35029, 24.19022 ], [ 86.3517, 24.19367 ], [ 86.36208, 24.208 ], [ 86.36513, 24.20727 ], [ 86.36625, 24.20545 ], [ 86.36705, 24.2055 ], [ 86.36824, 24.20641 ], [ 86.37066, 24.20657 ], [ 86.37202, 24.20908 ], [ 86.37599, 24.20593 ], [ 86.37881, 24.20964 ], [ 86.3795, 24.2119 ], [ 86.37834, 24.21473 ], [ 86.3796, 24.2168 ], [ 86.37887, 24.21863 ], [ 86.3791, 24.22201 ], [ 86.3805, 24.22667 ], [ 86.38297, 24.22947 ], [ 86.39125, 24.22823 ], [ 86.3936, 24.23102 ], [ 86.39648, 24.23274 ], [ 86.40751, 24.23451 ], [ 86.40919, 24.23279 ], [ 86.41564, 24.23142 ], [ 86.4169, 24.23018 ], [ 86.42195, 24.2316 ], [ 86.42517, 24.22964 ], [ 86.42638, 24.23401 ], [ 86.43013, 24.23908 ], [ 86.43004, 24.24081 ], [ 86.4321, 24.24608 ], [ 86.43341, 24.24717 ], [ 86.43739, 24.2465 ], [ 86.43804, 24.24458 ], [ 86.44197, 24.24729 ], [ 86.44474, 24.24818 ], [ 86.44888, 24.24782 ], [ 86.45167, 24.25041 ], [ 86.44958, 24.25432 ], [ 86.45109, 24.25579 ], [ 86.45989, 24.25498 ], [ 86.46101, 24.25297 ], [ 86.47025, 24.25345 ], [ 86.48028, 24.26014 ], [ 86.48434, 24.26199 ], [ 86.48938, 24.25923 ], [ 86.49264, 24.25898 ], [ 86.4967, 24.26157 ], [ 86.49954, 24.26065 ] ] ] } },
{ "type": "Feature", "properties": { "OBJECTID": 5609, "state_lgd": "20", "state_name": "JHARKHAND", "district_lgd": "349", "district_name": "GIRIDIH", "district_name_source": "district_table", "subdistrict_lgd": "02532", "subdistrict_name": "GAWAN", "subdistrict_type": "", "name_corrupted": false, "remarks": "", "label_lon": 85.876938034812483, "label_lat": 24.634216606047477 }, "geometry": { "type": "Polygon", "coordinates": [ [ [ 85.91392, 24.75107 ], [ 85.9139, 24.75 ], [ 85.92158, 24.74325 ], [ 85.92517, 24.74095 ], [ 85.93385, 24.73753 ], [ 85.93562, 24.7356 ], [ 85.94322, 24.73374 ], [ 85.94869, 24.73357 ], [ 85.94625, 24.72914 ], [ 85.94688, 24.72462 ], [ 85.94396, 24.7206 ], [ 85.94303, 24.71794 ], [ 85.94634, 24.71532 ], [ 85.94544, 24.71451 ], [ 85.94465, 24.70931 ], [ 85.94547, 24.70685 ], [ 85.94513, 24.70381 ], [ 85.94165, 24.70305 ], [ 85.9404, 24.70088 ], [ 85.9404, 24.69913 ], [ 85.94187, 24.69901 ], [ 85.94248, 24.69726 ], [ 85.94248, 24.69191 ], [ 85.94581, 24.69283 ], [ 85.94817, 24.69246 ], [ 85.94788, 24.68942 ], [ 85.94988, 24.68255 ], [ 85.94984, 24.6795 ], [ 85.9571, 24.67866 ], [ 85.95495, 24.67644 ], [ 85.95445, 24.67318 ], [ 85.95296, 24.67235 ], [ 85.95256, 24.66768 ], [ 85.95079, 24.66744 ], [ 85.94937, 24.66859 ], [ 85.94694, 24.66864 ], [ 85.94434, 24.6661 ], [ 85.94188, 24.66026 ], [ 85.94327, 24.65467 ], [ 85.94247, 24.65062 ], [ 85.9405, 24.64826 ], [ 85.93919, 24.64364 ], [ 85.93662, 24.64197 ], [ 85.93699, 24.64031 ], [ 85.93489, 24.63848 ], [ 85.93334, 24.63851 ], [ 85.93555, 24.63467 ], [ 85.94061, 24.63318 ], [ 85.9421, 24.63544 ], [ 85.94452, 24.63623 ], [ 85.94857, 24.6406 ], [ 85.95059, 24.64093 ], [ 85.9518, 24.64059 ], [ 85.95153, 24.63893 ], [ 85.95344, 24.63524 ], [ 85.95608, 24.63532 ], [ 85.95926, 24.63179 ], [ 85.96144, 24.63318 ], [ 85.96329, 24.63293 ], [ 85.96642, 24.63392 ], [ 85.96962, 24.63351 ], [ 85.97177, 24.63143 ], [ 85.97348, 24.63365 ], [ 85.97509, 24.63388 ], [ 85.97769, 24.63161 ], [ 85.98194, 24.6305 ], [ 85.98348, 24.62492 ], [ 85.98289, 24.62459 ], [ 85.98023, 24.62687 ], [ 85.97943, 24.62631 ], [ 85.98076, 24.61616 ], [ 85.97926, 24.61416 ], [ 85.97777, 24.61404 ], [ 85.97479, 24.6121 ], [ 85.97341, 24.61268 ], [ 85.97207, 24.61536 ], [ 85.96492, 24.60861 ], [ 85.96364, 24.60793 ], [ 85.96014, 24.60827 ], [ 85.95925, 24.60557 ], [ 85.96027, 24.60389 ], [ 85.96674, 24.60634 ], [ 85.96785, 24.60603 ], [ 85.96838, 24.60489 ], [ 85.96677, 24.60411 ], [ 85.9665, 24.60046 ], [ 85.96122, 24.59661 ], [ 85.95386, 24.59434 ], [ 85.95291, 24.59247 ], [ 85.95028, 24.59319 ], [ 85.94864, 24.59281 ], [ 85.94561, 24.58522 ], [ 85.94692, 24.58285 ], [ 85.94671, 24.5818 ], [ 85.94246, 24.58126 ], [ 85.94274, 24.57872 ], [ 85.94165, 24.57229 ], [ 85.93884, 24.57169 ], [ 85.94238, 24.56875 ], [ 85.94199, 24.56574 ], [ 85.94611, 24.56264 ], [ 85.94463, 24.56117 ], [ 85.94419, 24.55914 ], [ 85.93881, 24.55654 ], [ 85.9382, 24.55451 ], [ 85.93639, 24.55358 ], [ 85.93371, 24.55324 ], [ 85.9297, 24.55111 ], [ 85.92184, 24.54942 ], [ 85.92038, 24.54983 ], [ 85.91912, 24.55279 ], [ 85.91367, 24.55619 ], [ 85.91341, 24.55462 ], [ 85.90717, 24.55078 ], [ 85.90687, 24.54988 ], [ 85.90874, 24.54716 ], [ 85.9084, 24.546 ], [ 85.90245, 24.54582 ], [ 85.90018, 24.54394 ], [ 85.90266, 24.53985 ], [ 85.90495, 24.53879 ], [ 85.9081, 24.53879 ], [ 85.90849, 24.53689 ], [ 85.90677, 24.53652 ], [ 85.90534, 24.5343 ], [ 85.90513, 24.5319 ], [ 85.89744, 24.52791 ], [ 85.89228, 24.52881 ], [ 85.88764, 24.52671 ], [ 85.8893, 24.52462 ], [ 85.89478, 24.5223 ], [ 85.89882, 24.52254 ], [ 85.90062, 24.51775 ], [ 85.89878, 24.51527 ], [ 85.897, 24.50795 ], [ 85.89589, 24.50701 ], [ 85.88889, 24.50507 ], [ 85.88298, 24.51189 ], [ 85.88034, 24.513 ], [ 85.87975, 24.5171 ], [ 85.87688, 24.51923 ], [ 85.8711, 24.51921 ], [ 85.86973, 24.5202 ], [ 85.86893, 24.5219 ], [ 85.86988, 24.52348 ], [ 85.86945, 24.52574 ], [ 85.84106, 24.54368 ], [ 85.82668, 24.54793 ], [ 85.81521, 24.5479 ], [ 85.81086, 24.5487 ], [ 85.80728, 24.55516 ], [ 85.80788, 24.55796 ], [ 85.80706, 24.5618 ], [ 85.80485, 24.5638 ], [ 85.80591, 24.56902 ], [ 85.80826, 24.57296 ], [ 85.80406, 24.57567 ], [ 85.799, 24.58112 ], [ 85.79538, 24.5835 ], [ 85.79349, 24.58582 ], [ 85.79216, 24.58924 ], [ 85.79542, 24.59756 ], [ 85.79542, 24.59985 ], [ 85.79678, 24.6001 ], [ 85.80071, 24.60458 ], [ 85.80275, 24.60873 ], [ 85.79551, 24.607 ], [ 85.79041, 24.60286 ], [ 85.78711, 24.60181 ], [ 85.78352, 24.60265 ], [ 85.77892, 24.60776 ], [ 85.77477, 24.60972 ], [ 85.77428, 24.6135 ], [ 85.77575, 24.61465 ], [ 85.77571, 24.62033 ], [ 85.77634, 24.62175 ], [ 85.77321, 24.62665 ], [ 85.77506, 24.63156 ], [ 85.7748, 24.63809 ], [ 85.77359, 24.64319 ], [ 85.77634, 24.64487 ], [ 85.78434, 24.64697 ], [ 85.78607, 24.64817 ], [ 85.78678, 24.64988 ], [ 85.78589, 24.65711 ], [ 85.78739, 24.65902 ], [ 85.79432, 24.66534 ], [ 85.79463, 24.667 ], [ 85.79626, 24.66823 ], [ 85.80191, 24.67053 ], [ 85.80435, 24.67043 ], [ 85.80624, 24.67285 ], [ 85.82419, 24.6659 ], [ 85.82853, 24.66205 ], [ 85.83243, 24.66582 ], [ 85.83765, 24.66501 ], [ 85.84278, 24.66758 ], [ 85.8425, 24.66925 ], [ 85.83803, 24.67282 ], [ 85.83776, 24.676 ], [ 85.83651, 24.67809 ], [ 85.8335, 24.68027 ], [ 85.83114, 24.69348 ], [ 85.82885, 24.69755 ], [ 85.83123, 24.70303 ], [ 85.81886, 24.715 ], [ 85.81819, 24.71831 ], [ 85.81978, 24.72483 ], [ 85.82637, 24.72803 ], [ 85.84673, 24.73334 ], [ 85.85479, 24.73451 ], [ 85.85623, 24.73917 ], [ 85.85884, 24.7379 ], [ 85.86166, 24.73514 ], [ 85.86963, 24.73223 ], [ 85.87324, 24.73309 ], [ 85.87804, 24.73627 ], [ 85.8828, 24.7339 ], [ 85.88445, 24.73153 ], [ 85.88701, 24.73109 ], [ 85.89049, 24.73391 ], [ 85.89131, 24.73675 ], [ 85.88916, 24.73798 ], [ 85.88729, 24.74073 ], [ 85.88307, 24.74327 ], [ 85.8868, 24.74729 ], [ 85.88538, 24.74875 ], [ 85.88595, 24.75034 ], [ 85.8919, 24.75228 ], [ 85.89392, 24.75176 ], [ 85.90055, 24.75576 ], [ 85.90088, 24.75667 ], [ 85.89987, 24.75864 ], [ 85.90105, 24.7589 ], [ 85.90198, 24.76439 ], [ 85.90361, 24.7656 ], [ 85.90797, 24.75798 ], [ 85.91392, 24.75107 ] ] ] } },
{ "type": "Feature", "properties": { "OBJECTID": 5613, "state_lgd": "20", "state_name": "JHARKHAND", "district_lgd": "349", "district_name": "GIRIDIH", "district_name_source": "district_table", "subdistrict_lgd": "02539", "subdistrict_name": "GIRIDIH", "subdistrict_type": "", "name_corrupted": false, "remarks": "", "label_lon": 86.250410731297023, "label_lat": 24.17131360504122 }, "geometry": { "type": "Polygon", "coordinates": [ [ [ 86.28041, 24.27451 ], [ 86.28299, 24.27317 ], [ 86.2835, 24.27002 ], [ 86.28551, 24.26716 ], [ 86.28863, 24.26608 ], [ 86.29236, 24.26307 ], [ 86.29462, 24.26261 ], [ 86.29573, 24.26061 ], [ 86.29411, 24.25613 ], [ 86.28253, 24.25346 ], [ 86.28032, 24.25733 ], [ 86.27479, 24.25393 ], [ 86.27469, 24.25269 ], [ 86.27693, 24.25079 ], [ 86.27772, 24.24821 ], [ 86.27626, 24.24745 ], [ 86.2748, 24.24527 ], [ 86.27621, 24.24038 ], [ 86.27728, 24.23926 ], [ 86.27488, 24.23717 ], [ 86.27616, 24.23398 ], [ 86.27846, 24.23309 ], [ 86.27815, 24.22875 ], [ 86.27442, 24.22659 ], [ 86.27418, 24.22408 ], [ 86.27561, 24.22179 ], [ 86.27823, 24.22451 ], [ 86.28001, 24.22344 ], [ 86.28464, 24.21789 ], [ 86.2893, 24.21472 ], [ 86.28989, 24.21639 ], [ 86.29613, 24.21683 ], [ 86.30083, 24.21525 ], [ 86.30341, 24.21756 ], [ 86.3131, 24.21344 ], [ 86.31482, 24.21318 ], [ 86.31632, 24.21484 ], [ 86.32613, 24.21107 ], [ 86.33759, 24.2102 ], [ 86.3411, 24.21076 ], [ 86.34289, 24.21197 ], [ 86.34534, 24.21171 ], [ 86.34617, 24.211 ], [ 86.34398, 24.20815 ], [ 86.34408, 24.20701 ], [ 86.3464, 24.2031 ], [ 86.35554, 24.20682 ], [ 86.35611, 24.20766 ], [ 86.35549, 24.21013 ], [ 86.35922, 24.20973 ], [ 86.36102, 24.21127 ], [ 86.36192, 24.21362 ], [ 86.36508, 24.20969 ], [ 86.36513, 24.20727 ], [ 86.36208, 24.208 ], [ 86.36108, 24.20703 ], [ 86.3517, 24.19367 ], [ 86.35029, 24.19022 ], [ 86.34319, 24.17928 ], [ 86.34221, 24.17473 ], [ 86.34407, 24.17239 ], [ 86.34684, 24.17284 ], [ 86.34905, 24.17166 ], [ 86.35318, 24.17165 ], [ 86.35455, 24.17182 ], [ 86.35473, 24.17548 ], [ 86.35553, 24.17586 ], [ 86.36058, 24.17229 ], [ 86.36414, 24.17196 ], [ 86.36253, 24.16796 ], [ 86.36069, 24.16585 ], [ 86.36163, 24.16407 ], [ 86.36554, 24.16327 ], [ 86.36952, 24.16422 ], [ 86.37155, 24.16285 ], [ 86.37457, 24.16322 ], [ 86.37733, 24.16159 ], [ 86.37704, 24.15611 ], [ 86.37903, 24.15316 ], [ 86.38243, 24.15204 ], [ 86.38247, 24.14918 ], [ 86.37875, 24.14885 ], [ 86.37561, 24.1469 ], [ 86.37661, 24.14463 ], [ 86.37544, 24.1434 ], [ 86.37605, 24.14077 ], [ 86.37534, 24.13891 ], [ 86.37974, 24.13895 ], [ 86.38281, 24.14109 ], [ 86.38523, 24.13914 ], [ 86.38484, 24.13802 ], [ 86.38264, 24.13726 ], [ 86.37593, 24.13214 ], [ 86.37608, 24.13057 ], [ 86.37452, 24.1289 ], [ 86.37617, 24.12728 ], [ 86.37709, 24.12351 ], [ 86.37363, 24.12346 ], [ 86.37011, 24.12459 ], [ 86.36932, 24.12158 ], [ 86.37038, 24.12041 ], [ 86.37273, 24.11974 ], [ 86.37423, 24.11681 ], [ 86.37286, 24.11447 ], [ 86.37532, 24.11093 ], [ 86.37725, 24.11017 ], [ 86.37783, 24.10805 ], [ 86.37717, 24.1057 ], [ 86.37188, 24.10588 ], [ 86.37276, 24.10203 ], [ 86.37531, 24.10081 ], [ 86.37532, 24.09764 ], [ 86.37098, 24.09816 ], [ 86.36964, 24.09761 ], [ 86.36885, 24.09655 ], [ 86.36929, 24.09476 ], [ 86.37075, 24.09338 ], [ 86.37001, 24.09127 ], [ 86.3665, 24.08934 ], [ 86.3655, 24.08591 ], [ 86.3677, 24.08533 ], [ 86.36863, 24.08297 ], [ 86.3666, 24.08022 ], [ 86.36707, 24.07762 ], [ 86.36637, 24.07678 ], [ 86.3681, 24.07682 ], [ 86.36889, 24.07448 ], [ 86.37074, 24.07286 ], [ 86.3688, 24.07188 ], [ 86.36919, 24.07066 ], [ 86.37153, 24.0698 ], [ 86.37213, 24.06766 ], [ 86.37391, 24.06627 ], [ 86.37232, 24.06486 ], [ 86.37102, 24.06196 ], [ 86.37252, 24.06063 ], [ 86.37363, 24.05682 ], [ 86.37056, 24.05044 ], [ 86.36776, 24.04839 ], [ 86.36307, 24.04821 ], [ 86.34995, 24.05284 ], [ 86.34396, 24.05341 ], [ 86.33749, 24.058 ], [ 86.33241, 24.05991 ], [ 86.32427, 24.06002 ], [ 86.31584, 24.06208 ], [ 86.31238, 24.06355 ], [ 86.30396, 24.07165 ], [ 86.2916, 24.07305 ], [ 86.2845, 24.0729 ], [ 86.28174, 24.072 ], [ 86.27762, 24.07269 ], [ 86.27353, 24.07764 ], [ 86.271, 24.08524 ], [ 86.26806, 24.09076 ], [ 86.26699, 24.10186 ], [ 86.26579, 24.10493 ], [ 86.26445, 24.10695 ], [ 86.25755, 24.11182 ], [ 86.24494, 24.11503 ], [ 86.24006, 24.11534 ], [ 86.23294, 24.11048 ], [ 86.23165, 24.1103 ], [ 86.21865, 24.11647 ], [ 86.20843, 24.11645 ], [ 86.20188, 24.11966 ], [ 86.19795, 24.1195 ], [ 86.19303, 24.11649 ], [ 86.18765, 24.11648 ], [ 86.18251, 24.12203 ], [ 86.1802, 24.13402 ], [ 86.17394, 24.14152 ], [ 86.16957, 24.14258 ], [ 86.1642, 24.14132 ], [ 86.15977, 24.14154 ], [ 86.15643, 24.14441 ], [ 86.15184, 24.15114 ], [ 86.14433, 24.15752 ], [ 86.13529, 24.15733 ], [ 86.12665, 24.16117 ], [ 86.12505, 24.16467 ], [ 86.12387, 24.17236 ], [ 86.12092, 24.17512 ], [ 86.11794, 24.17566 ], [ 86.11522, 24.17507 ], [ 86.10791, 24.17007 ], [ 86.10404, 24.16928 ], [ 86.10073, 24.17094 ], [ 86.09607, 24.176 ], [ 86.09538, 24.17883 ], [ 86.09901, 24.19132 ], [ 86.1061, 24.19825 ], [ 86.10571, 24.20256 ], [ 86.10679, 24.20423 ], [ 86.10784, 24.2036 ], [ 86.11144, 24.20404 ], [ 86.11416, 24.21047 ], [ 86.11388, 24.21329 ], [ 86.11515, 24.21385 ], [ 86.11649, 24.21337 ], [ 86.11719, 24.21491 ], [ 86.11826, 24.21264 ], [ 86.1192, 24.21253 ], [ 86.12171, 24.21514 ], [ 86.12574, 24.2151 ], [ 86.12703, 24.21578 ], [ 86.12969, 24.22073 ], [ 86.13154, 24.22066 ], [ 86.13353, 24.21926 ], [ 86.13388, 24.22625 ], [ 86.1317, 24.22702 ], [ 86.13091, 24.22946 ], [ 86.12813, 24.23299 ], [ 86.12631, 24.23363 ], [ 86.11861, 24.23052 ], [ 86.11756, 24.24472 ], [ 86.11533, 24.25069 ], [ 86.11592, 24.25271 ], [ 86.12034, 24.2531 ], [ 86.12502, 24.2498 ], [ 86.13514, 24.25159 ], [ 86.13595, 24.255 ], [ 86.13517, 24.25966 ], [ 86.13653, 24.26204 ], [ 86.13618, 24.26342 ], [ 86.13932, 24.2663 ], [ 86.1645, 24.25543 ], [ 86.1653, 24.2575 ], [ 86.17241, 24.26434 ], [ 86.17424, 24.26488 ], [ 86.17625, 24.2648 ], [ 86.18033, 24.26234 ], [ 86.18295, 24.2624 ], [ 86.1915, 24.26483 ], [ 86.19242, 24.26573 ], [ 86.20286, 24.26444 ], [ 86.20467, 24.26361 ], [ 86.21071, 24.26402 ], [ 86.21082, 24.2605 ], [ 86.21798, 24.26145 ], [ 86.2205, 24.25953 ], [ 86.2217, 24.26014 ], [ 86.22243, 24.26234 ], [ 86.22109, 24.26438 ], [ 86.22134, 24.26586 ], [ 86.22273, 24.26663 ], [ 86.22521, 24.2714 ], [ 86.22995, 24.26865 ], [ 86.2441, 24.26807 ], [ 86.24473, 24.26714 ], [ 86.24835, 24.26672 ], [ 86.24922, 24.26869 ], [ 86.25132, 24.2691 ], [ 86.25396, 24.26784 ], [ 86.25538, 24.26807 ], [ 86.25697, 24.2704 ], [ 86.26071, 24.27128 ], [ 86.2611, 24.27352 ], [ 86.26262, 24.2747 ], [ 86.26476, 24.27212 ], [ 86.26851, 24.27038 ], [ 86.27071, 24.27158 ], [ 86.27121, 24.27435 ], [ 86.27428, 24.27357 ], [ 86.28041, 24.27451 ] ] ] } },
{ "type": "Feature", "properties": { "OBJECTID": 5640, "state_lgd": "20", "state_name": "JHARKHAND", "district_lgd": "349", "district_name": "GIRIDIH", "district_name_source": "district_table", "subdistrict_lgd": "02536", "subdistrict_name": "JAMUA", "subdistrict_type": "", "name_corrupted": false, "remarks": "", "label_lon": 86.153920097250165, "label_lat": 24.362447866433115 }, "geometry": { "type": "Polygon", "coordinates": [ [ [ 86.08063, 24.46124 ], [ 86.08285, 24.45865 ], [ 86.08988, 24.45901 ], [ 86.09004, 24.45531 ], [ 86.09584, 24.45354 ], [ 86.09897, 24.45531 ], [ 86.10562, 24.4549 ], [ 86.10887, 24.45352 ], [ 86.11135, 24.45471 ], [ 86.11544, 24.45092 ], [ 86.12132, 24.45642 ], [ 86.12596, 24.45451 ], [ 86.12783, 24.45222 ], [ 86.1367, 24.45337 ], [ 86.13695, 24.45139 ], [ 86.14881, 24.44918 ], [ 86.14971, 24.45088 ], [ 86.15201, 24.45023 ], [ 86.15193, 24.44865 ], [ 86.15283, 24.44758 ], [ 86.15603, 24.44761 ], [ 86.15748, 24.4489 ], [ 86.15877, 24.44885 ], [ 86.16347, 24.44608 ], [ 86.16298, 24.44301 ], [ 86.16511, 24.44055 ], [ 86.17362, 24.44156 ], [ 86.17422, 24.43195 ], [ 86.17553, 24.43096 ], [ 86.18097, 24.429 ], [ 86.18374, 24.42913 ], [ 86.18539, 24.42772 ], [ 86.18834, 24.428 ], [ 86.19392, 24.42637 ], [ 86.19421, 24.42322 ], [ 86.19516, 24.42219 ], [ 86.19396, 24.41984 ], [ 86.19421, 24.4176 ], [ 86.19571, 24.41688 ], [ 86.198, 24.41927 ], [ 86.20126, 24.41955 ], [ 86.20189, 24.41589 ], [ 86.20061, 24.41354 ], [ 86.20491, 24.41304 ], [ 86.20536, 24.40789 ], [ 86.2063, 24.40678 ], [ 86.20835, 24.40629 ], [ 86.21295, 24.4099 ], [ 86.21476, 24.40999 ], [ 86.21553, 24.40914 ], [ 86.21444, 24.4072 ], [ 86.21666, 24.40653 ], [ 86.21701, 24.40428 ], [ 86.21897, 24.40569 ], [ 86.22031, 24.40539 ], [ 86.22367, 24.40393 ], [ 86.22528, 24.40133 ], [ 86.22657, 24.40166 ], [ 86.23314, 24.40814 ], [ 86.23758, 24.40762 ], [ 86.24067, 24.41467 ], [ 86.24423, 24.41515 ], [ 86.24879, 24.41771 ], [ 86.25136, 24.41749 ], [ 86.25447, 24.41844 ], [ 86.25856, 24.42083 ], [ 86.25834, 24.422 ], [ 86.25651, 24.42315 ], [ 86.25098, 24.42461 ], [ 86.25037, 24.42679 ], [ 86.24864, 24.42843 ], [ 86.2481, 24.43043 ], [ 86.24883, 24.4323 ], [ 86.24973, 24.43409 ], [ 86.25418, 24.43655 ], [ 86.25602, 24.4391 ], [ 86.25859, 24.44007 ], [ 86.25909, 24.44112 ], [ 86.26008, 24.441 ], [ 86.26064, 24.43957 ], [ 86.26641, 24.44124 ], [ 86.26655, 24.44404 ], [ 86.26864, 24.44635 ], [ 86.27047, 24.44669 ], [ 86.26916, 24.44402 ], [ 86.27177, 24.44565 ], [ 86.27842, 24.44703 ], [ 86.28045, 24.44604 ], [ 86.28014, 24.4434 ], [ 86.2828, 24.44231 ], [ 86.28274, 24.43925 ], [ 86.28349, 24.43806 ], [ 86.28479, 24.43785 ], [ 86.28532, 24.439 ], [ 86.29126, 24.43694 ], [ 86.29327, 24.43752 ], [ 86.29858, 24.43713 ], [ 86.30197, 24.4346 ], [ 86.30051, 24.43235 ], [ 86.30107, 24.43045 ], [ 86.30304, 24.42831 ], [ 86.30339, 24.42433 ], [ 86.30724, 24.42571 ], [ 86.30731, 24.42339 ], [ 86.30889, 24.42337 ], [ 86.31068, 24.41945 ], [ 86.31183, 24.4186 ], [ 86.31235, 24.41518 ], [ 86.31578, 24.41343 ], [ 86.31892, 24.41429 ], [ 86.31745, 24.40643 ], [ 86.31909, 24.39883 ], [ 86.3154, 24.39715 ], [ 86.31639, 24.39442 ], [ 86.31564, 24.38869 ], [ 86.31176, 24.38742 ], [ 86.30848, 24.38415 ], [ 86.30236, 24.38266 ], [ 86.30212, 24.38182 ], [ 86.30083, 24.38143 ], [ 86.30071, 24.37952 ], [ 86.29353, 24.37256 ], [ 86.29467, 24.37064 ], [ 86.29157, 24.36804 ], [ 86.28945, 24.36786 ], [ 86.28772, 24.36973 ], [ 86.2858, 24.36898 ], [ 86.28454, 24.36636 ], [ 86.28439, 24.36317 ], [ 86.28035, 24.35954 ], [ 86.28158, 24.35785 ], [ 86.28189, 24.35645 ], [ 86.2809, 24.35537 ], [ 86.28213, 24.35368 ], [ 86.2809, 24.34959 ], [ 86.27904, 24.3482 ], [ 86.28081, 24.34199 ], [ 86.27964, 24.34073 ], [ 86.27956, 24.33906 ], [ 86.27587, 24.33648 ], [ 86.27508, 24.334 ], [ 86.27255, 24.33326 ], [ 86.27263, 24.33128 ], [ 86.27092, 24.33036 ], [ 86.26869, 24.3306 ], [ 86.26546, 24.33249 ], [ 86.26277, 24.32993 ], [ 86.26296, 24.32711 ], [ 86.26157, 24.3258 ], [ 86.25938, 24.3252 ], [ 86.25673, 24.32698 ], [ 86.25597, 24.32489 ], [ 86.25355, 24.32476 ], [ 86.25369, 24.32239 ], [ 86.252, 24.32025 ], [ 86.25544, 24.31578 ], [ 86.25266, 24.3149 ], [ 86.25603, 24.31089 ], [ 86.25232, 24.30967 ], [ 86.25195, 24.30717 ], [ 86.25471, 24.30192 ], [ 86.25577, 24.29412 ], [ 86.25762, 24.29123 ], [ 86.25729, 24.28827 ], [ 86.25384, 24.28759 ], [ 86.25283, 24.28531 ], [ 86.254, 24.28171 ], [ 86.25536, 24.28009 ], [ 86.25769, 24.28156 ], [ 86.26164, 24.27942 ], [ 86.26242, 24.27691 ], [ 86.26053, 24.27517 ], [ 86.26013, 24.27246 ], [ 86.26071, 24.27128 ], [ 86.25697, 24.2704 ], [ 86.25538, 24.26807 ], [ 86.25396, 24.26784 ], [ 86.25132, 24.2691 ], [ 86.24922, 24.26869 ], [ 86.24835, 24.26672 ], [ 86.24473, 24.26714 ], [ 86.2441, 24.26807 ], [ 86.22995, 24.26865 ], [ 86.22521, 24.2714 ], [ 86.22273, 24.26663 ], [ 86.22134, 24.26586 ], [ 86.22109, 24.26438 ], [ 86.22243, 24.26234 ], [ 86.2217, 24.26014 ], [ 86.2205, 24.25953 ], [ 86.21798, 24.26145 ], [ 86.21082, 24.2605 ], [ 86.21071, 24.26402 ], [ 86.20467, 24.26361 ], [ 86.20286, 24.26444 ], [ 86.19242, 24.26573 ], [ 86.1915, 24.26483 ], [ 86.18295, 24.2624 ], [ 86.18033, 24.26234 ], [ 86.17625, 24.2648 ], [ 86.17424, 24.26488 ], [ 86.17241, 24.26434 ], [ 86.1653, 24.2575 ], [ 86.1645, 24.25543 ], [ 86.13932, 24.2663 ], [ 86.13225, 24.26849 ], [ 86.12349, 24.2706 ], [ 86.12168, 24.26942 ], [ 86.11712, 24.27092 ], [ 86.10447, 24.27186 ], [ 86.11023, 24.28042 ], [ 86.10734, 24.28185 ], [ 86.10471, 24.2802 ], [ 86.1032, 24.2804 ], [ 86.10078, 24.28308 ], [ 86.09463, 24.28664 ], [ 86.09397, 24.28959 ], [ 86.09286, 24.29071 ], [ 86.08617, 24.29204 ], [ 86.08097, 24.29602 ], [ 86.07465, 24.2974 ], [ 86.07275, 24.29871 ], [ 86.06803, 24.29948 ], [ 86.05858, 24.29951 ], [ 86.04404, 24.29558 ], [ 86.04186, 24.29623 ], [ 86.04103, 24.29435 ], [ 86.03929, 24.29375 ], [ 86.03696, 24.29631 ], [ 86.03393, 24.29733 ], [ 86.02806, 24.29756 ], [ 86.02526, 24.30082 ], [ 86.02471, 24.30478 ], [ 86.02081, 24.31556 ], [ 86.02145, 24.31696 ], [ 86.02513, 24.31891 ], [ 86.02503, 24.32199 ], [ 86.02212, 24.32521 ], [ 86.0214, 24.32734 ], [ 86.02574, 24.33286 ], [ 86.02664, 24.33799 ], [ 86.02447, 24.33883 ], [ 86.02187, 24.33743 ], [ 86.02136, 24.33779 ], [ 86.02199, 24.34263 ], [ 86.01974, 24.34579 ], [ 86.02071, 24.35026 ], [ 86.01988, 24.35422 ], [ 86.01279, 24.36004 ], [ 86.01278, 24.36161 ], [ 86.01552, 24.36413 ], [ 86.01587, 24.36565 ], [ 86.0206, 24.37228 ], [ 86.02407, 24.37477 ], [ 86.03185, 24.37686 ], [ 86.03276, 24.37963 ], [ 86.03673, 24.3824 ], [ 86.03814, 24.38279 ], [ 86.04349, 24.38176 ], [ 86.045, 24.38275 ], [ 86.04778, 24.38789 ], [ 86.04728, 24.3894 ], [ 86.04433, 24.39102 ], [ 86.04436, 24.39169 ], [ 86.04987, 24.402 ], [ 86.05246, 24.40489 ], [ 86.04906, 24.40735 ], [ 86.04502, 24.40762 ], [ 86.03927, 24.40358 ], [ 86.03448, 24.40953 ], [ 86.02926, 24.41161 ], [ 86.02486, 24.41006 ], [ 86.0214, 24.41484 ], [ 86.01978, 24.4152 ], [ 86.01869, 24.41895 ], [ 86.01583, 24.42086 ], [ 86.01279, 24.43109 ], [ 86.0163, 24.43527 ], [ 86.01736, 24.44399 ], [ 86.01685, 24.44513 ], [ 86.01194, 24.44697 ], [ 86.00612, 24.44136 ], [ 86.00555, 24.43793 ], [ 86.00225, 24.43911 ], [ 86.00159, 24.44071 ], [ 86.009, 24.44795 ], [ 86.01044, 24.45074 ], [ 86.01408, 24.45329 ], [ 86.01833, 24.45328 ], [ 86.01843, 24.4565 ], [ 86.02231, 24.46114 ], [ 86.02317, 24.45723 ], [ 86.02429, 24.45626 ], [ 86.02626, 24.45661 ], [ 86.03531, 24.45175 ], [ 86.03979, 24.45243 ], [ 86.04117, 24.45009 ], [ 86.04237, 24.45076 ], [ 86.04227, 24.45362 ], [ 86.04514, 24.45651 ], [ 86.04741, 24.45671 ], [ 86.04901, 24.45549 ], [ 86.05295, 24.45477 ], [ 86.0604, 24.45047 ], [ 86.06096, 24.45074 ], [ 86.06043, 24.4529 ], [ 86.06093, 24.4536 ], [ 86.06479, 24.45587 ], [ 86.07122, 24.4549 ], [ 86.07428, 24.45535 ], [ 86.07851, 24.45943 ], [ 86.07932, 24.46282 ], [ 86.08069, 24.46255 ], [ 86.08063, 24.46124 ] ] ] } },
{ "type": "Feature", "properties": { "OBJECTID": 5734, "state_lgd": "20", "state_name": "JHARKHAND", "district_lgd": "349", "district_name": "GIRIDIH", "district_name_source": "district_table", "subdistrict_lgd": "02544", "subdistrict_name": "PIRTANAR", "subdistrict_type": "", "name_corrupted": false, "remarks": "", "label_lon": 86.214212486698102, "label_lat": 24.01594579198418 }, "geometry": { "type": "Polygon", "coordinates": [ [ [ 86.18765, 24.11648 ], [ 86.19303, 24.11649 ], [ 86.19795, 24.1195 ], [ 86.20188, 24.11966 ], [ 86.20843, 24.11645 ], [ 86.21865, 24.11647 ], [ 86.23165, 24.1103 ], [ 86.23294, 24.11048 ], [ 86.24006, 24.11534 ], [ 86.24494, 24.11503 ], [ 86.2559, 24.11249 ], [ 86.2615, 24.10928 ], [ 86.26579, 24.10493 ], [ 86.26699, 24.10186 ], [ 86.26806, 24.09076 ], [ 86.271, 24.08524 ], [ 86.27353, 24.07764 ], [ 86.27762, 24.07269 ], [ 86.28174, 24.072 ], [ 86.2845, 24.0729 ], [ 86.2916, 24.07305 ], [ 86.30396, 24.07165 ], [ 86.31383, 24.06285 ], [ 86.32427, 24.06002 ], [ 86.32975, 24.06017 ], [ 86.33452, 24.05933 ], [ 86.34133, 24.05584 ], [ 86.34399, 24.05341 ], [ 86.34169, 24.05219 ], [ 86.33909, 24.05269 ], [ 86.33674, 24.05036 ], [ 86.33246, 24.04888 ], [ 86.33485, 24.04553 ], [ 86.33221, 24.04245 ], [ 86.33241, 24.04106 ], [ 86.33464, 24.04093 ], [ 86.33384, 24.03606 ], [ 86.32946, 24.03614 ], [ 86.32735, 24.03426 ], [ 86.32225, 24.0329 ], [ 86.31829, 24.03072 ], [ 86.31938, 24.02855 ], [ 86.32469, 24.02474 ], [ 86.32625, 24.02229 ], [ 86.32649, 24.01936 ], [ 86.34107, 24.01775 ], [ 86.34036, 24.01493 ], [ 86.34068, 24.01201 ], [ 86.33925, 24.00829 ], [ 86.34053, 24.00653 ], [ 86.3371, 24.00356 ], [ 86.33459, 24.004 ], [ 86.3295, 23.99534 ], [ 86.32875, 23.9928 ], [ 86.32647, 23.99108 ], [ 86.32477, 23.98675 ], [ 86.32268, 23.98646 ], [ 86.32298, 23.98492 ], [ 86.32164, 23.98309 ], [ 86.31848, 23.98366 ], [ 86.3173, 23.9792 ], [ 86.31373, 23.97676 ], [ 86.31115, 23.96781 ], [ 86.31393, 23.9652 ], [ 86.31384, 23.96396 ], [ 86.30691, 23.95137 ], [ 86.3034, 23.93964 ], [ 86.29918, 23.93412 ], [ 86.29561, 23.92742 ], [ 86.29416, 23.92325 ], [ 86.29392, 23.91578 ], [ 86.29207, 23.91554 ], [ 86.28821, 23.91678 ], [ 86.28784, 23.91978 ], [ 86.28497, 23.9201 ], [ 86.28371, 23.92287 ], [ 86.28054, 23.92368 ], [ 86.27511, 23.9227 ], [ 86.27412, 23.92386 ], [ 86.26874, 23.92061 ], [ 86.25982, 23.92107 ], [ 86.25754, 23.92511 ], [ 86.25315, 23.92642 ], [ 86.25159, 23.93023 ], [ 86.25044, 23.93125 ], [ 86.24814, 23.93071 ], [ 86.24526, 23.93392 ], [ 86.24141, 23.93477 ], [ 86.23339, 23.93844 ], [ 86.23293, 23.93609 ], [ 86.23179, 23.93541 ], [ 86.22351, 23.94041 ], [ 86.2205, 23.93778 ], [ 86.21584, 23.93845 ], [ 86.21407, 23.93696 ], [ 86.21255, 23.93683 ], [ 86.20366, 23.94127 ], [ 86.19572, 23.94234 ], [ 86.1929, 23.94027 ], [ 86.18568, 23.93813 ], [ 86.17163, 23.93855 ], [ 86.17043, 23.93593 ], [ 86.16222, 23.93302 ], [ 86.15728, 23.93247 ], [ 86.15166, 23.92957 ], [ 86.14609, 23.93002 ], [ 86.13258, 23.9347 ], [ 86.13196, 23.93296 ], [ 86.13122, 23.93299 ], [ 86.1306, 23.93437 ], [ 86.12266, 23.93734 ], [ 86.11873, 23.93748 ], [ 86.11706, 23.93124 ], [ 86.11318, 23.93207 ], [ 86.10978, 23.93581 ], [ 86.10591, 23.93819 ], [ 86.10483, 23.94143 ], [ 86.09977, 23.9442 ], [ 86.09864, 23.9467 ], [ 86.09528, 23.94909 ], [ 86.09042, 23.95561 ], [ 86.09094, 23.95721 ], [ 86.09299, 23.95924 ], [ 86.09301, 23.96064 ], [ 86.09223, 23.96072 ], [ 86.0911, 23.95869 ], [ 86.08829, 23.95727 ], [ 86.0847, 23.95683 ], [ 86.08481, 23.96033 ], [ 86.08764, 23.96578 ], [ 86.0876, 23.96795 ], [ 86.09269, 23.9709 ], [ 86.09372, 23.97466 ], [ 86.09575, 23.97818 ], [ 86.09696, 23.98257 ], [ 86.09457, 23.98496 ], [ 86.09602, 23.98903 ], [ 86.09881, 23.9922 ], [ 86.10375, 23.99291 ], [ 86.10647, 23.99451 ], [ 86.11124, 23.99288 ], [ 86.11344, 23.99434 ], [ 86.11508, 23.99378 ], [ 86.11648, 23.99436 ], [ 86.11818, 23.99604 ], [ 86.12169, 23.99469 ], [ 86.12315, 23.99652 ], [ 86.1264, 23.9968 ], [ 86.12751, 23.99554 ], [ 86.1295, 23.99712 ], [ 86.13335, 23.99787 ], [ 86.13527, 23.99955 ], [ 86.13918, 24.00111 ], [ 86.1382, 24.00238 ], [ 86.13586, 24.00236 ], [ 86.13425, 24.00365 ], [ 86.13957, 24.00944 ], [ 86.13699, 24.00963 ], [ 86.13453, 24.01219 ], [ 86.13014, 24.01392 ], [ 86.12214, 24.01521 ], [ 86.11959, 24.01824 ], [ 86.11962, 24.01898 ], [ 86.12239, 24.02084 ], [ 86.12143, 24.02309 ], [ 86.11996, 24.02414 ], [ 86.1201, 24.02528 ], [ 86.12309, 24.02795 ], [ 86.1197, 24.03289 ], [ 86.1194, 24.03585 ], [ 86.12182, 24.03986 ], [ 86.12239, 24.04238 ], [ 86.12315, 24.04334 ], [ 86.12482, 24.04278 ], [ 86.12718, 24.04367 ], [ 86.12744, 24.04632 ], [ 86.12484, 24.04988 ], [ 86.12315, 24.04994 ], [ 86.12321, 24.05134 ], [ 86.11971, 24.0566 ], [ 86.11748, 24.05665 ], [ 86.11533, 24.05932 ], [ 86.11338, 24.05956 ], [ 86.111, 24.0622 ], [ 86.10876, 24.06205 ], [ 86.10235, 24.05869 ], [ 86.09728, 24.063 ], [ 86.0929, 24.06489 ], [ 86.09303, 24.0676 ], [ 86.08997, 24.071 ], [ 86.09067, 24.07529 ], [ 86.09365, 24.07795 ], [ 86.0991, 24.07798 ], [ 86.10076, 24.0789 ], [ 86.10066, 24.08432 ], [ 86.09991, 24.08558 ], [ 86.1007, 24.08711 ], [ 86.10066, 24.09101 ], [ 86.09934, 24.09328 ], [ 86.10088, 24.09576 ], [ 86.10099, 24.09797 ], [ 86.10201, 24.09875 ], [ 86.10914, 24.09264 ], [ 86.1149, 24.09176 ], [ 86.11805, 24.09023 ], [ 86.12477, 24.08316 ], [ 86.12747, 24.08173 ], [ 86.13362, 24.08132 ], [ 86.13516, 24.07987 ], [ 86.14268, 24.07759 ], [ 86.15001, 24.08329 ], [ 86.15377, 24.09172 ], [ 86.15554, 24.09337 ], [ 86.15864, 24.09464 ], [ 86.1607, 24.09653 ], [ 86.16349, 24.09707 ], [ 86.16484, 24.09993 ], [ 86.17052, 24.09929 ], [ 86.17294, 24.10486 ], [ 86.17783, 24.1063 ], [ 86.17905, 24.1074 ], [ 86.17596, 24.10826 ], [ 86.1735, 24.11099 ], [ 86.17332, 24.1128 ], [ 86.17626, 24.11827 ], [ 86.18251, 24.12203 ], [ 86.18765, 24.11648 ] ] ] } },
{ "type": "Feature", "properties": { "OBJECTID": 5753, "state_lgd": "20", "state_name": "JHARKHAND", "district_lgd": "349", "district_name": "GIRIDIH", "district_name_source": "district_table", "subdistrict_lgd": "02542", "subdistrict_name": "SARIYA", "subdistrict_type": "", "name_corrupted": false, "remarks": "", "label_lon": 85.904550174721294, "label_lat": 24.161367973516519 }, "geometry": { "type": "Polygon", "coordinates": [ [ [ 85.92875, 24.22881 ], [ 85.93213, 24.22662 ], [ 85.93459, 24.22671 ], [ 85.94235, 24.22922 ], [ 85.94687, 24.22889 ], [ 85.95214, 24.22634 ], [ 85.95814, 24.2204 ], [ 85.95993, 24.20622 ], [ 85.96149, 24.20263 ], [ 85.96319, 24.20057 ], [ 85.97088, 24.19619 ], [ 85.97282, 24.19362 ], [ 85.97125, 24.18906 ], [ 85.96125, 24.18408 ], [ 85.95967, 24.18089 ], [ 85.96108, 24.17732 ], [ 85.96841, 24.1706 ], [ 85.97797, 24.16851 ], [ 85.98174, 24.16844 ], [ 85.98779, 24.17141 ], [ 85.99648, 24.17085 ], [ 85.99836, 24.16989 ], [ 86.00067, 24.17098 ], [ 86.00099, 24.17428 ], [ 85.99984, 24.17749 ], [ 85.9986, 24.18783 ], [ 86.00009, 24.19088 ], [ 86.00207, 24.19179 ], [ 86.00487, 24.19168 ], [ 86.00791, 24.18988 ], [ 86.01296, 24.18257 ], [ 86.01712, 24.17944 ], [ 86.0234, 24.17771 ], [ 86.0433, 24.16896 ], [ 86.05148, 24.16686 ], [ 86.04934, 24.1534 ], [ 86.04555, 24.15295 ], [ 86.0444, 24.15142 ], [ 86.04331, 24.14671 ], [ 86.04015, 24.14585 ], [ 86.03856, 24.14403 ], [ 86.0378, 24.14159 ], [ 86.03173, 24.14094 ], [ 86.03303, 24.13292 ], [ 86.03225, 24.12724 ], [ 86.02946, 24.12523 ], [ 86.02508, 24.12481 ], [ 86.02269, 24.12559 ], [ 86.01994, 24.12431 ], [ 86.01653, 24.12452 ], [ 86.01474, 24.12301 ], [ 86.0146, 24.11877 ], [ 86.01158, 24.11332 ], [ 86.01266, 24.11196 ], [ 86.01423, 24.11206 ], [ 86.01455, 24.11111 ], [ 86.01265, 24.10665 ], [ 86.01487, 24.10507 ], [ 86.01649, 24.10755 ], [ 86.01982, 24.10803 ], [ 86.02033, 24.10734 ], [ 86.01885, 24.10478 ], [ 86.0192, 24.10322 ], [ 86.0221, 24.10078 ], [ 86.02251, 24.09944 ], [ 86.01791, 24.09752 ], [ 86.01646, 24.0902 ], [ 86.01434, 24.08874 ], [ 86.01376, 24.08649 ], [ 86.01479, 24.08445 ], [ 86.00507, 24.0876 ], [ 86.00106, 24.07902 ], [ 85.99822, 24.07991 ], [ 85.99638, 24.08152 ], [ 85.99374, 24.0819 ], [ 85.9914, 24.0819 ], [ 85.9887, 24.07994 ], [ 85.98456, 24.08349 ], [ 85.97896, 24.07986 ], [ 85.97752, 24.07698 ], [ 85.97413, 24.07601 ], [ 85.96736, 24.07792 ], [ 85.96491, 24.07764 ], [ 85.96055, 24.07529 ], [ 85.95632, 24.07124 ], [ 85.95059, 24.08013 ], [ 85.94561, 24.08114 ], [ 85.94121, 24.08369 ], [ 85.93962, 24.08708 ], [ 85.93864, 24.09106 ], [ 85.93818, 24.10106 ], [ 85.94103, 24.10512 ], [ 85.92259, 24.10391 ], [ 85.9186, 24.1047 ], [ 85.91174, 24.10758 ], [ 85.90925, 24.10744 ], [ 85.90759, 24.11155 ], [ 85.90951, 24.11385 ], [ 85.91137, 24.11295 ], [ 85.91204, 24.11334 ], [ 85.91341, 24.11617 ], [ 85.91266, 24.11836 ], [ 85.91385, 24.11997 ], [ 85.91423, 24.12231 ], [ 85.91176, 24.12459 ], [ 85.91129, 24.12606 ], [ 85.90822, 24.12819 ], [ 85.89922, 24.13169 ], [ 85.89346, 24.14075 ], [ 85.89055, 24.14061 ], [ 85.88662, 24.13761 ], [ 85.88494, 24.13802 ], [ 85.88305, 24.13479 ], [ 85.88074, 24.13414 ], [ 85.87672, 24.1346 ], [ 85.87189, 24.13067 ], [ 85.85635, 24.1358 ], [ 85.8554, 24.13246 ], [ 85.84764, 24.12529 ], [ 85.84333, 24.12969 ], [ 85.83275, 24.13712 ], [ 85.82708, 24.1449 ], [ 85.81946, 24.14185 ], [ 85.81202, 24.14088 ], [ 85.80641, 24.14129 ], [ 85.80006, 24.1438 ], [ 85.79517, 24.14084 ], [ 85.78321, 24.13713 ], [ 85.78052, 24.1369 ], [ 85.78004, 24.13772 ], [ 85.77855, 24.13781 ], [ 85.77692, 24.13638 ], [ 85.77346, 24.13715 ], [ 85.77449, 24.13953 ], [ 85.77442, 24.14282 ], [ 85.79329, 24.1501 ], [ 85.78711, 24.15843 ], [ 85.78629, 24.15929 ], [ 85.78022, 24.15321 ], [ 85.76643, 24.15871 ], [ 85.76472, 24.16072 ], [ 85.75982, 24.1706 ], [ 85.75037, 24.1688 ], [ 85.7493, 24.16992 ], [ 85.74079, 24.1735 ], [ 85.73806, 24.17992 ], [ 85.73245, 24.18338 ], [ 85.72777, 24.18802 ], [ 85.73476, 24.1899 ], [ 85.73657, 24.19123 ], [ 85.73698, 24.19279 ], [ 85.73529, 24.19782 ], [ 85.73605, 24.19866 ], [ 85.73929, 24.19746 ], [ 85.74254, 24.1977 ], [ 85.74671, 24.20177 ], [ 85.75062, 24.2002 ], [ 85.75614, 24.20068 ], [ 85.76447, 24.20459 ], [ 85.76858, 24.20922 ], [ 85.77026, 24.21013 ], [ 85.77795, 24.20681 ], [ 85.79336, 24.2111 ], [ 85.79633, 24.21264 ], [ 85.79893, 24.21531 ], [ 85.80089, 24.22342 ], [ 85.8026, 24.22596 ], [ 85.80461, 24.22596 ], [ 85.80743, 24.22461 ], [ 85.8094, 24.21938 ], [ 85.81596, 24.21636 ], [ 85.81819, 24.21021 ], [ 85.82013, 24.20897 ], [ 85.82133, 24.20916 ], [ 85.8244, 24.21421 ], [ 85.82901, 24.2171 ], [ 85.83228, 24.21726 ], [ 85.84116, 24.214 ], [ 85.84328, 24.21446 ], [ 85.84518, 24.21779 ], [ 85.84646, 24.21864 ], [ 85.84844, 24.21878 ], [ 85.85089, 24.21739 ], [ 85.85293, 24.21132 ], [ 85.86644, 24.2113 ], [ 85.87743, 24.20772 ], [ 85.87861, 24.20776 ], [ 85.88054, 24.20956 ], [ 85.88166, 24.21267 ], [ 85.88195, 24.21706 ], [ 85.88446, 24.21879 ], [ 85.88494, 24.2218 ], [ 85.88954, 24.22246 ], [ 85.90862, 24.22094 ], [ 85.91547, 24.22194 ], [ 85.9181, 24.22533 ], [ 85.9179, 24.23205 ], [ 85.91969, 24.23531 ], [ 85.92363, 24.23527 ], [ 85.92553, 24.23372 ], [ 85.92875, 24.22881 ] ] ] } },
{ "type": "Feature", "properties": { "OBJECTID": 5776, "state_lgd": "20", "state_name": "JHARKHAND", "district_lgd": "349", "district_name": "GIRIDIH", "district_name_source": "district_table", "subdistrict_lgd": "02533", "subdistrict_name": "TISRI", "subdistrict_type": "", "name_corrupted": false, "remarks": "", "label_lon": 86.029836078332892, "label_lat": 24.634178434248554 }, "geometry": { "type": "Polygon", "coordinates": [ [ [ 86.05517, 24.77959 ], [ 86.0567, 24.77466 ], [ 86.05852, 24.77173 ], [ 86.0569, 24.76107 ], [ 86.05411, 24.75623 ], [ 86.05217, 24.75455 ], [ 86.04689, 24.75266 ], [ 86.0456, 24.75 ], [ 86.04323, 24.74763 ], [ 86.0351, 24.74636 ], [ 86.03492, 24.74494 ], [ 86.03709, 24.74113 ], [ 86.0558, 24.74605 ], [ 86.06631, 24.75165 ], [ 86.08592, 24.74768 ], [ 86.09073, 24.746 ], [ 86.10414, 24.73779 ], [ 86.10741, 24.7348 ], [ 86.1094, 24.7307 ], [ 86.10869, 24.7272 ], [ 86.1164, 24.71731 ], [ 86.11652, 24.71229 ], [ 86.119, 24.71118 ], [ 86.12835, 24.69865 ], [ 86.12902, 24.68623 ], [ 86.13232, 24.67901 ], [ 86.1319, 24.67589 ], [ 86.12475, 24.67111 ], [ 86.12706, 24.66687 ], [ 86.12473, 24.65707 ], [ 86.12509, 24.65458 ], [ 86.12195, 24.65223 ], [ 86.11522, 24.64394 ], [ 86.11654, 24.64224 ], [ 86.11715, 24.63949 ], [ 86.11991, 24.63875 ], [ 86.11852, 24.6359 ], [ 86.12045, 24.63544 ], [ 86.1214, 24.6317 ], [ 86.11946, 24.62993 ], [ 86.11865, 24.62578 ], [ 86.12196, 24.62206 ], [ 86.12103, 24.6188 ], [ 86.12187, 24.61666 ], [ 86.12496, 24.61417 ], [ 86.12532, 24.61148 ], [ 86.12922, 24.611 ], [ 86.1311, 24.60729 ], [ 86.13389, 24.60493 ], [ 86.13192, 24.60376 ], [ 86.13187, 24.60273 ], [ 86.13281, 24.60092 ], [ 86.13255, 24.5959 ], [ 86.13353, 24.59346 ], [ 86.12743, 24.58984 ], [ 86.12387, 24.58903 ], [ 86.12189, 24.58727 ], [ 86.11821, 24.58152 ], [ 86.11777, 24.57604 ], [ 86.11896, 24.57175 ], [ 86.12117, 24.56977 ], [ 86.11518, 24.56114 ], [ 86.11272, 24.5608 ], [ 86.11079, 24.55925 ], [ 86.1105, 24.55609 ], [ 86.10949, 24.55473 ], [ 86.11699, 24.55283 ], [ 86.12103, 24.54907 ], [ 86.12111, 24.54764 ], [ 86.12428, 24.54201 ], [ 86.11918, 24.54472 ], [ 86.11925, 24.54285 ], [ 86.11812, 24.5404 ], [ 86.11883, 24.53909 ], [ 86.12504, 24.53818 ], [ 86.12661, 24.53355 ], [ 86.12934, 24.53008 ], [ 86.12866, 24.52739 ], [ 86.12515, 24.52253 ], [ 86.11936, 24.52061 ], [ 86.11427, 24.52024 ], [ 86.10857, 24.52273 ], [ 86.10366, 24.52693 ], [ 86.10201, 24.52671 ], [ 86.09884, 24.52412 ], [ 86.09743, 24.52404 ], [ 86.09087, 24.52565 ], [ 86.08473, 24.52947 ], [ 86.08032, 24.52833 ], [ 86.07888, 24.52661 ], [ 86.07907, 24.52443 ], [ 86.08061, 24.52005 ], [ 86.08287, 24.51661 ], [ 86.08137, 24.51467 ], [ 86.07118, 24.51881 ], [ 86.07726, 24.52849 ], [ 86.07736, 24.52957 ], [ 86.07513, 24.53129 ], [ 86.07804, 24.53357 ], [ 86.07312, 24.53317 ], [ 86.07094, 24.53478 ], [ 86.0655, 24.5338 ], [ 86.06401, 24.53852 ], [ 86.05982, 24.54376 ], [ 86.05764, 24.54507 ], [ 86.05328, 24.54304 ], [ 86.05097, 24.53732 ], [ 86.04986, 24.53587 ], [ 86.04693, 24.53433 ], [ 86.03759, 24.53475 ], [ 86.0313, 24.53607 ], [ 86.02538, 24.54033 ], [ 86.02424, 24.53948 ], [ 86.02426, 24.53695 ], [ 86.02233, 24.53296 ], [ 86.02, 24.52985 ], [ 86.01879, 24.52976 ], [ 86.01745, 24.53239 ], [ 86.02117, 24.53589 ], [ 86.022, 24.53857 ], [ 86.01708, 24.54369 ], [ 86.01607, 24.5453 ], [ 86.01654, 24.54714 ], [ 86.01344, 24.54755 ], [ 86.00944, 24.54642 ], [ 86.00484, 24.54903 ], [ 85.99979, 24.54984 ], [ 85.9981, 24.53981 ], [ 86.00074, 24.53476 ], [ 86.00016, 24.53405 ], [ 85.98986, 24.53352 ], [ 85.9877, 24.53682 ], [ 85.98566, 24.53704 ], [ 85.98423, 24.53963 ], [ 85.97805, 24.54224 ], [ 85.97593, 24.54139 ], [ 85.97247, 24.53779 ], [ 85.9765, 24.53643 ], [ 85.9761, 24.53244 ], [ 85.97749, 24.52998 ], [ 85.97648, 24.52986 ], [ 85.97597, 24.52828 ], [ 85.97599, 24.52714 ], [ 85.97758, 24.52538 ], [ 85.97746, 24.52425 ], [ 85.97601, 24.52286 ], [ 85.9744, 24.51887 ], [ 85.97578, 24.51405 ], [ 85.97772, 24.51198 ], [ 85.97627, 24.50678 ], [ 85.97674, 24.50527 ], [ 85.97576, 24.49662 ], [ 85.97371, 24.49463 ], [ 85.97451, 24.4916 ], [ 85.97273, 24.49076 ], [ 85.97173, 24.48925 ], [ 85.96858, 24.48916 ], [ 85.96494, 24.48731 ], [ 85.96218, 24.48721 ], [ 85.95923, 24.48465 ], [ 85.95847, 24.48447 ], [ 85.95816, 24.4852 ], [ 85.95899, 24.48764 ], [ 85.95721, 24.48846 ], [ 85.95291, 24.487 ], [ 85.95075, 24.48446 ], [ 85.95001, 24.48449 ], [ 85.94554, 24.49144 ], [ 85.94499, 24.49327 ], [ 85.94541, 24.49762 ], [ 85.94595, 24.49987 ], [ 85.94704, 24.50059 ], [ 85.95279, 24.49844 ], [ 85.95405, 24.49987 ], [ 85.95616, 24.49944 ], [ 85.95461, 24.50424 ], [ 85.95611, 24.51025 ], [ 85.95424, 24.51571 ], [ 85.94701, 24.51704 ], [ 85.94503, 24.51846 ], [ 85.93608, 24.51503 ], [ 85.92235, 24.51196 ], [ 85.91567, 24.51173 ], [ 85.91082, 24.51304 ], [ 85.89814, 24.5115 ], [ 85.89878, 24.51527 ], [ 85.90062, 24.51694 ], [ 85.89882, 24.52254 ], [ 85.89478, 24.5223 ], [ 85.8893, 24.52462 ], [ 85.88764, 24.52671 ], [ 85.89228, 24.52881 ], [ 85.89744, 24.52791 ], [ 85.90513, 24.5319 ], [ 85.90534, 24.5343 ], [ 85.90677, 24.53652 ], [ 85.90849, 24.53689 ], [ 85.90859, 24.53839 ], [ 85.90266, 24.53985 ], [ 85.90018, 24.54394 ], [ 85.90245, 24.54582 ], [ 85.9084, 24.546 ], [ 85.90874, 24.54716 ], [ 85.90687, 24.54988 ], [ 85.90717, 24.55078 ], [ 85.91341, 24.55462 ], [ 85.91367, 24.55619 ], [ 85.91912, 24.55279 ], [ 85.92038, 24.54983 ], [ 85.92184, 24.54942 ], [ 85.9297, 24.55111 ], [ 85.93371, 24.55324 ], [ 85.93639, 24.55358 ], [ 85.9382, 24.55451 ], [ 85.93881, 24.55654 ], [ 85.94419, 24.55914 ], [ 85.94463, 24.56117 ], [ 85.94611, 24.56264 ], [ 85.94199, 24.56574 ], [ 85.94238, 24.56875 ], [ 85.93884, 24.57169 ], [ 85.94165, 24.57229 ], [ 85.94274, 24.57872 ], [ 85.94246, 24.58126 ], [ 85.94671, 24.5818 ], [ 85.94692, 24.58285 ], [ 85.94561, 24.58522 ], [ 85.94864, 24.59281 ], [ 85.95028, 24.59319 ], [ 85.95291, 24.59247 ], [ 85.95386, 24.59434 ], [ 85.96122, 24.59661 ], [ 85.9665, 24.60046 ], [ 85.96677, 24.60411 ], [ 85.96838, 24.60489 ], [ 85.96785, 24.60603 ], [ 85.96674, 24.60634 ], [ 85.96027, 24.60389 ], [ 85.95925, 24.60557 ], [ 85.96014, 24.60827 ], [ 85.96364, 24.60793 ], [ 85.96492, 24.60861 ], [ 85.97207, 24.61536 ], [ 85.97341, 24.61268 ], [ 85.97479, 24.6121 ], [ 85.97777, 24.61404 ], [ 85.97926, 24.61416 ], [ 85.98076, 24.61616 ], [ 85.97943, 24.62631 ], [ 85.98023, 24.62687 ], [ 85.98289, 24.62459 ], [ 85.98348, 24.62492 ], [ 85.98194, 24.6305 ], [ 85.97769, 24.63161 ], [ 85.97509, 24.63388 ], [ 85.97348, 24.63365 ], [ 85.97177, 24.63143 ], [ 85.96962, 24.63351 ], [ 85.96642, 24.63392 ], [ 85.96329, 24.63293 ], [ 85.96144, 24.63318 ], [ 85.95926, 24.63179 ], [ 85.95608, 24.63532 ], [ 85.95344, 24.63524 ], [ 85.95153, 24.63893 ], [ 85.9518, 24.64059 ], [ 85.95059, 24.64093 ], [ 85.94857, 24.6406 ], [ 85.94452, 24.63623 ], [ 85.9421, 24.63544 ], [ 85.94061, 24.63318 ], [ 85.93555, 24.63467 ], [ 85.93334, 24.63851 ], [ 85.93489, 24.63848 ], [ 85.93699, 24.64031 ], [ 85.93662, 24.64197 ], [ 85.93919, 24.64364 ], [ 85.9405, 24.64826 ], [ 85.94247, 24.65062 ], [ 85.94327, 24.65467 ], [ 85.94188, 24.66026 ], [ 85.94434, 24.6661 ], [ 85.94694, 24.66864 ], [ 85.94937, 24.66859 ], [ 85.95079, 24.66744 ], [ 85.95256, 24.66768 ], [ 85.95296, 24.67235 ], [ 85.95445, 24.67318 ], [ 85.95495, 24.67644 ], [ 85.9571, 24.67866 ], [ 85.94984, 24.6795 ], [ 85.94988, 24.68255 ], [ 85.94788, 24.68942 ], [ 85.94817, 24.69246 ], [ 85.94581, 24.69283 ], [ 85.94248, 24.69191 ], [ 85.94248, 24.69726 ], [ 85.94187, 24.69901 ], [ 85.9404, 24.69913 ], [ 85.9404, 24.70088 ], [ 85.94165, 24.70305 ], [ 85.94513, 24.70381 ], [ 85.9453, 24.7046 ], [ 85.94465, 24.70931 ], [ 85.94544, 24.71451 ], [ 85.94634, 24.71532 ], [ 85.94303, 24.71794 ], [ 85.94396, 24.7206 ], [ 85.94688, 24.72462 ], [ 85.94625, 24.72914 ], [ 85.94869, 24.73357 ], [ 85.9585, 24.7323 ], [ 85.96904, 24.73313 ], [ 85.97013, 24.73367 ], [ 85.9718, 24.73651 ], [ 85.97167, 24.73983 ], [ 85.97348, 24.74285 ], [ 85.97588, 24.74572 ], [ 85.98008, 24.74882 ], [ 85.9832, 24.74864 ], [ 85.98594, 24.75085 ], [ 85.98911, 24.75102 ], [ 85.99096, 24.75231 ], [ 85.99644, 24.75319 ], [ 86.00124, 24.75919 ], [ 86.00507, 24.76188 ], [ 86.01291, 24.76434 ], [ 86.01701, 24.76399 ], [ 86.02188, 24.76637 ], [ 86.02421, 24.76668 ], [ 86.03236, 24.77075 ], [ 86.03754, 24.77648 ], [ 86.04558, 24.77642 ], [ 86.05517, 24.77959 ] ] ] } },
{ "type": "Feature", "properties": { "OBJECTID": 5789, "state_lgd": "20", "state_name": "JHARKHAND", "district_lgd": "349", "district_name": "GIRIDIH", "district_name_source": "district_table", "subdistrict_lgd": "02543", "subdistrict_name": "DUMRI", "subdistrict_type": "", "name_corrupted": false, "remarks": "", "label_lon": 86.054700815710305, "label_lat": 24.027211768708582 }, "geometry": { "type": "Polygon", "coordinates": [ [ [ 86.08819, 24.18404 ], [ 86.09317, 24.17723 ], [ 86.09538, 24.17883 ], [ 86.09607, 24.176 ], [ 86.09785, 24.17351 ], [ 86.10404, 24.16928 ], [ 86.10791, 24.17007 ], [ 86.11522, 24.17507 ], [ 86.11934, 24.1756 ], [ 86.12253, 24.1743 ], [ 86.12387, 24.17236 ], [ 86.12505, 24.16467 ], [ 86.12665, 24.16117 ], [ 86.13529, 24.15733 ], [ 86.14433, 24.15752 ], [ 86.15184, 24.15114 ], [ 86.15643, 24.14441 ], [ 86.15977, 24.14154 ], [ 86.1642, 24.14132 ], [ 86.16957, 24.14258 ], [ 86.17245, 24.14222 ], [ 86.17524, 24.14041 ], [ 86.1802, 24.13402 ], [ 86.18251, 24.12203 ], [ 86.17626, 24.11827 ], [ 86.17332, 24.1128 ], [ 86.1735, 24.11099 ], [ 86.17596, 24.10826 ], [ 86.17905, 24.1074 ], [ 86.17783, 24.1063 ], [ 86.17294, 24.10486 ], [ 86.17052, 24.09929 ], [ 86.16484, 24.09993 ], [ 86.16349, 24.09707 ], [ 86.1607, 24.09653 ], [ 86.15864, 24.09464 ], [ 86.15554, 24.09337 ], [ 86.15377, 24.09172 ], [ 86.15001, 24.08329 ], [ 86.14409, 24.07826 ], [ 86.14118, 24.07755 ], [ 86.13911, 24.07903 ], [ 86.13516, 24.07987 ], [ 86.13362, 24.08132 ], [ 86.12747, 24.08173 ], [ 86.12477, 24.08316 ], [ 86.11805, 24.09023 ], [ 86.1149, 24.09176 ], [ 86.10914, 24.09264 ], [ 86.10201, 24.09875 ], [ 86.10099, 24.09797 ], [ 86.10088, 24.09576 ], [ 86.09934, 24.09328 ], [ 86.10066, 24.09101 ], [ 86.1007, 24.08711 ], [ 86.09991, 24.08558 ], [ 86.10066, 24.08432 ], [ 86.10076, 24.0789 ], [ 86.0991, 24.07798 ], [ 86.09365, 24.07795 ], [ 86.09067, 24.07529 ], [ 86.09004, 24.07342 ], [ 86.08997, 24.071 ], [ 86.09303, 24.0676 ], [ 86.0929, 24.06489 ], [ 86.09728, 24.063 ], [ 86.10235, 24.05869 ], [ 86.10876, 24.06205 ], [ 86.111, 24.0622 ], [ 86.11338, 24.05956 ], [ 86.11533, 24.05932 ], [ 86.11748, 24.05665 ], [ 86.11971, 24.0566 ], [ 86.12048, 24.05579 ], [ 86.12321, 24.05134 ], [ 86.12315, 24.04994 ], [ 86.12484, 24.04988 ], [ 86.12744, 24.04632 ], [ 86.12757, 24.04439 ], [ 86.12482, 24.04278 ], [ 86.12315, 24.04334 ], [ 86.1194, 24.03585 ], [ 86.1197, 24.03289 ], [ 86.12309, 24.02795 ], [ 86.1201, 24.02528 ], [ 86.11996, 24.02414 ], [ 86.12143, 24.02309 ], [ 86.12239, 24.02084 ], [ 86.11962, 24.01898 ], [ 86.11959, 24.01824 ], [ 86.12214, 24.01521 ], [ 86.13014, 24.01392 ], [ 86.13453, 24.01219 ], [ 86.13699, 24.00963 ], [ 86.13957, 24.00944 ], [ 86.13425, 24.00365 ], [ 86.13586, 24.00236 ], [ 86.1382, 24.00238 ], [ 86.13918, 24.00111 ], [ 86.13527, 23.99955 ], [ 86.13335, 23.99787 ], [ 86.1295, 23.99712 ], [ 86.12751, 23.99554 ], [ 86.1264, 23.9968 ], [ 86.12315, 23.99652 ], [ 86.12169, 23.99469 ], [ 86.11818, 23.99604 ], [ 86.11648, 23.99436 ], [ 86.11508, 23.99378 ], [ 86.11344, 23.99434 ], [ 86.11124, 23.99288 ], [ 86.10647, 23.99451 ], [ 86.10375, 23.99291 ], [ 86.09881, 23.9922 ], [ 86.09602, 23.98903 ], [ 86.09481, 23.98581 ], [ 86.09457, 23.98496 ], [ 86.09643, 23.98376 ], [ 86.09692, 23.98167 ], [ 86.09269, 23.9709 ], [ 86.0876, 23.96795 ], [ 86.08764, 23.96578 ], [ 86.08481, 23.96033 ], [ 86.0847, 23.95683 ], [ 86.08582, 23.95674 ], [ 86.09, 23.95806 ], [ 86.09223, 23.96072 ], [ 86.09301, 23.96064 ], [ 86.09299, 23.95924 ], [ 86.0905, 23.95632 ], [ 86.09102, 23.95457 ], [ 86.09306, 23.95282 ], [ 86.09528, 23.94909 ], [ 86.09864, 23.9467 ], [ 86.09926, 23.94472 ], [ 86.10483, 23.94143 ], [ 86.10591, 23.93819 ], [ 86.10978, 23.93581 ], [ 86.11318, 23.93207 ], [ 86.11706, 23.93124 ], [ 86.11873, 23.93748 ], [ 86.12266, 23.93734 ], [ 86.1306, 23.93437 ], [ 86.13122, 23.93299 ], [ 86.13196, 23.93296 ], [ 86.13258, 23.9347 ], [ 86.13683, 23.93282 ], [ 86.1359, 23.93289 ], [ 86.13261, 23.9284 ], [ 86.13098, 23.92536 ], [ 86.12942, 23.91908 ], [ 86.12673, 23.9167 ], [ 86.12858, 23.91083 ], [ 86.12848, 23.90951 ], [ 86.12623, 23.90786 ], [ 86.12646, 23.90164 ], [ 86.1238, 23.90055 ], [ 86.12226, 23.89751 ], [ 86.11857, 23.8944 ], [ 86.11216, 23.89073 ], [ 86.11117, 23.88702 ], [ 86.10515, 23.8877 ], [ 86.09951, 23.8836 ], [ 86.09816, 23.8836 ], [ 86.09228, 23.88748 ], [ 86.07229, 23.92155 ], [ 86.06259, 23.91688 ], [ 86.05854, 23.91775 ], [ 86.05081, 23.9172 ], [ 86.03964, 23.91413 ], [ 86.03431, 23.91389 ], [ 86.02617, 23.91095 ], [ 86.01534, 23.91223 ], [ 85.99599, 23.91121 ], [ 85.99151, 23.90953 ], [ 85.99134, 23.9077 ], [ 85.9902, 23.90622 ], [ 85.98749, 23.90703 ], [ 85.9874, 23.90559 ], [ 85.98641, 23.90473 ], [ 85.97547, 23.89983 ], [ 85.97342, 23.89368 ], [ 85.97046, 23.893 ], [ 85.96769, 23.89512 ], [ 85.96779, 23.90007 ], [ 85.96644, 23.90189 ], [ 85.96199, 23.89976 ], [ 85.96128, 23.90814 ], [ 85.96373, 23.91286 ], [ 85.9585, 23.91631 ], [ 85.95742, 23.91771 ], [ 85.957, 23.92058 ], [ 85.94739, 23.92334 ], [ 85.94478, 23.92754 ], [ 85.9444, 23.92976 ], [ 85.94726, 23.93678 ], [ 85.94697, 23.93804 ], [ 85.94181, 23.93464 ], [ 85.94036, 23.93181 ], [ 85.93593, 23.9292 ], [ 85.93356, 23.92575 ], [ 85.93192, 23.9251 ], [ 85.92981, 23.92834 ], [ 85.92878, 23.94168 ], [ 85.92778, 23.94509 ], [ 85.92485, 23.94693 ], [ 85.92247, 23.94741 ], [ 85.91847, 23.94597 ], [ 85.91766, 23.94478 ], [ 85.91265, 23.94778 ], [ 85.91351, 23.95511 ], [ 85.91579, 23.95551 ], [ 85.91816, 23.95755 ], [ 85.92146, 23.95795 ], [ 85.9286, 23.95562 ], [ 85.93095, 23.95844 ], [ 85.93081, 23.96438 ], [ 85.93279, 23.96611 ], [ 85.93146, 23.96837 ], [ 85.931, 23.97244 ], [ 85.9323, 23.97478 ], [ 85.93118, 23.97931 ], [ 85.92572, 23.98209 ], [ 85.92699, 23.98235 ], [ 85.92734, 23.98903 ], [ 85.92806, 23.99 ], [ 85.93062, 23.99083 ], [ 85.93524, 23.99065 ], [ 85.93637, 23.99154 ], [ 85.93827, 23.98899 ], [ 85.94458, 23.99157 ], [ 85.95451, 23.99172 ], [ 85.95627, 23.9898 ], [ 85.95897, 23.99 ], [ 85.96297, 23.99738 ], [ 85.96956, 24.00525 ], [ 85.96964, 24.00702 ], [ 85.96818, 24.00808 ], [ 85.96743, 24.01006 ], [ 85.96881, 24.01492 ], [ 85.97318, 24.02147 ], [ 85.9731, 24.0262 ], [ 85.97722, 24.02619 ], [ 85.97972, 24.02848 ], [ 85.98094, 24.02794 ], [ 85.98278, 24.02848 ], [ 85.98718, 24.02678 ], [ 85.99023, 24.03034 ], [ 85.99182, 24.03905 ], [ 85.99764, 24.04643 ], [ 86.00307, 24.04712 ], [ 86.00537, 24.05107 ], [ 86.00712, 24.05218 ], [ 86.01775, 24.05216 ], [ 86.01564, 24.05523 ], [ 86.01661, 24.06026 ], [ 86.01325, 24.06556 ], [ 86.01232, 24.06859 ], [ 86.0153, 24.07696 ], [ 86.01564, 24.08225 ], [ 86.01376, 24.08649 ], [ 86.01434, 24.08874 ], [ 86.01646, 24.0902 ], [ 86.01791, 24.09752 ], [ 86.02251, 24.09944 ], [ 86.0221, 24.10078 ], [ 86.0192, 24.10322 ], [ 86.01885, 24.10478 ], [ 86.02033, 24.10734 ], [ 86.01982, 24.10803 ], [ 86.01649, 24.10755 ], [ 86.01487, 24.10507 ], [ 86.01265, 24.10665 ], [ 86.01455, 24.11111 ], [ 86.01423, 24.11206 ], [ 86.01266, 24.11196 ], [ 86.01158, 24.11332 ], [ 86.0146, 24.11877 ], [ 86.01474, 24.12301 ], [ 86.01653, 24.12452 ], [ 86.01994, 24.12431 ], [ 86.02269, 24.12559 ], [ 86.02508, 24.12481 ], [ 86.02946, 24.12523 ], [ 86.03225, 24.12724 ], [ 86.03303, 24.13292 ], [ 86.03173, 24.14094 ], [ 86.0378, 24.14159 ], [ 86.03856, 24.14403 ], [ 86.04015, 24.14585 ], [ 86.04331, 24.14671 ], [ 86.0444, 24.15142 ], [ 86.04555, 24.15295 ], [ 86.04934, 24.1534 ], [ 86.0512, 24.16561 ], [ 86.05993, 24.1684 ], [ 86.07936, 24.18287 ], [ 86.08317, 24.18447 ], [ 86.08567, 24.1849 ], [ 86.08819, 24.18404 ] ] ] } }
]
}
