{
"type": "FeatureCollection",
"name": "350_DEOGHAR",
"crs": { "type": "name", "properties": { "name": "urn:ogc:def:crs:OGC:1.3:CRS84" } },
"xy_coordinate_resolution": 1e-05,
"features": [
{ "type": "Feature", "properties": { "OBJECTID": 5592, "state_lgd": "20", "state_name": "JHARKHAND", "district_lgd": "350", "district_name": "DEOGHAR", "district_name_source": "district_table", "subdistrict_lgd": "02545", "subdistrict_name": "Deoghar", "subdistrict_type": "", "name_corrupted": false, "remarks": "", "label_lon": 86.632884177651121, "label_lat": 24.481120394259754 }, "geometry": { "type": "Polygon", "coordinates": [ [ [ 86.61472, 24.60807 ], [ 86.6148, 24.60609 ], [ 86.61299, 24.60651 ], [ 86.61092, 24.60399 ], [ 86.61042, 24.5987 ], [ 86.61537, 24.59816 ], [ 86.62102, 24.60006 ], [ 86.62453, 24.59929 ], [ 86.62281, 24.59626 ], [ 86.62373, 24.58901 ], [ 86.6268, 24.58858 ], [ 86.62942, 24.58608 ], [ 86.63795, 24.5825 ], [ 86.64575, 24.58063 ], [ 86.64772, 24.57868 ], [ 86.64961, 24.57222 ], [ 86.65173, 24.5704 ], [ 86.67024, 24.56488 ], [ 86.68077, 24.57099 ], [ 86.68598, 24.56995 ], [ 86.68788, 24.57241 ], [ 86.6934, 24.57014 ], [ 86.69515, 24.56793 ], [ 86.69658, 24.5628 ], [ 86.69803, 24.56051 ], [ 86.69758, 24.55834 ], [ 86.69858, 24.55484 ], [ 86.69809, 24.55424 ], [ 86.69747, 24.55527 ], [ 86.69661, 24.55182 ], [ 86.69695, 24.55118 ], [ 86.69885, 24.55165 ], [ 86.70031, 24.54708 ], [ 86.69758, 24.53551 ], [ 86.69472, 24.52998 ], [ 86.69803, 24.52872 ], [ 86.70471, 24.52847 ], [ 86.70931, 24.52655 ], [ 86.70824, 24.51885 ], [ 86.7035, 24.51175 ], [ 86.70471, 24.50956 ], [ 86.71086, 24.51617 ], [ 86.71264, 24.51588 ], [ 86.71369, 24.51295 ], [ 86.71758, 24.51409 ], [ 86.71959, 24.51963 ], [ 86.72087, 24.51971 ], [ 86.72346, 24.51754 ], [ 86.7271, 24.511 ], [ 86.72833, 24.51026 ], [ 86.72682, 24.50005 ], [ 86.72814, 24.49519 ], [ 86.73156, 24.49469 ], [ 86.73577, 24.49582 ], [ 86.73636, 24.49373 ], [ 86.73532, 24.49272 ], [ 86.73517, 24.49014 ], [ 86.73421, 24.48868 ], [ 86.73059, 24.48717 ], [ 86.73125, 24.48555 ], [ 86.72985, 24.48419 ], [ 86.72976, 24.4825 ], [ 86.73108, 24.48158 ], [ 86.72889, 24.47713 ], [ 86.72891, 24.47527 ], [ 86.72355, 24.4737 ], [ 86.72467, 24.47039 ], [ 86.72423, 24.46721 ], [ 86.72311, 24.46562 ], [ 86.72213, 24.46455 ], [ 86.71997, 24.46524 ], [ 86.71867, 24.46672 ], [ 86.71632, 24.46222 ], [ 86.71468, 24.46102 ], [ 86.71426, 24.4591 ], [ 86.70856, 24.45548 ], [ 86.71026, 24.45248 ], [ 86.7136, 24.45106 ], [ 86.71272, 24.44964 ], [ 86.71465, 24.44458 ], [ 86.72138, 24.44237 ], [ 86.72511, 24.43242 ], [ 86.72634, 24.43175 ], [ 86.73023, 24.4323 ], [ 86.73471, 24.43055 ], [ 86.73561, 24.42769 ], [ 86.73913, 24.42473 ], [ 86.73934, 24.42314 ], [ 86.73742, 24.42219 ], [ 86.73681, 24.42064 ], [ 86.73846, 24.41906 ], [ 86.74075, 24.41864 ], [ 86.73896, 24.4155 ], [ 86.73774, 24.40572 ], [ 86.73484, 24.40323 ], [ 86.73062, 24.40248 ], [ 86.72969, 24.40095 ], [ 86.7297, 24.39992 ], [ 86.73141, 24.40002 ], [ 86.73167, 24.39636 ], [ 86.72321, 24.39733 ], [ 86.72168, 24.39511 ], [ 86.72096, 24.39275 ], [ 86.72525, 24.38407 ], [ 86.72331, 24.38196 ], [ 86.72256, 24.37706 ], [ 86.7207, 24.37287 ], [ 86.71028, 24.36508 ], [ 86.6982, 24.35774 ], [ 86.69512, 24.35688 ], [ 86.68709, 24.3579 ], [ 86.68636, 24.3554 ], [ 86.68372, 24.35317 ], [ 86.68086, 24.35384 ], [ 86.67539, 24.35209 ], [ 86.67336, 24.35212 ], [ 86.67218, 24.35476 ], [ 86.66944, 24.35512 ], [ 86.66407, 24.35268 ], [ 86.66313, 24.35104 ], [ 86.65592, 24.34678 ], [ 86.65455, 24.34696 ], [ 86.65053, 24.3428 ], [ 86.64893, 24.34359 ], [ 86.64237, 24.34369 ], [ 86.63881, 24.34529 ], [ 86.63223, 24.34642 ], [ 86.63011, 24.34729 ], [ 86.62441, 24.35259 ], [ 86.62125, 24.35236 ], [ 86.62024, 24.35313 ], [ 86.61995, 24.35386 ], [ 86.62247, 24.35568 ], [ 86.62828, 24.35694 ], [ 86.6276, 24.36346 ], [ 86.6286, 24.36565 ], [ 86.62842, 24.3674 ], [ 86.62596, 24.36985 ], [ 86.6226, 24.36963 ], [ 86.61394, 24.37103 ], [ 86.61327, 24.37214 ], [ 86.61144, 24.37228 ], [ 86.61104, 24.37338 ], [ 86.61286, 24.37616 ], [ 86.61132, 24.37777 ], [ 86.61133, 24.37915 ], [ 86.61396, 24.38265 ], [ 86.61344, 24.38591 ], [ 86.61594, 24.38903 ], [ 86.61553, 24.39172 ], [ 86.6174, 24.39368 ], [ 86.61862, 24.39447 ], [ 86.62205, 24.39468 ], [ 86.62843, 24.3982 ], [ 86.62963, 24.40236 ], [ 86.63194, 24.40436 ], [ 86.63453, 24.40365 ], [ 86.63674, 24.40193 ], [ 86.64226, 24.40398 ], [ 86.64686, 24.40408 ], [ 86.651, 24.40655 ], [ 86.65439, 24.40345 ], [ 86.65671, 24.40753 ], [ 86.66137, 24.40833 ], [ 86.65807, 24.40925 ], [ 86.65805, 24.41027 ], [ 86.65913, 24.41077 ], [ 86.65898, 24.41234 ], [ 86.6649, 24.41383 ], [ 86.66541, 24.41465 ], [ 86.66446, 24.41902 ], [ 86.66184, 24.42462 ], [ 86.66068, 24.43316 ], [ 86.65878, 24.4378 ], [ 86.65398, 24.44241 ], [ 86.64805, 24.44413 ], [ 86.6432, 24.4487 ], [ 86.6382, 24.45948 ], [ 86.63525, 24.45945 ], [ 86.62532, 24.46181 ], [ 86.62121, 24.46367 ], [ 86.6182, 24.46698 ], [ 86.61226, 24.47031 ], [ 86.61022, 24.47033 ], [ 86.60785, 24.46899 ], [ 86.60459, 24.46252 ], [ 86.60159, 24.4603 ], [ 86.59824, 24.46026 ], [ 86.59319, 24.46169 ], [ 86.5897, 24.45901 ], [ 86.58766, 24.46151 ], [ 86.58439, 24.46226 ], [ 86.58276, 24.46064 ], [ 86.57367, 24.45886 ], [ 86.57071, 24.45926 ], [ 86.55138, 24.46676 ], [ 86.54829, 24.46406 ], [ 86.54538, 24.45865 ], [ 86.54342, 24.45765 ], [ 86.53731, 24.45821 ], [ 86.53754, 24.45634 ], [ 86.53583, 24.45358 ], [ 86.53391, 24.45337 ], [ 86.53184, 24.45135 ], [ 86.52858, 24.45064 ], [ 86.52776, 24.44852 ], [ 86.52596, 24.44926 ], [ 86.52449, 24.45131 ], [ 86.5209, 24.45386 ], [ 86.52057, 24.45782 ], [ 86.51981, 24.4601 ], [ 86.51885, 24.46064 ], [ 86.5135, 24.46015 ], [ 86.50719, 24.4608 ], [ 86.5052, 24.46176 ], [ 86.50251, 24.46073 ], [ 86.49809, 24.45675 ], [ 86.49539, 24.4555 ], [ 86.49324, 24.45846 ], [ 86.4882, 24.46163 ], [ 86.48676, 24.46359 ], [ 86.49086, 24.46718 ], [ 86.4914, 24.46891 ], [ 86.48998, 24.46981 ], [ 86.49031, 24.47132 ], [ 86.49447, 24.47338 ], [ 86.49184, 24.47585 ], [ 86.49536, 24.4831 ], [ 86.49434, 24.4862 ], [ 86.49708, 24.49025 ], [ 86.49869, 24.48906 ], [ 86.5004, 24.48944 ], [ 86.50268, 24.49324 ], [ 86.50078, 24.50404 ], [ 86.50384, 24.51108 ], [ 86.50916, 24.52003 ], [ 86.50957, 24.52219 ], [ 86.51166, 24.52394 ], [ 86.51535, 24.52537 ], [ 86.51751, 24.53033 ], [ 86.51975, 24.53168 ], [ 86.52054, 24.53323 ], [ 86.52307, 24.5338 ], [ 86.52936, 24.54029 ], [ 86.53629, 24.53585 ], [ 86.53936, 24.53925 ], [ 86.54153, 24.54034 ], [ 86.54973, 24.53797 ], [ 86.55232, 24.53597 ], [ 86.55214, 24.53856 ], [ 86.55336, 24.5435 ], [ 86.55532, 24.54405 ], [ 86.55833, 24.54903 ], [ 86.56379, 24.55255 ], [ 86.56125, 24.5561 ], [ 86.55835, 24.55824 ], [ 86.55918, 24.56227 ], [ 86.56163, 24.56222 ], [ 86.56647, 24.56649 ], [ 86.56981, 24.56471 ], [ 86.57096, 24.56566 ], [ 86.57684, 24.56542 ], [ 86.58029, 24.56653 ], [ 86.58921, 24.5793 ], [ 86.58837, 24.58443 ], [ 86.58913, 24.58641 ], [ 86.58887, 24.58853 ], [ 86.59319, 24.59342 ], [ 86.59716, 24.59657 ], [ 86.59819, 24.59991 ], [ 86.60307, 24.60194 ], [ 86.60414, 24.60561 ], [ 86.60287, 24.6073 ], [ 86.60329, 24.60838 ], [ 86.61472, 24.60807 ] ] ] } },
{ "type": "Feature", "properties": { "OBJECTID": 5594, "state_lgd": "20", "state_name": "JHARKHAND", "district_lgd": "350", "district_name": "DEOGHAR", "district_name_source": "district_table", "subdistrict_lgd": "02549", "subdistrict_name": "DEVIPUR", "subdistrict_type": "", "name_corrupted": false, "remarks": "", "label_lon": 86.588523031744373, "label_lat": 24.387783981527942 }, "geometry": { "type": "Polygon", "coordinates": [ [ [ 86.63018, 24.46051 ], [ 86.6382, 24.45948 ], [ 86.6432, 24.4487 ], [ 86.64805, 24.44413 ], [ 86.65398, 24.44241 ], [ 86.65878, 24.4378 ], [ 86.66068, 24.43316 ], [ 86.66184, 24.42462 ], [ 86.66554, 24.41591 ], [ 86.6649, 24.41383 ], [ 86.65898, 24.41234 ], [ 86.65913, 24.41077 ], [ 86.65805, 24.41027 ], [ 86.65807, 24.40925 ], [ 86.66137, 24.40833 ], [ 86.65671, 24.40753 ], [ 86.65439, 24.40345 ], [ 86.651, 24.40655 ], [ 86.64686, 24.40408 ], [ 86.64226, 24.40398 ], [ 86.63674, 24.40193 ], [ 86.63453, 24.40365 ], [ 86.63194, 24.40436 ], [ 86.62963, 24.40236 ], [ 86.62843, 24.3982 ], [ 86.62077, 24.3942 ], [ 86.61862, 24.39447 ], [ 86.61581, 24.39212 ], [ 86.61594, 24.38903 ], [ 86.61344, 24.38591 ], [ 86.61396, 24.38265 ], [ 86.61133, 24.37915 ], [ 86.61132, 24.37777 ], [ 86.61286, 24.37616 ], [ 86.61104, 24.37338 ], [ 86.61144, 24.37228 ], [ 86.61327, 24.37214 ], [ 86.61394, 24.37103 ], [ 86.62051, 24.3699 ], [ 86.62596, 24.36985 ], [ 86.62842, 24.3674 ], [ 86.6286, 24.36565 ], [ 86.6276, 24.36346 ], [ 86.62828, 24.35694 ], [ 86.62247, 24.35568 ], [ 86.61995, 24.35386 ], [ 86.62024, 24.35313 ], [ 86.62125, 24.35236 ], [ 86.62441, 24.35259 ], [ 86.63011, 24.34729 ], [ 86.63223, 24.34642 ], [ 86.63881, 24.34529 ], [ 86.64237, 24.34369 ], [ 86.64893, 24.34359 ], [ 86.65053, 24.3428 ], [ 86.65455, 24.34696 ], [ 86.65592, 24.34678 ], [ 86.66313, 24.35104 ], [ 86.66407, 24.35268 ], [ 86.66944, 24.35512 ], [ 86.67218, 24.35476 ], [ 86.67336, 24.35212 ], [ 86.68086, 24.35384 ], [ 86.68406, 24.3534 ], [ 86.68578, 24.35062 ], [ 86.68766, 24.34946 ], [ 86.69909, 24.35009 ], [ 86.70843, 24.34686 ], [ 86.712, 24.34666 ], [ 86.71713, 24.34757 ], [ 86.71816, 24.34929 ], [ 86.71921, 24.34956 ], [ 86.72155, 24.3482 ], [ 86.72371, 24.34558 ], [ 86.72867, 24.34561 ], [ 86.73114, 24.3399 ], [ 86.7393, 24.33617 ], [ 86.74427, 24.33729 ], [ 86.74646, 24.32939 ], [ 86.74635, 24.32741 ], [ 86.75432, 24.32652 ], [ 86.7612, 24.31534 ], [ 86.76481, 24.31091 ], [ 86.76552, 24.3082 ], [ 86.76402, 24.30546 ], [ 86.76426, 24.29897 ], [ 86.75971, 24.29431 ], [ 86.75918, 24.29118 ], [ 86.75749, 24.29233 ], [ 86.75229, 24.29202 ], [ 86.75051, 24.29076 ], [ 86.74766, 24.28606 ], [ 86.74738, 24.28793 ], [ 86.74401, 24.29335 ], [ 86.74459, 24.29405 ], [ 86.73585, 24.29571 ], [ 86.73401, 24.29905 ], [ 86.73005, 24.30204 ], [ 86.72955, 24.30024 ], [ 86.72769, 24.29817 ], [ 86.72021, 24.30128 ], [ 86.71477, 24.30189 ], [ 86.71411, 24.30424 ], [ 86.7126, 24.30538 ], [ 86.70821, 24.3062 ], [ 86.70971, 24.31056 ], [ 86.70939, 24.31176 ], [ 86.70468, 24.31497 ], [ 86.70212, 24.31549 ], [ 86.69711, 24.311 ], [ 86.69555, 24.31095 ], [ 86.69273, 24.31284 ], [ 86.69226, 24.31811 ], [ 86.68885, 24.31823 ], [ 86.68585, 24.31561 ], [ 86.68479, 24.31636 ], [ 86.68757, 24.32273 ], [ 86.68775, 24.32614 ], [ 86.68434, 24.3246 ], [ 86.68257, 24.32462 ], [ 86.67677, 24.32162 ], [ 86.67501, 24.32496 ], [ 86.67286, 24.32644 ], [ 86.6674, 24.32758 ], [ 86.66105, 24.33189 ], [ 86.65521, 24.33274 ], [ 86.65484, 24.32939 ], [ 86.65322, 24.32711 ], [ 86.65286, 24.32089 ], [ 86.64615, 24.32229 ], [ 86.64753, 24.31955 ], [ 86.64724, 24.31469 ], [ 86.64898, 24.31242 ], [ 86.65009, 24.30853 ], [ 86.6494, 24.30879 ], [ 86.64756, 24.30655 ], [ 86.64825, 24.30443 ], [ 86.64563, 24.3037 ], [ 86.64148, 24.30461 ], [ 86.63956, 24.30358 ], [ 86.63825, 24.304 ], [ 86.63647, 24.306 ], [ 86.63436, 24.30635 ], [ 86.63285, 24.31147 ], [ 86.63017, 24.31136 ], [ 86.62909, 24.31389 ], [ 86.63329, 24.31518 ], [ 86.6339, 24.31872 ], [ 86.62663, 24.31799 ], [ 86.62266, 24.31887 ], [ 86.6145, 24.32465 ], [ 86.61226, 24.3253 ], [ 86.60859, 24.32501 ], [ 86.60369, 24.32627 ], [ 86.59223, 24.33432 ], [ 86.58156, 24.33906 ], [ 86.57869, 24.34269 ], [ 86.57682, 24.34995 ], [ 86.57254, 24.35633 ], [ 86.57201, 24.36008 ], [ 86.568, 24.36009 ], [ 86.55968, 24.3582 ], [ 86.55186, 24.35974 ], [ 86.54785, 24.35974 ], [ 86.53599, 24.35784 ], [ 86.53236, 24.35504 ], [ 86.53124, 24.35497 ], [ 86.52828, 24.35534 ], [ 86.52803, 24.36325 ], [ 86.52643, 24.36293 ], [ 86.52145, 24.36483 ], [ 86.5186, 24.36405 ], [ 86.51291, 24.36137 ], [ 86.50702, 24.36056 ], [ 86.50091, 24.35748 ], [ 86.50059, 24.35326 ], [ 86.49926, 24.34995 ], [ 86.50331, 24.3435 ], [ 86.5053, 24.34173 ], [ 86.50537, 24.34061 ], [ 86.48847, 24.34649 ], [ 86.48585, 24.34811 ], [ 86.48121, 24.34842 ], [ 86.47585, 24.35353 ], [ 86.47263, 24.35523 ], [ 86.47128, 24.3553 ], [ 86.47031, 24.35357 ], [ 86.4659, 24.35358 ], [ 86.4592, 24.35488 ], [ 86.45698, 24.35601 ], [ 86.45659, 24.35783 ], [ 86.45906, 24.36464 ], [ 86.45763, 24.36869 ], [ 86.4578, 24.37131 ], [ 86.45537, 24.37186 ], [ 86.45734, 24.37335 ], [ 86.45618, 24.3745 ], [ 86.45688, 24.37685 ], [ 86.4579, 24.3782 ], [ 86.46347, 24.37895 ], [ 86.46713, 24.38107 ], [ 86.46741, 24.38328 ], [ 86.46672, 24.38484 ], [ 86.4696, 24.38807 ], [ 86.47003, 24.39051 ], [ 86.47193, 24.39335 ], [ 86.4701, 24.39741 ], [ 86.47005, 24.39944 ], [ 86.47115, 24.40016 ], [ 86.47146, 24.40152 ], [ 86.47075, 24.40567 ], [ 86.46789, 24.40615 ], [ 86.4681, 24.40875 ], [ 86.46689, 24.41013 ], [ 86.46916, 24.41535 ], [ 86.46861, 24.41769 ], [ 86.46918, 24.41986 ], [ 86.4665, 24.42135 ], [ 86.4665, 24.42386 ], [ 86.46866, 24.42627 ], [ 86.47253, 24.42469 ], [ 86.47702, 24.42451 ], [ 86.47943, 24.42794 ], [ 86.48379, 24.42873 ], [ 86.49128, 24.42808 ], [ 86.49421, 24.44082 ], [ 86.49677, 24.44375 ], [ 86.49572, 24.44724 ], [ 86.49539, 24.4555 ], [ 86.49809, 24.45675 ], [ 86.50251, 24.46073 ], [ 86.5052, 24.46176 ], [ 86.50719, 24.4608 ], [ 86.5135, 24.46015 ], [ 86.51885, 24.46064 ], [ 86.51981, 24.4601 ], [ 86.52057, 24.45782 ], [ 86.5209, 24.45386 ], [ 86.52449, 24.45131 ], [ 86.52596, 24.44926 ], [ 86.52776, 24.44852 ], [ 86.52858, 24.45064 ], [ 86.53184, 24.45135 ], [ 86.53391, 24.45337 ], [ 86.53583, 24.45358 ], [ 86.53754, 24.45634 ], [ 86.53731, 24.45821 ], [ 86.54342, 24.45765 ], [ 86.54538, 24.45865 ], [ 86.54829, 24.46406 ], [ 86.55138, 24.46676 ], [ 86.57071, 24.45926 ], [ 86.57367, 24.45886 ], [ 86.58276, 24.46064 ], [ 86.58439, 24.46226 ], [ 86.58766, 24.46151 ], [ 86.5897, 24.45901 ], [ 86.59319, 24.46169 ], [ 86.59824, 24.46026 ], [ 86.60159, 24.4603 ], [ 86.60459, 24.46252 ], [ 86.60785, 24.46899 ], [ 86.61022, 24.47033 ], [ 86.61226, 24.47031 ], [ 86.6182, 24.46698 ], [ 86.62121, 24.46367 ], [ 86.63018, 24.46051 ] ] ] } },
{ "type": "Feature", "properties": { "OBJECTID": 5651, "state_lgd": "20", "state_name": "JHARKHAND", "district_lgd": "350", "district_name": "DEOGHAR", "district_name_source": "district_table", "subdistrict_lgd": "02552", "subdistrict_name": "KARON", "subdistrict_type": "", "name_corrupted": false, "remarks": "", "label_lon": 86.716415649339282, "label_lat": 24.17452262417801 }, "geometry": { "type": "Polygon", "coordinates": [ [ [ 86.6689, 24.26196 ], [ 86.6714, 24.26054 ], [ 86.67325, 24.2615 ], [ 86.67542, 24.26111 ], [ 86.67699, 24.25944 ], [ 86.67704, 24.25838 ], [ 86.67852, 24.25787 ], [ 86.6764, 24.25645 ], [ 86.67941, 24.25665 ], [ 86.68435, 24.25413 ], [ 86.68869, 24.25343 ], [ 86.69687, 24.24985 ], [ 86.69889, 24.24784 ], [ 86.70282, 24.24814 ], [ 86.70307, 24.25073 ], [ 86.70402, 24.25152 ], [ 86.70535, 24.25103 ], [ 86.70684, 24.25425 ], [ 86.71028, 24.25531 ], [ 86.71061, 24.25422 ], [ 86.70938, 24.25239 ], [ 86.71024, 24.24756 ], [ 86.71536, 24.24997 ], [ 86.71953, 24.24719 ], [ 86.72117, 24.24691 ], [ 86.72054, 24.2452 ], [ 86.7176, 24.24422 ], [ 86.71766, 24.24318 ], [ 86.72639, 24.23875 ], [ 86.72912, 24.23885 ], [ 86.73044, 24.23555 ], [ 86.73378, 24.23764 ], [ 86.73688, 24.23615 ], [ 86.73804, 24.2377 ], [ 86.74003, 24.23708 ], [ 86.74203, 24.23493 ], [ 86.75389, 24.23654 ], [ 86.75689, 24.23434 ], [ 86.75771, 24.23264 ], [ 86.75241, 24.22979 ], [ 86.74853, 24.2253 ], [ 86.74729, 24.22015 ], [ 86.74977, 24.21756 ], [ 86.74939, 24.21293 ], [ 86.75203, 24.20925 ], [ 86.75131, 24.20602 ], [ 86.75235, 24.20478 ], [ 86.75515, 24.20424 ], [ 86.75733, 24.19916 ], [ 86.75596, 24.19536 ], [ 86.74631, 24.19922 ], [ 86.74176, 24.19592 ], [ 86.74033, 24.19374 ], [ 86.74058, 24.1913 ], [ 86.73988, 24.18943 ], [ 86.73865, 24.18897 ], [ 86.7426, 24.18455 ], [ 86.73838, 24.18163 ], [ 86.73812, 24.17889 ], [ 86.7404, 24.17805 ], [ 86.74228, 24.17416 ], [ 86.74812, 24.17114 ], [ 86.74872, 24.16804 ], [ 86.75178, 24.1656 ], [ 86.75727, 24.1689 ], [ 86.7601, 24.17191 ], [ 86.75896, 24.17752 ], [ 86.75965, 24.18354 ], [ 86.76333, 24.19013 ], [ 86.76539, 24.1911 ], [ 86.77062, 24.1896 ], [ 86.77397, 24.1898 ], [ 86.77126, 24.18475 ], [ 86.76767, 24.18067 ], [ 86.76635, 24.17737 ], [ 86.76742, 24.17437 ], [ 86.77001, 24.17124 ], [ 86.77392, 24.17021 ], [ 86.77621, 24.17207 ], [ 86.77973, 24.17857 ], [ 86.7814, 24.17511 ], [ 86.78849, 24.16846 ], [ 86.78825, 24.16506 ], [ 86.78711, 24.16197 ], [ 86.78105, 24.15515 ], [ 86.78264, 24.15462 ], [ 86.78377, 24.15312 ], [ 86.77473, 24.14936 ], [ 86.76803, 24.14548 ], [ 86.7649, 24.1427 ], [ 86.76322, 24.13825 ], [ 86.77202, 24.13299 ], [ 86.78585, 24.13384 ], [ 86.78868, 24.13261 ], [ 86.78883, 24.13156 ], [ 86.78764, 24.13068 ], [ 86.7836, 24.12893 ], [ 86.78847, 24.12571 ], [ 86.78621, 24.1227 ], [ 86.78906, 24.11661 ], [ 86.79341, 24.1124 ], [ 86.79427, 24.10892 ], [ 86.79736, 24.10573 ], [ 86.79291, 24.1053 ], [ 86.78127, 24.10751 ], [ 86.78227, 24.10282 ], [ 86.78146, 24.10203 ], [ 86.76302, 24.10203 ], [ 86.76218, 24.09946 ], [ 86.76231, 24.09508 ], [ 86.76066, 24.09443 ], [ 86.75946, 24.09831 ], [ 86.76008, 24.10138 ], [ 86.75582, 24.10184 ], [ 86.75366, 24.09891 ], [ 86.75409, 24.09743 ], [ 86.75613, 24.09611 ], [ 86.75746, 24.09176 ], [ 86.7554, 24.09283 ], [ 86.75348, 24.09255 ], [ 86.74893, 24.09398 ], [ 86.74713, 24.09585 ], [ 86.74511, 24.09491 ], [ 86.74261, 24.09669 ], [ 86.74074, 24.09567 ], [ 86.73921, 24.09813 ], [ 86.73551, 24.09817 ], [ 86.73197, 24.10022 ], [ 86.73059, 24.102 ], [ 86.72902, 24.10119 ], [ 86.72598, 24.10226 ], [ 86.72387, 24.10455 ], [ 86.71981, 24.1063 ], [ 86.71821, 24.10581 ], [ 86.71322, 24.10665 ], [ 86.71227, 24.10557 ], [ 86.71051, 24.10528 ], [ 86.69904, 24.11216 ], [ 86.6986, 24.11889 ], [ 86.69934, 24.12412 ], [ 86.69835, 24.12786 ], [ 86.70058, 24.13396 ], [ 86.70483, 24.138 ], [ 86.70591, 24.13879 ], [ 86.71022, 24.13846 ], [ 86.71332, 24.13936 ], [ 86.7132, 24.141 ], [ 86.71582, 24.14125 ], [ 86.71718, 24.14218 ], [ 86.717, 24.14334 ], [ 86.71482, 24.14441 ], [ 86.71493, 24.1455 ], [ 86.71731, 24.14807 ], [ 86.71668, 24.15126 ], [ 86.71742, 24.1536 ], [ 86.71644, 24.15548 ], [ 86.70579, 24.15973 ], [ 86.70489, 24.16288 ], [ 86.70116, 24.1636 ], [ 86.69742, 24.16543 ], [ 86.69687, 24.1654 ], [ 86.69863, 24.16112 ], [ 86.69751, 24.15977 ], [ 86.69738, 24.15699 ], [ 86.69364, 24.15383 ], [ 86.69306, 24.14995 ], [ 86.69154, 24.14871 ], [ 86.69158, 24.14648 ], [ 86.69314, 24.14265 ], [ 86.69245, 24.14197 ], [ 86.68982, 24.14212 ], [ 86.68931, 24.13835 ], [ 86.68798, 24.13732 ], [ 86.68878, 24.13484 ], [ 86.68551, 24.13358 ], [ 86.68458, 24.13064 ], [ 86.68212, 24.12869 ], [ 86.67936, 24.1296 ], [ 86.67301, 24.12975 ], [ 86.67066, 24.12881 ], [ 86.66743, 24.1291 ], [ 86.66413, 24.12815 ], [ 86.65495, 24.12965 ], [ 86.65527, 24.1327 ], [ 86.65459, 24.13446 ], [ 86.65698, 24.14131 ], [ 86.65721, 24.1455 ], [ 86.65965, 24.14707 ], [ 86.65921, 24.14876 ], [ 86.66032, 24.15209 ], [ 86.6628, 24.15202 ], [ 86.66343, 24.15317 ], [ 86.66329, 24.15416 ], [ 86.66043, 24.15638 ], [ 86.65752, 24.15701 ], [ 86.65584, 24.1558 ], [ 86.65278, 24.15816 ], [ 86.65394, 24.16105 ], [ 86.65296, 24.16607 ], [ 86.65468, 24.16807 ], [ 86.65216, 24.17326 ], [ 86.6523, 24.17744 ], [ 86.65119, 24.18005 ], [ 86.654, 24.18045 ], [ 86.65829, 24.17947 ], [ 86.65806, 24.18169 ], [ 86.65879, 24.18266 ], [ 86.66372, 24.18241 ], [ 86.66409, 24.18591 ], [ 86.66575, 24.19036 ], [ 86.66353, 24.19183 ], [ 86.6655, 24.19514 ], [ 86.66489, 24.1979 ], [ 86.67051, 24.19935 ], [ 86.67567, 24.20199 ], [ 86.67355, 24.20405 ], [ 86.67078, 24.20891 ], [ 86.6651, 24.21073 ], [ 86.66545, 24.21498 ], [ 86.66926, 24.22595 ], [ 86.66711, 24.2274 ], [ 86.6662, 24.22958 ], [ 86.66479, 24.23687 ], [ 86.65962, 24.23487 ], [ 86.65782, 24.23519 ], [ 86.65433, 24.23404 ], [ 86.65225, 24.24636 ], [ 86.6539, 24.24996 ], [ 86.65586, 24.25956 ], [ 86.65974, 24.26181 ], [ 86.6689, 24.26196 ] ] ] } },
{ "type": "Feature", "properties": { "OBJECTID": 5681, "state_lgd": "20", "state_name": "JHARKHAND", "district_lgd": "350", "district_name": "DEOGHAR", "district_name_source": "district_table", "subdistrict_lgd": "02550", "subdistrict_name": "MADHUPUR", "subdistrict_type": "", "name_corrupted": false, "remarks": "", "label_lon": 86.592431727656546, "label_lat": 24.288645081887346 }, "geometry": { "type": "Polygon", "coordinates": [ [ [ 86.5251, 24.36327 ], [ 86.52803, 24.36325 ], [ 86.52828, 24.35534 ], [ 86.53124, 24.35497 ], [ 86.53236, 24.35504 ], [ 86.53599, 24.35784 ], [ 86.54785, 24.35974 ], [ 86.55186, 24.35974 ], [ 86.55968, 24.3582 ], [ 86.568, 24.36009 ], [ 86.57201, 24.36008 ], [ 86.57254, 24.35633 ], [ 86.57682, 24.34995 ], [ 86.57869, 24.34269 ], [ 86.58156, 24.33906 ], [ 86.59223, 24.33432 ], [ 86.60369, 24.32627 ], [ 86.60859, 24.32501 ], [ 86.61226, 24.3253 ], [ 86.6145, 24.32465 ], [ 86.62266, 24.31887 ], [ 86.62663, 24.31799 ], [ 86.6339, 24.31872 ], [ 86.63329, 24.31518 ], [ 86.62909, 24.31389 ], [ 86.63017, 24.31136 ], [ 86.63285, 24.31147 ], [ 86.63436, 24.30635 ], [ 86.63647, 24.306 ], [ 86.63956, 24.30358 ], [ 86.64148, 24.30461 ], [ 86.64563, 24.3037 ], [ 86.64825, 24.30443 ], [ 86.64756, 24.30655 ], [ 86.6494, 24.30879 ], [ 86.65009, 24.30853 ], [ 86.64898, 24.31242 ], [ 86.64724, 24.31469 ], [ 86.64753, 24.31955 ], [ 86.64615, 24.32229 ], [ 86.65286, 24.32089 ], [ 86.65322, 24.32711 ], [ 86.65484, 24.32939 ], [ 86.65521, 24.33274 ], [ 86.66105, 24.33189 ], [ 86.6674, 24.32758 ], [ 86.67286, 24.32644 ], [ 86.67501, 24.32496 ], [ 86.67677, 24.32162 ], [ 86.68257, 24.32462 ], [ 86.68434, 24.3246 ], [ 86.68775, 24.32614 ], [ 86.68757, 24.32273 ], [ 86.68479, 24.31636 ], [ 86.68585, 24.31561 ], [ 86.68885, 24.31823 ], [ 86.69226, 24.31811 ], [ 86.69273, 24.31284 ], [ 86.69555, 24.31095 ], [ 86.69711, 24.311 ], [ 86.70212, 24.31549 ], [ 86.70331, 24.31553 ], [ 86.70939, 24.31176 ], [ 86.70971, 24.31056 ], [ 86.70821, 24.3062 ], [ 86.7126, 24.30538 ], [ 86.71411, 24.30424 ], [ 86.71477, 24.30189 ], [ 86.72021, 24.30128 ], [ 86.72769, 24.29817 ], [ 86.72955, 24.30024 ], [ 86.73005, 24.30204 ], [ 86.73401, 24.29905 ], [ 86.73585, 24.29571 ], [ 86.74459, 24.29405 ], [ 86.74401, 24.29335 ], [ 86.74738, 24.28793 ], [ 86.74766, 24.28606 ], [ 86.73755, 24.28722 ], [ 86.73692, 24.28594 ], [ 86.73842, 24.2827 ], [ 86.73779, 24.28048 ], [ 86.73861, 24.27917 ], [ 86.73953, 24.27289 ], [ 86.73808, 24.26774 ], [ 86.73934, 24.26636 ], [ 86.73483, 24.26451 ], [ 86.7327, 24.26497 ], [ 86.73066, 24.26369 ], [ 86.73181, 24.25362 ], [ 86.73373, 24.25044 ], [ 86.73545, 24.24989 ], [ 86.74674, 24.25082 ], [ 86.74896, 24.2477 ], [ 86.75777, 24.24484 ], [ 86.76291, 24.24074 ], [ 86.76232, 24.23525 ], [ 86.76162, 24.23423 ], [ 86.75771, 24.23264 ], [ 86.75626, 24.2351 ], [ 86.75389, 24.23654 ], [ 86.74203, 24.23493 ], [ 86.73906, 24.23763 ], [ 86.73804, 24.2377 ], [ 86.73688, 24.23615 ], [ 86.73378, 24.23764 ], [ 86.73044, 24.23555 ], [ 86.72912, 24.23885 ], [ 86.72639, 24.23875 ], [ 86.71766, 24.24318 ], [ 86.7176, 24.24422 ], [ 86.72054, 24.2452 ], [ 86.72117, 24.24691 ], [ 86.71953, 24.24719 ], [ 86.71536, 24.24997 ], [ 86.71024, 24.24756 ], [ 86.70938, 24.25239 ], [ 86.71061, 24.25422 ], [ 86.71028, 24.25531 ], [ 86.70684, 24.25425 ], [ 86.70535, 24.25103 ], [ 86.70402, 24.25152 ], [ 86.70307, 24.25073 ], [ 86.70282, 24.24814 ], [ 86.69889, 24.24784 ], [ 86.69687, 24.24985 ], [ 86.68869, 24.25343 ], [ 86.68435, 24.25413 ], [ 86.67941, 24.25665 ], [ 86.6764, 24.25645 ], [ 86.67852, 24.25787 ], [ 86.67704, 24.25838 ], [ 86.67666, 24.25996 ], [ 86.6744, 24.26148 ], [ 86.6714, 24.26054 ], [ 86.66712, 24.26226 ], [ 86.65974, 24.26181 ], [ 86.65586, 24.25956 ], [ 86.65461, 24.2532 ], [ 86.64685, 24.25343 ], [ 86.64317, 24.24937 ], [ 86.63557, 24.25101 ], [ 86.6331, 24.24947 ], [ 86.63145, 24.24998 ], [ 86.6302, 24.24773 ], [ 86.62739, 24.25235 ], [ 86.62397, 24.25217 ], [ 86.62233, 24.25038 ], [ 86.62033, 24.25002 ], [ 86.61786, 24.24317 ], [ 86.62165, 24.24004 ], [ 86.62198, 24.23833 ], [ 86.61978, 24.23738 ], [ 86.61862, 24.23469 ], [ 86.61758, 24.23424 ], [ 86.6167, 24.23445 ], [ 86.61634, 24.23693 ], [ 86.6111, 24.23655 ], [ 86.60792, 24.23883 ], [ 86.60537, 24.2391 ], [ 86.60169, 24.24079 ], [ 86.59868, 24.24043 ], [ 86.59514, 24.23603 ], [ 86.59432, 24.23299 ], [ 86.59416, 24.22445 ], [ 86.59189, 24.22329 ], [ 86.59028, 24.22122 ], [ 86.58938, 24.21692 ], [ 86.58476, 24.21822 ], [ 86.57766, 24.21766 ], [ 86.57627, 24.21836 ], [ 86.57249, 24.21312 ], [ 86.57112, 24.21269 ], [ 86.57013, 24.21483 ], [ 86.56815, 24.21525 ], [ 86.5635, 24.21444 ], [ 86.56066, 24.21643 ], [ 86.56105, 24.21945 ], [ 86.56494, 24.22191 ], [ 86.56047, 24.22836 ], [ 86.55759, 24.22679 ], [ 86.55719, 24.22464 ], [ 86.55549, 24.22576 ], [ 86.54748, 24.22698 ], [ 86.54626, 24.22343 ], [ 86.54499, 24.22298 ], [ 86.53855, 24.2221 ], [ 86.53527, 24.22332 ], [ 86.5311, 24.22297 ], [ 86.52905, 24.22218 ], [ 86.5272, 24.21941 ], [ 86.52473, 24.22064 ], [ 86.52268, 24.22058 ], [ 86.52223, 24.21863 ], [ 86.51956, 24.21518 ], [ 86.51699, 24.20594 ], [ 86.51511, 24.20534 ], [ 86.51242, 24.2059 ], [ 86.51148, 24.20773 ], [ 86.507, 24.20927 ], [ 86.51202, 24.21879 ], [ 86.51554, 24.22201 ], [ 86.51697, 24.22212 ], [ 86.51656, 24.22394 ], [ 86.51263, 24.22546 ], [ 86.5126, 24.22853 ], [ 86.51061, 24.22902 ], [ 86.50868, 24.23115 ], [ 86.51012, 24.23271 ], [ 86.51003, 24.23557 ], [ 86.51611, 24.23941 ], [ 86.51366, 24.24266 ], [ 86.51309, 24.24523 ], [ 86.50998, 24.24775 ], [ 86.50977, 24.2501 ], [ 86.5087, 24.25185 ], [ 86.51059, 24.25372 ], [ 86.50843, 24.25581 ], [ 86.51105, 24.25883 ], [ 86.51032, 24.26018 ], [ 86.51115, 24.26265 ], [ 86.50873, 24.26925 ], [ 86.50748, 24.27047 ], [ 86.5065, 24.27483 ], [ 86.505, 24.27635 ], [ 86.50461, 24.28253 ], [ 86.50181, 24.28475 ], [ 86.49221, 24.28507 ], [ 86.48838, 24.28692 ], [ 86.48612, 24.29112 ], [ 86.48613, 24.29722 ], [ 86.48442, 24.29819 ], [ 86.48095, 24.29827 ], [ 86.47798, 24.30058 ], [ 86.47553, 24.31004 ], [ 86.47218, 24.31366 ], [ 86.47401, 24.32112 ], [ 86.47343, 24.32388 ], [ 86.47557, 24.32715 ], [ 86.47558, 24.33007 ], [ 86.47168, 24.33138 ], [ 86.4656, 24.33181 ], [ 86.46505, 24.33365 ], [ 86.46345, 24.33466 ], [ 86.46052, 24.33392 ], [ 86.45766, 24.33489 ], [ 86.46022, 24.33852 ], [ 86.46338, 24.33927 ], [ 86.4653, 24.34247 ], [ 86.46693, 24.34332 ], [ 86.46669, 24.3451 ], [ 86.46971, 24.3486 ], [ 86.47031, 24.35357 ], [ 86.47128, 24.3553 ], [ 86.47585, 24.35353 ], [ 86.48121, 24.34842 ], [ 86.48585, 24.34811 ], [ 86.48847, 24.34649 ], [ 86.50537, 24.34061 ], [ 86.5053, 24.34173 ], [ 86.50331, 24.3435 ], [ 86.49926, 24.34995 ], [ 86.50059, 24.35326 ], [ 86.50091, 24.35748 ], [ 86.50702, 24.36056 ], [ 86.51291, 24.36137 ], [ 86.52145, 24.36483 ], [ 86.5251, 24.36327 ] ] ] } },
{ "type": "Feature", "properties": { "OBJECTID": 5694, "state_lgd": "20", "state_name": "JHARKHAND", "district_lgd": "350", "district_name": "DEOGHAR", "district_name_source": "district_table", "subdistrict_lgd": "02551", "subdistrict_name": "MARGOMUNDA", "subdistrict_type": "", "name_corrupted": false, "remarks": "", "label_lon": 86.591168494675372, "label_lat": 24.187489899023259 }, "geometry": { "type": "Polygon", "coordinates": [ [ [ 86.64685, 24.25343 ], [ 86.65461, 24.2532 ], [ 86.65225, 24.24636 ], [ 86.65433, 24.23404 ], [ 86.65782, 24.23519 ], [ 86.65962, 24.23487 ], [ 86.66479, 24.23687 ], [ 86.6662, 24.22958 ], [ 86.66711, 24.2274 ], [ 86.66926, 24.22595 ], [ 86.66545, 24.21498 ], [ 86.6651, 24.21073 ], [ 86.67078, 24.20891 ], [ 86.67355, 24.20405 ], [ 86.67567, 24.20199 ], [ 86.67051, 24.19935 ], [ 86.66489, 24.1979 ], [ 86.6655, 24.19514 ], [ 86.66353, 24.19183 ], [ 86.66575, 24.19036 ], [ 86.66409, 24.18591 ], [ 86.66372, 24.18241 ], [ 86.65879, 24.18266 ], [ 86.65806, 24.18169 ], [ 86.65829, 24.17947 ], [ 86.654, 24.18045 ], [ 86.65119, 24.18005 ], [ 86.6523, 24.17744 ], [ 86.65216, 24.17326 ], [ 86.65468, 24.16807 ], [ 86.65296, 24.16607 ], [ 86.65394, 24.16105 ], [ 86.65278, 24.15816 ], [ 86.65584, 24.1558 ], [ 86.65752, 24.15701 ], [ 86.66043, 24.15638 ], [ 86.66329, 24.15416 ], [ 86.66343, 24.15317 ], [ 86.6628, 24.15202 ], [ 86.66032, 24.15209 ], [ 86.65921, 24.14876 ], [ 86.65965, 24.14707 ], [ 86.65721, 24.1455 ], [ 86.65698, 24.14131 ], [ 86.65459, 24.13446 ], [ 86.65527, 24.1327 ], [ 86.65495, 24.12965 ], [ 86.64422, 24.13398 ], [ 86.63694, 24.13182 ], [ 86.62889, 24.13158 ], [ 86.62668, 24.13566 ], [ 86.62138, 24.13702 ], [ 86.6186, 24.13919 ], [ 86.61593, 24.13923 ], [ 86.61359, 24.13696 ], [ 86.61177, 24.13657 ], [ 86.60875, 24.13947 ], [ 86.60506, 24.14146 ], [ 86.60108, 24.14104 ], [ 86.59976, 24.13943 ], [ 86.59689, 24.13824 ], [ 86.59637, 24.13628 ], [ 86.59566, 24.13611 ], [ 86.58756, 24.13956 ], [ 86.57457, 24.13877 ], [ 86.56915, 24.14585 ], [ 86.56314, 24.14983 ], [ 86.55122, 24.15522 ], [ 86.54805, 24.15328 ], [ 86.53023, 24.15454 ], [ 86.52787, 24.155 ], [ 86.52428, 24.15823 ], [ 86.51561, 24.14988 ], [ 86.50577, 24.14819 ], [ 86.50316, 24.14935 ], [ 86.50198, 24.15136 ], [ 86.49891, 24.15234 ], [ 86.48585, 24.15124 ], [ 86.48515, 24.15201 ], [ 86.48513, 24.15386 ], [ 86.49027, 24.1602 ], [ 86.4946, 24.16746 ], [ 86.49686, 24.17547 ], [ 86.50185, 24.18101 ], [ 86.50221, 24.18363 ], [ 86.50145, 24.18641 ], [ 86.50387, 24.19337 ], [ 86.50199, 24.1981 ], [ 86.50034, 24.1994 ], [ 86.50257, 24.20207 ], [ 86.50487, 24.20256 ], [ 86.51148, 24.20773 ], [ 86.51242, 24.2059 ], [ 86.51511, 24.20534 ], [ 86.51699, 24.20594 ], [ 86.51956, 24.21518 ], [ 86.52223, 24.21863 ], [ 86.52268, 24.22058 ], [ 86.52473, 24.22064 ], [ 86.5272, 24.21941 ], [ 86.52905, 24.22218 ], [ 86.5311, 24.22297 ], [ 86.53527, 24.22332 ], [ 86.53855, 24.2221 ], [ 86.54499, 24.22298 ], [ 86.54626, 24.22343 ], [ 86.54748, 24.22698 ], [ 86.55549, 24.22576 ], [ 86.55719, 24.22464 ], [ 86.55759, 24.22679 ], [ 86.56047, 24.22836 ], [ 86.56494, 24.22191 ], [ 86.56105, 24.21945 ], [ 86.56066, 24.21643 ], [ 86.5635, 24.21444 ], [ 86.56815, 24.21525 ], [ 86.57013, 24.21483 ], [ 86.57112, 24.21269 ], [ 86.57249, 24.21312 ], [ 86.57627, 24.21836 ], [ 86.57766, 24.21766 ], [ 86.58476, 24.21822 ], [ 86.58938, 24.21692 ], [ 86.59028, 24.22122 ], [ 86.59189, 24.22329 ], [ 86.59416, 24.22445 ], [ 86.59432, 24.23299 ], [ 86.59514, 24.23603 ], [ 86.59868, 24.24043 ], [ 86.60169, 24.24079 ], [ 86.60537, 24.2391 ], [ 86.60792, 24.23883 ], [ 86.6111, 24.23655 ], [ 86.61634, 24.23693 ], [ 86.6167, 24.23445 ], [ 86.61758, 24.23424 ], [ 86.61862, 24.23469 ], [ 86.61978, 24.23738 ], [ 86.62198, 24.23833 ], [ 86.62207, 24.23909 ], [ 86.61786, 24.24317 ], [ 86.61799, 24.24442 ], [ 86.62033, 24.25002 ], [ 86.62233, 24.25038 ], [ 86.62397, 24.25217 ], [ 86.62739, 24.25235 ], [ 86.6302, 24.24773 ], [ 86.63212, 24.25023 ], [ 86.6331, 24.24947 ], [ 86.63671, 24.25102 ], [ 86.64317, 24.24937 ], [ 86.64685, 24.25343 ] ] ] } },
{ "type": "Feature", "properties": { "OBJECTID": 5702, "state_lgd": "20", "state_name": "JHARKHAND", "district_lgd": "350", "district_name": "DEOGHAR", "district_name_source": "district_table", "subdistrict_lgd": "02546", "subdistrict_name": "MOHANPUR", "subdistrict_type": "", "name_corrupted": false, "remarks": "", "label_lon": 86.806974011920261, "label_lat": 24.506205226082393 }, "geometry": { "type": "Polygon", "coordinates": [ [ [ 86.78164, 24.61913 ], [ 86.78505, 24.61651 ], [ 86.78901, 24.61869 ], [ 86.79197, 24.61509 ], [ 86.79686, 24.61102 ], [ 86.79844, 24.60753 ], [ 86.80186, 24.6049 ], [ 86.8036, 24.60187 ], [ 86.80486, 24.60168 ], [ 86.80836, 24.59864 ], [ 86.81124, 24.59827 ], [ 86.80757, 24.5948 ], [ 86.80715, 24.59261 ], [ 86.81171, 24.58254 ], [ 86.80992, 24.58033 ], [ 86.80537, 24.57827 ], [ 86.80263, 24.5736 ], [ 86.80315, 24.57033 ], [ 86.80563, 24.56944 ], [ 86.81082, 24.56987 ], [ 86.81192, 24.56905 ], [ 86.81597, 24.57016 ], [ 86.81825, 24.57318 ], [ 86.82161, 24.57451 ], [ 86.82255, 24.5744 ], [ 86.82355, 24.57239 ], [ 86.83183, 24.57159 ], [ 86.83371, 24.57238 ], [ 86.83465, 24.57508 ], [ 86.84265, 24.57422 ], [ 86.8434, 24.57308 ], [ 86.84364, 24.56854 ], [ 86.84175, 24.56536 ], [ 86.84145, 24.56333 ], [ 86.843, 24.5581 ], [ 86.85019, 24.55851 ], [ 86.85422, 24.55693 ], [ 86.85684, 24.55488 ], [ 86.86013, 24.55638 ], [ 86.86202, 24.56081 ], [ 86.86043, 24.56381 ], [ 86.86361, 24.5666 ], [ 86.86555, 24.56678 ], [ 86.86901, 24.56547 ], [ 86.87487, 24.56803 ], [ 86.87672, 24.56803 ], [ 86.87879, 24.57129 ], [ 86.88051, 24.57219 ], [ 86.8821, 24.5713 ], [ 86.88303, 24.56726 ], [ 86.88795, 24.5648 ], [ 86.8864, 24.5611 ], [ 86.88687, 24.55883 ], [ 86.88992, 24.55755 ], [ 86.8935, 24.55782 ], [ 86.89506, 24.56082 ], [ 86.89632, 24.5581 ], [ 86.89887, 24.55691 ], [ 86.90249, 24.55273 ], [ 86.90336, 24.55129 ], [ 86.90356, 24.54752 ], [ 86.91224, 24.54273 ], [ 86.91458, 24.5422 ], [ 86.91468, 24.54296 ], [ 86.91606, 24.54165 ], [ 86.91713, 24.53788 ], [ 86.91922, 24.53611 ], [ 86.91533, 24.52066 ], [ 86.91747, 24.51862 ], [ 86.91915, 24.51265 ], [ 86.91911, 24.50531 ], [ 86.91733, 24.5 ], [ 86.91919, 24.49774 ], [ 86.91906, 24.49603 ], [ 86.91641, 24.48725 ], [ 86.91096, 24.48614 ], [ 86.91044, 24.4807 ], [ 86.90636, 24.47669 ], [ 86.90625, 24.47425 ], [ 86.90468, 24.47186 ], [ 86.90923, 24.46981 ], [ 86.91158, 24.46333 ], [ 86.9039, 24.45717 ], [ 86.90329, 24.4556 ], [ 86.90389, 24.45128 ], [ 86.90308, 24.44964 ], [ 86.89991, 24.4478 ], [ 86.89368, 24.44797 ], [ 86.89001, 24.44606 ], [ 86.88904, 24.44084 ], [ 86.89058, 24.43251 ], [ 86.88656, 24.43183 ], [ 86.88409, 24.42961 ], [ 86.88405, 24.42798 ], [ 86.88546, 24.42555 ], [ 86.88521, 24.41874 ], [ 86.88313, 24.41586 ], [ 86.88057, 24.41538 ], [ 86.87977, 24.41324 ], [ 86.87833, 24.41226 ], [ 86.87383, 24.41353 ], [ 86.8708, 24.41549 ], [ 86.86293, 24.41642 ], [ 86.85147, 24.40755 ], [ 86.84909, 24.40156 ], [ 86.83897, 24.39247 ], [ 86.83447, 24.39387 ], [ 86.83249, 24.39325 ], [ 86.83114, 24.39164 ], [ 86.82967, 24.39188 ], [ 86.8286, 24.39407 ], [ 86.82994, 24.39538 ], [ 86.82979, 24.39652 ], [ 86.82527, 24.40015 ], [ 86.82347, 24.40582 ], [ 86.81514, 24.41503 ], [ 86.80988, 24.41953 ], [ 86.80724, 24.42067 ], [ 86.81026, 24.42589 ], [ 86.81446, 24.42887 ], [ 86.8196, 24.43532 ], [ 86.81045, 24.43872 ], [ 86.79479, 24.44604 ], [ 86.789, 24.44575 ], [ 86.78315, 24.44718 ], [ 86.77515, 24.4302 ], [ 86.77644, 24.42472 ], [ 86.77469, 24.42112 ], [ 86.77361, 24.41552 ], [ 86.77149, 24.41273 ], [ 86.76758, 24.41256 ], [ 86.76588, 24.41382 ], [ 86.76284, 24.41369 ], [ 86.75278, 24.41616 ], [ 86.74621, 24.41954 ], [ 86.74143, 24.41851 ], [ 86.73846, 24.41906 ], [ 86.73681, 24.42064 ], [ 86.73742, 24.42219 ], [ 86.73934, 24.42314 ], [ 86.73913, 24.42473 ], [ 86.73561, 24.42769 ], [ 86.73471, 24.43055 ], [ 86.73023, 24.4323 ], [ 86.72634, 24.43175 ], [ 86.72511, 24.43242 ], [ 86.72138, 24.44237 ], [ 86.71465, 24.44458 ], [ 86.71272, 24.44964 ], [ 86.7136, 24.45106 ], [ 86.71026, 24.45248 ], [ 86.70863, 24.4552 ], [ 86.71426, 24.4591 ], [ 86.71468, 24.46102 ], [ 86.71632, 24.46222 ], [ 86.71867, 24.46672 ], [ 86.71997, 24.46524 ], [ 86.72213, 24.46455 ], [ 86.72311, 24.46562 ], [ 86.72423, 24.46721 ], [ 86.72467, 24.47039 ], [ 86.72355, 24.4737 ], [ 86.72891, 24.47527 ], [ 86.72889, 24.47713 ], [ 86.73108, 24.48158 ], [ 86.72976, 24.4825 ], [ 86.72985, 24.48419 ], [ 86.73125, 24.48555 ], [ 86.73059, 24.48717 ], [ 86.73421, 24.48868 ], [ 86.73517, 24.49014 ], [ 86.73532, 24.49272 ], [ 86.73636, 24.49373 ], [ 86.73577, 24.49582 ], [ 86.73156, 24.49469 ], [ 86.72814, 24.49519 ], [ 86.72682, 24.50005 ], [ 86.72833, 24.51026 ], [ 86.7271, 24.511 ], [ 86.72346, 24.51754 ], [ 86.72087, 24.51971 ], [ 86.71959, 24.51963 ], [ 86.71758, 24.51409 ], [ 86.71369, 24.51295 ], [ 86.71264, 24.51588 ], [ 86.71086, 24.51617 ], [ 86.70471, 24.50956 ], [ 86.7035, 24.51175 ], [ 86.70824, 24.51885 ], [ 86.70931, 24.52655 ], [ 86.70471, 24.52847 ], [ 86.69803, 24.52872 ], [ 86.69472, 24.52998 ], [ 86.69829, 24.53803 ], [ 86.70001, 24.54459 ], [ 86.69992, 24.54952 ], [ 86.69885, 24.55165 ], [ 86.69695, 24.55118 ], [ 86.69661, 24.55182 ], [ 86.69747, 24.55527 ], [ 86.69809, 24.55424 ], [ 86.69858, 24.55484 ], [ 86.69758, 24.55834 ], [ 86.69797, 24.56075 ], [ 86.69658, 24.5628 ], [ 86.69515, 24.56793 ], [ 86.6934, 24.57014 ], [ 86.68788, 24.57241 ], [ 86.69162, 24.57612 ], [ 86.6999, 24.57312 ], [ 86.70159, 24.57329 ], [ 86.72308, 24.58399 ], [ 86.73469, 24.57949 ], [ 86.7355, 24.58107 ], [ 86.73528, 24.58455 ], [ 86.74163, 24.58712 ], [ 86.74284, 24.58988 ], [ 86.74668, 24.5943 ], [ 86.74984, 24.59507 ], [ 86.75024, 24.59791 ], [ 86.74825, 24.60576 ], [ 86.74859, 24.60768 ], [ 86.7511, 24.61137 ], [ 86.75399, 24.6213 ], [ 86.75869, 24.61938 ], [ 86.76494, 24.61945 ], [ 86.76732, 24.62053 ], [ 86.76857, 24.61966 ], [ 86.77191, 24.62177 ], [ 86.77323, 24.62181 ], [ 86.78164, 24.61913 ] ] ] } },
{ "type": "Feature", "properties": { "OBJECTID": 5722, "state_lgd": "20", "state_name": "JHARKHAND", "district_lgd": "350", "district_name": "DEOGHAR", "district_name_source": "district_table", "subdistrict_lgd": "02554", "subdistrict_name": "PALOJORI", "subdistrict_type": "", "name_corrupted": false, "remarks": "", "label_lon": 86.947151481753082, "label_lat": 24.187289892221134 }, "geometry": { "type": "Polygon", "coordinates": [ [ [ 87.00309, 24.30819 ], [ 87.00735, 24.30872 ], [ 87.01691, 24.3061 ], [ 87.02102, 24.30644 ], [ 87.02325, 24.30492 ], [ 87.02614, 24.30107 ], [ 87.02736, 24.29854 ], [ 87.0272, 24.29302 ], [ 87.02648, 24.2918 ], [ 87.02365, 24.29046 ], [ 87.02478, 24.28679 ], [ 87.0251, 24.27793 ], [ 87.02606, 24.27438 ], [ 87.02569, 24.27217 ], [ 87.02801, 24.27094 ], [ 87.03085, 24.26706 ], [ 87.03229, 24.263 ], [ 87.03709, 24.2604 ], [ 87.04157, 24.26038 ], [ 87.04616, 24.2588 ], [ 87.05253, 24.25506 ], [ 87.05884, 24.25369 ], [ 87.06665, 24.25321 ], [ 87.06796, 24.25105 ], [ 87.06659, 24.2478 ], [ 87.06018, 24.24462 ], [ 87.05927, 24.24229 ], [ 87.05773, 24.24159 ], [ 87.05511, 24.23748 ], [ 87.05455, 24.23291 ], [ 87.0554, 24.23038 ], [ 87.04661, 24.22283 ], [ 87.04569, 24.22055 ], [ 87.04602, 24.2184 ], [ 87.05008, 24.2146 ], [ 87.0487, 24.21045 ], [ 87.04934, 24.20863 ], [ 87.05199, 24.20636 ], [ 87.05206, 24.20524 ], [ 87.05051, 24.20335 ], [ 87.04439, 24.19939 ], [ 87.04219, 24.19576 ], [ 87.03804, 24.19947 ], [ 87.02969, 24.20415 ], [ 87.02693, 24.20673 ], [ 87.02424, 24.20575 ], [ 87.01689, 24.20739 ], [ 87.01348, 24.21243 ], [ 87.00824, 24.21287 ], [ 87.00317, 24.2143 ], [ 86.996, 24.21106 ], [ 86.99304, 24.21185 ], [ 86.99028, 24.21395 ], [ 86.98919, 24.21281 ], [ 86.98306, 24.21472 ], [ 86.98076, 24.21405 ], [ 86.97883, 24.212 ], [ 86.97467, 24.2129 ], [ 86.97392, 24.21205 ], [ 86.9758, 24.20942 ], [ 86.97566, 24.20781 ], [ 86.97788, 24.20146 ], [ 86.97605, 24.19998 ], [ 86.97589, 24.199 ], [ 86.97689, 24.19822 ], [ 86.9764, 24.19659 ], [ 86.97948, 24.19494 ], [ 86.97986, 24.19374 ], [ 86.98019, 24.18536 ], [ 86.97843, 24.18413 ], [ 86.97947, 24.18227 ], [ 86.98104, 24.18214 ], [ 86.98108, 24.18061 ], [ 86.9801, 24.17951 ], [ 86.97816, 24.17919 ], [ 86.97258, 24.18036 ], [ 86.96852, 24.17825 ], [ 86.96541, 24.17767 ], [ 86.9629, 24.17401 ], [ 86.96403, 24.17208 ], [ 86.96016, 24.17153 ], [ 86.95902, 24.16835 ], [ 86.95683, 24.16649 ], [ 86.95937, 24.16375 ], [ 86.95923, 24.16271 ], [ 86.95499, 24.1637 ], [ 86.95062, 24.16338 ], [ 86.94592, 24.16514 ], [ 86.94484, 24.16117 ], [ 86.93954, 24.15216 ], [ 86.93937, 24.14577 ], [ 86.93683, 24.13988 ], [ 86.93589, 24.13511 ], [ 86.9381, 24.13394 ], [ 86.94872, 24.13415 ], [ 86.9566, 24.12862 ], [ 86.96161, 24.12736 ], [ 86.96384, 24.12793 ], [ 86.96541, 24.1264 ], [ 86.96742, 24.12651 ], [ 86.96368, 24.11444 ], [ 86.97182, 24.11112 ], [ 86.97382, 24.10912 ], [ 86.97642, 24.10851 ], [ 86.9775, 24.10701 ], [ 86.9741, 24.10283 ], [ 86.97467, 24.10018 ], [ 86.9715, 24.09743 ], [ 86.97254, 24.09362 ], [ 86.97559, 24.0913 ], [ 86.97975, 24.07872 ], [ 86.97979, 24.07756 ], [ 86.97582, 24.07083 ], [ 86.97527, 24.06605 ], [ 86.978, 24.06461 ], [ 86.97682, 24.06228 ], [ 86.9772, 24.0608 ], [ 86.97423, 24.06198 ], [ 86.97176, 24.06181 ], [ 86.96683, 24.05723 ], [ 86.96414, 24.05709 ], [ 86.95774, 24.05311 ], [ 86.95635, 24.05054 ], [ 86.95831, 24.04921 ], [ 86.96062, 24.04564 ], [ 86.9592, 24.04495 ], [ 86.9592, 24.0439 ], [ 86.95685, 24.04338 ], [ 86.95583, 24.04153 ], [ 86.95114, 24.04086 ], [ 86.94199, 24.04298 ], [ 86.9367, 24.04331 ], [ 86.93454, 24.04436 ], [ 86.93106, 24.04433 ], [ 86.92565, 24.04738 ], [ 86.9203, 24.0491 ], [ 86.91588, 24.05359 ], [ 86.91948, 24.06003 ], [ 86.91984, 24.06166 ], [ 86.91921, 24.06204 ], [ 86.90875, 24.05843 ], [ 86.90309, 24.05786 ], [ 86.90324, 24.05923 ], [ 86.89983, 24.06107 ], [ 86.89993, 24.06221 ], [ 86.89746, 24.06464 ], [ 86.89646, 24.06707 ], [ 86.88796, 24.069 ], [ 86.88416, 24.06868 ], [ 86.88431, 24.06511 ], [ 86.88175, 24.06083 ], [ 86.87131, 24.06434 ], [ 86.86824, 24.06299 ], [ 86.86437, 24.06515 ], [ 86.86476, 24.07217 ], [ 86.86298, 24.07603 ], [ 86.86411, 24.07907 ], [ 86.86079, 24.08306 ], [ 86.86061, 24.08761 ], [ 86.86478, 24.09362 ], [ 86.86532, 24.09662 ], [ 86.86435, 24.09907 ], [ 86.86043, 24.10161 ], [ 86.85947, 24.10383 ], [ 86.86128, 24.10643 ], [ 86.86299, 24.10713 ], [ 86.86237, 24.1087 ], [ 86.86535, 24.10794 ], [ 86.86702, 24.10981 ], [ 86.86833, 24.11299 ], [ 86.86516, 24.11472 ], [ 86.87592, 24.12353 ], [ 86.87382, 24.12476 ], [ 86.87942, 24.12596 ], [ 86.88084, 24.12986 ], [ 86.88567, 24.13294 ], [ 86.88592, 24.13768 ], [ 86.88706, 24.14069 ], [ 86.88396, 24.14278 ], [ 86.88245, 24.14643 ], [ 86.88106, 24.14747 ], [ 86.88012, 24.15362 ], [ 86.88151, 24.15837 ], [ 86.88618, 24.16225 ], [ 86.88794, 24.16705 ], [ 86.89123, 24.16827 ], [ 86.89167, 24.16966 ], [ 86.89167, 24.17302 ], [ 86.8866, 24.17628 ], [ 86.88085, 24.18474 ], [ 86.88127, 24.18724 ], [ 86.88254, 24.18906 ], [ 86.88266, 24.19344 ], [ 86.88085, 24.19904 ], [ 86.88013, 24.19954 ], [ 86.87554, 24.19699 ], [ 86.87457, 24.1981 ], [ 86.8778, 24.20044 ], [ 86.88304, 24.20194 ], [ 86.87927, 24.20713 ], [ 86.88501, 24.20844 ], [ 86.88638, 24.21015 ], [ 86.89057, 24.21015 ], [ 86.89321, 24.21395 ], [ 86.89513, 24.21218 ], [ 86.89662, 24.21353 ], [ 86.90321, 24.21635 ], [ 86.90537, 24.21971 ], [ 86.90446, 24.2246 ], [ 86.90248, 24.22811 ], [ 86.90236, 24.23525 ], [ 86.90376, 24.23817 ], [ 86.90504, 24.23976 ], [ 86.91282, 24.23758 ], [ 86.91548, 24.23891 ], [ 86.9158, 24.24012 ], [ 86.91569, 24.2408 ], [ 86.91077, 24.2434 ], [ 86.90467, 24.24423 ], [ 86.90874, 24.25192 ], [ 86.9061, 24.25606 ], [ 86.90267, 24.25611 ], [ 86.90051, 24.25763 ], [ 86.89978, 24.25921 ], [ 86.90341, 24.26179 ], [ 86.90499, 24.26206 ], [ 86.90517, 24.26309 ], [ 86.89618, 24.26761 ], [ 86.89575, 24.269 ], [ 86.89707, 24.27051 ], [ 86.88763, 24.27162 ], [ 86.88669, 24.27061 ], [ 86.88542, 24.27266 ], [ 86.88926, 24.27762 ], [ 86.89304, 24.28552 ], [ 86.89193, 24.29074 ], [ 86.89243, 24.29184 ], [ 86.89508, 24.29252 ], [ 86.89704, 24.29463 ], [ 86.90044, 24.29516 ], [ 86.90443, 24.29903 ], [ 86.90496, 24.30259 ], [ 86.90571, 24.303 ], [ 86.91454, 24.2993 ], [ 86.91419, 24.29676 ], [ 86.91544, 24.29545 ], [ 86.92158, 24.29492 ], [ 86.93388, 24.29526 ], [ 86.9375, 24.29704 ], [ 86.94082, 24.30066 ], [ 86.94883, 24.30145 ], [ 86.95071, 24.30109 ], [ 86.9504, 24.2975 ], [ 86.95353, 24.29525 ], [ 86.96235, 24.29178 ], [ 86.96904, 24.29292 ], [ 86.97162, 24.28921 ], [ 86.97564, 24.28869 ], [ 86.97791, 24.28964 ], [ 86.97828, 24.29461 ], [ 86.97931, 24.29655 ], [ 86.98558, 24.30199 ], [ 86.98767, 24.30636 ], [ 86.99133, 24.3045 ], [ 86.99873, 24.30929 ], [ 87.00309, 24.30819 ] ] ] } },
{ "type": "Feature", "properties": { "OBJECTID": 5752, "state_lgd": "20", "state_name": "JHARKHAND", "district_lgd": "350", "district_name": "DEOGHAR", "district_name_source": "district_table", "subdistrict_lgd": "02553", "subdistrict_name": "SARATH", "subdistrict_type": "", "name_corrupted": false, "remarks": "", "label_lon": 86.822859415569255, "label_lat": 24.193195866681179 }, "geometry": { "type": "Polygon", "coordinates": [ [ [ 86.88375, 24.30369 ], [ 86.8795, 24.30311 ], [ 86.87841, 24.29613 ], [ 86.87897, 24.29542 ], [ 86.88327, 24.29508 ], [ 86.88491, 24.2924 ], [ 86.88929, 24.29104 ], [ 86.89174, 24.29117 ], [ 86.89304, 24.28552 ], [ 86.88926, 24.27762 ], [ 86.88542, 24.27266 ], [ 86.88669, 24.27061 ], [ 86.88763, 24.27162 ], [ 86.89707, 24.27051 ], [ 86.89575, 24.269 ], [ 86.89618, 24.26761 ], [ 86.90517, 24.26309 ], [ 86.90499, 24.26206 ], [ 86.90341, 24.26179 ], [ 86.89978, 24.25921 ], [ 86.90051, 24.25763 ], [ 86.90267, 24.25611 ], [ 86.9061, 24.25606 ], [ 86.90874, 24.25192 ], [ 86.90467, 24.24423 ], [ 86.91077, 24.2434 ], [ 86.91569, 24.2408 ], [ 86.9158, 24.24012 ], [ 86.91548, 24.23891 ], [ 86.91282, 24.23758 ], [ 86.90504, 24.23976 ], [ 86.90376, 24.23817 ], [ 86.90236, 24.23525 ], [ 86.90248, 24.22811 ], [ 86.90446, 24.2246 ], [ 86.90537, 24.21971 ], [ 86.90321, 24.21635 ], [ 86.89662, 24.21353 ], [ 86.89513, 24.21218 ], [ 86.89321, 24.21395 ], [ 86.89057, 24.21015 ], [ 86.88638, 24.21015 ], [ 86.88501, 24.20844 ], [ 86.87927, 24.20713 ], [ 86.88304, 24.20194 ], [ 86.8778, 24.20044 ], [ 86.87457, 24.1981 ], [ 86.87554, 24.19699 ], [ 86.88013, 24.19954 ], [ 86.88085, 24.19904 ], [ 86.88266, 24.19344 ], [ 86.88254, 24.18906 ], [ 86.88127, 24.18724 ], [ 86.88085, 24.18474 ], [ 86.8866, 24.17628 ], [ 86.89186, 24.17227 ], [ 86.89123, 24.16827 ], [ 86.88794, 24.16705 ], [ 86.88618, 24.16225 ], [ 86.88151, 24.15837 ], [ 86.88012, 24.15362 ], [ 86.88106, 24.14747 ], [ 86.88245, 24.14643 ], [ 86.88396, 24.14278 ], [ 86.88706, 24.14069 ], [ 86.88592, 24.13768 ], [ 86.88567, 24.13294 ], [ 86.88084, 24.12986 ], [ 86.87942, 24.12596 ], [ 86.87382, 24.12476 ], [ 86.87592, 24.12353 ], [ 86.86516, 24.11472 ], [ 86.86833, 24.11299 ], [ 86.86702, 24.10981 ], [ 86.86535, 24.10794 ], [ 86.86237, 24.1087 ], [ 86.86299, 24.10713 ], [ 86.86128, 24.10643 ], [ 86.85947, 24.10383 ], [ 86.86043, 24.10161 ], [ 86.86435, 24.09907 ], [ 86.86532, 24.09662 ], [ 86.86478, 24.09362 ], [ 86.86061, 24.08761 ], [ 86.86079, 24.08306 ], [ 86.86411, 24.07907 ], [ 86.86298, 24.07603 ], [ 86.86476, 24.07217 ], [ 86.86437, 24.06515 ], [ 86.86824, 24.06299 ], [ 86.8663, 24.06076 ], [ 86.86335, 24.06019 ], [ 86.86133, 24.05827 ], [ 86.85578, 24.05836 ], [ 86.85205, 24.05702 ], [ 86.85128, 24.05602 ], [ 86.85206, 24.05531 ], [ 86.85134, 24.05351 ], [ 86.84879, 24.05122 ], [ 86.83989, 24.04988 ], [ 86.83723, 24.05243 ], [ 86.83432, 24.05899 ], [ 86.83127, 24.06232 ], [ 86.82712, 24.06239 ], [ 86.82541, 24.06104 ], [ 86.82398, 24.06114 ], [ 86.82234, 24.06302 ], [ 86.82116, 24.06297 ], [ 86.82177, 24.06433 ], [ 86.82005, 24.06454 ], [ 86.81958, 24.06671 ], [ 86.82059, 24.07145 ], [ 86.81806, 24.0728 ], [ 86.81611, 24.07583 ], [ 86.81565, 24.07952 ], [ 86.81641, 24.08214 ], [ 86.81524, 24.08266 ], [ 86.8138, 24.08223 ], [ 86.81308, 24.07996 ], [ 86.81155, 24.07849 ], [ 86.81004, 24.08029 ], [ 86.80706, 24.0791 ], [ 86.80658, 24.08014 ], [ 86.80719, 24.08195 ], [ 86.80512, 24.08259 ], [ 86.80373, 24.08229 ], [ 86.80313, 24.07955 ], [ 86.80053, 24.07702 ], [ 86.79423, 24.07809 ], [ 86.79442, 24.07201 ], [ 86.79375, 24.06974 ], [ 86.7948, 24.06665 ], [ 86.79246, 24.0632 ], [ 86.79126, 24.06262 ], [ 86.78869, 24.06421 ], [ 86.78552, 24.06454 ], [ 86.78007, 24.06706 ], [ 86.77764, 24.06715 ], [ 86.77402, 24.06579 ], [ 86.77222, 24.06899 ], [ 86.7692, 24.07097 ], [ 86.76845, 24.07318 ], [ 86.76582, 24.07575 ], [ 86.75888, 24.07884 ], [ 86.75992, 24.08254 ], [ 86.76243, 24.08048 ], [ 86.76247, 24.08222 ], [ 86.76495, 24.08223 ], [ 86.76877, 24.08524 ], [ 86.7663, 24.08916 ], [ 86.76299, 24.09212 ], [ 86.75746, 24.09176 ], [ 86.75613, 24.09611 ], [ 86.75409, 24.09743 ], [ 86.75366, 24.09891 ], [ 86.75582, 24.10184 ], [ 86.75958, 24.1019 ], [ 86.76008, 24.10138 ], [ 86.75946, 24.09831 ], [ 86.76066, 24.09443 ], [ 86.76231, 24.09508 ], [ 86.76218, 24.09946 ], [ 86.76302, 24.10203 ], [ 86.78146, 24.10203 ], [ 86.78227, 24.10282 ], [ 86.78127, 24.10751 ], [ 86.79291, 24.1053 ], [ 86.79736, 24.10573 ], [ 86.79427, 24.10892 ], [ 86.79341, 24.1124 ], [ 86.78906, 24.11661 ], [ 86.78621, 24.1227 ], [ 86.78847, 24.12571 ], [ 86.7836, 24.12893 ], [ 86.78764, 24.13068 ], [ 86.78883, 24.13156 ], [ 86.78868, 24.13261 ], [ 86.78585, 24.13384 ], [ 86.77202, 24.13299 ], [ 86.76322, 24.13825 ], [ 86.7649, 24.1427 ], [ 86.76803, 24.14548 ], [ 86.77473, 24.14936 ], [ 86.78377, 24.15312 ], [ 86.78264, 24.15462 ], [ 86.78105, 24.15515 ], [ 86.78711, 24.16197 ], [ 86.78849, 24.16846 ], [ 86.7814, 24.17511 ], [ 86.77973, 24.17857 ], [ 86.77621, 24.17207 ], [ 86.77392, 24.17021 ], [ 86.76875, 24.1721 ], [ 86.76635, 24.17737 ], [ 86.76767, 24.18067 ], [ 86.77126, 24.18475 ], [ 86.77397, 24.1898 ], [ 86.77062, 24.1896 ], [ 86.76539, 24.1911 ], [ 86.76333, 24.19013 ], [ 86.75965, 24.18354 ], [ 86.75896, 24.17752 ], [ 86.7601, 24.17191 ], [ 86.75727, 24.1689 ], [ 86.75178, 24.1656 ], [ 86.74872, 24.16804 ], [ 86.74812, 24.17114 ], [ 86.74228, 24.17416 ], [ 86.7404, 24.17805 ], [ 86.73812, 24.17889 ], [ 86.73838, 24.18163 ], [ 86.74255, 24.18435 ], [ 86.73865, 24.18897 ], [ 86.73988, 24.18943 ], [ 86.74058, 24.1913 ], [ 86.74076, 24.19483 ], [ 86.74422, 24.1982 ], [ 86.74631, 24.19922 ], [ 86.75596, 24.19536 ], [ 86.75733, 24.19916 ], [ 86.75671, 24.20155 ], [ 86.75515, 24.20424 ], [ 86.75235, 24.20478 ], [ 86.75131, 24.20602 ], [ 86.75203, 24.20925 ], [ 86.74939, 24.21293 ], [ 86.74977, 24.21756 ], [ 86.74729, 24.22015 ], [ 86.74773, 24.22312 ], [ 86.74853, 24.2253 ], [ 86.75241, 24.22979 ], [ 86.76162, 24.23423 ], [ 86.76241, 24.23562 ], [ 86.76291, 24.24074 ], [ 86.75777, 24.24484 ], [ 86.74896, 24.2477 ], [ 86.74674, 24.25082 ], [ 86.73545, 24.24989 ], [ 86.73286, 24.25141 ], [ 86.73181, 24.25362 ], [ 86.73066, 24.26369 ], [ 86.7327, 24.26497 ], [ 86.73483, 24.26451 ], [ 86.73934, 24.26636 ], [ 86.73808, 24.26774 ], [ 86.73953, 24.27289 ], [ 86.73861, 24.27917 ], [ 86.73779, 24.28048 ], [ 86.73842, 24.2827 ], [ 86.73692, 24.28594 ], [ 86.73755, 24.28722 ], [ 86.74766, 24.28606 ], [ 86.75051, 24.29076 ], [ 86.75311, 24.29235 ], [ 86.75749, 24.29233 ], [ 86.75918, 24.29118 ], [ 86.75971, 24.29431 ], [ 86.76426, 24.29897 ], [ 86.76402, 24.30546 ], [ 86.76546, 24.30772 ], [ 86.76518, 24.30532 ], [ 86.76862, 24.30285 ], [ 86.7693, 24.2985 ], [ 86.77353, 24.29499 ], [ 86.7764, 24.29812 ], [ 86.78499, 24.29649 ], [ 86.78984, 24.3009 ], [ 86.79669, 24.29939 ], [ 86.79899, 24.29985 ], [ 86.80341, 24.30247 ], [ 86.81049, 24.29782 ], [ 86.81214, 24.29388 ], [ 86.81437, 24.29103 ], [ 86.81189, 24.28597 ], [ 86.81201, 24.27442 ], [ 86.81304, 24.27371 ], [ 86.81495, 24.27387 ], [ 86.82067, 24.27557 ], [ 86.82274, 24.27438 ], [ 86.82449, 24.27502 ], [ 86.82594, 24.2731 ], [ 86.82831, 24.27444 ], [ 86.82957, 24.27398 ], [ 86.82768, 24.26848 ], [ 86.82635, 24.26686 ], [ 86.82018, 24.26374 ], [ 86.82602, 24.25833 ], [ 86.83284, 24.2555 ], [ 86.83398, 24.26244 ], [ 86.84174, 24.26151 ], [ 86.84247, 24.26422 ], [ 86.84149, 24.26785 ], [ 86.84084, 24.27892 ], [ 86.83775, 24.28241 ], [ 86.84015, 24.28779 ], [ 86.84198, 24.28846 ], [ 86.84579, 24.29667 ], [ 86.85048, 24.29928 ], [ 86.8543, 24.30364 ], [ 86.85805, 24.30633 ], [ 86.86491, 24.31481 ], [ 86.87066, 24.31857 ], [ 86.87684, 24.31632 ], [ 86.88438, 24.31019 ], [ 86.88375, 24.30369 ] ] ] } },
{ "type": "Feature", "properties": { "OBJECTID": 5754, "state_lgd": "20", "state_name": "JHARKHAND", "district_lgd": "350", "district_name": "DEOGHAR", "district_name_source": "district_table", "subdistrict_lgd": "02547", "subdistrict_name": "SARWAN", "subdistrict_type": "", "name_corrupted": false, "remarks": "", "label_lon": 86.790585984360845, "label_lat": 24.356513456264928 }, "geometry": { "type": "Polygon", "coordinates": [ [ [ 86.78315, 24.44718 ], [ 86.789, 24.44575 ], [ 86.79479, 24.44604 ], [ 86.81045, 24.43872 ], [ 86.8196, 24.43532 ], [ 86.81446, 24.42887 ], [ 86.81026, 24.42589 ], [ 86.80724, 24.42067 ], [ 86.80988, 24.41953 ], [ 86.81514, 24.41503 ], [ 86.81709, 24.41239 ], [ 86.81928, 24.41113 ], [ 86.82347, 24.40582 ], [ 86.82527, 24.40015 ], [ 86.8264, 24.39885 ], [ 86.82753, 24.3988 ], [ 86.83007, 24.39582 ], [ 86.8286, 24.39407 ], [ 86.83006, 24.39167 ], [ 86.83119, 24.38645 ], [ 86.82888, 24.38536 ], [ 86.82971, 24.3804 ], [ 86.82707, 24.37791 ], [ 86.82745, 24.3749 ], [ 86.82568, 24.37093 ], [ 86.81958, 24.36771 ], [ 86.8229, 24.36604 ], [ 86.83559, 24.36655 ], [ 86.84103, 24.3652 ], [ 86.83772, 24.36148 ], [ 86.8471, 24.36021 ], [ 86.85194, 24.35742 ], [ 86.85564, 24.35352 ], [ 86.8598, 24.35311 ], [ 86.86585, 24.35044 ], [ 86.86439, 24.34481 ], [ 86.87008, 24.33913 ], [ 86.86786, 24.33425 ], [ 86.861, 24.32925 ], [ 86.86326, 24.32725 ], [ 86.85384, 24.32371 ], [ 86.85286, 24.3191 ], [ 86.85452, 24.31915 ], [ 86.8551, 24.31774 ], [ 86.85641, 24.31803 ], [ 86.86265, 24.31214 ], [ 86.85908, 24.30738 ], [ 86.8543, 24.30364 ], [ 86.85048, 24.29928 ], [ 86.84579, 24.29667 ], [ 86.84198, 24.28846 ], [ 86.84015, 24.28779 ], [ 86.83775, 24.28241 ], [ 86.84084, 24.27892 ], [ 86.84149, 24.26785 ], [ 86.84247, 24.26422 ], [ 86.84174, 24.26151 ], [ 86.83398, 24.26244 ], [ 86.83284, 24.2555 ], [ 86.82602, 24.25833 ], [ 86.82018, 24.26374 ], [ 86.82635, 24.26686 ], [ 86.82768, 24.26848 ], [ 86.82957, 24.27398 ], [ 86.82831, 24.27444 ], [ 86.82594, 24.2731 ], [ 86.82449, 24.27502 ], [ 86.82274, 24.27438 ], [ 86.82067, 24.27557 ], [ 86.81495, 24.27387 ], [ 86.81304, 24.27371 ], [ 86.81201, 24.27442 ], [ 86.81189, 24.28597 ], [ 86.81437, 24.29103 ], [ 86.81214, 24.29388 ], [ 86.81049, 24.29782 ], [ 86.80377, 24.30231 ], [ 86.80204, 24.30223 ], [ 86.79899, 24.29985 ], [ 86.79669, 24.29939 ], [ 86.78984, 24.3009 ], [ 86.78499, 24.29649 ], [ 86.77669, 24.29819 ], [ 86.77437, 24.29526 ], [ 86.77291, 24.29516 ], [ 86.7692, 24.29866 ], [ 86.76824, 24.30344 ], [ 86.76518, 24.30532 ], [ 86.76553, 24.30921 ], [ 86.76481, 24.31091 ], [ 86.76116, 24.3154 ], [ 86.75482, 24.32599 ], [ 86.75374, 24.32683 ], [ 86.74635, 24.32741 ], [ 86.74646, 24.32939 ], [ 86.74427, 24.33729 ], [ 86.7393, 24.33617 ], [ 86.73114, 24.3399 ], [ 86.72867, 24.34561 ], [ 86.72371, 24.34558 ], [ 86.71941, 24.34952 ], [ 86.71816, 24.34929 ], [ 86.71697, 24.34752 ], [ 86.70863, 24.34683 ], [ 86.69909, 24.35009 ], [ 86.68714, 24.34958 ], [ 86.68406, 24.3534 ], [ 86.68636, 24.3554 ], [ 86.68709, 24.3579 ], [ 86.69512, 24.35688 ], [ 86.6982, 24.35774 ], [ 86.71028, 24.36508 ], [ 86.7207, 24.37287 ], [ 86.72256, 24.37706 ], [ 86.72331, 24.38196 ], [ 86.72525, 24.38407 ], [ 86.72096, 24.39275 ], [ 86.72168, 24.39511 ], [ 86.72321, 24.39733 ], [ 86.73167, 24.39636 ], [ 86.73141, 24.40002 ], [ 86.7297, 24.39992 ], [ 86.72969, 24.40095 ], [ 86.73062, 24.40248 ], [ 86.73484, 24.40323 ], [ 86.73774, 24.40572 ], [ 86.73896, 24.4155 ], [ 86.74075, 24.41864 ], [ 86.74621, 24.41954 ], [ 86.75278, 24.41616 ], [ 86.76284, 24.41369 ], [ 86.76588, 24.41382 ], [ 86.76758, 24.41256 ], [ 86.77149, 24.41273 ], [ 86.77361, 24.41552 ], [ 86.77469, 24.42112 ], [ 86.77635, 24.42401 ], [ 86.77625, 24.42724 ], [ 86.77515, 24.4302 ], [ 86.77648, 24.43375 ], [ 86.77844, 24.43625 ], [ 86.7799, 24.44133 ], [ 86.78315, 24.44718 ] ] ] } },
{ "type": "Feature", "properties": { "OBJECTID": 5765, "state_lgd": "20", "state_name": "JHARKHAND", "district_lgd": "350", "district_name": "DEOGHAR", "district_name_source": "district_table", "subdistrict_lgd": "02548", "subdistrict_name": "SONARAYTHARI", "subdistrict_type": "", "name_corrupted": false, "remarks": "", "label_lon": 86.904029043109048, "label_lat": 24.355898473243531 }, "geometry": { "type": "Polygon", "coordinates": [ [ [ 86.90333, 24.43145 ], [ 86.90317, 24.42729 ], [ 86.89963, 24.42675 ], [ 86.89866, 24.42335 ], [ 86.90132, 24.42335 ], [ 86.90338, 24.42244 ], [ 86.90116, 24.41591 ], [ 86.90189, 24.41419 ], [ 86.90492, 24.4113 ], [ 86.90906, 24.4133 ], [ 86.91314, 24.41364 ], [ 86.91482, 24.41312 ], [ 86.91631, 24.40948 ], [ 86.91859, 24.41053 ], [ 86.92124, 24.41013 ], [ 86.92839, 24.41869 ], [ 86.93625, 24.41674 ], [ 86.93817, 24.41915 ], [ 86.94161, 24.42099 ], [ 86.94423, 24.42109 ], [ 86.94731, 24.42006 ], [ 86.94527, 24.4133 ], [ 86.94376, 24.41172 ], [ 86.94196, 24.41116 ], [ 86.94299, 24.4095 ], [ 86.93954, 24.40195 ], [ 86.93687, 24.39781 ], [ 86.93381, 24.39562 ], [ 86.93262, 24.3937 ], [ 86.92766, 24.39149 ], [ 86.92782, 24.38736 ], [ 86.93231, 24.38113 ], [ 86.93591, 24.38144 ], [ 86.93859, 24.38026 ], [ 86.9355, 24.37795 ], [ 86.93314, 24.37245 ], [ 86.93441, 24.36819 ], [ 86.93718, 24.3671 ], [ 86.93952, 24.35889 ], [ 86.94532, 24.35604 ], [ 86.94616, 24.35738 ], [ 86.94904, 24.35883 ], [ 86.95342, 24.35648 ], [ 86.95921, 24.35672 ], [ 86.96211, 24.35459 ], [ 86.96653, 24.35317 ], [ 86.96821, 24.35122 ], [ 86.96792, 24.34123 ], [ 86.96598, 24.33068 ], [ 86.96624, 24.32578 ], [ 86.96793, 24.32323 ], [ 86.96412, 24.31757 ], [ 86.9629, 24.31281 ], [ 86.96666, 24.31461 ], [ 86.96724, 24.31216 ], [ 86.97038, 24.31027 ], [ 86.97714, 24.30909 ], [ 86.98278, 24.3095 ], [ 86.98767, 24.30636 ], [ 86.98558, 24.30199 ], [ 86.97928, 24.29649 ], [ 86.97732, 24.28907 ], [ 86.97178, 24.28912 ], [ 86.97035, 24.29018 ], [ 86.96904, 24.29292 ], [ 86.96235, 24.29178 ], [ 86.95353, 24.29525 ], [ 86.95041, 24.29749 ], [ 86.95044, 24.30137 ], [ 86.94082, 24.30066 ], [ 86.9375, 24.29704 ], [ 86.93388, 24.29526 ], [ 86.92158, 24.29492 ], [ 86.91544, 24.29545 ], [ 86.91419, 24.29676 ], [ 86.91454, 24.2993 ], [ 86.90594, 24.30302 ], [ 86.90496, 24.30259 ], [ 86.90443, 24.29903 ], [ 86.90044, 24.29516 ], [ 86.89704, 24.29463 ], [ 86.89508, 24.29252 ], [ 86.89243, 24.29184 ], [ 86.89193, 24.29074 ], [ 86.88491, 24.2924 ], [ 86.88344, 24.29498 ], [ 86.87897, 24.29542 ], [ 86.8783, 24.29649 ], [ 86.87938, 24.29943 ], [ 86.8795, 24.30311 ], [ 86.88068, 24.30369 ], [ 86.88283, 24.30323 ], [ 86.88399, 24.30398 ], [ 86.88414, 24.31047 ], [ 86.87684, 24.31632 ], [ 86.87462, 24.31673 ], [ 86.87208, 24.31844 ], [ 86.87042, 24.31851 ], [ 86.86734, 24.31675 ], [ 86.86265, 24.31214 ], [ 86.85641, 24.31803 ], [ 86.8551, 24.31774 ], [ 86.85452, 24.31915 ], [ 86.85286, 24.3191 ], [ 86.85384, 24.32371 ], [ 86.86326, 24.32725 ], [ 86.861, 24.32925 ], [ 86.86786, 24.33425 ], [ 86.87008, 24.33913 ], [ 86.86439, 24.34481 ], [ 86.86585, 24.35044 ], [ 86.8598, 24.35311 ], [ 86.85564, 24.35352 ], [ 86.85194, 24.35742 ], [ 86.8471, 24.36021 ], [ 86.83772, 24.36148 ], [ 86.84103, 24.3652 ], [ 86.83559, 24.36655 ], [ 86.8229, 24.36604 ], [ 86.81958, 24.36771 ], [ 86.82568, 24.37093 ], [ 86.82671, 24.37263 ], [ 86.82653, 24.37394 ], [ 86.82745, 24.3749 ], [ 86.82707, 24.37791 ], [ 86.82971, 24.3804 ], [ 86.82888, 24.38536 ], [ 86.83119, 24.38645 ], [ 86.83006, 24.39167 ], [ 86.83114, 24.39164 ], [ 86.83249, 24.39325 ], [ 86.83447, 24.39387 ], [ 86.83897, 24.39247 ], [ 86.84261, 24.3951 ], [ 86.84909, 24.40156 ], [ 86.85086, 24.40691 ], [ 86.86293, 24.41642 ], [ 86.86989, 24.41571 ], [ 86.87562, 24.41286 ], [ 86.87908, 24.41249 ], [ 86.88057, 24.41538 ], [ 86.88313, 24.41586 ], [ 86.88501, 24.41808 ], [ 86.88546, 24.42555 ], [ 86.88401, 24.42925 ], [ 86.88606, 24.4316 ], [ 86.88979, 24.43254 ], [ 86.89473, 24.43164 ], [ 86.89825, 24.43441 ], [ 86.90271, 24.43267 ], [ 86.90333, 24.43145 ] ] ] } }
]
}
