{
"type": "FeatureCollection",
"name": "357_EAST_SINGHBHUM",
"crs": { "type": "name", "properties": { "name": "urn:ogc:def:crs:OGC:1.3:CRS84" } },
"xy_coordinate_resolution": 1e-05,
"features": [
{ "type": "Feature", "properties": { "OBJECTID": 5537, "state_lgd": "20", "state_name": "JHARKHAND", "district_lgd": "357", "district_name": "EAST SINGHBHUM", "district_name_source": "district_table", "subdistrict_lgd": "02614", "subdistrict_name": "BAHARAGORA", "subdistrict_type": "", "name_corrupted": false, "remarks": "", "label_lon": 86.748216920143008, "label_lat": 22.30649134732235 }, "geometry": { "type": "MultiPolygon", "coordinates": [ [ [ [ 86.66386, 22.27574 ], [ 86.6629, 22.27657 ], [ 86.6644, 22.27595 ], [ 86.66386, 22.27574 ] ] ], [ [ [ 86.72667, 22.41242 ], [ 86.72511, 22.40834 ], [ 86.72509, 22.40657 ], [ 86.7261, 22.40568 ], [ 86.7254, 22.40171 ], [ 86.72543, 22.39942 ], [ 86.72616, 22.39853 ], [ 86.73643, 22.39834 ], [ 86.7416, 22.39484 ], [ 86.75208, 22.39104 ], [ 86.7611, 22.38961 ], [ 86.76905, 22.38744 ], [ 86.77086, 22.38597 ], [ 86.77423, 22.38582 ], [ 86.77558, 22.38499 ], [ 86.77834, 22.37869 ], [ 86.78029, 22.37704 ], [ 86.78354, 22.37716 ], [ 86.78538, 22.37603 ], [ 86.79054, 22.37645 ], [ 86.79346, 22.37579 ], [ 86.79495, 22.37448 ], [ 86.7958, 22.37189 ], [ 86.79866, 22.36999 ], [ 86.80326, 22.36919 ], [ 86.80467, 22.36782 ], [ 86.80448, 22.36547 ], [ 86.80542, 22.36458 ], [ 86.80819, 22.36517 ], [ 86.8111, 22.36412 ], [ 86.81172, 22.36128 ], [ 86.8168, 22.356 ], [ 86.81863, 22.35599 ], [ 86.8216, 22.35225 ], [ 86.82607, 22.35015 ], [ 86.82485, 22.34699 ], [ 86.82536, 22.34634 ], [ 86.82818, 22.34648 ], [ 86.83208, 22.3445 ], [ 86.83237, 22.33852 ], [ 86.8311, 22.33476 ], [ 86.83157, 22.32878 ], [ 86.83327, 22.32491 ], [ 86.83767, 22.32009 ], [ 86.84104, 22.31833 ], [ 86.85012, 22.31564 ], [ 86.86537, 22.3081 ], [ 86.86835, 22.30706 ], [ 86.87224, 22.30712 ], [ 86.87583, 22.3015 ], [ 86.8822, 22.29995 ], [ 86.88779, 22.29746 ], [ 86.88734, 22.29196 ], [ 86.88925, 22.284 ], [ 86.88877, 22.27921 ], [ 86.88933, 22.27376 ], [ 86.88753, 22.27387 ], [ 86.88729, 22.26448 ], [ 86.88836, 22.26137 ], [ 86.88733, 22.26056 ], [ 86.88647, 22.25736 ], [ 86.88502, 22.25856 ], [ 86.88386, 22.25839 ], [ 86.8835, 22.25716 ], [ 86.88294, 22.25789 ], [ 86.88087, 22.25784 ], [ 86.88006, 22.25926 ], [ 86.87644, 22.25911 ], [ 86.87597, 22.26065 ], [ 86.87322, 22.25909 ], [ 86.87186, 22.26006 ], [ 86.8709, 22.25898 ], [ 86.86998, 22.26 ], [ 86.86626, 22.25892 ], [ 86.86525, 22.26096 ], [ 86.86343, 22.25878 ], [ 86.85893, 22.25798 ], [ 86.85623, 22.2597 ], [ 86.85636, 22.26099 ], [ 86.85203, 22.2633 ], [ 86.85213, 22.26477 ], [ 86.85109, 22.26521 ], [ 86.84949, 22.26419 ], [ 86.84942, 22.26334 ], [ 86.84655, 22.26404 ], [ 86.84271, 22.26163 ], [ 86.84017, 22.26259 ], [ 86.84008, 22.26449 ], [ 86.83784, 22.26564 ], [ 86.83093, 22.26322 ], [ 86.82396, 22.26675 ], [ 86.8231, 22.26621 ], [ 86.81919, 22.25453 ], [ 86.81825, 22.25372 ], [ 86.8167, 22.25455 ], [ 86.81488, 22.26233 ], [ 86.81494, 22.26706 ], [ 86.81359, 22.26739 ], [ 86.81035, 22.25244 ], [ 86.80916, 22.25025 ], [ 86.81059, 22.24987 ], [ 86.80906, 22.24664 ], [ 86.8072, 22.24723 ], [ 86.80399, 22.24358 ], [ 86.79995, 22.24461 ], [ 86.79801, 22.24702 ], [ 86.79982, 22.25238 ], [ 86.79915, 22.25265 ], [ 86.80049, 22.25779 ], [ 86.80111, 22.2652 ], [ 86.79226, 22.2663 ], [ 86.79374, 22.25938 ], [ 86.7941, 22.25222 ], [ 86.7957, 22.24874 ], [ 86.79486, 22.24317 ], [ 86.79777, 22.24065 ], [ 86.79925, 22.23788 ], [ 86.80348, 22.24322 ], [ 86.80821, 22.24298 ], [ 86.81202, 22.24123 ], [ 86.80905, 22.236 ], [ 86.80485, 22.22355 ], [ 86.8023, 22.21985 ], [ 86.80241, 22.21755 ], [ 86.79187, 22.22183 ], [ 86.79014, 22.21873 ], [ 86.78904, 22.21925 ], [ 86.78474, 22.21505 ], [ 86.77907, 22.21692 ], [ 86.77819, 22.21849 ], [ 86.77965, 22.21989 ], [ 86.77987, 22.22266 ], [ 86.78447, 22.2306 ], [ 86.79321, 22.2242 ], [ 86.7949, 22.22779 ], [ 86.78858, 22.23166 ], [ 86.78997, 22.23457 ], [ 86.78919, 22.23573 ], [ 86.77768, 22.23659 ], [ 86.77434, 22.23221 ], [ 86.77738, 22.22552 ], [ 86.77716, 22.22161 ], [ 86.77583, 22.22069 ], [ 86.77641, 22.21786 ], [ 86.77238, 22.21882 ], [ 86.77114, 22.22035 ], [ 86.76529, 22.21529 ], [ 86.75792, 22.21165 ], [ 86.74978, 22.21169 ], [ 86.74565, 22.21513 ], [ 86.74295, 22.21617 ], [ 86.73816, 22.21544 ], [ 86.72766, 22.21612 ], [ 86.72086, 22.22041 ], [ 86.71385, 22.22005 ], [ 86.70794, 22.2233 ], [ 86.70346, 22.22118 ], [ 86.69946, 22.22139 ], [ 86.69839, 22.22214 ], [ 86.68748, 22.22168 ], [ 86.68434, 22.22241 ], [ 86.67928, 22.22533 ], [ 86.67531, 22.22925 ], [ 86.67371, 22.2333 ], [ 86.67239, 22.24022 ], [ 86.66959, 22.24254 ], [ 86.66624, 22.24162 ], [ 86.66082, 22.23672 ], [ 86.65734, 22.23588 ], [ 86.65425, 22.23627 ], [ 86.65184, 22.24039 ], [ 86.6516, 22.24623 ], [ 86.65425, 22.24957 ], [ 86.66097, 22.25287 ], [ 86.66379, 22.25806 ], [ 86.66511, 22.25714 ], [ 86.66789, 22.26087 ], [ 86.66623, 22.26689 ], [ 86.66517, 22.26656 ], [ 86.66477, 22.27599 ], [ 86.66248, 22.28895 ], [ 86.66463, 22.29793 ], [ 86.66097, 22.30563 ], [ 86.65968, 22.31346 ], [ 86.66017, 22.31481 ], [ 86.65661, 22.32086 ], [ 86.65282, 22.32555 ], [ 86.6506, 22.32535 ], [ 86.64435, 22.33623 ], [ 86.64261, 22.34095 ], [ 86.62699, 22.35274 ], [ 86.62767, 22.35564 ], [ 86.62632, 22.35759 ], [ 86.62635, 22.35883 ], [ 86.62905, 22.3606 ], [ 86.63282, 22.36043 ], [ 86.63902, 22.36268 ], [ 86.63995, 22.36577 ], [ 86.64234, 22.36359 ], [ 86.64684, 22.36275 ], [ 86.64949, 22.36344 ], [ 86.65343, 22.36767 ], [ 86.65415, 22.36273 ], [ 86.65635, 22.36513 ], [ 86.65787, 22.36454 ], [ 86.659, 22.36573 ], [ 86.65832, 22.36748 ], [ 86.66014, 22.36759 ], [ 86.66152, 22.37072 ], [ 86.65988, 22.37436 ], [ 86.66094, 22.37759 ], [ 86.66375, 22.37929 ], [ 86.66703, 22.3833 ], [ 86.66962, 22.38269 ], [ 86.67039, 22.38605 ], [ 86.67189, 22.38616 ], [ 86.67279, 22.38742 ], [ 86.67533, 22.3877 ], [ 86.67633, 22.38943 ], [ 86.67914, 22.38969 ], [ 86.68446, 22.39186 ], [ 86.68521, 22.39338 ], [ 86.68671, 22.39356 ], [ 86.68873, 22.39514 ], [ 86.69019, 22.39668 ], [ 86.68998, 22.4011 ], [ 86.69487, 22.40625 ], [ 86.69748, 22.4062 ], [ 86.70127, 22.40811 ], [ 86.70657, 22.40773 ], [ 86.70794, 22.40889 ], [ 86.70969, 22.40867 ], [ 86.71052, 22.40971 ], [ 86.71525, 22.41043 ], [ 86.71566, 22.41234 ], [ 86.7175, 22.41376 ], [ 86.72047, 22.41306 ], [ 86.72249, 22.41504 ], [ 86.72667, 22.41242 ] ] ] ] } },
{ "type": "Feature", "properties": { "OBJECTID": 5565, "state_lgd": "20", "state_name": "JHARKHAND", "district_lgd": "357", "district_name": "EAST SINGHBHUM", "district_name_source": "district_table", "subdistrict_lgd": "02605", "subdistrict_name": "BORAM", "subdistrict_type": "", "name_corrupted": false, "remarks": "", "label_lon": 86.277454385005186, "label_lat": 22.928420677753806 }, "geometry": { "type": "Polygon", "coordinates": [ [ [ 86.30224, 23.01006 ], [ 86.30909, 23.00705 ], [ 86.3089, 23.00342 ], [ 86.31441, 23.00166 ], [ 86.31612, 23.00007 ], [ 86.31979, 23.0006 ], [ 86.32159, 22.99744 ], [ 86.32593, 22.9949 ], [ 86.33953, 22.98981 ], [ 86.34061, 22.99355 ], [ 86.34369, 22.99649 ], [ 86.34764, 22.99662 ], [ 86.35453, 22.99297 ], [ 86.35443, 22.99934 ], [ 86.36389, 22.99958 ], [ 86.37178, 22.99674 ], [ 86.37275, 22.99815 ], [ 86.37439, 22.99773 ], [ 86.38356, 22.99428 ], [ 86.38502, 22.99526 ], [ 86.3852, 22.99041 ], [ 86.38617, 22.98766 ], [ 86.38771, 22.98531 ], [ 86.39173, 22.9824 ], [ 86.3876, 22.98043 ], [ 86.38701, 22.97775 ], [ 86.38248, 22.97711 ], [ 86.38177, 22.97401 ], [ 86.37278, 22.96514 ], [ 86.36678, 22.96086 ], [ 86.36667, 22.95869 ], [ 86.35988, 22.95882 ], [ 86.35693, 22.95254 ], [ 86.354, 22.95016 ], [ 86.35552, 22.94681 ], [ 86.35323, 22.94477 ], [ 86.35502, 22.94019 ], [ 86.35246, 22.93832 ], [ 86.34778, 22.93695 ], [ 86.34632, 22.93243 ], [ 86.33961, 22.92625 ], [ 86.33707, 22.9249 ], [ 86.33493, 22.92478 ], [ 86.33678, 22.92117 ], [ 86.33615, 22.91516 ], [ 86.33382, 22.91119 ], [ 86.3237, 22.90397 ], [ 86.31699, 22.90565 ], [ 86.31243, 22.90304 ], [ 86.3118, 22.90116 ], [ 86.30831, 22.90041 ], [ 86.31019, 22.89673 ], [ 86.30582, 22.88711 ], [ 86.30846, 22.88488 ], [ 86.30687, 22.87874 ], [ 86.31394, 22.87765 ], [ 86.31969, 22.87135 ], [ 86.31916, 22.86947 ], [ 86.32104, 22.8659 ], [ 86.32112, 22.86319 ], [ 86.31638, 22.85879 ], [ 86.31596, 22.85471 ], [ 86.31713, 22.85216 ], [ 86.31747, 22.84584 ], [ 86.31821, 22.84331 ], [ 86.31946, 22.84246 ], [ 86.3188, 22.84096 ], [ 86.30846, 22.84234 ], [ 86.30446, 22.83551 ], [ 86.30153, 22.83413 ], [ 86.29495, 22.83514 ], [ 86.28475, 22.84057 ], [ 86.28079, 22.84123 ], [ 86.27863, 22.84112 ], [ 86.27506, 22.83867 ], [ 86.26693, 22.83821 ], [ 86.25831, 22.84057 ], [ 86.24382, 22.84636 ], [ 86.23661, 22.84686 ], [ 86.23596, 22.84979 ], [ 86.23312, 22.849 ], [ 86.22703, 22.85255 ], [ 86.22203, 22.85386 ], [ 86.21236, 22.85926 ], [ 86.20562, 22.86054 ], [ 86.20806, 22.86598 ], [ 86.20777, 22.87046 ], [ 86.21073, 22.87186 ], [ 86.21399, 22.87501 ], [ 86.21985, 22.88924 ], [ 86.19757, 22.89408 ], [ 86.19566, 22.89724 ], [ 86.19338, 22.90725 ], [ 86.19057, 22.911 ], [ 86.18972, 22.92063 ], [ 86.19039, 22.93042 ], [ 86.19346, 22.93853 ], [ 86.19625, 22.94121 ], [ 86.19468, 22.94428 ], [ 86.19104, 22.94475 ], [ 86.18867, 22.94594 ], [ 86.18839, 22.94746 ], [ 86.1914, 22.95167 ], [ 86.19289, 22.95586 ], [ 86.19694, 22.95994 ], [ 86.19968, 22.96759 ], [ 86.20472, 22.96652 ], [ 86.20958, 22.96775 ], [ 86.21826, 22.96793 ], [ 86.21869, 22.97241 ], [ 86.22011, 22.97363 ], [ 86.22887, 22.97266 ], [ 86.24267, 22.97307 ], [ 86.24485, 22.97705 ], [ 86.24695, 22.97898 ], [ 86.24824, 22.9826 ], [ 86.23835, 22.99459 ], [ 86.23927, 22.99631 ], [ 86.24203, 22.99615 ], [ 86.24306, 22.9981 ], [ 86.24535, 22.9982 ], [ 86.2456, 22.99685 ], [ 86.2469, 22.99663 ], [ 86.24735, 22.99507 ], [ 86.2485, 22.99491 ], [ 86.25012, 22.99641 ], [ 86.2517, 22.9959 ], [ 86.25346, 22.99711 ], [ 86.26056, 22.99859 ], [ 86.26585, 22.99798 ], [ 86.26824, 22.99984 ], [ 86.26787, 23.00116 ], [ 86.27156, 23.00308 ], [ 86.27236, 23.00451 ], [ 86.27434, 23.00485 ], [ 86.27717, 23.00738 ], [ 86.28101, 23.00794 ], [ 86.28418, 23.00692 ], [ 86.29212, 23.01298 ], [ 86.29621, 23.00968 ], [ 86.29938, 23.00979 ], [ 86.30374, 23.016 ], [ 86.30469, 23.0153 ], [ 86.30224, 23.01006 ] ] ] } },
{ "type": "Feature", "properties": { "OBJECTID": 5571, "state_lgd": "20", "state_name": "JHARKHAND", "district_lgd": "357", "district_name": "EAST SINGHBHUM", "district_name_source": "district_table", "subdistrict_lgd": "02613", "subdistrict_name": "CHAKULIA", "subdistrict_type": "", "name_corrupted": false, "remarks": "", "label_lon": 86.697077486051072, "label_lat": 22.471932442333117 }, "geometry": { "type": "Polygon", "coordinates": [ [ [ 86.65137, 22.59417 ], [ 86.656, 22.59139 ], [ 86.65287, 22.58249 ], [ 86.65911, 22.57504 ], [ 86.67907, 22.57495 ], [ 86.68395, 22.57847 ], [ 86.68996, 22.57885 ], [ 86.70503, 22.58246 ], [ 86.70996, 22.58286 ], [ 86.72014, 22.57958 ], [ 86.73018, 22.57782 ], [ 86.74868, 22.57832 ], [ 86.75082, 22.57928 ], [ 86.75216, 22.57847 ], [ 86.7585, 22.57788 ], [ 86.76595, 22.57512 ], [ 86.76673, 22.56935 ], [ 86.76797, 22.56768 ], [ 86.77195, 22.56531 ], [ 86.77157, 22.56106 ], [ 86.7698, 22.56088 ], [ 86.76677, 22.55891 ], [ 86.76644, 22.55774 ], [ 86.76909, 22.55458 ], [ 86.77251, 22.55257 ], [ 86.77484, 22.54905 ], [ 86.77881, 22.54973 ], [ 86.78152, 22.54904 ], [ 86.78212, 22.54995 ], [ 86.78337, 22.54965 ], [ 86.78418, 22.55029 ], [ 86.78929, 22.549 ], [ 86.79026, 22.54122 ], [ 86.78927, 22.53923 ], [ 86.78737, 22.53817 ], [ 86.78896, 22.53409 ], [ 86.78685, 22.52686 ], [ 86.79292, 22.52498 ], [ 86.79494, 22.51398 ], [ 86.79319, 22.51399 ], [ 86.79266, 22.51132 ], [ 86.79651, 22.50959 ], [ 86.79769, 22.5064 ], [ 86.80083, 22.5055 ], [ 86.80089, 22.50445 ], [ 86.80239, 22.50304 ], [ 86.8008, 22.50074 ], [ 86.79836, 22.50035 ], [ 86.79675, 22.49919 ], [ 86.79524, 22.49938 ], [ 86.79378, 22.49646 ], [ 86.79516, 22.49393 ], [ 86.80026, 22.49151 ], [ 86.8016, 22.48883 ], [ 86.79537, 22.48042 ], [ 86.79257, 22.47776 ], [ 86.79117, 22.47743 ], [ 86.78429, 22.48124 ], [ 86.76902, 22.48009 ], [ 86.76687, 22.48076 ], [ 86.76609, 22.48193 ], [ 86.75949, 22.48172 ], [ 86.75706, 22.48294 ], [ 86.74987, 22.48295 ], [ 86.74738, 22.47801 ], [ 86.74728, 22.47478 ], [ 86.75106, 22.46543 ], [ 86.75101, 22.45671 ], [ 86.75391, 22.45418 ], [ 86.76166, 22.45005 ], [ 86.76317, 22.44838 ], [ 86.76273, 22.44747 ], [ 86.75903, 22.44581 ], [ 86.76159, 22.43581 ], [ 86.76187, 22.4317 ], [ 86.76453, 22.42726 ], [ 86.78581, 22.42435 ], [ 86.79389, 22.42166 ], [ 86.80707, 22.42126 ], [ 86.80937, 22.41923 ], [ 86.812, 22.41921 ], [ 86.82642, 22.4124 ], [ 86.83129, 22.411 ], [ 86.84635, 22.39908 ], [ 86.84563, 22.39152 ], [ 86.84088, 22.38319 ], [ 86.84249, 22.37888 ], [ 86.84264, 22.37221 ], [ 86.8402, 22.36877 ], [ 86.83822, 22.3628 ], [ 86.83642, 22.36012 ], [ 86.83577, 22.35654 ], [ 86.83229, 22.34851 ], [ 86.83208, 22.3445 ], [ 86.82818, 22.34648 ], [ 86.82536, 22.34634 ], [ 86.82485, 22.34699 ], [ 86.82607, 22.35015 ], [ 86.8216, 22.35225 ], [ 86.81863, 22.35599 ], [ 86.8168, 22.356 ], [ 86.81172, 22.36128 ], [ 86.8111, 22.36412 ], [ 86.80819, 22.36517 ], [ 86.80542, 22.36458 ], [ 86.80448, 22.36547 ], [ 86.80467, 22.36782 ], [ 86.80326, 22.36919 ], [ 86.79866, 22.36999 ], [ 86.7958, 22.37189 ], [ 86.79495, 22.37448 ], [ 86.79346, 22.37579 ], [ 86.79054, 22.37645 ], [ 86.78538, 22.37603 ], [ 86.78354, 22.37716 ], [ 86.78029, 22.37704 ], [ 86.77834, 22.37869 ], [ 86.77558, 22.38499 ], [ 86.77423, 22.38582 ], [ 86.77086, 22.38597 ], [ 86.76905, 22.38744 ], [ 86.7611, 22.38961 ], [ 86.75208, 22.39104 ], [ 86.7416, 22.39484 ], [ 86.73643, 22.39834 ], [ 86.72616, 22.39853 ], [ 86.72543, 22.39942 ], [ 86.7254, 22.40171 ], [ 86.7261, 22.40568 ], [ 86.72509, 22.40657 ], [ 86.72511, 22.40834 ], [ 86.72667, 22.41242 ], [ 86.72249, 22.41504 ], [ 86.72047, 22.41306 ], [ 86.7175, 22.41376 ], [ 86.71566, 22.41234 ], [ 86.71525, 22.41043 ], [ 86.71052, 22.40971 ], [ 86.70969, 22.40867 ], [ 86.70794, 22.40889 ], [ 86.70657, 22.40773 ], [ 86.70127, 22.40811 ], [ 86.69748, 22.4062 ], [ 86.69487, 22.40625 ], [ 86.68998, 22.4011 ], [ 86.69019, 22.39668 ], [ 86.68873, 22.39514 ], [ 86.68671, 22.39356 ], [ 86.68521, 22.39338 ], [ 86.68446, 22.39186 ], [ 86.67914, 22.38969 ], [ 86.67633, 22.38943 ], [ 86.67533, 22.3877 ], [ 86.67279, 22.38742 ], [ 86.67189, 22.38616 ], [ 86.67039, 22.38605 ], [ 86.66962, 22.38269 ], [ 86.66703, 22.3833 ], [ 86.66375, 22.37929 ], [ 86.66094, 22.37759 ], [ 86.65988, 22.37436 ], [ 86.66141, 22.37147 ], [ 86.66131, 22.37009 ], [ 86.66014, 22.36759 ], [ 86.65832, 22.36748 ], [ 86.65866, 22.36536 ], [ 86.65751, 22.36441 ], [ 86.65635, 22.36513 ], [ 86.65435, 22.36272 ], [ 86.65346, 22.36448 ], [ 86.65343, 22.36767 ], [ 86.64949, 22.36344 ], [ 86.64684, 22.36275 ], [ 86.64234, 22.36359 ], [ 86.63995, 22.36577 ], [ 86.63902, 22.36268 ], [ 86.63282, 22.36043 ], [ 86.62905, 22.3606 ], [ 86.62635, 22.35883 ], [ 86.62632, 22.35759 ], [ 86.62767, 22.35564 ], [ 86.62699, 22.35274 ], [ 86.61527, 22.35663 ], [ 86.60661, 22.36284 ], [ 86.60447, 22.36538 ], [ 86.60068, 22.37395 ], [ 86.60032, 22.38281 ], [ 86.59866, 22.38774 ], [ 86.59385, 22.39133 ], [ 86.58656, 22.39382 ], [ 86.58302, 22.39601 ], [ 86.58193, 22.39947 ], [ 86.58208, 22.40079 ], [ 86.58416, 22.40327 ], [ 86.59476, 22.41151 ], [ 86.59788, 22.41781 ], [ 86.59982, 22.41899 ], [ 86.60016, 22.42119 ], [ 86.60559, 22.42295 ], [ 86.60587, 22.42628 ], [ 86.60705, 22.42755 ], [ 86.60721, 22.42904 ], [ 86.60704, 22.4303 ], [ 86.60586, 22.43128 ], [ 86.6063, 22.4346 ], [ 86.60492, 22.43623 ], [ 86.60825, 22.43826 ], [ 86.60714, 22.44354 ], [ 86.60803, 22.44593 ], [ 86.60766, 22.45014 ], [ 86.60622, 22.45128 ], [ 86.60412, 22.45144 ], [ 86.60305, 22.45388 ], [ 86.604, 22.4567 ], [ 86.60341, 22.45861 ], [ 86.60605, 22.46825 ], [ 86.60504, 22.47415 ], [ 86.59467, 22.47721 ], [ 86.58913, 22.48906 ], [ 86.58802, 22.49979 ], [ 86.59096, 22.50319 ], [ 86.59525, 22.51045 ], [ 86.59357, 22.51081 ], [ 86.5935, 22.51851 ], [ 86.59882, 22.52328 ], [ 86.60101, 22.52416 ], [ 86.60235, 22.53071 ], [ 86.60197, 22.53159 ], [ 86.60029, 22.53191 ], [ 86.60016, 22.533 ], [ 86.60298, 22.53856 ], [ 86.60873, 22.54146 ], [ 86.61143, 22.54461 ], [ 86.6126, 22.54263 ], [ 86.61342, 22.54295 ], [ 86.61233, 22.5465 ], [ 86.60859, 22.55072 ], [ 86.60962, 22.5544 ], [ 86.61114, 22.55484 ], [ 86.6125, 22.55737 ], [ 86.61099, 22.55929 ], [ 86.6124, 22.56212 ], [ 86.61762, 22.56948 ], [ 86.63124, 22.56971 ], [ 86.63165, 22.57165 ], [ 86.6334, 22.57361 ], [ 86.62928, 22.57574 ], [ 86.62978, 22.57659 ], [ 86.63152, 22.57755 ], [ 86.63472, 22.58143 ], [ 86.64145, 22.58292 ], [ 86.64483, 22.58523 ], [ 86.64684, 22.58548 ], [ 86.64852, 22.59045 ], [ 86.65041, 22.59204 ], [ 86.65137, 22.59417 ] ] ] } },
{ "type": "Feature", "properties": { "OBJECTID": 5588, "state_lgd": "20", "state_name": "JHARKHAND", "district_lgd": "357", "district_name": "EAST SINGHBHUM", "district_name_source": "district_table", "subdistrict_lgd": "02611", "subdistrict_name": "DALBHUMGARH", "subdistrict_type": "", "name_corrupted": false, "remarks": "", "label_lon": 86.562082820028593, "label_lat": 22.531869179029293 }, "geometry": { "type": "Polygon", "coordinates": [ [ [ 86.63425, 22.61099 ], [ 86.63778, 22.60997 ], [ 86.63742, 22.60324 ], [ 86.63841, 22.59833 ], [ 86.64338, 22.59474 ], [ 86.64752, 22.59538 ], [ 86.65137, 22.59417 ], [ 86.65041, 22.59204 ], [ 86.64852, 22.59045 ], [ 86.64684, 22.58548 ], [ 86.64483, 22.58523 ], [ 86.64145, 22.58292 ], [ 86.63472, 22.58143 ], [ 86.63152, 22.57755 ], [ 86.62978, 22.57659 ], [ 86.62928, 22.57574 ], [ 86.6334, 22.57361 ], [ 86.63165, 22.57165 ], [ 86.63124, 22.56971 ], [ 86.61762, 22.56948 ], [ 86.6124, 22.56212 ], [ 86.61099, 22.55929 ], [ 86.6125, 22.55737 ], [ 86.61114, 22.55484 ], [ 86.60962, 22.5544 ], [ 86.60859, 22.55072 ], [ 86.61233, 22.5465 ], [ 86.61342, 22.54295 ], [ 86.6126, 22.54263 ], [ 86.61143, 22.54461 ], [ 86.60873, 22.54146 ], [ 86.60298, 22.53856 ], [ 86.60016, 22.533 ], [ 86.60029, 22.53191 ], [ 86.60197, 22.53159 ], [ 86.60235, 22.53071 ], [ 86.60101, 22.52416 ], [ 86.59882, 22.52328 ], [ 86.5935, 22.51851 ], [ 86.59357, 22.51081 ], [ 86.59525, 22.51045 ], [ 86.59096, 22.50319 ], [ 86.58802, 22.49979 ], [ 86.58913, 22.48906 ], [ 86.59467, 22.47721 ], [ 86.59909, 22.47641 ], [ 86.6017, 22.47487 ], [ 86.60453, 22.47467 ], [ 86.60588, 22.47097 ], [ 86.60605, 22.46825 ], [ 86.60341, 22.45861 ], [ 86.604, 22.4567 ], [ 86.60305, 22.45388 ], [ 86.60412, 22.45144 ], [ 86.60622, 22.45128 ], [ 86.60766, 22.45014 ], [ 86.60803, 22.44593 ], [ 86.60714, 22.44354 ], [ 86.60825, 22.43826 ], [ 86.60492, 22.43623 ], [ 86.6063, 22.4346 ], [ 86.60586, 22.43128 ], [ 86.60704, 22.4303 ], [ 86.60715, 22.4279 ], [ 86.60587, 22.42628 ], [ 86.60559, 22.42295 ], [ 86.60016, 22.42119 ], [ 86.5994, 22.41826 ], [ 86.59788, 22.41781 ], [ 86.59596, 22.42401 ], [ 86.59216, 22.42775 ], [ 86.5852, 22.43129 ], [ 86.57841, 22.43598 ], [ 86.5689, 22.44 ], [ 86.56173, 22.44499 ], [ 86.55832, 22.4488 ], [ 86.55013, 22.46118 ], [ 86.53532, 22.47649 ], [ 86.52496, 22.48938 ], [ 86.51785, 22.49556 ], [ 86.51317, 22.49803 ], [ 86.51183, 22.50027 ], [ 86.51019, 22.50112 ], [ 86.48884, 22.5061 ], [ 86.48754, 22.50776 ], [ 86.48909, 22.5118 ], [ 86.49832, 22.51742 ], [ 86.50166, 22.52137 ], [ 86.5026, 22.52408 ], [ 86.50175, 22.52694 ], [ 86.49139, 22.53614 ], [ 86.47207, 22.5465 ], [ 86.47112, 22.54985 ], [ 86.47538, 22.55818 ], [ 86.48165, 22.56368 ], [ 86.48255, 22.56635 ], [ 86.48615, 22.56711 ], [ 86.49052, 22.57306 ], [ 86.49221, 22.57347 ], [ 86.49501, 22.57099 ], [ 86.50159, 22.57012 ], [ 86.5039, 22.57189 ], [ 86.50684, 22.57199 ], [ 86.50774, 22.57345 ], [ 86.51126, 22.57338 ], [ 86.51543, 22.57445 ], [ 86.52365, 22.57406 ], [ 86.52397, 22.57686 ], [ 86.52695, 22.5779 ], [ 86.52823, 22.58065 ], [ 86.53086, 22.58085 ], [ 86.53236, 22.58212 ], [ 86.54186, 22.59727 ], [ 86.54775, 22.60158 ], [ 86.55135, 22.59932 ], [ 86.5548, 22.59376 ], [ 86.55936, 22.59181 ], [ 86.56398, 22.59421 ], [ 86.5657, 22.59294 ], [ 86.56916, 22.59393 ], [ 86.57141, 22.59341 ], [ 86.57428, 22.59631 ], [ 86.57566, 22.59653 ], [ 86.57596, 22.598 ], [ 86.58006, 22.59831 ], [ 86.58466, 22.60085 ], [ 86.58548, 22.60215 ], [ 86.58763, 22.60262 ], [ 86.58972, 22.60499 ], [ 86.58981, 22.60675 ], [ 86.59801, 22.61019 ], [ 86.6065, 22.61031 ], [ 86.60958, 22.61137 ], [ 86.61079, 22.6128 ], [ 86.61219, 22.61275 ], [ 86.61689, 22.60826 ], [ 86.61841, 22.60774 ], [ 86.62615, 22.60944 ], [ 86.63154, 22.60969 ], [ 86.63384, 22.60904 ], [ 86.63425, 22.61099 ] ] ] } },
{ "type": "Feature", "properties": { "OBJECTID": 5600, "state_lgd": "20", "state_name": "JHARKHAND", "district_lgd": "357", "district_name": "EAST SINGHBHUM", "district_name_source": "district_table", "subdistrict_lgd": "02610", "subdistrict_name": "DUMARIA", "subdistrict_type": "", "name_corrupted": false, "remarks": "", "label_lon": 86.392809966007377, "label_lat": 22.41670386243177 }, "geometry": { "type": "Polygon", "coordinates": [ [ [ 86.3528, 22.52604 ], [ 86.35246, 22.5119 ], [ 86.36273, 22.4967 ], [ 86.36293, 22.49535 ], [ 86.36178, 22.49284 ], [ 86.3629, 22.49187 ], [ 86.36404, 22.48849 ], [ 86.36525, 22.4878 ], [ 86.36589, 22.48406 ], [ 86.38755, 22.49159 ], [ 86.38816, 22.48574 ], [ 86.38918, 22.48449 ], [ 86.39213, 22.48283 ], [ 86.40045, 22.48047 ], [ 86.40183, 22.47766 ], [ 86.40317, 22.47751 ], [ 86.4075, 22.47316 ], [ 86.41032, 22.47099 ], [ 86.41216, 22.47096 ], [ 86.41313, 22.4696 ], [ 86.41536, 22.46898 ], [ 86.41535, 22.4661 ], [ 86.41802, 22.46432 ], [ 86.41791, 22.46202 ], [ 86.42413, 22.46112 ], [ 86.42776, 22.46218 ], [ 86.43216, 22.46058 ], [ 86.43523, 22.45712 ], [ 86.44052, 22.4569 ], [ 86.44213, 22.45337 ], [ 86.44415, 22.45373 ], [ 86.44616, 22.45544 ], [ 86.44681, 22.45874 ], [ 86.44802, 22.45965 ], [ 86.45674, 22.45902 ], [ 86.45794, 22.45973 ], [ 86.45843, 22.46139 ], [ 86.46372, 22.46814 ], [ 86.46565, 22.46953 ], [ 86.46744, 22.46952 ], [ 86.47681, 22.45977 ], [ 86.47665, 22.45657 ], [ 86.47796, 22.45395 ], [ 86.47997, 22.44555 ], [ 86.48169, 22.44353 ], [ 86.4862, 22.44208 ], [ 86.49413, 22.44302 ], [ 86.49942, 22.43924 ], [ 86.49665, 22.4368 ], [ 86.4942, 22.43601 ], [ 86.48806, 22.43595 ], [ 86.48803, 22.43318 ], [ 86.48965, 22.42847 ], [ 86.48939, 22.42669 ], [ 86.49254, 22.42383 ], [ 86.49353, 22.42121 ], [ 86.49412, 22.4209 ], [ 86.4965, 22.42301 ], [ 86.49777, 22.4201 ], [ 86.49878, 22.42024 ], [ 86.50186, 22.42353 ], [ 86.50952, 22.41556 ], [ 86.50627, 22.4078 ], [ 86.50281, 22.40554 ], [ 86.50273, 22.40391 ], [ 86.50582, 22.40026 ], [ 86.5068, 22.39644 ], [ 86.50442, 22.39369 ], [ 86.50189, 22.39249 ], [ 86.49387, 22.39099 ], [ 86.49219, 22.38694 ], [ 86.49154, 22.3808 ], [ 86.49802, 22.3804 ], [ 86.49486, 22.36882 ], [ 86.49479, 22.3661 ], [ 86.48889, 22.36568 ], [ 86.48999, 22.36404 ], [ 86.48433, 22.35134 ], [ 86.48408, 22.34905 ], [ 86.48687, 22.34695 ], [ 86.48445, 22.34311 ], [ 86.48456, 22.33965 ], [ 86.4834, 22.33943 ], [ 86.48328, 22.33801 ], [ 86.47796, 22.33659 ], [ 86.47453, 22.33709 ], [ 86.4741, 22.3358 ], [ 86.47147, 22.33578 ], [ 86.46819, 22.3304 ], [ 86.46243, 22.32996 ], [ 86.46362, 22.32875 ], [ 86.46163, 22.326 ], [ 86.45999, 22.32634 ], [ 86.45839, 22.32513 ], [ 86.45696, 22.32591 ], [ 86.45292, 22.32532 ], [ 86.44652, 22.32911 ], [ 86.44437, 22.32831 ], [ 86.44307, 22.32626 ], [ 86.44373, 22.31926 ], [ 86.44296, 22.31767 ], [ 86.4446, 22.31232 ], [ 86.44343, 22.30863 ], [ 86.43948, 22.3036 ], [ 86.4372, 22.30416 ], [ 86.43501, 22.30651 ], [ 86.43009, 22.30768 ], [ 86.42786, 22.31212 ], [ 86.42681, 22.31758 ], [ 86.41924, 22.31826 ], [ 86.40828, 22.32097 ], [ 86.37708, 22.34163 ], [ 86.36642, 22.34429 ], [ 86.35814, 22.34921 ], [ 86.35748, 22.35028 ], [ 86.35761, 22.35423 ], [ 86.35312, 22.35879 ], [ 86.35016, 22.36429 ], [ 86.34028, 22.37292 ], [ 86.33466, 22.37427 ], [ 86.32852, 22.3778 ], [ 86.32116, 22.38542 ], [ 86.32063, 22.38902 ], [ 86.32271, 22.39264 ], [ 86.32082, 22.39741 ], [ 86.31553, 22.40118 ], [ 86.30644, 22.40961 ], [ 86.30596, 22.41221 ], [ 86.30745, 22.41531 ], [ 86.30562, 22.41855 ], [ 86.3018, 22.42288 ], [ 86.29633, 22.42403 ], [ 86.29303, 22.42668 ], [ 86.28376, 22.44337 ], [ 86.28198, 22.44805 ], [ 86.28688, 22.44993 ], [ 86.29007, 22.45635 ], [ 86.29054, 22.4588 ], [ 86.28599, 22.46202 ], [ 86.28887, 22.46697 ], [ 86.29076, 22.47309 ], [ 86.29095, 22.47716 ], [ 86.2907, 22.47911 ], [ 86.28387, 22.48774 ], [ 86.28185, 22.4943 ], [ 86.27978, 22.49718 ], [ 86.28412, 22.50092 ], [ 86.28415, 22.50479 ], [ 86.294, 22.50852 ], [ 86.29611, 22.50811 ], [ 86.29851, 22.50923 ], [ 86.30007, 22.50878 ], [ 86.30096, 22.50727 ], [ 86.30804, 22.50881 ], [ 86.30953, 22.51336 ], [ 86.3127, 22.51772 ], [ 86.31262, 22.51955 ], [ 86.31872, 22.52786 ], [ 86.32205, 22.52646 ], [ 86.32465, 22.5267 ], [ 86.33101, 22.52234 ], [ 86.339, 22.51994 ], [ 86.34127, 22.52019 ], [ 86.34283, 22.52152 ], [ 86.34478, 22.52763 ], [ 86.3528, 22.52604 ] ] ] } },
{ "type": "Feature", "properties": { "OBJECTID": 5611, "state_lgd": "20", "state_name": "JHARKHAND", "district_lgd": "357", "district_name": "EAST SINGHBHUM", "district_name_source": "district_table", "subdistrict_lgd": "02607", "subdistrict_name": "GHATSHILA", "subdistrict_type": "", "name_corrupted": false, "remarks": "", "label_lon": 86.498100090531537, "label_lat": 22.659337154789927 }, "geometry": { "type": "Polygon", "coordinates": [ [ [ 86.51284, 22.71652 ], [ 86.52085, 22.71545 ], [ 86.5238, 22.71938 ], [ 86.53015, 22.719 ], [ 86.53513, 22.71725 ], [ 86.54028, 22.7193 ], [ 86.54324, 22.72142 ], [ 86.54503, 22.7213 ], [ 86.55734, 22.71151 ], [ 86.56099, 22.70999 ], [ 86.56203, 22.70707 ], [ 86.56966, 22.70267 ], [ 86.57126, 22.70016 ], [ 86.57752, 22.69731 ], [ 86.58378, 22.69211 ], [ 86.59937, 22.6889 ], [ 86.60373, 22.68678 ], [ 86.60543, 22.68499 ], [ 86.60697, 22.68493 ], [ 86.61117, 22.68005 ], [ 86.61909, 22.67863 ], [ 86.62306, 22.6757 ], [ 86.62589, 22.67241 ], [ 86.62788, 22.66713 ], [ 86.63569, 22.66497 ], [ 86.63805, 22.66298 ], [ 86.64124, 22.65911 ], [ 86.64177, 22.6573 ], [ 86.63836, 22.65173 ], [ 86.6391, 22.63403 ], [ 86.63795, 22.62591 ], [ 86.63579, 22.62248 ], [ 86.63392, 22.61429 ], [ 86.6342, 22.61278 ], [ 86.63312, 22.61127 ], [ 86.63425, 22.61099 ], [ 86.63384, 22.60904 ], [ 86.63154, 22.60969 ], [ 86.62615, 22.60944 ], [ 86.61841, 22.60774 ], [ 86.61689, 22.60826 ], [ 86.61373, 22.61177 ], [ 86.61125, 22.61285 ], [ 86.60958, 22.61137 ], [ 86.6065, 22.61031 ], [ 86.59801, 22.61019 ], [ 86.58981, 22.60675 ], [ 86.58972, 22.60499 ], [ 86.58763, 22.60262 ], [ 86.58548, 22.60215 ], [ 86.58466, 22.60085 ], [ 86.58006, 22.59831 ], [ 86.57596, 22.598 ], [ 86.57566, 22.59653 ], [ 86.57428, 22.59631 ], [ 86.57141, 22.59341 ], [ 86.56916, 22.59393 ], [ 86.5657, 22.59294 ], [ 86.56398, 22.59421 ], [ 86.55936, 22.59181 ], [ 86.5548, 22.59376 ], [ 86.55135, 22.59932 ], [ 86.54775, 22.60158 ], [ 86.54186, 22.59727 ], [ 86.53236, 22.58212 ], [ 86.53086, 22.58085 ], [ 86.52823, 22.58065 ], [ 86.52695, 22.5779 ], [ 86.52397, 22.57686 ], [ 86.52365, 22.57406 ], [ 86.51543, 22.57445 ], [ 86.51126, 22.57338 ], [ 86.50774, 22.57345 ], [ 86.50684, 22.57199 ], [ 86.5039, 22.57189 ], [ 86.50159, 22.57012 ], [ 86.49501, 22.57099 ], [ 86.49221, 22.57347 ], [ 86.49052, 22.57306 ], [ 86.48615, 22.56711 ], [ 86.48255, 22.56635 ], [ 86.48193, 22.56439 ], [ 86.47785, 22.56716 ], [ 86.46935, 22.57095 ], [ 86.46349, 22.57495 ], [ 86.46264, 22.57727 ], [ 86.46654, 22.57963 ], [ 86.46972, 22.58007 ], [ 86.4631, 22.58467 ], [ 86.4496, 22.59202 ], [ 86.44066, 22.59949 ], [ 86.43675, 22.60384 ], [ 86.43337, 22.6136 ], [ 86.43108, 22.61696 ], [ 86.4243, 22.6213 ], [ 86.41323, 22.63531 ], [ 86.41053, 22.63754 ], [ 86.40703, 22.63068 ], [ 86.40559, 22.62993 ], [ 86.39471, 22.63365 ], [ 86.39188, 22.63687 ], [ 86.39049, 22.63987 ], [ 86.38836, 22.63939 ], [ 86.38123, 22.64091 ], [ 86.37943, 22.64181 ], [ 86.37786, 22.64383 ], [ 86.37844, 22.64845 ], [ 86.3763, 22.65303 ], [ 86.37666, 22.65926 ], [ 86.38003, 22.65864 ], [ 86.37979, 22.6604 ], [ 86.37697, 22.67016 ], [ 86.37318, 22.67688 ], [ 86.37155, 22.68308 ], [ 86.37293, 22.68733 ], [ 86.37975, 22.69843 ], [ 86.38057, 22.70578 ], [ 86.37957, 22.70887 ], [ 86.37146, 22.71627 ], [ 86.3739, 22.71603 ], [ 86.37635, 22.72133 ], [ 86.38244, 22.72385 ], [ 86.38388, 22.72866 ], [ 86.38434, 22.73671 ], [ 86.39124, 22.73684 ], [ 86.39262, 22.73463 ], [ 86.39763, 22.73363 ], [ 86.40241, 22.72933 ], [ 86.40714, 22.73059 ], [ 86.4093, 22.72699 ], [ 86.41027, 22.72657 ], [ 86.41401, 22.72867 ], [ 86.41684, 22.72924 ], [ 86.42129, 22.72728 ], [ 86.42172, 22.73058 ], [ 86.43535, 22.73941 ], [ 86.43567, 22.74089 ], [ 86.43422, 22.74525 ], [ 86.43728, 22.74959 ], [ 86.43892, 22.75053 ], [ 86.44815, 22.75221 ], [ 86.44909, 22.75435 ], [ 86.45347, 22.75592 ], [ 86.45379, 22.7631 ], [ 86.45793, 22.76336 ], [ 86.46171, 22.76048 ], [ 86.46968, 22.7521 ], [ 86.46994, 22.74875 ], [ 86.47153, 22.74656 ], [ 86.47157, 22.74426 ], [ 86.47364, 22.7397 ], [ 86.47505, 22.73913 ], [ 86.47651, 22.73499 ], [ 86.47877, 22.73394 ], [ 86.48028, 22.73115 ], [ 86.48172, 22.7302 ], [ 86.48154, 22.72786 ], [ 86.48443, 22.72661 ], [ 86.48539, 22.72825 ], [ 86.48668, 22.72813 ], [ 86.49321, 22.7264 ], [ 86.49468, 22.72328 ], [ 86.49768, 22.72287 ], [ 86.50001, 22.72046 ], [ 86.50091, 22.71816 ], [ 86.50401, 22.71517 ], [ 86.50687, 22.70964 ], [ 86.51132, 22.705 ], [ 86.51345, 22.70717 ], [ 86.51151, 22.71197 ], [ 86.51284, 22.71652 ] ] ] } },
{ "type": "Feature", "properties": { "OBJECTID": 5617, "state_lgd": "20", "state_name": "JHARKHAND", "district_lgd": "357", "district_name": "EAST SINGHBHUM", "district_name_source": "district_table", "subdistrict_lgd": "02606", "subdistrict_name": "GOLMURI-CUM-JUGSALAI", "subdistrict_type": "", "name_corrupted": false, "remarks": "", "label_lon": 86.275400952042929, "label_lat": 22.770012316992457 }, "geometry": { "type": "Polygon", "coordinates": [ [ [ 86.20562, 22.86054 ], [ 86.21511, 22.85805 ], [ 86.22203, 22.85386 ], [ 86.22703, 22.85255 ], [ 86.23312, 22.849 ], [ 86.23596, 22.84979 ], [ 86.23661, 22.84686 ], [ 86.24382, 22.84636 ], [ 86.26255, 22.83909 ], [ 86.26693, 22.83821 ], [ 86.27506, 22.83867 ], [ 86.27863, 22.84112 ], [ 86.28475, 22.84057 ], [ 86.29495, 22.83514 ], [ 86.30153, 22.83413 ], [ 86.3116, 22.82832 ], [ 86.31667, 22.82721 ], [ 86.32046, 22.8253 ], [ 86.32251, 22.82527 ], [ 86.32651, 22.8233 ], [ 86.33761, 22.81988 ], [ 86.34193, 22.81934 ], [ 86.34636, 22.81715 ], [ 86.35053, 22.81658 ], [ 86.35184, 22.81462 ], [ 86.35457, 22.81321 ], [ 86.36252, 22.81247 ], [ 86.36547, 22.81335 ], [ 86.36922, 22.81289 ], [ 86.37301, 22.81103 ], [ 86.38505, 22.80801 ], [ 86.38643, 22.8065 ], [ 86.38742, 22.80681 ], [ 86.38908, 22.80549 ], [ 86.39157, 22.80601 ], [ 86.39449, 22.8045 ], [ 86.3972, 22.80054 ], [ 86.40158, 22.80003 ], [ 86.4039, 22.79519 ], [ 86.41439, 22.79181 ], [ 86.41648, 22.78987 ], [ 86.41656, 22.78852 ], [ 86.41868, 22.78752 ], [ 86.41756, 22.78645 ], [ 86.41825, 22.78442 ], [ 86.41761, 22.78368 ], [ 86.42148, 22.78014 ], [ 86.42581, 22.77975 ], [ 86.4301, 22.77469 ], [ 86.43309, 22.77255 ], [ 86.43748, 22.77126 ], [ 86.44592, 22.76491 ], [ 86.44843, 22.76193 ], [ 86.45379, 22.7631 ], [ 86.45347, 22.75592 ], [ 86.44909, 22.75435 ], [ 86.44815, 22.75221 ], [ 86.44669, 22.7515 ], [ 86.44163, 22.75111 ], [ 86.43728, 22.74959 ], [ 86.43422, 22.74525 ], [ 86.43567, 22.74089 ], [ 86.43535, 22.73941 ], [ 86.42172, 22.73058 ], [ 86.42129, 22.72728 ], [ 86.41684, 22.72924 ], [ 86.41401, 22.72867 ], [ 86.41027, 22.72657 ], [ 86.4093, 22.72699 ], [ 86.40714, 22.73059 ], [ 86.40241, 22.72933 ], [ 86.39763, 22.73363 ], [ 86.39262, 22.73463 ], [ 86.39124, 22.73684 ], [ 86.38434, 22.73671 ], [ 86.38388, 22.72866 ], [ 86.38244, 22.72385 ], [ 86.37635, 22.72133 ], [ 86.3739, 22.71603 ], [ 86.36972, 22.71713 ], [ 86.35964, 22.72359 ], [ 86.35714, 22.7262 ], [ 86.35647, 22.73347 ], [ 86.35536, 22.73548 ], [ 86.35244, 22.73712 ], [ 86.35047, 22.73701 ], [ 86.34552, 22.73482 ], [ 86.33742, 22.72985 ], [ 86.33416, 22.72953 ], [ 86.32009, 22.72988 ], [ 86.31425, 22.73232 ], [ 86.30989, 22.73613 ], [ 86.30851, 22.73619 ], [ 86.29862, 22.7329 ], [ 86.29466, 22.73 ], [ 86.2903, 22.72851 ], [ 86.28655, 22.72174 ], [ 86.28402, 22.72031 ], [ 86.2818, 22.72094 ], [ 86.27977, 22.72333 ], [ 86.2773, 22.7236 ], [ 86.27244, 22.72713 ], [ 86.27014, 22.73165 ], [ 86.26507, 22.72725 ], [ 86.26162, 22.72057 ], [ 86.26175, 22.71976 ], [ 86.26371, 22.71952 ], [ 86.26717, 22.71701 ], [ 86.26873, 22.71273 ], [ 86.26383, 22.70719 ], [ 86.2552, 22.70027 ], [ 86.25314, 22.70084 ], [ 86.24982, 22.70033 ], [ 86.24526, 22.69816 ], [ 86.23964, 22.69684 ], [ 86.23816, 22.69475 ], [ 86.23622, 22.69447 ], [ 86.22998, 22.69946 ], [ 86.22272, 22.69997 ], [ 86.21752, 22.69782 ], [ 86.21641, 22.68727 ], [ 86.21758, 22.6863 ], [ 86.21577, 22.6859 ], [ 86.21762, 22.68469 ], [ 86.21444, 22.68212 ], [ 86.2056, 22.68514 ], [ 86.19446, 22.68256 ], [ 86.19274, 22.68048 ], [ 86.19081, 22.67278 ], [ 86.18519, 22.67736 ], [ 86.18392, 22.67746 ], [ 86.18275, 22.67971 ], [ 86.18047, 22.68045 ], [ 86.17561, 22.67786 ], [ 86.17537, 22.67529 ], [ 86.17424, 22.6734 ], [ 86.17033, 22.6726 ], [ 86.16564, 22.67398 ], [ 86.16433, 22.67769 ], [ 86.16357, 22.68864 ], [ 86.16441, 22.7059 ], [ 86.16248, 22.71208 ], [ 86.16336, 22.71844 ], [ 86.16563, 22.72508 ], [ 86.16451, 22.72738 ], [ 86.16583, 22.72938 ], [ 86.16431, 22.73296 ], [ 86.1611, 22.73695 ], [ 86.16029, 22.74145 ], [ 86.162, 22.74479 ], [ 86.15994, 22.74828 ], [ 86.16042, 22.75123 ], [ 86.15975, 22.75199 ], [ 86.16342, 22.7547 ], [ 86.16297, 22.75993 ], [ 86.16735, 22.76011 ], [ 86.17197, 22.76338 ], [ 86.17539, 22.78809 ], [ 86.1722, 22.79293 ], [ 86.16581, 22.79509 ], [ 86.15915, 22.80137 ], [ 86.15712, 22.8015 ], [ 86.15087, 22.79835 ], [ 86.14819, 22.79867 ], [ 86.14615, 22.80157 ], [ 86.14586, 22.80531 ], [ 86.14865, 22.81309 ], [ 86.15819, 22.82014 ], [ 86.15982, 22.82232 ], [ 86.1589, 22.83321 ], [ 86.1606, 22.83623 ], [ 86.17588, 22.83207 ], [ 86.18555, 22.82202 ], [ 86.19878, 22.81726 ], [ 86.19947, 22.81881 ], [ 86.19901, 22.82122 ], [ 86.19795, 22.82252 ], [ 86.1972, 22.82167 ], [ 86.19639, 22.82221 ], [ 86.19527, 22.82565 ], [ 86.19855, 22.83083 ], [ 86.19855, 22.83249 ], [ 86.20116, 22.83791 ], [ 86.20107, 22.83873 ], [ 86.19895, 22.83961 ], [ 86.19912, 22.84131 ], [ 86.20032, 22.84176 ], [ 86.19922, 22.84258 ], [ 86.19937, 22.84333 ], [ 86.20247, 22.84917 ], [ 86.20038, 22.85463 ], [ 86.20167, 22.85842 ], [ 86.20275, 22.85919 ], [ 86.20562, 22.86054 ] ] ] } },
{ "type": "Feature", "properties": { "OBJECTID": 5622, "state_lgd": "20", "state_name": "JHARKHAND", "district_lgd": "357", "district_name": "EAST SINGHBHUM", "district_name_source": "district_table", "subdistrict_lgd": "02612", "subdistrict_name": "GURBANDHA", "subdistrict_type": "", "name_corrupted": false, "remarks": "", "label_lon": 86.565875646924667, "label_lat": 22.365835149574323 }, "geometry": { "type": "Polygon", "coordinates": [ [ [ 86.53532, 22.47649 ], [ 86.55013, 22.46118 ], [ 86.55947, 22.44721 ], [ 86.56412, 22.44281 ], [ 86.57841, 22.43598 ], [ 86.5852, 22.43129 ], [ 86.5881, 22.43027 ], [ 86.59216, 22.42775 ], [ 86.59596, 22.42401 ], [ 86.59788, 22.41781 ], [ 86.59687, 22.41524 ], [ 86.59476, 22.41151 ], [ 86.58662, 22.40554 ], [ 86.58208, 22.40079 ], [ 86.58302, 22.39601 ], [ 86.58656, 22.39382 ], [ 86.59385, 22.39133 ], [ 86.59866, 22.38774 ], [ 86.60032, 22.38281 ], [ 86.60044, 22.37589 ], [ 86.60167, 22.37075 ], [ 86.60305, 22.36758 ], [ 86.60661, 22.36284 ], [ 86.61527, 22.35663 ], [ 86.62699, 22.35274 ], [ 86.63833, 22.34472 ], [ 86.64261, 22.34095 ], [ 86.64435, 22.33623 ], [ 86.6506, 22.32535 ], [ 86.65282, 22.32555 ], [ 86.65934, 22.31649 ], [ 86.66017, 22.31481 ], [ 86.65968, 22.31346 ], [ 86.66097, 22.30563 ], [ 86.66463, 22.29793 ], [ 86.66248, 22.28895 ], [ 86.66477, 22.27599 ], [ 86.66517, 22.26656 ], [ 86.66623, 22.26689 ], [ 86.66789, 22.26087 ], [ 86.66511, 22.25714 ], [ 86.66379, 22.25806 ], [ 86.66097, 22.25287 ], [ 86.65548, 22.24994 ], [ 86.65425, 22.24957 ], [ 86.65466, 22.25073 ], [ 86.65167, 22.25609 ], [ 86.64951, 22.26353 ], [ 86.64673, 22.26536 ], [ 86.64363, 22.26448 ], [ 86.64465, 22.26766 ], [ 86.64372, 22.26879 ], [ 86.63971, 22.26551 ], [ 86.63814, 22.27088 ], [ 86.63618, 22.27265 ], [ 86.6308, 22.27299 ], [ 86.62842, 22.26987 ], [ 86.62731, 22.26951 ], [ 86.62579, 22.27353 ], [ 86.62425, 22.27399 ], [ 86.62177, 22.27704 ], [ 86.61865, 22.27856 ], [ 86.61641, 22.281 ], [ 86.61294, 22.28103 ], [ 86.61048, 22.28335 ], [ 86.60352, 22.28207 ], [ 86.60176, 22.27986 ], [ 86.59976, 22.27887 ], [ 86.59308, 22.27856 ], [ 86.5924, 22.27995 ], [ 86.59392, 22.28204 ], [ 86.59272, 22.28544 ], [ 86.58793, 22.28999 ], [ 86.58739, 22.29441 ], [ 86.58506, 22.29536 ], [ 86.58226, 22.30165 ], [ 86.57681, 22.30112 ], [ 86.57684, 22.29845 ], [ 86.57783, 22.29622 ], [ 86.57686, 22.29556 ], [ 86.57198, 22.29618 ], [ 86.5708, 22.2977 ], [ 86.57088, 22.30019 ], [ 86.56887, 22.30144 ], [ 86.56169, 22.30172 ], [ 86.5574, 22.29832 ], [ 86.55407, 22.29847 ], [ 86.54849, 22.30136 ], [ 86.54741, 22.30401 ], [ 86.54507, 22.30522 ], [ 86.54386, 22.30721 ], [ 86.54074, 22.30824 ], [ 86.53972, 22.30753 ], [ 86.53935, 22.30476 ], [ 86.53501, 22.30144 ], [ 86.53276, 22.30096 ], [ 86.53146, 22.30319 ], [ 86.52545, 22.3076 ], [ 86.52577, 22.31103 ], [ 86.52319, 22.31473 ], [ 86.52349, 22.3157 ], [ 86.52679, 22.31485 ], [ 86.52783, 22.31549 ], [ 86.5282, 22.31929 ], [ 86.52695, 22.32364 ], [ 86.52169, 22.32342 ], [ 86.50818, 22.32786 ], [ 86.50719, 22.32957 ], [ 86.50756, 22.33446 ], [ 86.50356, 22.33676 ], [ 86.50365, 22.33989 ], [ 86.50212, 22.34359 ], [ 86.49835, 22.34505 ], [ 86.49692, 22.3472 ], [ 86.49414, 22.34566 ], [ 86.49289, 22.34708 ], [ 86.48996, 22.34779 ], [ 86.48747, 22.34778 ], [ 86.48687, 22.34695 ], [ 86.48408, 22.34905 ], [ 86.48528, 22.35386 ], [ 86.48753, 22.35748 ], [ 86.48999, 22.36404 ], [ 86.48889, 22.36568 ], [ 86.49479, 22.3661 ], [ 86.49486, 22.36882 ], [ 86.49802, 22.3804 ], [ 86.49154, 22.3808 ], [ 86.49219, 22.38694 ], [ 86.49387, 22.39099 ], [ 86.50189, 22.39249 ], [ 86.50442, 22.39369 ], [ 86.5068, 22.39644 ], [ 86.50582, 22.40026 ], [ 86.50273, 22.40391 ], [ 86.50281, 22.40554 ], [ 86.50627, 22.4078 ], [ 86.50952, 22.41556 ], [ 86.50186, 22.42353 ], [ 86.49878, 22.42024 ], [ 86.49777, 22.4201 ], [ 86.4965, 22.42301 ], [ 86.49381, 22.42084 ], [ 86.49254, 22.42383 ], [ 86.48939, 22.42669 ], [ 86.48965, 22.42847 ], [ 86.48803, 22.43318 ], [ 86.48806, 22.43595 ], [ 86.4942, 22.43601 ], [ 86.49875, 22.43834 ], [ 86.49942, 22.43924 ], [ 86.49802, 22.44055 ], [ 86.50398, 22.44371 ], [ 86.50563, 22.44897 ], [ 86.50577, 22.45399 ], [ 86.50429, 22.45566 ], [ 86.49666, 22.45674 ], [ 86.4945, 22.45812 ], [ 86.49365, 22.46101 ], [ 86.49373, 22.46573 ], [ 86.49073, 22.46879 ], [ 86.49219, 22.47179 ], [ 86.49241, 22.47478 ], [ 86.49452, 22.47534 ], [ 86.50117, 22.47326 ], [ 86.50326, 22.46746 ], [ 86.50527, 22.47227 ], [ 86.50715, 22.48061 ], [ 86.50804, 22.4815 ], [ 86.51091, 22.48202 ], [ 86.50801, 22.484 ], [ 86.50939, 22.48859 ], [ 86.511, 22.48988 ], [ 86.51133, 22.49193 ], [ 86.51056, 22.49504 ], [ 86.51111, 22.49666 ], [ 86.51317, 22.49803 ], [ 86.51785, 22.49556 ], [ 86.52496, 22.48938 ], [ 86.53532, 22.47649 ] ], [ [ 86.6644, 22.27595 ], [ 86.66385, 22.27637 ], [ 86.6629, 22.27657 ], [ 86.66312, 22.27574 ], [ 86.6644, 22.27595 ] ] ] } },
{ "type": "Feature", "properties": { "OBJECTID": 5704, "state_lgd": "20", "state_name": "JHARKHAND", "district_lgd": "357", "district_name": "EAST SINGHBHUM", "district_name_source": "district_table", "subdistrict_lgd": "02609", "subdistrict_name": "MUSABANI", "subdistrict_type": "", "name_corrupted": false, "remarks": "", "label_lon": 86.415194954841638, "label_lat": 22.548528192519118 }, "geometry": { "type": "Polygon", "coordinates": [ [ [ 86.36277, 22.66062 ], [ 86.36958, 22.66129 ], [ 86.37429, 22.65909 ], [ 86.37666, 22.65926 ], [ 86.3763, 22.65303 ], [ 86.37844, 22.64845 ], [ 86.37786, 22.64383 ], [ 86.37943, 22.64181 ], [ 86.38123, 22.64091 ], [ 86.38836, 22.63939 ], [ 86.39049, 22.63987 ], [ 86.39188, 22.63687 ], [ 86.39471, 22.63365 ], [ 86.40559, 22.62993 ], [ 86.40703, 22.63068 ], [ 86.41053, 22.63754 ], [ 86.41323, 22.63531 ], [ 86.4243, 22.6213 ], [ 86.43108, 22.61696 ], [ 86.43337, 22.6136 ], [ 86.43675, 22.60384 ], [ 86.44066, 22.59949 ], [ 86.4496, 22.59202 ], [ 86.4631, 22.58467 ], [ 86.46972, 22.58007 ], [ 86.46654, 22.57963 ], [ 86.46264, 22.57727 ], [ 86.46349, 22.57495 ], [ 86.46935, 22.57095 ], [ 86.47785, 22.56716 ], [ 86.48193, 22.56439 ], [ 86.47908, 22.5608 ], [ 86.47538, 22.55818 ], [ 86.47408, 22.55602 ], [ 86.47112, 22.54985 ], [ 86.47207, 22.5465 ], [ 86.49139, 22.53614 ], [ 86.50085, 22.52816 ], [ 86.5026, 22.52408 ], [ 86.50166, 22.52137 ], [ 86.49832, 22.51742 ], [ 86.48909, 22.5118 ], [ 86.48754, 22.50776 ], [ 86.4897, 22.50553 ], [ 86.50508, 22.50279 ], [ 86.51019, 22.50112 ], [ 86.51183, 22.50027 ], [ 86.51317, 22.49803 ], [ 86.51111, 22.49666 ], [ 86.51056, 22.49504 ], [ 86.51133, 22.49193 ], [ 86.511, 22.48988 ], [ 86.50939, 22.48859 ], [ 86.50801, 22.484 ], [ 86.51091, 22.48202 ], [ 86.50804, 22.4815 ], [ 86.50715, 22.48061 ], [ 86.50527, 22.47227 ], [ 86.50326, 22.46746 ], [ 86.50117, 22.47326 ], [ 86.49452, 22.47534 ], [ 86.49241, 22.47478 ], [ 86.49219, 22.47179 ], [ 86.49073, 22.46879 ], [ 86.49373, 22.46573 ], [ 86.49388, 22.45958 ], [ 86.49538, 22.45723 ], [ 86.50429, 22.45566 ], [ 86.50577, 22.45399 ], [ 86.50563, 22.44897 ], [ 86.50398, 22.44371 ], [ 86.49802, 22.44055 ], [ 86.49413, 22.44302 ], [ 86.4862, 22.44208 ], [ 86.48169, 22.44353 ], [ 86.47997, 22.44555 ], [ 86.47796, 22.45395 ], [ 86.47665, 22.45657 ], [ 86.47681, 22.45977 ], [ 86.46744, 22.46952 ], [ 86.46565, 22.46953 ], [ 86.46372, 22.46814 ], [ 86.45843, 22.46139 ], [ 86.45794, 22.45973 ], [ 86.45674, 22.45902 ], [ 86.44802, 22.45965 ], [ 86.44681, 22.45874 ], [ 86.44616, 22.45544 ], [ 86.44415, 22.45373 ], [ 86.44213, 22.45337 ], [ 86.44052, 22.4569 ], [ 86.43523, 22.45712 ], [ 86.43216, 22.46058 ], [ 86.42776, 22.46218 ], [ 86.42413, 22.46112 ], [ 86.41791, 22.46202 ], [ 86.41802, 22.46432 ], [ 86.41535, 22.4661 ], [ 86.41536, 22.46898 ], [ 86.41313, 22.4696 ], [ 86.41216, 22.47096 ], [ 86.41032, 22.47099 ], [ 86.4075, 22.47316 ], [ 86.40317, 22.47751 ], [ 86.40183, 22.47766 ], [ 86.40045, 22.48047 ], [ 86.39213, 22.48283 ], [ 86.38918, 22.48449 ], [ 86.38816, 22.48574 ], [ 86.38755, 22.49159 ], [ 86.36589, 22.48406 ], [ 86.36525, 22.4878 ], [ 86.36404, 22.48849 ], [ 86.3629, 22.49187 ], [ 86.36178, 22.49284 ], [ 86.36293, 22.49535 ], [ 86.36273, 22.4967 ], [ 86.35246, 22.5119 ], [ 86.3528, 22.52604 ], [ 86.34478, 22.52763 ], [ 86.34844, 22.53735 ], [ 86.35099, 22.5409 ], [ 86.35626, 22.54479 ], [ 86.35742, 22.54704 ], [ 86.35395, 22.55747 ], [ 86.35466, 22.56397 ], [ 86.35325, 22.56612 ], [ 86.35284, 22.57532 ], [ 86.35067, 22.57864 ], [ 86.35483, 22.58418 ], [ 86.3563, 22.58947 ], [ 86.35484, 22.59311 ], [ 86.34354, 22.5997 ], [ 86.3415, 22.60414 ], [ 86.34243, 22.60641 ], [ 86.34022, 22.60736 ], [ 86.33422, 22.61363 ], [ 86.33393, 22.61702 ], [ 86.33099, 22.62321 ], [ 86.32994, 22.62412 ], [ 86.32708, 22.62421 ], [ 86.32653, 22.62993 ], [ 86.32729, 22.63833 ], [ 86.33236, 22.64145 ], [ 86.33223, 22.64411 ], [ 86.33311, 22.64563 ], [ 86.33407, 22.64635 ], [ 86.33898, 22.64152 ], [ 86.34012, 22.6412 ], [ 86.34092, 22.64209 ], [ 86.3422, 22.64775 ], [ 86.33909, 22.65119 ], [ 86.33525, 22.65333 ], [ 86.33517, 22.65486 ], [ 86.34117, 22.66734 ], [ 86.34119, 22.6757 ], [ 86.34738, 22.6731 ], [ 86.35085, 22.66996 ], [ 86.34957, 22.6668 ], [ 86.35005, 22.66579 ], [ 86.35704, 22.66363 ], [ 86.36277, 22.66062 ] ] ] } },
{ "type": "Feature", "properties": { "OBJECTID": 5725, "state_lgd": "20", "state_name": "JHARKHAND", "district_lgd": "357", "district_name": "EAST SINGHBHUM", "district_name_source": "district_table", "subdistrict_lgd": "02604", "subdistrict_name": "PATAMDA", "subdistrict_type": "", "name_corrupted": false, "remarks": "", "label_lon": 86.404716433246676, "label_lat": 22.903077718987937 }, "geometry": { "type": "Polygon", "coordinates": [ [ [ 86.4253, 22.99717 ], [ 86.42531, 22.99657 ], [ 86.42907, 22.99657 ], [ 86.43462, 22.99445 ], [ 86.4423, 22.99323 ], [ 86.44687, 22.98821 ], [ 86.45085, 22.98835 ], [ 86.45155, 22.99024 ], [ 86.45568, 22.99032 ], [ 86.45839, 22.98907 ], [ 86.4615, 22.9896 ], [ 86.46451, 22.98843 ], [ 86.46758, 22.98946 ], [ 86.47051, 22.98889 ], [ 86.47217, 22.99091 ], [ 86.47573, 22.99175 ], [ 86.47869, 22.99126 ], [ 86.48037, 22.98982 ], [ 86.48108, 22.99098 ], [ 86.48706, 22.99243 ], [ 86.49769, 22.99204 ], [ 86.49922, 22.99354 ], [ 86.50115, 22.99359 ], [ 86.50137, 22.99169 ], [ 86.5027, 22.9903 ], [ 86.50416, 22.98611 ], [ 86.51378, 22.97749 ], [ 86.51048, 22.97548 ], [ 86.50862, 22.97303 ], [ 86.51481, 22.97139 ], [ 86.52119, 22.97071 ], [ 86.5256, 22.972 ], [ 86.52681, 22.97375 ], [ 86.52684, 22.97549 ], [ 86.52553, 22.97556 ], [ 86.52382, 22.97713 ], [ 86.52872, 22.98097 ], [ 86.53028, 22.98065 ], [ 86.53478, 22.98191 ], [ 86.53991, 22.98458 ], [ 86.54542, 22.99033 ], [ 86.54788, 22.98694 ], [ 86.5475, 22.98232 ], [ 86.55056, 22.97799 ], [ 86.54787, 22.97474 ], [ 86.54745, 22.97263 ], [ 86.54408, 22.96973 ], [ 86.54478, 22.96569 ], [ 86.54037, 22.9668 ], [ 86.5316, 22.96521 ], [ 86.53004, 22.95215 ], [ 86.52918, 22.95013 ], [ 86.52598, 22.9476 ], [ 86.52141, 22.95006 ], [ 86.51921, 22.94824 ], [ 86.51269, 22.94776 ], [ 86.50784, 22.95088 ], [ 86.50258, 22.95187 ], [ 86.50216, 22.95023 ], [ 86.503, 22.95017 ], [ 86.5029, 22.94897 ], [ 86.50089, 22.94757 ], [ 86.50078, 22.94594 ], [ 86.49757, 22.94597 ], [ 86.49747, 22.94745 ], [ 86.49524, 22.94685 ], [ 86.49455, 22.94326 ], [ 86.49333, 22.94285 ], [ 86.49256, 22.94039 ], [ 86.48913, 22.93724 ], [ 86.4853, 22.94277 ], [ 86.48395, 22.94278 ], [ 86.48283, 22.94397 ], [ 86.48218, 22.94332 ], [ 86.48147, 22.94443 ], [ 86.48066, 22.94409 ], [ 86.47915, 22.94573 ], [ 86.47728, 22.94609 ], [ 86.477, 22.9474 ], [ 86.47793, 22.94936 ], [ 86.47632, 22.95117 ], [ 86.47636, 22.95023 ], [ 86.47098, 22.94893 ], [ 86.46912, 22.94451 ], [ 86.46677, 22.94562 ], [ 86.46535, 22.94546 ], [ 86.46409, 22.94296 ], [ 86.46215, 22.94137 ], [ 86.46146, 22.93728 ], [ 86.46023, 22.93669 ], [ 86.45998, 22.93506 ], [ 86.45436, 22.93198 ], [ 86.45131, 22.93325 ], [ 86.4468, 22.93071 ], [ 86.443, 22.93067 ], [ 86.44318, 22.92908 ], [ 86.44201, 22.92797 ], [ 86.43638, 22.92623 ], [ 86.43534, 22.92518 ], [ 86.4362, 22.92232 ], [ 86.43827, 22.92124 ], [ 86.43877, 22.91988 ], [ 86.44048, 22.91949 ], [ 86.44151, 22.91629 ], [ 86.44468, 22.91394 ], [ 86.44659, 22.90966 ], [ 86.44924, 22.90747 ], [ 86.44941, 22.90642 ], [ 86.45139, 22.90563 ], [ 86.45131, 22.90384 ], [ 86.45256, 22.90416 ], [ 86.45297, 22.90246 ], [ 86.45471, 22.90247 ], [ 86.45555, 22.9033 ], [ 86.45752, 22.90202 ], [ 86.46457, 22.90151 ], [ 86.46543, 22.90239 ], [ 86.46714, 22.89993 ], [ 86.46528, 22.89817 ], [ 86.46583, 22.8966 ], [ 86.46463, 22.89434 ], [ 86.46004, 22.89208 ], [ 86.45647, 22.88806 ], [ 86.45625, 22.88577 ], [ 86.45343, 22.88586 ], [ 86.45481, 22.87858 ], [ 86.45393, 22.87683 ], [ 86.45306, 22.8768 ], [ 86.45306, 22.87359 ], [ 86.45198, 22.87292 ], [ 86.45236, 22.86854 ], [ 86.45077, 22.86153 ], [ 86.43969, 22.86426 ], [ 86.43811, 22.86386 ], [ 86.43747, 22.86242 ], [ 86.43497, 22.86051 ], [ 86.43588, 22.85912 ], [ 86.4334, 22.85336 ], [ 86.43585, 22.83978 ], [ 86.43555, 22.83592 ], [ 86.43885, 22.83102 ], [ 86.4361, 22.82888 ], [ 86.42848, 22.81934 ], [ 86.42252, 22.80998 ], [ 86.42525, 22.80654 ], [ 86.42339, 22.80216 ], [ 86.42543, 22.7991 ], [ 86.42336, 22.79831 ], [ 86.42256, 22.79687 ], [ 86.42346, 22.79432 ], [ 86.42327, 22.79192 ], [ 86.42233, 22.79161 ], [ 86.42096, 22.79281 ], [ 86.41881, 22.79068 ], [ 86.41654, 22.79153 ], [ 86.41648, 22.78987 ], [ 86.41439, 22.79181 ], [ 86.4039, 22.79519 ], [ 86.40158, 22.80003 ], [ 86.3972, 22.80054 ], [ 86.39449, 22.8045 ], [ 86.39157, 22.80601 ], [ 86.38908, 22.80549 ], [ 86.38742, 22.80681 ], [ 86.38643, 22.8065 ], [ 86.38505, 22.80801 ], [ 86.37301, 22.81103 ], [ 86.36922, 22.81289 ], [ 86.36547, 22.81335 ], [ 86.36252, 22.81247 ], [ 86.35457, 22.81321 ], [ 86.34937, 22.81703 ], [ 86.34636, 22.81715 ], [ 86.34193, 22.81934 ], [ 86.33761, 22.81988 ], [ 86.32651, 22.8233 ], [ 86.32251, 22.82527 ], [ 86.32046, 22.8253 ], [ 86.31667, 22.82721 ], [ 86.3116, 22.82832 ], [ 86.30153, 22.83413 ], [ 86.30446, 22.83551 ], [ 86.30846, 22.84234 ], [ 86.3176, 22.84066 ], [ 86.3188, 22.84096 ], [ 86.31946, 22.84246 ], [ 86.31821, 22.84331 ], [ 86.31747, 22.84584 ], [ 86.31713, 22.85216 ], [ 86.31596, 22.85471 ], [ 86.31638, 22.85879 ], [ 86.32112, 22.86319 ], [ 86.32104, 22.8659 ], [ 86.31916, 22.86947 ], [ 86.31969, 22.87135 ], [ 86.31394, 22.87765 ], [ 86.30687, 22.87874 ], [ 86.30846, 22.88488 ], [ 86.30582, 22.88711 ], [ 86.31019, 22.89673 ], [ 86.30831, 22.90041 ], [ 86.3118, 22.90116 ], [ 86.31243, 22.90304 ], [ 86.31699, 22.90565 ], [ 86.3237, 22.90397 ], [ 86.33382, 22.91119 ], [ 86.33615, 22.91516 ], [ 86.33678, 22.92117 ], [ 86.33493, 22.92478 ], [ 86.33707, 22.9249 ], [ 86.33961, 22.92625 ], [ 86.34632, 22.93243 ], [ 86.34778, 22.93695 ], [ 86.35246, 22.93832 ], [ 86.35502, 22.94019 ], [ 86.35323, 22.94477 ], [ 86.35552, 22.94681 ], [ 86.354, 22.95016 ], [ 86.35693, 22.95254 ], [ 86.35988, 22.95882 ], [ 86.36667, 22.95869 ], [ 86.36678, 22.96086 ], [ 86.37278, 22.96514 ], [ 86.38177, 22.97401 ], [ 86.38248, 22.97711 ], [ 86.38701, 22.97775 ], [ 86.3876, 22.98043 ], [ 86.39173, 22.9824 ], [ 86.3948, 22.98022 ], [ 86.40035, 22.98034 ], [ 86.40689, 22.98972 ], [ 86.40841, 22.98906 ], [ 86.41006, 22.99113 ], [ 86.41329, 22.99081 ], [ 86.41716, 22.9932 ], [ 86.41733, 22.99705 ], [ 86.41975, 22.99688 ], [ 86.41825, 22.99921 ], [ 86.4192, 23.00025 ], [ 86.4253, 22.99717 ] ] ] } },
{ "type": "Feature", "properties": { "OBJECTID": 5736, "state_lgd": "20", "state_name": "JHARKHAND", "district_lgd": "357", "district_name": "EAST SINGHBHUM", "district_name_source": "district_table", "subdistrict_lgd": "02608", "subdistrict_name": "POTKA", "subdistrict_type": "", "name_corrupted": false, "remarks": "", "label_lon": 86.236857064078848, "label_lat": 22.587906739738894 }, "geometry": { "type": "Polygon", "coordinates": [ [ [ 86.35647, 22.73347 ], [ 86.35714, 22.7262 ], [ 86.35964, 22.72359 ], [ 86.37238, 22.71566 ], [ 86.37957, 22.70887 ], [ 86.38057, 22.70578 ], [ 86.37975, 22.69843 ], [ 86.37293, 22.68733 ], [ 86.37155, 22.68308 ], [ 86.37318, 22.67688 ], [ 86.37697, 22.67016 ], [ 86.38003, 22.65864 ], [ 86.37429, 22.65909 ], [ 86.36958, 22.66129 ], [ 86.3616, 22.66079 ], [ 86.35704, 22.66363 ], [ 86.35005, 22.66579 ], [ 86.34957, 22.6668 ], [ 86.35085, 22.66996 ], [ 86.34738, 22.6731 ], [ 86.34119, 22.6757 ], [ 86.34117, 22.66734 ], [ 86.33517, 22.65486 ], [ 86.33525, 22.65333 ], [ 86.33909, 22.65119 ], [ 86.3422, 22.64775 ], [ 86.34092, 22.64209 ], [ 86.34012, 22.6412 ], [ 86.33898, 22.64152 ], [ 86.33407, 22.64635 ], [ 86.33311, 22.64563 ], [ 86.33223, 22.64411 ], [ 86.33236, 22.64145 ], [ 86.32729, 22.63833 ], [ 86.32653, 22.62993 ], [ 86.32708, 22.62421 ], [ 86.32994, 22.62412 ], [ 86.33099, 22.62321 ], [ 86.33393, 22.61702 ], [ 86.33422, 22.61363 ], [ 86.34022, 22.60736 ], [ 86.34243, 22.60641 ], [ 86.3415, 22.60414 ], [ 86.34354, 22.5997 ], [ 86.35484, 22.59311 ], [ 86.3563, 22.58947 ], [ 86.35483, 22.58418 ], [ 86.35067, 22.57864 ], [ 86.35284, 22.57532 ], [ 86.35325, 22.56612 ], [ 86.35466, 22.56397 ], [ 86.35395, 22.55747 ], [ 86.35742, 22.54704 ], [ 86.35626, 22.54479 ], [ 86.35099, 22.5409 ], [ 86.34844, 22.53735 ], [ 86.34385, 22.52555 ], [ 86.34337, 22.52248 ], [ 86.34127, 22.52019 ], [ 86.339, 22.51994 ], [ 86.33491, 22.52095 ], [ 86.32795, 22.52393 ], [ 86.32465, 22.5267 ], [ 86.32205, 22.52646 ], [ 86.31872, 22.52786 ], [ 86.31262, 22.51955 ], [ 86.3127, 22.51772 ], [ 86.30953, 22.51336 ], [ 86.30804, 22.50881 ], [ 86.30096, 22.50727 ], [ 86.30007, 22.50878 ], [ 86.29851, 22.50923 ], [ 86.29611, 22.50811 ], [ 86.294, 22.50852 ], [ 86.28415, 22.50479 ], [ 86.28412, 22.50092 ], [ 86.27978, 22.49718 ], [ 86.28185, 22.4943 ], [ 86.28387, 22.48774 ], [ 86.2907, 22.47911 ], [ 86.29095, 22.47716 ], [ 86.29076, 22.47309 ], [ 86.28887, 22.46697 ], [ 86.28615, 22.46327 ], [ 86.28599, 22.46202 ], [ 86.29054, 22.4588 ], [ 86.28925, 22.45375 ], [ 86.28688, 22.44993 ], [ 86.28158, 22.44794 ], [ 86.2813, 22.44866 ], [ 86.27646, 22.44732 ], [ 86.26846, 22.44217 ], [ 86.26394, 22.44534 ], [ 86.2566, 22.44541 ], [ 86.252, 22.44792 ], [ 86.24661, 22.44814 ], [ 86.23725, 22.45259 ], [ 86.22788, 22.4532 ], [ 86.22467, 22.45252 ], [ 86.2174, 22.46261 ], [ 86.22258, 22.46725 ], [ 86.22091, 22.46782 ], [ 86.21388, 22.46644 ], [ 86.20793, 22.47349 ], [ 86.20154, 22.47177 ], [ 86.19726, 22.47235 ], [ 86.18309, 22.478 ], [ 86.16978, 22.48152 ], [ 86.16048, 22.48255 ], [ 86.15632, 22.48036 ], [ 86.15028, 22.48021 ], [ 86.15116, 22.48246 ], [ 86.15033, 22.48335 ], [ 86.12375, 22.4886 ], [ 86.11963, 22.48676 ], [ 86.1176, 22.48666 ], [ 86.11112, 22.49105 ], [ 86.10275, 22.50024 ], [ 86.10225, 22.50378 ], [ 86.10024, 22.50813 ], [ 86.09715, 22.51033 ], [ 86.09488, 22.5195 ], [ 86.08817, 22.52668 ], [ 86.08651, 22.53014 ], [ 86.07925, 22.53755 ], [ 86.07546, 22.54411 ], [ 86.06735, 22.55104 ], [ 86.06549, 22.55498 ], [ 86.06774, 22.55641 ], [ 86.08067, 22.56966 ], [ 86.09253, 22.57509 ], [ 86.10211, 22.58106 ], [ 86.10401, 22.58276 ], [ 86.10722, 22.5891 ], [ 86.11411, 22.59599 ], [ 86.1164, 22.6006 ], [ 86.11672, 22.60385 ], [ 86.11834, 22.60529 ], [ 86.12226, 22.60653 ], [ 86.12811, 22.61166 ], [ 86.13154, 22.61301 ], [ 86.14701, 22.62534 ], [ 86.14893, 22.62871 ], [ 86.14922, 22.6317 ], [ 86.15395, 22.6349 ], [ 86.15494, 22.6364 ], [ 86.15753, 22.64486 ], [ 86.15678, 22.64693 ], [ 86.16077, 22.65328 ], [ 86.16315, 22.65872 ], [ 86.16361, 22.6621 ], [ 86.16683, 22.66885 ], [ 86.16564, 22.67398 ], [ 86.17033, 22.6726 ], [ 86.17424, 22.6734 ], [ 86.17537, 22.67529 ], [ 86.17561, 22.67786 ], [ 86.18047, 22.68045 ], [ 86.18275, 22.67971 ], [ 86.18392, 22.67746 ], [ 86.18519, 22.67736 ], [ 86.19081, 22.67278 ], [ 86.19274, 22.68048 ], [ 86.19446, 22.68256 ], [ 86.2056, 22.68514 ], [ 86.21444, 22.68212 ], [ 86.21762, 22.68469 ], [ 86.21577, 22.6859 ], [ 86.21758, 22.6863 ], [ 86.21641, 22.68727 ], [ 86.21752, 22.69782 ], [ 86.22272, 22.69997 ], [ 86.22998, 22.69946 ], [ 86.23622, 22.69447 ], [ 86.23816, 22.69475 ], [ 86.23964, 22.69684 ], [ 86.24526, 22.69816 ], [ 86.24982, 22.70033 ], [ 86.25314, 22.70084 ], [ 86.2552, 22.70027 ], [ 86.26383, 22.70719 ], [ 86.26873, 22.71273 ], [ 86.26717, 22.71701 ], [ 86.26371, 22.71952 ], [ 86.26175, 22.71976 ], [ 86.26162, 22.72057 ], [ 86.26507, 22.72725 ], [ 86.27014, 22.73165 ], [ 86.27244, 22.72713 ], [ 86.2773, 22.7236 ], [ 86.27977, 22.72333 ], [ 86.2818, 22.72094 ], [ 86.28402, 22.72031 ], [ 86.28655, 22.72174 ], [ 86.2903, 22.72851 ], [ 86.29466, 22.73 ], [ 86.29862, 22.7329 ], [ 86.30851, 22.73619 ], [ 86.30989, 22.73613 ], [ 86.31425, 22.73232 ], [ 86.32009, 22.72988 ], [ 86.33416, 22.72953 ], [ 86.33742, 22.72985 ], [ 86.34552, 22.73482 ], [ 86.35047, 22.73701 ], [ 86.35244, 22.73712 ], [ 86.35536, 22.73548 ], [ 86.35647, 22.73347 ] ] ] } }
]
}
