{
"type": "FeatureCollection",
"name": "366_GUMLA",
"crs": { "type": "name", "properties": { "name": "urn:ogc:def:crs:OGC:1.3:CRS84" } },
"xy_coordinate_resolution": 1e-05,
"features": [
{ "type": "Feature", "properties": { "OBJECTID": 5531, "state_lgd": "20", "state_name": "JHARKHAND", "district_lgd": "366", "district_name": "GUMLA", "district_name_source": "district_table", "subdistrict_lgd": "02715", "subdistrict_name": "ALBERT EKKA (JARI)", "subdistrict_type": "", "name_corrupted": false, "remarks": "", "label_lon": 84.21640186127442, "label_lat": 23.038368198938382 }, "geometry": { "type": "Polygon", "coordinates": [ [ [ 84.24029, 23.10903 ], [ 84.24805, 23.10438 ], [ 84.24914, 23.10302 ], [ 84.24966, 23.09938 ], [ 84.24887, 23.09477 ], [ 84.25206, 23.09066 ], [ 84.25283, 23.0871 ], [ 84.25579, 23.08601 ], [ 84.25999, 23.08653 ], [ 84.26219, 23.08482 ], [ 84.26412, 23.08066 ], [ 84.26414, 23.0743 ], [ 84.26508, 23.07315 ], [ 84.26763, 23.07207 ], [ 84.27389, 23.07208 ], [ 84.27932, 23.06953 ], [ 84.28283, 23.06688 ], [ 84.29077, 23.0657 ], [ 84.29139, 23.06346 ], [ 84.28806, 23.06118 ], [ 84.28602, 23.05801 ], [ 84.28682, 23.05605 ], [ 84.28893, 23.0547 ], [ 84.29087, 23.05185 ], [ 84.29263, 23.0469 ], [ 84.29593, 23.04331 ], [ 84.3067, 23.04335 ], [ 84.3096, 23.04087 ], [ 84.30913, 23.0377 ], [ 84.30522, 23.03587 ], [ 84.30473, 23.03427 ], [ 84.30286, 23.03336 ], [ 84.30207, 23.03155 ], [ 84.30406, 23.02787 ], [ 84.30452, 23.02298 ], [ 84.30589, 23.02147 ], [ 84.305, 23.01879 ], [ 84.30309, 23.01755 ], [ 84.30227, 23.01505 ], [ 84.29644, 23.0071 ], [ 84.30011, 23.0014 ], [ 84.303, 22.99963 ], [ 84.30573, 22.99962 ], [ 84.30792, 22.99812 ], [ 84.3106, 22.99729 ], [ 84.3111, 22.99774 ], [ 84.31249, 22.9963 ], [ 84.31318, 22.98382 ], [ 84.31746, 22.97972 ], [ 84.32072, 22.97793 ], [ 84.31928, 22.97721 ], [ 84.31898, 22.97361 ], [ 84.31292, 22.97186 ], [ 84.31078, 22.96901 ], [ 84.30763, 22.96743 ], [ 84.30205, 22.96715 ], [ 84.29055, 22.96395 ], [ 84.28109, 22.96369 ], [ 84.27877, 22.96691 ], [ 84.27913, 22.971 ], [ 84.27708, 22.97176 ], [ 84.27712, 22.97429 ], [ 84.27589, 22.97539 ], [ 84.27543, 22.97935 ], [ 84.27385, 22.98209 ], [ 84.27417, 22.98428 ], [ 84.27607, 22.98421 ], [ 84.27663, 22.98605 ], [ 84.27853, 22.98704 ], [ 84.27783, 22.98804 ], [ 84.27824, 22.98934 ], [ 84.27671, 22.99067 ], [ 84.2785, 22.99193 ], [ 84.27782, 22.99337 ], [ 84.27479, 22.99207 ], [ 84.27422, 22.9902 ], [ 84.27137, 22.98997 ], [ 84.27055, 22.98922 ], [ 84.2702, 22.98744 ], [ 84.26761, 22.98528 ], [ 84.26713, 22.9832 ], [ 84.26497, 22.98136 ], [ 84.2629, 22.98084 ], [ 84.26265, 22.97882 ], [ 84.26131, 22.97859 ], [ 84.2611, 22.97715 ], [ 84.25302, 22.97293 ], [ 84.25056, 22.97283 ], [ 84.24881, 22.97382 ], [ 84.2444, 22.97804 ], [ 84.24263, 22.98243 ], [ 84.24104, 22.98361 ], [ 84.23393, 22.98241 ], [ 84.23034, 22.98333 ], [ 84.22247, 22.98 ], [ 84.21871, 22.97929 ], [ 84.21656, 22.98904 ], [ 84.21057, 22.99522 ], [ 84.20768, 22.9999 ], [ 84.20085, 23.00534 ], [ 84.20138, 23.01056 ], [ 84.2029, 23.01217 ], [ 84.20345, 23.01446 ], [ 84.20167, 23.02107 ], [ 84.19674, 23.02421 ], [ 84.1858, 23.02709 ], [ 84.18496, 23.0257 ], [ 84.18158, 23.02553 ], [ 84.18024, 23.02444 ], [ 84.17943, 23.02153 ], [ 84.17955, 23.01743 ], [ 84.17812, 23.01203 ], [ 84.17524, 23.00954 ], [ 84.17579, 23.0059 ], [ 84.17869, 23.00055 ], [ 84.17839, 22.99949 ], [ 84.17569, 22.99823 ], [ 84.175, 22.99711 ], [ 84.17625, 22.9896 ], [ 84.1761, 22.98492 ], [ 84.17808, 22.98112 ], [ 84.17551, 22.97601 ], [ 84.17178, 22.97076 ], [ 84.16466, 22.96959 ], [ 84.15526, 22.96609 ], [ 84.14925, 22.96567 ], [ 84.1463, 22.97707 ], [ 84.14732, 22.98801 ], [ 84.14009, 23.00185 ], [ 84.13818, 23.00402 ], [ 84.14007, 23.00739 ], [ 84.1402, 23.00957 ], [ 84.13877, 23.01061 ], [ 84.13459, 23.01733 ], [ 84.13395, 23.02021 ], [ 84.13122, 23.02235 ], [ 84.13049, 23.02549 ], [ 84.12899, 23.02648 ], [ 84.12697, 23.03119 ], [ 84.12555, 23.03648 ], [ 84.12697, 23.04419 ], [ 84.12523, 23.04554 ], [ 84.12473, 23.04785 ], [ 84.12738, 23.05905 ], [ 84.13258, 23.06536 ], [ 84.13389, 23.06863 ], [ 84.13415, 23.0708 ], [ 84.1328, 23.0742 ], [ 84.13443, 23.07941 ], [ 84.13346, 23.08309 ], [ 84.13195, 23.08463 ], [ 84.12617, 23.08933 ], [ 84.12444, 23.08921 ], [ 84.12512, 23.08986 ], [ 84.12507, 23.092 ], [ 84.12654, 23.09095 ], [ 84.12823, 23.092 ], [ 84.12926, 23.09171 ], [ 84.12972, 23.09265 ], [ 84.13263, 23.09273 ], [ 84.13593, 23.09092 ], [ 84.13751, 23.09138 ], [ 84.13873, 23.08977 ], [ 84.14039, 23.09052 ], [ 84.14501, 23.08966 ], [ 84.14803, 23.09119 ], [ 84.14843, 23.09215 ], [ 84.15193, 23.09311 ], [ 84.1524, 23.09858 ], [ 84.15949, 23.10337 ], [ 84.15883, 23.10489 ], [ 84.16001, 23.10669 ], [ 84.16283, 23.10629 ], [ 84.16221, 23.10784 ], [ 84.16394, 23.11029 ], [ 84.16635, 23.11103 ], [ 84.16771, 23.11071 ], [ 84.16724, 23.10792 ], [ 84.16833, 23.10492 ], [ 84.16817, 23.1022 ], [ 84.17013, 23.10465 ], [ 84.17231, 23.10478 ], [ 84.17459, 23.1042 ], [ 84.17705, 23.10228 ], [ 84.17893, 23.1022 ], [ 84.17997, 23.10331 ], [ 84.18057, 23.10657 ], [ 84.18299, 23.10796 ], [ 84.18521, 23.10493 ], [ 84.18813, 23.10488 ], [ 84.18936, 23.10679 ], [ 84.19176, 23.10747 ], [ 84.19525, 23.10498 ], [ 84.20052, 23.10385 ], [ 84.20849, 23.10889 ], [ 84.2095, 23.10891 ], [ 84.21058, 23.10665 ], [ 84.2131, 23.1061 ], [ 84.22377, 23.10811 ], [ 84.2294, 23.10648 ], [ 84.23368, 23.10782 ], [ 84.2373, 23.11001 ], [ 84.24029, 23.10903 ] ] ] } },
{ "type": "Feature", "properties": { "OBJECTID": 5553, "state_lgd": "20", "state_name": "JHARKHAND", "district_lgd": "366", "district_name": "GUMLA", "district_name_source": "district_table", "subdistrict_lgd": "02711", "subdistrict_name": "BASIA", "subdistrict_type": "", "name_corrupted": false, "remarks": "", "label_lon": 84.803962072839525, "label_lat": 22.895591331266012 }, "geometry": { "type": "Polygon", "coordinates": [ [ [ 84.75913, 23.07202 ], [ 84.76543, 23.0691 ], [ 84.76777, 23.06547 ], [ 84.77104, 23.06577 ], [ 84.77663, 23.05971 ], [ 84.78308, 23.05913 ], [ 84.78915, 23.05561 ], [ 84.79093, 23.05311 ], [ 84.79087, 23.05131 ], [ 84.80034, 23.04969 ], [ 84.79902, 23.04545 ], [ 84.80491, 23.03938 ], [ 84.80719, 23.03915 ], [ 84.80817, 23.03775 ], [ 84.80911, 23.03789 ], [ 84.81084, 23.03397 ], [ 84.81759, 23.03359 ], [ 84.82001, 23.03541 ], [ 84.82272, 23.0356 ], [ 84.82398, 23.0379 ], [ 84.82723, 23.03792 ], [ 84.8347, 23.03979 ], [ 84.83572, 23.04111 ], [ 84.83695, 23.04112 ], [ 84.84187, 23.03917 ], [ 84.84465, 23.03889 ], [ 84.85557, 23.03388 ], [ 84.86532, 23.03354 ], [ 84.86229, 23.02531 ], [ 84.86255, 23.02272 ], [ 84.86412, 23.0197 ], [ 84.86708, 23.02165 ], [ 84.87005, 23.02109 ], [ 84.87356, 23.01784 ], [ 84.87573, 23.01386 ], [ 84.87886, 23.01169 ], [ 84.88025, 23.00949 ], [ 84.88002, 23.00621 ], [ 84.87733, 23.0017 ], [ 84.87289, 23.00078 ], [ 84.86908, 22.99759 ], [ 84.86206, 22.99754 ], [ 84.86164, 22.99973 ], [ 84.85832, 23.00245 ], [ 84.85091, 23.00484 ], [ 84.84946, 23.00451 ], [ 84.84735, 23.0007 ], [ 84.84629, 22.99501 ], [ 84.8496, 22.99405 ], [ 84.84322, 22.98032 ], [ 84.8452, 22.98032 ], [ 84.85544, 22.9725 ], [ 84.85785, 22.97162 ], [ 84.86047, 22.97304 ], [ 84.86609, 22.9713 ], [ 84.86881, 22.96935 ], [ 84.87401, 22.96949 ], [ 84.87314, 22.96782 ], [ 84.87355, 22.96541 ], [ 84.86995, 22.96118 ], [ 84.86807, 22.95655 ], [ 84.86696, 22.95567 ], [ 84.86853, 22.95456 ], [ 84.86776, 22.9515 ], [ 84.86634, 22.95059 ], [ 84.86679, 22.94876 ], [ 84.86583, 22.94671 ], [ 84.8645, 22.93595 ], [ 84.8638, 22.9351 ], [ 84.85821, 22.9356 ], [ 84.85692, 22.93296 ], [ 84.85234, 22.92803 ], [ 84.85197, 22.9255 ], [ 84.85071, 22.92368 ], [ 84.84893, 22.92484 ], [ 84.84642, 22.92382 ], [ 84.846, 22.92185 ], [ 84.84815, 22.91782 ], [ 84.84885, 22.91777 ], [ 84.84798, 22.91662 ], [ 84.84738, 22.91711 ], [ 84.84682, 22.91174 ], [ 84.84482, 22.90658 ], [ 84.84041, 22.90159 ], [ 84.84336, 22.9004 ], [ 84.84283, 22.90016 ], [ 84.8434, 22.89941 ], [ 84.84471, 22.89938 ], [ 84.84806, 22.89301 ], [ 84.84646, 22.88979 ], [ 84.84699, 22.88938 ], [ 84.84632, 22.88598 ], [ 84.85085, 22.88448 ], [ 84.8503, 22.88248 ], [ 84.85526, 22.88172 ], [ 84.857, 22.88214 ], [ 84.86336, 22.88021 ], [ 84.86512, 22.87575 ], [ 84.86393, 22.87208 ], [ 84.86402, 22.86754 ], [ 84.86202, 22.86349 ], [ 84.8616, 22.85333 ], [ 84.86302, 22.84831 ], [ 84.85893, 22.84329 ], [ 84.8592, 22.84165 ], [ 84.85652, 22.83762 ], [ 84.86102, 22.83511 ], [ 84.86804, 22.82804 ], [ 84.87166, 22.82599 ], [ 84.88035, 22.83022 ], [ 84.89349, 22.82806 ], [ 84.89992, 22.82785 ], [ 84.89722, 22.81932 ], [ 84.89466, 22.81581 ], [ 84.89144, 22.8167 ], [ 84.88946, 22.81614 ], [ 84.88926, 22.81524 ], [ 84.88661, 22.81582 ], [ 84.886, 22.81488 ], [ 84.88652, 22.81421 ], [ 84.88505, 22.81365 ], [ 84.88386, 22.81144 ], [ 84.88546, 22.81112 ], [ 84.88955, 22.80554 ], [ 84.89117, 22.80469 ], [ 84.89041, 22.80366 ], [ 84.89411, 22.80036 ], [ 84.89375, 22.79933 ], [ 84.89506, 22.79811 ], [ 84.8937, 22.79769 ], [ 84.8935, 22.79451 ], [ 84.89458, 22.79408 ], [ 84.89531, 22.7949 ], [ 84.89566, 22.79138 ], [ 84.89395, 22.7907 ], [ 84.88911, 22.79357 ], [ 84.88324, 22.79361 ], [ 84.87929, 22.79538 ], [ 84.87739, 22.7949 ], [ 84.87782, 22.79345 ], [ 84.87467, 22.78725 ], [ 84.87311, 22.78882 ], [ 84.87295, 22.79079 ], [ 84.86624, 22.79296 ], [ 84.85919, 22.79273 ], [ 84.85936, 22.79043 ], [ 84.85801, 22.78943 ], [ 84.85706, 22.78977 ], [ 84.85609, 22.7878 ], [ 84.85385, 22.78761 ], [ 84.85137, 22.78979 ], [ 84.85027, 22.78668 ], [ 84.84898, 22.78564 ], [ 84.84956, 22.78137 ], [ 84.84783, 22.77052 ], [ 84.8462, 22.77094 ], [ 84.84501, 22.77008 ], [ 84.84327, 22.77021 ], [ 84.84108, 22.76796 ], [ 84.84168, 22.76584 ], [ 84.84103, 22.76467 ], [ 84.84175, 22.76311 ], [ 84.84144, 22.75706 ], [ 84.8435, 22.75371 ], [ 84.84642, 22.74572 ], [ 84.85552, 22.73079 ], [ 84.8577, 22.72398 ], [ 84.8595, 22.72379 ], [ 84.85868, 22.72255 ], [ 84.85661, 22.72274 ], [ 84.85653, 22.72203 ], [ 84.85799, 22.72172 ], [ 84.85782, 22.71996 ], [ 84.85552, 22.72151 ], [ 84.85375, 22.7211 ], [ 84.84855, 22.72223 ], [ 84.84345, 22.72483 ], [ 84.84171, 22.72675 ], [ 84.83887, 22.72684 ], [ 84.83478, 22.73 ], [ 84.83145, 22.73057 ], [ 84.83101, 22.73192 ], [ 84.83227, 22.73458 ], [ 84.83073, 22.73744 ], [ 84.83191, 22.7394 ], [ 84.83112, 22.74165 ], [ 84.82771, 22.745 ], [ 84.82471, 22.74644 ], [ 84.81997, 22.75048 ], [ 84.81937, 22.74923 ], [ 84.81634, 22.74705 ], [ 84.81451, 22.74338 ], [ 84.81452, 22.73609 ], [ 84.81669, 22.73162 ], [ 84.8155, 22.72716 ], [ 84.81751, 22.72282 ], [ 84.81939, 22.72093 ], [ 84.81867, 22.71828 ], [ 84.82129, 22.71599 ], [ 84.81028, 22.70932 ], [ 84.80587, 22.7105 ], [ 84.806, 22.7118 ], [ 84.8036, 22.71286 ], [ 84.80292, 22.71401 ], [ 84.80147, 22.7136 ], [ 84.80158, 22.71198 ], [ 84.80053, 22.71179 ], [ 84.79652, 22.71508 ], [ 84.79689, 22.71696 ], [ 84.79619, 22.71793 ], [ 84.7922, 22.71962 ], [ 84.7902, 22.7188 ], [ 84.78774, 22.72076 ], [ 84.78656, 22.72323 ], [ 84.78788, 22.72563 ], [ 84.78592, 22.72657 ], [ 84.78819, 22.73075 ], [ 84.78787, 22.73615 ], [ 84.7896, 22.74332 ], [ 84.79168, 22.74821 ], [ 84.7917, 22.75243 ], [ 84.79415, 22.75483 ], [ 84.79359, 22.75558 ], [ 84.79466, 22.75985 ], [ 84.79386, 22.76165 ], [ 84.79397, 22.76493 ], [ 84.79256, 22.76467 ], [ 84.79233, 22.76772 ], [ 84.79315, 22.7686 ], [ 84.79239, 22.76953 ], [ 84.79253, 22.77221 ], [ 84.78929, 22.77182 ], [ 84.78579, 22.7686 ], [ 84.78574, 22.76467 ], [ 84.78434, 22.75878 ], [ 84.77876, 22.76357 ], [ 84.77541, 22.76501 ], [ 84.77637, 22.77036 ], [ 84.77469, 22.7787 ], [ 84.77475, 22.78236 ], [ 84.77976, 22.79128 ], [ 84.78051, 22.7952 ], [ 84.77502, 22.79355 ], [ 84.77212, 22.7894 ], [ 84.76901, 22.78956 ], [ 84.76581, 22.79277 ], [ 84.76271, 22.79195 ], [ 84.75311, 22.79376 ], [ 84.73417, 22.80187 ], [ 84.7305, 22.80101 ], [ 84.72526, 22.80532 ], [ 84.7193, 22.80687 ], [ 84.7212, 22.81049 ], [ 84.71939, 22.81489 ], [ 84.72091, 22.81561 ], [ 84.72288, 22.81534 ], [ 84.72503, 22.8167 ], [ 84.72756, 22.82399 ], [ 84.7267, 22.83036 ], [ 84.73115, 22.83293 ], [ 84.7348, 22.83184 ], [ 84.73715, 22.83258 ], [ 84.74207, 22.84038 ], [ 84.74336, 22.8409 ], [ 84.74232, 22.84267 ], [ 84.74389, 22.84467 ], [ 84.74352, 22.84652 ], [ 84.74496, 22.84834 ], [ 84.74411, 22.852 ], [ 84.74228, 22.85344 ], [ 84.74182, 22.85719 ], [ 84.74414, 22.85888 ], [ 84.74412, 22.8598 ], [ 84.74377, 22.86227 ], [ 84.74094, 22.86318 ], [ 84.74184, 22.86658 ], [ 84.74372, 22.86836 ], [ 84.74123, 22.8711 ], [ 84.73848, 22.87141 ], [ 84.73789, 22.87322 ], [ 84.74137, 22.87638 ], [ 84.74244, 22.87998 ], [ 84.74648, 22.88192 ], [ 84.74495, 22.88683 ], [ 84.74785, 22.89064 ], [ 84.75223, 22.89198 ], [ 84.75577, 22.88984 ], [ 84.75773, 22.89314 ], [ 84.75471, 22.89562 ], [ 84.75343, 22.90006 ], [ 84.7532, 22.90385 ], [ 84.75429, 22.91159 ], [ 84.75248, 22.91754 ], [ 84.74811, 22.92321 ], [ 84.74317, 22.92629 ], [ 84.74242, 22.92798 ], [ 84.74256, 22.93063 ], [ 84.74165, 22.93204 ], [ 84.73507, 22.93605 ], [ 84.73713, 22.94305 ], [ 84.7329, 22.94856 ], [ 84.73226, 22.95096 ], [ 84.73254, 22.95284 ], [ 84.74034, 22.95712 ], [ 84.74149, 22.95907 ], [ 84.74077, 22.96368 ], [ 84.73625, 22.97438 ], [ 84.73506, 22.98056 ], [ 84.74092, 22.98722 ], [ 84.74168, 22.98985 ], [ 84.74426, 22.9913 ], [ 84.74941, 22.99215 ], [ 84.7496, 22.99281 ], [ 84.74853, 22.99508 ], [ 84.74456, 22.99793 ], [ 84.74256, 23.00177 ], [ 84.73953, 23.00456 ], [ 84.73932, 23.00628 ], [ 84.74218, 23.01077 ], [ 84.74581, 23.01228 ], [ 84.75165, 23.01681 ], [ 84.75285, 23.02105 ], [ 84.75068, 23.02321 ], [ 84.75022, 23.02745 ], [ 84.75635, 23.02709 ], [ 84.7603, 23.0259 ], [ 84.76076, 23.02873 ], [ 84.76105, 23.03318 ], [ 84.75997, 23.03505 ], [ 84.75943, 23.03987 ], [ 84.75977, 23.04759 ], [ 84.75817, 23.04835 ], [ 84.75715, 23.05062 ], [ 84.75427, 23.05258 ], [ 84.7457, 23.05327 ], [ 84.74479, 23.05401 ], [ 84.74394, 23.057 ], [ 84.74536, 23.0582 ], [ 84.74734, 23.06233 ], [ 84.74953, 23.06993 ], [ 84.75668, 23.07232 ], [ 84.75913, 23.07202 ] ] ] } },
{ "type": "Feature", "properties": { "OBJECTID": 5610, "state_lgd": "20", "state_name": "JHARKHAND", "district_lgd": "366", "district_name": "GUMLA", "district_name_source": "district_table", "subdistrict_lgd": "02707", "subdistrict_name": "GHAGHRA", "subdistrict_type": "", "name_corrupted": false, "remarks": "", "label_lon": 84.503221815291027, "label_lat": 23.255630550318823 }, "geometry": { "type": "Polygon", "coordinates": [ [ [ 84.52528, 23.36508 ], [ 84.52762, 23.3656 ], [ 84.53461, 23.35353 ], [ 84.53593, 23.34979 ], [ 84.53989, 23.34557 ], [ 84.54205, 23.34443 ], [ 84.54805, 23.34344 ], [ 84.55721, 23.34634 ], [ 84.56386, 23.34593 ], [ 84.56623, 23.34225 ], [ 84.57118, 23.34167 ], [ 84.57736, 23.33126 ], [ 84.58452, 23.32466 ], [ 84.58585, 23.32474 ], [ 84.58628, 23.32327 ], [ 84.58992, 23.32145 ], [ 84.59042, 23.31974 ], [ 84.59198, 23.31859 ], [ 84.59513, 23.31728 ], [ 84.59819, 23.31723 ], [ 84.5991, 23.31563 ], [ 84.60178, 23.31643 ], [ 84.60434, 23.31562 ], [ 84.60462, 23.3172 ], [ 84.60815, 23.31528 ], [ 84.60991, 23.31622 ], [ 84.61419, 23.32244 ], [ 84.62111, 23.31582 ], [ 84.62404, 23.31451 ], [ 84.62378, 23.31057 ], [ 84.62178, 23.30929 ], [ 84.61313, 23.29502 ], [ 84.6136, 23.29246 ], [ 84.61531, 23.28967 ], [ 84.61297, 23.27606 ], [ 84.61067, 23.27383 ], [ 84.6077, 23.27345 ], [ 84.60111, 23.26973 ], [ 84.59968, 23.26699 ], [ 84.60069, 23.26403 ], [ 84.60564, 23.2608 ], [ 84.61496, 23.25981 ], [ 84.62097, 23.255 ], [ 84.62485, 23.25401 ], [ 84.63469, 23.24521 ], [ 84.64919, 23.2455 ], [ 84.65123, 23.24437 ], [ 84.65303, 23.24116 ], [ 84.65541, 23.23849 ], [ 84.65644, 23.23828 ], [ 84.66082, 23.23973 ], [ 84.66683, 23.24019 ], [ 84.66917, 23.23953 ], [ 84.66982, 23.23545 ], [ 84.67133, 23.23274 ], [ 84.67513, 23.2295 ], [ 84.6772, 23.22542 ], [ 84.67984, 23.22272 ], [ 84.68326, 23.22322 ], [ 84.68512, 23.22229 ], [ 84.68709, 23.2169 ], [ 84.68702, 23.21498 ], [ 84.68151, 23.21411 ], [ 84.67448, 23.21546 ], [ 84.67246, 23.21448 ], [ 84.67211, 23.21283 ], [ 84.67459, 23.20821 ], [ 84.6747, 23.20611 ], [ 84.67314, 23.20459 ], [ 84.66536, 23.20387 ], [ 84.66333, 23.20262 ], [ 84.66202, 23.19436 ], [ 84.66233, 23.18483 ], [ 84.65818, 23.17972 ], [ 84.66021, 23.16822 ], [ 84.65793, 23.16602 ], [ 84.65371, 23.16432 ], [ 84.64864, 23.15729 ], [ 84.64862, 23.15559 ], [ 84.65062, 23.15086 ], [ 84.65307, 23.14812 ], [ 84.65349, 23.14409 ], [ 84.65311, 23.1427 ], [ 84.64837, 23.13704 ], [ 84.64883, 23.13266 ], [ 84.64752, 23.13052 ], [ 84.64622, 23.12986 ], [ 84.64422, 23.13071 ], [ 84.63972, 23.13403 ], [ 84.6354, 23.13607 ], [ 84.63136, 23.13631 ], [ 84.62641, 23.13537 ], [ 84.61518, 23.13803 ], [ 84.61038, 23.13833 ], [ 84.60647, 23.13723 ], [ 84.60649, 23.14177 ], [ 84.60508, 23.14203 ], [ 84.60235, 23.13954 ], [ 84.6015, 23.13956 ], [ 84.59869, 23.14157 ], [ 84.59462, 23.14235 ], [ 84.59082, 23.14705 ], [ 84.58667, 23.14731 ], [ 84.58344, 23.14928 ], [ 84.57916, 23.15363 ], [ 84.56873, 23.15884 ], [ 84.56859, 23.16288 ], [ 84.56219, 23.16098 ], [ 84.55796, 23.16268 ], [ 84.55599, 23.16571 ], [ 84.55447, 23.17069 ], [ 84.55315, 23.17221 ], [ 84.54977, 23.17334 ], [ 84.54686, 23.17565 ], [ 84.54566, 23.17604 ], [ 84.5441, 23.17322 ], [ 84.54138, 23.1718 ], [ 84.53673, 23.17504 ], [ 84.53335, 23.1742 ], [ 84.53102, 23.17632 ], [ 84.53063, 23.17949 ], [ 84.5291, 23.18155 ], [ 84.51731, 23.18464 ], [ 84.51259, 23.18718 ], [ 84.5072, 23.1883 ], [ 84.5026, 23.18646 ], [ 84.49461, 23.18491 ], [ 84.49267, 23.18322 ], [ 84.49063, 23.18297 ], [ 84.48907, 23.18175 ], [ 84.48553, 23.18155 ], [ 84.48512, 23.18344 ], [ 84.48827, 23.1897 ], [ 84.48861, 23.19414 ], [ 84.49055, 23.19693 ], [ 84.49428, 23.19692 ], [ 84.4964, 23.19813 ], [ 84.49846, 23.20007 ], [ 84.49924, 23.20234 ], [ 84.49573, 23.20974 ], [ 84.49202, 23.21317 ], [ 84.49163, 23.21532 ], [ 84.49229, 23.21796 ], [ 84.48823, 23.21804 ], [ 84.48285, 23.21955 ], [ 84.48216, 23.22272 ], [ 84.47709, 23.22082 ], [ 84.47478, 23.21844 ], [ 84.4761, 23.21567 ], [ 84.48328, 23.20753 ], [ 84.48216, 23.19722 ], [ 84.48101, 23.19804 ], [ 84.48122, 23.20004 ], [ 84.47957, 23.2014 ], [ 84.47451, 23.2012 ], [ 84.47065, 23.20304 ], [ 84.4665, 23.20186 ], [ 84.46397, 23.20228 ], [ 84.46331, 23.20514 ], [ 84.46222, 23.20631 ], [ 84.45513, 23.20621 ], [ 84.45455, 23.20828 ], [ 84.45258, 23.21022 ], [ 84.45534, 23.21751 ], [ 84.44745, 23.22144 ], [ 84.44169, 23.2262 ], [ 84.42912, 23.22676 ], [ 84.42611, 23.22778 ], [ 84.42436, 23.22966 ], [ 84.42123, 23.22514 ], [ 84.41524, 23.22106 ], [ 84.41084, 23.22324 ], [ 84.40589, 23.22424 ], [ 84.40064, 23.22722 ], [ 84.39814, 23.22274 ], [ 84.399, 23.22109 ], [ 84.39368, 23.21629 ], [ 84.38927, 23.21348 ], [ 84.38177, 23.21024 ], [ 84.37817, 23.21163 ], [ 84.37657, 23.21136 ], [ 84.36876, 23.20714 ], [ 84.36395, 23.19994 ], [ 84.36351, 23.19461 ], [ 84.3614, 23.19262 ], [ 84.35959, 23.19248 ], [ 84.35382, 23.194 ], [ 84.34817, 23.19273 ], [ 84.34719, 23.19454 ], [ 84.34755, 23.19652 ], [ 84.34265, 23.1968 ], [ 84.33362, 23.19955 ], [ 84.33265, 23.19853 ], [ 84.32833, 23.19944 ], [ 84.31465, 23.20551 ], [ 84.31139, 23.2061 ], [ 84.31166, 23.20762 ], [ 84.31487, 23.20998 ], [ 84.31498, 23.21199 ], [ 84.31374, 23.21521 ], [ 84.31558, 23.21805 ], [ 84.31488, 23.22052 ], [ 84.30509, 23.22326 ], [ 84.30285, 23.22248 ], [ 84.3004, 23.21969 ], [ 84.29871, 23.21986 ], [ 84.29596, 23.22079 ], [ 84.29402, 23.22269 ], [ 84.29504, 23.22713 ], [ 84.29898, 23.23172 ], [ 84.30006, 23.23531 ], [ 84.29937, 23.23803 ], [ 84.29777, 23.23976 ], [ 84.29837, 23.24449 ], [ 84.29626, 23.2491 ], [ 84.29623, 23.25348 ], [ 84.30239, 23.25644 ], [ 84.30056, 23.26553 ], [ 84.30178, 23.26688 ], [ 84.30134, 23.26923 ], [ 84.30419, 23.27049 ], [ 84.30548, 23.27403 ], [ 84.30717, 23.27499 ], [ 84.31454, 23.27534 ], [ 84.32393, 23.27736 ], [ 84.33723, 23.28189 ], [ 84.34584, 23.28043 ], [ 84.34777, 23.27958 ], [ 84.34889, 23.27796 ], [ 84.3505, 23.27857 ], [ 84.35469, 23.27729 ], [ 84.36048, 23.27906 ], [ 84.36618, 23.28429 ], [ 84.36948, 23.28532 ], [ 84.37413, 23.28538 ], [ 84.37593, 23.29012 ], [ 84.37575, 23.29218 ], [ 84.37619, 23.29275 ], [ 84.37788, 23.29245 ], [ 84.38067, 23.29431 ], [ 84.38219, 23.29817 ], [ 84.38191, 23.2998 ], [ 84.3843, 23.30264 ], [ 84.38672, 23.30245 ], [ 84.39346, 23.29726 ], [ 84.39653, 23.30142 ], [ 84.40064, 23.30402 ], [ 84.40211, 23.30816 ], [ 84.40449, 23.31023 ], [ 84.4126, 23.30609 ], [ 84.41329, 23.30643 ], [ 84.41272, 23.31007 ], [ 84.42218, 23.32739 ], [ 84.42228, 23.33026 ], [ 84.41898, 23.33414 ], [ 84.42009, 23.33454 ], [ 84.42917, 23.35173 ], [ 84.43532, 23.35837 ], [ 84.43421, 23.36157 ], [ 84.43754, 23.36449 ], [ 84.43663, 23.36607 ], [ 84.43321, 23.36763 ], [ 84.43589, 23.37368 ], [ 84.44266, 23.37544 ], [ 84.4489, 23.37304 ], [ 84.45411, 23.37467 ], [ 84.45804, 23.37481 ], [ 84.46045, 23.37718 ], [ 84.46878, 23.37948 ], [ 84.47297, 23.38251 ], [ 84.47337, 23.37796 ], [ 84.47253, 23.37571 ], [ 84.47243, 23.37003 ], [ 84.47644, 23.35906 ], [ 84.48173, 23.35853 ], [ 84.48206, 23.35691 ], [ 84.48441, 23.35598 ], [ 84.48723, 23.35227 ], [ 84.48814, 23.35361 ], [ 84.49208, 23.354 ], [ 84.49738, 23.35143 ], [ 84.49762, 23.35285 ], [ 84.50071, 23.35262 ], [ 84.50166, 23.35454 ], [ 84.5009, 23.3602 ], [ 84.50236, 23.3629 ], [ 84.50081, 23.36621 ], [ 84.5005, 23.37113 ], [ 84.50559, 23.37303 ], [ 84.50632, 23.3748 ], [ 84.50942, 23.37795 ], [ 84.51265, 23.38393 ], [ 84.51511, 23.38471 ], [ 84.52143, 23.37924 ], [ 84.5223, 23.37613 ], [ 84.52139, 23.36764 ], [ 84.52528, 23.36508 ] ] ] } },
{ "type": "Feature", "properties": { "OBJECTID": 5621, "state_lgd": "20", "state_name": "JHARKHAND", "district_lgd": "366", "district_name": "GUMLA", "district_name_source": "district_table", "subdistrict_lgd": "02712", "subdistrict_name": "GUMLA", "subdistrict_type": "", "name_corrupted": false, "remarks": "", "label_lon": 84.577373186156805, "label_lat": 23.075072445274174 }, "geometry": { "type": "Polygon", "coordinates": [ [ [ 84.42723, 23.22723 ], [ 84.44169, 23.2262 ], [ 84.44745, 23.22144 ], [ 84.45534, 23.21751 ], [ 84.45258, 23.21022 ], [ 84.45455, 23.20828 ], [ 84.45513, 23.20621 ], [ 84.46222, 23.20631 ], [ 84.46331, 23.20514 ], [ 84.46397, 23.20228 ], [ 84.4665, 23.20186 ], [ 84.47065, 23.20304 ], [ 84.47451, 23.2012 ], [ 84.47957, 23.2014 ], [ 84.48122, 23.20004 ], [ 84.48101, 23.19804 ], [ 84.48216, 23.19722 ], [ 84.48328, 23.20753 ], [ 84.4761, 23.21567 ], [ 84.47478, 23.21844 ], [ 84.47709, 23.22082 ], [ 84.48216, 23.22272 ], [ 84.48285, 23.21955 ], [ 84.48823, 23.21804 ], [ 84.49229, 23.21796 ], [ 84.49163, 23.21532 ], [ 84.49202, 23.21317 ], [ 84.49573, 23.20974 ], [ 84.49924, 23.20234 ], [ 84.49846, 23.20007 ], [ 84.4964, 23.19813 ], [ 84.49428, 23.19692 ], [ 84.49055, 23.19693 ], [ 84.48861, 23.19414 ], [ 84.48827, 23.1897 ], [ 84.48512, 23.18344 ], [ 84.48553, 23.18155 ], [ 84.48907, 23.18175 ], [ 84.49063, 23.18297 ], [ 84.49267, 23.18322 ], [ 84.49461, 23.18491 ], [ 84.5026, 23.18646 ], [ 84.5072, 23.1883 ], [ 84.51259, 23.18718 ], [ 84.51731, 23.18464 ], [ 84.52776, 23.18229 ], [ 84.52974, 23.18096 ], [ 84.53102, 23.17632 ], [ 84.53335, 23.1742 ], [ 84.53673, 23.17504 ], [ 84.54138, 23.1718 ], [ 84.5441, 23.17322 ], [ 84.54566, 23.17604 ], [ 84.54686, 23.17565 ], [ 84.54977, 23.17334 ], [ 84.55315, 23.17221 ], [ 84.55447, 23.17069 ], [ 84.55599, 23.16571 ], [ 84.55796, 23.16268 ], [ 84.56219, 23.16098 ], [ 84.56859, 23.16288 ], [ 84.56873, 23.15884 ], [ 84.57916, 23.15363 ], [ 84.58344, 23.14928 ], [ 84.58667, 23.14731 ], [ 84.59082, 23.14705 ], [ 84.59462, 23.14235 ], [ 84.59869, 23.14157 ], [ 84.6015, 23.13956 ], [ 84.60235, 23.13954 ], [ 84.60508, 23.14203 ], [ 84.60649, 23.14177 ], [ 84.60647, 23.13723 ], [ 84.61038, 23.13833 ], [ 84.61518, 23.13803 ], [ 84.62641, 23.13537 ], [ 84.63136, 23.13631 ], [ 84.6354, 23.13607 ], [ 84.64235, 23.13243 ], [ 84.65263, 23.12438 ], [ 84.65905, 23.12065 ], [ 84.66322, 23.11655 ], [ 84.66667, 23.11172 ], [ 84.67078, 23.11088 ], [ 84.67785, 23.11363 ], [ 84.67961, 23.11368 ], [ 84.68078, 23.11283 ], [ 84.68336, 23.10805 ], [ 84.68262, 23.10383 ], [ 84.68505, 23.09801 ], [ 84.68398, 23.09178 ], [ 84.68518, 23.08815 ], [ 84.6954, 23.08449 ], [ 84.70646, 23.077 ], [ 84.71974, 23.07118 ], [ 84.72625, 23.06558 ], [ 84.72703, 23.0628 ], [ 84.72621, 23.05439 ], [ 84.72652, 23.04231 ], [ 84.72931, 23.03906 ], [ 84.73745, 23.03282 ], [ 84.74455, 23.03138 ], [ 84.74757, 23.02986 ], [ 84.74951, 23.02736 ], [ 84.75022, 23.02745 ], [ 84.75068, 23.02321 ], [ 84.75285, 23.02105 ], [ 84.75165, 23.01681 ], [ 84.74581, 23.01228 ], [ 84.74218, 23.01077 ], [ 84.73932, 23.00628 ], [ 84.73953, 23.00456 ], [ 84.74256, 23.00177 ], [ 84.74456, 22.99793 ], [ 84.74853, 22.99508 ], [ 84.7496, 22.99281 ], [ 84.74941, 22.99215 ], [ 84.74426, 22.9913 ], [ 84.74168, 22.98985 ], [ 84.74092, 22.98722 ], [ 84.73506, 22.98056 ], [ 84.73662, 22.97318 ], [ 84.74127, 22.96193 ], [ 84.74093, 22.95772 ], [ 84.73254, 22.95284 ], [ 84.72994, 22.95586 ], [ 84.72507, 22.95734 ], [ 84.72079, 22.96022 ], [ 84.7113, 22.95968 ], [ 84.70975, 22.96093 ], [ 84.70937, 22.96548 ], [ 84.70845, 22.96724 ], [ 84.70708, 22.96897 ], [ 84.70521, 22.96902 ], [ 84.7032, 22.971 ], [ 84.70548, 22.97464 ], [ 84.70676, 22.97965 ], [ 84.70522, 22.9811 ], [ 84.69919, 22.98317 ], [ 84.69726, 22.98741 ], [ 84.69296, 22.98872 ], [ 84.69061, 22.98922 ], [ 84.6882, 22.98348 ], [ 84.68626, 22.98084 ], [ 84.6834, 22.97258 ], [ 84.68132, 22.97277 ], [ 84.68035, 22.97176 ], [ 84.67797, 22.96609 ], [ 84.67514, 22.9647 ], [ 84.67392, 22.96522 ], [ 84.67374, 22.96381 ], [ 84.668, 22.96495 ], [ 84.66345, 22.96353 ], [ 84.65725, 22.9657 ], [ 84.65431, 22.96803 ], [ 84.64692, 22.96776 ], [ 84.64367, 22.9699 ], [ 84.63909, 22.97062 ], [ 84.63769, 22.9736 ], [ 84.63594, 22.97456 ], [ 84.63454, 22.97396 ], [ 84.63283, 22.97159 ], [ 84.62815, 22.97147 ], [ 84.62554, 22.96936 ], [ 84.62237, 22.9705 ], [ 84.61919, 22.97216 ], [ 84.61695, 22.97526 ], [ 84.61804, 22.9879 ], [ 84.61301, 22.98988 ], [ 84.60743, 22.99027 ], [ 84.60418, 22.98978 ], [ 84.60211, 22.98797 ], [ 84.60324, 22.9852 ], [ 84.60093, 22.98052 ], [ 84.59988, 22.974 ], [ 84.59809, 22.97399 ], [ 84.59463, 22.97033 ], [ 84.58741, 22.97104 ], [ 84.58303, 22.97056 ], [ 84.57885, 22.97243 ], [ 84.57697, 22.97013 ], [ 84.57732, 22.96247 ], [ 84.57576, 22.96076 ], [ 84.56654, 22.96022 ], [ 84.56333, 22.95892 ], [ 84.55924, 22.9618 ], [ 84.56072, 22.96587 ], [ 84.56325, 22.9687 ], [ 84.56306, 22.97157 ], [ 84.56439, 22.97301 ], [ 84.56383, 22.97504 ], [ 84.56239, 22.97499 ], [ 84.56182, 22.97629 ], [ 84.55677, 22.9746 ], [ 84.55415, 22.97947 ], [ 84.55169, 22.97897 ], [ 84.54799, 22.9813 ], [ 84.54687, 22.97995 ], [ 84.54515, 22.97993 ], [ 84.54418, 22.98166 ], [ 84.54216, 22.98244 ], [ 84.54359, 22.98984 ], [ 84.53979, 22.99123 ], [ 84.53636, 22.99147 ], [ 84.53101, 22.99395 ], [ 84.52634, 22.99481 ], [ 84.52502, 22.99401 ], [ 84.52084, 22.99429 ], [ 84.51698, 22.99792 ], [ 84.51594, 23.00035 ], [ 84.5125, 23.00431 ], [ 84.51093, 23.00541 ], [ 84.50307, 23.00758 ], [ 84.50212, 23.00606 ], [ 84.50395, 23.00469 ], [ 84.504, 23.00336 ], [ 84.49414, 23.00366 ], [ 84.48529, 23.00155 ], [ 84.48543, 23.00863 ], [ 84.48817, 23.0117 ], [ 84.48843, 23.01964 ], [ 84.4878, 23.02428 ], [ 84.48304, 23.02465 ], [ 84.48557, 23.0328 ], [ 84.48874, 23.03552 ], [ 84.48686, 23.04007 ], [ 84.48638, 23.04941 ], [ 84.48486, 23.05018 ], [ 84.48057, 23.04901 ], [ 84.47527, 23.04926 ], [ 84.47204, 23.04816 ], [ 84.46988, 23.04858 ], [ 84.46338, 23.04779 ], [ 84.46194, 23.04507 ], [ 84.45986, 23.04569 ], [ 84.45907, 23.04464 ], [ 84.4569, 23.04611 ], [ 84.45427, 23.04562 ], [ 84.45292, 23.04649 ], [ 84.4529, 23.04713 ], [ 84.45933, 23.04993 ], [ 84.46228, 23.0525 ], [ 84.47016, 23.05672 ], [ 84.47129, 23.06023 ], [ 84.47116, 23.06188 ], [ 84.47008, 23.06316 ], [ 84.46514, 23.06301 ], [ 84.46238, 23.06571 ], [ 84.45937, 23.06668 ], [ 84.4562, 23.06589 ], [ 84.45505, 23.06874 ], [ 84.45436, 23.07371 ], [ 84.45637, 23.07543 ], [ 84.45499, 23.07943 ], [ 84.45558, 23.08263 ], [ 84.46316, 23.08356 ], [ 84.4665, 23.08318 ], [ 84.46778, 23.08351 ], [ 84.46884, 23.08508 ], [ 84.4689, 23.08692 ], [ 84.46726, 23.08807 ], [ 84.46662, 23.09099 ], [ 84.45854, 23.10101 ], [ 84.45935, 23.10232 ], [ 84.45972, 23.10673 ], [ 84.46266, 23.11217 ], [ 84.46223, 23.11439 ], [ 84.46007, 23.11696 ], [ 84.46011, 23.11942 ], [ 84.4554, 23.12557 ], [ 84.45273, 23.12682 ], [ 84.44323, 23.1263 ], [ 84.43854, 23.12746 ], [ 84.42637, 23.13673 ], [ 84.42628, 23.138 ], [ 84.42882, 23.14172 ], [ 84.43511, 23.14592 ], [ 84.43866, 23.15197 ], [ 84.436, 23.15373 ], [ 84.42856, 23.15464 ], [ 84.41868, 23.16346 ], [ 84.42108, 23.17008 ], [ 84.42042, 23.17332 ], [ 84.42344, 23.18033 ], [ 84.42467, 23.1874 ], [ 84.42411, 23.18966 ], [ 84.4277, 23.19335 ], [ 84.42457, 23.19491 ], [ 84.42534, 23.19881 ], [ 84.4286, 23.19924 ], [ 84.429, 23.19993 ], [ 84.4252, 23.201 ], [ 84.4239, 23.20715 ], [ 84.42424, 23.20948 ], [ 84.42226, 23.21027 ], [ 84.4198, 23.21294 ], [ 84.4106, 23.21463 ], [ 84.41045, 23.21959 ], [ 84.41095, 23.22031 ], [ 84.41318, 23.22018 ], [ 84.41524, 23.22106 ], [ 84.42123, 23.22514 ], [ 84.42351, 23.2293 ], [ 84.42436, 23.22966 ], [ 84.42723, 23.22723 ] ] ] } },
{ "type": "Feature", "properties": { "OBJECTID": 5645, "state_lgd": "20", "state_name": "JHARKHAND", "district_lgd": "366", "district_name": "GUMLA", "district_name_source": "district_table", "subdistrict_lgd": "02710", "subdistrict_name": "KAMDARA", "subdistrict_type": "", "name_corrupted": false, "remarks": "", "label_lon": 84.920511256298653, "label_lat": 22.897452580025671 }, "geometry": { "type": "Polygon", "coordinates": [ [ [ 84.88738, 23.06188 ], [ 84.89452, 23.06194 ], [ 84.89621, 23.06007 ], [ 84.89882, 23.05931 ], [ 84.89957, 23.05717 ], [ 84.90473, 23.05616 ], [ 84.90309, 23.05086 ], [ 84.9034, 23.04947 ], [ 84.91048, 23.04342 ], [ 84.91273, 23.04047 ], [ 84.91322, 23.03801 ], [ 84.91199, 23.0345 ], [ 84.9149, 23.03277 ], [ 84.91387, 23.03176 ], [ 84.9138, 23.02936 ], [ 84.91602, 23.0278 ], [ 84.92023, 23.02602 ], [ 84.92438, 23.02973 ], [ 84.92859, 23.02776 ], [ 84.9299, 23.02811 ], [ 84.93056, 23.02909 ], [ 84.93016, 23.03017 ], [ 84.92704, 23.03468 ], [ 84.92767, 23.03554 ], [ 84.92992, 23.03471 ], [ 84.93157, 23.03548 ], [ 84.93291, 23.03479 ], [ 84.93403, 23.0318 ], [ 84.93665, 23.03024 ], [ 84.94332, 23.02376 ], [ 84.94339, 23.02151 ], [ 84.93825, 23.01694 ], [ 84.93735, 23.01529 ], [ 84.93943, 23.01217 ], [ 84.94742, 23.0089 ], [ 84.94544, 23.00743 ], [ 84.94366, 23.00068 ], [ 84.94078, 22.99884 ], [ 84.94029, 22.995 ], [ 84.94191, 22.98575 ], [ 84.94175, 22.98255 ], [ 84.94521, 22.96991 ], [ 84.94723, 22.96647 ], [ 84.94987, 22.96533 ], [ 84.95556, 22.96484 ], [ 84.96205, 22.97026 ], [ 84.96416, 22.97103 ], [ 84.96836, 22.96965 ], [ 84.97341, 22.97023 ], [ 84.9786, 22.96785 ], [ 84.98209, 22.96753 ], [ 84.98513, 22.96627 ], [ 84.98978, 22.96249 ], [ 84.99227, 22.9573 ], [ 84.99947, 22.95608 ], [ 85.00628, 22.94715 ], [ 85.00878, 22.94557 ], [ 85.01218, 22.94526 ], [ 85.01216, 22.94241 ], [ 85.01633, 22.93231 ], [ 85.01383, 22.9254 ], [ 85.01151, 22.92436 ], [ 85.01289, 22.9244 ], [ 85.01236, 22.92148 ], [ 85.01311, 22.91809 ], [ 85.00853, 22.91402 ], [ 85.00741, 22.91721 ], [ 85.00773, 22.92405 ], [ 85.00382, 22.92421 ], [ 85.00135, 22.92583 ], [ 84.9985, 22.92632 ], [ 84.98845, 22.92438 ], [ 84.98742, 22.92242 ], [ 84.98901, 22.91938 ], [ 84.9853, 22.91779 ], [ 84.98468, 22.91018 ], [ 84.98237, 22.90563 ], [ 84.98302, 22.90399 ], [ 84.98147, 22.90412 ], [ 84.98145, 22.89989 ], [ 84.97988, 22.89869 ], [ 84.98985, 22.89721 ], [ 84.98897, 22.89559 ], [ 84.99041, 22.89169 ], [ 84.9877, 22.88743 ], [ 84.98734, 22.87925 ], [ 84.98555, 22.87436 ], [ 84.98687, 22.86966 ], [ 84.98649, 22.86734 ], [ 84.9877, 22.85858 ], [ 84.9902, 22.85788 ], [ 84.99155, 22.85657 ], [ 84.99299, 22.85678 ], [ 84.99557, 22.85245 ], [ 84.99468, 22.84933 ], [ 84.99741, 22.84464 ], [ 84.99883, 22.8441 ], [ 84.99869, 22.83783 ], [ 85.00096, 22.83439 ], [ 85.00129, 22.83006 ], [ 85.00312, 22.82838 ], [ 85.00508, 22.82223 ], [ 85.0037, 22.82007 ], [ 85.00595, 22.81909 ], [ 85.0069, 22.81717 ], [ 85.00767, 22.81255 ], [ 85.00717, 22.80238 ], [ 84.98564, 22.80196 ], [ 84.98261, 22.80453 ], [ 84.98272, 22.79824 ], [ 84.98109, 22.79434 ], [ 84.98049, 22.78565 ], [ 84.96868, 22.78517 ], [ 84.96211, 22.77801 ], [ 84.96118, 22.77566 ], [ 84.95887, 22.77524 ], [ 84.94958, 22.77571 ], [ 84.94529, 22.77799 ], [ 84.9403, 22.78341 ], [ 84.93943, 22.7873 ], [ 84.93772, 22.78754 ], [ 84.93727, 22.78885 ], [ 84.93567, 22.78874 ], [ 84.93384, 22.79109 ], [ 84.9306, 22.79221 ], [ 84.93051, 22.79014 ], [ 84.92799, 22.78675 ], [ 84.92733, 22.78376 ], [ 84.92524, 22.78334 ], [ 84.92299, 22.78498 ], [ 84.9223, 22.7847 ], [ 84.92293, 22.78426 ], [ 84.92279, 22.7827 ], [ 84.92059, 22.77796 ], [ 84.91851, 22.7682 ], [ 84.9169, 22.76813 ], [ 84.91644, 22.76666 ], [ 84.91422, 22.76685 ], [ 84.9132, 22.765 ], [ 84.91301, 22.76213 ], [ 84.91089, 22.76321 ], [ 84.90584, 22.76092 ], [ 84.90631, 22.75974 ], [ 84.90571, 22.75922 ], [ 84.90504, 22.75978 ], [ 84.90255, 22.75805 ], [ 84.8983, 22.75825 ], [ 84.90018, 22.75423 ], [ 84.89704, 22.75226 ], [ 84.89145, 22.7444 ], [ 84.88739, 22.74536 ], [ 84.88119, 22.73857 ], [ 84.88107, 22.74324 ], [ 84.8762, 22.74518 ], [ 84.87427, 22.74918 ], [ 84.87105, 22.75234 ], [ 84.8698, 22.75588 ], [ 84.86343, 22.75774 ], [ 84.85908, 22.7606 ], [ 84.85819, 22.76144 ], [ 84.85841, 22.76613 ], [ 84.85184, 22.76773 ], [ 84.8495, 22.77005 ], [ 84.84783, 22.77052 ], [ 84.84956, 22.78137 ], [ 84.84898, 22.78564 ], [ 84.85027, 22.78668 ], [ 84.85137, 22.78979 ], [ 84.85385, 22.78761 ], [ 84.85609, 22.7878 ], [ 84.85706, 22.78977 ], [ 84.85801, 22.78943 ], [ 84.85936, 22.79043 ], [ 84.85919, 22.79273 ], [ 84.86402, 22.79315 ], [ 84.87295, 22.79079 ], [ 84.87311, 22.78882 ], [ 84.87467, 22.78725 ], [ 84.87782, 22.79345 ], [ 84.87739, 22.7949 ], [ 84.87929, 22.79538 ], [ 84.88324, 22.79361 ], [ 84.88911, 22.79357 ], [ 84.89474, 22.79062 ], [ 84.89566, 22.79138 ], [ 84.89557, 22.79357 ], [ 84.89531, 22.7949 ], [ 84.89458, 22.79408 ], [ 84.8935, 22.79451 ], [ 84.8937, 22.79769 ], [ 84.89506, 22.79811 ], [ 84.89375, 22.79933 ], [ 84.89411, 22.80036 ], [ 84.89041, 22.80366 ], [ 84.89117, 22.80469 ], [ 84.88955, 22.80554 ], [ 84.88546, 22.81112 ], [ 84.88386, 22.81144 ], [ 84.88505, 22.81365 ], [ 84.88652, 22.81421 ], [ 84.886, 22.81488 ], [ 84.88661, 22.81582 ], [ 84.88926, 22.81524 ], [ 84.88946, 22.81614 ], [ 84.89144, 22.8167 ], [ 84.89466, 22.81581 ], [ 84.89722, 22.81932 ], [ 84.89992, 22.82785 ], [ 84.89349, 22.82806 ], [ 84.88035, 22.83022 ], [ 84.87166, 22.82599 ], [ 84.86804, 22.82804 ], [ 84.86102, 22.83511 ], [ 84.85652, 22.83762 ], [ 84.8592, 22.84165 ], [ 84.85893, 22.84329 ], [ 84.86302, 22.84831 ], [ 84.8616, 22.85333 ], [ 84.86202, 22.86349 ], [ 84.86402, 22.86754 ], [ 84.86393, 22.87208 ], [ 84.86512, 22.87575 ], [ 84.86336, 22.88021 ], [ 84.857, 22.88214 ], [ 84.85526, 22.88172 ], [ 84.8503, 22.88248 ], [ 84.85085, 22.88448 ], [ 84.84632, 22.88598 ], [ 84.84699, 22.88938 ], [ 84.84646, 22.88979 ], [ 84.84806, 22.89301 ], [ 84.84471, 22.89938 ], [ 84.8434, 22.89941 ], [ 84.84283, 22.90016 ], [ 84.84336, 22.9004 ], [ 84.84041, 22.90159 ], [ 84.84482, 22.90658 ], [ 84.84682, 22.91174 ], [ 84.84738, 22.91711 ], [ 84.84798, 22.91662 ], [ 84.84885, 22.91777 ], [ 84.84815, 22.91782 ], [ 84.846, 22.92185 ], [ 84.84642, 22.92382 ], [ 84.84893, 22.92484 ], [ 84.85071, 22.92368 ], [ 84.85197, 22.9255 ], [ 84.85234, 22.92803 ], [ 84.85692, 22.93296 ], [ 84.85821, 22.9356 ], [ 84.8638, 22.9351 ], [ 84.8645, 22.93595 ], [ 84.86583, 22.94671 ], [ 84.86679, 22.94876 ], [ 84.86634, 22.95059 ], [ 84.86776, 22.9515 ], [ 84.86853, 22.95456 ], [ 84.86696, 22.95567 ], [ 84.86807, 22.95655 ], [ 84.86995, 22.96118 ], [ 84.87355, 22.96541 ], [ 84.87314, 22.96782 ], [ 84.87401, 22.96949 ], [ 84.86881, 22.96935 ], [ 84.86609, 22.9713 ], [ 84.86047, 22.97304 ], [ 84.85785, 22.97162 ], [ 84.85544, 22.9725 ], [ 84.8452, 22.98032 ], [ 84.84322, 22.98032 ], [ 84.8496, 22.99405 ], [ 84.84629, 22.99501 ], [ 84.84735, 23.0007 ], [ 84.84946, 23.00451 ], [ 84.85091, 23.00484 ], [ 84.85832, 23.00245 ], [ 84.86164, 22.99973 ], [ 84.8615, 22.99819 ], [ 84.86261, 22.99742 ], [ 84.86908, 22.99759 ], [ 84.87289, 23.00078 ], [ 84.87733, 23.0017 ], [ 84.88002, 23.00621 ], [ 84.87968, 23.01082 ], [ 84.87573, 23.01386 ], [ 84.87356, 23.01784 ], [ 84.86916, 23.02163 ], [ 84.86633, 23.02145 ], [ 84.86412, 23.0197 ], [ 84.86255, 23.02272 ], [ 84.86229, 23.02531 ], [ 84.86455, 23.03248 ], [ 84.86657, 23.03546 ], [ 84.86826, 23.04421 ], [ 84.86929, 23.04599 ], [ 84.86891, 23.04835 ], [ 84.87174, 23.05096 ], [ 84.87058, 23.05229 ], [ 84.87204, 23.05726 ], [ 84.87153, 23.05929 ], [ 84.86934, 23.06135 ], [ 84.87145, 23.06808 ], [ 84.87521, 23.06872 ], [ 84.87446, 23.06789 ], [ 84.87563, 23.06719 ], [ 84.87971, 23.06601 ], [ 84.88738, 23.06188 ] ] ] } },
{ "type": "Feature", "properties": { "OBJECTID": 5721, "state_lgd": "20", "state_name": "JHARKHAND", "district_lgd": "366", "district_name": "GUMLA", "district_name_source": "district_table", "subdistrict_lgd": "02717", "subdistrict_name": "PALKOT", "subdistrict_type": "", "name_corrupted": false, "remarks": "", "label_lon": 84.622381516871727, "label_lat": 22.855765723359085 }, "geometry": { "type": "Polygon", "coordinates": [ [ [ 84.7035, 22.97186 ], [ 84.70345, 22.97046 ], [ 84.70521, 22.96902 ], [ 84.70708, 22.96897 ], [ 84.70845, 22.96724 ], [ 84.70937, 22.96548 ], [ 84.70975, 22.96093 ], [ 84.7113, 22.95968 ], [ 84.72079, 22.96022 ], [ 84.72507, 22.95734 ], [ 84.72994, 22.95586 ], [ 84.73238, 22.95335 ], [ 84.7329, 22.94856 ], [ 84.73713, 22.94305 ], [ 84.73507, 22.93605 ], [ 84.74165, 22.93204 ], [ 84.74256, 22.93063 ], [ 84.74242, 22.92798 ], [ 84.74317, 22.92629 ], [ 84.74951, 22.92182 ], [ 84.75325, 22.9157 ], [ 84.75429, 22.91159 ], [ 84.7533, 22.90068 ], [ 84.75471, 22.89562 ], [ 84.75773, 22.89314 ], [ 84.75577, 22.88984 ], [ 84.75223, 22.89198 ], [ 84.74785, 22.89064 ], [ 84.74495, 22.88683 ], [ 84.74648, 22.88192 ], [ 84.74244, 22.87998 ], [ 84.74137, 22.87638 ], [ 84.73789, 22.87322 ], [ 84.73848, 22.87141 ], [ 84.74123, 22.8711 ], [ 84.74372, 22.86836 ], [ 84.74184, 22.86658 ], [ 84.74094, 22.86318 ], [ 84.74377, 22.86227 ], [ 84.74412, 22.8598 ], [ 84.74414, 22.85888 ], [ 84.74182, 22.85719 ], [ 84.74228, 22.85344 ], [ 84.74411, 22.852 ], [ 84.74496, 22.84834 ], [ 84.74352, 22.84652 ], [ 84.74389, 22.84467 ], [ 84.74232, 22.84267 ], [ 84.74324, 22.84065 ], [ 84.74207, 22.84038 ], [ 84.73715, 22.83258 ], [ 84.7348, 22.83184 ], [ 84.73115, 22.83293 ], [ 84.72716, 22.83091 ], [ 84.72646, 22.82855 ], [ 84.72756, 22.82399 ], [ 84.72503, 22.8167 ], [ 84.72288, 22.81534 ], [ 84.72091, 22.81561 ], [ 84.71939, 22.81489 ], [ 84.7212, 22.81049 ], [ 84.7193, 22.80687 ], [ 84.72526, 22.80532 ], [ 84.7305, 22.80101 ], [ 84.72826, 22.7978 ], [ 84.7259, 22.79646 ], [ 84.7259, 22.7929 ], [ 84.72451, 22.7927 ], [ 84.72289, 22.78898 ], [ 84.71866, 22.78813 ], [ 84.7171, 22.78417 ], [ 84.71801, 22.78346 ], [ 84.72143, 22.78354 ], [ 84.72289, 22.78263 ], [ 84.7233, 22.7819 ], [ 84.7217, 22.78138 ], [ 84.72182, 22.77925 ], [ 84.72475, 22.77793 ], [ 84.728, 22.77771 ], [ 84.72772, 22.77635 ], [ 84.72936, 22.77514 ], [ 84.72881, 22.77244 ], [ 84.72486, 22.77035 ], [ 84.72468, 22.7655 ], [ 84.714, 22.76492 ], [ 84.71347, 22.76397 ], [ 84.70861, 22.76557 ], [ 84.70431, 22.76479 ], [ 84.70322, 22.76251 ], [ 84.70102, 22.76197 ], [ 84.69734, 22.75754 ], [ 84.69747, 22.75387 ], [ 84.6993, 22.74795 ], [ 84.69521, 22.74558 ], [ 84.69753, 22.74386 ], [ 84.6954, 22.74315 ], [ 84.69558, 22.7417 ], [ 84.68992, 22.7412 ], [ 84.68646, 22.73704 ], [ 84.66971, 22.73943 ], [ 84.66843, 22.73822 ], [ 84.66791, 22.7329 ], [ 84.66608, 22.73099 ], [ 84.65837, 22.73112 ], [ 84.65512, 22.73307 ], [ 84.64862, 22.73963 ], [ 84.64721, 22.73432 ], [ 84.64526, 22.73162 ], [ 84.63823, 22.73169 ], [ 84.63465, 22.73296 ], [ 84.63039, 22.73208 ], [ 84.62428, 22.73304 ], [ 84.6181, 22.7328 ], [ 84.61407, 22.73395 ], [ 84.60437, 22.73094 ], [ 84.60511, 22.72302 ], [ 84.60343, 22.72201 ], [ 84.60007, 22.72241 ], [ 84.59817, 22.7218 ], [ 84.595, 22.71604 ], [ 84.59215, 22.71276 ], [ 84.58926, 22.71609 ], [ 84.58557, 22.71597 ], [ 84.58041, 22.72278 ], [ 84.57116, 22.72555 ], [ 84.57045, 22.72652 ], [ 84.57081, 22.72826 ], [ 84.57012, 22.72865 ], [ 84.56466, 22.73102 ], [ 84.55929, 22.73094 ], [ 84.55968, 22.73253 ], [ 84.56205, 22.73448 ], [ 84.56214, 22.73882 ], [ 84.56938, 22.74698 ], [ 84.56778, 22.74771 ], [ 84.56412, 22.74728 ], [ 84.56336, 22.7489 ], [ 84.55475, 22.75601 ], [ 84.55255, 22.7597 ], [ 84.54678, 22.76427 ], [ 84.54347, 22.76498 ], [ 84.53933, 22.76151 ], [ 84.53722, 22.75108 ], [ 84.53391, 22.74591 ], [ 84.52867, 22.74365 ], [ 84.52881, 22.74058 ], [ 84.52262, 22.74398 ], [ 84.52111, 22.7481 ], [ 84.52177, 22.75107 ], [ 84.51969, 22.75175 ], [ 84.5181, 22.75509 ], [ 84.51569, 22.75415 ], [ 84.51876, 22.7604 ], [ 84.5189, 22.76239 ], [ 84.52042, 22.76243 ], [ 84.52141, 22.76144 ], [ 84.52401, 22.76207 ], [ 84.52582, 22.76152 ], [ 84.52884, 22.76389 ], [ 84.53123, 22.76923 ], [ 84.53288, 22.76788 ], [ 84.53569, 22.76873 ], [ 84.54372, 22.76586 ], [ 84.54919, 22.76801 ], [ 84.55309, 22.77061 ], [ 84.55547, 22.77291 ], [ 84.55623, 22.77616 ], [ 84.55553, 22.78927 ], [ 84.55004, 22.79406 ], [ 84.54674, 22.79497 ], [ 84.53614, 22.79285 ], [ 84.53426, 22.79168 ], [ 84.53105, 22.79172 ], [ 84.52738, 22.79303 ], [ 84.52478, 22.79671 ], [ 84.51934, 22.79651 ], [ 84.51757, 22.79561 ], [ 84.51436, 22.7966 ], [ 84.51141, 22.79639 ], [ 84.50847, 22.79837 ], [ 84.50249, 22.79859 ], [ 84.50301, 22.80928 ], [ 84.50437, 22.81155 ], [ 84.503, 22.82057 ], [ 84.50344, 22.82468 ], [ 84.4994, 22.82379 ], [ 84.49484, 22.82749 ], [ 84.49213, 22.8282 ], [ 84.49049, 22.82746 ], [ 84.4862, 22.83162 ], [ 84.48573, 22.82976 ], [ 84.48487, 22.82954 ], [ 84.48298, 22.83251 ], [ 84.4815, 22.83332 ], [ 84.46577, 22.83699 ], [ 84.46175, 22.83619 ], [ 84.45746, 22.83728 ], [ 84.45788, 22.83944 ], [ 84.46138, 22.83958 ], [ 84.4661, 22.8427 ], [ 84.46678, 22.84393 ], [ 84.4685, 22.8514 ], [ 84.46462, 22.85521 ], [ 84.46386, 22.85814 ], [ 84.46291, 22.85866 ], [ 84.46295, 22.86032 ], [ 84.46467, 22.86101 ], [ 84.46428, 22.86199 ], [ 84.46575, 22.86316 ], [ 84.47014, 22.8773 ], [ 84.47628, 22.88363 ], [ 84.48408, 22.88591 ], [ 84.49149, 22.88524 ], [ 84.49142, 22.88304 ], [ 84.49474, 22.88423 ], [ 84.49837, 22.88802 ], [ 84.49859, 22.8886 ], [ 84.49735, 22.8896 ], [ 84.49863, 22.89158 ], [ 84.50097, 22.89335 ], [ 84.50107, 22.89745 ], [ 84.50482, 22.90002 ], [ 84.51066, 22.90214 ], [ 84.51188, 22.90309 ], [ 84.51245, 22.90537 ], [ 84.51642, 22.90327 ], [ 84.51853, 22.90091 ], [ 84.52252, 22.90018 ], [ 84.52519, 22.8984 ], [ 84.52672, 22.89848 ], [ 84.53009, 22.89911 ], [ 84.53166, 22.90038 ], [ 84.53685, 22.90078 ], [ 84.53808, 22.90252 ], [ 84.54072, 22.90386 ], [ 84.5536, 22.90638 ], [ 84.55523, 22.90843 ], [ 84.55611, 22.91264 ], [ 84.55502, 22.91374 ], [ 84.55132, 22.9141 ], [ 84.55035, 22.91747 ], [ 84.54914, 22.91886 ], [ 84.54961, 22.92184 ], [ 84.54837, 22.92485 ], [ 84.54905, 22.92667 ], [ 84.54587, 22.93033 ], [ 84.54322, 22.93089 ], [ 84.54434, 22.93401 ], [ 84.54345, 22.9359 ], [ 84.54107, 22.93663 ], [ 84.541, 22.93762 ], [ 84.53943, 22.9377 ], [ 84.538, 22.93975 ], [ 84.53848, 22.94176 ], [ 84.53767, 22.94358 ], [ 84.53319, 22.94332 ], [ 84.53135, 22.94438 ], [ 84.53017, 22.94717 ], [ 84.52545, 22.95346 ], [ 84.52601, 22.95514 ], [ 84.52994, 22.95672 ], [ 84.52562, 22.9626 ], [ 84.52606, 22.96322 ], [ 84.5352, 22.96189 ], [ 84.54145, 22.9628 ], [ 84.5423, 22.96208 ], [ 84.54696, 22.96183 ], [ 84.55761, 22.95631 ], [ 84.55924, 22.9618 ], [ 84.56333, 22.95892 ], [ 84.56654, 22.96022 ], [ 84.57576, 22.96076 ], [ 84.57732, 22.96247 ], [ 84.57697, 22.97013 ], [ 84.57885, 22.97243 ], [ 84.58303, 22.97056 ], [ 84.58741, 22.97104 ], [ 84.59463, 22.97033 ], [ 84.59809, 22.97399 ], [ 84.59988, 22.974 ], [ 84.60093, 22.98052 ], [ 84.60324, 22.9852 ], [ 84.60211, 22.98797 ], [ 84.60418, 22.98978 ], [ 84.60743, 22.99027 ], [ 84.61301, 22.98988 ], [ 84.61804, 22.9879 ], [ 84.61695, 22.97526 ], [ 84.61919, 22.97216 ], [ 84.62554, 22.96936 ], [ 84.62815, 22.97147 ], [ 84.63283, 22.97159 ], [ 84.63454, 22.97396 ], [ 84.63594, 22.97456 ], [ 84.63769, 22.9736 ], [ 84.63854, 22.97095 ], [ 84.64367, 22.9699 ], [ 84.64692, 22.96776 ], [ 84.65346, 22.96827 ], [ 84.65725, 22.9657 ], [ 84.66312, 22.96354 ], [ 84.668, 22.96495 ], [ 84.67374, 22.96381 ], [ 84.67392, 22.96522 ], [ 84.67514, 22.9647 ], [ 84.67797, 22.96609 ], [ 84.68132, 22.97277 ], [ 84.6834, 22.97258 ], [ 84.68626, 22.98084 ], [ 84.6882, 22.98348 ], [ 84.69061, 22.98922 ], [ 84.69726, 22.98741 ], [ 84.69919, 22.98317 ], [ 84.70522, 22.9811 ], [ 84.70676, 22.97965 ], [ 84.70548, 22.97464 ], [ 84.7035, 22.97186 ] ] ] } },
{ "type": "Feature", "properties": { "OBJECTID": 5740, "state_lgd": "20", "state_name": "JHARKHAND", "district_lgd": "366", "district_name": "GUMLA", "district_name_source": "district_table", "subdistrict_lgd": "02716", "subdistrict_name": "RAIDIH", "subdistrict_type": "", "name_corrupted": false, "remarks": "", "label_lon": 84.413821753787346, "label_lat": 22.927647616247413 }, "geometry": { "type": "Polygon", "coordinates": [ [ [ 84.39874, 23.07767 ], [ 84.40213, 23.0716 ], [ 84.40616, 23.0712 ], [ 84.40671, 23.0692 ], [ 84.40972, 23.06763 ], [ 84.41287, 23.0636 ], [ 84.41521, 23.06829 ], [ 84.41617, 23.06842 ], [ 84.42096, 23.0626 ], [ 84.42046, 23.06023 ], [ 84.42128, 23.05481 ], [ 84.42641, 23.04945 ], [ 84.42741, 23.04541 ], [ 84.4378, 23.04938 ], [ 84.43934, 23.05109 ], [ 84.44025, 23.04979 ], [ 84.43906, 23.04453 ], [ 84.43942, 23.04114 ], [ 84.44949, 23.03416 ], [ 84.45496, 23.03402 ], [ 84.45779, 23.03523 ], [ 84.46455, 23.03633 ], [ 84.46914, 23.04096 ], [ 84.46873, 23.04367 ], [ 84.46721, 23.04525 ], [ 84.46881, 23.04822 ], [ 84.4859, 23.0499 ], [ 84.48666, 23.04879 ], [ 84.48686, 23.04007 ], [ 84.48874, 23.03552 ], [ 84.48557, 23.0328 ], [ 84.48304, 23.02465 ], [ 84.4878, 23.02428 ], [ 84.48843, 23.01964 ], [ 84.48817, 23.0117 ], [ 84.48543, 23.00863 ], [ 84.48529, 23.00155 ], [ 84.49414, 23.00366 ], [ 84.504, 23.00336 ], [ 84.50395, 23.00469 ], [ 84.50212, 23.00606 ], [ 84.50307, 23.00758 ], [ 84.51093, 23.00541 ], [ 84.52084, 22.99429 ], [ 84.52502, 22.99401 ], [ 84.52634, 22.99481 ], [ 84.53101, 22.99395 ], [ 84.53636, 22.99147 ], [ 84.53979, 22.99123 ], [ 84.54359, 22.98984 ], [ 84.54216, 22.98244 ], [ 84.54418, 22.98166 ], [ 84.54515, 22.97993 ], [ 84.54687, 22.97995 ], [ 84.54799, 22.9813 ], [ 84.55169, 22.97897 ], [ 84.55415, 22.97947 ], [ 84.55677, 22.9746 ], [ 84.56182, 22.97629 ], [ 84.56239, 22.97499 ], [ 84.56383, 22.97504 ], [ 84.56439, 22.97301 ], [ 84.56306, 22.97157 ], [ 84.56325, 22.9687 ], [ 84.56072, 22.96587 ], [ 84.55761, 22.95631 ], [ 84.54696, 22.96183 ], [ 84.5423, 22.96208 ], [ 84.54145, 22.9628 ], [ 84.5352, 22.96189 ], [ 84.52625, 22.96326 ], [ 84.52562, 22.9626 ], [ 84.52994, 22.95672 ], [ 84.52587, 22.95501 ], [ 84.52545, 22.95346 ], [ 84.52675, 22.95112 ], [ 84.53017, 22.94717 ], [ 84.53135, 22.94438 ], [ 84.53319, 22.94332 ], [ 84.53767, 22.94358 ], [ 84.53848, 22.94176 ], [ 84.538, 22.93975 ], [ 84.53943, 22.9377 ], [ 84.541, 22.93762 ], [ 84.54107, 22.93663 ], [ 84.54376, 22.93537 ], [ 84.54431, 22.93365 ], [ 84.54322, 22.93089 ], [ 84.54587, 22.93033 ], [ 84.54905, 22.92667 ], [ 84.54837, 22.92485 ], [ 84.54961, 22.92184 ], [ 84.54914, 22.91886 ], [ 84.55035, 22.91747 ], [ 84.55132, 22.9141 ], [ 84.55502, 22.91374 ], [ 84.55641, 22.91193 ], [ 84.55523, 22.90843 ], [ 84.5536, 22.90638 ], [ 84.54072, 22.90386 ], [ 84.53808, 22.90252 ], [ 84.53685, 22.90078 ], [ 84.53166, 22.90038 ], [ 84.53009, 22.89911 ], [ 84.52672, 22.89848 ], [ 84.52519, 22.8984 ], [ 84.52252, 22.90018 ], [ 84.51853, 22.90091 ], [ 84.51642, 22.90327 ], [ 84.51245, 22.90537 ], [ 84.51188, 22.90309 ], [ 84.51066, 22.90214 ], [ 84.50482, 22.90002 ], [ 84.50107, 22.89745 ], [ 84.50097, 22.89335 ], [ 84.49863, 22.89158 ], [ 84.49735, 22.8896 ], [ 84.49859, 22.8886 ], [ 84.49837, 22.88802 ], [ 84.49474, 22.88423 ], [ 84.49142, 22.88304 ], [ 84.49149, 22.88524 ], [ 84.48408, 22.88591 ], [ 84.47628, 22.88363 ], [ 84.47211, 22.87945 ], [ 84.46988, 22.87682 ], [ 84.46575, 22.86316 ], [ 84.46428, 22.86199 ], [ 84.46467, 22.86101 ], [ 84.46295, 22.86032 ], [ 84.46291, 22.85866 ], [ 84.46386, 22.85814 ], [ 84.46462, 22.85521 ], [ 84.4685, 22.8514 ], [ 84.46643, 22.84313 ], [ 84.46138, 22.83958 ], [ 84.45788, 22.83944 ], [ 84.45746, 22.83728 ], [ 84.45256, 22.83729 ], [ 84.45126, 22.83473 ], [ 84.44938, 22.8349 ], [ 84.45114, 22.83033 ], [ 84.45085, 22.82489 ], [ 84.44971, 22.82058 ], [ 84.44983, 22.81853 ], [ 84.45103, 22.81641 ], [ 84.44808, 22.81247 ], [ 84.44084, 22.80902 ], [ 84.43134, 22.8114 ], [ 84.42933, 22.81112 ], [ 84.43215, 22.80772 ], [ 84.43527, 22.79818 ], [ 84.43204, 22.79283 ], [ 84.43009, 22.79169 ], [ 84.43009, 22.78938 ], [ 84.42624, 22.78753 ], [ 84.42132, 22.78084 ], [ 84.41813, 22.77275 ], [ 84.4193, 22.76805 ], [ 84.41635, 22.76486 ], [ 84.41326, 22.76558 ], [ 84.4128, 22.76793 ], [ 84.40739, 22.77191 ], [ 84.40615, 22.77229 ], [ 84.40427, 22.77098 ], [ 84.39979, 22.77647 ], [ 84.39718, 22.77501 ], [ 84.3925, 22.7754 ], [ 84.38925, 22.77229 ], [ 84.39144, 22.76576 ], [ 84.38789, 22.7679 ], [ 84.38493, 22.76544 ], [ 84.38411, 22.7637 ], [ 84.37965, 22.7646 ], [ 84.37188, 22.75429 ], [ 84.36211, 22.75839 ], [ 84.3592, 22.75697 ], [ 84.35786, 22.75952 ], [ 84.35327, 22.76011 ], [ 84.34922, 22.76204 ], [ 84.34948, 22.75773 ], [ 84.35193, 22.75573 ], [ 84.35434, 22.75075 ], [ 84.35025, 22.74812 ], [ 84.34276, 22.74679 ], [ 84.33919, 22.74836 ], [ 84.33679, 22.74826 ], [ 84.33547, 22.75262 ], [ 84.33274, 22.75516 ], [ 84.33095, 22.75902 ], [ 84.32534, 22.76405 ], [ 84.31953, 22.76572 ], [ 84.31312, 22.76474 ], [ 84.31045, 22.76735 ], [ 84.30728, 22.76815 ], [ 84.30455, 22.77006 ], [ 84.29709, 22.77161 ], [ 84.29451, 22.77368 ], [ 84.29187, 22.77428 ], [ 84.29224, 22.77571 ], [ 84.29076, 22.78064 ], [ 84.29115, 22.78338 ], [ 84.29934, 22.79589 ], [ 84.30578, 22.79707 ], [ 84.3075, 22.80077 ], [ 84.3151, 22.80065 ], [ 84.31573, 22.81192 ], [ 84.32243, 22.82102 ], [ 84.32284, 22.827 ], [ 84.32533, 22.83498 ], [ 84.3252, 22.83765 ], [ 84.32332, 22.83709 ], [ 84.32175, 22.83775 ], [ 84.32288, 22.84187 ], [ 84.32299, 22.84802 ], [ 84.32422, 22.85094 ], [ 84.3253, 22.85127 ], [ 84.33014, 22.85718 ], [ 84.33478, 22.86155 ], [ 84.33803, 22.85967 ], [ 84.34022, 22.86004 ], [ 84.34292, 22.85909 ], [ 84.34761, 22.8601 ], [ 84.34924, 22.86098 ], [ 84.35199, 22.86499 ], [ 84.35525, 22.86216 ], [ 84.35747, 22.86237 ], [ 84.35945, 22.86052 ], [ 84.3697, 22.86358 ], [ 84.3726, 22.86532 ], [ 84.37347, 22.86735 ], [ 84.37336, 22.87159 ], [ 84.38051, 22.87667 ], [ 84.38092, 22.87902 ], [ 84.37919, 22.88377 ], [ 84.38261, 22.89025 ], [ 84.38289, 22.89526 ], [ 84.38147, 22.89742 ], [ 84.37568, 22.90069 ], [ 84.3749, 22.90234 ], [ 84.37519, 22.9045 ], [ 84.37754, 22.90963 ], [ 84.38136, 22.91268 ], [ 84.38789, 22.91421 ], [ 84.39284, 22.91943 ], [ 84.39521, 22.92496 ], [ 84.3951, 22.93694 ], [ 84.39368, 22.94245 ], [ 84.38568, 22.94909 ], [ 84.38361, 22.95253 ], [ 84.38344, 22.9596 ], [ 84.38149, 22.96651 ], [ 84.37734, 22.97525 ], [ 84.37532, 22.97689 ], [ 84.3729, 22.97838 ], [ 84.36716, 22.97471 ], [ 84.365, 22.97423 ], [ 84.35841, 22.97533 ], [ 84.35107, 22.97812 ], [ 84.3481, 22.97642 ], [ 84.34376, 22.97614 ], [ 84.33955, 22.97999 ], [ 84.332, 22.98054 ], [ 84.32811, 22.9819 ], [ 84.32072, 22.97793 ], [ 84.31746, 22.97972 ], [ 84.31318, 22.98382 ], [ 84.31249, 22.9963 ], [ 84.3111, 22.99774 ], [ 84.3106, 22.99729 ], [ 84.30792, 22.99812 ], [ 84.30573, 22.99962 ], [ 84.303, 22.99963 ], [ 84.30011, 23.0014 ], [ 84.29642, 23.00733 ], [ 84.30227, 23.01505 ], [ 84.30309, 23.01755 ], [ 84.305, 23.01879 ], [ 84.30593, 23.02127 ], [ 84.30442, 23.02331 ], [ 84.30393, 23.02824 ], [ 84.30203, 23.03105 ], [ 84.30286, 23.03336 ], [ 84.30473, 23.03427 ], [ 84.30522, 23.03587 ], [ 84.30925, 23.03802 ], [ 84.3096, 23.04087 ], [ 84.30731, 23.0432 ], [ 84.30467, 23.04361 ], [ 84.30751, 23.05124 ], [ 84.31542, 23.06298 ], [ 84.32214, 23.0677 ], [ 84.32752, 23.06918 ], [ 84.32599, 23.07486 ], [ 84.32654, 23.07632 ], [ 84.32506, 23.07803 ], [ 84.33297, 23.07476 ], [ 84.33487, 23.07271 ], [ 84.33689, 23.0684 ], [ 84.34, 23.06794 ], [ 84.34769, 23.07061 ], [ 84.35078, 23.07493 ], [ 84.35049, 23.07788 ], [ 84.35568, 23.07408 ], [ 84.3607, 23.07444 ], [ 84.36219, 23.07381 ], [ 84.36654, 23.07506 ], [ 84.37038, 23.07874 ], [ 84.37944, 23.0821 ], [ 84.38152, 23.08364 ], [ 84.3838, 23.08925 ], [ 84.38796, 23.09035 ], [ 84.3914, 23.08775 ], [ 84.39498, 23.08724 ], [ 84.3987, 23.07947 ], [ 84.39874, 23.07767 ] ] ] } },
{ "type": "Feature", "properties": { "OBJECTID": 5763, "state_lgd": "20", "state_name": "JHARKHAND", "district_lgd": "366", "district_name": "GUMLA", "district_name_source": "district_table", "subdistrict_lgd": "02708", "subdistrict_name": "SISAI", "subdistrict_type": "", "name_corrupted": false, "remarks": "", "label_lon": 84.727799298122392, "label_lat": 23.195870018640068 }, "geometry": { "type": "Polygon", "coordinates": [ [ [ 84.73789, 23.33157 ], [ 84.74609, 23.3306 ], [ 84.74763, 23.32917 ], [ 84.74802, 23.32664 ], [ 84.74949, 23.32586 ], [ 84.7503, 23.32155 ], [ 84.75836, 23.32131 ], [ 84.76627, 23.31942 ], [ 84.77345, 23.31944 ], [ 84.77384, 23.32086 ], [ 84.78124, 23.31941 ], [ 84.78824, 23.32174 ], [ 84.79097, 23.31566 ], [ 84.79453, 23.31297 ], [ 84.7907, 23.30333 ], [ 84.78676, 23.28101 ], [ 84.78686, 23.28027 ], [ 84.79389, 23.27903 ], [ 84.79594, 23.28039 ], [ 84.79843, 23.28018 ], [ 84.79866, 23.27899 ], [ 84.79991, 23.27939 ], [ 84.80011, 23.27851 ], [ 84.79829, 23.27073 ], [ 84.79905, 23.26682 ], [ 84.79858, 23.25999 ], [ 84.80079, 23.25725 ], [ 84.80049, 23.25486 ], [ 84.80197, 23.24895 ], [ 84.80383, 23.24571 ], [ 84.80282, 23.24299 ], [ 84.80128, 23.24282 ], [ 84.80032, 23.24089 ], [ 84.79882, 23.24101 ], [ 84.79604, 23.23659 ], [ 84.80303, 23.23606 ], [ 84.80367, 23.23507 ], [ 84.80619, 23.23551 ], [ 84.81128, 23.23318 ], [ 84.81484, 23.23256 ], [ 84.81544, 23.22806 ], [ 84.81712, 23.22723 ], [ 84.81001, 23.2238 ], [ 84.80839, 23.22377 ], [ 84.80783, 23.22123 ], [ 84.80683, 23.22042 ], [ 84.80247, 23.21914 ], [ 84.80091, 23.21653 ], [ 84.79725, 23.2168 ], [ 84.7953, 23.2139 ], [ 84.7905, 23.21494 ], [ 84.79125, 23.21091 ], [ 84.79086, 23.20731 ], [ 84.79398, 23.19755 ], [ 84.79241, 23.19408 ], [ 84.79635, 23.19505 ], [ 84.79726, 23.19452 ], [ 84.79808, 23.19197 ], [ 84.79942, 23.19175 ], [ 84.8058, 23.19533 ], [ 84.80663, 23.1881 ], [ 84.80553, 23.18146 ], [ 84.80841, 23.17952 ], [ 84.82073, 23.17844 ], [ 84.82208, 23.17199 ], [ 84.8222, 23.16877 ], [ 84.8197, 23.16687 ], [ 84.81844, 23.16266 ], [ 84.81427, 23.16257 ], [ 84.80493, 23.15734 ], [ 84.80527, 23.1382 ], [ 84.80419, 23.13741 ], [ 84.80119, 23.13771 ], [ 84.7993, 23.13659 ], [ 84.7959, 23.13655 ], [ 84.79137, 23.12488 ], [ 84.79137, 23.1242 ], [ 84.79368, 23.12397 ], [ 84.79811, 23.12173 ], [ 84.80405, 23.12037 ], [ 84.80676, 23.11859 ], [ 84.80805, 23.11891 ], [ 84.81131, 23.1175 ], [ 84.81096, 23.11656 ], [ 84.80911, 23.11568 ], [ 84.80662, 23.11556 ], [ 84.80522, 23.10769 ], [ 84.80688, 23.10601 ], [ 84.80685, 23.10463 ], [ 84.80845, 23.10456 ], [ 84.80954, 23.10175 ], [ 84.81446, 23.09685 ], [ 84.81222, 23.09348 ], [ 84.8122, 23.09213 ], [ 84.81103, 23.09208 ], [ 84.81005, 23.09081 ], [ 84.8098, 23.0886 ], [ 84.80854, 23.08889 ], [ 84.8059, 23.08468 ], [ 84.80425, 23.08424 ], [ 84.80428, 23.08238 ], [ 84.80199, 23.07977 ], [ 84.80293, 23.07913 ], [ 84.80273, 23.07742 ], [ 84.80203, 23.07717 ], [ 84.80057, 23.0719 ], [ 84.80078, 23.07138 ], [ 84.803, 23.07196 ], [ 84.80421, 23.0702 ], [ 84.80508, 23.07072 ], [ 84.80716, 23.06946 ], [ 84.8085, 23.07015 ], [ 84.81121, 23.06966 ], [ 84.81153, 23.06819 ], [ 84.80951, 23.0631 ], [ 84.80763, 23.0637 ], [ 84.8061, 23.05891 ], [ 84.80195, 23.05403 ], [ 84.80034, 23.04969 ], [ 84.7964, 23.04994 ], [ 84.79087, 23.05131 ], [ 84.79093, 23.05311 ], [ 84.78915, 23.05561 ], [ 84.78308, 23.05913 ], [ 84.77663, 23.05971 ], [ 84.77104, 23.06577 ], [ 84.76777, 23.06547 ], [ 84.76543, 23.0691 ], [ 84.75913, 23.07202 ], [ 84.75532, 23.0722 ], [ 84.74953, 23.06993 ], [ 84.74734, 23.06233 ], [ 84.7438, 23.05619 ], [ 84.74479, 23.05401 ], [ 84.74637, 23.05294 ], [ 84.75427, 23.05258 ], [ 84.75715, 23.05062 ], [ 84.75817, 23.04835 ], [ 84.75977, 23.04759 ], [ 84.75943, 23.03987 ], [ 84.75997, 23.03505 ], [ 84.76105, 23.03318 ], [ 84.7603, 23.0259 ], [ 84.75635, 23.02709 ], [ 84.74951, 23.02736 ], [ 84.74645, 23.03076 ], [ 84.73745, 23.03282 ], [ 84.72931, 23.03906 ], [ 84.72652, 23.04231 ], [ 84.72621, 23.05439 ], [ 84.72703, 23.0628 ], [ 84.72625, 23.06558 ], [ 84.71974, 23.07118 ], [ 84.70646, 23.077 ], [ 84.6954, 23.08449 ], [ 84.68518, 23.08815 ], [ 84.68398, 23.09178 ], [ 84.68505, 23.09801 ], [ 84.68262, 23.10383 ], [ 84.68336, 23.10805 ], [ 84.68218, 23.11117 ], [ 84.68018, 23.11335 ], [ 84.67785, 23.11363 ], [ 84.67078, 23.11088 ], [ 84.66667, 23.11172 ], [ 84.66103, 23.11898 ], [ 84.65263, 23.12438 ], [ 84.64622, 23.12986 ], [ 84.64844, 23.13114 ], [ 84.64837, 23.13704 ], [ 84.65311, 23.1427 ], [ 84.65349, 23.14409 ], [ 84.65307, 23.14812 ], [ 84.65062, 23.15086 ], [ 84.64862, 23.15559 ], [ 84.64864, 23.15729 ], [ 84.65371, 23.16432 ], [ 84.65793, 23.16602 ], [ 84.66021, 23.16822 ], [ 84.65818, 23.17972 ], [ 84.66233, 23.18483 ], [ 84.66202, 23.19436 ], [ 84.66333, 23.20262 ], [ 84.66536, 23.20387 ], [ 84.67314, 23.20459 ], [ 84.6747, 23.20611 ], [ 84.67459, 23.20821 ], [ 84.67211, 23.21283 ], [ 84.67246, 23.21448 ], [ 84.67448, 23.21546 ], [ 84.68151, 23.21411 ], [ 84.68702, 23.21498 ], [ 84.68709, 23.2169 ], [ 84.68512, 23.22229 ], [ 84.68326, 23.22322 ], [ 84.67984, 23.22272 ], [ 84.6772, 23.22542 ], [ 84.67513, 23.2295 ], [ 84.67133, 23.23274 ], [ 84.66982, 23.23545 ], [ 84.66917, 23.23953 ], [ 84.66683, 23.24019 ], [ 84.66082, 23.23973 ], [ 84.65644, 23.23828 ], [ 84.65541, 23.23849 ], [ 84.65303, 23.24116 ], [ 84.65123, 23.24437 ], [ 84.64919, 23.2455 ], [ 84.63427, 23.24538 ], [ 84.62485, 23.25401 ], [ 84.62097, 23.255 ], [ 84.61496, 23.25981 ], [ 84.60564, 23.2608 ], [ 84.60334, 23.26172 ], [ 84.60069, 23.26403 ], [ 84.59968, 23.26699 ], [ 84.60164, 23.2702 ], [ 84.6077, 23.27345 ], [ 84.61067, 23.27383 ], [ 84.61297, 23.27606 ], [ 84.61531, 23.28967 ], [ 84.6136, 23.29246 ], [ 84.61313, 23.29502 ], [ 84.61739, 23.30284 ], [ 84.62178, 23.30929 ], [ 84.62347, 23.31048 ], [ 84.63004, 23.30711 ], [ 84.63402, 23.30662 ], [ 84.63958, 23.30749 ], [ 84.64256, 23.30623 ], [ 84.65196, 23.31116 ], [ 84.65409, 23.31058 ], [ 84.65376, 23.30929 ], [ 84.65636, 23.30687 ], [ 84.6611, 23.30645 ], [ 84.66229, 23.30674 ], [ 84.66405, 23.31483 ], [ 84.67282, 23.31607 ], [ 84.67413, 23.31778 ], [ 84.67402, 23.32048 ], [ 84.67873, 23.32128 ], [ 84.67983, 23.31975 ], [ 84.68504, 23.31721 ], [ 84.68498, 23.31634 ], [ 84.68804, 23.31364 ], [ 84.69141, 23.30787 ], [ 84.70241, 23.30893 ], [ 84.71266, 23.31133 ], [ 84.71579, 23.31702 ], [ 84.71548, 23.31986 ], [ 84.72142, 23.32095 ], [ 84.72115, 23.32276 ], [ 84.72763, 23.32521 ], [ 84.73051, 23.32754 ], [ 84.73132, 23.3302 ], [ 84.73789, 23.33157 ] ] ] } },
{ "type": "Feature", "properties": { "OBJECTID": 5783, "state_lgd": "20", "state_name": "JHARKHAND", "district_lgd": "366", "district_name": "GUMLA", "district_name_source": "district_table", "subdistrict_lgd": "02709", "subdistrict_name": "VERNO", "subdistrict_type": "", "name_corrupted": false, "remarks": "", "label_lon": 84.857351959472524, "label_lat": 23.18729200734693 }, "geometry": { "type": "Polygon", "coordinates": [ [ [ 84.90717, 23.32723 ], [ 84.90776, 23.32599 ], [ 84.91113, 23.32701 ], [ 84.91436, 23.32467 ], [ 84.91727, 23.32042 ], [ 84.91998, 23.32118 ], [ 84.92206, 23.31822 ], [ 84.92509, 23.31097 ], [ 84.92661, 23.31154 ], [ 84.9268, 23.30986 ], [ 84.9264, 23.3084 ], [ 84.92436, 23.30688 ], [ 84.91225, 23.29864 ], [ 84.91072, 23.29832 ], [ 84.91109, 23.29672 ], [ 84.90782, 23.2936 ], [ 84.90721, 23.29036 ], [ 84.90468, 23.28787 ], [ 84.90139, 23.28608 ], [ 84.90142, 23.28423 ], [ 84.89959, 23.27997 ], [ 84.90011, 23.27632 ], [ 84.8988, 23.27333 ], [ 84.89952, 23.26351 ], [ 84.89758, 23.25884 ], [ 84.90579, 23.25634 ], [ 84.91081, 23.25554 ], [ 84.91289, 23.25602 ], [ 84.91473, 23.25319 ], [ 84.9142, 23.25193 ], [ 84.90941, 23.25058 ], [ 84.91116, 23.24906 ], [ 84.9119, 23.24312 ], [ 84.93092, 23.23731 ], [ 84.933, 23.23484 ], [ 84.93652, 23.23304 ], [ 84.93902, 23.23297 ], [ 84.93879, 23.23076 ], [ 84.9413, 23.23029 ], [ 84.94317, 23.23096 ], [ 84.94643, 23.22963 ], [ 84.94791, 23.23081 ], [ 84.94938, 23.22976 ], [ 84.95042, 23.23132 ], [ 84.95172, 23.22802 ], [ 84.95184, 23.22487 ], [ 84.95087, 23.22182 ], [ 84.94919, 23.21755 ], [ 84.94725, 23.21715 ], [ 84.94753, 23.21592 ], [ 84.94459, 23.20931 ], [ 84.93814, 23.20857 ], [ 84.93617, 23.20128 ], [ 84.93423, 23.20185 ], [ 84.92624, 23.20161 ], [ 84.92502, 23.20053 ], [ 84.92549, 23.19947 ], [ 84.92483, 23.19885 ], [ 84.91935, 23.19573 ], [ 84.91446, 23.19687 ], [ 84.91184, 23.19451 ], [ 84.91165, 23.19277 ], [ 84.9129, 23.1911 ], [ 84.91757, 23.18872 ], [ 84.92584, 23.18762 ], [ 84.9252, 23.18652 ], [ 84.92501, 23.18045 ], [ 84.92345, 23.17526 ], [ 84.9242, 23.17246 ], [ 84.92158, 23.16777 ], [ 84.90134, 23.17305 ], [ 84.89837, 23.17241 ], [ 84.89774, 23.17066 ], [ 84.89525, 23.17065 ], [ 84.89196, 23.16704 ], [ 84.88994, 23.15326 ], [ 84.88951, 23.14458 ], [ 84.88839, 23.14415 ], [ 84.88611, 23.14077 ], [ 84.88796, 23.13622 ], [ 84.88735, 23.13269 ], [ 84.89289, 23.12939 ], [ 84.88989, 23.12753 ], [ 84.88824, 23.11867 ], [ 84.88884, 23.11694 ], [ 84.89575, 23.11306 ], [ 84.89588, 23.11165 ], [ 84.89883, 23.11089 ], [ 84.89967, 23.10973 ], [ 84.89789, 23.10641 ], [ 84.89777, 23.10453 ], [ 84.89596, 23.10309 ], [ 84.89642, 23.09867 ], [ 84.88385, 23.09926 ], [ 84.88181, 23.09921 ], [ 84.88151, 23.09811 ], [ 84.87659, 23.09763 ], [ 84.86874, 23.09825 ], [ 84.86929, 23.08859 ], [ 84.87058, 23.08704 ], [ 84.87334, 23.08629 ], [ 84.87314, 23.08319 ], [ 84.87549, 23.07806 ], [ 84.87588, 23.07328 ], [ 84.87521, 23.06872 ], [ 84.87145, 23.06808 ], [ 84.86972, 23.06298 ], [ 84.86934, 23.06135 ], [ 84.87153, 23.05929 ], [ 84.87204, 23.05726 ], [ 84.87058, 23.05229 ], [ 84.87174, 23.05096 ], [ 84.86891, 23.04835 ], [ 84.86929, 23.04599 ], [ 84.86826, 23.04421 ], [ 84.86657, 23.03546 ], [ 84.86532, 23.03354 ], [ 84.85557, 23.03388 ], [ 84.84465, 23.03889 ], [ 84.84187, 23.03917 ], [ 84.83695, 23.04112 ], [ 84.83572, 23.04111 ], [ 84.8347, 23.03979 ], [ 84.82723, 23.03792 ], [ 84.82398, 23.0379 ], [ 84.82272, 23.0356 ], [ 84.82001, 23.03541 ], [ 84.81759, 23.03359 ], [ 84.81084, 23.03397 ], [ 84.80911, 23.03789 ], [ 84.80439, 23.03978 ], [ 84.79875, 23.04605 ], [ 84.80016, 23.04753 ], [ 84.79987, 23.04852 ], [ 84.80195, 23.05403 ], [ 84.8061, 23.05891 ], [ 84.80763, 23.0637 ], [ 84.80951, 23.0631 ], [ 84.81153, 23.06819 ], [ 84.81095, 23.06987 ], [ 84.8085, 23.07015 ], [ 84.80716, 23.06946 ], [ 84.80508, 23.07072 ], [ 84.80421, 23.0702 ], [ 84.803, 23.07196 ], [ 84.80078, 23.07138 ], [ 84.80057, 23.0719 ], [ 84.80203, 23.07717 ], [ 84.80273, 23.07742 ], [ 84.80293, 23.07913 ], [ 84.80199, 23.07977 ], [ 84.80428, 23.08238 ], [ 84.80425, 23.08424 ], [ 84.8059, 23.08468 ], [ 84.80854, 23.08889 ], [ 84.8098, 23.0886 ], [ 84.81005, 23.09081 ], [ 84.81103, 23.09208 ], [ 84.8122, 23.09213 ], [ 84.81222, 23.09348 ], [ 84.81446, 23.09685 ], [ 84.80954, 23.10175 ], [ 84.80845, 23.10456 ], [ 84.80685, 23.10463 ], [ 84.80688, 23.10601 ], [ 84.80522, 23.10769 ], [ 84.80662, 23.11556 ], [ 84.80911, 23.11568 ], [ 84.81096, 23.11656 ], [ 84.81131, 23.1175 ], [ 84.80805, 23.11891 ], [ 84.80676, 23.11859 ], [ 84.80405, 23.12037 ], [ 84.79811, 23.12173 ], [ 84.79368, 23.12397 ], [ 84.79137, 23.1242 ], [ 84.79137, 23.12488 ], [ 84.7959, 23.13655 ], [ 84.7993, 23.13659 ], [ 84.80119, 23.13771 ], [ 84.80419, 23.13741 ], [ 84.80527, 23.1382 ], [ 84.80493, 23.15734 ], [ 84.81427, 23.16257 ], [ 84.81844, 23.16266 ], [ 84.8197, 23.16687 ], [ 84.8222, 23.16877 ], [ 84.82208, 23.17199 ], [ 84.82073, 23.17844 ], [ 84.80841, 23.17952 ], [ 84.80553, 23.18146 ], [ 84.80663, 23.1881 ], [ 84.8058, 23.19533 ], [ 84.79942, 23.19175 ], [ 84.79808, 23.19197 ], [ 84.79726, 23.19452 ], [ 84.79635, 23.19505 ], [ 84.79241, 23.19408 ], [ 84.79398, 23.19755 ], [ 84.79086, 23.20731 ], [ 84.79125, 23.21091 ], [ 84.7905, 23.21494 ], [ 84.7953, 23.2139 ], [ 84.79725, 23.2168 ], [ 84.80091, 23.21653 ], [ 84.80247, 23.21914 ], [ 84.80683, 23.22042 ], [ 84.80783, 23.22123 ], [ 84.80839, 23.22377 ], [ 84.81001, 23.2238 ], [ 84.81712, 23.22723 ], [ 84.81544, 23.22806 ], [ 84.81484, 23.23256 ], [ 84.81128, 23.23318 ], [ 84.80619, 23.23551 ], [ 84.80367, 23.23507 ], [ 84.80303, 23.23606 ], [ 84.79604, 23.23659 ], [ 84.79882, 23.24101 ], [ 84.80032, 23.24089 ], [ 84.80128, 23.24282 ], [ 84.80282, 23.24299 ], [ 84.80383, 23.24571 ], [ 84.80197, 23.24895 ], [ 84.80049, 23.25486 ], [ 84.80079, 23.25725 ], [ 84.79858, 23.25999 ], [ 84.79905, 23.26682 ], [ 84.79829, 23.27073 ], [ 84.80006, 23.27798 ], [ 84.79978, 23.27991 ], [ 84.80555, 23.28017 ], [ 84.80867, 23.28118 ], [ 84.81097, 23.28297 ], [ 84.81383, 23.2829 ], [ 84.8148, 23.29101 ], [ 84.81781, 23.29511 ], [ 84.8297, 23.29574 ], [ 84.83089, 23.29829 ], [ 84.83449, 23.29808 ], [ 84.84303, 23.29949 ], [ 84.84489, 23.30218 ], [ 84.84605, 23.31049 ], [ 84.85038, 23.31498 ], [ 84.85841, 23.31671 ], [ 84.86688, 23.31544 ], [ 84.86938, 23.31319 ], [ 84.87536, 23.31011 ], [ 84.87979, 23.31285 ], [ 84.88983, 23.31681 ], [ 84.8962, 23.3168 ], [ 84.89825, 23.31926 ], [ 84.90005, 23.31889 ], [ 84.89998, 23.32099 ], [ 84.90717, 23.32723 ] ] ] } },
{ "type": "Feature", "properties": { "OBJECTID": 5784, "state_lgd": "20", "state_name": "JHARKHAND", "district_lgd": "366", "district_name": "GUMLA", "district_name_source": "district_table", "subdistrict_lgd": "02706", "subdistrict_name": "BISHUNPUR", "subdistrict_type": "", "name_corrupted": false, "remarks": "", "label_lon": 84.359211470833699, "label_lat": 23.430172305034059 }, "geometry": { "type": "Polygon", "coordinates": [ [ [ 84.3585, 23.60893 ], [ 84.37877, 23.60484 ], [ 84.38267, 23.60766 ], [ 84.39312, 23.60103 ], [ 84.39638, 23.59733 ], [ 84.4023, 23.60249 ], [ 84.40583, 23.60306 ], [ 84.42607, 23.5942 ], [ 84.42776, 23.59225 ], [ 84.43419, 23.59147 ], [ 84.437, 23.58953 ], [ 84.44165, 23.59099 ], [ 84.44198, 23.59439 ], [ 84.44325, 23.59566 ], [ 84.44905, 23.59381 ], [ 84.45021, 23.594 ], [ 84.45264, 23.5973 ], [ 84.45623, 23.59729 ], [ 84.45697, 23.59682 ], [ 84.45593, 23.58944 ], [ 84.45347, 23.58554 ], [ 84.45379, 23.5848 ], [ 84.46544, 23.58338 ], [ 84.46623, 23.58196 ], [ 84.47172, 23.57974 ], [ 84.47122, 23.57644 ], [ 84.4736, 23.57474 ], [ 84.47424, 23.57252 ], [ 84.47369, 23.57119 ], [ 84.46927, 23.56795 ], [ 84.46952, 23.56341 ], [ 84.46783, 23.56243 ], [ 84.46613, 23.54568 ], [ 84.46725, 23.54367 ], [ 84.46242, 23.53458 ], [ 84.46409, 23.52859 ], [ 84.46962, 23.52366 ], [ 84.47121, 23.52023 ], [ 84.47075, 23.51878 ], [ 84.47144, 23.51485 ], [ 84.4707, 23.51035 ], [ 84.47157, 23.49817 ], [ 84.47503, 23.49325 ], [ 84.47645, 23.48609 ], [ 84.46734, 23.47866 ], [ 84.46521, 23.46779 ], [ 84.46281, 23.46585 ], [ 84.459, 23.46444 ], [ 84.4553, 23.45946 ], [ 84.45321, 23.45795 ], [ 84.45083, 23.45845 ], [ 84.44602, 23.44675 ], [ 84.43794, 23.44023 ], [ 84.43361, 23.43888 ], [ 84.43108, 23.43561 ], [ 84.43424, 23.43282 ], [ 84.43588, 23.42225 ], [ 84.43775, 23.41907 ], [ 84.44046, 23.41691 ], [ 84.44272, 23.40481 ], [ 84.44793, 23.40247 ], [ 84.45316, 23.40413 ], [ 84.45897, 23.40393 ], [ 84.46122, 23.40473 ], [ 84.46288, 23.40695 ], [ 84.46392, 23.40706 ], [ 84.47278, 23.40305 ], [ 84.4754, 23.40465 ], [ 84.4813, 23.39398 ], [ 84.47707, 23.3916 ], [ 84.47475, 23.38928 ], [ 84.47312, 23.38624 ], [ 84.47297, 23.38251 ], [ 84.46878, 23.37948 ], [ 84.46045, 23.37718 ], [ 84.45804, 23.37481 ], [ 84.45411, 23.37467 ], [ 84.4489, 23.37304 ], [ 84.44266, 23.37544 ], [ 84.43794, 23.37459 ], [ 84.43513, 23.37272 ], [ 84.43321, 23.36763 ], [ 84.43663, 23.36607 ], [ 84.43754, 23.36449 ], [ 84.43421, 23.36157 ], [ 84.43532, 23.35837 ], [ 84.42917, 23.35173 ], [ 84.42009, 23.33454 ], [ 84.41898, 23.33414 ], [ 84.42228, 23.33026 ], [ 84.42218, 23.32739 ], [ 84.41272, 23.31007 ], [ 84.41292, 23.30615 ], [ 84.40571, 23.30907 ], [ 84.40449, 23.31023 ], [ 84.40211, 23.30816 ], [ 84.40064, 23.30402 ], [ 84.39653, 23.30142 ], [ 84.39346, 23.29726 ], [ 84.38672, 23.30245 ], [ 84.3843, 23.30264 ], [ 84.38191, 23.2998 ], [ 84.38219, 23.29817 ], [ 84.38067, 23.29431 ], [ 84.37788, 23.29245 ], [ 84.37619, 23.29275 ], [ 84.37575, 23.29218 ], [ 84.37593, 23.29012 ], [ 84.37413, 23.28538 ], [ 84.36948, 23.28532 ], [ 84.36618, 23.28429 ], [ 84.36048, 23.27906 ], [ 84.35469, 23.27729 ], [ 84.3505, 23.27857 ], [ 84.34889, 23.27796 ], [ 84.34777, 23.27958 ], [ 84.34584, 23.28043 ], [ 84.33723, 23.28189 ], [ 84.32393, 23.27736 ], [ 84.31454, 23.27534 ], [ 84.30717, 23.27499 ], [ 84.30548, 23.27403 ], [ 84.30419, 23.27049 ], [ 84.30134, 23.26923 ], [ 84.30178, 23.26688 ], [ 84.30056, 23.26553 ], [ 84.30239, 23.25644 ], [ 84.29783, 23.25446 ], [ 84.29456, 23.25868 ], [ 84.29367, 23.26139 ], [ 84.28945, 23.26326 ], [ 84.2906, 23.26423 ], [ 84.28634, 23.26687 ], [ 84.28601, 23.26864 ], [ 84.28373, 23.27144 ], [ 84.28122, 23.27224 ], [ 84.28062, 23.27937 ], [ 84.27721, 23.28028 ], [ 84.27316, 23.28058 ], [ 84.27072, 23.27907 ], [ 84.26542, 23.2787 ], [ 84.26382, 23.27763 ], [ 84.25976, 23.27279 ], [ 84.25921, 23.2675 ], [ 84.25722, 23.26406 ], [ 84.25459, 23.26421 ], [ 84.25313, 23.26131 ], [ 84.24995, 23.2592 ], [ 84.24597, 23.26539 ], [ 84.24107, 23.27013 ], [ 84.24, 23.27215 ], [ 84.24219, 23.27698 ], [ 84.24592, 23.28168 ], [ 84.25277, 23.28774 ], [ 84.25459, 23.29045 ], [ 84.25261, 23.29309 ], [ 84.25026, 23.29401 ], [ 84.24794, 23.29675 ], [ 84.24753, 23.30315 ], [ 84.24204, 23.30588 ], [ 84.23916, 23.30968 ], [ 84.23779, 23.31416 ], [ 84.2381, 23.31799 ], [ 84.23613, 23.31988 ], [ 84.23241, 23.31915 ], [ 84.23179, 23.3223 ], [ 84.22757, 23.33179 ], [ 84.22859, 23.33805 ], [ 84.22541, 23.34159 ], [ 84.22725, 23.34437 ], [ 84.22888, 23.34509 ], [ 84.23441, 23.34526 ], [ 84.23511, 23.34692 ], [ 84.23729, 23.34685 ], [ 84.23779, 23.34782 ], [ 84.24108, 23.34772 ], [ 84.24358, 23.35076 ], [ 84.24434, 23.35026 ], [ 84.24312, 23.35472 ], [ 84.24704, 23.35518 ], [ 84.2481, 23.35636 ], [ 84.24768, 23.3666 ], [ 84.24966, 23.36875 ], [ 84.25094, 23.3717 ], [ 84.25321, 23.37336 ], [ 84.25486, 23.3739 ], [ 84.25749, 23.37294 ], [ 84.25732, 23.37551 ], [ 84.25937, 23.37839 ], [ 84.2589, 23.38106 ], [ 84.26008, 23.38226 ], [ 84.25774, 23.3848 ], [ 84.25609, 23.39456 ], [ 84.25318, 23.39704 ], [ 84.25337, 23.40246 ], [ 84.25124, 23.40893 ], [ 84.25319, 23.41922 ], [ 84.25445, 23.41976 ], [ 84.25577, 23.424 ], [ 84.2548, 23.42715 ], [ 84.25515, 23.42942 ], [ 84.25181, 23.43244 ], [ 84.24898, 23.44046 ], [ 84.24587, 23.4431 ], [ 84.24625, 23.4458 ], [ 84.24886, 23.45097 ], [ 84.25427, 23.45515 ], [ 84.25692, 23.45894 ], [ 84.26914, 23.4614 ], [ 84.26975, 23.46348 ], [ 84.27315, 23.46331 ], [ 84.27327, 23.46442 ], [ 84.27467, 23.46478 ], [ 84.27468, 23.46582 ], [ 84.27645, 23.46668 ], [ 84.27594, 23.468 ], [ 84.27467, 23.46711 ], [ 84.27393, 23.46743 ], [ 84.2751, 23.47176 ], [ 84.27962, 23.46882 ], [ 84.28056, 23.46704 ], [ 84.28168, 23.46866 ], [ 84.2824, 23.46761 ], [ 84.28374, 23.47081 ], [ 84.28581, 23.48569 ], [ 84.28688, 23.48671 ], [ 84.28719, 23.49022 ], [ 84.29064, 23.49357 ], [ 84.3018, 23.48426 ], [ 84.30923, 23.48394 ], [ 84.31754, 23.48191 ], [ 84.31751, 23.48688 ], [ 84.31976, 23.4901 ], [ 84.31927, 23.49078 ], [ 84.31652, 23.49105 ], [ 84.31657, 23.49331 ], [ 84.31721, 23.49386 ], [ 84.32492, 23.49203 ], [ 84.32891, 23.49301 ], [ 84.32962, 23.4965 ], [ 84.32877, 23.50294 ], [ 84.33088, 23.50816 ], [ 84.32998, 23.51028 ], [ 84.32634, 23.51202 ], [ 84.32663, 23.51487 ], [ 84.32789, 23.52228 ], [ 84.33169, 23.52691 ], [ 84.33271, 23.52937 ], [ 84.32741, 23.53216 ], [ 84.3283, 23.53856 ], [ 84.32746, 23.5543 ], [ 84.3192, 23.57474 ], [ 84.31857, 23.57747 ], [ 84.31899, 23.58025 ], [ 84.32819, 23.58056 ], [ 84.34195, 23.58466 ], [ 84.34372, 23.59058 ], [ 84.34216, 23.59173 ], [ 84.34146, 23.59435 ], [ 84.34381, 23.59596 ], [ 84.34228, 23.59935 ], [ 84.35079, 23.59938 ], [ 84.35389, 23.60563 ], [ 84.3585, 23.60893 ] ] ] } },
{ "type": "Feature", "properties": { "OBJECTID": 5786, "state_lgd": "20", "state_name": "JHARKHAND", "district_lgd": "366", "district_name": "GUMLA", "district_name_source": "district_table", "subdistrict_lgd": "02713", "subdistrict_name": "CHAINPUR", "subdistrict_type": "", "name_corrupted": false, "remarks": "", "label_lon": 84.308640132446584, "label_lat": 23.160551281477996 }, "geometry": { "type": "Polygon", "coordinates": [ [ [ 84.22541, 23.34159 ], [ 84.22859, 23.33805 ], [ 84.22757, 23.33179 ], [ 84.23179, 23.3223 ], [ 84.23241, 23.31915 ], [ 84.23613, 23.31988 ], [ 84.2381, 23.31799 ], [ 84.23779, 23.31416 ], [ 84.23916, 23.30968 ], [ 84.24204, 23.30588 ], [ 84.24753, 23.30315 ], [ 84.24794, 23.29675 ], [ 84.25026, 23.29401 ], [ 84.25261, 23.29309 ], [ 84.25474, 23.28991 ], [ 84.24688, 23.28283 ], [ 84.24219, 23.27698 ], [ 84.24, 23.27215 ], [ 84.24107, 23.27013 ], [ 84.24597, 23.26539 ], [ 84.24995, 23.2592 ], [ 84.25313, 23.26131 ], [ 84.25459, 23.26421 ], [ 84.25722, 23.26406 ], [ 84.25921, 23.2675 ], [ 84.25976, 23.27279 ], [ 84.26482, 23.27839 ], [ 84.26983, 23.27881 ], [ 84.27316, 23.28058 ], [ 84.28062, 23.27937 ], [ 84.28122, 23.27224 ], [ 84.28373, 23.27144 ], [ 84.28601, 23.26864 ], [ 84.28634, 23.26687 ], [ 84.2906, 23.26423 ], [ 84.28945, 23.26326 ], [ 84.29367, 23.26139 ], [ 84.29456, 23.25868 ], [ 84.29783, 23.25446 ], [ 84.29647, 23.25412 ], [ 84.296, 23.25027 ], [ 84.29837, 23.24449 ], [ 84.29777, 23.23976 ], [ 84.29937, 23.23803 ], [ 84.30006, 23.23531 ], [ 84.29898, 23.23172 ], [ 84.29504, 23.22713 ], [ 84.29402, 23.22269 ], [ 84.29596, 23.22079 ], [ 84.29871, 23.21986 ], [ 84.3004, 23.21969 ], [ 84.30285, 23.22248 ], [ 84.30509, 23.22326 ], [ 84.31488, 23.22052 ], [ 84.31558, 23.21805 ], [ 84.31374, 23.21521 ], [ 84.31498, 23.21199 ], [ 84.31487, 23.20998 ], [ 84.31166, 23.20762 ], [ 84.31139, 23.2061 ], [ 84.31465, 23.20551 ], [ 84.32833, 23.19944 ], [ 84.33265, 23.19853 ], [ 84.33362, 23.19955 ], [ 84.34265, 23.1968 ], [ 84.34755, 23.19652 ], [ 84.34719, 23.19454 ], [ 84.34817, 23.19273 ], [ 84.35382, 23.194 ], [ 84.3614, 23.19262 ], [ 84.36351, 23.19461 ], [ 84.36395, 23.19994 ], [ 84.36876, 23.20714 ], [ 84.37657, 23.21136 ], [ 84.37817, 23.21163 ], [ 84.38177, 23.21024 ], [ 84.38927, 23.21348 ], [ 84.39368, 23.21629 ], [ 84.399, 23.22109 ], [ 84.39814, 23.22274 ], [ 84.40064, 23.22722 ], [ 84.40589, 23.22424 ], [ 84.41084, 23.22324 ], [ 84.41524, 23.22106 ], [ 84.41063, 23.22003 ], [ 84.4106, 23.21463 ], [ 84.4198, 23.21294 ], [ 84.42226, 23.21027 ], [ 84.42424, 23.20948 ], [ 84.4239, 23.20715 ], [ 84.4252, 23.201 ], [ 84.429, 23.19993 ], [ 84.4286, 23.19924 ], [ 84.42534, 23.19881 ], [ 84.42457, 23.19491 ], [ 84.4277, 23.19335 ], [ 84.42411, 23.18966 ], [ 84.42467, 23.1874 ], [ 84.42344, 23.18033 ], [ 84.42042, 23.17332 ], [ 84.42108, 23.17008 ], [ 84.41868, 23.16346 ], [ 84.42856, 23.15464 ], [ 84.436, 23.15373 ], [ 84.43866, 23.15197 ], [ 84.43511, 23.14592 ], [ 84.42882, 23.14172 ], [ 84.42628, 23.138 ], [ 84.42637, 23.13673 ], [ 84.43854, 23.12746 ], [ 84.44323, 23.1263 ], [ 84.45273, 23.12682 ], [ 84.4554, 23.12557 ], [ 84.46011, 23.11942 ], [ 84.46007, 23.11696 ], [ 84.46223, 23.11439 ], [ 84.46266, 23.11217 ], [ 84.45972, 23.10673 ], [ 84.45935, 23.10232 ], [ 84.45854, 23.10101 ], [ 84.46662, 23.09099 ], [ 84.46726, 23.08807 ], [ 84.4689, 23.08692 ], [ 84.46884, 23.08508 ], [ 84.46778, 23.08351 ], [ 84.4665, 23.08318 ], [ 84.46316, 23.08356 ], [ 84.45558, 23.08263 ], [ 84.45499, 23.07943 ], [ 84.45637, 23.07543 ], [ 84.45436, 23.07371 ], [ 84.45505, 23.06874 ], [ 84.4562, 23.06589 ], [ 84.45937, 23.06668 ], [ 84.46238, 23.06571 ], [ 84.46514, 23.06301 ], [ 84.47008, 23.06316 ], [ 84.47116, 23.06188 ], [ 84.47129, 23.06023 ], [ 84.47016, 23.05672 ], [ 84.46228, 23.0525 ], [ 84.45933, 23.04993 ], [ 84.45288, 23.04685 ], [ 84.45376, 23.04577 ], [ 84.4569, 23.04611 ], [ 84.45907, 23.04464 ], [ 84.45986, 23.04569 ], [ 84.46194, 23.04507 ], [ 84.46338, 23.04779 ], [ 84.46881, 23.04822 ], [ 84.46721, 23.04525 ], [ 84.46873, 23.04367 ], [ 84.46914, 23.04096 ], [ 84.46455, 23.03633 ], [ 84.45779, 23.03523 ], [ 84.45496, 23.03402 ], [ 84.45041, 23.03393 ], [ 84.44817, 23.0349 ], [ 84.43942, 23.04114 ], [ 84.43906, 23.04453 ], [ 84.44025, 23.04979 ], [ 84.43934, 23.05109 ], [ 84.4378, 23.04938 ], [ 84.42741, 23.04541 ], [ 84.42641, 23.04945 ], [ 84.42128, 23.05481 ], [ 84.42046, 23.06023 ], [ 84.42096, 23.0626 ], [ 84.41617, 23.06842 ], [ 84.41521, 23.06829 ], [ 84.41287, 23.0636 ], [ 84.40972, 23.06763 ], [ 84.40671, 23.0692 ], [ 84.40616, 23.0712 ], [ 84.40171, 23.07186 ], [ 84.39498, 23.08724 ], [ 84.3914, 23.08775 ], [ 84.38796, 23.09035 ], [ 84.3838, 23.08925 ], [ 84.38152, 23.08364 ], [ 84.37944, 23.0821 ], [ 84.37038, 23.07874 ], [ 84.36654, 23.07506 ], [ 84.36219, 23.07381 ], [ 84.3607, 23.07444 ], [ 84.35568, 23.07408 ], [ 84.35049, 23.07788 ], [ 84.35078, 23.07493 ], [ 84.34769, 23.07061 ], [ 84.34, 23.06794 ], [ 84.33689, 23.0684 ], [ 84.33487, 23.07271 ], [ 84.33297, 23.07476 ], [ 84.32506, 23.07803 ], [ 84.32654, 23.07632 ], [ 84.32599, 23.07486 ], [ 84.32752, 23.06918 ], [ 84.32214, 23.0677 ], [ 84.31366, 23.06121 ], [ 84.30841, 23.05308 ], [ 84.30467, 23.04361 ], [ 84.29635, 23.04318 ], [ 84.29263, 23.0469 ], [ 84.29087, 23.05185 ], [ 84.2861, 23.05737 ], [ 84.28645, 23.05942 ], [ 84.29139, 23.06346 ], [ 84.29127, 23.06522 ], [ 84.28914, 23.06618 ], [ 84.28283, 23.06688 ], [ 84.27932, 23.06953 ], [ 84.27389, 23.07208 ], [ 84.26763, 23.07207 ], [ 84.26508, 23.07315 ], [ 84.26414, 23.0743 ], [ 84.26412, 23.08066 ], [ 84.26219, 23.08482 ], [ 84.25999, 23.08653 ], [ 84.25579, 23.08601 ], [ 84.25283, 23.0871 ], [ 84.25206, 23.09066 ], [ 84.24903, 23.0941 ], [ 84.24947, 23.10205 ], [ 84.24805, 23.10438 ], [ 84.24029, 23.10903 ], [ 84.2373, 23.11001 ], [ 84.23368, 23.10782 ], [ 84.2294, 23.10648 ], [ 84.22377, 23.10811 ], [ 84.2131, 23.1061 ], [ 84.21027, 23.10702 ], [ 84.20784, 23.11792 ], [ 84.20785, 23.12363 ], [ 84.20291, 23.12773 ], [ 84.20282, 23.13697 ], [ 84.19599, 23.14539 ], [ 84.19504, 23.15205 ], [ 84.1904, 23.15363 ], [ 84.18869, 23.15538 ], [ 84.18583, 23.15665 ], [ 84.18572, 23.15812 ], [ 84.18817, 23.1606 ], [ 84.18705, 23.16231 ], [ 84.18174, 23.16524 ], [ 84.18134, 23.16659 ], [ 84.18255, 23.17153 ], [ 84.18202, 23.17324 ], [ 84.1809, 23.17383 ], [ 84.17748, 23.17307 ], [ 84.17336, 23.17479 ], [ 84.17329, 23.17756 ], [ 84.1762, 23.17979 ], [ 84.17519, 23.1822 ], [ 84.16762, 23.181 ], [ 84.16562, 23.18135 ], [ 84.15936, 23.1848 ], [ 84.15374, 23.19026 ], [ 84.15436, 23.19916 ], [ 84.15653, 23.20738 ], [ 84.15629, 23.20889 ], [ 84.15327, 23.21273 ], [ 84.15965, 23.21769 ], [ 84.16153, 23.2173 ], [ 84.16605, 23.21957 ], [ 84.16768, 23.22165 ], [ 84.17304, 23.2219 ], [ 84.17623, 23.22466 ], [ 84.1788, 23.22443 ], [ 84.1813, 23.22741 ], [ 84.18515, 23.22319 ], [ 84.1862, 23.22557 ], [ 84.18713, 23.22575 ], [ 84.1887, 23.22348 ], [ 84.19025, 23.22465 ], [ 84.19218, 23.2243 ], [ 84.19395, 23.22556 ], [ 84.1957, 23.22481 ], [ 84.19856, 23.22686 ], [ 84.20385, 23.22644 ], [ 84.20465, 23.2272 ], [ 84.20449, 23.22855 ], [ 84.20564, 23.22913 ], [ 84.20652, 23.22912 ], [ 84.20783, 23.22679 ], [ 84.21355, 23.22939 ], [ 84.21391, 23.23088 ], [ 84.21674, 23.23113 ], [ 84.21877, 23.23449 ], [ 84.22167, 23.23714 ], [ 84.22145, 23.2395 ], [ 84.22411, 23.24214 ], [ 84.22322, 23.24391 ], [ 84.2256, 23.24466 ], [ 84.22627, 23.24564 ], [ 84.2241, 23.2482 ], [ 84.22403, 23.24971 ], [ 84.22518, 23.25086 ], [ 84.22274, 23.25306 ], [ 84.22362, 23.25534 ], [ 84.22621, 23.25525 ], [ 84.22715, 23.25635 ], [ 84.22965, 23.25714 ], [ 84.23202, 23.26023 ], [ 84.23845, 23.26057 ], [ 84.24132, 23.26205 ], [ 84.24142, 23.26318 ], [ 84.23953, 23.26392 ], [ 84.23774, 23.26594 ], [ 84.23605, 23.27007 ], [ 84.23616, 23.27179 ], [ 84.23525, 23.27203 ], [ 84.23395, 23.27548 ], [ 84.22909, 23.27924 ], [ 84.22862, 23.28073 ], [ 84.22917, 23.28242 ], [ 84.22785, 23.28249 ], [ 84.22594, 23.28127 ], [ 84.22417, 23.28166 ], [ 84.22064, 23.28624 ], [ 84.22562, 23.28717 ], [ 84.22527, 23.28945 ], [ 84.22706, 23.29057 ], [ 84.22738, 23.2936 ], [ 84.22676, 23.29447 ], [ 84.22526, 23.29548 ], [ 84.21894, 23.29554 ], [ 84.2134, 23.29922 ], [ 84.20799, 23.30036 ], [ 84.2056, 23.30272 ], [ 84.20457, 23.30528 ], [ 84.19949, 23.30498 ], [ 84.20042, 23.30694 ], [ 84.20004, 23.30765 ], [ 84.19604, 23.31151 ], [ 84.19166, 23.31399 ], [ 84.18923, 23.31757 ], [ 84.18929, 23.31983 ], [ 84.19118, 23.32152 ], [ 84.19186, 23.3249 ], [ 84.19522, 23.32672 ], [ 84.19852, 23.33491 ], [ 84.20222, 23.33826 ], [ 84.20812, 23.3392 ], [ 84.21332, 23.33902 ], [ 84.21522, 23.34022 ], [ 84.22132, 23.34042 ], [ 84.22372, 23.34142 ], [ 84.22541, 23.34159 ] ] ] } },
{ "type": "Feature", "properties": { "OBJECTID": 5788, "state_lgd": "20", "state_name": "JHARKHAND", "district_lgd": "366", "district_name": "GUMLA", "district_name_source": "district_table", "subdistrict_lgd": "02714", "subdistrict_name": "DUMRI", "subdistrict_type": "", "name_corrupted": false, "remarks": "", "label_lon": 84.128727033540812, "label_lat": 23.219319934291686 }, "geometry": { "type": "Polygon", "coordinates": [ [ [ 84.12285, 23.3469 ], [ 84.12801, 23.34735 ], [ 84.13171, 23.34625 ], [ 84.13429, 23.34123 ], [ 84.1423, 23.33946 ], [ 84.14693, 23.33744 ], [ 84.14996, 23.33516 ], [ 84.15129, 23.33625 ], [ 84.15392, 23.33589 ], [ 84.18243, 23.32778 ], [ 84.18679, 23.32553 ], [ 84.19217, 23.32535 ], [ 84.19118, 23.32152 ], [ 84.18929, 23.31983 ], [ 84.18929, 23.3173 ], [ 84.19166, 23.31399 ], [ 84.19604, 23.31151 ], [ 84.20004, 23.30765 ], [ 84.20042, 23.30694 ], [ 84.19949, 23.30498 ], [ 84.20457, 23.30528 ], [ 84.2056, 23.30272 ], [ 84.20799, 23.30036 ], [ 84.2134, 23.29922 ], [ 84.21894, 23.29554 ], [ 84.22526, 23.29548 ], [ 84.22676, 23.29447 ], [ 84.22738, 23.2936 ], [ 84.22706, 23.29057 ], [ 84.22527, 23.28945 ], [ 84.22562, 23.28717 ], [ 84.22064, 23.28624 ], [ 84.22417, 23.28166 ], [ 84.22594, 23.28127 ], [ 84.22785, 23.28249 ], [ 84.22917, 23.28242 ], [ 84.22862, 23.28073 ], [ 84.22909, 23.27924 ], [ 84.23395, 23.27548 ], [ 84.23525, 23.27203 ], [ 84.23616, 23.27179 ], [ 84.23605, 23.27007 ], [ 84.23774, 23.26594 ], [ 84.24148, 23.26292 ], [ 84.24132, 23.26205 ], [ 84.23845, 23.26057 ], [ 84.23202, 23.26023 ], [ 84.22965, 23.25714 ], [ 84.22715, 23.25635 ], [ 84.22621, 23.25525 ], [ 84.22362, 23.25534 ], [ 84.22274, 23.25306 ], [ 84.22518, 23.25086 ], [ 84.22403, 23.24971 ], [ 84.2241, 23.2482 ], [ 84.22627, 23.24564 ], [ 84.2256, 23.24466 ], [ 84.22322, 23.24391 ], [ 84.22411, 23.24214 ], [ 84.22145, 23.2395 ], [ 84.22167, 23.23714 ], [ 84.21877, 23.23449 ], [ 84.21674, 23.23113 ], [ 84.21391, 23.23088 ], [ 84.21355, 23.22939 ], [ 84.20783, 23.22679 ], [ 84.20652, 23.22912 ], [ 84.20564, 23.22913 ], [ 84.20449, 23.22855 ], [ 84.20465, 23.2272 ], [ 84.20385, 23.22644 ], [ 84.19856, 23.22686 ], [ 84.1957, 23.22481 ], [ 84.19395, 23.22556 ], [ 84.19218, 23.2243 ], [ 84.19025, 23.22465 ], [ 84.1887, 23.22348 ], [ 84.18713, 23.22575 ], [ 84.1862, 23.22557 ], [ 84.18515, 23.22319 ], [ 84.1813, 23.22741 ], [ 84.1788, 23.22443 ], [ 84.17623, 23.22466 ], [ 84.17304, 23.2219 ], [ 84.16768, 23.22165 ], [ 84.16605, 23.21957 ], [ 84.16153, 23.2173 ], [ 84.15965, 23.21769 ], [ 84.15327, 23.21273 ], [ 84.15629, 23.20889 ], [ 84.15653, 23.20738 ], [ 84.15436, 23.19916 ], [ 84.15374, 23.19026 ], [ 84.15936, 23.1848 ], [ 84.16562, 23.18135 ], [ 84.16762, 23.181 ], [ 84.17519, 23.1822 ], [ 84.1762, 23.17979 ], [ 84.17329, 23.17756 ], [ 84.17336, 23.17479 ], [ 84.17748, 23.17307 ], [ 84.1809, 23.17383 ], [ 84.18202, 23.17324 ], [ 84.18255, 23.17153 ], [ 84.18134, 23.16659 ], [ 84.18174, 23.16524 ], [ 84.18705, 23.16231 ], [ 84.18817, 23.1606 ], [ 84.18572, 23.15812 ], [ 84.18583, 23.15665 ], [ 84.18869, 23.15538 ], [ 84.1904, 23.15363 ], [ 84.19504, 23.15205 ], [ 84.19599, 23.14539 ], [ 84.20282, 23.13697 ], [ 84.20291, 23.12773 ], [ 84.20785, 23.12363 ], [ 84.20784, 23.11792 ], [ 84.2095, 23.10891 ], [ 84.20613, 23.10786 ], [ 84.20316, 23.10501 ], [ 84.20052, 23.10385 ], [ 84.19525, 23.10498 ], [ 84.19176, 23.10747 ], [ 84.18936, 23.10679 ], [ 84.18813, 23.10488 ], [ 84.18521, 23.10493 ], [ 84.18299, 23.10796 ], [ 84.18057, 23.10657 ], [ 84.17997, 23.10331 ], [ 84.17893, 23.1022 ], [ 84.17705, 23.10228 ], [ 84.17459, 23.1042 ], [ 84.17231, 23.10478 ], [ 84.17013, 23.10465 ], [ 84.16817, 23.1022 ], [ 84.16833, 23.10492 ], [ 84.16724, 23.10792 ], [ 84.16771, 23.11071 ], [ 84.16449, 23.1107 ], [ 84.16221, 23.10784 ], [ 84.16283, 23.10629 ], [ 84.16001, 23.10669 ], [ 84.15883, 23.10489 ], [ 84.15949, 23.10337 ], [ 84.1524, 23.09858 ], [ 84.15193, 23.09311 ], [ 84.14843, 23.09215 ], [ 84.14803, 23.09119 ], [ 84.14446, 23.08959 ], [ 84.14089, 23.09051 ], [ 84.13873, 23.08977 ], [ 84.13751, 23.09138 ], [ 84.13593, 23.09092 ], [ 84.13263, 23.09273 ], [ 84.12972, 23.09265 ], [ 84.12926, 23.09171 ], [ 84.12823, 23.092 ], [ 84.12654, 23.09095 ], [ 84.12548, 23.09211 ], [ 84.12512, 23.08986 ], [ 84.12211, 23.08797 ], [ 84.11574, 23.09003 ], [ 84.11408, 23.09172 ], [ 84.11297, 23.09689 ], [ 84.10898, 23.0983 ], [ 84.10566, 23.10509 ], [ 84.09702, 23.10964 ], [ 84.09323, 23.11045 ], [ 84.09264, 23.11094 ], [ 84.09317, 23.11278 ], [ 84.08205, 23.11215 ], [ 84.07241, 23.109 ], [ 84.0664, 23.11067 ], [ 84.06259, 23.11341 ], [ 84.05876, 23.12293 ], [ 84.0583, 23.12617 ], [ 84.04921, 23.13451 ], [ 84.04485, 23.1348 ], [ 84.03998, 23.13717 ], [ 84.03747, 23.13988 ], [ 84.03669, 23.14817 ], [ 84.03331, 23.15224 ], [ 84.0319, 23.15783 ], [ 84.03239, 23.16049 ], [ 84.03438, 23.16298 ], [ 84.04003, 23.17424 ], [ 84.04132, 23.17961 ], [ 84.04293, 23.18265 ], [ 84.04931, 23.18744 ], [ 84.05015, 23.18893 ], [ 84.05653, 23.19317 ], [ 84.05843, 23.19994 ], [ 84.0622, 23.20262 ], [ 84.06317, 23.20565 ], [ 84.06281, 23.2079 ], [ 84.05873, 23.21375 ], [ 84.05576, 23.22028 ], [ 84.05639, 23.22691 ], [ 84.05908, 23.23599 ], [ 84.05383, 23.24375 ], [ 84.05373, 23.2473 ], [ 84.05682, 23.25553 ], [ 84.05985, 23.26879 ], [ 84.06275, 23.27102 ], [ 84.0646, 23.27472 ], [ 84.06248, 23.28843 ], [ 84.06442, 23.29046 ], [ 84.06645, 23.29086 ], [ 84.06812, 23.29378 ], [ 84.06219, 23.30766 ], [ 84.06596, 23.31348 ], [ 84.07327, 23.32852 ], [ 84.07428, 23.32917 ], [ 84.07484, 23.33137 ], [ 84.07427, 23.33384 ], [ 84.07602, 23.33389 ], [ 84.07765, 23.33241 ], [ 84.07978, 23.33287 ], [ 84.09744, 23.33134 ], [ 84.09584, 23.33294 ], [ 84.09576, 23.33411 ], [ 84.10015, 23.33908 ], [ 84.10217, 23.34057 ], [ 84.10524, 23.3402 ], [ 84.10736, 23.34362 ], [ 84.11295, 23.34305 ], [ 84.11294, 23.34433 ], [ 84.11477, 23.34583 ], [ 84.11433, 23.34822 ], [ 84.11608, 23.35068 ], [ 84.12123, 23.34912 ], [ 84.12285, 23.3469 ] ] ] } }
]
}
