{
"type": "FeatureCollection",
"name": "641_SURAJPUR",
"crs": { "type": "name", "properties": { "name": "urn:ogc:def:crs:OGC:1.3:CRS84" } },
"xy_coordinate_resolution": 1e-05,
"features": [
{ "type": "Feature", "properties": { "OBJECTID": 1315, "state_lgd": "22", "state_name": "CHHATTISGARH", "district_lgd": "641", "district_name": "SURAJPUR", "district_name_source": "district_table", "subdistrict_lgd": "3243", "subdistrict_name": "ODGI", "subdistrict_type": "Tehsil", "name_corrupted": false, "remarks": "", "label_lon": 82.805951242552695, "label_lat": 23.565095175754646 }, "geometry": { "type": "Polygon", "coordinates": [ [ [ 82.85195, 23.76826 ], [ 82.87225, 23.75053 ], [ 82.87268, 23.74924 ], [ 82.87044, 23.74225 ], [ 82.86797, 23.74139 ], [ 82.86396, 23.7421 ], [ 82.86041, 23.74034 ], [ 82.85944, 23.73908 ], [ 82.85914, 23.73638 ], [ 82.85342, 23.7333 ], [ 82.85218, 23.73131 ], [ 82.84675, 23.72669 ], [ 82.84551, 23.72376 ], [ 82.84746, 23.72068 ], [ 82.84586, 23.71839 ], [ 82.83787, 23.7197 ], [ 82.83537, 23.72093 ], [ 82.83294, 23.72067 ], [ 82.8303, 23.72259 ], [ 82.82806, 23.7231 ], [ 82.82729, 23.72593 ], [ 82.82624, 23.72628 ], [ 82.82221, 23.7262 ], [ 82.82034, 23.7254 ], [ 82.81731, 23.7264 ], [ 82.81218, 23.72471 ], [ 82.80929, 23.72758 ], [ 82.80636, 23.72598 ], [ 82.80489, 23.72377 ], [ 82.80566, 23.72014 ], [ 82.80558, 23.7143 ], [ 82.81383, 23.70872 ], [ 82.8166, 23.70903 ], [ 82.81872, 23.7102 ], [ 82.82431, 23.71072 ], [ 82.82831, 23.70567 ], [ 82.82798, 23.69881 ], [ 82.83283, 23.69562 ], [ 82.83499, 23.6931 ], [ 82.84335, 23.68884 ], [ 82.85519, 23.68808 ], [ 82.86156, 23.68353 ], [ 82.86332, 23.68433 ], [ 82.87215, 23.68183 ], [ 82.87598, 23.68368 ], [ 82.88024, 23.67912 ], [ 82.88349, 23.67382 ], [ 82.89887, 23.67541 ], [ 82.90539, 23.67361 ], [ 82.90603, 23.67285 ], [ 82.90286, 23.6663 ], [ 82.90799, 23.66277 ], [ 82.90968, 23.66286 ], [ 82.91398, 23.66078 ], [ 82.9162, 23.65878 ], [ 82.91655, 23.65715 ], [ 82.91874, 23.65562 ], [ 82.93248, 23.65587 ], [ 82.94056, 23.65358 ], [ 82.94558, 23.65065 ], [ 82.95319, 23.65034 ], [ 82.96419, 23.65333 ], [ 82.96443, 23.65594 ], [ 82.97117, 23.66022 ], [ 82.97229, 23.65919 ], [ 82.97387, 23.65263 ], [ 82.97316, 23.64865 ], [ 82.97634, 23.64616 ], [ 82.97744, 23.64379 ], [ 82.97967, 23.64261 ], [ 82.98381, 23.64185 ], [ 82.98902, 23.63925 ], [ 82.9945, 23.64135 ], [ 82.99704, 23.64063 ], [ 83.00114, 23.64179 ], [ 83.00256, 23.64293 ], [ 83.00503, 23.64299 ], [ 83.00613, 23.6441 ], [ 83.01249, 23.64325 ], [ 83.01693, 23.636 ], [ 83.02117, 23.63228 ], [ 83.02197, 23.63065 ], [ 83.02195, 23.62655 ], [ 83.02515, 23.61957 ], [ 83.02544, 23.61603 ], [ 83.0264, 23.61499 ], [ 83.02665, 23.60704 ], [ 83.03123, 23.60458 ], [ 83.02988, 23.60142 ], [ 83.03225, 23.59797 ], [ 83.03228, 23.59683 ], [ 83.03388, 23.59676 ], [ 83.03599, 23.59376 ], [ 83.04575, 23.59306 ], [ 83.04741, 23.59359 ], [ 83.05239, 23.59071 ], [ 83.05208, 23.58888 ], [ 83.05322, 23.58653 ], [ 83.05144, 23.58441 ], [ 83.05061, 23.58094 ], [ 83.05534, 23.56982 ], [ 83.05577, 23.56461 ], [ 83.05298, 23.56528 ], [ 83.04877, 23.56284 ], [ 83.04648, 23.5606 ], [ 83.04584, 23.55848 ], [ 83.03857, 23.55659 ], [ 83.03378, 23.55871 ], [ 83.02413, 23.55744 ], [ 83.01165, 23.55944 ], [ 83.00871, 23.55688 ], [ 83.00087, 23.55386 ], [ 82.99812, 23.54929 ], [ 83.00039, 23.5478 ], [ 83.00408, 23.54319 ], [ 83.00907, 23.53265 ], [ 83.01707, 23.5232 ], [ 83.01642, 23.51425 ], [ 83.02376, 23.50053 ], [ 83.01909, 23.48685 ], [ 83.01667, 23.48259 ], [ 83.01159, 23.4766 ], [ 83.01232, 23.47573 ], [ 83.01628, 23.47497 ], [ 83.0246, 23.47593 ], [ 83.02899, 23.47553 ], [ 83.0332, 23.47281 ], [ 83.03447, 23.47072 ], [ 83.03557, 23.46449 ], [ 83.03367, 23.4628 ], [ 83.00999, 23.45511 ], [ 83.00635, 23.45006 ], [ 83.00381, 23.4397 ], [ 83.00069, 23.43278 ], [ 82.99179, 23.4237 ], [ 82.99159, 23.41557 ], [ 82.99282, 23.41262 ], [ 82.99193, 23.41205 ], [ 82.97885, 23.40383 ], [ 82.97527, 23.40565 ], [ 82.97217, 23.40556 ], [ 82.96686, 23.40127 ], [ 82.96568, 23.39754 ], [ 82.96457, 23.39647 ], [ 82.95932, 23.39364 ], [ 82.95287, 23.39602 ], [ 82.95231, 23.39791 ], [ 82.95042, 23.39888 ], [ 82.95125, 23.4008 ], [ 82.95093, 23.40193 ], [ 82.94763, 23.40245 ], [ 82.94562, 23.40138 ], [ 82.93821, 23.39312 ], [ 82.93584, 23.39452 ], [ 82.931, 23.39574 ], [ 82.9245, 23.39582 ], [ 82.92001, 23.39395 ], [ 82.91759, 23.39023 ], [ 82.9138, 23.38875 ], [ 82.91151, 23.38545 ], [ 82.90994, 23.39064 ], [ 82.90752, 23.39361 ], [ 82.89888, 23.39642 ], [ 82.89891, 23.40167 ], [ 82.90475, 23.40443 ], [ 82.90922, 23.41079 ], [ 82.91445, 23.41456 ], [ 82.91601, 23.42407 ], [ 82.90712, 23.42358 ], [ 82.90496, 23.42223 ], [ 82.90478, 23.42117 ], [ 82.90087, 23.42066 ], [ 82.89859, 23.41841 ], [ 82.89718, 23.41827 ], [ 82.89597, 23.41914 ], [ 82.89266, 23.41856 ], [ 82.89084, 23.41664 ], [ 82.88808, 23.41094 ], [ 82.88482, 23.41061 ], [ 82.88076, 23.40687 ], [ 82.87919, 23.40686 ], [ 82.87628, 23.40886 ], [ 82.87816, 23.41515 ], [ 82.87699, 23.42326 ], [ 82.86487, 23.41566 ], [ 82.85213, 23.4141 ], [ 82.84858, 23.41172 ], [ 82.84738, 23.41512 ], [ 82.84683, 23.42253 ], [ 82.83997, 23.42854 ], [ 82.83478, 23.43047 ], [ 82.82565, 23.43899 ], [ 82.82541, 23.44374 ], [ 82.82982, 23.45378 ], [ 82.82437, 23.46103 ], [ 82.81969, 23.46485 ], [ 82.8164, 23.47225 ], [ 82.81003, 23.47073 ], [ 82.80899, 23.46982 ], [ 82.80808, 23.47105 ], [ 82.80631, 23.47066 ], [ 82.80591, 23.47162 ], [ 82.80323, 23.47268 ], [ 82.79747, 23.4724 ], [ 82.79333, 23.47007 ], [ 82.79226, 23.46849 ], [ 82.79252, 23.46736 ], [ 82.79071, 23.46641 ], [ 82.78993, 23.46479 ], [ 82.7851, 23.46369 ], [ 82.78382, 23.46489 ], [ 82.77956, 23.46294 ], [ 82.77613, 23.46381 ], [ 82.77304, 23.46635 ], [ 82.7702, 23.46604 ], [ 82.76967, 23.46492 ], [ 82.76869, 23.46612 ], [ 82.76569, 23.4663 ], [ 82.76503, 23.46457 ], [ 82.76046, 23.4659 ], [ 82.76035, 23.46294 ], [ 82.75558, 23.46439 ], [ 82.75091, 23.46306 ], [ 82.75122, 23.46044 ], [ 82.74959, 23.45933 ], [ 82.74752, 23.45947 ], [ 82.74036, 23.45047 ], [ 82.73802, 23.45096 ], [ 82.75018, 23.43802 ], [ 82.75226, 23.43132 ], [ 82.75206, 23.42906 ], [ 82.75048, 23.42955 ], [ 82.74829, 23.42823 ], [ 82.74478, 23.41787 ], [ 82.74437, 23.41289 ], [ 82.74881, 23.41226 ], [ 82.75634, 23.40554 ], [ 82.76199, 23.38519 ], [ 82.76502, 23.38523 ], [ 82.76721, 23.38794 ], [ 82.77286, 23.3855 ], [ 82.77037, 23.38246 ], [ 82.76728, 23.38085 ], [ 82.76772, 23.37942 ], [ 82.76644, 23.37845 ], [ 82.76656, 23.37553 ], [ 82.76548, 23.37587 ], [ 82.76486, 23.37361 ], [ 82.75892, 23.3717 ], [ 82.75635, 23.36888 ], [ 82.75342, 23.36999 ], [ 82.75248, 23.3696 ], [ 82.7522, 23.36755 ], [ 82.74992, 23.36527 ], [ 82.75504, 23.36302 ], [ 82.75539, 23.36111 ], [ 82.75208, 23.35954 ], [ 82.74926, 23.35312 ], [ 82.74835, 23.35482 ], [ 82.74111, 23.35981 ], [ 82.73316, 23.3617 ], [ 82.72725, 23.36494 ], [ 82.72284, 23.36478 ], [ 82.71821, 23.36113 ], [ 82.71493, 23.36075 ], [ 82.70783, 23.36414 ], [ 82.70628, 23.36585 ], [ 82.70424, 23.36593 ], [ 82.69673, 23.36968 ], [ 82.69094, 23.36941 ], [ 82.67468, 23.37068 ], [ 82.67111, 23.37497 ], [ 82.66744, 23.3757 ], [ 82.66444, 23.38199 ], [ 82.65528, 23.38198 ], [ 82.65013, 23.38496 ], [ 82.64931, 23.39181 ], [ 82.65068, 23.39865 ], [ 82.65108, 23.40681 ], [ 82.6565, 23.41903 ], [ 82.654, 23.4281 ], [ 82.65305, 23.43809 ], [ 82.65462, 23.44293 ], [ 82.65466, 23.44552 ], [ 82.65247, 23.45414 ], [ 82.65383, 23.45842 ], [ 82.65325, 23.46155 ], [ 82.65037, 23.4657 ], [ 82.65041, 23.46705 ], [ 82.65208, 23.46933 ], [ 82.64681, 23.47413 ], [ 82.64997, 23.47614 ], [ 82.65025, 23.47828 ], [ 82.64738, 23.47956 ], [ 82.64633, 23.48215 ], [ 82.64339, 23.48428 ], [ 82.64294, 23.4867 ], [ 82.64433, 23.48858 ], [ 82.64177, 23.50056 ], [ 82.63188, 23.50483 ], [ 82.6287, 23.50965 ], [ 82.62154, 23.51364 ], [ 82.61395, 23.51278 ], [ 82.60864, 23.51848 ], [ 82.60513, 23.52024 ], [ 82.60366, 23.52516 ], [ 82.59685, 23.52791 ], [ 82.58917, 23.5334 ], [ 82.58281, 23.54012 ], [ 82.58016, 23.54655 ], [ 82.58523, 23.55278 ], [ 82.58264, 23.55912 ], [ 82.5826, 23.56337 ], [ 82.57842, 23.57024 ], [ 82.57981, 23.57155 ], [ 82.57854, 23.57217 ], [ 82.57826, 23.57415 ], [ 82.58348, 23.57703 ], [ 82.58172, 23.57903 ], [ 82.57811, 23.58044 ], [ 82.57608, 23.5861 ], [ 82.57752, 23.58779 ], [ 82.57792, 23.59014 ], [ 82.57711, 23.5926 ], [ 82.57851, 23.60392 ], [ 82.57657, 23.60768 ], [ 82.5796, 23.6129 ], [ 82.57516, 23.61802 ], [ 82.5744, 23.62641 ], [ 82.57816, 23.6308 ], [ 82.57884, 23.63564 ], [ 82.58064, 23.63962 ], [ 82.58526, 23.64229 ], [ 82.58939, 23.64238 ], [ 82.59107, 23.64392 ], [ 82.59356, 23.64681 ], [ 82.59231, 23.64944 ], [ 82.60038, 23.65963 ], [ 82.60319, 23.66169 ], [ 82.60124, 23.66433 ], [ 82.60169, 23.6741 ], [ 82.59821, 23.68126 ], [ 82.59795, 23.68487 ], [ 82.62122, 23.68813 ], [ 82.63106, 23.68871 ], [ 82.63732, 23.68623 ], [ 82.64376, 23.6905 ], [ 82.65612, 23.70529 ], [ 82.65909, 23.6877 ], [ 82.67006, 23.66833 ], [ 82.69036, 23.66798 ], [ 82.72146, 23.66072 ], [ 82.73972, 23.66497 ], [ 82.75754, 23.67438 ], [ 82.75958, 23.68223 ], [ 82.75301, 23.70735 ], [ 82.74232, 23.71881 ], [ 82.72986, 23.72724 ], [ 82.72902, 23.7329 ], [ 82.73189, 23.73947 ], [ 82.7385, 23.7404 ], [ 82.74216, 23.74466 ], [ 82.74605, 23.74706 ], [ 82.75149, 23.746 ], [ 82.75482, 23.74672 ], [ 82.75794, 23.75046 ], [ 82.75986, 23.75681 ], [ 82.75902, 23.76223 ], [ 82.75669, 23.76612 ], [ 82.74587, 23.77741 ], [ 82.74312, 23.78316 ], [ 82.75741, 23.79232 ], [ 82.76226, 23.79688 ], [ 82.76352, 23.80113 ], [ 82.76344, 23.80504 ], [ 82.76043, 23.80993 ], [ 82.75837, 23.81698 ], [ 82.75921, 23.81866 ], [ 82.76398, 23.82152 ], [ 82.76811, 23.82029 ], [ 82.77089, 23.82054 ], [ 82.78083, 23.82421 ], [ 82.78076, 23.82065 ], [ 82.78308, 23.81624 ], [ 82.78702, 23.81476 ], [ 82.79414, 23.81503 ], [ 82.79811, 23.81434 ], [ 82.80068, 23.81109 ], [ 82.80061, 23.81678 ], [ 82.80124, 23.81791 ], [ 82.81721, 23.81586 ], [ 82.81618, 23.81149 ], [ 82.81712, 23.80981 ], [ 82.82055, 23.80897 ], [ 82.82347, 23.80965 ], [ 82.82548, 23.80791 ], [ 82.82899, 23.80098 ], [ 82.83379, 23.79823 ], [ 82.8337, 23.79701 ], [ 82.82963, 23.79119 ], [ 82.8312, 23.79006 ], [ 82.83542, 23.79058 ], [ 82.8363, 23.78984 ], [ 82.83493, 23.78421 ], [ 82.83639, 23.78015 ], [ 82.84376, 23.77994 ], [ 82.84569, 23.77872 ], [ 82.84491, 23.77448 ], [ 82.84199, 23.77243 ], [ 82.84169, 23.77108 ], [ 82.84332, 23.76819 ], [ 82.846, 23.76694 ], [ 82.85195, 23.76826 ] ] ] } },
{ "type": "Feature", "properties": { "OBJECTID": 1434, "state_lgd": "22", "state_name": "CHHATTISGARH", "district_lgd": "641", "district_name": "SURAJPUR", "district_name_source": "district_table", "subdistrict_lgd": "3246", "subdistrict_name": "PREMNAGAR", "subdistrict_type": "Tehsil", "name_corrupted": false, "remarks": "", "label_lon": 82.709841058444482, "label_lat": 22.950004459541283 }, "geometry": { "type": "MultiPolygon", "coordinates": [ [ [ [ 82.92574, 23.07777 ], [ 82.92479, 23.04859 ], [ 82.92373, 23.04554 ], [ 82.92097, 23.04205 ], [ 82.91903, 23.0412 ], [ 82.90785, 23.0387 ], [ 82.9016, 23.03816 ], [ 82.89937, 23.03703 ], [ 82.89817, 23.03432 ], [ 82.90027, 23.03358 ], [ 82.90049, 23.03224 ], [ 82.8979, 23.0303 ], [ 82.89942, 23.02834 ], [ 82.89903, 23.0257 ], [ 82.89506, 23.02702 ], [ 82.89085, 23.03005 ], [ 82.88916, 23.02869 ], [ 82.88502, 23.02729 ], [ 82.88471, 23.02977 ], [ 82.88355, 23.03032 ], [ 82.88065, 23.02647 ], [ 82.87898, 23.02633 ], [ 82.87477, 23.02399 ], [ 82.87329, 23.02219 ], [ 82.86739, 23.02263 ], [ 82.86292, 23.02193 ], [ 82.86084, 23.02291 ], [ 82.85747, 23.01989 ], [ 82.85096, 23.01714 ], [ 82.83097, 23.01529 ], [ 82.83055, 23.00794 ], [ 82.83377, 23.00311 ], [ 82.83552, 23.00248 ], [ 82.83765, 23.00315 ], [ 82.84535, 23.00296 ], [ 82.84808, 23.00196 ], [ 82.85217, 23.00194 ], [ 82.85189, 22.99843 ], [ 82.85365, 22.99311 ], [ 82.85243, 22.98755 ], [ 82.83598, 22.9653 ], [ 82.832, 22.96278 ], [ 82.82744, 22.95698 ], [ 82.82517, 22.95264 ], [ 82.82395, 22.94512 ], [ 82.822, 22.94069 ], [ 82.80809, 22.94385 ], [ 82.80638, 22.94177 ], [ 82.7986, 22.9421 ], [ 82.79657, 22.93778 ], [ 82.79277, 22.93267 ], [ 82.79204, 22.93096 ], [ 82.79313, 22.93048 ], [ 82.79371, 22.92844 ], [ 82.79361, 22.9235 ], [ 82.79127, 22.91475 ], [ 82.78843, 22.90986 ], [ 82.78934, 22.90542 ], [ 82.7954, 22.89166 ], [ 82.79536, 22.88605 ], [ 82.79338, 22.88291 ], [ 82.79236, 22.8778 ], [ 82.78843, 22.87034 ], [ 82.78026, 22.87025 ], [ 82.77763, 22.86841 ], [ 82.77408, 22.87042 ], [ 82.76872, 22.87517 ], [ 82.76714, 22.8746 ], [ 82.77028, 22.86953 ], [ 82.77237, 22.86334 ], [ 82.76912, 22.85497 ], [ 82.7558, 22.84356 ], [ 82.76485, 22.83246 ], [ 82.76224, 22.82423 ], [ 82.76314, 22.8202 ], [ 82.7598, 22.81625 ], [ 82.76465, 22.81024 ], [ 82.76389, 22.80324 ], [ 82.75741, 22.79547 ], [ 82.74847, 22.8055 ], [ 82.73774, 22.81141 ], [ 82.73592, 22.81312 ], [ 82.72817, 22.82355 ], [ 82.71272, 22.83379 ], [ 82.69468, 22.83321 ], [ 82.68462, 22.82566 ], [ 82.68055, 22.82431 ], [ 82.67346, 22.81664 ], [ 82.66686, 22.81541 ], [ 82.66549, 22.8139 ], [ 82.6624, 22.81307 ], [ 82.65967, 22.80989 ], [ 82.65044, 22.80897 ], [ 82.64768, 22.81039 ], [ 82.63893, 22.81136 ], [ 82.63595, 22.81745 ], [ 82.63452, 22.8185 ], [ 82.62925, 22.82054 ], [ 82.62311, 22.82116 ], [ 82.61667, 22.82351 ], [ 82.61334, 22.82494 ], [ 82.61052, 22.82736 ], [ 82.60541, 22.82696 ], [ 82.6041, 22.82899 ], [ 82.5984, 22.83257 ], [ 82.58029, 22.83092 ], [ 82.57825, 22.83172 ], [ 82.57105, 22.82964 ], [ 82.56449, 22.83963 ], [ 82.56221, 22.84137 ], [ 82.56268, 22.84201 ], [ 82.55673, 22.8471 ], [ 82.55585, 22.86013 ], [ 82.55636, 22.86264 ], [ 82.55865, 22.86606 ], [ 82.56346, 22.86495 ], [ 82.56628, 22.86558 ], [ 82.56799, 22.86713 ], [ 82.57113, 22.87737 ], [ 82.5764, 22.8867 ], [ 82.57712, 22.89064 ], [ 82.57372, 22.89613 ], [ 82.57393, 22.89706 ], [ 82.57482, 22.89801 ], [ 82.57935, 22.89778 ], [ 82.5866, 22.89457 ], [ 82.58938, 22.89424 ], [ 82.59115, 22.89445 ], [ 82.59218, 22.89549 ], [ 82.59304, 22.89815 ], [ 82.59273, 22.90055 ], [ 82.58938, 22.90767 ], [ 82.57994, 22.90906 ], [ 82.5747, 22.91231 ], [ 82.57301, 22.91472 ], [ 82.57258, 22.91653 ], [ 82.57466, 22.92012 ], [ 82.57484, 22.92195 ], [ 82.57259, 22.92785 ], [ 82.57598, 22.93661 ], [ 82.57582, 22.93795 ], [ 82.572, 22.94184 ], [ 82.57165, 22.94336 ], [ 82.57277, 22.94869 ], [ 82.55945, 22.95569 ], [ 82.55848, 22.95689 ], [ 82.55854, 22.95838 ], [ 82.55918, 22.95963 ], [ 82.56424, 22.96252 ], [ 82.56876, 22.96312 ], [ 82.57317, 22.96113 ], [ 82.57481, 22.96544 ], [ 82.57792, 22.97012 ], [ 82.581, 22.97396 ], [ 82.58567, 22.97788 ], [ 82.58555, 22.97947 ], [ 82.58682, 22.98182 ], [ 82.5847, 22.98715 ], [ 82.58193, 22.99074 ], [ 82.58159, 22.99638 ], [ 82.58373, 22.99801 ], [ 82.5869, 22.99836 ], [ 82.58969, 22.99726 ], [ 82.59655, 22.99915 ], [ 82.59801, 23.0006 ], [ 82.60071, 23.01047 ], [ 82.60572, 23.01956 ], [ 82.60544, 23.02519 ], [ 82.60071, 23.02486 ], [ 82.59729, 23.02208 ], [ 82.59489, 23.02274 ], [ 82.59427, 23.02629 ], [ 82.59578, 23.03494 ], [ 82.59376, 23.03747 ], [ 82.59302, 23.03756 ], [ 82.5919, 23.03836 ], [ 82.59007, 23.03978 ], [ 82.59098, 23.03983 ], [ 82.59395, 23.04404 ], [ 82.59788, 23.0448 ], [ 82.60028, 23.04612 ], [ 82.60159, 23.04643 ], [ 82.60472, 23.04456 ], [ 82.61282, 23.04585 ], [ 82.61558, 23.04966 ], [ 82.61585, 23.05204 ], [ 82.61797, 23.05246 ], [ 82.61919, 23.05597 ], [ 82.62201, 23.05736 ], [ 82.62622, 23.05671 ], [ 82.62674, 23.06276 ], [ 82.62901, 23.06539 ], [ 82.631, 23.06563 ], [ 82.63378, 23.06427 ], [ 82.64097, 23.05715 ], [ 82.64343, 23.05573 ], [ 82.64376, 23.05229 ], [ 82.64613, 23.04628 ], [ 82.6472, 23.04639 ], [ 82.64784, 23.04745 ], [ 82.6479, 23.0514 ], [ 82.65177, 23.05244 ], [ 82.65936, 23.05153 ], [ 82.66573, 23.05818 ], [ 82.67365, 23.05606 ], [ 82.67624, 23.05655 ], [ 82.67902, 23.0582 ], [ 82.68409, 23.05567 ], [ 82.68758, 23.05654 ], [ 82.69358, 23.05647 ], [ 82.69406, 23.05183 ], [ 82.69861, 23.04722 ], [ 82.69834, 23.04211 ], [ 82.70137, 23.04115 ], [ 82.70546, 23.04171 ], [ 82.70955, 23.03937 ], [ 82.71415, 23.0379 ], [ 82.716, 23.03572 ], [ 82.72101, 23.03434 ], [ 82.72556, 23.03516 ], [ 82.72924, 23.03692 ], [ 82.73047, 23.04133 ], [ 82.73149, 23.04143 ], [ 82.73203, 23.04385 ], [ 82.73556, 23.04584 ], [ 82.74185, 23.0423 ], [ 82.74437, 23.03954 ], [ 82.74815, 23.03821 ], [ 82.75012, 23.03663 ], [ 82.75404, 23.03582 ], [ 82.75843, 23.04034 ], [ 82.76231, 23.04159 ], [ 82.76618, 23.05372 ], [ 82.77487, 23.05382 ], [ 82.77843, 23.05794 ], [ 82.77774, 23.05937 ], [ 82.77876, 23.06377 ], [ 82.78333, 23.06818 ], [ 82.78608, 23.06954 ], [ 82.78432, 23.07398 ], [ 82.79152, 23.06932 ], [ 82.79596, 23.06905 ], [ 82.80125, 23.07027 ], [ 82.80512, 23.06759 ], [ 82.80743, 23.06743 ], [ 82.81181, 23.06909 ], [ 82.81754, 23.06941 ], [ 82.81906, 23.07024 ], [ 82.82685, 23.07913 ], [ 82.8365, 23.07505 ], [ 82.83629, 23.06594 ], [ 82.84089, 23.06301 ], [ 82.84664, 23.06424 ], [ 82.85184, 23.06672 ], [ 82.86136, 23.06811 ], [ 82.87014, 23.07059 ], [ 82.87976, 23.06868 ], [ 82.88395, 23.07024 ], [ 82.89131, 23.06805 ], [ 82.89472, 23.06833 ], [ 82.89483, 23.07126 ], [ 82.89569, 23.07151 ], [ 82.90208, 23.06994 ], [ 82.90283, 23.07019 ], [ 82.90262, 23.07261 ], [ 82.9048, 23.0745 ], [ 82.90466, 23.07738 ], [ 82.90562, 23.07851 ], [ 82.9123, 23.07974 ], [ 82.91568, 23.08126 ], [ 82.91989, 23.08144 ], [ 82.92197, 23.07993 ], [ 82.92396, 23.07959 ], [ 82.92574, 23.07777 ] ] ], [ [ [ 82.58932, 23.0408 ], [ 82.58972, 23.04038 ], [ 82.59007, 23.03978 ], [ 82.58932, 23.0408 ] ] ] ] } },
{ "type": "Feature", "properties": { "OBJECTID": 1439, "state_lgd": "22", "state_name": "CHHATTISGARH", "district_lgd": "641", "district_name": "SURAJPUR", "district_name_source": "district_table", "subdistrict_lgd": "3245", "subdistrict_name": "RAMANUJNAGAR", "subdistrict_type": "Tehsil", "name_corrupted": false, "remarks": "", "label_lon": 82.73243013390244, "label_lat": 23.142123239891607 }, "geometry": { "type": "Polygon", "coordinates": [ [ [ 82.81365, 23.27945 ], [ 82.82797, 23.2763 ], [ 82.82943, 23.27078 ], [ 82.82912, 23.26925 ], [ 82.8303, 23.2665 ], [ 82.83003, 23.26457 ], [ 82.83133, 23.26264 ], [ 82.83129, 23.26012 ], [ 82.83304, 23.25814 ], [ 82.83177, 23.2574 ], [ 82.8336, 23.25404 ], [ 82.83231, 23.25331 ], [ 82.83225, 23.25137 ], [ 82.83075, 23.25058 ], [ 82.8309, 23.24699 ], [ 82.8324, 23.2444 ], [ 82.83005, 23.23799 ], [ 82.82971, 23.23387 ], [ 82.83309, 23.22919 ], [ 82.82915, 23.22697 ], [ 82.82745, 23.22523 ], [ 82.827, 23.2234 ], [ 82.82551, 23.22488 ], [ 82.82494, 23.22405 ], [ 82.81654, 23.22264 ], [ 82.81215, 23.2235 ], [ 82.79881, 23.22379 ], [ 82.79719, 23.2223 ], [ 82.79745, 23.2213 ], [ 82.79937, 23.22089 ], [ 82.80135, 23.22152 ], [ 82.80114, 23.22095 ], [ 82.80193, 23.22082 ], [ 82.80109, 23.21872 ], [ 82.8033, 23.21876 ], [ 82.80515, 23.21616 ], [ 82.80438, 23.21266 ], [ 82.80585, 23.21124 ], [ 82.81703, 23.21161 ], [ 82.82076, 23.21355 ], [ 82.82286, 23.21358 ], [ 82.82392, 23.21589 ], [ 82.82269, 23.21688 ], [ 82.82326, 23.2186 ], [ 82.82725, 23.22085 ], [ 82.83185, 23.21648 ], [ 82.83185, 23.21269 ], [ 82.83842, 23.2103 ], [ 82.84016, 23.20785 ], [ 82.84697, 23.20514 ], [ 82.85089, 23.20244 ], [ 82.84965, 23.19912 ], [ 82.85022, 23.195 ], [ 82.8476, 23.1875 ], [ 82.84573, 23.18569 ], [ 82.84485, 23.187 ], [ 82.84359, 23.18711 ], [ 82.84256, 23.18598 ], [ 82.8407, 23.18737 ], [ 82.83803, 23.18743 ], [ 82.83588, 23.18495 ], [ 82.83544, 23.18248 ], [ 82.83735, 23.18008 ], [ 82.83955, 23.17909 ], [ 82.84433, 23.1795 ], [ 82.83873, 23.17595 ], [ 82.83872, 23.1752 ], [ 82.84038, 23.17439 ], [ 82.84045, 23.17311 ], [ 82.83888, 23.17372 ], [ 82.83781, 23.17293 ], [ 82.83612, 23.16893 ], [ 82.83938, 23.16115 ], [ 82.84149, 23.16214 ], [ 82.8435, 23.16202 ], [ 82.84388, 23.16394 ], [ 82.84608, 23.16493 ], [ 82.85015, 23.16335 ], [ 82.85163, 23.16137 ], [ 82.85067, 23.15923 ], [ 82.85247, 23.15429 ], [ 82.84802, 23.15001 ], [ 82.8542, 23.14755 ], [ 82.85285, 23.1442 ], [ 82.85548, 23.12766 ], [ 82.8527, 23.12281 ], [ 82.85077, 23.11541 ], [ 82.85615, 23.11355 ], [ 82.86055, 23.11352 ], [ 82.8638, 23.1092 ], [ 82.86412, 23.10651 ], [ 82.8624, 23.10259 ], [ 82.85995, 23.10031 ], [ 82.85749, 23.09545 ], [ 82.85546, 23.09336 ], [ 82.85156, 23.08393 ], [ 82.85265, 23.07886 ], [ 82.85237, 23.06696 ], [ 82.84664, 23.06424 ], [ 82.84089, 23.06301 ], [ 82.83629, 23.06594 ], [ 82.8365, 23.07505 ], [ 82.82685, 23.07913 ], [ 82.81906, 23.07024 ], [ 82.81754, 23.06941 ], [ 82.81181, 23.06909 ], [ 82.80743, 23.06743 ], [ 82.80512, 23.06759 ], [ 82.80125, 23.07027 ], [ 82.79596, 23.06905 ], [ 82.79152, 23.06932 ], [ 82.78432, 23.07398 ], [ 82.78608, 23.06954 ], [ 82.78333, 23.06818 ], [ 82.77876, 23.06377 ], [ 82.77774, 23.05937 ], [ 82.77843, 23.05794 ], [ 82.77487, 23.05382 ], [ 82.76618, 23.05372 ], [ 82.76231, 23.04159 ], [ 82.75843, 23.04034 ], [ 82.75404, 23.03582 ], [ 82.75012, 23.03663 ], [ 82.74815, 23.03821 ], [ 82.74437, 23.03954 ], [ 82.74185, 23.0423 ], [ 82.73556, 23.04584 ], [ 82.73203, 23.04385 ], [ 82.73149, 23.04143 ], [ 82.73047, 23.04133 ], [ 82.72924, 23.03692 ], [ 82.72316, 23.0346 ], [ 82.71934, 23.03465 ], [ 82.716, 23.03572 ], [ 82.71415, 23.0379 ], [ 82.70955, 23.03937 ], [ 82.70546, 23.04171 ], [ 82.70137, 23.04115 ], [ 82.69834, 23.04211 ], [ 82.69861, 23.04722 ], [ 82.69406, 23.05183 ], [ 82.69358, 23.05647 ], [ 82.68758, 23.05654 ], [ 82.68578, 23.05584 ], [ 82.6847, 23.05563 ], [ 82.68409, 23.05567 ], [ 82.67902, 23.0582 ], [ 82.67624, 23.05655 ], [ 82.67365, 23.05606 ], [ 82.66523, 23.05801 ], [ 82.65936, 23.05153 ], [ 82.65177, 23.05244 ], [ 82.6479, 23.0514 ], [ 82.64784, 23.04745 ], [ 82.6472, 23.04639 ], [ 82.64613, 23.04628 ], [ 82.64376, 23.05229 ], [ 82.64343, 23.05573 ], [ 82.64097, 23.05715 ], [ 82.63378, 23.06427 ], [ 82.631, 23.06563 ], [ 82.62901, 23.06539 ], [ 82.62721, 23.06401 ], [ 82.62622, 23.05671 ], [ 82.62201, 23.05736 ], [ 82.61919, 23.05597 ], [ 82.61797, 23.05246 ], [ 82.61585, 23.05204 ], [ 82.61558, 23.04966 ], [ 82.61282, 23.04585 ], [ 82.60472, 23.04456 ], [ 82.60159, 23.04643 ], [ 82.60028, 23.04612 ], [ 82.59788, 23.0448 ], [ 82.59395, 23.04404 ], [ 82.59054, 23.03942 ], [ 82.58798, 23.04334 ], [ 82.58675, 23.04846 ], [ 82.58318, 23.05075 ], [ 82.57766, 23.0513 ], [ 82.57863, 23.05616 ], [ 82.58, 23.0584 ], [ 82.58583, 23.05935 ], [ 82.58646, 23.06217 ], [ 82.57292, 23.07109 ], [ 82.56898, 23.07532 ], [ 82.56985, 23.07858 ], [ 82.5743, 23.08456 ], [ 82.58371, 23.08379 ], [ 82.58468, 23.08738 ], [ 82.584, 23.0899 ], [ 82.58668, 23.09869 ], [ 82.58319, 23.10539 ], [ 82.58343, 23.10857 ], [ 82.58105, 23.11173 ], [ 82.58043, 23.11671 ], [ 82.57812, 23.11908 ], [ 82.5768, 23.12772 ], [ 82.5821, 23.13137 ], [ 82.58618, 23.13125 ], [ 82.59497, 23.13342 ], [ 82.59663, 23.13538 ], [ 82.60944, 23.14474 ], [ 82.61267, 23.14404 ], [ 82.61394, 23.14206 ], [ 82.61497, 23.14378 ], [ 82.61689, 23.14355 ], [ 82.61706, 23.14461 ], [ 82.62137, 23.14231 ], [ 82.62666, 23.14208 ], [ 82.62776, 23.14269 ], [ 82.63653, 23.14092 ], [ 82.63767, 23.14267 ], [ 82.63777, 23.14527 ], [ 82.6403, 23.14622 ], [ 82.64131, 23.14973 ], [ 82.64336, 23.14994 ], [ 82.64337, 23.15561 ], [ 82.64906, 23.15695 ], [ 82.66041, 23.19447 ], [ 82.66253, 23.19831 ], [ 82.66415, 23.20655 ], [ 82.67349, 23.2154 ], [ 82.67748, 23.21581 ], [ 82.6813, 23.21762 ], [ 82.68442, 23.22254 ], [ 82.68842, 23.22622 ], [ 82.69116, 23.23526 ], [ 82.69644, 23.24437 ], [ 82.70608, 23.24452 ], [ 82.70872, 23.24367 ], [ 82.71469, 23.24609 ], [ 82.7236, 23.24569 ], [ 82.72718, 23.24666 ], [ 82.72895, 23.24953 ], [ 82.73292, 23.2503 ], [ 82.73583, 23.24823 ], [ 82.73623, 23.25048 ], [ 82.73872, 23.25223 ], [ 82.74129, 23.25267 ], [ 82.74464, 23.25128 ], [ 82.74876, 23.25396 ], [ 82.75177, 23.25408 ], [ 82.75591, 23.25685 ], [ 82.76286, 23.25724 ], [ 82.76457, 23.25467 ], [ 82.77327, 23.25922 ], [ 82.77508, 23.26292 ], [ 82.77398, 23.26888 ], [ 82.77498, 23.27049 ], [ 82.77757, 23.27041 ], [ 82.77791, 23.26748 ], [ 82.78297, 23.26748 ], [ 82.78666, 23.2686 ], [ 82.79346, 23.2732 ], [ 82.79781, 23.27208 ], [ 82.79842, 23.27289 ], [ 82.79838, 23.27672 ], [ 82.80281, 23.27536 ], [ 82.80707, 23.27799 ], [ 82.81146, 23.27783 ], [ 82.81365, 23.27945 ] ] ] } },
{ "type": "Feature", "properties": { "OBJECTID": 1441, "state_lgd": "22", "state_name": "CHHATTISGARH", "district_lgd": "641", "district_name": "SURAJPUR", "district_name_source": "district_table", "subdistrict_lgd": "7236", "subdistrict_name": "LATORI", "subdistrict_type": "Tehsil", "name_corrupted": false, "remarks": "", "label_lon": 83.085722685554714, "label_lat": 23.20865854629939 }, "geometry": { "type": "Polygon", "coordinates": [ [ [ 83.21375, 23.29626 ], [ 83.21022, 23.27175 ], [ 83.20933, 23.27015 ], [ 83.20985, 23.26767 ], [ 83.20677, 23.26721 ], [ 83.20713, 23.26551 ], [ 83.20627, 23.26506 ], [ 83.20227, 23.26893 ], [ 83.1996, 23.2701 ], [ 83.198, 23.26994 ], [ 83.19865, 23.26799 ], [ 83.20386, 23.26193 ], [ 83.20693, 23.26069 ], [ 83.20768, 23.255 ], [ 83.20582, 23.2521 ], [ 83.20812, 23.24942 ], [ 83.20767, 23.24746 ], [ 83.20846, 23.24569 ], [ 83.21049, 23.24621 ], [ 83.21462, 23.243 ], [ 83.22057, 23.24196 ], [ 83.23382, 23.23396 ], [ 83.24722, 23.23619 ], [ 83.24668, 23.23122 ], [ 83.24351, 23.22495 ], [ 83.24304, 23.21998 ], [ 83.241, 23.21923 ], [ 83.23839, 23.21965 ], [ 83.23643, 23.21854 ], [ 83.22371, 23.21798 ], [ 83.22036, 23.21867 ], [ 83.2173, 23.22286 ], [ 83.21514, 23.22233 ], [ 83.2127, 23.2182 ], [ 83.2088, 23.21401 ], [ 83.20359, 23.21136 ], [ 83.20131, 23.20869 ], [ 83.19861, 23.20821 ], [ 83.19736, 23.20907 ], [ 83.19243, 23.20477 ], [ 83.18491, 23.21384 ], [ 83.18412, 23.21362 ], [ 83.17668, 23.21772 ], [ 83.17637, 23.21904 ], [ 83.1781, 23.22557 ], [ 83.17592, 23.22664 ], [ 83.17619, 23.22771 ], [ 83.17833, 23.22777 ], [ 83.17902, 23.22987 ], [ 83.17826, 23.23163 ], [ 83.17482, 23.23033 ], [ 83.17307, 23.22823 ], [ 83.17219, 23.22484 ], [ 83.1688, 23.22089 ], [ 83.16601, 23.22123 ], [ 83.1641, 23.22008 ], [ 83.16618, 23.21593 ], [ 83.16393, 23.21494 ], [ 83.15292, 23.2139 ], [ 83.1434, 23.21597 ], [ 83.13783, 23.2142 ], [ 83.1384, 23.21153 ], [ 83.1373, 23.21133 ], [ 83.13587, 23.20354 ], [ 83.13297, 23.1771 ], [ 83.13569, 23.17421 ], [ 83.15878, 23.16658 ], [ 83.15938, 23.16582 ], [ 83.14916, 23.15838 ], [ 83.15122, 23.15492 ], [ 83.15295, 23.15445 ], [ 83.15448, 23.15254 ], [ 83.15622, 23.15263 ], [ 83.15727, 23.15142 ], [ 83.15941, 23.15127 ], [ 83.16009, 23.14992 ], [ 83.16023, 23.14366 ], [ 83.15956, 23.14214 ], [ 83.16018, 23.13513 ], [ 83.15435, 23.13479 ], [ 83.15672, 23.12786 ], [ 83.15354, 23.11082 ], [ 83.15177, 23.10893 ], [ 83.14001, 23.10659 ], [ 83.13172, 23.10877 ], [ 83.12815, 23.10864 ], [ 83.12367, 23.12256 ], [ 83.12456, 23.12822 ], [ 83.12341, 23.13485 ], [ 83.11624, 23.13762 ], [ 83.1089, 23.13774 ], [ 83.10239, 23.12968 ], [ 83.1008, 23.12897 ], [ 83.08778, 23.12913 ], [ 83.08437, 23.12743 ], [ 83.08116, 23.12715 ], [ 83.04994, 23.12668 ], [ 83.04532, 23.12761 ], [ 83.03805, 23.12736 ], [ 83.0335, 23.12598 ], [ 83.03108, 23.12668 ], [ 83.02829, 23.1263 ], [ 83.02742, 23.12657 ], [ 83.0273, 23.12976 ], [ 83.02857, 23.14108 ], [ 83.02631, 23.14064 ], [ 83.02453, 23.14342 ], [ 83.02014, 23.14262 ], [ 83.01713, 23.1435 ], [ 83.01438, 23.14198 ], [ 83.0072, 23.14245 ], [ 83.00283, 23.14671 ], [ 83.00013, 23.14572 ], [ 82.9984, 23.14393 ], [ 82.98641, 23.14772 ], [ 82.96201, 23.15298 ], [ 82.9564, 23.16607 ], [ 82.95325, 23.16967 ], [ 82.95032, 23.17114 ], [ 82.95038, 23.17266 ], [ 82.95277, 23.17581 ], [ 82.95711, 23.18473 ], [ 82.95996, 23.19254 ], [ 82.96399, 23.19274 ], [ 82.96762, 23.20405 ], [ 82.97222, 23.21006 ], [ 82.96906, 23.21147 ], [ 82.96909, 23.21264 ], [ 82.96767, 23.21372 ], [ 82.96143, 23.21189 ], [ 82.96135, 23.21431 ], [ 82.96368, 23.21536 ], [ 82.96394, 23.2177 ], [ 82.96093, 23.21802 ], [ 82.9564, 23.22247 ], [ 82.95496, 23.22279 ], [ 82.95409, 23.22511 ], [ 82.95174, 23.22572 ], [ 82.94925, 23.22831 ], [ 82.9471, 23.22885 ], [ 82.94656, 23.23004 ], [ 82.94949, 23.23085 ], [ 82.9522, 23.22959 ], [ 82.95455, 23.23017 ], [ 82.95776, 23.22977 ], [ 82.96332, 23.22699 ], [ 82.96249, 23.23035 ], [ 82.96396, 23.23678 ], [ 82.96306, 23.23808 ], [ 82.96298, 23.2402 ], [ 82.96432, 23.24633 ], [ 82.96669, 23.24624 ], [ 82.9687, 23.24819 ], [ 82.97543, 23.24565 ], [ 82.98598, 23.2457 ], [ 82.99229, 23.25054 ], [ 82.99326, 23.25229 ], [ 82.99814, 23.25106 ], [ 83.0032, 23.25127 ], [ 83.00808, 23.24946 ], [ 83.01112, 23.24925 ], [ 83.01335, 23.2519 ], [ 83.01542, 23.25306 ], [ 83.01386, 23.25596 ], [ 83.01793, 23.25471 ], [ 83.02138, 23.25515 ], [ 83.02757, 23.25437 ], [ 83.03079, 23.25238 ], [ 83.03643, 23.25091 ], [ 83.04089, 23.25795 ], [ 83.04027, 23.25919 ], [ 83.04134, 23.26325 ], [ 83.04538, 23.26276 ], [ 83.04582, 23.26365 ], [ 83.04809, 23.26348 ], [ 83.04816, 23.26441 ], [ 83.05165, 23.26546 ], [ 83.05215, 23.26395 ], [ 83.05564, 23.26448 ], [ 83.05984, 23.26691 ], [ 83.07579, 23.27125 ], [ 83.07712, 23.27328 ], [ 83.08215, 23.27403 ], [ 83.08345, 23.27277 ], [ 83.08687, 23.27371 ], [ 83.08521, 23.2768 ], [ 83.08731, 23.27871 ], [ 83.09411, 23.27976 ], [ 83.09622, 23.28191 ], [ 83.09888, 23.2821 ], [ 83.10058, 23.28468 ], [ 83.10831, 23.28685 ], [ 83.1091, 23.29037 ], [ 83.11213, 23.29506 ], [ 83.1131, 23.29838 ], [ 83.11328, 23.30117 ], [ 83.11087, 23.30429 ], [ 83.11175, 23.30864 ], [ 83.11559, 23.30624 ], [ 83.11975, 23.30497 ], [ 83.12197, 23.30309 ], [ 83.12832, 23.30407 ], [ 83.13361, 23.30793 ], [ 83.1406, 23.30577 ], [ 83.14356, 23.30218 ], [ 83.14378, 23.29952 ], [ 83.13858, 23.29455 ], [ 83.13928, 23.29103 ], [ 83.14209, 23.29009 ], [ 83.14561, 23.29193 ], [ 83.15141, 23.28742 ], [ 83.15385, 23.28994 ], [ 83.15709, 23.29139 ], [ 83.15759, 23.29311 ], [ 83.16044, 23.29578 ], [ 83.16164, 23.30191 ], [ 83.16339, 23.30064 ], [ 83.16557, 23.29439 ], [ 83.1682, 23.29108 ], [ 83.1683, 23.28878 ], [ 83.16952, 23.28809 ], [ 83.16946, 23.28606 ], [ 83.17388, 23.28392 ], [ 83.17601, 23.27869 ], [ 83.18155, 23.27644 ], [ 83.19011, 23.27665 ], [ 83.19298, 23.27449 ], [ 83.19643, 23.2759 ], [ 83.19641, 23.27947 ], [ 83.19936, 23.29463 ], [ 83.20376, 23.29303 ], [ 83.21375, 23.29626 ] ] ] } },
{ "type": "Feature", "properties": { "OBJECTID": 1445, "state_lgd": "22", "state_name": "CHHATTISGARH", "district_lgd": "641", "district_name": "SURAJPUR", "district_name_source": "district_table", "subdistrict_lgd": "3244", "subdistrict_name": "BHAIYATHAN", "subdistrict_type": "Tehsil", "name_corrupted": false, "remarks": "", "label_lon": 82.8142308123671, "label_lat": 23.370246339315241 }, "geometry": { "type": "Polygon", "coordinates": [ [ [ 82.91151, 23.38545 ], [ 82.9146, 23.38433 ], [ 82.91476, 23.38309 ], [ 82.91045, 23.38224 ], [ 82.91024, 23.38119 ], [ 82.91041, 23.37864 ], [ 82.912, 23.37908 ], [ 82.91405, 23.3746 ], [ 82.90425, 23.371 ], [ 82.89626, 23.37109 ], [ 82.89578, 23.3685 ], [ 82.8925, 23.37011 ], [ 82.88992, 23.36922 ], [ 82.88774, 23.37004 ], [ 82.88698, 23.36679 ], [ 82.88495, 23.36611 ], [ 82.88608, 23.36268 ], [ 82.88795, 23.36129 ], [ 82.89392, 23.36036 ], [ 82.90075, 23.36179 ], [ 82.90685, 23.36019 ], [ 82.90771, 23.35932 ], [ 82.90814, 23.35509 ], [ 82.90705, 23.35134 ], [ 82.90759, 23.34847 ], [ 82.90633, 23.34458 ], [ 82.90655, 23.34157 ], [ 82.90256, 23.3366 ], [ 82.89789, 23.33278 ], [ 82.89591, 23.32825 ], [ 82.8845, 23.33051 ], [ 82.87875, 23.33025 ], [ 82.87519, 23.32941 ], [ 82.87234, 23.32758 ], [ 82.86905, 23.32499 ], [ 82.86924, 23.32391 ], [ 82.86057, 23.32332 ], [ 82.85709, 23.32156 ], [ 82.84513, 23.32084 ], [ 82.83902, 23.31959 ], [ 82.83252, 23.31974 ], [ 82.82956, 23.31865 ], [ 82.82501, 23.31882 ], [ 82.82281, 23.31647 ], [ 82.82356, 23.31141 ], [ 82.82611, 23.30854 ], [ 82.82663, 23.30646 ], [ 82.82606, 23.3012 ], [ 82.82346, 23.29727 ], [ 82.82287, 23.29335 ], [ 82.83088, 23.29137 ], [ 82.83467, 23.28761 ], [ 82.83399, 23.28484 ], [ 82.83034, 23.2817 ], [ 82.82925, 23.27785 ], [ 82.82797, 23.2763 ], [ 82.81365, 23.27945 ], [ 82.81146, 23.27783 ], [ 82.80707, 23.27799 ], [ 82.80281, 23.27536 ], [ 82.79838, 23.27672 ], [ 82.79842, 23.27289 ], [ 82.79781, 23.27208 ], [ 82.79346, 23.2732 ], [ 82.78666, 23.2686 ], [ 82.78297, 23.26748 ], [ 82.77791, 23.26748 ], [ 82.77757, 23.27041 ], [ 82.77498, 23.27049 ], [ 82.77398, 23.26888 ], [ 82.77508, 23.26292 ], [ 82.77247, 23.25834 ], [ 82.77073, 23.26118 ], [ 82.76972, 23.26122 ], [ 82.76898, 23.25997 ], [ 82.76719, 23.25992 ], [ 82.76569, 23.26027 ], [ 82.76203, 23.2635 ], [ 82.7583, 23.26324 ], [ 82.75585, 23.26799 ], [ 82.75209, 23.26609 ], [ 82.74438, 23.26847 ], [ 82.74529, 23.27061 ], [ 82.74359, 23.27369 ], [ 82.746, 23.27667 ], [ 82.74464, 23.28486 ], [ 82.74561, 23.28787 ], [ 82.74513, 23.29138 ], [ 82.74695, 23.29396 ], [ 82.74658, 23.29554 ], [ 82.74909, 23.29793 ], [ 82.75234, 23.29845 ], [ 82.75457, 23.29988 ], [ 82.75593, 23.29962 ], [ 82.75684, 23.30264 ], [ 82.75501, 23.31813 ], [ 82.75195, 23.32061 ], [ 82.75658, 23.33435 ], [ 82.75354, 23.33844 ], [ 82.7539, 23.34098 ], [ 82.75235, 23.34215 ], [ 82.75236, 23.34341 ], [ 82.75024, 23.34657 ], [ 82.75051, 23.35096 ], [ 82.74926, 23.35312 ], [ 82.75208, 23.35954 ], [ 82.75539, 23.36111 ], [ 82.75544, 23.36203 ], [ 82.75504, 23.36302 ], [ 82.74992, 23.36527 ], [ 82.7522, 23.36755 ], [ 82.75287, 23.36991 ], [ 82.75635, 23.36888 ], [ 82.75892, 23.3717 ], [ 82.76486, 23.37361 ], [ 82.76548, 23.37587 ], [ 82.76656, 23.37553 ], [ 82.76644, 23.37845 ], [ 82.76772, 23.37942 ], [ 82.76728, 23.38085 ], [ 82.77037, 23.38246 ], [ 82.77286, 23.3855 ], [ 82.76721, 23.38794 ], [ 82.76502, 23.38523 ], [ 82.76199, 23.38519 ], [ 82.75634, 23.40554 ], [ 82.74881, 23.41226 ], [ 82.74437, 23.41289 ], [ 82.74478, 23.41787 ], [ 82.74829, 23.42823 ], [ 82.75048, 23.42955 ], [ 82.75206, 23.42906 ], [ 82.75226, 23.43132 ], [ 82.75018, 23.43802 ], [ 82.73802, 23.45096 ], [ 82.74036, 23.45047 ], [ 82.74752, 23.45947 ], [ 82.74959, 23.45933 ], [ 82.75122, 23.46044 ], [ 82.75091, 23.46306 ], [ 82.75558, 23.46439 ], [ 82.76035, 23.46294 ], [ 82.76046, 23.4659 ], [ 82.76503, 23.46457 ], [ 82.76569, 23.4663 ], [ 82.76869, 23.46612 ], [ 82.76967, 23.46492 ], [ 82.7702, 23.46604 ], [ 82.77304, 23.46635 ], [ 82.77779, 23.46306 ], [ 82.77956, 23.46294 ], [ 82.78382, 23.46489 ], [ 82.7851, 23.46369 ], [ 82.78993, 23.46479 ], [ 82.79071, 23.46641 ], [ 82.79252, 23.46736 ], [ 82.79226, 23.46849 ], [ 82.79333, 23.47007 ], [ 82.79747, 23.4724 ], [ 82.80323, 23.47268 ], [ 82.80591, 23.47162 ], [ 82.80631, 23.47066 ], [ 82.80808, 23.47105 ], [ 82.80899, 23.46982 ], [ 82.81003, 23.47073 ], [ 82.8164, 23.47225 ], [ 82.81969, 23.46485 ], [ 82.82437, 23.46103 ], [ 82.82982, 23.45378 ], [ 82.82541, 23.44374 ], [ 82.82565, 23.43899 ], [ 82.83478, 23.43047 ], [ 82.83997, 23.42854 ], [ 82.84683, 23.42253 ], [ 82.84738, 23.41512 ], [ 82.84858, 23.41172 ], [ 82.85213, 23.4141 ], [ 82.86487, 23.41566 ], [ 82.87699, 23.42326 ], [ 82.87816, 23.41515 ], [ 82.87628, 23.40886 ], [ 82.87919, 23.40686 ], [ 82.88076, 23.40687 ], [ 82.88482, 23.41061 ], [ 82.88808, 23.41094 ], [ 82.89084, 23.41664 ], [ 82.89266, 23.41856 ], [ 82.89597, 23.41914 ], [ 82.89718, 23.41827 ], [ 82.89859, 23.41841 ], [ 82.90087, 23.42066 ], [ 82.90478, 23.42117 ], [ 82.90496, 23.42223 ], [ 82.90712, 23.42358 ], [ 82.91601, 23.42407 ], [ 82.91445, 23.41456 ], [ 82.90922, 23.41079 ], [ 82.90475, 23.40443 ], [ 82.89891, 23.40167 ], [ 82.89888, 23.39642 ], [ 82.90752, 23.39361 ], [ 82.90994, 23.39064 ], [ 82.91151, 23.38545 ] ] ] } },
{ "type": "Feature", "properties": { "OBJECTID": 1447, "state_lgd": "22", "state_name": "CHHATTISGARH", "district_lgd": "641", "district_name": "SURAJPUR", "district_name_source": "district_table", "subdistrict_lgd": "3239", "subdistrict_name": "PRATAPPUR", "subdistrict_type": "Tehsil", "name_corrupted": false, "remarks": "", "label_lon": 83.102759191335608, "label_lat": 23.54620805756208 }, "geometry": { "type": "Polygon", "coordinates": [ [ [ 83.33309, 23.5237 ], [ 83.33287, 23.51695 ], [ 83.34158, 23.5169 ], [ 83.34238, 23.51518 ], [ 83.33848, 23.50589 ], [ 83.33241, 23.49932 ], [ 83.32654, 23.49923 ], [ 83.32243, 23.49795 ], [ 83.31175, 23.50033 ], [ 83.30497, 23.50381 ], [ 83.30552, 23.49985 ], [ 83.3024, 23.49539 ], [ 83.30438, 23.49164 ], [ 83.30249, 23.48713 ], [ 83.30492, 23.48608 ], [ 83.30192, 23.48312 ], [ 83.29974, 23.48238 ], [ 83.30135, 23.47957 ], [ 83.29931, 23.47983 ], [ 83.29658, 23.47667 ], [ 83.29601, 23.47428 ], [ 83.29594, 23.47117 ], [ 83.29787, 23.46735 ], [ 83.29749, 23.46379 ], [ 83.29334, 23.46525 ], [ 83.2867, 23.46495 ], [ 83.28489, 23.46428 ], [ 83.28241, 23.46011 ], [ 83.29117, 23.46032 ], [ 83.29539, 23.45921 ], [ 83.29879, 23.45723 ], [ 83.3028, 23.45709 ], [ 83.30488, 23.4581 ], [ 83.30671, 23.46209 ], [ 83.31001, 23.46338 ], [ 83.3136, 23.4626 ], [ 83.32045, 23.46319 ], [ 83.32309, 23.46188 ], [ 83.33347, 23.46136 ], [ 83.33614, 23.46601 ], [ 83.34107, 23.46816 ], [ 83.34168, 23.46665 ], [ 83.34414, 23.46491 ], [ 83.34425, 23.46223 ], [ 83.34009, 23.45574 ], [ 83.34164, 23.45135 ], [ 83.34002, 23.44478 ], [ 83.34311, 23.43928 ], [ 83.34737, 23.44134 ], [ 83.35008, 23.44064 ], [ 83.35584, 23.44099 ], [ 83.35315, 23.42782 ], [ 83.35804, 23.42493 ], [ 83.35815, 23.42391 ], [ 83.35081, 23.42473 ], [ 83.34522, 23.42736 ], [ 83.34277, 23.43018 ], [ 83.33726, 23.43224 ], [ 83.33701, 23.43607 ], [ 83.32588, 23.44031 ], [ 83.31951, 23.44393 ], [ 83.319, 23.44064 ], [ 83.31046, 23.43907 ], [ 83.30749, 23.44009 ], [ 83.30775, 23.44485 ], [ 83.30694, 23.4469 ], [ 83.30504, 23.4472 ], [ 83.30218, 23.44698 ], [ 83.3012, 23.44341 ], [ 83.29928, 23.43933 ], [ 83.29858, 23.4393 ], [ 83.29912, 23.43669 ], [ 83.29747, 23.43689 ], [ 83.29733, 23.43853 ], [ 83.29492, 23.4405 ], [ 83.28958, 23.44008 ], [ 83.288, 23.43928 ], [ 83.28788, 23.43474 ], [ 83.28553, 23.4283 ], [ 83.29676, 23.42971 ], [ 83.30135, 23.43247 ], [ 83.30394, 23.4331 ], [ 83.30997, 23.43163 ], [ 83.31177, 23.42878 ], [ 83.30446, 23.42945 ], [ 83.30667, 23.42054 ], [ 83.30496, 23.40747 ], [ 83.30557, 23.40268 ], [ 83.30637, 23.40161 ], [ 83.31245, 23.39914 ], [ 83.31504, 23.39496 ], [ 83.31609, 23.39591 ], [ 83.32337, 23.39764 ], [ 83.32615, 23.39702 ], [ 83.3286, 23.398 ], [ 83.33158, 23.39755 ], [ 83.33103, 23.39237 ], [ 83.33507, 23.38781 ], [ 83.3328, 23.38177 ], [ 83.32806, 23.3747 ], [ 83.3227, 23.37417 ], [ 83.32046, 23.37522 ], [ 83.31357, 23.38384 ], [ 83.30679, 23.38926 ], [ 83.30432, 23.38865 ], [ 83.30427, 23.3826 ], [ 83.30239, 23.38031 ], [ 83.30133, 23.37696 ], [ 83.29697, 23.37819 ], [ 83.27765, 23.38942 ], [ 83.26913, 23.39164 ], [ 83.26576, 23.39036 ], [ 83.26486, 23.38914 ], [ 83.26001, 23.39113 ], [ 83.25762, 23.39363 ], [ 83.25449, 23.39534 ], [ 83.24809, 23.39756 ], [ 83.24502, 23.40169 ], [ 83.24119, 23.40515 ], [ 83.23191, 23.40341 ], [ 83.22993, 23.39468 ], [ 83.21644, 23.38923 ], [ 83.20704, 23.37694 ], [ 83.20781, 23.3692 ], [ 83.20689, 23.36564 ], [ 83.20893, 23.35951 ], [ 83.20522, 23.35582 ], [ 83.20414, 23.35123 ], [ 83.20468, 23.3474 ], [ 83.20312, 23.34524 ], [ 83.20277, 23.3393 ], [ 83.20439, 23.33695 ], [ 83.20516, 23.325 ], [ 83.20328, 23.32187 ], [ 83.20435, 23.32128 ], [ 83.20465, 23.32214 ], [ 83.20603, 23.32134 ], [ 83.20852, 23.31736 ], [ 83.2119, 23.30426 ], [ 83.21451, 23.30001 ], [ 83.21375, 23.29626 ], [ 83.20376, 23.29303 ], [ 83.19936, 23.29463 ], [ 83.19605, 23.27532 ], [ 83.19298, 23.27449 ], [ 83.19011, 23.27665 ], [ 83.18155, 23.27644 ], [ 83.17682, 23.27804 ], [ 83.17553, 23.27925 ], [ 83.17388, 23.28392 ], [ 83.16946, 23.28606 ], [ 83.16952, 23.28809 ], [ 83.1683, 23.28878 ], [ 83.1682, 23.29108 ], [ 83.16557, 23.29439 ], [ 83.16339, 23.30064 ], [ 83.16164, 23.30191 ], [ 83.16044, 23.29578 ], [ 83.15759, 23.29311 ], [ 83.15709, 23.29139 ], [ 83.15385, 23.28994 ], [ 83.15141, 23.28742 ], [ 83.14561, 23.29193 ], [ 83.14209, 23.29009 ], [ 83.13928, 23.29103 ], [ 83.13858, 23.29455 ], [ 83.14378, 23.29952 ], [ 83.14356, 23.30218 ], [ 83.1406, 23.30577 ], [ 83.13361, 23.30793 ], [ 83.12832, 23.30407 ], [ 83.12197, 23.30309 ], [ 83.11975, 23.30497 ], [ 83.11559, 23.30624 ], [ 83.11175, 23.30864 ], [ 83.11087, 23.30429 ], [ 83.11328, 23.30117 ], [ 83.1131, 23.29838 ], [ 83.11213, 23.29506 ], [ 83.1091, 23.29037 ], [ 83.10831, 23.28685 ], [ 83.10058, 23.28468 ], [ 83.09888, 23.2821 ], [ 83.09622, 23.28191 ], [ 83.09411, 23.27976 ], [ 83.08731, 23.27871 ], [ 83.08521, 23.2768 ], [ 83.08687, 23.27371 ], [ 83.08345, 23.27277 ], [ 83.08215, 23.27403 ], [ 83.07712, 23.27328 ], [ 83.07579, 23.27125 ], [ 83.05984, 23.26691 ], [ 83.05564, 23.26448 ], [ 83.05215, 23.26395 ], [ 83.05165, 23.26546 ], [ 83.04816, 23.26441 ], [ 83.04809, 23.26348 ], [ 83.04582, 23.26365 ], [ 83.04538, 23.26276 ], [ 83.04053, 23.26348 ], [ 83.04046, 23.2646 ], [ 83.03511, 23.26499 ], [ 83.03455, 23.26651 ], [ 83.02877, 23.26756 ], [ 83.0297, 23.26993 ], [ 83.02877, 23.27026 ], [ 83.03005, 23.27263 ], [ 83.02891, 23.27302 ], [ 83.02862, 23.2754 ], [ 83.02948, 23.27553 ], [ 83.02983, 23.28218 ], [ 83.02833, 23.2829 ], [ 83.02862, 23.28383 ], [ 83.02755, 23.28593 ], [ 83.02619, 23.28639 ], [ 83.02662, 23.28883 ], [ 83.02479, 23.29053 ], [ 83.02729, 23.29178 ], [ 83.02842, 23.29425 ], [ 83.02993, 23.29509 ], [ 83.0302, 23.29694 ], [ 83.02892, 23.29787 ], [ 83.02883, 23.29987 ], [ 83.03298, 23.29993 ], [ 83.03298, 23.30113 ], [ 83.03535, 23.30122 ], [ 83.03704, 23.30067 ], [ 83.03621, 23.29905 ], [ 83.03738, 23.29815 ], [ 83.03969, 23.29911 ], [ 83.04057, 23.30048 ], [ 83.04229, 23.29999 ], [ 83.04856, 23.30173 ], [ 83.05009, 23.29997 ], [ 83.05282, 23.30066 ], [ 83.05374, 23.29975 ], [ 83.05615, 23.29952 ], [ 83.05364, 23.29714 ], [ 83.05366, 23.29629 ], [ 83.05175, 23.29702 ], [ 83.05136, 23.29654 ], [ 83.05363, 23.29478 ], [ 83.05686, 23.29457 ], [ 83.06408, 23.29712 ], [ 83.06693, 23.29862 ], [ 83.06409, 23.3048 ], [ 83.06537, 23.30494 ], [ 83.06826, 23.30292 ], [ 83.07143, 23.30436 ], [ 83.07088, 23.30567 ], [ 83.07007, 23.30576 ], [ 83.07138, 23.31325 ], [ 83.07034, 23.31356 ], [ 83.07015, 23.31484 ], [ 83.06919, 23.3147 ], [ 83.06877, 23.31606 ], [ 83.069, 23.31721 ], [ 83.0703, 23.31805 ], [ 83.07168, 23.32232 ], [ 83.03433, 23.34595 ], [ 83.03029, 23.35734 ], [ 83.03175, 23.36234 ], [ 83.03048, 23.36275 ], [ 83.03162, 23.36551 ], [ 83.03257, 23.36569 ], [ 83.03212, 23.3692 ], [ 83.03146, 23.36952 ], [ 83.03241, 23.37251 ], [ 83.03235, 23.37607 ], [ 83.03485, 23.37645 ], [ 83.03515, 23.37576 ], [ 83.03704, 23.37674 ], [ 83.04066, 23.38205 ], [ 83.03548, 23.38199 ], [ 83.0319, 23.38891 ], [ 83.02868, 23.39046 ], [ 83.02682, 23.39385 ], [ 83.02771, 23.39908 ], [ 83.02676, 23.39985 ], [ 83.02618, 23.40358 ], [ 83.02253, 23.41025 ], [ 83.02258, 23.41249 ], [ 83.01317, 23.4191 ], [ 83.01396, 23.42022 ], [ 83.01543, 23.42007 ], [ 83.01663, 23.42094 ], [ 83.0189, 23.42055 ], [ 83.01927, 23.42189 ], [ 83.02102, 23.4219 ], [ 83.02247, 23.42482 ], [ 83.02594, 23.4248 ], [ 83.02673, 23.4267 ], [ 83.03262, 23.42662 ], [ 83.03477, 23.42556 ], [ 83.04116, 23.42878 ], [ 83.04522, 23.42748 ], [ 83.04428, 23.42886 ], [ 83.04564, 23.42995 ], [ 83.0476, 23.42859 ], [ 83.04923, 23.43035 ], [ 83.04738, 23.43536 ], [ 83.05056, 23.43588 ], [ 83.0529, 23.44397 ], [ 83.05245, 23.44457 ], [ 83.04782, 23.4443 ], [ 83.04365, 23.44791 ], [ 83.03924, 23.45484 ], [ 83.03903, 23.45894 ], [ 83.03518, 23.46531 ], [ 83.03447, 23.47072 ], [ 83.03163, 23.47418 ], [ 83.02899, 23.47553 ], [ 83.0246, 23.47593 ], [ 83.01628, 23.47497 ], [ 83.01232, 23.47573 ], [ 83.01159, 23.4766 ], [ 83.01667, 23.48259 ], [ 83.01909, 23.48685 ], [ 83.02376, 23.50053 ], [ 83.01642, 23.51425 ], [ 83.01707, 23.5232 ], [ 83.00907, 23.53265 ], [ 83.00408, 23.54319 ], [ 83.00039, 23.5478 ], [ 82.99812, 23.54929 ], [ 83.00087, 23.55386 ], [ 83.00871, 23.55688 ], [ 83.01165, 23.55944 ], [ 83.02413, 23.55744 ], [ 83.03378, 23.55871 ], [ 83.03857, 23.55659 ], [ 83.04584, 23.55848 ], [ 83.04648, 23.5606 ], [ 83.04877, 23.56284 ], [ 83.05298, 23.56528 ], [ 83.05577, 23.56461 ], [ 83.05534, 23.56982 ], [ 83.05061, 23.58094 ], [ 83.05144, 23.58441 ], [ 83.05322, 23.58653 ], [ 83.05208, 23.58888 ], [ 83.05239, 23.59071 ], [ 83.04741, 23.59359 ], [ 83.04575, 23.59306 ], [ 83.03599, 23.59376 ], [ 83.03388, 23.59676 ], [ 83.03228, 23.59683 ], [ 83.03225, 23.59797 ], [ 83.02988, 23.60142 ], [ 83.03123, 23.60458 ], [ 83.02665, 23.60704 ], [ 83.0264, 23.61499 ], [ 83.02544, 23.61603 ], [ 83.02515, 23.61957 ], [ 83.02195, 23.62655 ], [ 83.02197, 23.63065 ], [ 83.02117, 23.63228 ], [ 83.01693, 23.636 ], [ 83.01249, 23.64325 ], [ 83.00613, 23.6441 ], [ 83.00503, 23.64299 ], [ 83.00256, 23.64293 ], [ 83.00114, 23.64179 ], [ 82.99704, 23.64063 ], [ 82.9945, 23.64135 ], [ 82.98902, 23.63925 ], [ 82.98381, 23.64185 ], [ 82.97967, 23.64261 ], [ 82.97744, 23.64379 ], [ 82.97634, 23.64616 ], [ 82.97316, 23.64865 ], [ 82.97387, 23.65263 ], [ 82.97229, 23.65919 ], [ 82.97117, 23.66022 ], [ 82.96443, 23.65594 ], [ 82.96419, 23.65333 ], [ 82.95319, 23.65034 ], [ 82.94558, 23.65065 ], [ 82.94056, 23.65358 ], [ 82.93248, 23.65587 ], [ 82.91874, 23.65562 ], [ 82.91655, 23.65715 ], [ 82.9162, 23.65878 ], [ 82.91398, 23.66078 ], [ 82.90968, 23.66286 ], [ 82.90799, 23.66277 ], [ 82.90286, 23.6663 ], [ 82.90603, 23.67285 ], [ 82.90539, 23.67361 ], [ 82.89887, 23.67541 ], [ 82.88349, 23.67382 ], [ 82.88024, 23.67912 ], [ 82.87598, 23.68368 ], [ 82.87215, 23.68183 ], [ 82.86332, 23.68433 ], [ 82.86156, 23.68353 ], [ 82.85519, 23.68808 ], [ 82.84576, 23.68839 ], [ 82.83844, 23.69089 ], [ 82.82757, 23.69931 ], [ 82.82831, 23.70567 ], [ 82.82431, 23.71072 ], [ 82.81872, 23.7102 ], [ 82.8166, 23.70903 ], [ 82.81383, 23.70872 ], [ 82.80558, 23.7143 ], [ 82.80566, 23.72014 ], [ 82.80489, 23.72377 ], [ 82.80636, 23.72598 ], [ 82.80929, 23.72758 ], [ 82.81218, 23.72471 ], [ 82.81731, 23.7264 ], [ 82.82034, 23.7254 ], [ 82.82221, 23.7262 ], [ 82.82624, 23.72628 ], [ 82.82729, 23.72593 ], [ 82.82806, 23.7231 ], [ 82.8303, 23.72259 ], [ 82.83294, 23.72067 ], [ 82.83537, 23.72093 ], [ 82.83787, 23.7197 ], [ 82.84586, 23.71839 ], [ 82.84746, 23.72068 ], [ 82.84551, 23.72376 ], [ 82.84675, 23.72669 ], [ 82.85218, 23.73131 ], [ 82.85342, 23.7333 ], [ 82.85914, 23.73638 ], [ 82.85944, 23.73908 ], [ 82.86041, 23.74034 ], [ 82.86396, 23.7421 ], [ 82.86797, 23.74139 ], [ 82.87044, 23.74225 ], [ 82.87268, 23.74924 ], [ 82.87225, 23.75053 ], [ 82.85195, 23.76826 ], [ 82.8612, 23.78251 ], [ 82.85984, 23.79493 ], [ 82.86161, 23.7975 ], [ 82.86295, 23.79817 ], [ 82.87404, 23.79718 ], [ 82.8852, 23.79892 ], [ 82.8882, 23.79577 ], [ 82.89122, 23.79564 ], [ 82.90138, 23.79671 ], [ 82.90716, 23.79812 ], [ 82.91197, 23.80102 ], [ 82.91589, 23.80135 ], [ 82.91976, 23.79962 ], [ 82.91989, 23.79553 ], [ 82.91329, 23.79006 ], [ 82.91148, 23.78988 ], [ 82.90887, 23.79104 ], [ 82.90738, 23.79025 ], [ 82.90248, 23.7849 ], [ 82.90269, 23.78104 ], [ 82.90741, 23.77674 ], [ 82.90873, 23.7738 ], [ 82.91418, 23.77485 ], [ 82.91722, 23.77648 ], [ 82.91985, 23.77291 ], [ 82.92847, 23.76832 ], [ 82.93824, 23.76697 ], [ 82.94745, 23.76685 ], [ 82.95847, 23.76871 ], [ 82.96424, 23.76754 ], [ 82.96771, 23.77055 ], [ 82.99414, 23.76768 ], [ 82.99452, 23.77128 ], [ 82.99811, 23.77389 ], [ 83.00089, 23.77896 ], [ 82.99944, 23.78378 ], [ 82.99966, 23.78719 ], [ 82.99842, 23.7891 ], [ 82.99903, 23.79171 ], [ 83.00242, 23.79368 ], [ 83.00738, 23.794 ], [ 83.01001, 23.80319 ], [ 83.01112, 23.80347 ], [ 83.01841, 23.80243 ], [ 83.021, 23.80046 ], [ 83.02337, 23.80062 ], [ 83.02677, 23.79916 ], [ 83.03016, 23.79078 ], [ 83.02944, 23.78739 ], [ 83.0307, 23.78361 ], [ 83.03557, 23.77889 ], [ 83.03969, 23.77978 ], [ 83.04801, 23.77933 ], [ 83.05555, 23.78119 ], [ 83.06444, 23.78505 ], [ 83.06725, 23.78493 ], [ 83.07017, 23.78289 ], [ 83.07355, 23.78242 ], [ 83.0738, 23.78167 ], [ 83.07009, 23.77631 ], [ 83.06609, 23.77322 ], [ 83.06447, 23.76979 ], [ 83.0659, 23.76073 ], [ 83.06852, 23.75473 ], [ 83.07042, 23.75327 ], [ 83.07469, 23.75182 ], [ 83.08163, 23.75052 ], [ 83.09295, 23.72914 ], [ 83.10321, 23.7289 ], [ 83.1075, 23.72305 ], [ 83.11325, 23.72166 ], [ 83.13243, 23.70955 ], [ 83.15103, 23.70969 ], [ 83.15821, 23.70299 ], [ 83.16361, 23.70251 ], [ 83.17431, 23.70917 ], [ 83.18146, 23.70923 ], [ 83.18309, 23.7101 ], [ 83.19626, 23.72242 ], [ 83.20617, 23.72281 ], [ 83.2127, 23.71032 ], [ 83.21048, 23.70791 ], [ 83.21025, 23.69931 ], [ 83.20559, 23.69403 ], [ 83.20633, 23.69171 ], [ 83.2042, 23.68693 ], [ 83.19919, 23.68668 ], [ 83.19773, 23.68536 ], [ 83.19938, 23.68369 ], [ 83.20236, 23.68332 ], [ 83.20138, 23.67351 ], [ 83.20137, 23.6702 ], [ 83.20231, 23.66742 ], [ 83.20155, 23.66092 ], [ 83.20807, 23.65803 ], [ 83.20977, 23.65406 ], [ 83.2023, 23.61939 ], [ 83.20197, 23.61201 ], [ 83.20921, 23.61224 ], [ 83.21191, 23.60924 ], [ 83.20997, 23.6053 ], [ 83.20022, 23.59525 ], [ 83.20581, 23.59224 ], [ 83.20699, 23.59303 ], [ 83.20874, 23.59226 ], [ 83.21045, 23.5894 ], [ 83.2106, 23.58643 ], [ 83.20963, 23.58292 ], [ 83.19919, 23.5723 ], [ 83.20033, 23.56876 ], [ 83.20098, 23.55672 ], [ 83.20923, 23.55592 ], [ 83.21299, 23.56012 ], [ 83.21568, 23.56163 ], [ 83.22616, 23.56233 ], [ 83.22882, 23.56182 ], [ 83.22681, 23.57117 ], [ 83.22328, 23.57502 ], [ 83.22722, 23.57815 ], [ 83.23981, 23.57795 ], [ 83.2515, 23.57526 ], [ 83.25455, 23.58071 ], [ 83.25814, 23.57993 ], [ 83.27278, 23.58078 ], [ 83.27912, 23.57736 ], [ 83.27852, 23.56763 ], [ 83.27477, 23.56074 ], [ 83.27356, 23.55624 ], [ 83.26917, 23.55101 ], [ 83.26197, 23.54861 ], [ 83.25125, 23.54714 ], [ 83.24966, 23.54612 ], [ 83.24807, 23.54332 ], [ 83.23714, 23.54168 ], [ 83.2387, 23.53203 ], [ 83.23882, 23.51546 ], [ 83.26312, 23.51666 ], [ 83.26635, 23.5153 ], [ 83.27737, 23.51676 ], [ 83.28167, 23.51578 ], [ 83.29556, 23.51816 ], [ 83.29798, 23.5173 ], [ 83.30347, 23.51149 ], [ 83.30609, 23.51483 ], [ 83.30965, 23.51531 ], [ 83.30919, 23.52084 ], [ 83.32075, 23.51878 ], [ 83.32265, 23.52066 ], [ 83.32589, 23.52206 ], [ 83.32667, 23.52146 ], [ 83.33309, 23.5237 ] ] ] } },
{ "type": "Feature", "properties": { "OBJECTID": 1460, "state_lgd": "22", "state_name": "CHHATTISGARH", "district_lgd": "641", "district_name": "SURAJPUR", "district_name_source": "district_table", "subdistrict_lgd": "3242", "subdistrict_name": "SURAJPUR", "subdistrict_type": "Tehsil", "name_corrupted": false, "remarks": "", "label_lon": 82.91212627531219, "label_lat": 23.199768530265565 }, "geometry": { "type": "Polygon", "coordinates": [ [ [ 82.89591, 23.32825 ], [ 82.8961, 23.3238 ], [ 82.89788, 23.31998 ], [ 82.90177, 23.31554 ], [ 82.90775, 23.31184 ], [ 82.91425, 23.30531 ], [ 82.91963, 23.29002 ], [ 82.93674, 23.29008 ], [ 82.94628, 23.28689 ], [ 82.96694, 23.28611 ], [ 82.96457, 23.27523 ], [ 82.96922, 23.27096 ], [ 82.97365, 23.26336 ], [ 82.97556, 23.26189 ], [ 82.9759, 23.26046 ], [ 82.9745, 23.25996 ], [ 82.97558, 23.25815 ], [ 82.97859, 23.25692 ], [ 82.98151, 23.25913 ], [ 82.98283, 23.25873 ], [ 82.98873, 23.25653 ], [ 82.98839, 23.25481 ], [ 82.98904, 23.25418 ], [ 82.99326, 23.25229 ], [ 82.99229, 23.25054 ], [ 82.98598, 23.2457 ], [ 82.97543, 23.24565 ], [ 82.9687, 23.24819 ], [ 82.96669, 23.24624 ], [ 82.96432, 23.24633 ], [ 82.96298, 23.2402 ], [ 82.96306, 23.23808 ], [ 82.96396, 23.23678 ], [ 82.96249, 23.23035 ], [ 82.96332, 23.22699 ], [ 82.95776, 23.22977 ], [ 82.95455, 23.23017 ], [ 82.9522, 23.22959 ], [ 82.94949, 23.23085 ], [ 82.94653, 23.22975 ], [ 82.9471, 23.22885 ], [ 82.94925, 23.22831 ], [ 82.95174, 23.22572 ], [ 82.95409, 23.22511 ], [ 82.95496, 23.22279 ], [ 82.9564, 23.22247 ], [ 82.96093, 23.21802 ], [ 82.96394, 23.2177 ], [ 82.96368, 23.21536 ], [ 82.96135, 23.21431 ], [ 82.96143, 23.21189 ], [ 82.96767, 23.21372 ], [ 82.96909, 23.21264 ], [ 82.96906, 23.21147 ], [ 82.97222, 23.21006 ], [ 82.96762, 23.20405 ], [ 82.96399, 23.19274 ], [ 82.95996, 23.19254 ], [ 82.95497, 23.18009 ], [ 82.95024, 23.17212 ], [ 82.95032, 23.17114 ], [ 82.95325, 23.16967 ], [ 82.9564, 23.16607 ], [ 82.96201, 23.15298 ], [ 82.98641, 23.14772 ], [ 82.9984, 23.14393 ], [ 83.00244, 23.14676 ], [ 83.0072, 23.14245 ], [ 83.01438, 23.14198 ], [ 83.01713, 23.1435 ], [ 83.02014, 23.14262 ], [ 83.02378, 23.14364 ], [ 83.02644, 23.14057 ], [ 83.02857, 23.14108 ], [ 83.02742, 23.12657 ], [ 83.03027, 23.11637 ], [ 83.02991, 23.11221 ], [ 83.03105, 23.10793 ], [ 83.03421, 23.1043 ], [ 83.03002, 23.09821 ], [ 83.01996, 23.09754 ], [ 83.01649, 23.0937 ], [ 83.01219, 23.09361 ], [ 83.00305, 23.08022 ], [ 82.99959, 23.07418 ], [ 82.99888, 23.07106 ], [ 82.99589, 23.07085 ], [ 82.98968, 23.07272 ], [ 82.98315, 23.07295 ], [ 82.97912, 23.07145 ], [ 82.97381, 23.06763 ], [ 82.96544, 23.07131 ], [ 82.96301, 23.07467 ], [ 82.96413, 23.07895 ], [ 82.96624, 23.0824 ], [ 82.96617, 23.08425 ], [ 82.96436, 23.08606 ], [ 82.95946, 23.08767 ], [ 82.95837, 23.08925 ], [ 82.95663, 23.09578 ], [ 82.95004, 23.09578 ], [ 82.94487, 23.09252 ], [ 82.94133, 23.08855 ], [ 82.93974, 23.09213 ], [ 82.9397, 23.09515 ], [ 82.93833, 23.09696 ], [ 82.93359, 23.09818 ], [ 82.93, 23.10513 ], [ 82.93019, 23.10623 ], [ 82.92222, 23.11079 ], [ 82.92375, 23.11488 ], [ 82.923, 23.11554 ], [ 82.92133, 23.11506 ], [ 82.9187, 23.11698 ], [ 82.91368, 23.11672 ], [ 82.89559, 23.10927 ], [ 82.88576, 23.10868 ], [ 82.88013, 23.10938 ], [ 82.87854, 23.10883 ], [ 82.8638, 23.1092 ], [ 82.86055, 23.11352 ], [ 82.85615, 23.11355 ], [ 82.85077, 23.11541 ], [ 82.8527, 23.12281 ], [ 82.85548, 23.12766 ], [ 82.85285, 23.1442 ], [ 82.8542, 23.14755 ], [ 82.84802, 23.15001 ], [ 82.85247, 23.15429 ], [ 82.85067, 23.15923 ], [ 82.85163, 23.16137 ], [ 82.85015, 23.16335 ], [ 82.84608, 23.16493 ], [ 82.84388, 23.16394 ], [ 82.8435, 23.16202 ], [ 82.84149, 23.16214 ], [ 82.83938, 23.16115 ], [ 82.83612, 23.16893 ], [ 82.83781, 23.17293 ], [ 82.83888, 23.17372 ], [ 82.84045, 23.17311 ], [ 82.84038, 23.17439 ], [ 82.83872, 23.1752 ], [ 82.83873, 23.17595 ], [ 82.84433, 23.1795 ], [ 82.83955, 23.17909 ], [ 82.83735, 23.18008 ], [ 82.83544, 23.18248 ], [ 82.83588, 23.18495 ], [ 82.83803, 23.18743 ], [ 82.8407, 23.18737 ], [ 82.84256, 23.18598 ], [ 82.84359, 23.18711 ], [ 82.84485, 23.187 ], [ 82.84573, 23.18569 ], [ 82.8476, 23.1875 ], [ 82.85022, 23.195 ], [ 82.84965, 23.19912 ], [ 82.85089, 23.20244 ], [ 82.84697, 23.20514 ], [ 82.84016, 23.20785 ], [ 82.83842, 23.2103 ], [ 82.83185, 23.21269 ], [ 82.83185, 23.21648 ], [ 82.82725, 23.22085 ], [ 82.82326, 23.2186 ], [ 82.82269, 23.21688 ], [ 82.82392, 23.21589 ], [ 82.82286, 23.21358 ], [ 82.82076, 23.21355 ], [ 82.81703, 23.21161 ], [ 82.80585, 23.21124 ], [ 82.80438, 23.21266 ], [ 82.80515, 23.21616 ], [ 82.8033, 23.21876 ], [ 82.80109, 23.21872 ], [ 82.80196, 23.22026 ], [ 82.80135, 23.22152 ], [ 82.79937, 23.22089 ], [ 82.79745, 23.2213 ], [ 82.79736, 23.2227 ], [ 82.79881, 23.22379 ], [ 82.81215, 23.2235 ], [ 82.81654, 23.22264 ], [ 82.82494, 23.22405 ], [ 82.82551, 23.22488 ], [ 82.827, 23.2234 ], [ 82.82745, 23.22523 ], [ 82.82915, 23.22697 ], [ 82.83309, 23.22919 ], [ 82.83006, 23.23293 ], [ 82.82971, 23.2344 ], [ 82.83005, 23.23799 ], [ 82.8324, 23.2444 ], [ 82.8309, 23.24699 ], [ 82.83075, 23.25058 ], [ 82.83225, 23.25137 ], [ 82.83212, 23.25292 ], [ 82.8336, 23.25422 ], [ 82.83177, 23.2574 ], [ 82.83304, 23.25814 ], [ 82.83129, 23.26012 ], [ 82.83133, 23.26264 ], [ 82.83003, 23.26457 ], [ 82.8303, 23.2665 ], [ 82.82912, 23.26925 ], [ 82.82943, 23.27078 ], [ 82.82797, 23.2763 ], [ 82.82925, 23.27785 ], [ 82.83034, 23.2817 ], [ 82.83399, 23.28484 ], [ 82.83467, 23.28761 ], [ 82.83088, 23.29137 ], [ 82.82287, 23.29335 ], [ 82.82346, 23.29727 ], [ 82.82606, 23.3012 ], [ 82.82663, 23.30646 ], [ 82.82611, 23.30854 ], [ 82.82356, 23.31141 ], [ 82.82281, 23.31647 ], [ 82.82501, 23.31882 ], [ 82.82956, 23.31865 ], [ 82.83252, 23.31974 ], [ 82.83902, 23.31959 ], [ 82.84513, 23.32084 ], [ 82.85709, 23.32156 ], [ 82.86057, 23.32332 ], [ 82.86924, 23.32391 ], [ 82.86905, 23.32499 ], [ 82.87234, 23.32758 ], [ 82.87519, 23.32941 ], [ 82.87875, 23.33025 ], [ 82.8845, 23.33051 ], [ 82.89591, 23.32825 ] ] ] } },
{ "type": "Feature", "properties": { "OBJECTID": 1461, "state_lgd": "22", "state_name": "CHHATTISGARH", "district_lgd": "641", "district_name": "SURAJPUR", "district_name_source": "district_table", "subdistrict_lgd": "7245", "subdistrict_name": "BIHARPUR", "subdistrict_type": "Tehsil", "name_corrupted": false, "remarks": "", "label_lon": 82.664991876445086, "label_lat": 23.779386723019478 }, "geometry": { "type": "Polygon", "coordinates": [ [ [ 82.69453, 23.90971 ], [ 82.69271, 23.90539 ], [ 82.69325, 23.90385 ], [ 82.70004, 23.89698 ], [ 82.70149, 23.89346 ], [ 82.70485, 23.891 ], [ 82.70759, 23.8907 ], [ 82.7185, 23.89218 ], [ 82.73455, 23.89182 ], [ 82.73786, 23.88976 ], [ 82.74179, 23.88219 ], [ 82.74311, 23.88117 ], [ 82.74817, 23.87972 ], [ 82.7607, 23.87885 ], [ 82.77137, 23.87703 ], [ 82.77305, 23.87136 ], [ 82.77335, 23.86698 ], [ 82.77826, 23.8566 ], [ 82.78264, 23.84135 ], [ 82.78282, 23.83204 ], [ 82.78083, 23.82421 ], [ 82.77089, 23.82054 ], [ 82.76811, 23.82029 ], [ 82.76398, 23.82152 ], [ 82.75921, 23.81866 ], [ 82.75837, 23.81698 ], [ 82.75879, 23.81442 ], [ 82.76043, 23.80993 ], [ 82.76344, 23.80504 ], [ 82.76314, 23.79877 ], [ 82.76226, 23.79688 ], [ 82.75741, 23.79232 ], [ 82.74312, 23.78316 ], [ 82.74587, 23.77741 ], [ 82.75669, 23.76612 ], [ 82.75902, 23.76223 ], [ 82.75986, 23.75681 ], [ 82.75794, 23.75046 ], [ 82.75482, 23.74672 ], [ 82.75149, 23.746 ], [ 82.74605, 23.74706 ], [ 82.74216, 23.74466 ], [ 82.7385, 23.7404 ], [ 82.73189, 23.73947 ], [ 82.72902, 23.7329 ], [ 82.72986, 23.72724 ], [ 82.74232, 23.71881 ], [ 82.75301, 23.70735 ], [ 82.75958, 23.68223 ], [ 82.75754, 23.67438 ], [ 82.73972, 23.66497 ], [ 82.72146, 23.66072 ], [ 82.69036, 23.66798 ], [ 82.67006, 23.66833 ], [ 82.65909, 23.6877 ], [ 82.65612, 23.70529 ], [ 82.64376, 23.6905 ], [ 82.63732, 23.68623 ], [ 82.63106, 23.68871 ], [ 82.62122, 23.68813 ], [ 82.59795, 23.68487 ], [ 82.59597, 23.68893 ], [ 82.5956, 23.69286 ], [ 82.59125, 23.69667 ], [ 82.58923, 23.69663 ], [ 82.58925, 23.69776 ], [ 82.5872, 23.69879 ], [ 82.58613, 23.70034 ], [ 82.58499, 23.70601 ], [ 82.58074, 23.70777 ], [ 82.57939, 23.71306 ], [ 82.57758, 23.71447 ], [ 82.57748, 23.71762 ], [ 82.57511, 23.72017 ], [ 82.57133, 23.71972 ], [ 82.57051, 23.72176 ], [ 82.56593, 23.72558 ], [ 82.56509, 23.72772 ], [ 82.56614, 23.73382 ], [ 82.56189, 23.73371 ], [ 82.56024, 23.73542 ], [ 82.55864, 23.73521 ], [ 82.55339, 23.7373 ], [ 82.5519, 23.74053 ], [ 82.55244, 23.74261 ], [ 82.55085, 23.74354 ], [ 82.55176, 23.74854 ], [ 82.55029, 23.74966 ], [ 82.54881, 23.75389 ], [ 82.54585, 23.75458 ], [ 82.54585, 23.7566 ], [ 82.54052, 23.75787 ], [ 82.53764, 23.76167 ], [ 82.5345, 23.7598 ], [ 82.53179, 23.76013 ], [ 82.52982, 23.75819 ], [ 82.52808, 23.75863 ], [ 82.52512, 23.7575 ], [ 82.5217, 23.75858 ], [ 82.51484, 23.75618 ], [ 82.50878, 23.76088 ], [ 82.50294, 23.75996 ], [ 82.49923, 23.76344 ], [ 82.49765, 23.76781 ], [ 82.49893, 23.77558 ], [ 82.4974, 23.7849 ], [ 82.49799, 23.78562 ], [ 82.50634, 23.78478 ], [ 82.51097, 23.78602 ], [ 82.51531, 23.78446 ], [ 82.52446, 23.78374 ], [ 82.53101, 23.78903 ], [ 82.53549, 23.7908 ], [ 82.53813, 23.79425 ], [ 82.54181, 23.79149 ], [ 82.5428, 23.7923 ], [ 82.54357, 23.79136 ], [ 82.547, 23.79174 ], [ 82.54788, 23.79072 ], [ 82.55147, 23.79064 ], [ 82.54982, 23.80391 ], [ 82.54844, 23.80855 ], [ 82.53879, 23.81637 ], [ 82.53949, 23.81899 ], [ 82.53834, 23.82019 ], [ 82.53355, 23.82023 ], [ 82.53307, 23.82215 ], [ 82.53934, 23.82306 ], [ 82.54749, 23.82255 ], [ 82.54674, 23.82619 ], [ 82.55425, 23.8262 ], [ 82.55483, 23.82535 ], [ 82.56322, 23.82285 ], [ 82.56476, 23.82074 ], [ 82.56937, 23.8203 ], [ 82.57319, 23.82406 ], [ 82.57776, 23.82423 ], [ 82.57922, 23.82241 ], [ 82.58181, 23.82301 ], [ 82.58361, 23.82071 ], [ 82.58862, 23.82144 ], [ 82.59995, 23.82653 ], [ 82.60224, 23.8303 ], [ 82.60444, 23.83216 ], [ 82.60752, 23.83328 ], [ 82.62954, 23.83879 ], [ 82.63534, 23.83771 ], [ 82.63917, 23.84165 ], [ 82.63674, 23.84448 ], [ 82.63814, 23.84798 ], [ 82.64244, 23.84694 ], [ 82.64714, 23.84872 ], [ 82.64623, 23.85067 ], [ 82.64718, 23.85369 ], [ 82.6451, 23.85511 ], [ 82.64721, 23.85597 ], [ 82.64683, 23.85914 ], [ 82.64958, 23.86025 ], [ 82.65056, 23.85915 ], [ 82.65287, 23.85879 ], [ 82.65292, 23.85775 ], [ 82.65058, 23.85685 ], [ 82.65157, 23.85548 ], [ 82.65601, 23.85457 ], [ 82.65996, 23.85478 ], [ 82.66156, 23.85693 ], [ 82.66021, 23.86037 ], [ 82.66022, 23.86284 ], [ 82.66142, 23.86363 ], [ 82.66448, 23.86255 ], [ 82.66438, 23.8646 ], [ 82.66845, 23.87179 ], [ 82.66545, 23.8739 ], [ 82.66374, 23.87718 ], [ 82.66142, 23.87814 ], [ 82.65123, 23.88676 ], [ 82.65122, 23.89008 ], [ 82.6576, 23.90254 ], [ 82.66203, 23.90783 ], [ 82.66839, 23.90723 ], [ 82.67114, 23.90579 ], [ 82.67466, 23.90674 ], [ 82.67638, 23.90925 ], [ 82.68058, 23.90715 ], [ 82.6834, 23.90929 ], [ 82.68888, 23.9098 ], [ 82.68936, 23.9121 ], [ 82.69155, 23.91377 ], [ 82.69312, 23.91894 ], [ 82.69475, 23.91448 ], [ 82.69453, 23.90971 ] ] ] } },
{ "type": "Feature", "properties": { "OBJECTID": 1546, "state_lgd": "22", "state_name": "CHHATTISGARH", "district_lgd": "641", "district_name": "SURAJPUR", "district_name_source": "district_table", "subdistrict_lgd": "7310", "subdistrict_name": "BHATGAON", "subdistrict_type": "Tehsil", "name_corrupted": false, "remarks": "", "label_lon": 82.984258350336958, "label_lat": 23.343739437361194 }, "geometry": { "type": "Polygon", "coordinates": [ [ [ 82.89591, 23.32825 ], [ 82.89789, 23.33278 ], [ 82.90256, 23.3366 ], [ 82.90655, 23.34157 ], [ 82.90633, 23.34458 ], [ 82.90759, 23.34847 ], [ 82.90705, 23.35134 ], [ 82.9082, 23.3576 ], [ 82.90685, 23.36019 ], [ 82.90075, 23.36179 ], [ 82.89392, 23.36036 ], [ 82.88684, 23.36178 ], [ 82.88495, 23.36611 ], [ 82.88698, 23.36679 ], [ 82.88774, 23.37004 ], [ 82.88992, 23.36922 ], [ 82.8925, 23.37011 ], [ 82.89578, 23.3685 ], [ 82.89626, 23.37109 ], [ 82.90425, 23.371 ], [ 82.91405, 23.3746 ], [ 82.912, 23.37908 ], [ 82.91041, 23.37864 ], [ 82.91045, 23.38224 ], [ 82.91476, 23.38309 ], [ 82.9146, 23.38433 ], [ 82.9115, 23.38543 ], [ 82.91251, 23.38753 ], [ 82.91759, 23.39023 ], [ 82.92001, 23.39395 ], [ 82.9245, 23.39582 ], [ 82.931, 23.39574 ], [ 82.93584, 23.39452 ], [ 82.93821, 23.39312 ], [ 82.94562, 23.40138 ], [ 82.94763, 23.40245 ], [ 82.94984, 23.40252 ], [ 82.95125, 23.4008 ], [ 82.95042, 23.39888 ], [ 82.95231, 23.39791 ], [ 82.95287, 23.39602 ], [ 82.95921, 23.39362 ], [ 82.96457, 23.39647 ], [ 82.96568, 23.39754 ], [ 82.96686, 23.40127 ], [ 82.97217, 23.40556 ], [ 82.97376, 23.40598 ], [ 82.97923, 23.40405 ], [ 82.99282, 23.41262 ], [ 82.99159, 23.41557 ], [ 82.99179, 23.4237 ], [ 83.00069, 23.43278 ], [ 83.00381, 23.4397 ], [ 83.00635, 23.45006 ], [ 83.00999, 23.45511 ], [ 83.03367, 23.4628 ], [ 83.03557, 23.46449 ], [ 83.03684, 23.46349 ], [ 83.03903, 23.45894 ], [ 83.03924, 23.45484 ], [ 83.04365, 23.44791 ], [ 83.04782, 23.4443 ], [ 83.05245, 23.44457 ], [ 83.0529, 23.44397 ], [ 83.05056, 23.43588 ], [ 83.04738, 23.43536 ], [ 83.0492, 23.4301 ], [ 83.0474, 23.42847 ], [ 83.04576, 23.42994 ], [ 83.04477, 23.42944 ], [ 83.04429, 23.42857 ], [ 83.04522, 23.42748 ], [ 83.04116, 23.42878 ], [ 83.03477, 23.42556 ], [ 83.03262, 23.42662 ], [ 83.02673, 23.4267 ], [ 83.02594, 23.4248 ], [ 83.02247, 23.42482 ], [ 83.02102, 23.4219 ], [ 83.01927, 23.42189 ], [ 83.0189, 23.42055 ], [ 83.01663, 23.42094 ], [ 83.01543, 23.42007 ], [ 83.01396, 23.42022 ], [ 83.01317, 23.4191 ], [ 83.02258, 23.41249 ], [ 83.02253, 23.41025 ], [ 83.02618, 23.40358 ], [ 83.02676, 23.39985 ], [ 83.02771, 23.39908 ], [ 83.02682, 23.39385 ], [ 83.02868, 23.39046 ], [ 83.0319, 23.38891 ], [ 83.03548, 23.38199 ], [ 83.04066, 23.38205 ], [ 83.03704, 23.37674 ], [ 83.03515, 23.37576 ], [ 83.03485, 23.37645 ], [ 83.03235, 23.37607 ], [ 83.03241, 23.37251 ], [ 83.03146, 23.36952 ], [ 83.03212, 23.3692 ], [ 83.03257, 23.36569 ], [ 83.03162, 23.36551 ], [ 83.03048, 23.36275 ], [ 83.03175, 23.36234 ], [ 83.03029, 23.35734 ], [ 83.03433, 23.34595 ], [ 83.07168, 23.32232 ], [ 83.0703, 23.31805 ], [ 83.069, 23.31721 ], [ 83.06877, 23.31606 ], [ 83.06919, 23.3147 ], [ 83.07015, 23.31484 ], [ 83.07034, 23.31356 ], [ 83.07138, 23.31325 ], [ 83.07007, 23.30576 ], [ 83.07088, 23.30567 ], [ 83.07143, 23.30436 ], [ 83.06826, 23.30292 ], [ 83.06537, 23.30494 ], [ 83.06409, 23.3048 ], [ 83.06693, 23.29862 ], [ 83.06408, 23.29712 ], [ 83.05686, 23.29457 ], [ 83.05363, 23.29478 ], [ 83.05136, 23.29654 ], [ 83.05175, 23.29702 ], [ 83.05366, 23.29629 ], [ 83.05364, 23.29714 ], [ 83.05615, 23.29952 ], [ 83.05374, 23.29975 ], [ 83.05282, 23.30066 ], [ 83.05009, 23.29997 ], [ 83.04856, 23.30173 ], [ 83.04229, 23.29999 ], [ 83.04057, 23.30048 ], [ 83.03969, 23.29911 ], [ 83.03738, 23.29815 ], [ 83.03621, 23.29905 ], [ 83.03704, 23.30067 ], [ 83.03535, 23.30122 ], [ 83.03298, 23.30113 ], [ 83.03298, 23.29993 ], [ 83.02883, 23.29987 ], [ 83.02892, 23.29787 ], [ 83.0302, 23.29694 ], [ 83.02993, 23.29509 ], [ 83.02842, 23.29425 ], [ 83.02729, 23.29178 ], [ 83.02479, 23.29053 ], [ 83.02662, 23.28883 ], [ 83.02619, 23.28639 ], [ 83.02755, 23.28593 ], [ 83.02862, 23.28383 ], [ 83.02833, 23.2829 ], [ 83.02983, 23.28218 ], [ 83.02948, 23.27553 ], [ 83.02862, 23.2754 ], [ 83.02891, 23.27302 ], [ 83.03005, 23.27263 ], [ 83.02877, 23.27026 ], [ 83.0297, 23.26993 ], [ 83.02877, 23.26756 ], [ 83.03455, 23.26651 ], [ 83.0344, 23.26559 ], [ 83.0364, 23.26453 ], [ 83.04046, 23.2646 ], [ 83.04053, 23.26348 ], [ 83.04134, 23.26325 ], [ 83.04027, 23.25919 ], [ 83.04089, 23.25795 ], [ 83.03766, 23.25202 ], [ 83.03643, 23.25091 ], [ 83.03079, 23.25238 ], [ 83.02757, 23.25437 ], [ 83.02138, 23.25515 ], [ 83.01793, 23.25471 ], [ 83.01386, 23.25596 ], [ 83.01542, 23.25306 ], [ 83.01335, 23.2519 ], [ 83.01112, 23.24925 ], [ 83.0087, 23.24937 ], [ 83.0032, 23.25127 ], [ 82.99814, 23.25106 ], [ 82.99133, 23.25277 ], [ 82.98839, 23.25481 ], [ 82.98873, 23.25653 ], [ 82.98151, 23.25913 ], [ 82.97859, 23.25692 ], [ 82.97595, 23.25779 ], [ 82.9745, 23.25996 ], [ 82.9759, 23.26046 ], [ 82.97556, 23.26189 ], [ 82.97365, 23.26336 ], [ 82.96922, 23.27096 ], [ 82.96457, 23.27523 ], [ 82.96694, 23.28611 ], [ 82.94628, 23.28689 ], [ 82.93674, 23.29008 ], [ 82.91963, 23.29002 ], [ 82.91425, 23.30531 ], [ 82.90775, 23.31184 ], [ 82.90177, 23.31554 ], [ 82.89788, 23.31998 ], [ 82.8961, 23.3238 ], [ 82.89591, 23.32825 ] ] ] } }
]
}
