{
"type": "FeatureCollection",
"name": "642_BALRAMPUR",
"crs": { "type": "name", "properties": { "name": "urn:ogc:def:crs:OGC:1.3:CRS84" } },
"xy_coordinate_resolution": 1e-05,
"features": [
{ "type": "Feature", "properties": { "OBJECTID": 1317, "state_lgd": "22", "state_name": "CHHATTISGARH", "district_lgd": "642", "district_name": "BALRAMPUR", "district_name_source": "district_table", "subdistrict_lgd": "3238", "subdistrict_name": "WADRAFNAGAR", "subdistrict_type": "Tehsil", "name_corrupted": false, "remarks": "", "label_lon": 83.230099125758457, "label_lat": 23.799106840831254 }, "geometry": { "type": "Polygon", "coordinates": [ [ [ 83.36495, 23.88756 ], [ 83.37426, 23.88352 ], [ 83.37378, 23.88159 ], [ 83.36716, 23.86859 ], [ 83.36907, 23.85763 ], [ 83.36778, 23.85256 ], [ 83.35193, 23.84054 ], [ 83.35223, 23.83304 ], [ 83.3512, 23.82268 ], [ 83.35188, 23.8205 ], [ 83.3497, 23.80754 ], [ 83.35005, 23.80002 ], [ 83.35182, 23.79604 ], [ 83.35164, 23.79315 ], [ 83.36488, 23.79103 ], [ 83.3794, 23.78994 ], [ 83.3868, 23.78718 ], [ 83.38651, 23.78612 ], [ 83.38115, 23.78345 ], [ 83.37495, 23.78217 ], [ 83.36858, 23.77947 ], [ 83.3683, 23.76848 ], [ 83.35334, 23.75221 ], [ 83.35657, 23.75087 ], [ 83.35722, 23.73603 ], [ 83.35845, 23.72726 ], [ 83.3594, 23.72581 ], [ 83.35264, 23.72179 ], [ 83.35119, 23.71808 ], [ 83.3452, 23.71822 ], [ 83.34374, 23.71224 ], [ 83.3426, 23.7121 ], [ 83.34209, 23.71016 ], [ 83.33668, 23.71228 ], [ 83.3358, 23.71177 ], [ 83.32658, 23.70061 ], [ 83.32514, 23.70364 ], [ 83.32265, 23.70398 ], [ 83.32124, 23.70134 ], [ 83.31917, 23.70209 ], [ 83.31879, 23.70036 ], [ 83.31629, 23.70026 ], [ 83.31514, 23.70264 ], [ 83.31369, 23.70115 ], [ 83.31265, 23.70113 ], [ 83.31297, 23.69939 ], [ 83.31816, 23.69828 ], [ 83.31879, 23.69544 ], [ 83.31455, 23.6957 ], [ 83.31377, 23.69404 ], [ 83.31496, 23.69334 ], [ 83.31553, 23.69109 ], [ 83.31149, 23.68647 ], [ 83.30583, 23.68645 ], [ 83.30664, 23.68866 ], [ 83.30342, 23.68972 ], [ 83.3037, 23.68487 ], [ 83.30211, 23.68458 ], [ 83.29925, 23.68697 ], [ 83.29868, 23.68835 ], [ 83.29605, 23.68854 ], [ 83.2856, 23.69631 ], [ 83.28388, 23.69213 ], [ 83.28184, 23.69143 ], [ 83.28042, 23.6917 ], [ 83.27894, 23.69339 ], [ 83.27781, 23.69236 ], [ 83.27745, 23.69318 ], [ 83.27558, 23.69256 ], [ 83.27375, 23.69558 ], [ 83.27165, 23.69573 ], [ 83.27091, 23.69429 ], [ 83.26583, 23.69319 ], [ 83.26572, 23.69121 ], [ 83.26467, 23.69074 ], [ 83.2645, 23.69302 ], [ 83.26064, 23.69186 ], [ 83.25973, 23.69086 ], [ 83.24563, 23.68998 ], [ 83.24386, 23.68844 ], [ 83.23658, 23.68865 ], [ 83.23422, 23.68997 ], [ 83.22677, 23.69035 ], [ 83.22474, 23.6909 ], [ 83.22432, 23.6931 ], [ 83.22249, 23.69216 ], [ 83.22171, 23.69033 ], [ 83.21968, 23.69039 ], [ 83.21647, 23.68668 ], [ 83.21718, 23.68544 ], [ 83.21539, 23.68463 ], [ 83.21466, 23.68656 ], [ 83.21272, 23.68732 ], [ 83.2085, 23.68773 ], [ 83.20422, 23.68695 ], [ 83.20633, 23.69171 ], [ 83.20559, 23.69403 ], [ 83.21025, 23.69931 ], [ 83.21048, 23.70791 ], [ 83.2127, 23.71032 ], [ 83.20617, 23.72281 ], [ 83.19626, 23.72242 ], [ 83.18309, 23.7101 ], [ 83.18146, 23.70923 ], [ 83.17431, 23.70917 ], [ 83.16361, 23.70251 ], [ 83.15821, 23.70299 ], [ 83.15103, 23.70969 ], [ 83.13243, 23.70955 ], [ 83.11325, 23.72166 ], [ 83.1075, 23.72305 ], [ 83.10321, 23.7289 ], [ 83.09295, 23.72914 ], [ 83.08498, 23.74471 ], [ 83.08774, 23.74426 ], [ 83.09342, 23.74592 ], [ 83.09693, 23.7451 ], [ 83.09709, 23.74777 ], [ 83.09481, 23.7504 ], [ 83.09733, 23.7681 ], [ 83.09949, 23.77346 ], [ 83.10669, 23.77185 ], [ 83.10889, 23.77298 ], [ 83.1089, 23.77805 ], [ 83.11399, 23.78011 ], [ 83.11483, 23.7821 ], [ 83.11403, 23.78608 ], [ 83.11819, 23.78765 ], [ 83.11517, 23.79289 ], [ 83.11666, 23.79415 ], [ 83.11642, 23.79806 ], [ 83.11825, 23.8006 ], [ 83.11995, 23.80662 ], [ 83.11816, 23.80739 ], [ 83.11835, 23.8093 ], [ 83.11725, 23.81044 ], [ 83.10963, 23.81172 ], [ 83.10507, 23.81464 ], [ 83.08588, 23.8195 ], [ 83.07948, 23.82206 ], [ 83.07432, 23.82641 ], [ 83.07815, 23.85573 ], [ 83.07849, 23.86095 ], [ 83.07746, 23.86818 ], [ 83.07797, 23.87026 ], [ 83.09138, 23.87155 ], [ 83.09775, 23.87324 ], [ 83.10867, 23.87801 ], [ 83.11577, 23.88019 ], [ 83.12569, 23.88279 ], [ 83.14148, 23.88492 ], [ 83.14759, 23.88898 ], [ 83.14822, 23.89329 ], [ 83.15111, 23.89486 ], [ 83.1518, 23.89608 ], [ 83.15384, 23.89673 ], [ 83.15277, 23.89947 ], [ 83.15417, 23.90218 ], [ 83.15422, 23.90404 ], [ 83.15833, 23.90569 ], [ 83.15948, 23.90739 ], [ 83.16367, 23.90877 ], [ 83.16478, 23.90766 ], [ 83.16746, 23.90833 ], [ 83.17119, 23.90777 ], [ 83.17253, 23.91046 ], [ 83.17467, 23.9123 ], [ 83.17658, 23.91163 ], [ 83.17827, 23.91216 ], [ 83.18129, 23.9151 ], [ 83.18803, 23.91453 ], [ 83.18976, 23.91735 ], [ 83.19317, 23.91693 ], [ 83.19464, 23.91434 ], [ 83.19844, 23.91406 ], [ 83.20626, 23.9201 ], [ 83.20695, 23.91853 ], [ 83.21116, 23.91896 ], [ 83.21262, 23.91274 ], [ 83.21712, 23.91343 ], [ 83.21898, 23.91274 ], [ 83.22148, 23.90797 ], [ 83.22115, 23.90586 ], [ 83.21858, 23.90446 ], [ 83.21734, 23.90096 ], [ 83.21485, 23.89808 ], [ 83.20964, 23.89626 ], [ 83.21015, 23.89344 ], [ 83.20425, 23.89084 ], [ 83.20944, 23.8858 ], [ 83.2123, 23.88563 ], [ 83.21287, 23.88192 ], [ 83.21162, 23.88103 ], [ 83.21234, 23.87965 ], [ 83.21421, 23.879 ], [ 83.21571, 23.87658 ], [ 83.21797, 23.87586 ], [ 83.21871, 23.86567 ], [ 83.2262, 23.86609 ], [ 83.23888, 23.86946 ], [ 83.24436, 23.8719 ], [ 83.2476, 23.87502 ], [ 83.253, 23.87534 ], [ 83.25499, 23.87469 ], [ 83.25687, 23.87915 ], [ 83.25372, 23.87912 ], [ 83.25049, 23.88051 ], [ 83.25034, 23.88403 ], [ 83.25156, 23.88493 ], [ 83.25877, 23.8847 ], [ 83.26459, 23.88688 ], [ 83.27212, 23.88634 ], [ 83.2729, 23.88552 ], [ 83.27232, 23.88105 ], [ 83.27952, 23.88111 ], [ 83.30968, 23.89304 ], [ 83.32235, 23.89901 ], [ 83.32896, 23.90032 ], [ 83.33497, 23.90068 ], [ 83.35, 23.89696 ], [ 83.35765, 23.89655 ], [ 83.36528, 23.89184 ], [ 83.36495, 23.88756 ] ] ] } },
{ "type": "Feature", "properties": { "OBJECTID": 1443, "state_lgd": "22", "state_name": "CHHATTISGARH", "district_lgd": "642", "district_name": "BALRAMPUR", "district_name_source": "district_table", "subdistrict_lgd": "3241", "subdistrict_name": "SHANKARGARH", "subdistrict_type": "Tehsil", "name_corrupted": false, "remarks": "", "label_lon": 83.652086892929219, "label_lat": 23.318888654091921 }, "geometry": { "type": "Polygon", "coordinates": [ [ [ 83.65376, 23.48963 ], [ 83.66795, 23.48152 ], [ 83.67445, 23.48155 ], [ 83.68949, 23.4771 ], [ 83.69963, 23.47933 ], [ 83.70649, 23.47584 ], [ 83.70973, 23.47267 ], [ 83.72628, 23.43087 ], [ 83.73775, 23.41423 ], [ 83.75487, 23.40433 ], [ 83.75905, 23.39981 ], [ 83.76084, 23.40049 ], [ 83.76321, 23.39712 ], [ 83.76176, 23.39285 ], [ 83.76266, 23.39142 ], [ 83.76136, 23.38572 ], [ 83.76417, 23.38086 ], [ 83.76248, 23.37599 ], [ 83.76207, 23.3709 ], [ 83.76015, 23.36623 ], [ 83.75265, 23.36572 ], [ 83.75153, 23.36499 ], [ 83.75236, 23.35795 ], [ 83.75004, 23.35479 ], [ 83.75499, 23.353 ], [ 83.76861, 23.3511 ], [ 83.76906, 23.34883 ], [ 83.76838, 23.34196 ], [ 83.76954, 23.33946 ], [ 83.76892, 23.33842 ], [ 83.78785, 23.33653 ], [ 83.78957, 23.33467 ], [ 83.79242, 23.33373 ], [ 83.79574, 23.32848 ], [ 83.79835, 23.32162 ], [ 83.79653, 23.319 ], [ 83.79764, 23.3177 ], [ 83.79568, 23.31303 ], [ 83.79319, 23.31183 ], [ 83.79305, 23.30892 ], [ 83.79981, 23.30891 ], [ 83.80255, 23.30648 ], [ 83.80654, 23.30511 ], [ 83.80569, 23.30362 ], [ 83.80633, 23.30248 ], [ 83.81014, 23.30415 ], [ 83.81363, 23.30376 ], [ 83.81459, 23.30282 ], [ 83.81328, 23.30158 ], [ 83.81348, 23.29844 ], [ 83.81523, 23.29471 ], [ 83.81835, 23.29185 ], [ 83.82153, 23.29025 ], [ 83.82265, 23.28821 ], [ 83.82442, 23.28798 ], [ 83.82617, 23.28936 ], [ 83.82822, 23.28841 ], [ 83.83102, 23.28963 ], [ 83.83424, 23.28711 ], [ 83.8376, 23.28602 ], [ 83.83855, 23.28378 ], [ 83.84261, 23.28329 ], [ 83.84296, 23.28255 ], [ 83.84112, 23.2804 ], [ 83.84147, 23.27749 ], [ 83.83997, 23.27678 ], [ 83.8377, 23.27709 ], [ 83.8347, 23.27463 ], [ 83.83634, 23.2722 ], [ 83.8336, 23.2695 ], [ 83.83322, 23.26746 ], [ 83.83042, 23.26771 ], [ 83.82624, 23.26497 ], [ 83.82492, 23.26588 ], [ 83.82331, 23.26499 ], [ 83.82482, 23.25058 ], [ 83.82436, 23.24408 ], [ 83.82299, 23.24452 ], [ 83.81161, 23.24285 ], [ 83.80624, 23.24605 ], [ 83.80367, 23.24591 ], [ 83.78963, 23.25162 ], [ 83.78475, 23.23845 ], [ 83.78216, 23.2271 ], [ 83.77981, 23.22535 ], [ 83.77423, 23.22497 ], [ 83.77065, 23.22811 ], [ 83.76698, 23.2287 ], [ 83.76646, 23.23205 ], [ 83.76196, 23.23216 ], [ 83.76309, 23.2344 ], [ 83.76257, 23.23592 ], [ 83.75862, 23.23676 ], [ 83.75135, 23.24072 ], [ 83.75001, 23.24286 ], [ 83.74803, 23.24357 ], [ 83.74366, 23.24227 ], [ 83.73703, 23.23612 ], [ 83.7317, 23.23571 ], [ 83.7265, 23.23363 ], [ 83.72145, 23.22772 ], [ 83.71986, 23.22422 ], [ 83.72075, 23.21743 ], [ 83.72316, 23.21414 ], [ 83.71271, 23.21006 ], [ 83.7097, 23.20998 ], [ 83.70291, 23.21068 ], [ 83.70073, 23.21259 ], [ 83.69852, 23.21259 ], [ 83.70088, 23.21517 ], [ 83.69951, 23.21643 ], [ 83.70109, 23.21779 ], [ 83.70095, 23.22123 ], [ 83.70196, 23.22307 ], [ 83.70075, 23.22506 ], [ 83.68928, 23.22506 ], [ 83.67265, 23.23157 ], [ 83.66714, 23.23142 ], [ 83.66337, 23.22961 ], [ 83.65404, 23.22948 ], [ 83.63644, 23.22178 ], [ 83.63441, 23.2194 ], [ 83.62665, 23.22188 ], [ 83.61881, 23.21743 ], [ 83.6155, 23.21291 ], [ 83.61513, 23.21047 ], [ 83.61232, 23.20492 ], [ 83.60754, 23.19822 ], [ 83.60644, 23.19349 ], [ 83.60158, 23.19023 ], [ 83.59648, 23.19219 ], [ 83.58848, 23.19234 ], [ 83.58143, 23.19396 ], [ 83.57528, 23.1943 ], [ 83.56801, 23.1878 ], [ 83.57064, 23.18396 ], [ 83.57086, 23.17802 ], [ 83.56933, 23.17488 ], [ 83.56464, 23.1762 ], [ 83.55436, 23.17504 ], [ 83.54503, 23.1875 ], [ 83.5451, 23.19113 ], [ 83.5442, 23.19376 ], [ 83.54586, 23.19721 ], [ 83.54574, 23.20481 ], [ 83.53148, 23.20134 ], [ 83.53141, 23.20716 ], [ 83.52742, 23.21635 ], [ 83.52898, 23.22133 ], [ 83.53269, 23.22075 ], [ 83.53424, 23.22171 ], [ 83.52885, 23.22714 ], [ 83.52671, 23.23221 ], [ 83.51662, 23.23474 ], [ 83.51696, 23.2372 ], [ 83.52071, 23.24106 ], [ 83.52129, 23.24443 ], [ 83.51001, 23.24715 ], [ 83.50071, 23.24581 ], [ 83.49253, 23.24577 ], [ 83.47974, 23.24864 ], [ 83.47723, 23.25529 ], [ 83.47708, 23.25859 ], [ 83.48008, 23.26267 ], [ 83.47972, 23.27023 ], [ 83.48062, 23.2731 ], [ 83.4804, 23.27833 ], [ 83.49304, 23.27876 ], [ 83.50424, 23.28831 ], [ 83.50604, 23.29261 ], [ 83.50712, 23.30253 ], [ 83.50677, 23.31184 ], [ 83.51093, 23.31606 ], [ 83.52023, 23.32022 ], [ 83.52232, 23.32508 ], [ 83.52225, 23.32981 ], [ 83.51933, 23.337 ], [ 83.52204, 23.34472 ], [ 83.52693, 23.34551 ], [ 83.53298, 23.34864 ], [ 83.53739, 23.35291 ], [ 83.54342, 23.36302 ], [ 83.54475, 23.36934 ], [ 83.54403, 23.37803 ], [ 83.54463, 23.38753 ], [ 83.54749, 23.39473 ], [ 83.55254, 23.39964 ], [ 83.55719, 23.40033 ], [ 83.56159, 23.40239 ], [ 83.56799, 23.40964 ], [ 83.57004, 23.41452 ], [ 83.57484, 23.41825 ], [ 83.58143, 23.42162 ], [ 83.58918, 23.42793 ], [ 83.59359, 23.43533 ], [ 83.59709, 23.43702 ], [ 83.60257, 23.43342 ], [ 83.6083, 23.43118 ], [ 83.60986, 23.42946 ], [ 83.61197, 23.42986 ], [ 83.61722, 23.42868 ], [ 83.62242, 23.42435 ], [ 83.62727, 23.41524 ], [ 83.63104, 23.41294 ], [ 83.63308, 23.41278 ], [ 83.63601, 23.41819 ], [ 83.63966, 23.42029 ], [ 83.65453, 23.41857 ], [ 83.6585, 23.41686 ], [ 83.66036, 23.41708 ], [ 83.66082, 23.41912 ], [ 83.65702, 23.4296 ], [ 83.65702, 23.43438 ], [ 83.65547, 23.4381 ], [ 83.65297, 23.44063 ], [ 83.65289, 23.44837 ], [ 83.65116, 23.44996 ], [ 83.65121, 23.45124 ], [ 83.64851, 23.45243 ], [ 83.63846, 23.4532 ], [ 83.62867, 23.45262 ], [ 83.63551, 23.45778 ], [ 83.63732, 23.46019 ], [ 83.63944, 23.46439 ], [ 83.64065, 23.47377 ], [ 83.64568, 23.47881 ], [ 83.65376, 23.48963 ] ] ] } },
{ "type": "Feature", "properties": { "OBJECTID": 1444, "state_lgd": "22", "state_name": "CHHATTISGARH", "district_lgd": "642", "district_name": "BALRAMPUR", "district_name_source": "district_table", "subdistrict_lgd": "7254", "subdistrict_name": "CHANDO", "subdistrict_type": "Tehsil", "name_corrupted": false, "remarks": "", "label_lon": 83.831614964303682, "label_lat": 23.504726287157386 }, "geometry": { "type": "Polygon", "coordinates": [ [ [ 83.78987, 23.60456 ], [ 83.79452, 23.6051 ], [ 83.80107, 23.60161 ], [ 83.80438, 23.59537 ], [ 83.80542, 23.58882 ], [ 83.80722, 23.58747 ], [ 83.81205, 23.58895 ], [ 83.81537, 23.5962 ], [ 83.81782, 23.5942 ], [ 83.82322, 23.59246 ], [ 83.82587, 23.59071 ], [ 83.83861, 23.58939 ], [ 83.84468, 23.58665 ], [ 83.84705, 23.58752 ], [ 83.85305, 23.58705 ], [ 83.86971, 23.58318 ], [ 83.87581, 23.58104 ], [ 83.88182, 23.58056 ], [ 83.88806, 23.57876 ], [ 83.89445, 23.58265 ], [ 83.89939, 23.58241 ], [ 83.90017, 23.58015 ], [ 83.90857, 23.57625 ], [ 83.91855, 23.57641 ], [ 83.92703, 23.57371 ], [ 83.93062, 23.57096 ], [ 83.9356, 23.56901 ], [ 83.9381, 23.56916 ], [ 83.93956, 23.56754 ], [ 83.94426, 23.56046 ], [ 83.94716, 23.55237 ], [ 83.94824, 23.54685 ], [ 83.94823, 23.53814 ], [ 83.94645, 23.53073 ], [ 83.94791, 23.52133 ], [ 83.94738, 23.51932 ], [ 83.94581, 23.51667 ], [ 83.94312, 23.50684 ], [ 83.93913, 23.4998 ], [ 83.93929, 23.49662 ], [ 83.93372, 23.49149 ], [ 83.93147, 23.48608 ], [ 83.93436, 23.48195 ], [ 83.93469, 23.47198 ], [ 83.93397, 23.47181 ], [ 83.92882, 23.47544 ], [ 83.92565, 23.47466 ], [ 83.92346, 23.47514 ], [ 83.92185, 23.47432 ], [ 83.91248, 23.47861 ], [ 83.91029, 23.48179 ], [ 83.90536, 23.47565 ], [ 83.9075, 23.47392 ], [ 83.90673, 23.46652 ], [ 83.89893, 23.46764 ], [ 83.89033, 23.46568 ], [ 83.88437, 23.46864 ], [ 83.87661, 23.46878 ], [ 83.87279, 23.46962 ], [ 83.87149, 23.46666 ], [ 83.87062, 23.46629 ], [ 83.86558, 23.46702 ], [ 83.86464, 23.46589 ], [ 83.86464, 23.46364 ], [ 83.8647, 23.46203 ], [ 83.86639, 23.46086 ], [ 83.86577, 23.45876 ], [ 83.86426, 23.4582 ], [ 83.85989, 23.45944 ], [ 83.85604, 23.4594 ], [ 83.85513, 23.45426 ], [ 83.85548, 23.45057 ], [ 83.85955, 23.44461 ], [ 83.86514, 23.44171 ], [ 83.87248, 23.44078 ], [ 83.87598, 23.4412 ], [ 83.88144, 23.43979 ], [ 83.88446, 23.43349 ], [ 83.88508, 23.4295 ], [ 83.88394, 23.42872 ], [ 83.8749, 23.42977 ], [ 83.87283, 23.42633 ], [ 83.86258, 23.41995 ], [ 83.86235, 23.41759 ], [ 83.86323, 23.41545 ], [ 83.86214, 23.4116 ], [ 83.86096, 23.41011 ], [ 83.85686, 23.41262 ], [ 83.8552, 23.41275 ], [ 83.8529, 23.41552 ], [ 83.84909, 23.41553 ], [ 83.84577, 23.41383 ], [ 83.8417, 23.41397 ], [ 83.83804, 23.41297 ], [ 83.83228, 23.41432 ], [ 83.82957, 23.41061 ], [ 83.82921, 23.40885 ], [ 83.83196, 23.40519 ], [ 83.83432, 23.39993 ], [ 83.82251, 23.39278 ], [ 83.82305, 23.3924 ], [ 83.81577, 23.39472 ], [ 83.79538, 23.39882 ], [ 83.79236, 23.40212 ], [ 83.79092, 23.40229 ], [ 83.78889, 23.40424 ], [ 83.78815, 23.4038 ], [ 83.78306, 23.4076 ], [ 83.78385, 23.41055 ], [ 83.78271, 23.41289 ], [ 83.78015, 23.41371 ], [ 83.78043, 23.41561 ], [ 83.77856, 23.4163 ], [ 83.77681, 23.41578 ], [ 83.77434, 23.41809 ], [ 83.77702, 23.42085 ], [ 83.77206, 23.41951 ], [ 83.77161, 23.422 ], [ 83.77007, 23.42151 ], [ 83.76317, 23.42368 ], [ 83.7643, 23.42737 ], [ 83.76626, 23.42834 ], [ 83.76721, 23.43038 ], [ 83.766, 23.43272 ], [ 83.76469, 23.43232 ], [ 83.76245, 23.43373 ], [ 83.76126, 23.43824 ], [ 83.72783, 23.45386 ], [ 83.71137, 23.46934 ], [ 83.71582, 23.47156 ], [ 83.71977, 23.4803 ], [ 83.72484, 23.48277 ], [ 83.73146, 23.48431 ], [ 83.73614, 23.48857 ], [ 83.73605, 23.49998 ], [ 83.73885, 23.50465 ], [ 83.74094, 23.50521 ], [ 83.7415, 23.51023 ], [ 83.73629, 23.52366 ], [ 83.72892, 23.53166 ], [ 83.72837, 23.53338 ], [ 83.72952, 23.53795 ], [ 83.73801, 23.55241 ], [ 83.73994, 23.55728 ], [ 83.73853, 23.55961 ], [ 83.74054, 23.56205 ], [ 83.74801, 23.55938 ], [ 83.75369, 23.55847 ], [ 83.75564, 23.55598 ], [ 83.76099, 23.55173 ], [ 83.76217, 23.52727 ], [ 83.78019, 23.52816 ], [ 83.78708, 23.52938 ], [ 83.78477, 23.53952 ], [ 83.78508, 23.54112 ], [ 83.7886, 23.54647 ], [ 83.78952, 23.55474 ], [ 83.7917, 23.5593 ], [ 83.7905, 23.56824 ], [ 83.78832, 23.57099 ], [ 83.77786, 23.57897 ], [ 83.77028, 23.58104 ], [ 83.76753, 23.58336 ], [ 83.76623, 23.58699 ], [ 83.76707, 23.59466 ], [ 83.7631, 23.59953 ], [ 83.76663, 23.6064 ], [ 83.77248, 23.6109 ], [ 83.77712, 23.60797 ], [ 83.78987, 23.60456 ] ] ] } },
{ "type": "Feature", "properties": { "OBJECTID": 1446, "state_lgd": "22", "state_name": "CHHATTISGARH", "district_lgd": "642", "district_name": "BALRAMPUR", "district_name_source": "district_table", "subdistrict_lgd": "3250", "subdistrict_name": "RAJPUR", "subdistrict_type": "Tehsil", "name_corrupted": false, "remarks": "", "label_lon": 83.379509195310234, "label_lat": 23.351928685683461 }, "geometry": { "type": "Polygon", "coordinates": [ [ [ 83.47708, 23.25831 ], [ 83.46528, 23.25722 ], [ 83.45686, 23.25377 ], [ 83.44221, 23.25867 ], [ 83.42693, 23.25425 ], [ 83.4224, 23.25568 ], [ 83.41254, 23.2613 ], [ 83.39463, 23.26986 ], [ 83.39193, 23.27015 ], [ 83.38551, 23.2693 ], [ 83.37309, 23.26583 ], [ 83.36818, 23.26434 ], [ 83.36526, 23.26239 ], [ 83.36459, 23.26021 ], [ 83.36529, 23.257 ], [ 83.37314, 23.25249 ], [ 83.37742, 23.25259 ], [ 83.38071, 23.25034 ], [ 83.38372, 23.25003 ], [ 83.38518, 23.24815 ], [ 83.38466, 23.24638 ], [ 83.37739, 23.23957 ], [ 83.37598, 23.23922 ], [ 83.37226, 23.24046 ], [ 83.37075, 23.23962 ], [ 83.36996, 23.23682 ], [ 83.37201, 23.22955 ], [ 83.36772, 23.2294 ], [ 83.36537, 23.22629 ], [ 83.36206, 23.2253 ], [ 83.35314, 23.22018 ], [ 83.35287, 23.21709 ], [ 83.35464, 23.21339 ], [ 83.35728, 23.21325 ], [ 83.36247, 23.21555 ], [ 83.36699, 23.2164 ], [ 83.36812, 23.2153 ], [ 83.36789, 23.21352 ], [ 83.36602, 23.21143 ], [ 83.3656, 23.209 ], [ 83.36146, 23.20877 ], [ 83.36307, 23.20568 ], [ 83.35938, 23.20073 ], [ 83.36136, 23.1989 ], [ 83.36024, 23.1959 ], [ 83.35795, 23.19426 ], [ 83.35737, 23.19216 ], [ 83.36034, 23.18557 ], [ 83.35408, 23.17282 ], [ 83.35207, 23.17322 ], [ 83.34807, 23.17803 ], [ 83.33874, 23.18026 ], [ 83.32972, 23.17947 ], [ 83.3205, 23.18632 ], [ 83.31211, 23.19718 ], [ 83.29485, 23.20771 ], [ 83.28728, 23.21432 ], [ 83.27768, 23.21527 ], [ 83.26408, 23.23356 ], [ 83.25233, 23.23485 ], [ 83.24722, 23.23619 ], [ 83.23382, 23.23396 ], [ 83.22057, 23.24196 ], [ 83.21462, 23.243 ], [ 83.21049, 23.24621 ], [ 83.20846, 23.24569 ], [ 83.20767, 23.24746 ], [ 83.20812, 23.24942 ], [ 83.20582, 23.2521 ], [ 83.20768, 23.255 ], [ 83.20693, 23.26069 ], [ 83.20386, 23.26193 ], [ 83.20301, 23.26367 ], [ 83.19881, 23.26763 ], [ 83.198, 23.26994 ], [ 83.19948, 23.27014 ], [ 83.20227, 23.26893 ], [ 83.20627, 23.26506 ], [ 83.20713, 23.26551 ], [ 83.20677, 23.26721 ], [ 83.20985, 23.26767 ], [ 83.20933, 23.27015 ], [ 83.21022, 23.27175 ], [ 83.21451, 23.30001 ], [ 83.2119, 23.30426 ], [ 83.20852, 23.31736 ], [ 83.20603, 23.32134 ], [ 83.20465, 23.32214 ], [ 83.20435, 23.32128 ], [ 83.20328, 23.32187 ], [ 83.20516, 23.325 ], [ 83.20439, 23.33695 ], [ 83.20277, 23.3393 ], [ 83.20312, 23.34524 ], [ 83.20468, 23.3474 ], [ 83.20414, 23.35123 ], [ 83.20522, 23.35582 ], [ 83.20893, 23.35951 ], [ 83.20689, 23.36564 ], [ 83.20781, 23.3692 ], [ 83.20749, 23.3777 ], [ 83.21644, 23.38923 ], [ 83.22993, 23.39468 ], [ 83.23191, 23.40341 ], [ 83.2407, 23.40518 ], [ 83.24502, 23.40169 ], [ 83.24809, 23.39756 ], [ 83.25449, 23.39534 ], [ 83.25762, 23.39363 ], [ 83.26001, 23.39113 ], [ 83.26486, 23.38914 ], [ 83.26576, 23.39036 ], [ 83.26913, 23.39164 ], [ 83.27765, 23.38942 ], [ 83.29697, 23.37819 ], [ 83.30133, 23.37696 ], [ 83.30239, 23.38031 ], [ 83.30427, 23.3826 ], [ 83.30432, 23.38865 ], [ 83.30679, 23.38926 ], [ 83.31357, 23.38384 ], [ 83.32046, 23.37522 ], [ 83.3227, 23.37417 ], [ 83.32806, 23.3747 ], [ 83.3328, 23.38177 ], [ 83.33507, 23.38781 ], [ 83.33103, 23.39237 ], [ 83.33158, 23.39755 ], [ 83.3286, 23.398 ], [ 83.32615, 23.39702 ], [ 83.32337, 23.39764 ], [ 83.31609, 23.39591 ], [ 83.31504, 23.39496 ], [ 83.31245, 23.39914 ], [ 83.30637, 23.40161 ], [ 83.30557, 23.40268 ], [ 83.30496, 23.40747 ], [ 83.30667, 23.42054 ], [ 83.30446, 23.42945 ], [ 83.31177, 23.42878 ], [ 83.30997, 23.43163 ], [ 83.30394, 23.4331 ], [ 83.30135, 23.43247 ], [ 83.29676, 23.42971 ], [ 83.28553, 23.4283 ], [ 83.28788, 23.43474 ], [ 83.288, 23.43928 ], [ 83.28958, 23.44008 ], [ 83.29492, 23.4405 ], [ 83.29733, 23.43853 ], [ 83.29747, 23.43689 ], [ 83.29912, 23.43669 ], [ 83.29858, 23.4393 ], [ 83.29928, 23.43933 ], [ 83.3012, 23.44341 ], [ 83.30218, 23.44698 ], [ 83.30504, 23.4472 ], [ 83.30694, 23.4469 ], [ 83.30775, 23.44485 ], [ 83.30749, 23.44009 ], [ 83.31046, 23.43907 ], [ 83.319, 23.44064 ], [ 83.31951, 23.44393 ], [ 83.32588, 23.44031 ], [ 83.33701, 23.43607 ], [ 83.33726, 23.43224 ], [ 83.34277, 23.43018 ], [ 83.34522, 23.42736 ], [ 83.35081, 23.42473 ], [ 83.35815, 23.42391 ], [ 83.35804, 23.42493 ], [ 83.35315, 23.42782 ], [ 83.35584, 23.44099 ], [ 83.35008, 23.44064 ], [ 83.34737, 23.44134 ], [ 83.34311, 23.43928 ], [ 83.34002, 23.44478 ], [ 83.34164, 23.45135 ], [ 83.34009, 23.45574 ], [ 83.34425, 23.46223 ], [ 83.34414, 23.46491 ], [ 83.34168, 23.46665 ], [ 83.34107, 23.46816 ], [ 83.33614, 23.46601 ], [ 83.33347, 23.46136 ], [ 83.32309, 23.46188 ], [ 83.32045, 23.46319 ], [ 83.3136, 23.4626 ], [ 83.31001, 23.46338 ], [ 83.30671, 23.46209 ], [ 83.30488, 23.4581 ], [ 83.3028, 23.45709 ], [ 83.29879, 23.45723 ], [ 83.29539, 23.45921 ], [ 83.29117, 23.46032 ], [ 83.28241, 23.46011 ], [ 83.28489, 23.46428 ], [ 83.2867, 23.46495 ], [ 83.29334, 23.46525 ], [ 83.29749, 23.46379 ], [ 83.29787, 23.46735 ], [ 83.29594, 23.47117 ], [ 83.29601, 23.47428 ], [ 83.29658, 23.47667 ], [ 83.29931, 23.47983 ], [ 83.30135, 23.47957 ], [ 83.29974, 23.48238 ], [ 83.30192, 23.48312 ], [ 83.30492, 23.48608 ], [ 83.30249, 23.48713 ], [ 83.30438, 23.49164 ], [ 83.3024, 23.49539 ], [ 83.30552, 23.49985 ], [ 83.30497, 23.50381 ], [ 83.31175, 23.50033 ], [ 83.32243, 23.49795 ], [ 83.32654, 23.49923 ], [ 83.33241, 23.49932 ], [ 83.33937, 23.50725 ], [ 83.34238, 23.51518 ], [ 83.34158, 23.5169 ], [ 83.33287, 23.51695 ], [ 83.33309, 23.5237 ], [ 83.348, 23.52677 ], [ 83.35383, 23.52615 ], [ 83.35932, 23.52793 ], [ 83.36688, 23.52689 ], [ 83.36929, 23.52566 ], [ 83.38029, 23.52531 ], [ 83.38048, 23.53014 ], [ 83.38285, 23.53222 ], [ 83.38379, 23.53621 ], [ 83.38554, 23.53733 ], [ 83.38804, 23.53659 ], [ 83.38982, 23.53805 ], [ 83.39304, 23.53817 ], [ 83.39602, 23.54122 ], [ 83.39533, 23.54318 ], [ 83.39693, 23.54483 ], [ 83.39341, 23.54907 ], [ 83.39268, 23.55298 ], [ 83.39358, 23.55484 ], [ 83.39365, 23.55937 ], [ 83.4036, 23.55678 ], [ 83.41346, 23.55915 ], [ 83.41447, 23.55723 ], [ 83.41808, 23.55483 ], [ 83.41849, 23.5525 ], [ 83.42123, 23.54854 ], [ 83.42001, 23.54384 ], [ 83.42182, 23.54174 ], [ 83.42102, 23.53891 ], [ 83.41887, 23.53797 ], [ 83.41891, 23.53625 ], [ 83.42512, 23.53583 ], [ 83.43246, 23.53393 ], [ 83.43302, 23.52992 ], [ 83.43176, 23.51601 ], [ 83.42501, 23.51836 ], [ 83.42038, 23.50714 ], [ 83.40858, 23.5057 ], [ 83.40134, 23.50707 ], [ 83.39448, 23.50678 ], [ 83.39154, 23.50401 ], [ 83.39338, 23.50059 ], [ 83.38667, 23.49391 ], [ 83.38487, 23.48937 ], [ 83.3831, 23.48875 ], [ 83.37923, 23.48527 ], [ 83.37764, 23.48133 ], [ 83.37552, 23.48028 ], [ 83.37157, 23.48035 ], [ 83.37235, 23.47788 ], [ 83.3693, 23.47292 ], [ 83.35854, 23.47478 ], [ 83.36727, 23.46082 ], [ 83.36755, 23.45571 ], [ 83.36672, 23.44935 ], [ 83.37083, 23.44062 ], [ 83.37143, 23.42084 ], [ 83.3705, 23.41777 ], [ 83.36856, 23.41682 ], [ 83.36944, 23.41541 ], [ 83.36811, 23.41175 ], [ 83.37738, 23.41847 ], [ 83.38466, 23.42498 ], [ 83.3902, 23.41745 ], [ 83.41063, 23.40632 ], [ 83.41989, 23.40714 ], [ 83.42706, 23.41689 ], [ 83.43152, 23.41871 ], [ 83.43854, 23.42621 ], [ 83.44514, 23.44491 ], [ 83.45195, 23.45359 ], [ 83.46552, 23.45337 ], [ 83.46177, 23.45024 ], [ 83.46348, 23.44225 ], [ 83.49044, 23.43826 ], [ 83.49612, 23.43533 ], [ 83.49701, 23.43667 ], [ 83.50097, 23.43869 ], [ 83.50346, 23.43861 ], [ 83.50621, 23.43986 ], [ 83.5126, 23.43982 ], [ 83.5145, 23.4408 ], [ 83.51753, 23.43934 ], [ 83.5174, 23.43713 ], [ 83.51887, 23.43621 ], [ 83.52135, 23.43619 ], [ 83.52843, 23.43871 ], [ 83.52946, 23.43739 ], [ 83.53406, 23.43763 ], [ 83.54882, 23.44831 ], [ 83.54922, 23.45128 ], [ 83.54512, 23.4558 ], [ 83.54353, 23.4588 ], [ 83.54307, 23.46525 ], [ 83.54807, 23.46511 ], [ 83.54732, 23.46276 ], [ 83.54807, 23.46214 ], [ 83.54973, 23.4627 ], [ 83.55237, 23.46523 ], [ 83.55484, 23.46579 ], [ 83.55914, 23.46488 ], [ 83.56002, 23.4631 ], [ 83.55861, 23.46176 ], [ 83.56172, 23.46043 ], [ 83.56572, 23.46058 ], [ 83.56942, 23.46176 ], [ 83.57989, 23.45363 ], [ 83.58055, 23.45219 ], [ 83.58022, 23.45016 ], [ 83.58399, 23.44616 ], [ 83.58927, 23.44426 ], [ 83.59112, 23.44228 ], [ 83.59283, 23.44226 ], [ 83.59411, 23.43973 ], [ 83.59525, 23.43968 ], [ 83.60386, 23.44423 ], [ 83.61155, 23.44414 ], [ 83.61468, 23.44699 ], [ 83.62127, 23.44549 ], [ 83.62507, 23.45084 ], [ 83.62867, 23.45262 ], [ 83.63846, 23.4532 ], [ 83.64899, 23.4523 ], [ 83.65121, 23.45124 ], [ 83.65116, 23.44996 ], [ 83.65284, 23.44851 ], [ 83.65297, 23.44063 ], [ 83.65547, 23.4381 ], [ 83.65702, 23.43438 ], [ 83.65702, 23.4296 ], [ 83.66082, 23.41912 ], [ 83.66036, 23.41708 ], [ 83.6585, 23.41686 ], [ 83.65453, 23.41857 ], [ 83.63966, 23.42029 ], [ 83.63601, 23.41819 ], [ 83.63308, 23.41278 ], [ 83.63041, 23.41312 ], [ 83.62727, 23.41524 ], [ 83.62242, 23.42435 ], [ 83.61735, 23.4286 ], [ 83.61197, 23.42986 ], [ 83.60986, 23.42946 ], [ 83.6083, 23.43118 ], [ 83.60257, 23.43342 ], [ 83.59709, 23.43702 ], [ 83.5958, 23.43669 ], [ 83.59283, 23.43439 ], [ 83.58918, 23.42793 ], [ 83.58143, 23.42162 ], [ 83.57484, 23.41825 ], [ 83.57004, 23.41452 ], [ 83.56799, 23.40964 ], [ 83.56159, 23.40239 ], [ 83.55719, 23.40033 ], [ 83.55254, 23.39964 ], [ 83.54788, 23.39517 ], [ 83.54463, 23.38753 ], [ 83.54403, 23.37803 ], [ 83.54475, 23.36934 ], [ 83.54342, 23.36302 ], [ 83.53739, 23.35291 ], [ 83.53298, 23.34864 ], [ 83.52693, 23.34551 ], [ 83.52204, 23.34472 ], [ 83.51933, 23.337 ], [ 83.52225, 23.32981 ], [ 83.52232, 23.32508 ], [ 83.52023, 23.32022 ], [ 83.51093, 23.31606 ], [ 83.50677, 23.31184 ], [ 83.50712, 23.30253 ], [ 83.50604, 23.29261 ], [ 83.50439, 23.28857 ], [ 83.49304, 23.27876 ], [ 83.4804, 23.27833 ], [ 83.48062, 23.2731 ], [ 83.47972, 23.27023 ], [ 83.48008, 23.26267 ], [ 83.47708, 23.25831 ] ] ] } },
{ "type": "Feature", "properties": { "OBJECTID": 1448, "state_lgd": "22", "state_name": "CHHATTISGARH", "district_lgd": "642", "district_name": "BALRAMPUR", "district_name_source": "district_table", "subdistrict_lgd": "3236", "subdistrict_name": "BALRAMPUR", "subdistrict_type": "Tehsil", "name_corrupted": false, "remarks": "", "label_lon": 83.586598789583078, "label_lat": 23.62939840570656 }, "geometry": { "type": "Polygon", "coordinates": [ [ [ 83.72546, 23.68156 ], [ 83.73885, 23.66677 ], [ 83.74802, 23.66173 ], [ 83.76158, 23.65075 ], [ 83.76058, 23.6479 ], [ 83.75321, 23.64339 ], [ 83.75179, 23.64136 ], [ 83.75192, 23.63867 ], [ 83.75539, 23.6347 ], [ 83.75666, 23.63 ], [ 83.75945, 23.62601 ], [ 83.77302, 23.62359 ], [ 83.77514, 23.62194 ], [ 83.77625, 23.61956 ], [ 83.77637, 23.61759 ], [ 83.77344, 23.61194 ], [ 83.76663, 23.6064 ], [ 83.7631, 23.59953 ], [ 83.76707, 23.59466 ], [ 83.76623, 23.58699 ], [ 83.76666, 23.58519 ], [ 83.76753, 23.58336 ], [ 83.77028, 23.58104 ], [ 83.77786, 23.57897 ], [ 83.78994, 23.56932 ], [ 83.7917, 23.5593 ], [ 83.78952, 23.55474 ], [ 83.7886, 23.54647 ], [ 83.78508, 23.54112 ], [ 83.78477, 23.53952 ], [ 83.78708, 23.52938 ], [ 83.78019, 23.52816 ], [ 83.76217, 23.52727 ], [ 83.76099, 23.55173 ], [ 83.75564, 23.55598 ], [ 83.75369, 23.55847 ], [ 83.74801, 23.55938 ], [ 83.74054, 23.56205 ], [ 83.73971, 23.56118 ], [ 83.73853, 23.55961 ], [ 83.73994, 23.55728 ], [ 83.73801, 23.55241 ], [ 83.72952, 23.53795 ], [ 83.72837, 23.53338 ], [ 83.72892, 23.53166 ], [ 83.73629, 23.52366 ], [ 83.7415, 23.51023 ], [ 83.74094, 23.50521 ], [ 83.73885, 23.50465 ], [ 83.73605, 23.49998 ], [ 83.73614, 23.48857 ], [ 83.73146, 23.48431 ], [ 83.72484, 23.48277 ], [ 83.71977, 23.4803 ], [ 83.71582, 23.47156 ], [ 83.71137, 23.46934 ], [ 83.7101, 23.47222 ], [ 83.70649, 23.47584 ], [ 83.69963, 23.47933 ], [ 83.68949, 23.4771 ], [ 83.67445, 23.48155 ], [ 83.66795, 23.48152 ], [ 83.65376, 23.48963 ], [ 83.65197, 23.48765 ], [ 83.64708, 23.4874 ], [ 83.64446, 23.48813 ], [ 83.63796, 23.48733 ], [ 83.64075, 23.49175 ], [ 83.64105, 23.49345 ], [ 83.63892, 23.49309 ], [ 83.63564, 23.49103 ], [ 83.63604, 23.49327 ], [ 83.63355, 23.49477 ], [ 83.63225, 23.49994 ], [ 83.62444, 23.50937 ], [ 83.61831, 23.52241 ], [ 83.60802, 23.53333 ], [ 83.59946, 23.54076 ], [ 83.60122, 23.54758 ], [ 83.60182, 23.55432 ], [ 83.60765, 23.56271 ], [ 83.61, 23.56818 ], [ 83.60514, 23.57066 ], [ 83.60254, 23.57294 ], [ 83.60052, 23.57831 ], [ 83.5953, 23.58009 ], [ 83.58967, 23.58111 ], [ 83.57711, 23.58082 ], [ 83.56994, 23.57919 ], [ 83.56551, 23.59046 ], [ 83.56533, 23.59755 ], [ 83.5661, 23.60221 ], [ 83.56132, 23.60354 ], [ 83.55531, 23.60694 ], [ 83.5512, 23.60755 ], [ 83.54741, 23.60423 ], [ 83.53689, 23.60325 ], [ 83.52021, 23.5996 ], [ 83.51617, 23.60146 ], [ 83.51341, 23.61122 ], [ 83.50384, 23.60589 ], [ 83.49258, 23.6021 ], [ 83.49055, 23.60243 ], [ 83.48815, 23.60409 ], [ 83.48805, 23.60614 ], [ 83.48361, 23.60602 ], [ 83.48331, 23.6071 ], [ 83.48169, 23.60732 ], [ 83.48143, 23.60851 ], [ 83.4777, 23.60875 ], [ 83.46391, 23.60804 ], [ 83.45968, 23.60607 ], [ 83.45959, 23.60707 ], [ 83.45612, 23.60546 ], [ 83.45333, 23.60596 ], [ 83.45103, 23.60356 ], [ 83.44714, 23.60224 ], [ 83.44469, 23.60277 ], [ 83.44463, 23.60506 ], [ 83.44264, 23.6036 ], [ 83.42738, 23.59997 ], [ 83.42413, 23.59768 ], [ 83.42399, 23.59665 ], [ 83.41931, 23.59584 ], [ 83.41883, 23.59296 ], [ 83.41958, 23.59146 ], [ 83.41788, 23.5903 ], [ 83.41136, 23.58791 ], [ 83.40792, 23.58771 ], [ 83.40547, 23.58588 ], [ 83.403, 23.58527 ], [ 83.39886, 23.58192 ], [ 83.39033, 23.58176 ], [ 83.38962, 23.58072 ], [ 83.38808, 23.58045 ], [ 83.38664, 23.58384 ], [ 83.38473, 23.58563 ], [ 83.388, 23.58891 ], [ 83.3885, 23.59571 ], [ 83.38743, 23.59656 ], [ 83.38692, 23.60076 ], [ 83.38472, 23.60289 ], [ 83.38496, 23.60817 ], [ 83.38019, 23.6212 ], [ 83.38013, 23.62345 ], [ 83.38174, 23.62832 ], [ 83.38165, 23.63849 ], [ 83.38917, 23.6404 ], [ 83.39829, 23.64153 ], [ 83.39916, 23.64744 ], [ 83.39865, 23.64819 ], [ 83.40276, 23.65424 ], [ 83.40849, 23.65787 ], [ 83.41106, 23.6588 ], [ 83.41523, 23.65874 ], [ 83.41928, 23.66091 ], [ 83.41764, 23.66479 ], [ 83.41684, 23.67228 ], [ 83.41735, 23.67877 ], [ 83.41959, 23.68841 ], [ 83.4173, 23.69161 ], [ 83.41444, 23.69334 ], [ 83.41453, 23.69782 ], [ 83.41648, 23.70525 ], [ 83.41307, 23.7061 ], [ 83.39834, 23.71608 ], [ 83.39789, 23.71934 ], [ 83.39113, 23.72781 ], [ 83.38317, 23.72876 ], [ 83.37727, 23.72714 ], [ 83.36604, 23.72784 ], [ 83.35845, 23.72726 ], [ 83.35625, 23.75019 ], [ 83.35649, 23.7509 ], [ 83.36678, 23.75435 ], [ 83.37928, 23.75612 ], [ 83.39259, 23.76057 ], [ 83.40059, 23.76163 ], [ 83.40561, 23.76331 ], [ 83.40844, 23.76309 ], [ 83.40937, 23.76376 ], [ 83.4385, 23.76209 ], [ 83.45622, 23.75806 ], [ 83.47623, 23.74961 ], [ 83.49768, 23.74313 ], [ 83.51409, 23.7313 ], [ 83.5162, 23.73081 ], [ 83.51817, 23.73136 ], [ 83.52565, 23.73697 ], [ 83.53784, 23.74182 ], [ 83.54677, 23.75054 ], [ 83.54914, 23.752 ], [ 83.55472, 23.74894 ], [ 83.55377, 23.7462 ], [ 83.55422, 23.74343 ], [ 83.55844, 23.73703 ], [ 83.55728, 23.733 ], [ 83.55807, 23.72901 ], [ 83.5564, 23.72509 ], [ 83.55306, 23.72187 ], [ 83.55105, 23.71736 ], [ 83.54826, 23.71495 ], [ 83.53963, 23.71009 ], [ 83.53988, 23.70722 ], [ 83.54128, 23.70533 ], [ 83.54313, 23.7044 ], [ 83.556, 23.70179 ], [ 83.5612, 23.69988 ], [ 83.56799, 23.69339 ], [ 83.56891, 23.69353 ], [ 83.5698, 23.69586 ], [ 83.57121, 23.70284 ], [ 83.57194, 23.70242 ], [ 83.57531, 23.70404 ], [ 83.58046, 23.70445 ], [ 83.58597, 23.703 ], [ 83.58897, 23.70118 ], [ 83.59457, 23.69937 ], [ 83.60524, 23.70128 ], [ 83.62905, 23.69837 ], [ 83.63367, 23.69407 ], [ 83.64089, 23.69253 ], [ 83.64441, 23.68688 ], [ 83.6504, 23.69113 ], [ 83.65534, 23.69121 ], [ 83.6595, 23.68989 ], [ 83.66946, 23.68226 ], [ 83.67687, 23.68593 ], [ 83.68325, 23.68661 ], [ 83.69559, 23.68087 ], [ 83.70496, 23.67878 ], [ 83.70993, 23.68012 ], [ 83.72546, 23.68156 ] ] ] } },
{ "type": "Feature", "properties": { "OBJECTID": 1449, "state_lgd": "22", "state_name": "CHHATTISGARH", "district_lgd": "642", "district_name": "BALRAMPUR", "district_name_source": "district_table", "subdistrict_lgd": "7238", "subdistrict_name": "RAMCHANDRAPUR", "subdistrict_type": "Tehsil", "name_corrupted": false, "remarks": "", "label_lon": 83.384996064148311, "label_lat": 23.967771960691156 }, "geometry": { "type": "Polygon", "coordinates": [ [ [ 83.32703, 24.10235 ], [ 83.33621, 24.09882 ], [ 83.34603, 24.09744 ], [ 83.34775, 24.09629 ], [ 83.34934, 24.0963 ], [ 83.35449, 24.1002 ], [ 83.36084, 24.1015 ], [ 83.36424, 24.10328 ], [ 83.38297, 24.10012 ], [ 83.38829, 24.09996 ], [ 83.40111, 24.09203 ], [ 83.40302, 24.08574 ], [ 83.40492, 24.08179 ], [ 83.40664, 24.08044 ], [ 83.42123, 24.08272 ], [ 83.42672, 24.08648 ], [ 83.43225, 24.08598 ], [ 83.43472, 24.08355 ], [ 83.43773, 24.07622 ], [ 83.43862, 24.07136 ], [ 83.43825, 24.06723 ], [ 83.4368, 24.06285 ], [ 83.43777, 24.05817 ], [ 83.44205, 24.05384 ], [ 83.44487, 24.05282 ], [ 83.44793, 24.049 ], [ 83.4506, 24.04375 ], [ 83.45289, 24.04199 ], [ 83.47055, 24.04198 ], [ 83.47781, 24.04119 ], [ 83.49353, 24.03631 ], [ 83.49975, 24.03256 ], [ 83.50826, 24.03116 ], [ 83.51617, 24.02673 ], [ 83.51617, 24.02245 ], [ 83.52183, 24.01596 ], [ 83.52387, 24.01232 ], [ 83.52388, 24.00974 ], [ 83.52157, 24.00444 ], [ 83.51439, 23.99835 ], [ 83.5138, 23.99538 ], [ 83.5155, 23.98999 ], [ 83.5153, 23.98069 ], [ 83.51753, 23.97592 ], [ 83.5226, 23.97033 ], [ 83.52449, 23.96417 ], [ 83.52649, 23.9605 ], [ 83.53536, 23.95246 ], [ 83.54137, 23.94345 ], [ 83.54739, 23.93755 ], [ 83.54924, 23.93102 ], [ 83.54692, 23.9143 ], [ 83.54979, 23.90851 ], [ 83.55344, 23.89807 ], [ 83.55556, 23.89481 ], [ 83.55915, 23.8929 ], [ 83.56285, 23.89255 ], [ 83.57043, 23.89445 ], [ 83.57908, 23.89191 ], [ 83.58538, 23.88709 ], [ 83.58615, 23.88394 ], [ 83.58422, 23.87864 ], [ 83.58136, 23.87559 ], [ 83.57442, 23.87327 ], [ 83.57009, 23.86982 ], [ 83.56387, 23.87131 ], [ 83.5604, 23.87121 ], [ 83.55608, 23.87439 ], [ 83.55457, 23.87243 ], [ 83.55158, 23.87266 ], [ 83.54894, 23.8707 ], [ 83.54708, 23.87037 ], [ 83.54202, 23.87023 ], [ 83.54115, 23.87209 ], [ 83.53893, 23.8722 ], [ 83.5401, 23.86913 ], [ 83.53937, 23.86849 ], [ 83.53805, 23.86957 ], [ 83.53751, 23.86839 ], [ 83.53494, 23.86932 ], [ 83.53333, 23.86824 ], [ 83.5319, 23.87069 ], [ 83.53047, 23.86822 ], [ 83.529, 23.86917 ], [ 83.52639, 23.86893 ], [ 83.52523, 23.86683 ], [ 83.52407, 23.86673 ], [ 83.52592, 23.8634 ], [ 83.52308, 23.86041 ], [ 83.52378, 23.8569 ], [ 83.52308, 23.85547 ], [ 83.52075, 23.85427 ], [ 83.51971, 23.84941 ], [ 83.52699, 23.84862 ], [ 83.52587, 23.83778 ], [ 83.53264, 23.83653 ], [ 83.5357, 23.82899 ], [ 83.53513, 23.82739 ], [ 83.53397, 23.82691 ], [ 83.53358, 23.82487 ], [ 83.52769, 23.82184 ], [ 83.52846, 23.81289 ], [ 83.52742, 23.81124 ], [ 83.5239, 23.81272 ], [ 83.52349, 23.81426 ], [ 83.52199, 23.81511 ], [ 83.51167, 23.81944 ], [ 83.50271, 23.81507 ], [ 83.50259, 23.8194 ], [ 83.5036, 23.82155 ], [ 83.50313, 23.82288 ], [ 83.50546, 23.82671 ], [ 83.50618, 23.83512 ], [ 83.49659, 23.8376 ], [ 83.49551, 23.83894 ], [ 83.49438, 23.85031 ], [ 83.49469, 23.85408 ], [ 83.49761, 23.85416 ], [ 83.4995, 23.85523 ], [ 83.50156, 23.86382 ], [ 83.4967, 23.86468 ], [ 83.49385, 23.86218 ], [ 83.49151, 23.86454 ], [ 83.48935, 23.86454 ], [ 83.48436, 23.86702 ], [ 83.48069, 23.86976 ], [ 83.48117, 23.87121 ], [ 83.48392, 23.86936 ], [ 83.4866, 23.86872 ], [ 83.48937, 23.86603 ], [ 83.49105, 23.86568 ], [ 83.49273, 23.86579 ], [ 83.49275, 23.8705 ], [ 83.4877, 23.87397 ], [ 83.48386, 23.87508 ], [ 83.47992, 23.87765 ], [ 83.47586, 23.87899 ], [ 83.4728, 23.87906 ], [ 83.47228, 23.88065 ], [ 83.4717, 23.88081 ], [ 83.47057, 23.87834 ], [ 83.46922, 23.87918 ], [ 83.46972, 23.88411 ], [ 83.46721, 23.88584 ], [ 83.46685, 23.88513 ], [ 83.46613, 23.88561 ], [ 83.46345, 23.88882 ], [ 83.45989, 23.88995 ], [ 83.45934, 23.89175 ], [ 83.45789, 23.89192 ], [ 83.45638, 23.89442 ], [ 83.44153, 23.89545 ], [ 83.44139, 23.89464 ], [ 83.42968, 23.90275 ], [ 83.42785, 23.90234 ], [ 83.42075, 23.89164 ], [ 83.41106, 23.88682 ], [ 83.40285, 23.88518 ], [ 83.39804, 23.89028 ], [ 83.39404, 23.89232 ], [ 83.39343, 23.89122 ], [ 83.37841, 23.89323 ], [ 83.37782, 23.89003 ], [ 83.37624, 23.88895 ], [ 83.37629, 23.88647 ], [ 83.37361, 23.88414 ], [ 83.36495, 23.88756 ], [ 83.36528, 23.89184 ], [ 83.35765, 23.89655 ], [ 83.35, 23.89696 ], [ 83.33497, 23.90068 ], [ 83.32691, 23.89997 ], [ 83.32235, 23.89901 ], [ 83.30968, 23.89304 ], [ 83.27952, 23.88111 ], [ 83.27232, 23.88105 ], [ 83.2729, 23.88552 ], [ 83.27212, 23.88634 ], [ 83.26459, 23.88688 ], [ 83.25877, 23.8847 ], [ 83.25156, 23.88493 ], [ 83.25034, 23.88403 ], [ 83.25049, 23.88051 ], [ 83.25372, 23.87912 ], [ 83.25687, 23.87915 ], [ 83.25499, 23.87469 ], [ 83.253, 23.87534 ], [ 83.2476, 23.87502 ], [ 83.24436, 23.8719 ], [ 83.23888, 23.86946 ], [ 83.2262, 23.86609 ], [ 83.21871, 23.86567 ], [ 83.21797, 23.87586 ], [ 83.21571, 23.87658 ], [ 83.21421, 23.879 ], [ 83.21234, 23.87965 ], [ 83.21162, 23.88103 ], [ 83.21287, 23.88192 ], [ 83.2123, 23.88563 ], [ 83.20944, 23.8858 ], [ 83.20425, 23.89084 ], [ 83.21015, 23.89344 ], [ 83.20964, 23.89626 ], [ 83.21485, 23.89808 ], [ 83.21734, 23.90096 ], [ 83.21858, 23.90446 ], [ 83.22115, 23.90586 ], [ 83.22148, 23.90797 ], [ 83.21975, 23.91163 ], [ 83.21779, 23.91342 ], [ 83.21262, 23.91274 ], [ 83.21116, 23.91896 ], [ 83.20695, 23.91853 ], [ 83.20626, 23.9201 ], [ 83.20792, 23.9214 ], [ 83.20794, 23.92423 ], [ 83.20379, 23.92824 ], [ 83.20399, 23.92908 ], [ 83.20846, 23.93057 ], [ 83.21193, 23.93574 ], [ 83.21599, 23.93791 ], [ 83.21642, 23.93913 ], [ 83.21552, 23.94551 ], [ 83.21649, 23.94689 ], [ 83.22003, 23.94885 ], [ 83.21994, 23.95271 ], [ 83.22313, 23.95815 ], [ 83.2232, 23.96013 ], [ 83.22246, 23.96304 ], [ 83.21878, 23.96831 ], [ 83.219, 23.97181 ], [ 83.22133, 23.97437 ], [ 83.22571, 23.9762 ], [ 83.22691, 23.97788 ], [ 83.22333, 23.98421 ], [ 83.22326, 23.98606 ], [ 83.22396, 23.98697 ], [ 83.22914, 23.98779 ], [ 83.2305, 23.98877 ], [ 83.2315, 23.99021 ], [ 83.23143, 23.99398 ], [ 83.23366, 23.99607 ], [ 83.24021, 23.99632 ], [ 83.24243, 23.99718 ], [ 83.24114, 24.0053 ], [ 83.24259, 24.01159 ], [ 83.25188, 24.01491 ], [ 83.25516, 24.01453 ], [ 83.25768, 24.01311 ], [ 83.25976, 24.00947 ], [ 83.26363, 24.00924 ], [ 83.2657, 24.01046 ], [ 83.26754, 24.01323 ], [ 83.27275, 24.01817 ], [ 83.27501, 24.01918 ], [ 83.27911, 24.01827 ], [ 83.28345, 24.03242 ], [ 83.284, 24.03953 ], [ 83.28214, 24.04591 ], [ 83.28211, 24.04973 ], [ 83.28741, 24.05511 ], [ 83.29473, 24.07171 ], [ 83.29837, 24.07556 ], [ 83.29945, 24.07893 ], [ 83.30162, 24.07967 ], [ 83.30275, 24.07873 ], [ 83.3056, 24.07964 ], [ 83.30979, 24.08471 ], [ 83.31113, 24.08802 ], [ 83.31475, 24.09097 ], [ 83.31789, 24.09656 ], [ 83.31921, 24.1026 ], [ 83.32145, 24.10602 ], [ 83.32278, 24.10628 ], [ 83.32703, 24.10235 ] ] ] } },
{ "type": "Feature", "properties": { "OBJECTID": 1455, "state_lgd": "22", "state_name": "CHHATTISGARH", "district_lgd": "642", "district_name": "BALRAMPUR", "district_name_source": "district_table", "subdistrict_lgd": "7242", "subdistrict_name": "SAMRI", "subdistrict_type": "Tehsil", "name_corrupted": false, "remarks": "", "label_lon": 83.946943212501324, "label_lat": 23.474191500810967 }, "geometry": { "type": "Polygon", "coordinates": [ [ [ 84.01659, 23.63438 ], [ 84.01393, 23.63021 ], [ 84.0087, 23.62785 ], [ 84.00771, 23.6223 ], [ 84.01109, 23.62061 ], [ 84.01598, 23.61196 ], [ 84.01673, 23.60842 ], [ 84.01824, 23.60765 ], [ 84.02086, 23.60442 ], [ 84.02851, 23.60233 ], [ 84.03006, 23.59999 ], [ 84.02815, 23.59371 ], [ 84.02875, 23.59246 ], [ 84.02813, 23.59079 ], [ 84.02977, 23.58576 ], [ 84.02842, 23.58386 ], [ 84.02921, 23.57993 ], [ 84.02805, 23.57777 ], [ 84.02954, 23.5664 ], [ 84.02644, 23.55677 ], [ 84.02438, 23.55556 ], [ 84.02654, 23.55295 ], [ 84.02806, 23.5456 ], [ 84.02681, 23.54421 ], [ 84.02561, 23.53862 ], [ 84.02419, 23.53789 ], [ 84.02314, 23.53341 ], [ 84.02084, 23.53097 ], [ 84.02159, 23.52767 ], [ 84.01747, 23.52261 ], [ 84.01858, 23.5174 ], [ 84.01516, 23.509 ], [ 84.01465, 23.5035 ], [ 84.00736, 23.49768 ], [ 84.00078, 23.49693 ], [ 84.00113, 23.4937 ], [ 83.99888, 23.48944 ], [ 83.99852, 23.48678 ], [ 83.98891, 23.47874 ], [ 83.98482, 23.46571 ], [ 83.98241, 23.46395 ], [ 83.97548, 23.46144 ], [ 83.97394, 23.45985 ], [ 83.97483, 23.45124 ], [ 83.97868, 23.44738 ], [ 83.9853, 23.43504 ], [ 83.98332, 23.43139 ], [ 83.98616, 23.43057 ], [ 83.98364, 23.42853 ], [ 83.9837, 23.42627 ], [ 83.98576, 23.42583 ], [ 83.98047, 23.42152 ], [ 83.9809, 23.41929 ], [ 83.9799, 23.41805 ], [ 83.97975, 23.41598 ], [ 83.97814, 23.41415 ], [ 83.98016, 23.41266 ], [ 83.97719, 23.41087 ], [ 83.97509, 23.40313 ], [ 83.97215, 23.40267 ], [ 83.97148, 23.40088 ], [ 83.97284, 23.39989 ], [ 83.97167, 23.39951 ], [ 83.9721, 23.39821 ], [ 83.97043, 23.3965 ], [ 83.97033, 23.3941 ], [ 83.9688, 23.39349 ], [ 83.96889, 23.39082 ], [ 83.9675, 23.39101 ], [ 83.96848, 23.38919 ], [ 83.967, 23.38759 ], [ 83.96824, 23.38631 ], [ 83.96914, 23.38667 ], [ 83.96795, 23.38541 ], [ 83.96927, 23.38506 ], [ 83.96994, 23.38383 ], [ 83.96882, 23.38341 ], [ 83.96988, 23.3824 ], [ 83.96941, 23.38124 ], [ 83.97075, 23.37914 ], [ 83.97285, 23.37747 ], [ 83.97355, 23.37575 ], [ 83.97508, 23.37502 ], [ 83.97513, 23.37323 ], [ 83.97775, 23.36975 ], [ 83.98026, 23.36811 ], [ 83.98028, 23.36459 ], [ 83.9823, 23.36189 ], [ 83.98172, 23.36021 ], [ 83.98284, 23.35987 ], [ 83.98331, 23.3553 ], [ 83.98415, 23.3545 ], [ 83.98443, 23.35277 ], [ 83.98006, 23.35008 ], [ 83.97784, 23.34697 ], [ 83.97655, 23.34644 ], [ 83.97632, 23.34441 ], [ 83.97882, 23.34356 ], [ 83.97989, 23.34093 ], [ 83.98239, 23.34034 ], [ 83.98308, 23.33868 ], [ 83.98483, 23.33829 ], [ 83.98486, 23.33725 ], [ 83.98607, 23.33693 ], [ 83.98592, 23.33514 ], [ 83.98789, 23.33374 ], [ 83.99002, 23.33415 ], [ 83.99089, 23.33338 ], [ 83.98865, 23.33163 ], [ 83.98785, 23.32675 ], [ 83.97946, 23.32726 ], [ 83.97687, 23.32571 ], [ 83.96852, 23.32989 ], [ 83.96393, 23.33112 ], [ 83.95622, 23.3312 ], [ 83.95447, 23.33055 ], [ 83.95336, 23.33311 ], [ 83.95128, 23.33426 ], [ 83.94914, 23.33414 ], [ 83.94545, 23.33143 ], [ 83.94107, 23.33118 ], [ 83.93958, 23.33036 ], [ 83.93194, 23.33366 ], [ 83.92662, 23.33353 ], [ 83.92508, 23.3345 ], [ 83.92094, 23.3345 ], [ 83.92431, 23.33949 ], [ 83.92497, 23.34387 ], [ 83.92421, 23.34387 ], [ 83.92365, 23.34664 ], [ 83.92266, 23.34672 ], [ 83.92149, 23.34847 ], [ 83.92374, 23.34999 ], [ 83.92489, 23.35224 ], [ 83.92575, 23.35197 ], [ 83.92811, 23.35343 ], [ 83.92836, 23.35462 ], [ 83.93266, 23.35934 ], [ 83.93416, 23.3636 ], [ 83.93601, 23.36482 ], [ 83.93697, 23.36456 ], [ 83.93987, 23.36703 ], [ 83.94179, 23.36709 ], [ 83.94217, 23.36856 ], [ 83.94009, 23.36923 ], [ 83.93865, 23.36835 ], [ 83.93188, 23.37158 ], [ 83.9273, 23.37046 ], [ 83.92657, 23.36892 ], [ 83.91856, 23.3666 ], [ 83.91729, 23.36503 ], [ 83.9169, 23.36251 ], [ 83.91286, 23.36252 ], [ 83.91058, 23.36339 ], [ 83.88459, 23.36399 ], [ 83.87895, 23.36724 ], [ 83.87878, 23.369 ], [ 83.87301, 23.36776 ], [ 83.8671, 23.3676 ], [ 83.86172, 23.36944 ], [ 83.85816, 23.3696 ], [ 83.85261, 23.37272 ], [ 83.84945, 23.37316 ], [ 83.84637, 23.37162 ], [ 83.84533, 23.37314 ], [ 83.84511, 23.37547 ], [ 83.84098, 23.37943 ], [ 83.84108, 23.38152 ], [ 83.84028, 23.38206 ], [ 83.83871, 23.38155 ], [ 83.83473, 23.38334 ], [ 83.83295, 23.3872 ], [ 83.83073, 23.38942 ], [ 83.82858, 23.38921 ], [ 83.82741, 23.39089 ], [ 83.82582, 23.39037 ], [ 83.82251, 23.39278 ], [ 83.83432, 23.39993 ], [ 83.83196, 23.40519 ], [ 83.82921, 23.40885 ], [ 83.82957, 23.41061 ], [ 83.83228, 23.41432 ], [ 83.83804, 23.41297 ], [ 83.8417, 23.41397 ], [ 83.84577, 23.41383 ], [ 83.84909, 23.41553 ], [ 83.8529, 23.41552 ], [ 83.8552, 23.41275 ], [ 83.85686, 23.41262 ], [ 83.86096, 23.41011 ], [ 83.86214, 23.4116 ], [ 83.86323, 23.41545 ], [ 83.86235, 23.41759 ], [ 83.86258, 23.41995 ], [ 83.87283, 23.42633 ], [ 83.8749, 23.42977 ], [ 83.88394, 23.42872 ], [ 83.88508, 23.4295 ], [ 83.88446, 23.43349 ], [ 83.88144, 23.43979 ], [ 83.87598, 23.4412 ], [ 83.87248, 23.44078 ], [ 83.86514, 23.44171 ], [ 83.85955, 23.44461 ], [ 83.85548, 23.45057 ], [ 83.85513, 23.45426 ], [ 83.85604, 23.4594 ], [ 83.85989, 23.45944 ], [ 83.86426, 23.4582 ], [ 83.86577, 23.45876 ], [ 83.86639, 23.46086 ], [ 83.8647, 23.46203 ], [ 83.86464, 23.46364 ], [ 83.86464, 23.46589 ], [ 83.86558, 23.46702 ], [ 83.87062, 23.46629 ], [ 83.87149, 23.46666 ], [ 83.87279, 23.46962 ], [ 83.87661, 23.46878 ], [ 83.88437, 23.46864 ], [ 83.89033, 23.46568 ], [ 83.89893, 23.46764 ], [ 83.90673, 23.46652 ], [ 83.9075, 23.47392 ], [ 83.90536, 23.47565 ], [ 83.91029, 23.48179 ], [ 83.91248, 23.47861 ], [ 83.92185, 23.47432 ], [ 83.92346, 23.47514 ], [ 83.92565, 23.47466 ], [ 83.92882, 23.47544 ], [ 83.93397, 23.47181 ], [ 83.93469, 23.47198 ], [ 83.93436, 23.48195 ], [ 83.93147, 23.48608 ], [ 83.93372, 23.49149 ], [ 83.93929, 23.49662 ], [ 83.93913, 23.4998 ], [ 83.94312, 23.50684 ], [ 83.94581, 23.51667 ], [ 83.94738, 23.51932 ], [ 83.94791, 23.52133 ], [ 83.94645, 23.53073 ], [ 83.94823, 23.53814 ], [ 83.94847, 23.54481 ], [ 83.94716, 23.55237 ], [ 83.94426, 23.56046 ], [ 83.9381, 23.56916 ], [ 83.93975, 23.57049 ], [ 83.93991, 23.57266 ], [ 83.93803, 23.58425 ], [ 83.93912, 23.59031 ], [ 83.93739, 23.59239 ], [ 83.93703, 23.59526 ], [ 83.93299, 23.60075 ], [ 83.93382, 23.60736 ], [ 83.93065, 23.61124 ], [ 83.9313, 23.61531 ], [ 83.93056, 23.61826 ], [ 83.93191, 23.62041 ], [ 83.94252, 23.62599 ], [ 83.94775, 23.6267 ], [ 83.9523, 23.62599 ], [ 83.95522, 23.6264 ], [ 83.96134, 23.62518 ], [ 83.96935, 23.62669 ], [ 83.97275, 23.62592 ], [ 83.97349, 23.62401 ], [ 83.9755, 23.62571 ], [ 83.98045, 23.62488 ], [ 83.97951, 23.62872 ], [ 83.98065, 23.63365 ], [ 83.98736, 23.63229 ], [ 83.99714, 23.63448 ], [ 83.99913, 23.6337 ], [ 84.00728, 23.63439 ], [ 84.01368, 23.63361 ], [ 84.01659, 23.63438 ] ] ] } },
{ "type": "Feature", "properties": { "OBJECTID": 1456, "state_lgd": "22", "state_name": "CHHATTISGARH", "district_lgd": "642", "district_name": "BALRAMPUR", "district_name_source": "district_table", "subdistrict_lgd": "3237", "subdistrict_name": "RAMANUJGANJ", "subdistrict_type": "Tehsil", "name_corrupted": false, "remarks": "", "label_lon": 83.552039092300234, "label_lat": 23.789649012985702 }, "geometry": { "type": "Polygon", "coordinates": [ [ [ 83.42968, 23.90275 ], [ 83.44139, 23.89464 ], [ 83.44153, 23.89545 ], [ 83.45638, 23.89442 ], [ 83.45789, 23.89192 ], [ 83.45934, 23.89175 ], [ 83.45989, 23.88995 ], [ 83.46345, 23.88882 ], [ 83.46613, 23.88561 ], [ 83.46685, 23.88513 ], [ 83.46721, 23.88584 ], [ 83.46972, 23.88411 ], [ 83.46922, 23.87918 ], [ 83.47057, 23.87834 ], [ 83.4717, 23.88081 ], [ 83.47228, 23.88065 ], [ 83.4728, 23.87906 ], [ 83.47586, 23.87899 ], [ 83.47992, 23.87765 ], [ 83.48386, 23.87508 ], [ 83.4877, 23.87397 ], [ 83.49275, 23.8705 ], [ 83.49273, 23.86579 ], [ 83.49105, 23.86568 ], [ 83.48937, 23.86603 ], [ 83.4866, 23.86872 ], [ 83.48392, 23.86936 ], [ 83.48117, 23.87121 ], [ 83.48069, 23.86976 ], [ 83.48436, 23.86702 ], [ 83.48935, 23.86454 ], [ 83.49151, 23.86454 ], [ 83.49385, 23.86218 ], [ 83.4967, 23.86468 ], [ 83.50156, 23.86382 ], [ 83.4995, 23.85523 ], [ 83.49761, 23.85416 ], [ 83.49469, 23.85408 ], [ 83.49438, 23.85031 ], [ 83.49551, 23.83894 ], [ 83.49659, 23.8376 ], [ 83.50618, 23.83512 ], [ 83.50546, 23.82671 ], [ 83.50313, 23.82288 ], [ 83.5036, 23.82155 ], [ 83.50259, 23.8194 ], [ 83.50271, 23.81507 ], [ 83.51167, 23.81944 ], [ 83.52199, 23.81511 ], [ 83.52349, 23.81426 ], [ 83.5239, 23.81272 ], [ 83.52742, 23.81124 ], [ 83.52846, 23.81289 ], [ 83.52769, 23.82184 ], [ 83.53358, 23.82487 ], [ 83.53397, 23.82691 ], [ 83.53513, 23.82739 ], [ 83.5357, 23.82899 ], [ 83.53264, 23.83653 ], [ 83.52587, 23.83778 ], [ 83.52699, 23.84862 ], [ 83.51971, 23.84941 ], [ 83.52075, 23.85427 ], [ 83.52308, 23.85547 ], [ 83.52378, 23.8569 ], [ 83.52308, 23.86041 ], [ 83.52592, 23.8634 ], [ 83.52407, 23.86673 ], [ 83.52523, 23.86683 ], [ 83.52639, 23.86893 ], [ 83.529, 23.86917 ], [ 83.53047, 23.86822 ], [ 83.5319, 23.87069 ], [ 83.53333, 23.86824 ], [ 83.53494, 23.86932 ], [ 83.53751, 23.86839 ], [ 83.53805, 23.86957 ], [ 83.53937, 23.86849 ], [ 83.5401, 23.86913 ], [ 83.53893, 23.8722 ], [ 83.54115, 23.87209 ], [ 83.54202, 23.87023 ], [ 83.54708, 23.87037 ], [ 83.54894, 23.8707 ], [ 83.55158, 23.87266 ], [ 83.55457, 23.87243 ], [ 83.55608, 23.87439 ], [ 83.5604, 23.87121 ], [ 83.56387, 23.87131 ], [ 83.57009, 23.86982 ], [ 83.56893, 23.86618 ], [ 83.57062, 23.86281 ], [ 83.57302, 23.86125 ], [ 83.58241, 23.86351 ], [ 83.5897, 23.86331 ], [ 83.61029, 23.85397 ], [ 83.61219, 23.85381 ], [ 83.61809, 23.85549 ], [ 83.63078, 23.85037 ], [ 83.64338, 23.84693 ], [ 83.64634, 23.84678 ], [ 83.65464, 23.8499 ], [ 83.65949, 23.84926 ], [ 83.66656, 23.84428 ], [ 83.66849, 23.83666 ], [ 83.66335, 23.8312 ], [ 83.66449, 23.82766 ], [ 83.67434, 23.82717 ], [ 83.67658, 23.82543 ], [ 83.67869, 23.82168 ], [ 83.68282, 23.81938 ], [ 83.68528, 23.82033 ], [ 83.68873, 23.82558 ], [ 83.69149, 23.82642 ], [ 83.70383, 23.82226 ], [ 83.70764, 23.81741 ], [ 83.70722, 23.81318 ], [ 83.70439, 23.80661 ], [ 83.70514, 23.80387 ], [ 83.71266, 23.80068 ], [ 83.72262, 23.78658 ], [ 83.723, 23.78221 ], [ 83.7211, 23.77534 ], [ 83.72159, 23.77149 ], [ 83.72431, 23.76872 ], [ 83.73411, 23.7647 ], [ 83.73774, 23.76049 ], [ 83.7391, 23.74921 ], [ 83.73948, 23.73432 ], [ 83.74607, 23.71949 ], [ 83.74455, 23.71051 ], [ 83.74212, 23.70383 ], [ 83.74044, 23.70226 ], [ 83.73507, 23.70031 ], [ 83.73212, 23.695 ], [ 83.72493, 23.69068 ], [ 83.72302, 23.68876 ], [ 83.72286, 23.68586 ], [ 83.72546, 23.68156 ], [ 83.70993, 23.68012 ], [ 83.70496, 23.67878 ], [ 83.69559, 23.68087 ], [ 83.68325, 23.68661 ], [ 83.67687, 23.68593 ], [ 83.66946, 23.68226 ], [ 83.6595, 23.68989 ], [ 83.65534, 23.69121 ], [ 83.6504, 23.69113 ], [ 83.64441, 23.68688 ], [ 83.64089, 23.69253 ], [ 83.63367, 23.69407 ], [ 83.62905, 23.69837 ], [ 83.60524, 23.70128 ], [ 83.59457, 23.69937 ], [ 83.58897, 23.70118 ], [ 83.58597, 23.703 ], [ 83.58046, 23.70445 ], [ 83.57531, 23.70404 ], [ 83.57194, 23.70242 ], [ 83.57121, 23.70284 ], [ 83.5698, 23.69586 ], [ 83.56891, 23.69353 ], [ 83.56799, 23.69339 ], [ 83.5612, 23.69988 ], [ 83.556, 23.70179 ], [ 83.54313, 23.7044 ], [ 83.54128, 23.70533 ], [ 83.53988, 23.70722 ], [ 83.53963, 23.71009 ], [ 83.54826, 23.71495 ], [ 83.55105, 23.71736 ], [ 83.55306, 23.72187 ], [ 83.5564, 23.72509 ], [ 83.55807, 23.72901 ], [ 83.55728, 23.733 ], [ 83.55844, 23.73703 ], [ 83.55422, 23.74343 ], [ 83.55377, 23.7462 ], [ 83.55472, 23.74894 ], [ 83.54914, 23.752 ], [ 83.54677, 23.75054 ], [ 83.53784, 23.74182 ], [ 83.52565, 23.73697 ], [ 83.51817, 23.73136 ], [ 83.51507, 23.73081 ], [ 83.49768, 23.74313 ], [ 83.47623, 23.74961 ], [ 83.45622, 23.75806 ], [ 83.4385, 23.76209 ], [ 83.40937, 23.76376 ], [ 83.39259, 23.76057 ], [ 83.37928, 23.75612 ], [ 83.36678, 23.75435 ], [ 83.35649, 23.7509 ], [ 83.35334, 23.75221 ], [ 83.3683, 23.76848 ], [ 83.36858, 23.77947 ], [ 83.37495, 23.78217 ], [ 83.38443, 23.78473 ], [ 83.38651, 23.78612 ], [ 83.3868, 23.78718 ], [ 83.3794, 23.78994 ], [ 83.36488, 23.79103 ], [ 83.35164, 23.79315 ], [ 83.35182, 23.79604 ], [ 83.35005, 23.80002 ], [ 83.3497, 23.80754 ], [ 83.35188, 23.8205 ], [ 83.3512, 23.82268 ], [ 83.35223, 23.83304 ], [ 83.35193, 23.84054 ], [ 83.36778, 23.85256 ], [ 83.36907, 23.85763 ], [ 83.36716, 23.86859 ], [ 83.37378, 23.88159 ], [ 83.37426, 23.88352 ], [ 83.37361, 23.88414 ], [ 83.37629, 23.88647 ], [ 83.37624, 23.88895 ], [ 83.37782, 23.89003 ], [ 83.37841, 23.89323 ], [ 83.39343, 23.89122 ], [ 83.39404, 23.89232 ], [ 83.39804, 23.89028 ], [ 83.40285, 23.88518 ], [ 83.41106, 23.88682 ], [ 83.42075, 23.89164 ], [ 83.42809, 23.90255 ], [ 83.42968, 23.90275 ] ] ] } },
{ "type": "Feature", "properties": { "OBJECTID": 1457, "state_lgd": "22", "state_name": "CHHATTISGARH", "district_lgd": "642", "district_name": "BALRAMPUR", "district_name_source": "district_table", "subdistrict_lgd": "7257", "subdistrict_name": "RAGHUNATHNAGAR", "subdistrict_type": "Tehsil", "name_corrupted": false, "remarks": "", "label_lon": 82.909423911853196, "label_lat": 23.849925747148692 }, "geometry": { "type": "Polygon", "coordinates": [ [ [ 83.07797, 23.87026 ], [ 83.07746, 23.86818 ], [ 83.07849, 23.86095 ], [ 83.07815, 23.85573 ], [ 83.07432, 23.82641 ], [ 83.07948, 23.82206 ], [ 83.08588, 23.8195 ], [ 83.10507, 23.81464 ], [ 83.10963, 23.81172 ], [ 83.11725, 23.81044 ], [ 83.11835, 23.8093 ], [ 83.11816, 23.80739 ], [ 83.11995, 23.80662 ], [ 83.11825, 23.8006 ], [ 83.11642, 23.79806 ], [ 83.11666, 23.79415 ], [ 83.11517, 23.79289 ], [ 83.11819, 23.78765 ], [ 83.11403, 23.78608 ], [ 83.11483, 23.7821 ], [ 83.11399, 23.78011 ], [ 83.1089, 23.77805 ], [ 83.10889, 23.77298 ], [ 83.10669, 23.77185 ], [ 83.09949, 23.77346 ], [ 83.09733, 23.7681 ], [ 83.09481, 23.7504 ], [ 83.09709, 23.74777 ], [ 83.09693, 23.7451 ], [ 83.09342, 23.74592 ], [ 83.08774, 23.74426 ], [ 83.08498, 23.74471 ], [ 83.08163, 23.75052 ], [ 83.07469, 23.75182 ], [ 83.07042, 23.75327 ], [ 83.06852, 23.75473 ], [ 83.0659, 23.76073 ], [ 83.06447, 23.76979 ], [ 83.06609, 23.77322 ], [ 83.07009, 23.77631 ], [ 83.07376, 23.78129 ], [ 83.07355, 23.78242 ], [ 83.07017, 23.78289 ], [ 83.06725, 23.78493 ], [ 83.06444, 23.78505 ], [ 83.05196, 23.78013 ], [ 83.04801, 23.77933 ], [ 83.03969, 23.77978 ], [ 83.03557, 23.77889 ], [ 83.0307, 23.78361 ], [ 83.02944, 23.78739 ], [ 83.03016, 23.79078 ], [ 83.02677, 23.79916 ], [ 83.02337, 23.80062 ], [ 83.021, 23.80046 ], [ 83.01841, 23.80243 ], [ 83.01315, 23.80335 ], [ 83.01001, 23.80319 ], [ 83.00738, 23.794 ], [ 83.00242, 23.79368 ], [ 82.99903, 23.79171 ], [ 82.99842, 23.7891 ], [ 82.99966, 23.78719 ], [ 82.99944, 23.78378 ], [ 83.00089, 23.77896 ], [ 82.99811, 23.77389 ], [ 82.99452, 23.77128 ], [ 82.99414, 23.76768 ], [ 82.96771, 23.77055 ], [ 82.96424, 23.76754 ], [ 82.95847, 23.76871 ], [ 82.94745, 23.76685 ], [ 82.9317, 23.76743 ], [ 82.92847, 23.76832 ], [ 82.91985, 23.77291 ], [ 82.91722, 23.77648 ], [ 82.91418, 23.77485 ], [ 82.90873, 23.7738 ], [ 82.90741, 23.77674 ], [ 82.90269, 23.78104 ], [ 82.90248, 23.7849 ], [ 82.90738, 23.79025 ], [ 82.90887, 23.79104 ], [ 82.91148, 23.78988 ], [ 82.91329, 23.79006 ], [ 82.91849, 23.79372 ], [ 82.91989, 23.79553 ], [ 82.9202, 23.79896 ], [ 82.91589, 23.80135 ], [ 82.91197, 23.80102 ], [ 82.90716, 23.79812 ], [ 82.90138, 23.79671 ], [ 82.89122, 23.79564 ], [ 82.8882, 23.79577 ], [ 82.8852, 23.79892 ], [ 82.87404, 23.79718 ], [ 82.86295, 23.79817 ], [ 82.86161, 23.7975 ], [ 82.85984, 23.79493 ], [ 82.861, 23.78205 ], [ 82.85281, 23.76909 ], [ 82.85054, 23.76748 ], [ 82.846, 23.76694 ], [ 82.84332, 23.76819 ], [ 82.84169, 23.77108 ], [ 82.84232, 23.77278 ], [ 82.84491, 23.77448 ], [ 82.84569, 23.77872 ], [ 82.84376, 23.77994 ], [ 82.83639, 23.78015 ], [ 82.83493, 23.78421 ], [ 82.8363, 23.78984 ], [ 82.83542, 23.79058 ], [ 82.8312, 23.79006 ], [ 82.82963, 23.79119 ], [ 82.8337, 23.79701 ], [ 82.83379, 23.79823 ], [ 82.82899, 23.80098 ], [ 82.82548, 23.80791 ], [ 82.82347, 23.80965 ], [ 82.82055, 23.80897 ], [ 82.81712, 23.80981 ], [ 82.81618, 23.81149 ], [ 82.81721, 23.81586 ], [ 82.80124, 23.81791 ], [ 82.80061, 23.81678 ], [ 82.80068, 23.81109 ], [ 82.79811, 23.81434 ], [ 82.78493, 23.81507 ], [ 82.78185, 23.81777 ], [ 82.78076, 23.82065 ], [ 82.78083, 23.82421 ], [ 82.78282, 23.83204 ], [ 82.78264, 23.84135 ], [ 82.77826, 23.8566 ], [ 82.77335, 23.86698 ], [ 82.77305, 23.87136 ], [ 82.77137, 23.87703 ], [ 82.7607, 23.87885 ], [ 82.74817, 23.87972 ], [ 82.74311, 23.88117 ], [ 82.74179, 23.88219 ], [ 82.73786, 23.88976 ], [ 82.73455, 23.89182 ], [ 82.7185, 23.89218 ], [ 82.70759, 23.8907 ], [ 82.70485, 23.891 ], [ 82.70149, 23.89346 ], [ 82.70004, 23.89698 ], [ 82.69413, 23.90241 ], [ 82.69274, 23.90485 ], [ 82.69454, 23.90915 ], [ 82.69477, 23.9132 ], [ 82.69312, 23.91894 ], [ 82.69342, 23.9202 ], [ 82.69803, 23.91992 ], [ 82.70108, 23.92164 ], [ 82.70351, 23.92449 ], [ 82.71085, 23.92367 ], [ 82.715, 23.92139 ], [ 82.73334, 23.92121 ], [ 82.73415, 23.91985 ], [ 82.75238, 23.91979 ], [ 82.75526, 23.92171 ], [ 82.75499, 23.92347 ], [ 82.75609, 23.92504 ], [ 82.75563, 23.93146 ], [ 82.75446, 23.93419 ], [ 82.75549, 23.93381 ], [ 82.759, 23.93476 ], [ 82.76201, 23.93383 ], [ 82.77034, 23.93699 ], [ 82.77662, 23.93667 ], [ 82.78589, 23.94089 ], [ 82.79002, 23.946 ], [ 82.79837, 23.95081 ], [ 82.80101, 23.96096 ], [ 82.80412, 23.9597 ], [ 82.81261, 23.95987 ], [ 82.82672, 23.96231 ], [ 82.83362, 23.9575 ], [ 82.83699, 23.9568 ], [ 82.84112, 23.95066 ], [ 82.84614, 23.9479 ], [ 82.84865, 23.94535 ], [ 82.85335, 23.94547 ], [ 82.85828, 23.93926 ], [ 82.86111, 23.93893 ], [ 82.86367, 23.93283 ], [ 82.86522, 23.9264 ], [ 82.87381, 23.91942 ], [ 82.87725, 23.91779 ], [ 82.88471, 23.90884 ], [ 82.88941, 23.90724 ], [ 82.89702, 23.90214 ], [ 82.90516, 23.89789 ], [ 82.90806, 23.89719 ], [ 82.9117, 23.8975 ], [ 82.91652, 23.89534 ], [ 82.92722, 23.89229 ], [ 82.93065, 23.88946 ], [ 82.93484, 23.88204 ], [ 82.93663, 23.87707 ], [ 82.94372, 23.87451 ], [ 82.94788, 23.87142 ], [ 82.95428, 23.87082 ], [ 82.95917, 23.87148 ], [ 82.95982, 23.87086 ], [ 82.96953, 23.87204 ], [ 82.97458, 23.87163 ], [ 82.98284, 23.87416 ], [ 82.99722, 23.87259 ], [ 83.00163, 23.87364 ], [ 83.00125, 23.87679 ], [ 83.01488, 23.8783 ], [ 83.01871, 23.87946 ], [ 83.03531, 23.87965 ], [ 83.04004, 23.87865 ], [ 83.05248, 23.87953 ], [ 83.05825, 23.87713 ], [ 83.06112, 23.87542 ], [ 83.06213, 23.87394 ], [ 83.07115, 23.87421 ], [ 83.07505, 23.87012 ], [ 83.07797, 23.87026 ] ] ] } },
{ "type": "Feature", "properties": { "OBJECTID": 1458, "state_lgd": "22", "state_name": "CHHATTISGARH", "district_lgd": "642", "district_name": "BALRAMPUR", "district_name_source": "district_table", "subdistrict_lgd": "7251", "subdistrict_name": "DAURA-KOCHALI", "subdistrict_type": "Tehsil", "name_corrupted": false, "remarks": "", "label_lon": 83.471938293043536, "label_lat": 23.517134284815803 }, "geometry": { "type": "Polygon", "coordinates": [ [ [ 83.65197, 23.48765 ], [ 83.64568, 23.47881 ], [ 83.64065, 23.47377 ], [ 83.63944, 23.46439 ], [ 83.63732, 23.46019 ], [ 83.63551, 23.45778 ], [ 83.62867, 23.45262 ], [ 83.62507, 23.45084 ], [ 83.62127, 23.44549 ], [ 83.61468, 23.44699 ], [ 83.61155, 23.44414 ], [ 83.60386, 23.44423 ], [ 83.59525, 23.43968 ], [ 83.59411, 23.43973 ], [ 83.59283, 23.44226 ], [ 83.59112, 23.44228 ], [ 83.58927, 23.44426 ], [ 83.58399, 23.44616 ], [ 83.58022, 23.45016 ], [ 83.58055, 23.45219 ], [ 83.57989, 23.45363 ], [ 83.57325, 23.45932 ], [ 83.56909, 23.46184 ], [ 83.56368, 23.46028 ], [ 83.55982, 23.46106 ], [ 83.55857, 23.4619 ], [ 83.56002, 23.4631 ], [ 83.55914, 23.46488 ], [ 83.55484, 23.46579 ], [ 83.55237, 23.46523 ], [ 83.54854, 23.46214 ], [ 83.54732, 23.46276 ], [ 83.54807, 23.46511 ], [ 83.54307, 23.46525 ], [ 83.54353, 23.4588 ], [ 83.54512, 23.4558 ], [ 83.54922, 23.45128 ], [ 83.54882, 23.44831 ], [ 83.53406, 23.43763 ], [ 83.52946, 23.43739 ], [ 83.52843, 23.43871 ], [ 83.52135, 23.43619 ], [ 83.51887, 23.43621 ], [ 83.5174, 23.43713 ], [ 83.51753, 23.43934 ], [ 83.5145, 23.4408 ], [ 83.5126, 23.43982 ], [ 83.50621, 23.43986 ], [ 83.50346, 23.43861 ], [ 83.50097, 23.43869 ], [ 83.49701, 23.43667 ], [ 83.49612, 23.43533 ], [ 83.49044, 23.43826 ], [ 83.46348, 23.44225 ], [ 83.46177, 23.45024 ], [ 83.46552, 23.45337 ], [ 83.45195, 23.45359 ], [ 83.44514, 23.44491 ], [ 83.43854, 23.42621 ], [ 83.43152, 23.41871 ], [ 83.42706, 23.41689 ], [ 83.41989, 23.40714 ], [ 83.41063, 23.40632 ], [ 83.3902, 23.41745 ], [ 83.38466, 23.42498 ], [ 83.37738, 23.41847 ], [ 83.36811, 23.41175 ], [ 83.36944, 23.41541 ], [ 83.36856, 23.41682 ], [ 83.3705, 23.41777 ], [ 83.37143, 23.42084 ], [ 83.37083, 23.44062 ], [ 83.36672, 23.44935 ], [ 83.36755, 23.45571 ], [ 83.36727, 23.46082 ], [ 83.35854, 23.47478 ], [ 83.3693, 23.47292 ], [ 83.37235, 23.47788 ], [ 83.37157, 23.48035 ], [ 83.37552, 23.48028 ], [ 83.37764, 23.48133 ], [ 83.37923, 23.48527 ], [ 83.3831, 23.48875 ], [ 83.38487, 23.48937 ], [ 83.38667, 23.49391 ], [ 83.39338, 23.50059 ], [ 83.39154, 23.50401 ], [ 83.39448, 23.50678 ], [ 83.40134, 23.50707 ], [ 83.40858, 23.5057 ], [ 83.42038, 23.50714 ], [ 83.42501, 23.51836 ], [ 83.43176, 23.51601 ], [ 83.43302, 23.52992 ], [ 83.43246, 23.53393 ], [ 83.42512, 23.53583 ], [ 83.41891, 23.53625 ], [ 83.41887, 23.53797 ], [ 83.42102, 23.53891 ], [ 83.42182, 23.54174 ], [ 83.42001, 23.54384 ], [ 83.42123, 23.54854 ], [ 83.41849, 23.5525 ], [ 83.41808, 23.55483 ], [ 83.41447, 23.55723 ], [ 83.41346, 23.55915 ], [ 83.4036, 23.55678 ], [ 83.39716, 23.55893 ], [ 83.39339, 23.5592 ], [ 83.39358, 23.55484 ], [ 83.39268, 23.55298 ], [ 83.39341, 23.54907 ], [ 83.39693, 23.54483 ], [ 83.39533, 23.54318 ], [ 83.39602, 23.54122 ], [ 83.39304, 23.53817 ], [ 83.38982, 23.53805 ], [ 83.38804, 23.53659 ], [ 83.38554, 23.53733 ], [ 83.38379, 23.53621 ], [ 83.38285, 23.53222 ], [ 83.38048, 23.53014 ], [ 83.38029, 23.52531 ], [ 83.36929, 23.52566 ], [ 83.36688, 23.52689 ], [ 83.35932, 23.52793 ], [ 83.35383, 23.52615 ], [ 83.348, 23.52677 ], [ 83.33082, 23.52316 ], [ 83.32667, 23.52146 ], [ 83.3262, 23.52215 ], [ 83.32265, 23.52066 ], [ 83.32075, 23.51878 ], [ 83.30919, 23.52084 ], [ 83.30965, 23.51531 ], [ 83.30609, 23.51483 ], [ 83.30347, 23.51149 ], [ 83.29798, 23.5173 ], [ 83.29556, 23.51816 ], [ 83.28167, 23.51578 ], [ 83.27737, 23.51676 ], [ 83.26635, 23.5153 ], [ 83.26312, 23.51666 ], [ 83.23882, 23.51546 ], [ 83.2387, 23.53203 ], [ 83.23714, 23.54168 ], [ 83.24807, 23.54332 ], [ 83.24966, 23.54612 ], [ 83.25125, 23.54714 ], [ 83.26197, 23.54861 ], [ 83.26917, 23.55101 ], [ 83.27252, 23.5545 ], [ 83.27428, 23.55892 ], [ 83.28034, 23.55852 ], [ 83.28518, 23.55688 ], [ 83.30777, 23.56205 ], [ 83.3162, 23.56154 ], [ 83.3238, 23.56339 ], [ 83.32654, 23.56589 ], [ 83.3283, 23.57182 ], [ 83.32979, 23.5741 ], [ 83.33515, 23.57556 ], [ 83.34293, 23.57228 ], [ 83.34758, 23.5725 ], [ 83.35005, 23.5737 ], [ 83.35819, 23.58229 ], [ 83.36848, 23.58419 ], [ 83.37137, 23.58335 ], [ 83.37581, 23.58335 ], [ 83.38473, 23.58563 ], [ 83.38664, 23.58384 ], [ 83.38808, 23.58045 ], [ 83.38962, 23.58072 ], [ 83.39033, 23.58176 ], [ 83.39816, 23.58169 ], [ 83.40121, 23.58325 ], [ 83.403, 23.58527 ], [ 83.40547, 23.58588 ], [ 83.40792, 23.58771 ], [ 83.41136, 23.58791 ], [ 83.41788, 23.5903 ], [ 83.41958, 23.59146 ], [ 83.41883, 23.59296 ], [ 83.41931, 23.59584 ], [ 83.42399, 23.59665 ], [ 83.42413, 23.59768 ], [ 83.42738, 23.59997 ], [ 83.44264, 23.6036 ], [ 83.44463, 23.60506 ], [ 83.44469, 23.60277 ], [ 83.44714, 23.60224 ], [ 83.45103, 23.60356 ], [ 83.45333, 23.60596 ], [ 83.45612, 23.60546 ], [ 83.45959, 23.60707 ], [ 83.45968, 23.60607 ], [ 83.46391, 23.60804 ], [ 83.4777, 23.60875 ], [ 83.48143, 23.60851 ], [ 83.48169, 23.60732 ], [ 83.48331, 23.6071 ], [ 83.48361, 23.60602 ], [ 83.48805, 23.60614 ], [ 83.48815, 23.60409 ], [ 83.49055, 23.60243 ], [ 83.49258, 23.6021 ], [ 83.50384, 23.60589 ], [ 83.51341, 23.61122 ], [ 83.51617, 23.60146 ], [ 83.52021, 23.5996 ], [ 83.53689, 23.60325 ], [ 83.54741, 23.60423 ], [ 83.55019, 23.607 ], [ 83.55302, 23.60763 ], [ 83.56132, 23.60354 ], [ 83.5661, 23.60221 ], [ 83.56533, 23.59755 ], [ 83.56551, 23.59046 ], [ 83.56994, 23.57919 ], [ 83.57711, 23.58082 ], [ 83.58967, 23.58111 ], [ 83.5953, 23.58009 ], [ 83.60052, 23.57831 ], [ 83.60254, 23.57294 ], [ 83.60514, 23.57066 ], [ 83.61, 23.56818 ], [ 83.60765, 23.56271 ], [ 83.60182, 23.55432 ], [ 83.60122, 23.54758 ], [ 83.59946, 23.54076 ], [ 83.60802, 23.53333 ], [ 83.61831, 23.52241 ], [ 83.62444, 23.50937 ], [ 83.63225, 23.49994 ], [ 83.63355, 23.49477 ], [ 83.63604, 23.49327 ], [ 83.63564, 23.49103 ], [ 83.63892, 23.49309 ], [ 83.64105, 23.49345 ], [ 83.64075, 23.49175 ], [ 83.63796, 23.48733 ], [ 83.64446, 23.48813 ], [ 83.64708, 23.4874 ], [ 83.65197, 23.48765 ] ] ] } },
{ "type": "Feature", "properties": { "OBJECTID": 1459, "state_lgd": "22", "state_name": "CHHATTISGARH", "district_lgd": "642", "district_name": "BALRAMPUR", "district_name_source": "district_table", "subdistrict_lgd": "3240", "subdistrict_name": "KUSMI", "subdistrict_type": "Tehsil", "name_corrupted": false, "remarks": "", "label_lon": 83.923617098479696, "label_lat": 23.290497517742889 }, "geometry": { "type": "Polygon", "coordinates": [ [ [ 83.82305, 23.3924 ], [ 83.82582, 23.39037 ], [ 83.82741, 23.39089 ], [ 83.82858, 23.38921 ], [ 83.83073, 23.38942 ], [ 83.83295, 23.3872 ], [ 83.83473, 23.38334 ], [ 83.83871, 23.38155 ], [ 83.84028, 23.38206 ], [ 83.84108, 23.38152 ], [ 83.84098, 23.37943 ], [ 83.84511, 23.37547 ], [ 83.84533, 23.37314 ], [ 83.84637, 23.37162 ], [ 83.84945, 23.37316 ], [ 83.85261, 23.37272 ], [ 83.85816, 23.3696 ], [ 83.86172, 23.36944 ], [ 83.8671, 23.3676 ], [ 83.87301, 23.36776 ], [ 83.87878, 23.369 ], [ 83.87895, 23.36724 ], [ 83.88459, 23.36399 ], [ 83.91058, 23.36339 ], [ 83.91193, 23.3626 ], [ 83.9169, 23.36251 ], [ 83.9167, 23.36357 ], [ 83.91806, 23.36629 ], [ 83.92657, 23.36892 ], [ 83.9273, 23.37046 ], [ 83.93233, 23.37165 ], [ 83.93348, 23.37047 ], [ 83.93524, 23.37045 ], [ 83.93865, 23.36835 ], [ 83.94102, 23.36915 ], [ 83.94217, 23.36856 ], [ 83.94179, 23.36709 ], [ 83.93987, 23.36703 ], [ 83.93697, 23.36456 ], [ 83.93601, 23.36482 ], [ 83.93416, 23.3636 ], [ 83.93266, 23.35934 ], [ 83.92836, 23.35462 ], [ 83.92811, 23.35343 ], [ 83.92575, 23.35197 ], [ 83.92489, 23.35224 ], [ 83.92374, 23.34999 ], [ 83.92149, 23.34847 ], [ 83.92266, 23.34672 ], [ 83.92365, 23.34664 ], [ 83.92421, 23.34387 ], [ 83.92497, 23.34387 ], [ 83.92431, 23.33949 ], [ 83.92094, 23.3345 ], [ 83.92508, 23.3345 ], [ 83.92662, 23.33353 ], [ 83.93194, 23.33366 ], [ 83.93958, 23.33036 ], [ 83.94107, 23.33118 ], [ 83.94545, 23.33143 ], [ 83.94914, 23.33414 ], [ 83.95128, 23.33426 ], [ 83.95336, 23.33311 ], [ 83.95447, 23.33055 ], [ 83.95622, 23.3312 ], [ 83.96393, 23.33112 ], [ 83.96852, 23.32989 ], [ 83.97687, 23.32571 ], [ 83.97946, 23.32726 ], [ 83.98785, 23.32675 ], [ 83.98865, 23.33163 ], [ 83.99089, 23.33338 ], [ 83.99002, 23.33415 ], [ 83.98789, 23.33374 ], [ 83.98592, 23.33514 ], [ 83.98607, 23.33693 ], [ 83.98486, 23.33725 ], [ 83.98483, 23.33829 ], [ 83.98308, 23.33868 ], [ 83.98239, 23.34034 ], [ 83.97989, 23.34093 ], [ 83.97882, 23.34356 ], [ 83.97632, 23.34441 ], [ 83.97655, 23.34644 ], [ 83.97784, 23.34697 ], [ 83.98006, 23.35008 ], [ 83.98443, 23.35277 ], [ 83.98331, 23.3553 ], [ 83.98284, 23.35987 ], [ 83.98172, 23.36021 ], [ 83.9823, 23.36189 ], [ 83.98029, 23.36458 ], [ 83.98816, 23.36293 ], [ 83.99153, 23.36019 ], [ 83.99956, 23.35738 ], [ 84.0026, 23.35735 ], [ 84.0048, 23.35401 ], [ 84.01078, 23.35371 ], [ 84.01227, 23.3551 ], [ 84.0163, 23.36961 ], [ 84.02386, 23.3765 ], [ 84.02671, 23.37758 ], [ 84.03642, 23.37852 ], [ 84.05084, 23.37477 ], [ 84.05052, 23.37251 ], [ 84.04839, 23.37083 ], [ 84.04822, 23.3697 ], [ 84.05236, 23.36726 ], [ 84.0535, 23.36482 ], [ 84.05205, 23.35928 ], [ 84.05433, 23.3524 ], [ 84.05858, 23.35139 ], [ 84.06658, 23.34406 ], [ 84.06846, 23.33861 ], [ 84.07459, 23.33357 ], [ 84.07484, 23.33137 ], [ 84.06596, 23.31348 ], [ 84.06219, 23.30766 ], [ 84.06812, 23.29378 ], [ 84.06645, 23.29086 ], [ 84.06442, 23.29046 ], [ 84.06248, 23.28843 ], [ 84.0646, 23.27472 ], [ 84.06275, 23.27102 ], [ 84.05985, 23.26879 ], [ 84.05682, 23.25553 ], [ 84.05373, 23.2473 ], [ 84.05383, 23.24375 ], [ 84.05908, 23.23599 ], [ 84.05639, 23.22691 ], [ 84.05576, 23.22028 ], [ 84.05873, 23.21375 ], [ 84.06281, 23.2079 ], [ 84.06317, 23.20565 ], [ 84.0622, 23.20262 ], [ 84.05843, 23.19994 ], [ 84.05653, 23.19317 ], [ 84.05015, 23.18893 ], [ 84.04931, 23.18744 ], [ 84.04293, 23.18265 ], [ 84.03829, 23.17109 ], [ 84.03635, 23.17198 ], [ 84.03134, 23.17866 ], [ 84.02827, 23.17951 ], [ 84.02464, 23.18241 ], [ 84.02174, 23.18784 ], [ 84.01872, 23.18873 ], [ 84.01816, 23.18976 ], [ 84.01544, 23.18905 ], [ 84.0097, 23.18521 ], [ 84.0085, 23.18513 ], [ 84.0071, 23.18649 ], [ 83.99935, 23.18573 ], [ 83.99867, 23.18687 ], [ 83.99847, 23.19246 ], [ 83.99569, 23.19158 ], [ 83.99343, 23.19177 ], [ 83.99131, 23.19365 ], [ 83.98621, 23.19547 ], [ 83.9791, 23.19217 ], [ 83.97677, 23.19231 ], [ 83.97441, 23.19081 ], [ 83.97241, 23.1906 ], [ 83.97026, 23.19153 ], [ 83.96758, 23.19055 ], [ 83.96544, 23.18631 ], [ 83.96296, 23.18419 ], [ 83.96259, 23.17946 ], [ 83.96329, 23.17692 ], [ 83.96606, 23.17639 ], [ 83.9677, 23.17465 ], [ 83.96752, 23.17233 ], [ 83.96584, 23.17332 ], [ 83.96507, 23.17219 ], [ 83.95971, 23.17312 ], [ 83.95745, 23.17206 ], [ 83.95601, 23.17029 ], [ 83.95461, 23.17107 ], [ 83.9549, 23.16971 ], [ 83.95355, 23.17008 ], [ 83.95253, 23.1691 ], [ 83.9483, 23.16858 ], [ 83.94751, 23.16738 ], [ 83.94399, 23.16549 ], [ 83.94418, 23.15418 ], [ 83.9351, 23.15129 ], [ 83.92609, 23.15062 ], [ 83.92603, 23.1519 ], [ 83.92758, 23.15345 ], [ 83.92852, 23.15594 ], [ 83.92839, 23.15928 ], [ 83.9272, 23.16197 ], [ 83.92702, 23.16713 ], [ 83.92336, 23.17002 ], [ 83.92129, 23.1732 ], [ 83.91975, 23.17424 ], [ 83.91471, 23.17425 ], [ 83.91287, 23.17719 ], [ 83.90941, 23.1799 ], [ 83.90825, 23.18377 ], [ 83.90666, 23.18491 ], [ 83.90017, 23.18335 ], [ 83.89332, 23.1864 ], [ 83.88511, 23.18831 ], [ 83.88366, 23.19031 ], [ 83.88303, 23.20505 ], [ 83.88039, 23.20997 ], [ 83.87833, 23.21208 ], [ 83.87605, 23.21328 ], [ 83.86546, 23.21458 ], [ 83.86268, 23.21675 ], [ 83.86089, 23.21935 ], [ 83.85856, 23.22042 ], [ 83.8541, 23.22749 ], [ 83.84696, 23.22918 ], [ 83.84433, 23.22856 ], [ 83.83765, 23.23568 ], [ 83.82858, 23.24214 ], [ 83.82436, 23.24408 ], [ 83.82482, 23.25058 ], [ 83.82331, 23.26499 ], [ 83.82492, 23.26588 ], [ 83.82624, 23.26497 ], [ 83.83042, 23.26771 ], [ 83.83348, 23.26764 ], [ 83.8336, 23.2695 ], [ 83.83634, 23.2722 ], [ 83.8347, 23.27463 ], [ 83.8377, 23.27709 ], [ 83.84138, 23.27726 ], [ 83.84112, 23.2804 ], [ 83.84286, 23.283 ], [ 83.83855, 23.28378 ], [ 83.8376, 23.28602 ], [ 83.83424, 23.28711 ], [ 83.83102, 23.28963 ], [ 83.82822, 23.28841 ], [ 83.82617, 23.28936 ], [ 83.82416, 23.28789 ], [ 83.82226, 23.28847 ], [ 83.82153, 23.29025 ], [ 83.81835, 23.29185 ], [ 83.81459, 23.29547 ], [ 83.81323, 23.3012 ], [ 83.81459, 23.30282 ], [ 83.81363, 23.30376 ], [ 83.81014, 23.30415 ], [ 83.80633, 23.30248 ], [ 83.80569, 23.30362 ], [ 83.80654, 23.30511 ], [ 83.80255, 23.30648 ], [ 83.79981, 23.30891 ], [ 83.79305, 23.30892 ], [ 83.79319, 23.31183 ], [ 83.79568, 23.31303 ], [ 83.79764, 23.3177 ], [ 83.79653, 23.319 ], [ 83.79835, 23.32162 ], [ 83.79813, 23.32347 ], [ 83.79331, 23.33297 ], [ 83.78957, 23.33467 ], [ 83.78785, 23.33653 ], [ 83.76892, 23.33842 ], [ 83.76954, 23.33946 ], [ 83.76838, 23.34196 ], [ 83.76906, 23.34883 ], [ 83.76861, 23.3511 ], [ 83.75499, 23.353 ], [ 83.75004, 23.35479 ], [ 83.75236, 23.35795 ], [ 83.75153, 23.36499 ], [ 83.75265, 23.36572 ], [ 83.76015, 23.36623 ], [ 83.76207, 23.3709 ], [ 83.76248, 23.37599 ], [ 83.76417, 23.38086 ], [ 83.76136, 23.38572 ], [ 83.76266, 23.39142 ], [ 83.76176, 23.39285 ], [ 83.76321, 23.39712 ], [ 83.76084, 23.40049 ], [ 83.75905, 23.39981 ], [ 83.75487, 23.40433 ], [ 83.73775, 23.41423 ], [ 83.72628, 23.43087 ], [ 83.71137, 23.46934 ], [ 83.72783, 23.45386 ], [ 83.76126, 23.43824 ], [ 83.76245, 23.43373 ], [ 83.76469, 23.43232 ], [ 83.766, 23.43272 ], [ 83.76721, 23.43038 ], [ 83.76626, 23.42834 ], [ 83.7643, 23.42737 ], [ 83.76317, 23.42368 ], [ 83.77007, 23.42151 ], [ 83.77161, 23.422 ], [ 83.77206, 23.41951 ], [ 83.77702, 23.42085 ], [ 83.77434, 23.41809 ], [ 83.77681, 23.41578 ], [ 83.77856, 23.4163 ], [ 83.78043, 23.41561 ], [ 83.78015, 23.41371 ], [ 83.78271, 23.41289 ], [ 83.78385, 23.41055 ], [ 83.78306, 23.4076 ], [ 83.78815, 23.4038 ], [ 83.78889, 23.40424 ], [ 83.79092, 23.40229 ], [ 83.79236, 23.40212 ], [ 83.79538, 23.39882 ], [ 83.81577, 23.39472 ], [ 83.82305, 23.3924 ] ] ] } },
{ "type": "Feature", "properties": { "OBJECTID": 1535, "state_lgd": "22", "state_name": "CHHATTISGARH", "district_lgd": "642", "district_name": "BALRAMPUR", "district_name_source": "district_table", "subdistrict_lgd": "7340", "subdistrict_name": "CHALGALI", "subdistrict_type": "Tehsil", "name_corrupted": false, "remarks": "", "label_lon": 83.306733138568717, "label_lat": 23.640425769912319 }, "geometry": { "type": "Polygon", "coordinates": [ [ [ 83.38473, 23.58563 ], [ 83.37581, 23.58335 ], [ 83.37137, 23.58335 ], [ 83.36848, 23.58419 ], [ 83.35819, 23.58229 ], [ 83.35005, 23.5737 ], [ 83.34535, 23.57192 ], [ 83.34293, 23.57228 ], [ 83.33664, 23.57528 ], [ 83.33116, 23.57471 ], [ 83.32895, 23.57328 ], [ 83.32654, 23.56589 ], [ 83.3238, 23.56339 ], [ 83.3162, 23.56154 ], [ 83.30777, 23.56205 ], [ 83.28518, 23.55688 ], [ 83.28034, 23.55852 ], [ 83.27428, 23.55892 ], [ 83.27852, 23.56763 ], [ 83.27936, 23.575 ], [ 83.27912, 23.57736 ], [ 83.27497, 23.58 ], [ 83.27278, 23.58078 ], [ 83.25814, 23.57993 ], [ 83.25455, 23.58071 ], [ 83.2515, 23.57526 ], [ 83.23981, 23.57795 ], [ 83.22722, 23.57815 ], [ 83.22328, 23.57502 ], [ 83.22681, 23.57117 ], [ 83.22882, 23.56182 ], [ 83.22616, 23.56233 ], [ 83.21568, 23.56163 ], [ 83.21299, 23.56012 ], [ 83.20923, 23.55592 ], [ 83.20098, 23.55672 ], [ 83.20033, 23.56876 ], [ 83.19919, 23.5723 ], [ 83.20963, 23.58292 ], [ 83.2106, 23.58643 ], [ 83.21045, 23.5894 ], [ 83.20874, 23.59226 ], [ 83.20699, 23.59303 ], [ 83.20581, 23.59224 ], [ 83.20022, 23.59525 ], [ 83.20997, 23.6053 ], [ 83.21191, 23.60924 ], [ 83.20921, 23.61224 ], [ 83.20197, 23.61201 ], [ 83.2023, 23.61939 ], [ 83.20977, 23.65406 ], [ 83.20807, 23.65803 ], [ 83.20155, 23.66092 ], [ 83.20231, 23.66742 ], [ 83.20137, 23.6702 ], [ 83.20138, 23.67351 ], [ 83.20236, 23.68332 ], [ 83.19938, 23.68369 ], [ 83.19773, 23.68536 ], [ 83.19919, 23.68668 ], [ 83.2085, 23.68773 ], [ 83.21398, 23.68687 ], [ 83.21539, 23.68463 ], [ 83.21623, 23.68453 ], [ 83.21718, 23.68544 ], [ 83.21647, 23.68668 ], [ 83.21968, 23.69039 ], [ 83.22171, 23.69033 ], [ 83.22249, 23.69216 ], [ 83.22432, 23.6931 ], [ 83.22474, 23.6909 ], [ 83.22677, 23.69035 ], [ 83.23422, 23.68997 ], [ 83.23658, 23.68865 ], [ 83.24386, 23.68844 ], [ 83.24563, 23.68998 ], [ 83.25973, 23.69086 ], [ 83.26064, 23.69186 ], [ 83.2645, 23.69302 ], [ 83.26467, 23.69074 ], [ 83.26572, 23.69121 ], [ 83.26583, 23.69319 ], [ 83.27091, 23.69429 ], [ 83.27165, 23.69573 ], [ 83.27375, 23.69558 ], [ 83.27558, 23.69256 ], [ 83.27745, 23.69318 ], [ 83.27781, 23.69236 ], [ 83.27894, 23.69339 ], [ 83.28042, 23.6917 ], [ 83.28184, 23.69143 ], [ 83.28388, 23.69213 ], [ 83.2856, 23.69631 ], [ 83.29605, 23.68854 ], [ 83.29868, 23.68835 ], [ 83.29925, 23.68697 ], [ 83.30211, 23.68458 ], [ 83.30357, 23.6847 ], [ 83.30326, 23.68961 ], [ 83.30664, 23.68866 ], [ 83.30583, 23.68645 ], [ 83.31149, 23.68647 ], [ 83.31553, 23.69109 ], [ 83.31496, 23.69334 ], [ 83.31377, 23.69404 ], [ 83.31455, 23.6957 ], [ 83.31879, 23.69544 ], [ 83.31816, 23.69828 ], [ 83.31297, 23.69939 ], [ 83.31265, 23.70113 ], [ 83.31369, 23.70115 ], [ 83.31514, 23.70264 ], [ 83.31629, 23.70026 ], [ 83.31879, 23.70036 ], [ 83.31917, 23.70209 ], [ 83.32124, 23.70134 ], [ 83.32265, 23.70398 ], [ 83.32514, 23.70364 ], [ 83.32658, 23.70061 ], [ 83.3358, 23.71177 ], [ 83.33668, 23.71228 ], [ 83.34209, 23.71016 ], [ 83.3426, 23.7121 ], [ 83.34374, 23.71224 ], [ 83.3452, 23.71822 ], [ 83.35119, 23.71808 ], [ 83.35264, 23.72179 ], [ 83.3594, 23.72581 ], [ 83.35845, 23.72726 ], [ 83.36604, 23.72784 ], [ 83.37727, 23.72714 ], [ 83.38317, 23.72876 ], [ 83.39113, 23.72781 ], [ 83.39789, 23.71934 ], [ 83.39834, 23.71608 ], [ 83.41307, 23.7061 ], [ 83.41648, 23.70525 ], [ 83.41453, 23.69782 ], [ 83.41444, 23.69334 ], [ 83.4173, 23.69161 ], [ 83.41959, 23.68841 ], [ 83.41735, 23.67877 ], [ 83.41684, 23.67228 ], [ 83.41764, 23.66479 ], [ 83.41928, 23.66091 ], [ 83.41523, 23.65874 ], [ 83.41106, 23.6588 ], [ 83.40849, 23.65787 ], [ 83.40276, 23.65424 ], [ 83.39865, 23.64819 ], [ 83.39916, 23.64744 ], [ 83.39829, 23.64153 ], [ 83.38917, 23.6404 ], [ 83.38165, 23.63849 ], [ 83.38174, 23.62832 ], [ 83.38013, 23.62345 ], [ 83.38019, 23.6212 ], [ 83.38496, 23.60817 ], [ 83.38472, 23.60289 ], [ 83.38692, 23.60076 ], [ 83.38743, 23.59656 ], [ 83.3885, 23.59571 ], [ 83.388, 23.58891 ], [ 83.38473, 23.58563 ] ] ] } }
]
}
