{
"type": "FeatureCollection",
"name": "755_KHAIRGARH_CHHUIKHADAN_GANDAI",
"crs": { "type": "name", "properties": { "name": "urn:ogc:def:crs:OGC:1.3:CRS84" } },
"xy_coordinate_resolution": 1e-05,
"features": [
{ "type": "Feature", "properties": { "OBJECTID": 1308, "state_lgd": "22", "state_name": "CHHATTISGARH", "district_lgd": "755", "district_name": "KHAIRGARH-CHHUIKHADAN-GANDAI", "district_name_source": "district_table", "subdistrict_lgd": "7294", "subdistrict_name": "SALHEWARA", "subdistrict_type": "Tehsil", "name_corrupted": false, "remarks": "", "label_lon": 80.835710448203088, "label_lat": 21.682111126104026 }, "geometry": { "type": "MultiPolygon", "coordinates": [ [ [ [ 80.92413, 21.49749 ], [ 80.92295, 21.49623 ], [ 80.92236, 21.49361 ], [ 80.91982, 21.49338 ], [ 80.91668, 21.4897 ], [ 80.91226, 21.48916 ], [ 80.91058, 21.48791 ], [ 80.90863, 21.4881 ], [ 80.90806, 21.49136 ], [ 80.91029, 21.49318 ], [ 80.91245, 21.49361 ], [ 80.91312, 21.49473 ], [ 80.91413, 21.49477 ], [ 80.91477, 21.49344 ], [ 80.92047, 21.4977 ], [ 80.92348, 21.49813 ], [ 80.92413, 21.49749 ] ] ], [ [ [ 80.846, 21.83537 ], [ 80.85028, 21.83512 ], [ 80.85008, 21.83424 ], [ 80.85214, 21.83421 ], [ 80.85269, 21.83349 ], [ 80.85542, 21.83432 ], [ 80.85739, 21.83262 ], [ 80.85722, 21.83181 ], [ 80.85938, 21.8321 ], [ 80.86164, 21.8306 ], [ 80.86441, 21.83039 ], [ 80.86467, 21.83119 ], [ 80.86627, 21.83128 ], [ 80.86669, 21.83003 ], [ 80.8681, 21.83102 ], [ 80.86778, 21.82923 ], [ 80.87176, 21.82817 ], [ 80.87369, 21.82544 ], [ 80.87468, 21.82672 ], [ 80.87504, 21.82612 ], [ 80.87618, 21.82638 ], [ 80.87713, 21.82527 ], [ 80.87657, 21.82443 ], [ 80.87736, 21.82398 ], [ 80.88351, 21.82529 ], [ 80.88342, 21.82616 ], [ 80.88484, 21.82749 ], [ 80.88676, 21.82829 ], [ 80.88752, 21.82754 ], [ 80.89182, 21.82798 ], [ 80.89313, 21.82698 ], [ 80.89423, 21.82834 ], [ 80.89567, 21.82847 ], [ 80.89729, 21.82743 ], [ 80.89817, 21.82862 ], [ 80.89819, 21.82747 ], [ 80.89902, 21.82765 ], [ 80.89957, 21.8259 ], [ 80.90188, 21.82666 ], [ 80.90224, 21.82597 ], [ 80.90314, 21.82647 ], [ 80.90535, 21.82554 ], [ 80.90569, 21.82338 ], [ 80.90826, 21.82445 ], [ 80.90916, 21.82389 ], [ 80.91014, 21.82513 ], [ 80.91559, 21.82575 ], [ 80.91644, 21.82761 ], [ 80.9172, 21.82704 ], [ 80.91847, 21.82745 ], [ 80.91905, 21.82642 ], [ 80.92017, 21.82629 ], [ 80.921, 21.82748 ], [ 80.92277, 21.82738 ], [ 80.92487, 21.82569 ], [ 80.93017, 21.82445 ], [ 80.93175, 21.82168 ], [ 80.93131, 21.81798 ], [ 80.93255, 21.81651 ], [ 80.93207, 21.81275 ], [ 80.93566, 21.81036 ], [ 80.93622, 21.80896 ], [ 80.9384, 21.80806 ], [ 80.94245, 21.80805 ], [ 80.94577, 21.8047 ], [ 80.94631, 21.80024 ], [ 80.94804, 21.79595 ], [ 80.9544, 21.78567 ], [ 80.95453, 21.77711 ], [ 80.95317, 21.76968 ], [ 80.95181, 21.75251 ], [ 80.95052, 21.74627 ], [ 80.94866, 21.74436 ], [ 80.9481, 21.74237 ], [ 80.94709, 21.74231 ], [ 80.94601, 21.74074 ], [ 80.94519, 21.73495 ], [ 80.94319, 21.72831 ], [ 80.94238, 21.72785 ], [ 80.94288, 21.72609 ], [ 80.94206, 21.72438 ], [ 80.94335, 21.72335 ], [ 80.94425, 21.72428 ], [ 80.94615, 21.72393 ], [ 80.9458, 21.72318 ], [ 80.94685, 21.72339 ], [ 80.94768, 21.72205 ], [ 80.94634, 21.72203 ], [ 80.94577, 21.72011 ], [ 80.9446, 21.71978 ], [ 80.94392, 21.71708 ], [ 80.944, 21.7152 ], [ 80.94552, 21.71495 ], [ 80.94489, 21.71278 ], [ 80.94578, 21.70947 ], [ 80.9474, 21.7085 ], [ 80.94888, 21.70995 ], [ 80.94947, 21.7091 ], [ 80.95336, 21.70826 ], [ 80.95361, 21.70619 ], [ 80.95587, 21.70517 ], [ 80.95995, 21.70136 ], [ 80.95908, 21.69955 ], [ 80.95996, 21.6988 ], [ 80.95957, 21.69715 ], [ 80.95682, 21.69975 ], [ 80.95195, 21.69917 ], [ 80.95223, 21.69966 ], [ 80.95064, 21.70096 ], [ 80.95104, 21.70249 ], [ 80.94714, 21.70066 ], [ 80.94545, 21.7018 ], [ 80.94046, 21.70183 ], [ 80.93934, 21.69699 ], [ 80.93859, 21.686 ], [ 80.94009, 21.68455 ], [ 80.9399, 21.68297 ], [ 80.93652, 21.67616 ], [ 80.9382, 21.67418 ], [ 80.93948, 21.67453 ], [ 80.93877, 21.67043 ], [ 80.94183, 21.6677 ], [ 80.94154, 21.66458 ], [ 80.93856, 21.66189 ], [ 80.94041, 21.66127 ], [ 80.94071, 21.66041 ], [ 80.93838, 21.65947 ], [ 80.93598, 21.65989 ], [ 80.92328, 21.6656 ], [ 80.91731, 21.66122 ], [ 80.91917, 21.65852 ], [ 80.91981, 21.65405 ], [ 80.91732, 21.65417 ], [ 80.91541, 21.65254 ], [ 80.91815, 21.64725 ], [ 80.9177, 21.64618 ], [ 80.91686, 21.64615 ], [ 80.91681, 21.64508 ], [ 80.91499, 21.64463 ], [ 80.91392, 21.64283 ], [ 80.91226, 21.6437 ], [ 80.91205, 21.64234 ], [ 80.91343, 21.64153 ], [ 80.91343, 21.64011 ], [ 80.91001, 21.63787 ], [ 80.90792, 21.63363 ], [ 80.90537, 21.63062 ], [ 80.9056, 21.62632 ], [ 80.90754, 21.62659 ], [ 80.90776, 21.62565 ], [ 80.9072, 21.61844 ], [ 80.9019, 21.61531 ], [ 80.90181, 21.61347 ], [ 80.9041, 21.6124 ], [ 80.90409, 21.60962 ], [ 80.90142, 21.60988 ], [ 80.90153, 21.61115 ], [ 80.90024, 21.61109 ], [ 80.90016, 21.61006 ], [ 80.89748, 21.6091 ], [ 80.89333, 21.59343 ], [ 80.89006, 21.58889 ], [ 80.88618, 21.57854 ], [ 80.88609, 21.5779 ], [ 80.88822, 21.57756 ], [ 80.88841, 21.57849 ], [ 80.89082, 21.57816 ], [ 80.89109, 21.57915 ], [ 80.89363, 21.57881 ], [ 80.89323, 21.57763 ], [ 80.89442, 21.57486 ], [ 80.89217, 21.57256 ], [ 80.89136, 21.57016 ], [ 80.89032, 21.57002 ], [ 80.89046, 21.56868 ], [ 80.88735, 21.56661 ], [ 80.88743, 21.565 ], [ 80.89243, 21.56442 ], [ 80.8926, 21.56265 ], [ 80.89131, 21.56219 ], [ 80.89135, 21.56142 ], [ 80.88305, 21.55826 ], [ 80.83965, 21.55772 ], [ 80.82296, 21.55489 ], [ 80.81179, 21.55533 ], [ 80.80272, 21.55687 ], [ 80.80137, 21.55784 ], [ 80.80084, 21.55667 ], [ 80.79849, 21.55675 ], [ 80.79854, 21.55832 ], [ 80.79654, 21.55984 ], [ 80.79829, 21.56178 ], [ 80.79784, 21.56295 ], [ 80.78759, 21.56409 ], [ 80.78549, 21.5632 ], [ 80.78241, 21.56554 ], [ 80.77119, 21.56413 ], [ 80.77162, 21.55937 ], [ 80.77002, 21.55395 ], [ 80.76095, 21.54847 ], [ 80.75857, 21.54355 ], [ 80.75752, 21.5401 ], [ 80.75757, 21.5355 ], [ 80.75927, 21.53085 ], [ 80.75296, 21.53504 ], [ 80.74078, 21.53923 ], [ 80.73484, 21.54527 ], [ 80.72763, 21.54869 ], [ 80.72455, 21.55267 ], [ 80.7225, 21.55293 ], [ 80.71981, 21.55553 ], [ 80.72226, 21.55938 ], [ 80.72117, 21.56122 ], [ 80.72407, 21.5633 ], [ 80.72598, 21.56635 ], [ 80.72571, 21.56911 ], [ 80.72867, 21.56995 ], [ 80.72891, 21.57258 ], [ 80.72613, 21.57717 ], [ 80.7255, 21.58009 ], [ 80.72072, 21.58318 ], [ 80.71544, 21.58451 ], [ 80.71552, 21.58529 ], [ 80.71861, 21.58743 ], [ 80.71543, 21.5903 ], [ 80.71712, 21.59104 ], [ 80.71808, 21.5932 ], [ 80.71809, 21.59508 ], [ 80.71637, 21.59907 ], [ 80.71867, 21.59925 ], [ 80.71879, 21.60037 ], [ 80.71705, 21.60297 ], [ 80.72079, 21.60657 ], [ 80.72118, 21.60892 ], [ 80.72498, 21.60955 ], [ 80.72498, 21.61038 ], [ 80.72297, 21.61203 ], [ 80.72303, 21.61365 ], [ 80.73077, 21.6169 ], [ 80.72905, 21.61879 ], [ 80.7291, 21.62056 ], [ 80.73164, 21.62605 ], [ 80.73135, 21.62669 ], [ 80.72901, 21.62686 ], [ 80.72958, 21.63403 ], [ 80.72764, 21.63666 ], [ 80.72832, 21.64 ], [ 80.72707, 21.64235 ], [ 80.72685, 21.64562 ], [ 80.72501, 21.64465 ], [ 80.72109, 21.64453 ], [ 80.71928, 21.64537 ], [ 80.71812, 21.65115 ], [ 80.7182, 21.655 ], [ 80.7166, 21.65721 ], [ 80.71708, 21.66008 ], [ 80.71437, 21.66192 ], [ 80.7163, 21.66327 ], [ 80.71526, 21.66578 ], [ 80.71801, 21.66619 ], [ 80.71918, 21.66849 ], [ 80.71892, 21.67014 ], [ 80.71592, 21.6732 ], [ 80.71598, 21.67473 ], [ 80.72145, 21.677 ], [ 80.72289, 21.68 ], [ 80.72531, 21.68128 ], [ 80.72978, 21.69206 ], [ 80.731, 21.69303 ], [ 80.733, 21.69266 ], [ 80.73414, 21.69451 ], [ 80.73233, 21.69816 ], [ 80.73299, 21.70075 ], [ 80.73542, 21.70273 ], [ 80.73397, 21.70594 ], [ 80.73015, 21.70602 ], [ 80.72902, 21.70692 ], [ 80.72568, 21.71213 ], [ 80.72672, 21.71425 ], [ 80.73206, 21.71366 ], [ 80.734, 21.72053 ], [ 80.73338, 21.72777 ], [ 80.73514, 21.7297 ], [ 80.73986, 21.732 ], [ 80.73973, 21.73307 ], [ 80.73798, 21.73436 ], [ 80.73781, 21.73626 ], [ 80.74034, 21.74413 ], [ 80.74747, 21.75554 ], [ 80.75599, 21.76206 ], [ 80.75938, 21.75918 ], [ 80.76443, 21.75824 ], [ 80.76651, 21.75963 ], [ 80.76863, 21.75853 ], [ 80.77203, 21.75852 ], [ 80.77792, 21.75477 ], [ 80.77627, 21.75363 ], [ 80.77963, 21.7507 ], [ 80.78585, 21.74876 ], [ 80.78446, 21.74287 ], [ 80.78543, 21.74031 ], [ 80.79265, 21.7414 ], [ 80.80326, 21.74447 ], [ 80.80451, 21.74662 ], [ 80.80926, 21.74843 ], [ 80.81974, 21.74802 ], [ 80.82013, 21.75093 ], [ 80.81947, 21.75152 ], [ 80.82017, 21.75402 ], [ 80.81828, 21.75361 ], [ 80.8172, 21.7549 ], [ 80.81661, 21.75399 ], [ 80.81563, 21.75573 ], [ 80.81676, 21.75805 ], [ 80.81712, 21.76213 ], [ 80.81896, 21.76419 ], [ 80.81864, 21.76561 ], [ 80.822, 21.76602 ], [ 80.82278, 21.76795 ], [ 80.82133, 21.768 ], [ 80.82458, 21.77045 ], [ 80.82263, 21.7714 ], [ 80.82406, 21.77218 ], [ 80.82274, 21.77289 ], [ 80.82358, 21.77499 ], [ 80.82465, 21.77485 ], [ 80.82686, 21.77681 ], [ 80.82821, 21.77621 ], [ 80.82867, 21.77742 ], [ 80.82709, 21.77863 ], [ 80.82896, 21.77884 ], [ 80.82954, 21.77994 ], [ 80.82888, 21.78034 ], [ 80.82841, 21.7797 ], [ 80.82797, 21.78079 ], [ 80.8262, 21.78159 ], [ 80.82618, 21.78298 ], [ 80.82647, 21.78391 ], [ 80.82725, 21.78371 ], [ 80.82731, 21.78495 ], [ 80.83022, 21.78678 ], [ 80.82984, 21.78916 ], [ 80.83181, 21.78946 ], [ 80.83103, 21.79126 ], [ 80.83205, 21.7942 ], [ 80.83389, 21.79604 ], [ 80.83663, 21.7961 ], [ 80.83567, 21.79717 ], [ 80.84015, 21.80204 ], [ 80.83862, 21.80231 ], [ 80.8395, 21.80324 ], [ 80.83869, 21.80327 ], [ 80.83908, 21.80407 ], [ 80.83811, 21.80395 ], [ 80.83874, 21.80478 ], [ 80.83809, 21.80531 ], [ 80.83954, 21.80602 ], [ 80.83844, 21.80641 ], [ 80.83956, 21.80721 ], [ 80.83751, 21.80945 ], [ 80.83974, 21.81092 ], [ 80.83927, 21.81165 ], [ 80.84037, 21.8124 ], [ 80.83907, 21.81348 ], [ 80.84073, 21.81391 ], [ 80.84143, 21.81539 ], [ 80.84048, 21.81576 ], [ 80.84122, 21.81772 ], [ 80.84039, 21.81823 ], [ 80.84285, 21.82156 ], [ 80.84261, 21.8241 ], [ 80.84517, 21.82871 ], [ 80.84441, 21.83086 ], [ 80.84629, 21.83289 ], [ 80.846, 21.83537 ] ] ] ] } },
{ "type": "Feature", "properties": { "OBJECTID": 1320, "state_lgd": "22", "state_name": "CHHATTISGARH", "district_lgd": "755", "district_name": "KHAIRGARH-CHHUIKHADAN-GANDAI", "district_name_source": "district_table", "subdistrict_lgd": "3303", "subdistrict_name": "KHAIRAGARH", "subdistrict_type": "Tehsil", "name_corrupted": false, "remarks": "", "label_lon": 80.944846420492922, "label_lat": 21.395777157853828 }, "geometry": { "type": "Polygon", "coordinates": [ [ [ 80.97294, 21.52085 ], [ 80.9735, 21.51932 ], [ 80.97767, 21.51644 ], [ 80.97772, 21.5145 ], [ 80.99609, 21.50736 ], [ 81.0009, 21.50309 ], [ 81.00297, 21.49879 ], [ 81.00547, 21.49815 ], [ 81.00793, 21.49887 ], [ 81.00889, 21.49826 ], [ 81.01236, 21.4999 ], [ 81.01541, 21.50329 ], [ 81.01835, 21.5012 ], [ 81.02131, 21.50078 ], [ 81.02796, 21.50175 ], [ 81.03123, 21.50109 ], [ 81.03325, 21.50412 ], [ 81.04193, 21.5023 ], [ 81.04282, 21.5028 ], [ 81.04204, 21.5043 ], [ 81.04231, 21.50655 ], [ 81.04336, 21.50606 ], [ 81.04454, 21.50207 ], [ 81.04808, 21.50115 ], [ 81.04672, 21.49857 ], [ 81.04867, 21.49742 ], [ 81.04713, 21.49267 ], [ 81.04166, 21.48561 ], [ 81.04643, 21.48508 ], [ 81.04801, 21.48512 ], [ 81.05034, 21.49098 ], [ 81.05516, 21.49108 ], [ 81.06697, 21.48915 ], [ 81.06976, 21.49837 ], [ 81.07807, 21.49752 ], [ 81.07897, 21.496 ], [ 81.08341, 21.49492 ], [ 81.08371, 21.49309 ], [ 81.09004, 21.49323 ], [ 81.09028, 21.49411 ], [ 81.09767, 21.49481 ], [ 81.09795, 21.5007 ], [ 81.09636, 21.50476 ], [ 81.09811, 21.50535 ], [ 81.09794, 21.50638 ], [ 81.1005, 21.50761 ], [ 81.10084, 21.51168 ], [ 81.10205, 21.51122 ], [ 81.10406, 21.51205 ], [ 81.10738, 21.50775 ], [ 81.11055, 21.50688 ], [ 81.11004, 21.51023 ], [ 81.11149, 21.51195 ], [ 81.12155, 21.51643 ], [ 81.13044, 21.50923 ], [ 81.13324, 21.50891 ], [ 81.13107, 21.5026 ], [ 81.13623, 21.49956 ], [ 81.1351, 21.49868 ], [ 81.13457, 21.4959 ], [ 81.1384, 21.49406 ], [ 81.13701, 21.4911 ], [ 81.13975, 21.49018 ], [ 81.14155, 21.49477 ], [ 81.1454, 21.49705 ], [ 81.15144, 21.49636 ], [ 81.15155, 21.49553 ], [ 81.15371, 21.49582 ], [ 81.15502, 21.49499 ], [ 81.15922, 21.49546 ], [ 81.15897, 21.49257 ], [ 81.1601, 21.49101 ], [ 81.15879, 21.48849 ], [ 81.15898, 21.48675 ], [ 81.16384, 21.4835 ], [ 81.16832, 21.48487 ], [ 81.171, 21.48483 ], [ 81.18166, 21.48238 ], [ 81.18019, 21.471 ], [ 81.17744, 21.46852 ], [ 81.17663, 21.46038 ], [ 81.17834, 21.45973 ], [ 81.17834, 21.45713 ], [ 81.17978, 21.45679 ], [ 81.17909, 21.44807 ], [ 81.17834, 21.44807 ], [ 81.17657, 21.44393 ], [ 81.17443, 21.44254 ], [ 81.17177, 21.43757 ], [ 81.17214, 21.43507 ], [ 81.17111, 21.43401 ], [ 81.17232, 21.43195 ], [ 81.17171, 21.43056 ], [ 81.17334, 21.42981 ], [ 81.17355, 21.42692 ], [ 81.17706, 21.42401 ], [ 81.17653, 21.41924 ], [ 81.17725, 21.41677 ], [ 81.17704, 21.41337 ], [ 81.17942, 21.41088 ], [ 81.18165, 21.41069 ], [ 81.18392, 21.40929 ], [ 81.18458, 21.40766 ], [ 81.1837, 21.40602 ], [ 81.184, 21.40328 ], [ 81.18313, 21.402 ], [ 81.18067, 21.40144 ], [ 81.17693, 21.40271 ], [ 81.17516, 21.4013 ], [ 81.17545, 21.39974 ], [ 81.17765, 21.39982 ], [ 81.17771, 21.39712 ], [ 81.17955, 21.39679 ], [ 81.18, 21.39579 ], [ 81.18757, 21.3962 ], [ 81.1907, 21.39273 ], [ 81.19165, 21.39058 ], [ 81.19314, 21.38458 ], [ 81.19461, 21.36996 ], [ 81.19266, 21.36378 ], [ 81.19132, 21.36264 ], [ 81.18797, 21.36049 ], [ 81.17971, 21.36286 ], [ 81.1679, 21.36391 ], [ 81.16646, 21.36084 ], [ 81.15356, 21.36085 ], [ 81.15053, 21.35622 ], [ 81.14675, 21.35458 ], [ 81.14089, 21.3556 ], [ 81.14038, 21.35337 ], [ 81.13596, 21.35385 ], [ 81.13522, 21.35458 ], [ 81.12341, 21.35547 ], [ 81.12256, 21.35049 ], [ 81.1198, 21.35036 ], [ 81.11857, 21.34896 ], [ 81.11799, 21.34966 ], [ 81.11401, 21.34925 ], [ 81.11347, 21.34861 ], [ 81.10454, 21.35241 ], [ 81.10367, 21.35442 ], [ 81.1043, 21.3569 ], [ 81.10328, 21.35969 ], [ 81.10251, 21.36727 ], [ 81.09731, 21.36403 ], [ 81.09449, 21.36033 ], [ 81.09287, 21.36016 ], [ 81.09013, 21.35773 ], [ 81.08935, 21.35829 ], [ 81.08846, 21.35724 ], [ 81.0866, 21.35703 ], [ 81.08626, 21.35835 ], [ 81.08411, 21.35743 ], [ 81.08345, 21.35576 ], [ 81.08078, 21.35504 ], [ 81.0794, 21.3528 ], [ 81.07287, 21.35318 ], [ 81.07276, 21.35197 ], [ 81.07167, 21.35153 ], [ 81.06261, 21.35756 ], [ 81.06253, 21.35898 ], [ 81.06, 21.35839 ], [ 81.05384, 21.35936 ], [ 81.05132, 21.36067 ], [ 81.04551, 21.36115 ], [ 81.03758, 21.3636 ], [ 81.03815, 21.36973 ], [ 81.02582, 21.36964 ], [ 81.02556, 21.37032 ], [ 81.01864, 21.37185 ], [ 81.01814, 21.36711 ], [ 81.01722, 21.36617 ], [ 81.01722, 21.36302 ], [ 81.0156, 21.36254 ], [ 81.01622, 21.35501 ], [ 81.01892, 21.35474 ], [ 81.01878, 21.35318 ], [ 81.01946, 21.35278 ], [ 81.01553, 21.34468 ], [ 81.01522, 21.34191 ], [ 81.01945, 21.33543 ], [ 81.01934, 21.333 ], [ 81.01321, 21.33176 ], [ 81.00625, 21.33283 ], [ 81.00479, 21.33106 ], [ 80.99656, 21.32776 ], [ 80.99212, 21.3231 ], [ 80.98086, 21.32421 ], [ 80.98105, 21.32003 ], [ 80.97921, 21.31133 ], [ 80.97832, 21.31128 ], [ 80.97477, 21.30298 ], [ 80.97578, 21.29841 ], [ 80.97567, 21.29328 ], [ 80.97828, 21.28807 ], [ 80.97829, 21.28608 ], [ 80.98048, 21.28619 ], [ 80.9849, 21.28475 ], [ 80.98716, 21.28187 ], [ 80.99013, 21.28142 ], [ 80.99296, 21.27985 ], [ 80.99392, 21.27991 ], [ 80.99397, 21.28153 ], [ 80.99635, 21.28141 ], [ 80.9973, 21.28225 ], [ 81.00136, 21.28098 ], [ 81.00678, 21.28353 ], [ 81.00966, 21.2859 ], [ 81.01331, 21.28548 ], [ 81.01621, 21.2865 ], [ 81.01823, 21.28876 ], [ 81.01916, 21.28634 ], [ 81.02213, 21.28258 ], [ 81.02331, 21.27893 ], [ 81.03232, 21.27974 ], [ 81.04084, 21.28151 ], [ 81.04705, 21.2776 ], [ 81.05328, 21.27642 ], [ 81.052, 21.27161 ], [ 81.05196, 21.26666 ], [ 81.0561, 21.26625 ], [ 81.05842, 21.26423 ], [ 81.06574, 21.2638 ], [ 81.07247, 21.26227 ], [ 81.07275, 21.25959 ], [ 81.07059, 21.25955 ], [ 81.07059, 21.25666 ], [ 81.06938, 21.25528 ], [ 81.06809, 21.2553 ], [ 81.06642, 21.24956 ], [ 81.06016, 21.24933 ], [ 81.05751, 21.24639 ], [ 81.05699, 21.2436 ], [ 81.05433, 21.23906 ], [ 81.04423, 21.22791 ], [ 81.03879, 21.23203 ], [ 81.03368, 21.23826 ], [ 81.0284, 21.24112 ], [ 81.02396, 21.24463 ], [ 81.01936, 21.24276 ], [ 81.0156, 21.23839 ], [ 81.01555, 21.23659 ], [ 81.01311, 21.23331 ], [ 81.01289, 21.23057 ], [ 81.01094, 21.22817 ], [ 81.01008, 21.22529 ], [ 81.00317, 21.22333 ], [ 80.98954, 21.223 ], [ 80.98822, 21.22463 ], [ 80.98705, 21.22854 ], [ 80.98518, 21.22991 ], [ 80.98385, 21.2327 ], [ 80.98331, 21.23724 ], [ 80.97989, 21.23539 ], [ 80.97583, 21.23805 ], [ 80.97523, 21.23677 ], [ 80.97404, 21.23667 ], [ 80.97317, 21.23438 ], [ 80.97014, 21.23726 ], [ 80.95486, 21.23872 ], [ 80.95009, 21.2365 ], [ 80.94409, 21.23623 ], [ 80.94015, 21.23269 ], [ 80.93997, 21.23518 ], [ 80.93805, 21.23742 ], [ 80.93845, 21.23934 ], [ 80.93786, 21.23998 ], [ 80.94096, 21.2465 ], [ 80.93316, 21.24442 ], [ 80.92182, 21.24683 ], [ 80.92063, 21.25071 ], [ 80.92075, 21.25346 ], [ 80.91579, 21.25679 ], [ 80.90764, 21.2558 ], [ 80.90212, 21.25853 ], [ 80.88446, 21.26357 ], [ 80.8828, 21.26321 ], [ 80.87835, 21.25998 ], [ 80.87266, 21.25807 ], [ 80.8697, 21.25866 ], [ 80.86837, 21.25774 ], [ 80.86704, 21.25818 ], [ 80.86669, 21.25957 ], [ 80.86537, 21.25943 ], [ 80.86544, 21.26264 ], [ 80.86373, 21.26357 ], [ 80.86454, 21.26359 ], [ 80.86468, 21.26608 ], [ 80.863, 21.26833 ], [ 80.86022, 21.26943 ], [ 80.8594, 21.2722 ], [ 80.85827, 21.27306 ], [ 80.85804, 21.27648 ], [ 80.85543, 21.28048 ], [ 80.85232, 21.28284 ], [ 80.85109, 21.28777 ], [ 80.85461, 21.28992 ], [ 80.85353, 21.29511 ], [ 80.85115, 21.2953 ], [ 80.85002, 21.30007 ], [ 80.85202, 21.30145 ], [ 80.85002, 21.30326 ], [ 80.85366, 21.30603 ], [ 80.85161, 21.3115 ], [ 80.85321, 21.31484 ], [ 80.85031, 21.32009 ], [ 80.85203, 21.32969 ], [ 80.85186, 21.33311 ], [ 80.84974, 21.33833 ], [ 80.84144, 21.34783 ], [ 80.83862, 21.35751 ], [ 80.8366, 21.35921 ], [ 80.83559, 21.36128 ], [ 80.82767, 21.36586 ], [ 80.8252, 21.36854 ], [ 80.82348, 21.36717 ], [ 80.82202, 21.36388 ], [ 80.82171, 21.35945 ], [ 80.82096, 21.35865 ], [ 80.81464, 21.35981 ], [ 80.81278, 21.36164 ], [ 80.80785, 21.35979 ], [ 80.79522, 21.35898 ], [ 80.79321, 21.35955 ], [ 80.79393, 21.36097 ], [ 80.79327, 21.36126 ], [ 80.78546, 21.35716 ], [ 80.77903, 21.3557 ], [ 80.77689, 21.35197 ], [ 80.7722, 21.35134 ], [ 80.77071, 21.34836 ], [ 80.76022, 21.34404 ], [ 80.75527, 21.33608 ], [ 80.75499, 21.33336 ], [ 80.75339, 21.33213 ], [ 80.74875, 21.33111 ], [ 80.74477, 21.33419 ], [ 80.74117, 21.33429 ], [ 80.73919, 21.33542 ], [ 80.73325, 21.33539 ], [ 80.73359, 21.34033 ], [ 80.73074, 21.34063 ], [ 80.72294, 21.33857 ], [ 80.71813, 21.34254 ], [ 80.7107, 21.3422 ], [ 80.70268, 21.34032 ], [ 80.70177, 21.34096 ], [ 80.69967, 21.34069 ], [ 80.69637, 21.33905 ], [ 80.69178, 21.33912 ], [ 80.68737, 21.33611 ], [ 80.68557, 21.33733 ], [ 80.68134, 21.33767 ], [ 80.6782, 21.33933 ], [ 80.67498, 21.33956 ], [ 80.67124, 21.33835 ], [ 80.67242, 21.34096 ], [ 80.67128, 21.34519 ], [ 80.67235, 21.34652 ], [ 80.67755, 21.34843 ], [ 80.67776, 21.34934 ], [ 80.67648, 21.35102 ], [ 80.67929, 21.35385 ], [ 80.67922, 21.35666 ], [ 80.68188, 21.35995 ], [ 80.6802, 21.36486 ], [ 80.68493, 21.37015 ], [ 80.68739, 21.36996 ], [ 80.69029, 21.37207 ], [ 80.69473, 21.38025 ], [ 80.69537, 21.38493 ], [ 80.69911, 21.39094 ], [ 80.69866, 21.39243 ], [ 80.69716, 21.39343 ], [ 80.69829, 21.39535 ], [ 80.70055, 21.3966 ], [ 80.70109, 21.40063 ], [ 80.69993, 21.40458 ], [ 80.70382, 21.40767 ], [ 80.70687, 21.41279 ], [ 80.70719, 21.42545 ], [ 80.70574, 21.43088 ], [ 80.70682, 21.43307 ], [ 80.71429, 21.43619 ], [ 80.7244, 21.44518 ], [ 80.72602, 21.44862 ], [ 80.73001, 21.45256 ], [ 80.73493, 21.45991 ], [ 80.73775, 21.47309 ], [ 80.74095, 21.47323 ], [ 80.74394, 21.47561 ], [ 80.74841, 21.47595 ], [ 80.75824, 21.47986 ], [ 80.76196, 21.48287 ], [ 80.7657, 21.48376 ], [ 80.76976, 21.48223 ], [ 80.77392, 21.47914 ], [ 80.77546, 21.48584 ], [ 80.777, 21.48858 ], [ 80.7773, 21.50161 ], [ 80.77962, 21.5048 ], [ 80.78261, 21.50702 ], [ 80.78539, 21.50741 ], [ 80.78695, 21.50678 ], [ 80.78865, 21.50175 ], [ 80.79418, 21.49359 ], [ 80.79851, 21.49244 ], [ 80.79891, 21.48839 ], [ 80.80829, 21.48569 ], [ 80.8201, 21.48427 ], [ 80.82403, 21.48143 ], [ 80.82392, 21.48061 ], [ 80.82565, 21.48022 ], [ 80.83063, 21.48157 ], [ 80.83388, 21.48407 ], [ 80.83676, 21.48494 ], [ 80.84463, 21.48576 ], [ 80.85524, 21.48508 ], [ 80.85852, 21.49019 ], [ 80.86069, 21.4887 ], [ 80.86621, 21.48762 ], [ 80.86917, 21.48576 ], [ 80.87323, 21.48512 ], [ 80.87328, 21.48623 ], [ 80.87837, 21.49201 ], [ 80.87967, 21.49019 ], [ 80.88535, 21.4908 ], [ 80.88571, 21.49288 ], [ 80.89509, 21.49091 ], [ 80.90371, 21.49471 ], [ 80.90896, 21.50069 ], [ 80.91132, 21.50209 ], [ 80.91441, 21.50219 ], [ 80.91957, 21.50712 ], [ 80.92822, 21.50447 ], [ 80.93031, 21.49921 ], [ 80.93971, 21.49929 ], [ 80.94179, 21.50428 ], [ 80.93962, 21.50624 ], [ 80.93991, 21.51027 ], [ 80.94054, 21.5108 ], [ 80.94238, 21.51153 ], [ 80.9491, 21.51056 ], [ 80.95358, 21.51146 ], [ 80.95423, 21.51351 ], [ 80.95728, 21.51339 ], [ 80.95834, 21.51694 ], [ 80.95948, 21.51692 ], [ 80.96046, 21.52061 ], [ 80.965, 21.52019 ], [ 80.96525, 21.52125 ], [ 80.96897, 21.52107 ], [ 80.97083, 21.52251 ], [ 80.97294, 21.52085 ] ], [ [ 80.92348, 21.49813 ], [ 80.92047, 21.4977 ], [ 80.91477, 21.49344 ], [ 80.91413, 21.49477 ], [ 80.91312, 21.49473 ], [ 80.91245, 21.49361 ], [ 80.91029, 21.49318 ], [ 80.90806, 21.49136 ], [ 80.90863, 21.4881 ], [ 80.91058, 21.48791 ], [ 80.91226, 21.48916 ], [ 80.91668, 21.4897 ], [ 80.91982, 21.49338 ], [ 80.92236, 21.49361 ], [ 80.92295, 21.49623 ], [ 80.92413, 21.49749 ], [ 80.92348, 21.49813 ] ] ] } },
{ "type": "Feature", "properties": { "OBJECTID": 1504, "state_lgd": "22", "state_name": "CHHATTISGARH", "district_lgd": "755", "district_name": "KHAIRGARH-CHHUIKHADAN-GANDAI", "district_name_source": "district_table", "subdistrict_lgd": "3302", "subdistrict_name": "CHHUIKHADAN", "subdistrict_type": "Tehsil", "name_corrupted": false, "remarks": "", "label_lon": 80.974598058444727, "label_lat": 21.552664752602247 }, "geometry": { "type": "Polygon", "coordinates": [ [ [ 81.1751, 21.62326 ], [ 81.17648, 21.62106 ], [ 81.17682, 21.6177 ], [ 81.17886, 21.61691 ], [ 81.17823, 21.61541 ], [ 81.18051, 21.61497 ], [ 81.17882, 21.61137 ], [ 81.17631, 21.60144 ], [ 81.1778, 21.60045 ], [ 81.17688, 21.5972 ], [ 81.17413, 21.59744 ], [ 81.17267, 21.59653 ], [ 81.17074, 21.59763 ], [ 81.17005, 21.5954 ], [ 81.16821, 21.59454 ], [ 81.16804, 21.59357 ], [ 81.16723, 21.59387 ], [ 81.16557, 21.59128 ], [ 81.16255, 21.59141 ], [ 81.15766, 21.59007 ], [ 81.15582, 21.58632 ], [ 81.1534, 21.58396 ], [ 81.153, 21.5821 ], [ 81.15095, 21.58017 ], [ 81.15035, 21.57492 ], [ 81.14716, 21.57278 ], [ 81.1455, 21.56749 ], [ 81.14559, 21.56453 ], [ 81.14472, 21.56452 ], [ 81.14217, 21.55768 ], [ 81.13987, 21.55857 ], [ 81.13882, 21.5542 ], [ 81.14019, 21.55383 ], [ 81.13977, 21.55153 ], [ 81.14068, 21.55141 ], [ 81.14044, 21.54938 ], [ 81.14404, 21.54821 ], [ 81.14522, 21.55007 ], [ 81.14688, 21.55058 ], [ 81.1514, 21.55033 ], [ 81.15145, 21.54931 ], [ 81.15565, 21.54829 ], [ 81.15556, 21.54735 ], [ 81.15752, 21.54624 ], [ 81.15463, 21.53893 ], [ 81.15488, 21.53802 ], [ 81.15632, 21.53538 ], [ 81.15606, 21.53422 ], [ 81.15961, 21.5324 ], [ 81.15944, 21.53 ], [ 81.16352, 21.52643 ], [ 81.16749, 21.52614 ], [ 81.16702, 21.52542 ], [ 81.1682, 21.5251 ], [ 81.16781, 21.52431 ], [ 81.16984, 21.52444 ], [ 81.17031, 21.52362 ], [ 81.179, 21.5253 ], [ 81.17794, 21.52368 ], [ 81.18678, 21.52082 ], [ 81.18681, 21.52013 ], [ 81.19542, 21.51818 ], [ 81.19424, 21.51242 ], [ 81.19299, 21.51047 ], [ 81.19296, 21.50815 ], [ 81.18902, 21.50069 ], [ 81.1878, 21.49626 ], [ 81.17867, 21.4965 ], [ 81.16796, 21.5011 ], [ 81.16283, 21.50124 ], [ 81.16057, 21.50192 ], [ 81.16063, 21.50293 ], [ 81.15795, 21.50315 ], [ 81.15767, 21.49714 ], [ 81.15845, 21.49543 ], [ 81.15502, 21.49499 ], [ 81.15371, 21.49582 ], [ 81.15155, 21.49553 ], [ 81.15144, 21.49636 ], [ 81.1454, 21.49705 ], [ 81.14155, 21.49477 ], [ 81.13975, 21.49018 ], [ 81.13701, 21.4911 ], [ 81.1384, 21.49406 ], [ 81.13457, 21.4959 ], [ 81.1351, 21.49868 ], [ 81.13623, 21.49956 ], [ 81.13107, 21.5026 ], [ 81.13324, 21.50891 ], [ 81.13044, 21.50923 ], [ 81.12155, 21.51643 ], [ 81.11149, 21.51195 ], [ 81.11004, 21.51023 ], [ 81.11055, 21.50688 ], [ 81.10738, 21.50775 ], [ 81.10406, 21.51205 ], [ 81.10205, 21.51122 ], [ 81.10084, 21.51168 ], [ 81.1005, 21.50761 ], [ 81.09794, 21.50638 ], [ 81.09811, 21.50535 ], [ 81.09636, 21.50476 ], [ 81.09795, 21.5007 ], [ 81.09767, 21.49481 ], [ 81.09028, 21.49411 ], [ 81.09004, 21.49323 ], [ 81.08371, 21.49309 ], [ 81.08341, 21.49492 ], [ 81.07897, 21.496 ], [ 81.07807, 21.49752 ], [ 81.06976, 21.49837 ], [ 81.06697, 21.48915 ], [ 81.05516, 21.49108 ], [ 81.05034, 21.49098 ], [ 81.04801, 21.48512 ], [ 81.04273, 21.48528 ], [ 81.04166, 21.48561 ], [ 81.04713, 21.49267 ], [ 81.04867, 21.49742 ], [ 81.04672, 21.49857 ], [ 81.04808, 21.50115 ], [ 81.04454, 21.50207 ], [ 81.04336, 21.50606 ], [ 81.04231, 21.50655 ], [ 81.04204, 21.5043 ], [ 81.04282, 21.5028 ], [ 81.04193, 21.5023 ], [ 81.03325, 21.50412 ], [ 81.03123, 21.50109 ], [ 81.02796, 21.50175 ], [ 81.02131, 21.50078 ], [ 81.01835, 21.5012 ], [ 81.01541, 21.50329 ], [ 81.01236, 21.4999 ], [ 81.00889, 21.49826 ], [ 81.00793, 21.49887 ], [ 81.00511, 21.49823 ], [ 81.00278, 21.49898 ], [ 81.0009, 21.50309 ], [ 80.99609, 21.50736 ], [ 80.97772, 21.5145 ], [ 80.97767, 21.51644 ], [ 80.9735, 21.51932 ], [ 80.97253, 21.52148 ], [ 80.97083, 21.52251 ], [ 80.96897, 21.52107 ], [ 80.96525, 21.52125 ], [ 80.965, 21.52019 ], [ 80.96046, 21.52061 ], [ 80.95948, 21.51692 ], [ 80.95834, 21.51694 ], [ 80.95728, 21.51339 ], [ 80.95423, 21.51351 ], [ 80.95358, 21.51146 ], [ 80.9491, 21.51056 ], [ 80.94238, 21.51153 ], [ 80.94054, 21.5108 ], [ 80.93991, 21.51027 ], [ 80.93962, 21.50624 ], [ 80.94179, 21.50428 ], [ 80.93971, 21.49929 ], [ 80.93031, 21.49921 ], [ 80.92822, 21.50447 ], [ 80.91957, 21.50712 ], [ 80.91441, 21.50219 ], [ 80.91132, 21.50209 ], [ 80.90896, 21.50069 ], [ 80.90652, 21.4973 ], [ 80.90257, 21.494 ], [ 80.89509, 21.49091 ], [ 80.88571, 21.49288 ], [ 80.88535, 21.4908 ], [ 80.87967, 21.49019 ], [ 80.87837, 21.49201 ], [ 80.87328, 21.48623 ], [ 80.87323, 21.48512 ], [ 80.86917, 21.48576 ], [ 80.86621, 21.48762 ], [ 80.86069, 21.4887 ], [ 80.85852, 21.49019 ], [ 80.85524, 21.48508 ], [ 80.84463, 21.48576 ], [ 80.83676, 21.48494 ], [ 80.83388, 21.48407 ], [ 80.83063, 21.48157 ], [ 80.82435, 21.48031 ], [ 80.82403, 21.48143 ], [ 80.8201, 21.48427 ], [ 80.80829, 21.48569 ], [ 80.79891, 21.48839 ], [ 80.79851, 21.49244 ], [ 80.79418, 21.49359 ], [ 80.78865, 21.50175 ], [ 80.78695, 21.50678 ], [ 80.78334, 21.50735 ], [ 80.77962, 21.5048 ], [ 80.7773, 21.50161 ], [ 80.777, 21.48858 ], [ 80.77546, 21.48584 ], [ 80.77392, 21.47914 ], [ 80.76976, 21.48223 ], [ 80.7657, 21.48376 ], [ 80.76196, 21.48287 ], [ 80.75824, 21.47986 ], [ 80.74841, 21.47595 ], [ 80.74394, 21.47561 ], [ 80.74095, 21.47323 ], [ 80.73775, 21.47309 ], [ 80.73716, 21.48098 ], [ 80.73289, 21.48434 ], [ 80.72906, 21.49475 ], [ 80.7276, 21.4962 ], [ 80.72929, 21.49896 ], [ 80.73321, 21.50067 ], [ 80.73272, 21.50383 ], [ 80.73145, 21.50558 ], [ 80.7315, 21.50818 ], [ 80.73365, 21.51279 ], [ 80.73048, 21.5156 ], [ 80.73156, 21.51802 ], [ 80.73136, 21.51979 ], [ 80.74078, 21.53923 ], [ 80.75296, 21.53504 ], [ 80.75927, 21.53085 ], [ 80.75757, 21.5355 ], [ 80.75752, 21.5401 ], [ 80.75857, 21.54355 ], [ 80.76095, 21.54847 ], [ 80.77002, 21.55395 ], [ 80.77162, 21.55937 ], [ 80.77119, 21.56413 ], [ 80.78241, 21.56554 ], [ 80.78549, 21.5632 ], [ 80.78759, 21.56409 ], [ 80.79784, 21.56295 ], [ 80.79829, 21.56178 ], [ 80.79654, 21.55984 ], [ 80.79854, 21.55832 ], [ 80.79849, 21.55675 ], [ 80.80084, 21.55667 ], [ 80.80137, 21.55784 ], [ 80.80272, 21.55687 ], [ 80.81179, 21.55533 ], [ 80.82296, 21.55489 ], [ 80.83965, 21.55772 ], [ 80.88305, 21.55826 ], [ 80.89135, 21.56142 ], [ 80.89131, 21.56219 ], [ 80.8926, 21.56265 ], [ 80.89243, 21.56442 ], [ 80.88743, 21.565 ], [ 80.88735, 21.56661 ], [ 80.89046, 21.56868 ], [ 80.89032, 21.57002 ], [ 80.89136, 21.57016 ], [ 80.89217, 21.57256 ], [ 80.89442, 21.57486 ], [ 80.89323, 21.57763 ], [ 80.89363, 21.57881 ], [ 80.89109, 21.57915 ], [ 80.89082, 21.57816 ], [ 80.88841, 21.57849 ], [ 80.88822, 21.57756 ], [ 80.88609, 21.5779 ], [ 80.88618, 21.57854 ], [ 80.89006, 21.58889 ], [ 80.89333, 21.59343 ], [ 80.89748, 21.6091 ], [ 80.90016, 21.61006 ], [ 80.90024, 21.61109 ], [ 80.90153, 21.61115 ], [ 80.90142, 21.60988 ], [ 80.90409, 21.60962 ], [ 80.9041, 21.6124 ], [ 80.90181, 21.61347 ], [ 80.9019, 21.61531 ], [ 80.9072, 21.61844 ], [ 80.90776, 21.62565 ], [ 80.90754, 21.62659 ], [ 80.9056, 21.62632 ], [ 80.90552, 21.63098 ], [ 80.90792, 21.63363 ], [ 80.91001, 21.63787 ], [ 80.91343, 21.64011 ], [ 80.91343, 21.64153 ], [ 80.91205, 21.64234 ], [ 80.91226, 21.6437 ], [ 80.91392, 21.64283 ], [ 80.91499, 21.64463 ], [ 80.91681, 21.64508 ], [ 80.91686, 21.64615 ], [ 80.9177, 21.64618 ], [ 80.91751, 21.64477 ], [ 80.93639, 21.64174 ], [ 80.94042, 21.64339 ], [ 80.94084, 21.64161 ], [ 80.94362, 21.64174 ], [ 80.94454, 21.63938 ], [ 80.94639, 21.63887 ], [ 80.95036, 21.64638 ], [ 80.94861, 21.64651 ], [ 80.94933, 21.64893 ], [ 80.95226, 21.64723 ], [ 80.96071, 21.65025 ], [ 80.96163, 21.64911 ], [ 80.96741, 21.65025 ], [ 80.96858, 21.65099 ], [ 80.96889, 21.65366 ], [ 80.97456, 21.65247 ], [ 80.97471, 21.65396 ], [ 80.97917, 21.65337 ], [ 80.97884, 21.6513 ], [ 80.98027, 21.65036 ], [ 80.97776, 21.64164 ], [ 80.97944, 21.63499 ], [ 80.97891, 21.63259 ], [ 80.9812, 21.62918 ], [ 80.98213, 21.62531 ], [ 80.98376, 21.6244 ], [ 80.98263, 21.62197 ], [ 80.98102, 21.62073 ], [ 80.98059, 21.62323 ], [ 80.97729, 21.62411 ], [ 80.9768, 21.62169 ], [ 80.97493, 21.62023 ], [ 80.97437, 21.62368 ], [ 80.97311, 21.62387 ], [ 80.97234, 21.62235 ], [ 80.97383, 21.6195 ], [ 80.97321, 21.61549 ], [ 80.97161, 21.61832 ], [ 80.97014, 21.61686 ], [ 80.97073, 21.61613 ], [ 80.97154, 21.61689 ], [ 80.97193, 21.61492 ], [ 80.96961, 21.61546 ], [ 80.96853, 21.61454 ], [ 80.97023, 21.61244 ], [ 80.97049, 21.61015 ], [ 80.97617, 21.60433 ], [ 80.97402, 21.60098 ], [ 80.98272, 21.59149 ], [ 80.98449, 21.5905 ], [ 80.9852, 21.59123 ], [ 80.98615, 21.59072 ], [ 80.98633, 21.59197 ], [ 80.98721, 21.59217 ], [ 80.98762, 21.59109 ], [ 80.9901, 21.59195 ], [ 80.99119, 21.59006 ], [ 80.9912, 21.59165 ], [ 80.99208, 21.59192 ], [ 80.99314, 21.59042 ], [ 80.99999, 21.59101 ], [ 81.00018, 21.58995 ], [ 81.00222, 21.59047 ], [ 81.00284, 21.58947 ], [ 81.00463, 21.59094 ], [ 81.00592, 21.595 ], [ 81.00732, 21.59531 ], [ 81.00769, 21.59635 ], [ 81.00777, 21.59687 ], [ 81.00651, 21.59687 ], [ 81.00707, 21.59801 ], [ 81.0102, 21.6004 ], [ 81.00956, 21.6023 ], [ 81.01295, 21.60533 ], [ 81.01353, 21.60465 ], [ 81.01491, 21.60548 ], [ 81.01495, 21.60747 ], [ 81.01376, 21.60859 ], [ 81.01359, 21.61047 ], [ 81.01474, 21.61066 ], [ 81.01544, 21.61234 ], [ 81.01729, 21.61277 ], [ 81.01721, 21.61356 ], [ 81.01577, 21.61292 ], [ 81.0156, 21.61379 ], [ 81.01704, 21.61404 ], [ 81.01711, 21.61556 ], [ 81.01638, 21.61775 ], [ 81.01242, 21.62127 ], [ 81.01401, 21.6228 ], [ 81.01568, 21.62281 ], [ 81.01683, 21.62764 ], [ 81.02657, 21.62226 ], [ 81.02837, 21.62345 ], [ 81.03422, 21.6243 ], [ 81.03955, 21.62237 ], [ 81.04102, 21.62107 ], [ 81.04151, 21.61895 ], [ 81.04694, 21.61795 ], [ 81.04901, 21.61846 ], [ 81.05278, 21.62116 ], [ 81.05585, 21.62112 ], [ 81.0556, 21.62305 ], [ 81.05688, 21.62388 ], [ 81.06772, 21.62237 ], [ 81.07069, 21.62365 ], [ 81.07444, 21.62281 ], [ 81.07712, 21.6236 ], [ 81.08214, 21.62232 ], [ 81.08969, 21.62274 ], [ 81.0936, 21.62418 ], [ 81.09514, 21.62269 ], [ 81.09749, 21.62326 ], [ 81.09817, 21.62147 ], [ 81.10184, 21.62273 ], [ 81.10503, 21.62497 ], [ 81.10862, 21.62424 ], [ 81.10841, 21.62204 ], [ 81.10925, 21.62089 ], [ 81.11423, 21.62117 ], [ 81.11628, 21.6198 ], [ 81.11793, 21.6207 ], [ 81.12088, 21.62007 ], [ 81.1252, 21.62151 ], [ 81.1266, 21.62093 ], [ 81.12802, 21.62211 ], [ 81.12831, 21.62386 ], [ 81.13228, 21.62506 ], [ 81.13308, 21.62313 ], [ 81.13472, 21.62261 ], [ 81.13642, 21.62318 ], [ 81.1371, 21.62165 ], [ 81.13932, 21.62016 ], [ 81.14094, 21.62122 ], [ 81.14379, 21.62145 ], [ 81.14634, 21.62057 ], [ 81.14645, 21.61765 ], [ 81.14736, 21.61847 ], [ 81.14861, 21.61799 ], [ 81.15016, 21.61686 ], [ 81.15003, 21.61551 ], [ 81.15122, 21.61449 ], [ 81.15365, 21.61555 ], [ 81.15436, 21.61434 ], [ 81.15518, 21.61448 ], [ 81.15524, 21.61332 ], [ 81.15775, 21.61219 ], [ 81.1594, 21.61342 ], [ 81.16315, 21.61293 ], [ 81.16478, 21.61447 ], [ 81.16606, 21.61381 ], [ 81.16736, 21.61417 ], [ 81.16876, 21.61721 ], [ 81.17228, 21.61953 ], [ 81.17324, 21.62336 ], [ 81.1751, 21.62326 ] ] ] } },
{ "type": "Feature", "properties": { "OBJECTID": 1505, "state_lgd": "22", "state_name": "CHHATTISGARH", "district_lgd": "755", "district_name": "KHAIRGARH-CHHUIKHADAN-GANDAI", "district_name_source": "district_table", "subdistrict_lgd": "7264", "subdistrict_name": "GANDAI", "subdistrict_type": "Tehsil", "name_corrupted": false, "remarks": "", "label_lon": 81.05195438961492, "label_lat": 21.674581958208403 }, "geometry": { "type": "Polygon", "coordinates": [ [ [ 80.96377, 21.76429 ], [ 80.97281, 21.75924 ], [ 80.97622, 21.74571 ], [ 80.98085, 21.74281 ], [ 80.98589, 21.73705 ], [ 80.98902, 21.73577 ], [ 80.99454, 21.73046 ], [ 80.99837, 21.72818 ], [ 81.00238, 21.72739 ], [ 81.00699, 21.73301 ], [ 81.01182, 21.73659 ], [ 81.02748, 21.7415 ], [ 81.03411, 21.73884 ], [ 81.04176, 21.73839 ], [ 81.04472, 21.73701 ], [ 81.04068, 21.72937 ], [ 81.04058, 21.72755 ], [ 81.05048, 21.72686 ], [ 81.05993, 21.72379 ], [ 81.06089, 21.72432 ], [ 81.05974, 21.72554 ], [ 81.06344, 21.72536 ], [ 81.06435, 21.72623 ], [ 81.06824, 21.73223 ], [ 81.073, 21.73112 ], [ 81.07848, 21.72862 ], [ 81.07789, 21.73011 ], [ 81.07865, 21.73093 ], [ 81.07875, 21.73324 ], [ 81.08285, 21.73267 ], [ 81.08756, 21.73332 ], [ 81.09648, 21.73005 ], [ 81.10041, 21.73369 ], [ 81.10314, 21.7343 ], [ 81.10509, 21.7325 ], [ 81.10901, 21.72401 ], [ 81.1179, 21.71791 ], [ 81.12226, 21.71243 ], [ 81.12292, 21.71019 ], [ 81.12408, 21.7096 ], [ 81.12441, 21.70677 ], [ 81.12663, 21.70416 ], [ 81.12993, 21.70631 ], [ 81.12919, 21.70998 ], [ 81.13096, 21.71215 ], [ 81.12984, 21.71505 ], [ 81.13094, 21.71527 ], [ 81.13065, 21.71642 ], [ 81.15185, 21.71125 ], [ 81.15418, 21.71522 ], [ 81.15789, 21.71407 ], [ 81.15847, 21.71506 ], [ 81.15919, 21.71485 ], [ 81.16264, 21.71123 ], [ 81.16883, 21.70911 ], [ 81.16887, 21.70774 ], [ 81.17131, 21.70742 ], [ 81.17096, 21.70525 ], [ 81.17237, 21.70434 ], [ 81.17237, 21.70275 ], [ 81.17353, 21.70231 ], [ 81.17342, 21.69912 ], [ 81.17253, 21.69908 ], [ 81.17246, 21.6978 ], [ 81.17321, 21.69752 ], [ 81.17225, 21.69524 ], [ 81.17349, 21.69349 ], [ 81.17629, 21.69252 ], [ 81.17579, 21.69021 ], [ 81.17445, 21.68879 ], [ 81.1764, 21.68505 ], [ 81.17563, 21.68409 ], [ 81.17387, 21.68409 ], [ 81.17275, 21.68254 ], [ 81.17657, 21.67811 ], [ 81.17553, 21.67507 ], [ 81.1766, 21.67179 ], [ 81.18045, 21.67141 ], [ 81.17972, 21.66735 ], [ 81.18256, 21.66728 ], [ 81.18092, 21.66323 ], [ 81.18192, 21.66196 ], [ 81.18097, 21.65633 ], [ 81.18231, 21.65615 ], [ 81.18212, 21.6553 ], [ 81.18138, 21.65539 ], [ 81.18106, 21.65358 ], [ 81.17903, 21.65286 ], [ 81.18018, 21.65136 ], [ 81.17889, 21.65026 ], [ 81.17785, 21.6452 ], [ 81.18314, 21.64061 ], [ 81.18689, 21.63892 ], [ 81.18825, 21.6355 ], [ 81.19026, 21.63493 ], [ 81.19422, 21.63548 ], [ 81.19421, 21.63421 ], [ 81.19204, 21.63357 ], [ 81.19226, 21.63047 ], [ 81.19146, 21.6308 ], [ 81.19049, 21.62936 ], [ 81.18667, 21.6301 ], [ 81.18565, 21.62875 ], [ 81.18165, 21.62976 ], [ 81.18045, 21.62464 ], [ 81.17756, 21.62409 ], [ 81.17642, 21.6227 ], [ 81.17371, 21.62376 ], [ 81.17228, 21.61953 ], [ 81.16876, 21.61721 ], [ 81.16736, 21.61417 ], [ 81.16606, 21.61381 ], [ 81.16478, 21.61447 ], [ 81.16315, 21.61293 ], [ 81.1594, 21.61342 ], [ 81.15775, 21.61219 ], [ 81.15524, 21.61332 ], [ 81.15518, 21.61448 ], [ 81.15436, 21.61434 ], [ 81.15365, 21.61555 ], [ 81.15122, 21.61449 ], [ 81.15003, 21.61551 ], [ 81.15016, 21.61686 ], [ 81.14861, 21.61799 ], [ 81.14736, 21.61847 ], [ 81.14645, 21.61765 ], [ 81.14634, 21.62057 ], [ 81.14379, 21.62145 ], [ 81.14094, 21.62122 ], [ 81.13932, 21.62016 ], [ 81.1371, 21.62165 ], [ 81.13642, 21.62318 ], [ 81.13472, 21.62261 ], [ 81.13308, 21.62313 ], [ 81.13228, 21.62506 ], [ 81.12831, 21.62386 ], [ 81.12802, 21.62211 ], [ 81.1266, 21.62093 ], [ 81.1252, 21.62151 ], [ 81.12088, 21.62007 ], [ 81.11793, 21.6207 ], [ 81.11628, 21.6198 ], [ 81.11423, 21.62117 ], [ 81.10925, 21.62089 ], [ 81.10841, 21.62204 ], [ 81.10862, 21.62424 ], [ 81.10503, 21.62497 ], [ 81.10184, 21.62273 ], [ 81.09817, 21.62147 ], [ 81.09749, 21.62326 ], [ 81.09514, 21.62269 ], [ 81.0936, 21.62418 ], [ 81.08969, 21.62274 ], [ 81.08214, 21.62232 ], [ 81.07712, 21.6236 ], [ 81.07444, 21.62281 ], [ 81.07069, 21.62365 ], [ 81.06772, 21.62237 ], [ 81.05688, 21.62388 ], [ 81.0556, 21.62305 ], [ 81.05585, 21.62112 ], [ 81.05278, 21.62116 ], [ 81.04901, 21.61846 ], [ 81.04694, 21.61795 ], [ 81.04151, 21.61895 ], [ 81.04102, 21.62107 ], [ 81.03955, 21.62237 ], [ 81.03422, 21.6243 ], [ 81.02837, 21.62345 ], [ 81.02657, 21.62226 ], [ 81.01683, 21.62764 ], [ 81.01568, 21.62281 ], [ 81.01401, 21.6228 ], [ 81.01242, 21.62127 ], [ 81.01638, 21.61775 ], [ 81.01711, 21.61556 ], [ 81.01704, 21.61404 ], [ 81.0156, 21.61379 ], [ 81.01577, 21.61292 ], [ 81.01721, 21.61356 ], [ 81.01729, 21.61277 ], [ 81.01544, 21.61234 ], [ 81.01474, 21.61066 ], [ 81.01359, 21.61047 ], [ 81.01376, 21.60859 ], [ 81.01495, 21.60747 ], [ 81.01491, 21.60548 ], [ 81.01353, 21.60465 ], [ 81.01295, 21.60533 ], [ 81.00956, 21.6023 ], [ 81.0102, 21.6004 ], [ 81.00707, 21.59801 ], [ 81.00651, 21.59687 ], [ 81.00777, 21.59687 ], [ 81.00769, 21.59635 ], [ 81.00732, 21.59531 ], [ 81.00592, 21.595 ], [ 81.00463, 21.59094 ], [ 81.00284, 21.58947 ], [ 81.00222, 21.59047 ], [ 81.00018, 21.58995 ], [ 80.99999, 21.59101 ], [ 80.99314, 21.59042 ], [ 80.99208, 21.59192 ], [ 80.9912, 21.59165 ], [ 80.99119, 21.59006 ], [ 80.9901, 21.59195 ], [ 80.98762, 21.59109 ], [ 80.98721, 21.59217 ], [ 80.98633, 21.59197 ], [ 80.98615, 21.59072 ], [ 80.9852, 21.59123 ], [ 80.98449, 21.5905 ], [ 80.98272, 21.59149 ], [ 80.97402, 21.60098 ], [ 80.97617, 21.60433 ], [ 80.97049, 21.61015 ], [ 80.97023, 21.61244 ], [ 80.96853, 21.61454 ], [ 80.96961, 21.61546 ], [ 80.97193, 21.61492 ], [ 80.97154, 21.61689 ], [ 80.97073, 21.61613 ], [ 80.97014, 21.61686 ], [ 80.97161, 21.61832 ], [ 80.97321, 21.61549 ], [ 80.97383, 21.6195 ], [ 80.97234, 21.62235 ], [ 80.97311, 21.62387 ], [ 80.97437, 21.62368 ], [ 80.97493, 21.62023 ], [ 80.9768, 21.62169 ], [ 80.97729, 21.62411 ], [ 80.98059, 21.62323 ], [ 80.98102, 21.62073 ], [ 80.98263, 21.62197 ], [ 80.98376, 21.6244 ], [ 80.98213, 21.62531 ], [ 80.9812, 21.62918 ], [ 80.97891, 21.63259 ], [ 80.97944, 21.63499 ], [ 80.97776, 21.64164 ], [ 80.98027, 21.65036 ], [ 80.97884, 21.6513 ], [ 80.97917, 21.65337 ], [ 80.97471, 21.65396 ], [ 80.97456, 21.65247 ], [ 80.96889, 21.65366 ], [ 80.96858, 21.65099 ], [ 80.96741, 21.65025 ], [ 80.96163, 21.64911 ], [ 80.96071, 21.65025 ], [ 80.95226, 21.64723 ], [ 80.94933, 21.64893 ], [ 80.94861, 21.64651 ], [ 80.95036, 21.64638 ], [ 80.94692, 21.63936 ], [ 80.94579, 21.63883 ], [ 80.94454, 21.63938 ], [ 80.94362, 21.64174 ], [ 80.94084, 21.64161 ], [ 80.94042, 21.64339 ], [ 80.93639, 21.64174 ], [ 80.91751, 21.64477 ], [ 80.91815, 21.64725 ], [ 80.91541, 21.65254 ], [ 80.91732, 21.65417 ], [ 80.91981, 21.65405 ], [ 80.91917, 21.65852 ], [ 80.91731, 21.66122 ], [ 80.92328, 21.6656 ], [ 80.93598, 21.65989 ], [ 80.93838, 21.65947 ], [ 80.94071, 21.66041 ], [ 80.94041, 21.66127 ], [ 80.93856, 21.66189 ], [ 80.94154, 21.66458 ], [ 80.94183, 21.6677 ], [ 80.93877, 21.67043 ], [ 80.93948, 21.67453 ], [ 80.9382, 21.67418 ], [ 80.93652, 21.67616 ], [ 80.9399, 21.68297 ], [ 80.94009, 21.68455 ], [ 80.93859, 21.686 ], [ 80.93934, 21.69699 ], [ 80.94046, 21.70183 ], [ 80.94545, 21.7018 ], [ 80.94714, 21.70066 ], [ 80.95104, 21.70249 ], [ 80.95064, 21.70096 ], [ 80.95223, 21.69966 ], [ 80.95195, 21.69917 ], [ 80.95682, 21.69975 ], [ 80.95957, 21.69715 ], [ 80.95996, 21.6988 ], [ 80.95908, 21.69955 ], [ 80.95995, 21.70136 ], [ 80.95587, 21.70517 ], [ 80.95361, 21.70619 ], [ 80.95336, 21.70826 ], [ 80.94947, 21.7091 ], [ 80.94888, 21.70995 ], [ 80.9474, 21.7085 ], [ 80.94578, 21.70947 ], [ 80.94489, 21.71278 ], [ 80.94552, 21.71495 ], [ 80.944, 21.7152 ], [ 80.94392, 21.71708 ], [ 80.9446, 21.71978 ], [ 80.94577, 21.72011 ], [ 80.94634, 21.72203 ], [ 80.94768, 21.72205 ], [ 80.94685, 21.72339 ], [ 80.9458, 21.72318 ], [ 80.94615, 21.72393 ], [ 80.94425, 21.72428 ], [ 80.94335, 21.72335 ], [ 80.94206, 21.72438 ], [ 80.94288, 21.72609 ], [ 80.94238, 21.72785 ], [ 80.94319, 21.72831 ], [ 80.94519, 21.73495 ], [ 80.94601, 21.74074 ], [ 80.94709, 21.74231 ], [ 80.9481, 21.74237 ], [ 80.94866, 21.74436 ], [ 80.95052, 21.74627 ], [ 80.95181, 21.75251 ], [ 80.95296, 21.76755 ], [ 80.96377, 21.76429 ] ] ] } }
]
}
