{"type":"FeatureCollection","name":"BADGAM, JAMMU AND KASHMIR - Sub-district boundaries","crs_note":"RFC 7946 WGS84 lon/lat (EPSG:4326); source CRS was LCC_WGS84","features":[{"type":"Feature","properties":{"OBJECTID":3022,"state_lgd":"01","state_name":"JAMMU AND KASHMIR","district_lgd":"002","district_name":"BADGAM","district_name_source":"district_table","subdistrict_lgd":"7","subdistrict_name":"BUDGAM","subdistrict_type":"","name_corrupted":false,"remarks":""},"geometry":{"type":"Polygon","coordinates":[[[74.771557,34.071868],[74.765626,34.069557],[74.76235,34.067785],[74.761138,34.064867],[74.759745,34.060988],[74.763587,34.058275],[74.766625,34.055482],[74.767534,34.052285],[74.768381,34.049268],[74.771445,34.047525],[74.77321,34.043113],[74.77602,34.039752],[74.779679,34.039758],[74.782151,34.034865],[74.780048,34.032633],[74.777598,34.02918],[74.782763,34.02639],[74.786175,34.02551],[74.790028,34.023604],[74.795493,34.020414],[74.79827,34.02145],[74.799444,34.016706],[74.805541,34.013098],[74.809257,34.012599],[74.807548,34.009009],[74.806498,34.005876],[74.804897,34.003235],[74.802166,34.001609],[74.799321,33.999824],[74.796577,33.996853],[74.79267,33.992578],[74.79115,33.988291],[74.794708,33.984193],[74.798434,33.981431],[74.800735,33.978633],[74.800144,33.975415],[74.79645,33.974939],[74.7929,33.972449],[74.789854,33.97034],[74.785126,33.968068],[74.780707,33.966491],[74.776549,33.965387],[74.773668,33.964861],[74.769228,33.96293],[74.764905,33.962401],[74.758698,33.960393],[74.756685,33.963427],[74.754852,33.966067],[74.750487,33.969542],[74.746681,33.970339],[74.743456,33.972276],[74.744355,33.976905],[74.743032,33.980134],[74.745489,33.983438],[74.748232,33.987677],[74.745661,33.990289],[74.742034,33.992258],[74.738333,33.993871],[74.734862,33.996315],[74.73135,33.997329],[74.727794,33.997141],[74.724242,33.995451],[74.720883,33.99368],[74.714553,33.987664],[74.711484,33.986928],[74.707639,33.986918],[74.703703,33.985627],[74.69981,33.985457],[74.694428,33.985043],[74.695924,33.990169],[74.697418,33.994655],[74.69966,33.999149],[74.698261,34.000947],[74.695999,34.001782],[74.694543,34.005465],[74.69179,34.009104],[74.689754,34.013886],[74.688396,34.017108],[74.687467,34.021072],[74.684321,34.023799],[74.683537,34.027723],[74.681251,34.030415],[74.677464,34.031634],[74.674204,34.033104],[74.673257,34.037452],[74.669623,34.045993],[74.668072,34.048954],[74.667268,34.05322],[74.664771,34.056637],[74.661682,34.059273],[74.659742,34.063274],[74.656793,34.06961],[74.654784,34.075984],[74.654568,34.081732],[74.655124,34.086352],[74.656893,34.089161],[74.657159,34.094691],[74.660072,34.100308],[74.664824,34.103486],[74.666567,34.099184],[74.667919,34.094534],[74.670126,34.091975],[74.670037,34.087948],[74.67126,34.085146],[74.668895,34.083074],[74.67073,34.079446],[74.671142,34.07499],[74.672076,34.071862],[74.67576,34.072262],[74.681316,34.074084],[74.679545,34.076741],[74.682508,34.079154],[74.686196,34.078979],[74.689092,34.083085],[74.688183,34.086841],[74.687585,34.091045],[74.687065,34.095058],[74.692094,34.096683],[74.69711,34.098681],[74.701063,34.100391],[74.703137,34.103834],[74.70756,34.104979],[74.70704,34.107707],[74.71103,34.105177],[74.708696,34.101402],[74.708617,34.098485],[74.710833,34.095305],[74.714508,34.094216],[74.718536,34.094684],[74.724439,34.094217],[74.727229,34.093996],[74.734698,34.092395],[74.739127,34.09166],[74.743556,34.090925],[74.75,34.086588],[74.75311,34.084494],[74.760291,34.078607],[74.765822,34.0741],[74.771557,34.071868]]]}},{"type":"Feature","properties":{"OBJECTID":3023,"state_lgd":"01","state_name":"JAMMU AND KASHMIR","district_lgd":"002","district_name":"BADGAM","district_name_source":"district_table","subdistrict_lgd":"6365","subdistrict_name":"NARBAL","subdistrict_type":"","name_corrupted":false,"remarks":""},"geometry":{"type":"Polygon","coordinates":[[[74.641637,34.11217],[74.64346,34.112895],[74.645953,34.113888],[74.647232,34.115264],[74.648073,34.116169],[74.64859,34.116725],[74.65017,34.118425],[74.653016,34.11817],[74.654297,34.118055],[74.654619,34.118026],[74.658616,34.116971],[74.664569,34.121092],[74.665458,34.121648],[74.665464,34.121651],[74.665686,34.12179],[74.666783,34.122474],[74.666783,34.122475],[74.668997,34.123857],[74.674622,34.128989],[74.674745,34.129102],[74.674906,34.129248],[74.67573,34.13],[74.676206,34.129929],[74.681662,34.129108],[74.685321,34.127743],[74.69174,34.123795],[74.686052,34.119031],[74.686495,34.114283],[74.685654,34.111446],[74.682464,34.110587],[74.677148,34.109156],[74.675625,34.1066],[74.67972,34.104413],[74.682802,34.105679],[74.68262,34.103145],[74.682928,34.100311],[74.686206,34.100461],[74.685451,34.097411],[74.687065,34.095058],[74.687585,34.091045],[74.688183,34.086841],[74.689092,34.083085],[74.686196,34.078979],[74.682508,34.079154],[74.679545,34.076741],[74.681316,34.074084],[74.67576,34.072262],[74.672076,34.071862],[74.671142,34.07499],[74.67073,34.079446],[74.668895,34.083074],[74.67126,34.085146],[74.670037,34.087948],[74.670126,34.091975],[74.667919,34.094534],[74.666567,34.099184],[74.664824,34.103486],[74.660072,34.100308],[74.657159,34.094691],[74.656893,34.089161],[74.655124,34.086352],[74.654568,34.081732],[74.654784,34.075984],[74.656793,34.06961],[74.650396,34.06881],[74.642869,34.069567],[74.643513,34.07428],[74.64498,34.077526],[74.645901,34.080314],[74.647446,34.084564],[74.649342,34.087104],[74.652068,34.090687],[74.646506,34.092111],[74.642709,34.092813],[74.639415,34.091076],[74.636663,34.087156],[74.633518,34.084566],[74.630189,34.081804],[74.624585,34.082626],[74.621198,34.084522],[74.619655,34.088389],[74.620883,34.091964],[74.623685,34.09552],[74.625969,34.099646],[74.623999,34.1021],[74.622,34.104411],[74.632916,34.108797],[74.635465,34.109739],[74.63644,34.1101],[74.637784,34.110635],[74.639915,34.111484],[74.641637,34.11217]]]}},{"type":"Feature","properties":{"OBJECTID":3024,"state_lgd":"01","state_name":"JAMMU AND KASHMIR","district_lgd":"002","district_name":"BADGAM","district_name_source":"district_table","subdistrict_lgd":"6364","subdistrict_name":"MAGAM","subdistrict_type":"","name_corrupted":false,"remarks":""},"geometry":{"type":"Polygon","coordinates":[[[74.64498,34.077526],[74.643513,34.07428],[74.642869,34.069567],[74.650396,34.06881],[74.656793,34.06961],[74.659742,34.063274],[74.661682,34.059273],[74.664771,34.056637],[74.667268,34.05322],[74.662361,34.053532],[74.658133,34.049521],[74.653336,34.050012],[74.648848,34.049915],[74.645723,34.047704],[74.640252,34.044596],[74.639242,34.048402],[74.634651,34.052426],[74.635131,34.057066],[74.631153,34.057999],[74.627268,34.058055],[74.623371,34.058305],[74.621442,34.053526],[74.626637,34.050097],[74.625016,34.047467],[74.617703,34.048049],[74.611791,34.04803],[74.607747,34.047931],[74.602054,34.045624],[74.599265,34.043412],[74.596212,34.0411],[74.589212,34.03998],[74.585031,34.039482],[74.579571,34.039052],[74.574799,34.040415],[74.566531,34.041587],[74.562313,34.042218],[74.558994,34.039503],[74.558365,34.036734],[74.55645,34.034227],[74.555939,34.029495],[74.554002,34.022733],[74.550466,34.024824],[74.54493,34.026867],[74.53782,34.028206],[74.53401,34.028362],[74.530509,34.029124],[74.525768,34.030851],[74.525835,34.035871],[74.528414,34.03901],[74.533262,34.038199],[74.533262,34.038199],[74.534309,34.039667],[74.538386,34.045388],[74.538704,34.045833],[74.542353,34.056567],[74.549341,34.061428],[74.558301,34.059446],[74.563345,34.066314],[74.560068,34.071048],[74.563732,34.073135],[74.56706,34.075077],[74.569541,34.076757],[74.571679,34.079],[74.574831,34.082212],[74.57793,34.084765],[74.58045,34.086944],[74.581412,34.090014],[74.579128,34.092571],[74.577127,34.095259],[74.577101,34.099163],[74.58377,34.098784],[74.586889,34.098003],[74.5938,34.096219],[74.597913,34.096812],[74.600025,34.09704],[74.601568,34.097206],[74.605222,34.0976],[74.607556,34.098639],[74.607928,34.098804],[74.612525,34.099751],[74.617632,34.101772],[74.620556,34.103539],[74.621376,34.104034],[74.622,34.104411],[74.623999,34.1021],[74.625969,34.099646],[74.623685,34.09552],[74.620883,34.091964],[74.619655,34.088389],[74.621198,34.084522],[74.624585,34.082626],[74.630189,34.081804],[74.633518,34.084566],[74.636663,34.087156],[74.639415,34.091076],[74.642709,34.092813],[74.646506,34.092111],[74.652068,34.090687],[74.649342,34.087104],[74.647446,34.084564],[74.645901,34.080314],[74.64498,34.077526]]]}},{"type":"Feature","properties":{"OBJECTID":3025,"state_lgd":"01","state_name":"JAMMU AND KASHMIR","district_lgd":"002","district_name":"BADGAM","district_name_source":"district_table","subdistrict_lgd":"5","subdistrict_name":"BEERWAH","subdistrict_type":"","name_corrupted":false,"remarks":""},"geometry":{"type":"Polygon","coordinates":[[[74.658133,34.049521],[74.662361,34.053532],[74.667268,34.05322],[74.668072,34.048954],[74.669623,34.045993],[74.673257,34.037452],[74.674204,34.033104],[74.673763,34.02849],[74.675286,34.023566],[74.670919,34.018861],[74.672498,34.015266],[74.672992,34.009523],[74.66943,34.008018],[74.664333,34.006343],[74.66032,34.00403],[74.656825,34.000473],[74.652232,33.997065],[74.648226,33.996973],[74.645533,33.998647],[74.643006,34.000231],[74.640353,34.001612],[74.637367,33.999619],[74.632922,33.997936],[74.631025,33.992101],[74.632672,33.989101],[74.629995,33.986901],[74.626283,33.984442],[74.623248,33.982815],[74.62101,33.980919],[74.61787,33.978648],[74.615101,33.97799],[74.611555,33.977257],[74.607617,33.976847],[74.604719,33.976188],[74.601025,33.979136],[74.595962,33.978578],[74.591243,33.978491],[74.586862,33.976968],[74.585111,33.972145],[74.588101,33.969992],[74.592573,33.969165],[74.596158,33.967089],[74.591677,33.964651],[74.586683,33.963913],[74.583799,33.963983],[74.580583,33.963452],[74.57874,33.960156],[74.578085,33.956669],[74.577794,33.9522],[74.576934,33.948125],[74.581301,33.947345],[74.581701,33.944141],[74.580181,33.94077],[74.578864,33.93792],[74.575804,33.934985],[74.572653,33.931088],[74.569781,33.929154],[74.565839,33.929942],[74.56168,33.930718],[74.556139,33.929387],[74.553869,33.925942],[74.551739,33.923489],[74.549406,33.920541],[74.546482,33.915574],[74.542537,33.914262],[74.537747,33.915199],[74.533686,33.916138],[74.533185,33.912578],[74.532269,33.90893],[74.528105,33.906958],[74.522771,33.909381],[74.524559,33.914029],[74.52554,33.919001],[74.527439,33.923095],[74.52803,33.92768],[74.524002,33.928738],[74.520736,33.928805],[74.516229,33.927425],[74.514915,33.930425],[74.515845,33.935877],[74.518178,33.939613],[74.520081,33.942745],[74.52241,33.947362],[74.523475,33.954457],[74.523937,33.957664],[74.525721,33.961427],[74.522685,33.963468],[74.524351,33.967578],[74.525371,33.973432],[74.524528,33.978485],[74.518943,33.977795],[74.512447,33.977966],[74.512489,33.981906],[74.514299,33.984798],[74.514116,33.987441],[74.510487,33.987467],[74.507859,33.989304],[74.505989,33.992296],[74.503121,33.99317],[74.49983,33.99376],[74.496753,33.995638],[74.501213,33.999588],[74.505393,34.004198],[74.501699,34.004755],[74.506128,34.010973],[74.5,34.01161],[74.504031,34.015611],[74.509779,34.019842],[74.513896,34.023063],[74.514364,34.025481],[74.519633,34.027222],[74.52246,34.028955],[74.525768,34.030851],[74.530509,34.029124],[74.53401,34.028362],[74.53782,34.028206],[74.54493,34.026867],[74.550466,34.024824],[74.554002,34.022733],[74.555939,34.029495],[74.55645,34.034227],[74.558365,34.036734],[74.558994,34.039503],[74.562313,34.042218],[74.566531,34.041587],[74.574799,34.040415],[74.579571,34.039052],[74.585031,34.039482],[74.589212,34.03998],[74.596212,34.0411],[74.599265,34.043412],[74.602054,34.045624],[74.607747,34.047931],[74.611791,34.04803],[74.617703,34.048049],[74.625016,34.047467],[74.626637,34.050097],[74.621442,34.053526],[74.623371,34.058305],[74.627268,34.058055],[74.631153,34.057999],[74.635131,34.057066],[74.634651,34.052426],[74.639242,34.048402],[74.640252,34.044596],[74.645723,34.047704],[74.648848,34.049915],[74.653336,34.050012],[74.658133,34.049521]]]}},{"type":"Feature","properties":{"OBJECTID":3026,"state_lgd":"01","state_name":"JAMMU AND KASHMIR","district_lgd":"002","district_name":"BADGAM","district_name_source":"district_table","subdistrict_lgd":"4","subdistrict_name":"KHAG","subdistrict_type":"","name_corrupted":false,"remarks":""},"geometry":{"type":"Polygon","coordinates":[[[74.514364,34.025481],[74.513896,34.023063],[74.509779,34.019842],[74.504031,34.015611],[74.5,34.01161],[74.506128,34.010973],[74.501699,34.004755],[74.505393,34.004198],[74.501213,33.999588],[74.496753,33.995638],[74.49983,33.99376],[74.503121,33.99317],[74.505989,33.992296],[74.507859,33.989304],[74.510487,33.987467],[74.514116,33.987441],[74.514299,33.984798],[74.512489,33.981906],[74.512447,33.977966],[74.518943,33.977795],[74.524528,33.978485],[74.525371,33.973432],[74.524351,33.967578],[74.522685,33.963468],[74.525721,33.961427],[74.523937,33.957664],[74.523475,33.954457],[74.52241,33.947362],[74.520081,33.942745],[74.518178,33.939613],[74.515845,33.935877],[74.514915,33.930425],[74.516229,33.927425],[74.520736,33.928805],[74.524002,33.928738],[74.52803,33.92768],[74.527439,33.923095],[74.52554,33.919001],[74.524559,33.914029],[74.522771,33.909381],[74.519352,33.909464],[74.515792,33.910652],[74.510217,33.911431],[74.505124,33.911891],[74.49982,33.91342],[74.49311,33.913365],[74.487443,33.913422],[74.478164,33.913141],[74.473309,33.905989],[74.465974,33.896462],[74.4592,33.889501],[74.456272,33.887934],[74.453385,33.888835],[74.449378,33.892383],[74.449213,33.895627],[74.44823,33.899148],[74.446436,33.901865],[74.441495,33.901121],[74.438339,33.899104],[74.432648,33.895792],[74.429253,33.893613],[74.423883,33.892627],[74.418346,33.894924],[74.413525,33.89732],[74.414028,33.900803],[74.415206,33.90182],[74.417895,33.904142],[74.416893,33.907925],[74.417724,33.908335],[74.418752,33.908843],[74.422048,33.910471],[74.425634,33.912013],[74.425511,33.913338],[74.425424,33.91427],[74.425215,33.916526],[74.437882,33.920216],[74.441923,33.922054],[74.445963,33.923892],[74.452787,33.929122],[74.459916,33.935652],[74.466436,33.93984],[74.473578,33.94455],[74.477275,33.951844],[74.475167,33.954739],[74.474924,33.955073],[74.474445,33.955731],[74.473921,33.96206],[74.471577,33.965597],[74.469687,33.968709],[74.472793,33.970801],[74.473863,33.974315],[74.474933,33.977829],[74.472238,33.984836],[74.468948,33.987162],[74.467057,33.990273],[74.469375,33.99943],[74.47568,34.00601],[74.478344,34.00833],[74.480982,34.011495],[74.482779,34.014563],[74.486386,34.017557],[74.486935,34.017726],[74.487496,34.0179],[74.490949,34.018969],[74.49611,34.018198],[74.50017,34.020014],[74.502986,34.022045],[74.505204,34.024262],[74.508692,34.025779],[74.514364,34.025481]]]}},{"type":"Feature","properties":{"OBJECTID":3027,"state_lgd":"01","state_name":"JAMMU AND KASHMIR","district_lgd":"002","district_name":"BADGAM","district_name_source":"district_table","subdistrict_lgd":"9","subdistrict_name":"CHRER-I-SHARIEF","subdistrict_type":"","name_corrupted":false,"remarks":""},"geometry":{"type":"MultiPolygon","coordinates":[[[[74.730786,33.811686],[74.730786,33.811686],[74.728061,33.809973],[74.727807,33.809813],[74.722077,33.807067],[74.720688,33.807475],[74.717421,33.808435],[74.715587,33.8127],[74.717871,33.818154],[74.721037,33.818242],[74.724304,33.816486],[74.728724,33.814332],[74.733014,33.81386],[74.730786,33.811686]]],[[[74.734275,33.818591],[74.7358,33.8218],[74.736361,33.826609],[74.737981,33.830298],[74.735574,33.832858],[74.732022,33.833571],[74.730092,33.836892],[74.725871,33.836522],[74.723658,33.838601],[74.724749,33.842249],[74.72354,33.845211],[74.720685,33.842748],[74.719097,33.839352],[74.716996,33.836302],[74.713885,33.834031],[74.71028,33.835886],[74.708063,33.838685],[74.70949,33.842455],[74.711402,33.844703],[74.713118,33.848032],[74.716048,33.851502],[74.719396,33.853678],[74.723824,33.85667],[74.729761,33.861562],[74.734573,33.86329],[74.738869,33.86357],[74.741056,33.865749],[74.744223,33.868074],[74.750242,33.870825],[74.750952,33.873785],[74.754318,33.87851],[74.757342,33.881863],[74.762121,33.888567],[74.765629,33.887252],[74.768183,33.883771],[74.769343,33.880808],[74.771367,33.877927],[74.773331,33.879814],[74.772696,33.883739],[74.772203,33.888426],[74.771756,33.894379],[74.77525,33.898488],[74.779812,33.899415],[74.782397,33.901031],[74.786964,33.904868],[74.789746,33.908451],[74.79198,33.910298],[74.79513,33.911259],[74.79844,33.911759],[74.801939,33.911536],[74.805906,33.911973],[74.809422,33.910835],[74.810036,33.906567],[74.811403,33.902488],[74.816376,33.900951],[74.819929,33.90127],[74.82401,33.901458],[74.821988,33.897139],[74.821757,33.896335],[74.821519,33.895503],[74.82105,33.893867],[74.820371,33.88978],[74.821835,33.884674],[74.822334,33.879547],[74.821147,33.875402],[74.819881,33.871904],[74.819089,33.869029],[74.817858,33.86492],[74.814619,33.862412],[74.811027,33.859572],[74.807941,33.856594],[74.805352,33.853981],[74.802167,33.850559],[74.799551,33.847932],[74.797651,33.845251],[74.799528,33.84192],[74.796202,33.840089],[74.793412,33.839167],[74.791289,33.836081],[74.792728,33.832461],[74.793893,33.829508],[74.795098,33.826932],[74.791862,33.826196],[74.788272,33.82252],[74.783781,33.821668],[74.779304,33.821624],[74.775735,33.820978],[74.774077,33.818532],[74.77192,33.815855],[74.774113,33.811178],[74.770657,33.810052],[74.765693,33.810454],[74.761644,33.812178],[74.758023,33.812275],[74.757099,33.815047],[74.756306,33.818204],[74.754163,33.82099],[74.750649,33.821253],[74.748206,33.821234],[74.741481,33.821183],[74.741481,33.821183],[74.74068,33.820363],[74.740572,33.820251],[74.740355,33.82003],[74.740145,33.819814],[74.740087,33.819754],[74.73981,33.819519],[74.73981,33.819519],[74.739166,33.818811],[74.738847,33.81846],[74.737776,33.817375],[74.736181,33.815769],[74.736176,33.815763],[74.736175,33.815763],[74.73586,33.815573],[74.735718,33.815487],[74.7356,33.815416],[74.735459,33.815331],[74.733014,33.81386],[74.734275,33.818591]]]]}},{"type":"Feature","properties":{"OBJECTID":3028,"state_lgd":"01","state_name":"JAMMU AND KASHMIR","district_lgd":"002","district_name":"BADGAM","district_name_source":"district_table","subdistrict_lgd":"6383","subdistrict_name":"B K PORA","subdistrict_type":"","name_corrupted":false,"remarks":""},"geometry":{"type":"Polygon","coordinates":[[[74.90242,34.034191],[74.901819,34.030807],[74.899516,34.027416],[74.896322,34.023426],[74.895954,34.020095],[74.89707,34.018798],[74.897867,34.017871],[74.901355,34.017899],[74.904298,34.020004],[74.907287,34.023066],[74.909971,34.024391],[74.913046,34.024389],[74.915955,34.021722],[74.912804,34.019785],[74.910042,34.01819],[74.908156,34.015369],[74.904271,34.013215],[74.899656,34.010567],[74.899637,34.00656],[74.901245,34.003236],[74.901751,33.999468],[74.902198,33.996195],[74.897577,33.995564],[74.894962,33.992638],[74.891843,33.991446],[74.88986,33.988194],[74.888125,33.985294],[74.886986,33.982353],[74.88535,33.979785],[74.883938,33.976823],[74.881831,33.973764],[74.877934,33.971931],[74.873592,33.96878],[74.872996,33.967918],[74.870091,33.963714],[74.86854,33.963489],[74.867718,33.963369],[74.865854,33.965788],[74.862415,33.966537],[74.858428,33.965512],[74.855265,33.963967],[74.850475,33.962016],[74.845665,33.962728],[74.840795,33.964988],[74.836791,33.966328],[74.838423,33.969561],[74.840242,33.972834],[74.836493,33.974506],[74.831427,33.974384],[74.829209,33.977909],[74.825937,33.981759],[74.821622,33.982694],[74.816349,33.982946],[74.812561,33.982681],[74.809185,33.982086],[74.807879,33.978924],[74.80603,33.974794],[74.800144,33.975415],[74.800735,33.978633],[74.798434,33.981431],[74.794708,33.984193],[74.79115,33.988291],[74.79267,33.992578],[74.796577,33.996853],[74.799321,33.999824],[74.802166,34.001609],[74.804897,34.003235],[74.806498,34.005876],[74.807548,34.009009],[74.809257,34.012599],[74.805541,34.013098],[74.799444,34.016706],[74.79827,34.02145],[74.801134,34.024673],[74.804258,34.028466],[74.80432,34.032323],[74.804175,34.035547],[74.806247,34.038545],[74.810304,34.039472],[74.813265,34.039784],[74.816681,34.040922],[74.821088,34.041644],[74.825309,34.041886],[74.829037,34.042154],[74.828235,34.03832],[74.830262,34.035397],[74.833708,34.035253],[74.837032,34.039553],[74.837051,34.04297],[74.839171,34.045504],[74.847721,34.051778],[74.852155,34.049975],[74.856139,34.047994],[74.859368,34.045152],[74.861394,34.041482],[74.864766,34.038494],[74.867595,34.037023],[74.871196,34.035336],[74.875848,34.035527],[74.879831,34.037251],[74.884653,34.038452],[74.889768,34.036778],[74.893286,34.036029],[74.897563,34.035073],[74.902199,34.034231],[74.90242,34.034191]]]}},{"type":"Feature","properties":{"OBJECTID":3029,"state_lgd":"01","state_name":"JAMMU AND KASHMIR","district_lgd":"002","district_name":"BADGAM","district_name_source":"district_table","subdistrict_lgd":"8","subdistrict_name":"CHADOORA","subdistrict_type":"","name_corrupted":false,"remarks":""},"geometry":{"type":"Polygon","coordinates":[[[74.867718,33.963369],[74.866398,33.961169],[74.866178,33.960802],[74.863848,33.957632],[74.862164,33.954711],[74.861937,33.953223],[74.861501,33.950363],[74.85885,33.946323],[74.855997,33.945056],[74.853393,33.942962],[74.849552,33.938838],[74.848415,33.937217],[74.847373,33.93573],[74.845319,33.93169],[74.843171,33.934137],[74.840502,33.93214],[74.839295,33.92688],[74.839378,33.922532],[74.83827,33.917583],[74.836589,33.913854],[74.834311,33.91116],[74.832131,33.909169],[74.829367,33.905944],[74.828631,33.905032],[74.827318,33.903404],[74.826485,33.902914],[74.82401,33.901458],[74.819929,33.90127],[74.816376,33.900951],[74.811403,33.902488],[74.810036,33.906567],[74.809422,33.910835],[74.805906,33.911973],[74.801939,33.911536],[74.79844,33.911759],[74.79513,33.911259],[74.79198,33.910298],[74.789746,33.908451],[74.786964,33.904868],[74.782397,33.901031],[74.779812,33.899415],[74.77525,33.898488],[74.771756,33.894379],[74.772203,33.888426],[74.772696,33.883739],[74.773331,33.879814],[74.771367,33.877927],[74.769343,33.880808],[74.768183,33.883771],[74.765629,33.887252],[74.762121,33.888567],[74.757342,33.881863],[74.754318,33.87851],[74.750952,33.873785],[74.750242,33.870825],[74.744223,33.868074],[74.741056,33.865749],[74.738869,33.86357],[74.734573,33.86329],[74.729761,33.861562],[74.723824,33.85667],[74.719396,33.853678],[74.716048,33.851502],[74.713118,33.848032],[74.711402,33.844703],[74.70949,33.842455],[74.708063,33.838685],[74.71028,33.835886],[74.713885,33.834031],[74.716996,33.836302],[74.719097,33.839352],[74.720685,33.842748],[74.72354,33.845211],[74.724749,33.842249],[74.723658,33.838601],[74.725871,33.836522],[74.730092,33.836892],[74.732022,33.833571],[74.735574,33.832858],[74.737981,33.830298],[74.736361,33.826609],[74.7358,33.8218],[74.734275,33.818591],[74.733014,33.81386],[74.728724,33.814332],[74.724304,33.816486],[74.721037,33.818242],[74.717871,33.818154],[74.715587,33.8127],[74.717421,33.808435],[74.716295,33.806004],[74.715837,33.805017],[74.715751,33.804831],[74.711511,33.804288],[74.708274,33.804703],[74.705295,33.805711],[74.704973,33.80582],[74.70038,33.806916],[74.695946,33.808364],[74.693135,33.808759],[74.690249,33.807772],[74.68799,33.804835],[74.684755,33.800573],[74.681549,33.798509],[74.678922,33.795881],[74.67855,33.795509],[74.675302,33.79312],[74.67182,33.791304],[74.66832,33.788596],[74.664357,33.786594],[74.66113,33.784666],[74.658124,33.782658],[74.657267,33.781731],[74.655084,33.779365],[74.652339,33.775927],[74.649263,33.772878],[74.647705,33.770309],[74.646024,33.766729],[74.643635,33.763939],[74.640611,33.7616],[74.637764,33.758613],[74.634751,33.75634],[74.631294,33.753996],[74.628521,33.752792],[74.625504,33.750163],[74.6253,33.746394],[74.625877,33.742803],[74.624669,33.739691],[74.620413,33.738584],[74.615749,33.737553],[74.611679,33.735876],[74.607555,33.731973],[74.604527,33.728585],[74.600355,33.724581],[74.59565,33.722872],[74.590713,33.721645],[74.586858,33.720541],[74.583298,33.719549],[74.580397,33.718477],[74.578516,33.715318],[74.577534,33.711295],[74.575619,33.708908],[74.572996,33.706361],[74.570384,33.702207],[74.56883,33.698405],[74.567854,33.69464],[74.567772,33.694225],[74.56721,33.6914],[74.567177,33.691234],[74.563549,33.690857],[74.560429,33.690271],[74.559107,33.687235],[74.555301,33.684815],[74.551864,33.683422],[74.54901,33.682521],[74.545299,33.680694],[74.545298,33.680693],[74.545294,33.680691],[74.545293,33.680691],[74.545288,33.680688],[74.545283,33.680686],[74.545205,33.680648],[74.545203,33.680647],[74.545196,33.680643],[74.545188,33.680651],[74.545187,33.680652],[74.545186,33.680653],[74.545184,33.680654],[74.543676,33.682123],[74.542363,33.683402],[74.542157,33.683603],[74.542743,33.688521],[74.543596,33.692896],[74.537579,33.694756],[74.533045,33.695226],[74.528259,33.695916],[74.526945,33.699101],[74.52411,33.700812],[74.521334,33.701862],[74.517773,33.702846],[74.514991,33.705377],[74.510791,33.705455],[74.505817,33.704587],[74.506918,33.707621],[74.507809,33.710517],[74.504096,33.714428],[74.502223,33.718453],[74.499798,33.72082],[74.499679,33.72089],[74.495777,33.723201],[74.491882,33.724561],[74.489532,33.727613],[74.487169,33.729306],[74.483067,33.730587],[74.479908,33.732553],[74.476019,33.732679],[74.473993,33.73576],[74.473477,33.73862],[74.471526,33.742457],[74.468578,33.746088],[74.466304,33.749131],[74.462911,33.750525],[74.459291,33.751453],[74.45575,33.753062],[74.452587,33.755697],[74.45242,33.759777],[74.450656,33.76311],[74.452969,33.765977],[74.453028,33.766016],[74.457111,33.768778],[74.460538,33.770881],[74.46394,33.77346],[74.46369,33.777718],[74.467508,33.78153],[74.470081,33.784564],[74.467932,33.78652],[74.464594,33.788478],[74.462045,33.79139],[74.458089,33.795656],[74.454709,33.799651],[74.452669,33.803389],[74.449247,33.805756],[74.445052,33.8079],[74.440932,33.811019],[74.438724,33.814642],[74.44066,33.818252],[74.44271,33.822106],[74.440358,33.824262],[74.43495,33.824047],[74.430021,33.826692],[74.426022,33.829762],[74.421363,33.832765],[74.419635,33.834227],[74.417655,33.835902],[74.416018,33.838773],[74.413221,33.841098],[74.410889,33.845391],[74.410508,33.850334],[74.412009,33.854392],[74.413954,33.857839],[74.411805,33.861222],[74.408871,33.862991],[74.407086,33.865976],[74.405509,33.870013],[74.402247,33.873526],[74.402683,33.876995],[74.403056,33.881983],[74.404502,33.885817],[74.407744,33.885813],[74.412082,33.886422],[74.414757,33.888361],[74.412519,33.892014],[74.410898,33.893953],[74.409644,33.895454],[74.413525,33.89732],[74.418346,33.894924],[74.423883,33.892627],[74.429253,33.893613],[74.432648,33.895792],[74.438339,33.899104],[74.441495,33.901121],[74.446436,33.901865],[74.44823,33.899148],[74.449213,33.895627],[74.449378,33.892383],[74.453385,33.888835],[74.456272,33.887934],[74.456727,33.885088],[74.458185,33.882339],[74.460124,33.879591],[74.463557,33.877902],[74.46603,33.875909],[74.469846,33.873743],[74.471237,33.871273],[74.47277,33.867075],[74.471218,33.862496],[74.467412,33.85978],[74.464963,33.856438],[74.465656,33.852646],[74.468561,33.850011],[74.471036,33.848551],[74.475065,33.846509],[74.479222,33.846527],[74.482973,33.843837],[74.485989,33.845967],[74.489209,33.84951],[74.492718,33.852054],[74.497597,33.855416],[74.500357,33.857426],[74.506097,33.861626],[74.510398,33.864303],[74.516313,33.868562],[74.519547,33.870681],[74.522657,33.871241],[74.525517,33.872756],[74.529853,33.874004],[74.532933,33.875276],[74.537777,33.878113],[74.541802,33.879566],[74.545066,33.881477],[74.549261,33.883276],[74.552697,33.88536],[74.557336,33.888138],[74.563043,33.89166],[74.56649,33.89196],[74.569927,33.894275],[74.573025,33.895617],[74.580157,33.900534],[74.585105,33.905117],[74.58957,33.908872],[74.593447,33.912898],[74.597719,33.911921],[74.599311,33.90742],[74.602395,33.907087],[74.605478,33.906983],[74.610025,33.907904],[74.61473,33.906213],[74.61813,33.904195],[74.622355,33.901495],[74.624942,33.899509],[74.61958,33.895706],[74.616053,33.887147],[74.618583,33.886668],[74.621822,33.887327],[74.626097,33.888098],[74.629723,33.88919],[74.634904,33.890288],[74.645273,33.891292],[74.650068,33.891847],[74.653366,33.893912],[74.658846,33.895397],[74.662838,33.895122],[74.66439,33.892082],[74.663549,33.888226],[74.660975,33.884779],[74.659113,33.881712],[74.657905,33.877784],[74.657693,33.873254],[74.658559,33.867227],[74.661746,33.863742],[74.668119,33.863198],[74.666956,33.868968],[74.66658,33.872614],[74.665603,33.876051],[74.667198,33.878914],[74.670031,33.879726],[74.673186,33.880404],[74.677022,33.885239],[74.683966,33.889053],[74.687918,33.891565],[74.689917,33.894848],[74.693906,33.898492],[74.697263,33.899622],[74.703333,33.902319],[74.708083,33.903613],[74.711056,33.904822],[74.714508,33.906192],[74.718635,33.907243],[74.722904,33.908415],[74.726497,33.911071],[74.727734,33.914876],[74.730198,33.916779],[74.732688,33.918948],[74.732487,33.921913],[74.732476,33.925358],[74.729105,33.928155],[74.726025,33.930232],[74.724669,33.933594],[74.72576,33.936482],[74.728014,33.93905],[74.730707,33.942479],[74.736989,33.945898],[74.742955,33.950416],[74.745521,33.952566],[74.749917,33.956316],[74.754438,33.959315],[74.758698,33.960393],[74.764905,33.962401],[74.769228,33.96293],[74.773668,33.964861],[74.776549,33.965387],[74.780707,33.966491],[74.785126,33.968068],[74.789854,33.97034],[74.7929,33.972449],[74.79645,33.974939],[74.800144,33.975415],[74.80603,33.974794],[74.807879,33.978924],[74.809185,33.982086],[74.812561,33.982681],[74.816349,33.982946],[74.821622,33.982694],[74.825937,33.981759],[74.829209,33.977909],[74.831427,33.974384],[74.836493,33.974506],[74.840242,33.972834],[74.838423,33.969561],[74.836791,33.966328],[74.840795,33.964988],[74.845665,33.962728],[74.850475,33.962016],[74.855265,33.963967],[74.858428,33.965512],[74.862415,33.966537],[74.865854,33.965788],[74.867718,33.963369]]]}},{"type":"Feature","properties":{"OBJECTID":3030,"state_lgd":"01","state_name":"JAMMU AND KASHMIR","district_lgd":"002","district_name":"BADGAM","district_name_source":"district_table","subdistrict_lgd":"6","subdistrict_name":"KHANASAHIB","subdistrict_type":"","name_corrupted":false,"remarks":""},"geometry":{"type":"Polygon","coordinates":[[[74.694428,33.985043],[74.69981,33.985457],[74.703703,33.985627],[74.707639,33.986918],[74.711484,33.986928],[74.714553,33.987664],[74.720883,33.99368],[74.724242,33.995451],[74.727794,33.997141],[74.73135,33.997329],[74.734862,33.996315],[74.738333,33.993871],[74.742034,33.992258],[74.745661,33.990289],[74.748232,33.987677],[74.745489,33.983438],[74.743032,33.980134],[74.744355,33.976905],[74.743456,33.972276],[74.746681,33.970339],[74.750487,33.969542],[74.754852,33.966067],[74.756685,33.963427],[74.758698,33.960393],[74.754438,33.959315],[74.749917,33.956316],[74.745521,33.952566],[74.742955,33.950416],[74.736989,33.945898],[74.730707,33.942479],[74.728014,33.93905],[74.72576,33.936482],[74.724669,33.933594],[74.726025,33.930232],[74.729105,33.928155],[74.732476,33.925358],[74.732487,33.921913],[74.732688,33.918948],[74.730198,33.916779],[74.727734,33.914876],[74.726497,33.911071],[74.722904,33.908415],[74.718635,33.907243],[74.714508,33.906192],[74.711056,33.904822],[74.708083,33.903613],[74.703333,33.902319],[74.697263,33.899622],[74.693906,33.898492],[74.689917,33.894848],[74.687918,33.891565],[74.683966,33.889053],[74.677022,33.885239],[74.673186,33.880404],[74.670031,33.879726],[74.667198,33.878914],[74.665603,33.876051],[74.66658,33.872614],[74.666956,33.868968],[74.668119,33.863198],[74.661746,33.863742],[74.658559,33.867227],[74.657693,33.873254],[74.657905,33.877784],[74.659113,33.881712],[74.660975,33.884779],[74.663549,33.888226],[74.66439,33.892082],[74.662838,33.895122],[74.658846,33.895397],[74.653366,33.893912],[74.650068,33.891847],[74.645273,33.891292],[74.634904,33.890288],[74.629723,33.88919],[74.626097,33.888098],[74.621822,33.887327],[74.618583,33.886668],[74.616053,33.887147],[74.61958,33.895706],[74.624942,33.899509],[74.622355,33.901495],[74.61813,33.904195],[74.61473,33.906213],[74.610025,33.907904],[74.605478,33.906983],[74.602395,33.907087],[74.599311,33.90742],[74.597719,33.911921],[74.593447,33.912898],[74.58957,33.908872],[74.585105,33.905117],[74.580157,33.900534],[74.573025,33.895617],[74.569927,33.894275],[74.56649,33.89196],[74.563043,33.89166],[74.557336,33.888138],[74.552697,33.88536],[74.549261,33.883276],[74.545066,33.881477],[74.541802,33.879566],[74.537777,33.878113],[74.532933,33.875276],[74.529853,33.874004],[74.525517,33.872756],[74.522657,33.871241],[74.519547,33.870681],[74.516313,33.868562],[74.510398,33.864303],[74.506097,33.861626],[74.500357,33.857426],[74.497597,33.855416],[74.492718,33.852054],[74.489209,33.84951],[74.485989,33.845967],[74.482973,33.843837],[74.479222,33.846527],[74.475065,33.846509],[74.471036,33.848551],[74.468561,33.850011],[74.465656,33.852646],[74.464963,33.856438],[74.467412,33.85978],[74.471218,33.862496],[74.47277,33.867075],[74.471237,33.871273],[74.469846,33.873743],[74.46603,33.875909],[74.463557,33.877902],[74.460124,33.879591],[74.458185,33.882339],[74.456727,33.885088],[74.456272,33.887934],[74.4592,33.889501],[74.465974,33.896462],[74.473309,33.905989],[74.478164,33.913141],[74.487443,33.913422],[74.49311,33.913365],[74.49982,33.91342],[74.505124,33.911891],[74.510217,33.911431],[74.515792,33.910652],[74.519352,33.909464],[74.522771,33.909381],[74.528105,33.906958],[74.532269,33.90893],[74.533185,33.912578],[74.533686,33.916138],[74.537747,33.915199],[74.542537,33.914262],[74.546482,33.915574],[74.549406,33.920541],[74.551739,33.923489],[74.553869,33.925942],[74.556139,33.929387],[74.56168,33.930718],[74.565839,33.929942],[74.569781,33.929154],[74.572653,33.931088],[74.575804,33.934985],[74.578864,33.93792],[74.580181,33.94077],[74.581701,33.944141],[74.581301,33.947345],[74.576934,33.948125],[74.577794,33.9522],[74.578085,33.956669],[74.57874,33.960156],[74.580583,33.963452],[74.583799,33.963983],[74.586683,33.963913],[74.591677,33.964651],[74.596158,33.967089],[74.592573,33.969165],[74.588101,33.969992],[74.585111,33.972145],[74.586862,33.976968],[74.591243,33.978491],[74.595962,33.978578],[74.601025,33.979136],[74.604719,33.976188],[74.607617,33.976847],[74.611555,33.977257],[74.615101,33.97799],[74.61787,33.978648],[74.62101,33.980919],[74.623248,33.982815],[74.626283,33.984442],[74.629995,33.986901],[74.632672,33.989101],[74.631025,33.992101],[74.632922,33.997936],[74.637367,33.999619],[74.640353,34.001612],[74.643006,34.000231],[74.645533,33.998647],[74.648226,33.996973],[74.652232,33.997065],[74.656825,34.000473],[74.66032,34.00403],[74.664333,34.006343],[74.66943,34.008018],[74.672992,34.009523],[74.672498,34.015266],[74.670919,34.018861],[74.675286,34.023566],[74.673763,34.02849],[74.674204,34.033104],[74.677464,34.031634],[74.681251,34.030415],[74.683537,34.027723],[74.684321,34.023799],[74.687467,34.021072],[74.688396,34.017108],[74.689754,34.013886],[74.69179,34.009104],[74.694543,34.005465],[74.695999,34.001782],[74.698261,34.000947],[74.69966,33.999149],[74.697418,33.994655],[74.695924,33.990169],[74.694428,33.985043]]]}}]}