{"type":"FeatureCollection","name":"RAJAURI, JAMMU AND KASHMIR - Sub-district boundaries","crs_note":"RFC 7946 WGS84 lon/lat (EPSG:4326); source CRS was LCC_WGS84","features":[{"type":"Feature","properties":{"OBJECTID":3135,"state_lgd":"01","state_name":"JAMMU AND KASHMIR","district_lgd":"006","district_name":"RAJAURI","district_name_source":"district_table","subdistrict_lgd":"6307","subdistrict_name":"SIOT","subdistrict_type":"","name_corrupted":false,"remarks":""},"geometry":{"type":"Polygon","coordinates":[[[74.488204,33.131291],[74.487163,33.127755],[74.484911,33.124462],[74.482145,33.120846],[74.478553,33.123141],[74.474115,33.124106],[74.471525,33.121635],[74.468031,33.118929],[74.464054,33.1207],[74.460733,33.119029],[74.463624,33.115833],[74.466716,33.11284],[74.469523,33.110793],[74.471985,33.106724],[74.470633,33.102043],[74.466023,33.102075],[74.461541,33.101176],[74.459134,33.098895],[74.455518,33.096252],[74.450839,33.096305],[74.446713,33.095089],[74.443195,33.096202],[74.439989,33.097235],[74.438037,33.094596],[74.436442,33.090959],[74.432978,33.086484],[74.430406,33.083176],[74.426952,33.081206],[74.422493,33.078995],[74.419423,33.078582],[74.415441,33.07788],[74.409617,33.077307],[74.40479,33.077107],[74.401038,33.078201],[74.398437,33.080056],[74.39692,33.08268],[74.394926,33.085355],[74.391793,33.086289],[74.389342,33.083894],[74.385788,33.083535],[74.38175,33.085],[74.377737,33.086699],[74.373465,33.088223],[74.377985,33.090278],[74.380041,33.094033],[74.376005,33.097327],[74.374963,33.100715],[74.370827,33.102412],[74.368578,33.104888],[74.371298,33.106597],[74.374941,33.107247],[74.375235,33.110829],[74.373278,33.114822],[74.375915,33.119049],[74.381143,33.12144],[74.385793,33.119695],[74.389909,33.119569],[74.393772,33.121312],[74.396946,33.121912],[74.400726,33.122515],[74.404958,33.1229],[74.409302,33.123607],[74.413604,33.123966],[74.419319,33.122044],[74.424861,33.124052],[74.430488,33.123195],[74.435668,33.123708],[74.439683,33.123373],[74.443021,33.124713],[74.44553,33.126091],[74.450774,33.127998],[74.455207,33.130087],[74.457297,33.133171],[74.461374,33.132509],[74.468026,33.132043],[74.473244,33.134222],[74.478458,33.133836],[74.483081,33.132826],[74.488204,33.131291]]]}},{"type":"Feature","properties":{"OBJECTID":3136,"state_lgd":"01","state_name":"JAMMU AND KASHMIR","district_lgd":"006","district_name":"RAJAURI","district_name_source":"district_table","subdistrict_lgd":"6285","subdistrict_name":"MANJAKOTE","subdistrict_type":"","name_corrupted":false,"remarks":""},"geometry":{"type":"Polygon","coordinates":[[[74.2955,33.43721],[74.292854,33.434377],[74.28892,33.432453],[74.2863,33.42805],[74.282577,33.426422],[74.277057,33.424845],[74.274311,33.424135],[74.272712,33.420928],[74.271423,33.415592],[74.269999,33.410873],[74.265927,33.408634],[74.262785,33.410831],[74.258181,33.412542],[74.260222,33.416404],[74.255268,33.418209],[74.250648,33.419222],[74.247483,33.417699],[74.248353,33.413402],[74.251109,33.411941],[74.254703,33.408806],[74.254501,33.404835],[74.257931,33.401986],[74.260175,33.398864],[74.259783,33.39523],[74.257105,33.393891],[74.253671,33.395616],[74.25011,33.397866],[74.247753,33.400366],[74.247303,33.406065],[74.244076,33.407968],[74.240758,33.408553],[74.2423,33.411328],[74.241741,33.414247],[74.238595,33.414886],[74.235318,33.415059],[74.232374,33.414634],[74.231774,33.411424],[74.230526,33.408245],[74.226735,33.407508],[74.223309,33.407377],[74.219749,33.4052],[74.216645,33.403022],[74.213843,33.401031],[74.210628,33.400236],[74.207204,33.403295],[74.205016,33.406272],[74.203188,33.409857],[74.201954,33.413312],[74.200167,33.416415],[74.198458,33.419345],[74.194859,33.421582],[74.191283,33.423231],[74.187113,33.424523],[74.183031,33.427271],[74.185803,33.428849],[74.188544,33.430956],[74.19174,33.433666],[74.193408,33.436265],[74.196641,33.442019],[74.198569,33.445384],[74.201491,33.447044],[74.20468,33.449105],[74.20592,33.452471],[74.208279,33.456053],[74.211016,33.460549],[74.212705,33.46487],[74.213173,33.465672],[74.214987,33.468777],[74.216993,33.472565],[74.217142,33.475562],[74.21719,33.478963],[74.218845,33.482568],[74.223446,33.485415],[74.226893,33.489536],[74.227605,33.493084],[74.227352,33.49657],[74.227106,33.499617],[74.227799,33.503768],[74.226695,33.507242],[74.224701,33.510679],[74.221856,33.514631],[74.218937,33.516006],[74.215875,33.51927],[74.214488,33.523242],[74.213106,33.527616],[74.211588,33.531332],[74.209254,33.533128],[74.207797,33.536315],[74.209022,33.539373],[74.210758,33.5427],[74.21169,33.546711],[74.215454,33.548883],[74.218514,33.550313],[74.221186,33.551669],[74.225419,33.550354],[74.23164,33.550539],[74.236148,33.551516],[74.239108,33.553234],[74.242666,33.555223],[74.246425,33.555329],[74.248916,33.553109],[74.25032,33.549924],[74.251939,33.546462],[74.25493,33.544039],[74.25829,33.548863],[74.262825,33.551057],[74.267166,33.550863],[74.272438,33.549274],[74.277316,33.547878],[74.278956,33.55069],[74.281868,33.550625],[74.284844,33.548312],[74.289468,33.549131],[74.293337,33.551057],[74.29623,33.552965],[74.299038,33.554718],[74.300248,33.558073],[74.300366,33.561743],[74.30054,33.564911],[74.303375,33.568313],[74.306718,33.571604],[74.309597,33.572237],[74.313174,33.572646],[74.315077,33.569121],[74.316668,33.56635],[74.315158,33.561852],[74.315359,33.55701],[74.317,33.553496],[74.318344,33.550264],[74.318787,33.54737],[74.319287,33.54387],[74.321625,33.540611],[74.32356,33.537704],[74.324417,33.534959],[74.325108,33.532118],[74.325129,33.528425],[74.322461,33.523464],[74.322747,33.520476],[74.325242,33.517253],[74.325066,33.512445],[74.322528,33.5081],[74.320962,33.504771],[74.319147,33.501607],[74.316816,33.499634],[74.313093,33.498101],[74.309325,33.49631],[74.306986,33.494411],[74.301801,33.491517],[74.296363,33.490293],[74.294834,33.487589],[74.293792,33.484205],[74.292999,33.480939],[74.293617,33.477841],[74.296322,33.47503],[74.292227,33.47242],[74.289189,33.47114],[74.283883,33.465469],[74.282636,33.462329],[74.284271,33.459297],[74.28835,33.454444],[74.289278,33.451276],[74.289284,33.446756],[74.292142,33.445318],[74.295687,33.442301],[74.2955,33.43721]]]}},{"type":"Feature","properties":{"OBJECTID":3137,"state_lgd":"01","state_name":"JAMMU AND KASHMIR","district_lgd":"006","district_name":"RAJAURI","district_name_source":"district_table","subdistrict_lgd":"20","subdistrict_name":"THANNA MANDI","subdistrict_type":"","name_corrupted":false,"remarks":""},"geometry":{"type":"Polygon","coordinates":[[[74.368027,33.581607],[74.37144,33.581547],[74.374789,33.583247],[74.378177,33.582695],[74.38153,33.58178],[74.385227,33.580614],[74.388457,33.578018],[74.393833,33.577932],[74.398427,33.577522],[74.401353,33.576691],[74.404405,33.574125],[74.407978,33.572323],[74.411329,33.57167],[74.414738,33.571874],[74.417606,33.572082],[74.421036,33.571823],[74.424424,33.569909],[74.426126,33.567619],[74.428603,33.565526],[74.431577,33.563439],[74.435504,33.560388],[74.435869,33.560088],[74.43899,33.557515],[74.441478,33.554765],[74.441028,33.551916],[74.444356,33.548245],[74.447974,33.54522],[74.451442,33.543173],[74.455318,33.541269],[74.459862,33.53795],[74.463778,33.53556],[74.467484,33.533684],[74.473588,33.530934],[74.471204,33.528745],[74.467006,33.525896],[74.463146,33.522768],[74.458645,33.519956],[74.453456,33.515202],[74.45,33.513147],[74.446555,33.50951],[74.444137,33.506949],[74.43885,33.505982],[74.433734,33.506621],[74.429978,33.508058],[74.426372,33.50855],[74.422129,33.508402],[74.417208,33.508352],[74.412693,33.507956],[74.407601,33.507239],[74.403493,33.506798],[74.399332,33.504515],[74.39465,33.502444],[74.393342,33.498611],[74.397126,33.495604],[74.393555,33.48768],[74.390667,33.483178],[74.384855,33.477844],[74.383252,33.481884],[74.37858,33.481163],[74.377652,33.478372],[74.37573,33.475047],[74.373456,33.471272],[74.371055,33.468988],[74.366159,33.468485],[74.362027,33.466778],[74.359785,33.462067],[74.356583,33.459121],[74.354473,33.455732],[74.352295,33.452736],[74.351027,33.449274],[74.34871,33.445807],[74.344366,33.44377],[74.342292,33.439524],[74.339223,33.436809],[74.336156,33.433433],[74.332653,33.428368],[74.327598,33.425909],[74.322789,33.425679],[74.31837,33.426265],[74.315191,33.426656],[74.312119,33.42739],[74.30951,33.429239],[74.306604,33.433047],[74.302572,33.435614],[74.298449,33.43686],[74.2955,33.43721],[74.295687,33.442301],[74.292142,33.445318],[74.289284,33.446756],[74.289278,33.451276],[74.28835,33.454444],[74.284271,33.459297],[74.282636,33.462329],[74.283883,33.465469],[74.289189,33.47114],[74.292227,33.47242],[74.296322,33.47503],[74.293617,33.477841],[74.292999,33.480939],[74.293792,33.484205],[74.294834,33.487589],[74.296363,33.490293],[74.301801,33.491517],[74.306986,33.494411],[74.309325,33.49631],[74.313093,33.498101],[74.316816,33.499634],[74.319147,33.501607],[74.320962,33.504771],[74.322528,33.5081],[74.325066,33.512445],[74.325242,33.517253],[74.322747,33.520476],[74.322461,33.523464],[74.325129,33.528425],[74.325108,33.532118],[74.324417,33.534959],[74.32356,33.537704],[74.321625,33.540611],[74.319287,33.54387],[74.318787,33.54737],[74.318344,33.550264],[74.317,33.553496],[74.315359,33.55701],[74.315158,33.561852],[74.316668,33.56635],[74.315077,33.569121],[74.313174,33.572646],[74.316301,33.573446],[74.322862,33.576739],[74.327422,33.576426],[74.330308,33.574509],[74.333686,33.57219],[74.336771,33.573426],[74.340047,33.574854],[74.343863,33.576183],[74.34669,33.576931],[74.349871,33.577933],[74.352578,33.581299],[74.356476,33.583945],[74.360985,33.583424],[74.364445,33.582488],[74.368027,33.581607]]]}},{"type":"Feature","properties":{"OBJECTID":3138,"state_lgd":"01","state_name":"JAMMU AND KASHMIR","district_lgd":"006","district_name":"RAJAURI","district_name_source":"district_table","subdistrict_lgd":"21","subdistrict_name":"DARHAL","subdistrict_type":"","name_corrupted":false,"remarks":""},"geometry":{"type":"Polygon","coordinates":[[[74.49848,33.506881],[74.502768,33.503023],[74.50662,33.499529],[74.506501,33.496637],[74.507953,33.493306],[74.508521,33.488775],[74.510375,33.48489],[74.507846,33.482013],[74.504899,33.478626],[74.50087,33.475721],[74.491396,33.469569],[74.487098,33.464851],[74.484134,33.461391],[74.48026,33.457262],[74.460589,33.454197],[74.451023,33.450427],[74.435673,33.446951],[74.432029,33.44622],[74.428911,33.444166],[74.424532,33.444335],[74.421115,33.446802],[74.418038,33.448993],[74.413942,33.45023],[74.408079,33.449184],[74.404158,33.448062],[74.400982,33.446607],[74.398855,33.444465],[74.397671,33.44051],[74.393051,33.437612],[74.388776,33.436822],[74.384177,33.437086],[74.380593,33.437456],[74.376985,33.434902],[74.373732,33.43128],[74.368906,33.424673],[74.368221,33.421213],[74.365228,33.419436],[74.362341,33.42212],[74.358258,33.423972],[74.353837,33.424463],[74.348635,33.423977],[74.345425,33.42174],[74.340482,33.419089],[74.337087,33.420858],[74.338824,33.425221],[74.340633,33.428739],[74.344017,33.432153],[74.34717,33.435434],[74.349884,33.437467],[74.353279,33.438611],[74.356439,33.440926],[74.358707,33.443059],[74.360001,33.44677],[74.357634,33.450738],[74.354473,33.455732],[74.356583,33.459121],[74.359785,33.462067],[74.362027,33.466778],[74.366159,33.468485],[74.371055,33.468988],[74.373456,33.471272],[74.37573,33.475047],[74.377652,33.478372],[74.37858,33.481163],[74.383252,33.481884],[74.384855,33.477844],[74.390667,33.483178],[74.393555,33.48768],[74.397126,33.495604],[74.393342,33.498611],[74.39465,33.502444],[74.399332,33.504515],[74.403493,33.506798],[74.407601,33.507239],[74.412693,33.507956],[74.417208,33.508352],[74.422129,33.508402],[74.426372,33.50855],[74.429978,33.508058],[74.433734,33.506621],[74.43885,33.505982],[74.444137,33.506949],[74.446555,33.50951],[74.45,33.513147],[74.453456,33.515202],[74.458645,33.519956],[74.463146,33.522768],[74.467006,33.525896],[74.471204,33.528745],[74.473588,33.530934],[74.476383,33.529175],[74.479515,33.526759],[74.482794,33.524409],[74.485864,33.52254],[74.488828,33.520677],[74.491893,33.517845],[74.494133,33.51539],[74.496259,33.513155],[74.498275,33.510475],[74.49848,33.506881]]]}},{"type":"Feature","properties":{"OBJECTID":3139,"state_lgd":"01","state_name":"JAMMU AND KASHMIR","district_lgd":"006","district_name":"RAJAURI","district_name_source":"district_table","subdistrict_lgd":"23","subdistrict_name":"KOTERANKA","subdistrict_type":"","name_corrupted":false,"remarks":""},"geometry":{"type":"Polygon","coordinates":[[[74.603936,33.502303],[74.605065,33.498546],[74.607151,33.496425],[74.609942,33.497471],[74.613542,33.498827],[74.616715,33.497871],[74.620208,33.497542],[74.623881,33.497902],[74.627598,33.497224],[74.627677,33.497209],[74.628438,33.49574],[74.628528,33.495567],[74.62938,33.493925],[74.630187,33.490607],[74.633246,33.48843],[74.63557,33.485961],[74.635439,33.482853],[74.635367,33.481142],[74.632862,33.478345],[74.62954,33.476596],[74.628847,33.473318],[74.629913,33.469034],[74.627728,33.466257],[74.623137,33.46648],[74.619321,33.463925],[74.615052,33.465049],[74.610351,33.465733],[74.606659,33.466063],[74.603221,33.464716],[74.603069,33.460171],[74.606236,33.456186],[74.607981,33.453001],[74.610372,33.451257],[74.61453,33.450034],[74.618362,33.448025],[74.619464,33.442891],[74.625533,33.443283],[74.63114,33.442514],[74.635258,33.440398],[74.6409,33.440197],[74.647135,33.439079],[74.651408,33.440365],[74.656467,33.440575],[74.659656,33.437011],[74.66209,33.43531],[74.666104,33.43489],[74.668585,33.43135],[74.668766,33.427401],[74.669135,33.425339],[74.669499,33.423301],[74.672486,33.419104],[74.671129,33.412967],[74.668539,33.409159],[74.666859,33.406267],[74.665991,33.40262],[74.666112,33.401574],[74.66655,33.39777],[74.667463,33.39462],[74.670809,33.395436],[74.674087,33.394052],[74.671141,33.390496],[74.671237,33.385714],[74.67121,33.385216],[74.67105,33.38229],[74.673811,33.379476],[74.675318,33.374565],[74.678455,33.371655],[74.678563,33.367624],[74.684941,33.360175],[74.678958,33.356437],[74.674598,33.3546],[74.671975,33.352386],[74.669382,33.350474],[74.664595,33.351805],[74.659153,33.352472],[74.655132,33.352139],[74.650832,33.351804],[74.648784,33.348043],[74.648468,33.344931],[74.648479,33.341187],[74.645988,33.336418],[74.644975,33.332528],[74.641881,33.329048],[74.638248,33.327219],[74.635688,33.328771],[74.635566,33.332756],[74.634819,33.336477],[74.634897,33.341251],[74.635779,33.345866],[74.637664,33.350299],[74.639547,33.35374],[74.636736,33.355529],[74.633071,33.356392],[74.629719,33.356688],[74.627382,33.353845],[74.625657,33.350273],[74.622132,33.346527],[74.619686,33.342633],[74.615535,33.344359],[74.612869,33.345511],[74.610928,33.342763],[74.609551,33.33865],[74.604306,33.334158],[74.600522,33.331638],[74.598352,33.333842],[74.59505,33.336301],[74.591887,33.338362],[74.588212,33.340262],[74.583936,33.34111],[74.579689,33.340402],[74.576899,33.339492],[74.571777,33.337125],[74.567097,33.336782],[74.562348,33.336237],[74.559904,33.333192],[74.558642,33.32942],[74.556954,33.32688],[74.554127,33.325762],[74.552529,33.323216],[74.549265,33.319579],[74.547043,33.315884],[74.546129,33.309932],[74.544449,33.304299],[74.540966,33.302928],[74.537615,33.302749],[74.533959,33.301251],[74.529748,33.29842],[74.525402,33.295997],[74.524003,33.29288],[74.520813,33.292002],[74.517995,33.290596],[74.51508,33.288986],[74.513547,33.286254],[74.511879,33.281915],[74.506908,33.28114],[74.503944,33.28104],[74.500295,33.279761],[74.496039,33.276696],[74.492215,33.275878],[74.488391,33.275147],[74.484417,33.276009],[74.488044,33.2789],[74.491059,33.280839],[74.494476,33.285171],[74.498526,33.286606],[74.501286,33.289804],[74.503412,33.293027],[74.501089,33.294472],[74.496438,33.29435],[74.493401,33.294938],[74.489644,33.297525],[74.486047,33.299588],[74.481514,33.300115],[74.474503,33.300416],[74.47152,33.300276],[74.46878,33.302438],[74.465246,33.30489],[74.463577,33.307491],[74.46079,33.311969],[74.458773,33.31419],[74.459116,33.31866],[74.459084,33.324625],[74.454888,33.325024],[74.451062,33.326156],[74.447525,33.3259],[74.444345,33.325188],[74.439712,33.325805],[74.43519,33.326726],[74.431688,33.327386],[74.4293,33.330213],[74.425308,33.332707],[74.421739,33.336119],[74.419016,33.337715],[74.416866,33.340215],[74.418858,33.343278],[74.41843,33.346101],[74.420285,33.348538],[74.418765,33.352193],[74.420118,33.357876],[74.419443,33.362372],[74.419431,33.366154],[74.418967,33.37044],[74.418031,33.37492],[74.417502,33.379421],[74.418257,33.384926],[74.420693,33.388707],[74.418937,33.392856],[74.416211,33.395654],[74.413295,33.395459],[74.409275,33.392364],[74.405625,33.392065],[74.40188,33.393539],[74.399403,33.395488],[74.395791,33.397377],[74.39258,33.395712],[74.389119,33.396436],[74.384102,33.398301],[74.3795,33.397478],[74.375282,33.396595],[74.37083,33.400006],[74.366422,33.401123],[74.363463,33.402189],[74.35993,33.404773],[74.359459,33.413142],[74.362597,33.416834],[74.365228,33.419436],[74.368221,33.421213],[74.368906,33.424673],[74.373732,33.43128],[74.376985,33.434902],[74.380593,33.437456],[74.384177,33.437086],[74.388776,33.436822],[74.393051,33.437612],[74.397671,33.44051],[74.398855,33.444465],[74.400982,33.446607],[74.404158,33.448062],[74.408079,33.449184],[74.413942,33.45023],[74.418038,33.448993],[74.421115,33.446802],[74.424532,33.444335],[74.428911,33.444166],[74.432029,33.44622],[74.435673,33.446951],[74.451023,33.450427],[74.460589,33.454197],[74.48026,33.457262],[74.484134,33.461391],[74.487098,33.464851],[74.491396,33.469569],[74.50087,33.475721],[74.504899,33.478626],[74.507846,33.482013],[74.510375,33.48489],[74.513443,33.485077],[74.517971,33.484948],[74.521291,33.481832],[74.52222,33.478132],[74.525741,33.474076],[74.528628,33.471005],[74.534138,33.471466],[74.539323,33.469184],[74.541531,33.471298],[74.542831,33.475072],[74.54068,33.478529],[74.540461,33.482709],[74.539144,33.487574],[74.545079,33.488928],[74.549567,33.490537],[74.554058,33.49124],[74.558016,33.492261],[74.561182,33.493543],[74.564814,33.493122],[74.568549,33.492126],[74.571906,33.492015],[74.573085,33.495754],[74.57099,33.499422],[74.570294,33.502971],[74.572099,33.504196],[74.572581,33.504523],[74.57293,33.50476],[74.572983,33.504853],[74.573098,33.505056],[74.573596,33.505936],[74.573671,33.506068],[74.57368,33.506084],[74.573757,33.50622],[74.574366,33.507296],[74.574387,33.507302],[74.574625,33.50737],[74.577442,33.50817],[74.577443,33.508171],[74.577445,33.508171],[74.577464,33.508175],[74.577471,33.508177],[74.577472,33.508177],[74.579487,33.508521],[74.581025,33.508784],[74.584079,33.508979],[74.588704,33.508294],[74.589435,33.503659],[74.593621,33.5018],[74.597748,33.502338],[74.601023,33.501303],[74.603936,33.502303]]]}},{"type":"Feature","properties":{"OBJECTID":3140,"state_lgd":"01","state_name":"JAMMU AND KASHMIR","district_lgd":"006","district_name":"RAJAURI","district_name_source":"district_table","subdistrict_lgd":"6300","subdistrict_name":"KHAWAS","subdistrict_type":"","name_corrupted":false,"remarks":""},"geometry":{"type":"Polygon","coordinates":[[[74.634897,33.341251],[74.634819,33.336477],[74.635566,33.332756],[74.635688,33.328771],[74.638248,33.327219],[74.641881,33.329048],[74.644975,33.332528],[74.645988,33.336418],[74.648479,33.341187],[74.65152,33.338405],[74.652955,33.337092],[74.652597,33.334256],[74.651085,33.331777],[74.64923,33.328475],[74.648478,33.32491],[74.65023,33.322622],[74.653365,33.319562],[74.656201,33.317004],[74.658913,33.314577],[74.661857,33.311143],[74.665447,33.307223],[74.669518,33.304259],[74.670115,33.300095],[74.669257,33.294785],[74.665686,33.293314],[74.661669,33.291659],[74.657765,33.288139],[74.656108,33.284737],[74.655344,33.281585],[74.653873,33.278337],[74.652448,33.275182],[74.652908,33.272306],[74.655641,33.270858],[74.659644,33.269404],[74.661182,33.268621],[74.663415,33.267485],[74.666295,33.265924],[74.670706,33.264018],[74.674256,33.261799],[74.676566,33.25881],[74.677788,33.255532],[74.680964,33.253829],[74.68489,33.252949],[74.6892,33.25028],[74.692731,33.246849],[74.692801,33.243385],[74.69217,33.240065],[74.691241,33.236429],[74.689357,33.232213],[74.68963,33.227588],[74.688611,33.221601],[74.689002,33.218268],[74.687238,33.214153],[74.685032,33.210643],[74.683532,33.207966],[74.682719,33.203815],[74.684035,33.201144],[74.68698,33.19849],[74.686791,33.195532],[74.682571,33.194942],[74.677617,33.19535],[74.67228,33.195803],[74.667616,33.193545],[74.66433,33.192412],[74.663291,33.18944],[74.660923,33.185303],[74.65568,33.186519],[74.655147,33.1903],[74.654708,33.19441],[74.651351,33.195157],[74.647299,33.19585],[74.64375,33.196687],[74.640653,33.19799],[74.635057,33.201034],[74.631532,33.202255],[74.628131,33.203165],[74.622839,33.20482],[74.621809,33.208925],[74.623669,33.212314],[74.626828,33.21651],[74.628337,33.220354],[74.629525,33.223787],[74.630661,33.227772],[74.628642,33.22983],[74.62536,33.233083],[74.620271,33.233423],[74.614902,33.235078],[74.610314,33.236637],[74.603522,33.235356],[74.599658,33.233148],[74.593976,33.233056],[74.591155,33.235645],[74.587928,33.242012],[74.589461,33.246153],[74.586129,33.250861],[74.581286,33.252319],[74.576283,33.252803],[74.57287,33.252859],[74.569629,33.252776],[74.566282,33.251219],[74.562414,33.249531],[74.556394,33.251589],[74.551659,33.251796],[74.547789,33.250954],[74.544498,33.249124],[74.541854,33.247433],[74.540079,33.249025],[74.539936,33.253032],[74.542716,33.256355],[74.544977,33.259561],[74.545285,33.263554],[74.542183,33.262621],[74.538435,33.263419],[74.534446,33.262148],[74.533796,33.26505],[74.531026,33.266947],[74.526984,33.269306],[74.525466,33.272107],[74.522706,33.275061],[74.51912,33.279034],[74.515977,33.281267],[74.511879,33.281915],[74.513547,33.286254],[74.51508,33.288986],[74.517995,33.290596],[74.520813,33.292002],[74.524003,33.29288],[74.525402,33.295997],[74.529748,33.29842],[74.533959,33.301251],[74.537615,33.302749],[74.540966,33.302928],[74.544449,33.304299],[74.546129,33.309932],[74.547043,33.315884],[74.549265,33.319579],[74.552529,33.323216],[74.554127,33.325762],[74.556954,33.32688],[74.558642,33.32942],[74.559904,33.333192],[74.562348,33.336237],[74.567097,33.336782],[74.571777,33.337125],[74.576899,33.339492],[74.579689,33.340402],[74.583936,33.34111],[74.588212,33.340262],[74.591887,33.338362],[74.59505,33.336301],[74.598352,33.333842],[74.600522,33.331638],[74.604306,33.334158],[74.609551,33.33865],[74.610928,33.342763],[74.612869,33.345511],[74.615535,33.344359],[74.619686,33.342633],[74.622132,33.346527],[74.625657,33.350273],[74.627382,33.353845],[74.629719,33.356688],[74.633071,33.356392],[74.636736,33.355529],[74.639547,33.35374],[74.637664,33.350299],[74.635779,33.345866],[74.634897,33.341251]]]}},{"type":"Feature","properties":{"OBJECTID":3141,"state_lgd":"01","state_name":"JAMMU AND KASHMIR","district_lgd":"006","district_name":"RAJAURI","district_name_source":"district_table","subdistrict_lgd":"6302","subdistrict_name":"TARYATH","subdistrict_type":"","name_corrupted":false,"remarks":""},"geometry":{"type":"Polygon","coordinates":[[[74.622839,33.20482],[74.619001,33.202652],[74.61427,33.201572],[74.611055,33.200239],[74.609533,33.197359],[74.609138,33.194304],[74.606123,33.195042],[74.603008,33.193974],[74.600247,33.197631],[74.597028,33.200052],[74.593944,33.200014],[74.589901,33.200026],[74.584117,33.202412],[74.579451,33.201792],[74.575381,33.201863],[74.569282,33.201965],[74.569364,33.198914],[74.571925,33.197391],[74.573023,33.193704],[74.569552,33.194216],[74.566065,33.194886],[74.560383,33.194888],[74.556098,33.192919],[74.552834,33.190821],[74.54881,33.189883],[74.548383,33.186789],[74.547644,33.181808],[74.544715,33.182555],[74.542147,33.184797],[74.538773,33.1869],[74.537866,33.189882],[74.535821,33.193139],[74.531321,33.192489],[74.528422,33.191313],[74.524918,33.1895],[74.522068,33.187102],[74.521435,33.184169],[74.521675,33.181775],[74.521916,33.179381],[74.525221,33.175708],[74.529291,33.174363],[74.533284,33.172172],[74.538002,33.171428],[74.541162,33.16911],[74.544397,33.165278],[74.54954,33.164318],[74.554177,33.164405],[74.556405,33.160598],[74.559856,33.15728],[74.558568,33.152221],[74.561579,33.151345],[74.565087,33.1506],[74.569882,33.148789],[74.570815,33.145619],[74.570609,33.142564],[74.570648,33.138577],[74.568128,33.136765],[74.563565,33.134853],[74.565073,33.130999],[74.56944,33.129405],[74.57048,33.126413],[74.566138,33.124147],[74.564031,33.120699],[74.561206,33.118683],[74.558045,33.120365],[74.555171,33.120717],[74.551731,33.120955],[74.547485,33.121616],[74.542902,33.121951],[74.538153,33.122249],[74.53519,33.120994],[74.529753,33.121411],[74.522848,33.121618],[74.5196,33.121253],[74.516278,33.123619],[74.515093,33.126648],[74.513192,33.128988],[74.509422,33.130342],[74.506678,33.133483],[74.504213,33.135643],[74.500906,33.135999],[74.499287,33.138598],[74.49734,33.140924],[74.496372,33.145158],[74.493536,33.147963],[74.491101,33.149646],[74.488722,33.151566],[74.485433,33.154243],[74.484459,33.157409],[74.482932,33.161211],[74.48312,33.165065],[74.483233,33.16944],[74.485175,33.172911],[74.487597,33.176529],[74.482703,33.181],[74.480753,33.184778],[74.484363,33.18567],[74.487051,33.1869],[74.489121,33.190111],[74.487698,33.193592],[74.484421,33.196413],[74.483599,33.200125],[74.47909,33.202188],[74.475016,33.205026],[74.47344,33.210178],[74.469405,33.210583],[74.467087,33.2133],[74.464091,33.216649],[74.466037,33.221931],[74.463389,33.225563],[74.460663,33.228083],[74.459327,33.232092],[74.458508,33.236021],[74.454887,33.240174],[74.454553,33.245211],[74.458003,33.24826],[74.461519,33.249992],[74.467302,33.250779],[74.47047,33.251536],[74.474289,33.252877],[74.476951,33.25439],[74.478615,33.257386],[74.48034,33.259871],[74.481374,33.262801],[74.480748,33.266385],[74.479266,33.270411],[74.480395,33.273675],[74.484417,33.276009],[74.488391,33.275147],[74.492215,33.275878],[74.496039,33.276696],[74.500295,33.279761],[74.503944,33.28104],[74.506908,33.28114],[74.511879,33.281915],[74.515977,33.281267],[74.51912,33.279034],[74.522706,33.275061],[74.525466,33.272107],[74.526984,33.269306],[74.531026,33.266947],[74.533796,33.26505],[74.534446,33.262148],[74.538435,33.263419],[74.542183,33.262621],[74.545285,33.263554],[74.544977,33.259561],[74.542716,33.256355],[74.539936,33.253032],[74.540079,33.249025],[74.541854,33.247433],[74.544498,33.249124],[74.547789,33.250954],[74.551659,33.251796],[74.556394,33.251589],[74.562414,33.249531],[74.566282,33.251219],[74.569629,33.252776],[74.57287,33.252859],[74.576283,33.252803],[74.581286,33.252319],[74.586129,33.250861],[74.589461,33.246153],[74.587928,33.242012],[74.591155,33.235645],[74.593976,33.233056],[74.599658,33.233148],[74.603522,33.235356],[74.610314,33.236637],[74.614902,33.235078],[74.620271,33.233423],[74.62536,33.233083],[74.628642,33.22983],[74.630661,33.227772],[74.629525,33.223787],[74.628337,33.220354],[74.626828,33.21651],[74.623669,33.212314],[74.621809,33.208925],[74.622839,33.20482]]]}},{"type":"Feature","properties":{"OBJECTID":3142,"state_lgd":"01","state_name":"JAMMU AND KASHMIR","district_lgd":"006","district_name":"RAJAURI","district_name_source":"district_table","subdistrict_lgd":"24","subdistrict_name":"KALAKOTE","subdistrict_type":"","name_corrupted":false,"remarks":""},"geometry":{"type":"Polygon","coordinates":[[[74.465246,33.30489],[74.46878,33.302438],[74.47152,33.300276],[74.474503,33.300416],[74.481514,33.300115],[74.486047,33.299588],[74.489644,33.297525],[74.493401,33.294938],[74.496438,33.29435],[74.501089,33.294472],[74.503412,33.293027],[74.501286,33.289804],[74.498526,33.286606],[74.494476,33.285171],[74.491059,33.280839],[74.488044,33.2789],[74.484417,33.276009],[74.480395,33.273675],[74.479266,33.270411],[74.480748,33.266385],[74.481374,33.262801],[74.48034,33.259871],[74.478615,33.257386],[74.476951,33.25439],[74.474289,33.252877],[74.47047,33.251536],[74.467302,33.250779],[74.461519,33.249992],[74.458003,33.24826],[74.454553,33.245211],[74.454887,33.240174],[74.458508,33.236021],[74.459327,33.232092],[74.460663,33.228083],[74.463389,33.225563],[74.466037,33.221931],[74.464091,33.216649],[74.467087,33.2133],[74.469405,33.210583],[74.47344,33.210178],[74.475016,33.205026],[74.47909,33.202188],[74.483599,33.200125],[74.484421,33.196413],[74.487698,33.193592],[74.489121,33.190111],[74.487051,33.1869],[74.484363,33.18567],[74.480753,33.184778],[74.482703,33.181],[74.487597,33.176529],[74.485175,33.172911],[74.483233,33.16944],[74.48312,33.165065],[74.482932,33.161211],[74.484459,33.157409],[74.485433,33.154243],[74.488722,33.151566],[74.491101,33.149646],[74.493536,33.147963],[74.496372,33.145158],[74.49734,33.140924],[74.499287,33.138598],[74.500906,33.135999],[74.504213,33.135643],[74.506678,33.133483],[74.509422,33.130342],[74.513192,33.128988],[74.515093,33.126648],[74.516278,33.123619],[74.5196,33.121253],[74.513339,33.11924],[74.509571,33.118133],[74.506465,33.119107],[74.503511,33.120585],[74.502413,33.123451],[74.499977,33.126949],[74.495974,33.129713],[74.492712,33.130485],[74.488204,33.131291],[74.483081,33.132826],[74.478458,33.133836],[74.473244,33.134222],[74.468026,33.132043],[74.461374,33.132509],[74.457297,33.133171],[74.455207,33.130087],[74.450774,33.127998],[74.44553,33.126091],[74.443021,33.124713],[74.439683,33.123373],[74.435668,33.123708],[74.430488,33.123195],[74.424861,33.124052],[74.419319,33.122044],[74.413604,33.123966],[74.409302,33.123607],[74.404958,33.1229],[74.400726,33.122515],[74.396946,33.121912],[74.393772,33.121312],[74.389909,33.119569],[74.385793,33.119695],[74.381143,33.12144],[74.379203,33.124574],[74.376611,33.126405],[74.377645,33.130478],[74.381375,33.133742],[74.38442,33.132894],[74.385241,33.135998],[74.382921,33.138939],[74.379614,33.141385],[74.376794,33.144617],[74.378809,33.149004],[74.376099,33.154038],[74.372576,33.156315],[74.36973,33.158053],[74.365865,33.158644],[74.362315,33.157355],[74.35667,33.152215],[74.354734,33.147261],[74.350837,33.145341],[74.346384,33.146501],[74.34177,33.146798],[74.338909,33.146821],[74.334502,33.146917],[74.330131,33.149308],[74.325761,33.152229],[74.323815,33.157367],[74.320416,33.160794],[74.320065,33.163806],[74.315225,33.165743],[74.311548,33.166924],[74.308637,33.169347],[74.307313,33.172998],[74.304809,33.1762],[74.303773,33.179183],[74.303153,33.182923],[74.302917,33.187506],[74.304384,33.19084],[74.307689,33.190231],[74.311309,33.189596],[74.314044,33.193121],[74.31582,33.197325],[74.320043,33.198009],[74.323259,33.196751],[74.326266,33.195262],[74.330254,33.193185],[74.333715,33.190747],[74.333722,33.193894],[74.333682,33.19817],[74.33798,33.199174],[74.342868,33.200397],[74.339859,33.20592],[74.335709,33.207323],[74.332256,33.208676],[74.32816,33.211296],[74.323872,33.212618],[74.318596,33.21224],[74.318142,33.215753],[74.317179,33.220287],[74.314844,33.224423],[74.311884,33.229084],[74.311406,33.233181],[74.308753,33.234392],[74.310212,33.237629],[74.308004,33.241196],[74.306389,33.246249],[74.306785,33.24972],[74.309059,33.255662],[74.313219,33.258662],[74.31652,33.260835],[74.318703,33.264971],[74.320329,33.26907],[74.32264,33.272333],[74.325049,33.274273],[74.330394,33.277938],[74.334955,33.277527],[74.340672,33.274604],[74.348331,33.27266],[74.353714,33.275298],[74.35814,33.276811],[74.361601,33.277795],[74.364912,33.278048],[74.368423,33.278515],[74.373565,33.281769],[74.376717,33.287418],[74.377533,33.292506],[74.379109,33.29527],[74.38295,33.292792],[74.384858,33.289965],[74.387332,33.286992],[74.38823,33.283642],[74.391276,33.280769],[74.395323,33.28059],[74.397357,33.282681],[74.400656,33.282211],[74.404556,33.282389],[74.406359,33.284831],[74.409852,33.286537],[74.41279,33.286447],[74.415395,33.288277],[74.418662,33.292563],[74.42146,33.29298],[74.425931,33.292103],[74.431154,33.29183],[74.434413,33.292041],[74.439111,33.293226],[74.443351,33.292068],[74.446802,33.292869],[74.447531,33.29836],[74.451576,33.300699],[74.454699,33.301959],[74.457828,33.303481],[74.461792,33.30496],[74.465246,33.30489]]]}},{"type":"Feature","properties":{"OBJECTID":3143,"state_lgd":"01","state_name":"JAMMU AND KASHMIR","district_lgd":"006","district_name":"RAJAURI","district_name_source":"district_table","subdistrict_lgd":"6303","subdistrict_name":"QILA DARHAL","subdistrict_type":"","name_corrupted":false,"remarks":""},"geometry":{"type":"Polygon","coordinates":[[[74.150352,33.320716],[74.150351,33.320707],[74.149689,33.316034],[74.148786,33.311465],[74.149575,33.308654],[74.153683,33.309267],[74.158384,33.312385],[74.16206,33.309325],[74.163412,33.305206],[74.166569,33.303003],[74.169309,33.303818],[74.172982,33.304688],[74.176676,33.30484],[74.18009,33.303977],[74.182841,33.302377],[74.187019,33.301711],[74.193246,33.303179],[74.199518,33.300043],[74.20456,33.298634],[74.20809,33.295589],[74.212452,33.29323],[74.214475,33.288557],[74.218057,33.287435],[74.221759,33.288662],[74.226173,33.290588],[74.233115,33.293152],[74.235693,33.295815],[74.237492,33.298535],[74.240531,33.29855],[74.241075,33.294643],[74.244874,33.291288],[74.242373,33.287563],[74.240036,33.285257],[74.236894,33.283149],[74.236844,33.27702],[74.233783,33.278032],[74.230986,33.278737],[74.226217,33.279051],[74.219985,33.277642],[74.213945,33.276183],[74.209865,33.276648],[74.206711,33.276417],[74.203516,33.274595],[74.200041,33.272915],[74.198514,33.269456],[74.197734,33.266093],[74.194495,33.265146],[74.195449,33.261332],[74.199434,33.260362],[74.201039,33.2627],[74.202926,33.260384],[74.203662,33.2574],[74.203235,33.253772],[74.202825,33.250926],[74.204678,33.24766],[74.207051,33.245793],[74.210395,33.243938],[74.213957,33.24227],[74.219848,33.239286],[74.21586,33.23822],[74.212633,33.238026],[74.20948,33.238654],[74.206245,33.240385],[74.202658,33.24157],[74.199526,33.243004],[74.195439,33.244923],[74.190107,33.245278],[74.18617,33.243527],[74.182513,33.243043],[74.179505,33.240961],[74.175211,33.240485],[74.172501,33.238507],[74.17223,33.235402],[74.177468,33.233326],[74.181948,33.233494],[74.186134,33.234102],[74.188944,33.232012],[74.192013,33.22869],[74.195903,33.227296],[74.200147,33.22519],[74.203536,33.225055],[74.20738,33.223681],[74.21217,33.220411],[74.2149,33.218416],[74.21801,33.215906],[74.222243,33.213366],[74.226812,33.210472],[74.230956,33.206145],[74.236006,33.202659],[74.234848,33.199084],[74.234439,33.19475],[74.23518,33.190443],[74.234825,33.187333],[74.233247,33.18388],[74.22928,33.18466],[74.2256,33.185386],[74.222024,33.187327],[74.21749,33.188614],[74.213361,33.189608],[74.208799,33.190376],[74.206771,33.19342],[74.201816,33.195293],[74.19715,33.194322],[74.191074,33.194707],[74.185877,33.196483],[74.18082,33.198188],[74.177646,33.201395],[74.175921,33.204174],[74.172955,33.206766],[74.167995,33.208607],[74.16387,33.206564],[74.161418,33.204989],[74.160084,33.202108],[74.159116,33.197804],[74.156252,33.194772],[74.153851,33.192776],[74.149632,33.193412],[74.144956,33.19617],[74.143044,33.198601],[74.139914,33.200616],[74.137435,33.202477],[74.135453,33.204527],[74.13199,33.206349],[74.12837,33.207661],[74.123937,33.211051],[74.120097,33.214103],[74.11553,33.217025],[74.112391,33.219981],[74.109337,33.222413],[74.106861,33.225372],[74.103517,33.227716],[74.099473,33.228948],[74.096635,33.230817],[74.092577,33.233265],[74.087714,33.234025],[74.084673,33.233914],[74.080624,33.234689],[74.076049,33.231046],[74.074928,33.226957],[74.071275,33.224672],[74.068645,33.222722],[74.067381,33.219578],[74.063392,33.222375],[74.06099,33.226395],[74.056978,33.230581],[74.056403,33.235222],[74.05967,33.237418],[74.062719,33.239746],[74.065454,33.242636],[74.061011,33.245638],[74.055493,33.24775],[74.052433,33.246877],[74.048833,33.249309],[74.044367,33.252582],[74.040302,33.254225],[74.0371,33.258405],[74.034531,33.261488],[74.032133,33.264462],[74.034691,33.265356],[74.034924,33.265445],[74.034929,33.265446],[74.035018,33.26547],[74.035286,33.265564],[74.038646,33.267033],[74.040768,33.268229],[74.040843,33.268274],[74.041625,33.268718],[74.042261,33.269081],[74.044153,33.270167],[74.045822,33.271483],[74.046411,33.271918],[74.047147,33.272386],[74.047201,33.272426],[74.047997,33.272927],[74.048616,33.273411],[74.049745,33.274352],[74.05012,33.274601],[74.05079,33.274859],[74.051487,33.27515],[74.052189,33.275445],[74.053126,33.275844],[74.054059,33.276243],[74.054503,33.276483],[74.054889,33.276624],[74.055372,33.276733],[74.05583,33.276843],[74.056034,33.276901],[74.056552,33.277052],[74.057254,33.277261],[74.057641,33.277361],[74.057954,33.277451],[74.062959,33.279346],[74.066389,33.280889],[74.066459,33.280922],[74.067469,33.281407],[74.069029,33.282164],[74.069623,33.282458],[74.070197,33.282703],[74.070776,33.282903],[74.071055,33.282977],[74.071559,33.283112],[74.072487,33.283281],[74.072884,33.283372],[74.073377,33.283459],[74.074386,33.28361],[74.074632,33.283647],[74.076127,33.283891],[74.076623,33.283981],[74.077535,33.284141],[74.078693,33.284324],[74.079364,33.284434],[74.080163,33.284521],[74.080958,33.284609],[74.082052,33.284751],[74.082642,33.284771],[74.083802,33.284746],[74.085047,33.284668],[74.086228,33.284608],[74.086738,33.284586],[74.086957,33.284573],[74.09138,33.284847],[74.094995,33.286509],[74.095332,33.286697],[74.095888,33.287042],[74.096852,33.287634],[74.097758,33.288069],[74.097982,33.288177],[74.098149,33.288271],[74.101847,33.290328],[74.102227,33.290554],[74.102629,33.290785],[74.103036,33.291015],[74.103647,33.291378],[74.104451,33.291817],[74.105153,33.292196],[74.105464,33.292372],[74.106657,33.293032],[74.106685,33.293048],[74.108122,33.293844],[74.108717,33.294202],[74.109311,33.294554],[74.109842,33.294781],[74.110106,33.294896],[74.112378,33.296034],[74.11243,33.29606],[74.113171,33.296483],[74.114918,33.297352],[74.115795,33.297787],[74.116671,33.298222],[74.118719,33.299177],[74.120333,33.299915],[74.121137,33.300174],[74.121745,33.30037],[74.122306,33.300591],[74.126018,33.302103],[74.126049,33.302118],[74.126539,33.302343],[74.128597,33.303304],[74.128634,33.303322],[74.128846,33.303422],[74.129588,33.303775],[74.130698,33.3043],[74.131813,33.304834],[74.132403,33.305124],[74.132993,33.305413],[74.133288,33.30554],[74.133583,33.305667],[74.133901,33.305786],[74.137588,33.307847],[74.13988,33.309809],[74.140308,33.310197],[74.14053,33.310395],[74.142205,33.311944],[74.144218,33.31413],[74.144223,33.314135],[74.144517,33.31446],[74.144812,33.314777],[74.145385,33.315463],[74.145963,33.316149],[74.146182,33.31642],[74.146461,33.316696],[74.146629,33.316881],[74.146959,33.317242],[74.147237,33.317454],[74.147412,33.317588],[74.147791,33.317996],[74.148191,33.318429],[74.148849,33.31914],[74.150298,33.320706],[74.15036,33.320773],[74.150359,33.320767],[74.150353,33.320721],[74.150352,33.320716]]]}},{"type":"Feature","properties":{"OBJECTID":3144,"state_lgd":"01","state_name":"JAMMU AND KASHMIR","district_lgd":"006","district_name":"RAJAURI","district_name_source":"district_table","subdistrict_lgd":"25","subdistrict_name":"NOWSHERA","subdistrict_type":"","name_corrupted":false,"remarks":""},"geometry":{"type":"Polygon","coordinates":[[[74.219848,33.239286],[74.226617,33.237157],[74.231595,33.236119],[74.234239,33.234849],[74.239267,33.234007],[74.24369,33.234115],[74.250855,33.232651],[74.256695,33.232836],[74.258576,33.236377],[74.258094,33.239483],[74.261373,33.243234],[74.263269,33.245643],[74.264098,33.249582],[74.263971,33.252655],[74.265129,33.257753],[74.269532,33.260427],[74.273619,33.26062],[74.277657,33.261551],[74.280511,33.262016],[74.283917,33.262239],[74.288525,33.262384],[74.286381,33.259255],[74.293478,33.256248],[74.298141,33.256458],[74.301937,33.256942],[74.306105,33.255466],[74.309059,33.255662],[74.306785,33.24972],[74.306389,33.246249],[74.308004,33.241196],[74.310212,33.237629],[74.308753,33.234392],[74.311406,33.233181],[74.311884,33.229084],[74.314844,33.224423],[74.317179,33.220287],[74.318142,33.215753],[74.318596,33.21224],[74.323872,33.212618],[74.32816,33.211296],[74.332256,33.208676],[74.335709,33.207323],[74.339859,33.20592],[74.342868,33.200397],[74.33798,33.199174],[74.333682,33.19817],[74.333722,33.193894],[74.333715,33.190747],[74.330254,33.193185],[74.326266,33.195262],[74.323259,33.196751],[74.320043,33.198009],[74.31582,33.197325],[74.314044,33.193121],[74.311309,33.189596],[74.307689,33.190231],[74.304384,33.19084],[74.302917,33.187506],[74.303153,33.182923],[74.303773,33.179183],[74.304809,33.1762],[74.307313,33.172998],[74.308637,33.169347],[74.311548,33.166924],[74.315225,33.165743],[74.320065,33.163806],[74.320416,33.160794],[74.323815,33.157367],[74.325761,33.152229],[74.330131,33.149308],[74.334502,33.146917],[74.338909,33.146821],[74.34177,33.146798],[74.346384,33.146501],[74.350837,33.145341],[74.354734,33.147261],[74.35667,33.152215],[74.362315,33.157355],[74.365865,33.158644],[74.36973,33.158053],[74.372576,33.156315],[74.376099,33.154038],[74.378809,33.149004],[74.376794,33.144617],[74.379614,33.141385],[74.382921,33.138939],[74.385241,33.135998],[74.38442,33.132894],[74.381375,33.133742],[74.377645,33.130478],[74.376611,33.126405],[74.379203,33.124574],[74.381143,33.12144],[74.375915,33.119049],[74.373278,33.114822],[74.375235,33.110829],[74.374941,33.107247],[74.371298,33.106597],[74.368578,33.104888],[74.370827,33.102412],[74.374963,33.100715],[74.376005,33.097327],[74.380041,33.094033],[74.377985,33.090278],[74.373465,33.088223],[74.368972,33.089165],[74.364602,33.091082],[74.359335,33.092587],[74.355257,33.094909],[74.356771,33.098966],[74.353798,33.100444],[74.350419,33.09958],[74.348727,33.102804],[74.345814,33.104908],[74.34118,33.104881],[74.338055,33.104795],[74.334742,33.105724],[74.331752,33.107287],[74.32998,33.111236],[74.32633,33.113263],[74.321139,33.114084],[74.318846,33.109926],[74.317821,33.106283],[74.315842,33.10319],[74.312968,33.099332],[74.313449,33.095387],[74.312874,33.090594],[74.308357,33.091224],[74.304887,33.093996],[74.303152,33.09091],[74.303206,33.087491],[74.302306,33.083735],[74.301211,33.080178],[74.298195,33.079959],[74.293883,33.082053],[74.289955,33.082172],[74.287944,33.079801],[74.289929,33.074574],[74.289064,33.072294],[74.284706,33.070844],[74.281207,33.069782],[74.279332,33.06727],[74.277382,33.064409],[74.277832,33.059794],[74.277718,33.055815],[74.27744,33.052388],[74.284774,33.049487],[74.291917,33.047193],[74.29688,33.04522],[74.301986,33.044039],[74.310894,33.043672],[74.314395,33.043876],[74.311142,33.03931],[74.311199,33.0355],[74.311502,33.034899],[74.313415,33.031103],[74.313716,33.029925],[74.312956,33.030375],[74.312201,33.030826],[74.310306,33.03137],[74.31004,33.031754],[74.309378,33.031882],[74.305611,33.031756],[74.302133,33.031402],[74.301879,33.031484],[74.298642,33.032527],[74.294268,33.034453],[74.293673,33.034715],[74.289846,33.035321],[74.287002,33.036672],[74.283414,33.037549],[74.282247,33.037612],[74.279845,33.037383],[74.278602,33.037809],[74.277414,33.038215],[74.274971,33.040323],[74.272706,33.041016],[74.272532,33.041069],[74.271812,33.04129],[74.270918,33.041564],[74.270591,33.041934],[74.269358,33.04333],[74.266229,33.044628],[74.262248,33.043885],[74.261451,33.043544],[74.26029,33.043147],[74.259364,33.043051],[74.258416,33.043483],[74.257045,33.044586],[74.256833,33.044824],[74.256078,33.045136],[74.253954,33.045464],[74.249169,33.045615],[74.248392,33.04632],[74.243043,33.049797],[74.242438,33.050008],[74.241791,33.05004],[74.239772,33.050894],[74.239209,33.051132],[74.237223,33.051392],[74.236543,33.051157],[74.236211,33.051043],[74.235521,33.051232],[74.234233,33.052673],[74.233439,33.053862],[74.232538,33.05479],[74.232099,33.055029],[74.231752,33.055321],[74.229915,33.056561],[74.229232,33.056829],[74.227679,33.057273],[74.226983,33.057757],[74.226699,33.057873],[74.224137,33.058916],[74.223521,33.059049],[74.22268,33.05951],[74.219893,33.061008],[74.219893,33.061008],[74.216167,33.061686],[74.215566,33.061302],[74.214389,33.061224],[74.212758,33.062976],[74.208197,33.067055],[74.205219,33.066723],[74.204046,33.066449],[74.20324,33.066502],[74.202434,33.066555],[74.199384,33.06817],[74.198358,33.068786],[74.198203,33.068859],[74.191087,33.072078],[74.189868,33.071666],[74.189637,33.071546],[74.188996,33.070684],[74.187636,33.070736],[74.186328,33.071333],[74.186061,33.071436],[74.182639,33.07255],[74.181556,33.072731],[74.180939,33.072578],[74.179903,33.072971],[74.179727,33.073038],[74.1782,33.073295],[74.177189,33.07338],[74.176043,33.073558],[74.175724,33.073709],[74.171842,33.074359],[74.170687,33.074154],[74.170284,33.074414],[74.170826,33.076345],[74.170618,33.077113],[74.17041,33.077882],[74.170674,33.079392],[74.170383,33.080388],[74.170751,33.081115],[74.171768,33.081094],[74.171843,33.081094],[74.174072,33.084307],[74.174266,33.084885],[74.174747,33.085072],[74.176014,33.08651],[74.175883,33.087308],[74.176498,33.087729],[74.177767,33.087965],[74.178927,33.087766],[74.180767,33.088389],[74.181537,33.091747],[74.179569,33.094404],[74.179311,33.094703],[74.178886,33.095327],[74.178461,33.09595],[74.178231,33.096643],[74.176933,33.09925],[74.174278,33.100065],[74.173915,33.100145],[74.172594,33.100582],[74.171273,33.10102],[74.16953,33.101937],[74.168849,33.102296],[74.167209,33.102627],[74.166592,33.102996],[74.1668,33.103361],[74.167284,33.103435],[74.164205,33.10564],[74.164066,33.105778],[74.163966,33.105597],[74.16372,33.105362],[74.163351,33.105492],[74.161517,33.108316],[74.161517,33.108316],[74.161517,33.108316],[74.159514,33.110449],[74.159075,33.111308],[74.158954,33.111544],[74.159395,33.113073],[74.161604,33.118602],[74.16271,33.1219],[74.159737,33.124322],[74.156069,33.125672],[74.154858,33.127762],[74.154319,33.12933],[74.154259,33.12951],[74.153859,33.131051],[74.153918,33.133062],[74.152486,33.136917],[74.151185,33.138279],[74.149658,33.139646],[74.149599,33.1397],[74.149163,33.140398],[74.14582,33.14403],[74.141333,33.147633],[74.140532,33.147536],[74.13736,33.147535],[74.136236,33.147781],[74.135113,33.148027],[74.133775,33.149372],[74.13351,33.150097],[74.133483,33.150193],[74.133245,33.151021],[74.133388,33.153632],[74.133381,33.154285],[74.133381,33.154285],[74.131623,33.155627],[74.130659,33.156007],[74.129992,33.156582],[74.130385,33.156729],[74.129065,33.1597],[74.124918,33.160039],[74.120266,33.161511],[74.11705,33.159793],[74.116472,33.15944],[74.112296,33.163277],[74.111288,33.164145],[74.106477,33.167],[74.104703,33.166729],[74.104626,33.166701],[74.104031,33.166561],[74.103254,33.166378],[74.10237,33.166373],[74.101902,33.166371],[74.101485,33.166369],[74.09977,33.166501],[74.099731,33.16653],[74.099243,33.166896],[74.095941,33.168724],[74.094662,33.169376],[74.090282,33.17161],[74.089723,33.171875],[74.086786,33.173355],[74.083781,33.17581],[74.081607,33.178176],[74.079269,33.180168],[74.076094,33.183261],[74.075982,33.18337],[74.074003,33.185982],[74.073371,33.186573],[74.071246,33.190333],[74.069658,33.193929],[74.062221,33.197477],[74.06055,33.196589],[74.060436,33.196455],[74.059721,33.196149],[74.059006,33.195843],[74.058249,33.195695],[74.054896,33.194661],[74.05486,33.194642],[74.054316,33.193987],[74.053211,33.194002],[74.052192,33.194135],[74.050948,33.196967],[74.049585,33.200037],[74.045395,33.199978],[74.044944,33.199404],[74.041689,33.198047],[74.039826,33.197055],[74.038782,33.197049],[74.037819,33.196718],[74.037669,33.19675],[74.037131,33.196529],[74.035926,33.196242],[74.034169,33.197477],[74.033153,33.197688],[74.032214,33.197846],[74.031508,33.198536],[74.02961,33.199514],[74.029446,33.199599],[74.028287,33.199778],[74.026745,33.20078],[74.026298,33.201071],[74.023185,33.203702],[74.020404,33.204011],[74.019111,33.204004],[74.018974,33.204009],[74.017351,33.20408],[74.01657,33.205011],[74.017204,33.207343],[74.017182,33.207487],[74.016859,33.208705],[74.016522,33.209659],[74.016406,33.209852],[74.016418,33.209953],[74.015689,33.212016],[74.01497,33.212308],[74.014293,33.212289],[74.013685,33.212829],[74.012273,33.213403],[74.011526,33.213598],[74.011327,33.213713],[74.008473,33.214525],[74.008,33.214223],[74.007922,33.213479],[74.007462,33.213243],[74.006607,33.213727],[74.006342,33.215385],[74.006277,33.215796],[74.006778,33.217709],[74.006937,33.218207],[74.006383,33.22038],[74.006112,33.220583],[74.005583,33.221303],[74.005735,33.222119],[74.005599,33.222673],[74.005505,33.223394],[74.006489,33.223983],[74.007359,33.224176],[74.007942,33.225074],[74.007075,33.226587],[74.006508,33.227058],[74.005999,33.228332],[74.00605,33.229031],[74.006301,33.229357],[74.006481,33.231261],[74.004859,33.232773],[74.003466,33.233689],[74.002465,33.234426],[74.00196,33.235953],[74.002069,33.237891],[74.002386,33.239028],[74.002539,33.239257],[74.002549,33.239771],[74.002911,33.240604],[74.002748,33.241081],[74.00277,33.242082],[74.005056,33.245535],[74.005653,33.246907],[74.005704,33.247455],[74.006315,33.248899],[74.006088,33.249241],[74.005856,33.249583],[74.006396,33.250045],[74.006941,33.250506],[74.007519,33.25104],[74.008085,33.251574],[74.009015,33.252473],[74.00995,33.253369],[74.010346,33.253704],[74.011122,33.254314],[74.01141,33.254524],[74.01155,33.254635],[74.012084,33.255129],[74.012613,33.255554],[74.013662,33.256382],[74.014598,33.257106],[74.015239,33.257563],[74.015374,33.257658],[74.015716,33.257889],[74.015941,33.258066],[74.016579,33.258539],[74.016608,33.258559],[74.017435,33.259119],[74.017828,33.259378],[74.018375,33.259765],[74.018479,33.259831],[74.018648,33.259953],[74.019194,33.260347],[74.020189,33.261031],[74.020872,33.261392],[74.021019,33.26147],[74.022075,33.261956],[74.022515,33.262129],[74.023484,33.262474],[74.024342,33.262674],[74.024915,33.262789],[74.025014,33.262809],[74.027976,33.263446],[74.028049,33.263464],[74.028365,33.26354],[74.031982,33.264425],[74.032133,33.264462],[74.034531,33.261488],[74.0371,33.258405],[74.040302,33.254225],[74.044367,33.252582],[74.048833,33.249309],[74.052433,33.246877],[74.055493,33.24775],[74.061011,33.245638],[74.065454,33.242636],[74.062719,33.239746],[74.05967,33.237418],[74.056403,33.235222],[74.056978,33.230581],[74.06099,33.226395],[74.063392,33.222375],[74.067381,33.219578],[74.068645,33.222722],[74.071275,33.224672],[74.074928,33.226957],[74.076049,33.231046],[74.080624,33.234689],[74.084673,33.233914],[74.087714,33.234025],[74.092577,33.233265],[74.096635,33.230817],[74.099473,33.228948],[74.103517,33.227716],[74.106861,33.225372],[74.109337,33.222413],[74.112391,33.219981],[74.11553,33.217025],[74.120097,33.214103],[74.123937,33.211051],[74.12837,33.207661],[74.13199,33.206349],[74.135453,33.204527],[74.137435,33.202477],[74.139914,33.200616],[74.143044,33.198601],[74.144956,33.19617],[74.149632,33.193412],[74.153851,33.192776],[74.156252,33.194772],[74.159116,33.197804],[74.160084,33.202108],[74.161418,33.204989],[74.16387,33.206564],[74.167995,33.208607],[74.172955,33.206766],[74.175921,33.204174],[74.177646,33.201395],[74.18082,33.198188],[74.185877,33.196483],[74.191074,33.194707],[74.19715,33.194322],[74.201816,33.195293],[74.206771,33.19342],[74.208799,33.190376],[74.213361,33.189608],[74.21749,33.188614],[74.222024,33.187327],[74.2256,33.185386],[74.22928,33.18466],[74.233247,33.18388],[74.234825,33.187333],[74.23518,33.190443],[74.234439,33.19475],[74.234848,33.199084],[74.236006,33.202659],[74.230956,33.206145],[74.226812,33.210472],[74.222243,33.213366],[74.21801,33.215906],[74.2149,33.218416],[74.21217,33.220411],[74.20738,33.223681],[74.203536,33.225055],[74.200147,33.22519],[74.195903,33.227296],[74.192013,33.22869],[74.188944,33.232012],[74.186134,33.234102],[74.181948,33.233494],[74.177468,33.233326],[74.17223,33.235402],[74.172501,33.238507],[74.175211,33.240485],[74.179505,33.240961],[74.182513,33.243043],[74.18617,33.243527],[74.190107,33.245278],[74.195439,33.244923],[74.199526,33.243004],[74.202658,33.24157],[74.206245,33.240385],[74.20948,33.238654],[74.212633,33.238026],[74.21586,33.23822],[74.219848,33.239286]]]}},{"type":"Feature","properties":{"OBJECTID":3145,"state_lgd":"01","state_name":"JAMMU AND KASHMIR","district_lgd":"006","district_name":"RAJAURI","district_name_source":"district_table","subdistrict_lgd":"22","subdistrict_name":"RAJOURI","subdistrict_type":"","name_corrupted":false,"remarks":""},"geometry":{"type":"Polygon","coordinates":[[[74.15036,33.320773],[74.150359,33.320775],[74.149156,33.323617],[74.148766,33.324242],[74.148356,33.325507],[74.146147,33.329079],[74.144687,33.330338],[74.144492,33.330487],[74.143007,33.331561],[74.141914,33.332344],[74.141182,33.333122],[74.140691,33.333838],[74.140733,33.334312],[74.141049,33.334619],[74.142669,33.33537],[74.143535,33.335805],[74.143543,33.335822],[74.146784,33.338639],[74.147301,33.339427],[74.147347,33.339499],[74.148752,33.342261],[74.149318,33.342501],[74.152137,33.344435],[74.153096,33.345136],[74.158227,33.348616],[74.159959,33.349778],[74.160889,33.349676],[74.161574,33.349214],[74.164222,33.348744],[74.164452,33.349365],[74.164478,33.349452],[74.164712,33.350169],[74.164795,33.35029],[74.165855,33.353147],[74.165833,33.357581],[74.165452,33.357694],[74.165104,33.358153],[74.160768,33.361331],[74.160768,33.361331],[74.159881,33.361922],[74.157935,33.363484],[74.154341,33.365525],[74.152505,33.366083],[74.152274,33.366138],[74.150586,33.366518],[74.148989,33.36706],[74.147816,33.367793],[74.146539,33.369215],[74.145981,33.369924],[74.145423,33.370633],[74.144641,33.371863],[74.144338,33.37271],[74.144404,33.373913],[74.144412,33.374041],[74.14399,33.378166],[74.143871,33.378548],[74.143135,33.38061],[74.14298,33.381408],[74.141902,33.385141],[74.141795,33.385512],[74.139287,33.389628],[74.139161,33.389754],[74.138702,33.390326],[74.138551,33.390633],[74.138392,33.390958],[74.138313,33.391118],[74.137912,33.39224],[74.137645,33.393799],[74.137384,33.39503],[74.137279,33.395791],[74.137767,33.396505],[74.138088,33.396888],[74.139683,33.397333],[74.140339,33.39738],[74.145798,33.398579],[74.150551,33.401254],[74.150758,33.401388],[74.151199,33.402201],[74.151713,33.402747],[74.152755,33.403159],[74.153939,33.403449],[74.15404,33.403515],[74.156517,33.405113],[74.156887,33.405768],[74.157728,33.407167],[74.158557,33.407686],[74.158595,33.407735],[74.159691,33.408752],[74.159937,33.409194],[74.16003,33.409296],[74.160715,33.410048],[74.161494,33.410211],[74.162266,33.410176],[74.165324,33.410935],[74.166005,33.411145],[74.167252,33.411849],[74.169992,33.412372],[74.174035,33.412637],[74.17633,33.413968],[74.177137,33.414437],[74.177401,33.41459],[74.177525,33.414662],[74.177628,33.414721],[74.180576,33.417246],[74.180608,33.417272],[74.180684,33.417334],[74.180738,33.417379],[74.180765,33.417401],[74.18283,33.419096],[74.185501,33.421858],[74.187113,33.424523],[74.191283,33.423231],[74.194859,33.421582],[74.198458,33.419345],[74.200167,33.416415],[74.201954,33.413312],[74.203188,33.409857],[74.205016,33.406272],[74.207204,33.403295],[74.210628,33.400236],[74.213843,33.401031],[74.216645,33.403022],[74.219749,33.4052],[74.223309,33.407377],[74.226735,33.407508],[74.230526,33.408245],[74.231774,33.411424],[74.232374,33.414634],[74.235318,33.415059],[74.238595,33.414886],[74.241741,33.414247],[74.2423,33.411328],[74.240758,33.408553],[74.244076,33.407968],[74.247303,33.406065],[74.247753,33.400366],[74.25011,33.397866],[74.253671,33.395616],[74.257105,33.393891],[74.259783,33.39523],[74.260175,33.398864],[74.257931,33.401986],[74.254501,33.404835],[74.254703,33.408806],[74.251109,33.411941],[74.248353,33.413402],[74.247483,33.417699],[74.250648,33.419222],[74.255268,33.418209],[74.260222,33.416404],[74.258181,33.412542],[74.262785,33.410831],[74.265927,33.408634],[74.269999,33.410873],[74.271423,33.415592],[74.272712,33.420928],[74.274311,33.424135],[74.277057,33.424845],[74.282577,33.426422],[74.2863,33.42805],[74.28892,33.432453],[74.292854,33.434377],[74.2955,33.43721],[74.298449,33.43686],[74.302572,33.435614],[74.306604,33.433047],[74.30951,33.429239],[74.312119,33.42739],[74.315191,33.426656],[74.31837,33.426265],[74.322789,33.425679],[74.327598,33.425909],[74.332653,33.428368],[74.336156,33.433433],[74.339223,33.436809],[74.342292,33.439524],[74.344366,33.44377],[74.34871,33.445807],[74.351027,33.449274],[74.352295,33.452736],[74.354473,33.455732],[74.357634,33.450738],[74.360001,33.44677],[74.358707,33.443059],[74.356439,33.440926],[74.353279,33.438611],[74.349884,33.437467],[74.34717,33.435434],[74.344017,33.432153],[74.340633,33.428739],[74.338824,33.425221],[74.337087,33.420858],[74.340482,33.419089],[74.345425,33.42174],[74.348635,33.423977],[74.353837,33.424463],[74.358258,33.423972],[74.362341,33.42212],[74.365228,33.419436],[74.362597,33.416834],[74.359459,33.413142],[74.35993,33.404773],[74.363463,33.402189],[74.366422,33.401123],[74.37083,33.400006],[74.375282,33.396595],[74.3795,33.397478],[74.384102,33.398301],[74.389119,33.396436],[74.39258,33.395712],[74.395791,33.397377],[74.399403,33.395488],[74.40188,33.393539],[74.405625,33.392065],[74.409275,33.392364],[74.413295,33.395459],[74.416211,33.395654],[74.418937,33.392856],[74.420693,33.388707],[74.418257,33.384926],[74.417502,33.379421],[74.418031,33.37492],[74.418967,33.37044],[74.419431,33.366154],[74.419443,33.362372],[74.420118,33.357876],[74.418765,33.352193],[74.420285,33.348538],[74.41843,33.346101],[74.418858,33.343278],[74.416866,33.340215],[74.419016,33.337715],[74.421739,33.336119],[74.425308,33.332707],[74.4293,33.330213],[74.431688,33.327386],[74.43519,33.326726],[74.439712,33.325805],[74.444345,33.325188],[74.447525,33.3259],[74.451062,33.326156],[74.454888,33.325024],[74.459084,33.324625],[74.459116,33.31866],[74.458773,33.31419],[74.46079,33.311969],[74.463577,33.307491],[74.465246,33.30489],[74.461792,33.30496],[74.457828,33.303481],[74.454699,33.301959],[74.451576,33.300699],[74.447531,33.29836],[74.446802,33.292869],[74.443351,33.292068],[74.439111,33.293226],[74.434413,33.292041],[74.431154,33.29183],[74.425931,33.292103],[74.42146,33.29298],[74.418662,33.292563],[74.415395,33.288277],[74.41279,33.286447],[74.409852,33.286537],[74.406359,33.284831],[74.404556,33.282389],[74.400656,33.282211],[74.397357,33.282681],[74.395323,33.28059],[74.391276,33.280769],[74.38823,33.283642],[74.387332,33.286992],[74.384858,33.289965],[74.38295,33.292792],[74.379109,33.29527],[74.377533,33.292506],[74.376717,33.287418],[74.373565,33.281769],[74.368423,33.278515],[74.364912,33.278048],[74.361601,33.277795],[74.35814,33.276811],[74.353714,33.275298],[74.348331,33.27266],[74.340672,33.274604],[74.334955,33.277527],[74.330394,33.277938],[74.325049,33.274273],[74.32264,33.272333],[74.320329,33.26907],[74.318703,33.264971],[74.31652,33.260835],[74.313219,33.258662],[74.309059,33.255662],[74.306105,33.255466],[74.301937,33.256942],[74.298141,33.256458],[74.293478,33.256248],[74.286381,33.259255],[74.288525,33.262384],[74.283917,33.262239],[74.280511,33.262016],[74.277657,33.261551],[74.273619,33.26062],[74.269532,33.260427],[74.265129,33.257753],[74.263971,33.252655],[74.264098,33.249582],[74.263269,33.245643],[74.261373,33.243234],[74.258094,33.239483],[74.258576,33.236377],[74.256695,33.232836],[74.250855,33.232651],[74.24369,33.234115],[74.239267,33.234007],[74.234239,33.234849],[74.231595,33.236119],[74.226617,33.237157],[74.219848,33.239286],[74.213957,33.24227],[74.210395,33.243938],[74.207051,33.245793],[74.204678,33.24766],[74.202825,33.250926],[74.203235,33.253772],[74.203662,33.2574],[74.202926,33.260384],[74.201039,33.2627],[74.199434,33.260362],[74.195449,33.261332],[74.194495,33.265146],[74.197734,33.266093],[74.198514,33.269456],[74.200041,33.272915],[74.203516,33.274595],[74.206711,33.276417],[74.209865,33.276648],[74.213945,33.276183],[74.219985,33.277642],[74.226217,33.279051],[74.230986,33.278737],[74.233783,33.278032],[74.236844,33.27702],[74.236894,33.283149],[74.240036,33.285257],[74.242373,33.287563],[74.244874,33.291288],[74.241075,33.294643],[74.240531,33.29855],[74.237492,33.298535],[74.235693,33.295815],[74.233115,33.293152],[74.226173,33.290588],[74.221759,33.288662],[74.218057,33.287435],[74.214475,33.288557],[74.212452,33.29323],[74.20809,33.295589],[74.20456,33.298634],[74.199518,33.300043],[74.193246,33.303179],[74.187019,33.301711],[74.182841,33.302377],[74.18009,33.303977],[74.176676,33.30484],[74.172982,33.304688],[74.169309,33.303818],[74.166569,33.303003],[74.163412,33.305206],[74.16206,33.309325],[74.158384,33.312385],[74.153683,33.309267],[74.149575,33.308654],[74.148786,33.311465],[74.149689,33.316034],[74.150351,33.320707],[74.150352,33.320716],[74.150353,33.320721],[74.150359,33.320767],[74.15036,33.320773]]]}},{"type":"Feature","properties":{"OBJECTID":3146,"state_lgd":"01","state_name":"JAMMU AND KASHMIR","district_lgd":"006","district_name":"RAJAURI","district_name_source":"district_table","subdistrict_lgd":"3606","subdistrict_name":"BARI PATTAN","subdistrict_type":"","name_corrupted":false,"remarks":""},"geometry":{"type":"Polygon","coordinates":[[[74.373465,33.088223],[74.377737,33.086699],[74.38175,33.085],[74.385788,33.083535],[74.389342,33.083894],[74.391793,33.086289],[74.394926,33.085355],[74.39692,33.08268],[74.398437,33.080056],[74.401038,33.078201],[74.40479,33.077107],[74.409617,33.077307],[74.415441,33.07788],[74.419423,33.078582],[74.422493,33.078995],[74.426952,33.081206],[74.430406,33.083176],[74.433284,33.080549],[74.43522,33.076705],[74.434037,33.072588],[74.437039,33.070262],[74.438051,33.067031],[74.440003,33.064842],[74.439493,33.0625],[74.441356,33.059756],[74.442602,33.055813],[74.442706,33.052799],[74.440027,33.049683],[74.436014,33.047877],[74.432506,33.049689],[74.429177,33.051035],[74.417964,33.052292],[74.413961,33.052235],[74.412893,33.048984],[74.413487,33.04586],[74.414153,33.043037],[74.412024,33.039908],[74.413685,33.037496],[74.417598,33.038252],[74.421362,33.036576],[74.425812,33.035886],[74.429108,33.033828],[74.426887,33.028882],[74.423852,33.025287],[74.419945,33.024659],[74.415437,33.026284],[74.412734,33.027451],[74.409802,33.029724],[74.404818,33.03268],[74.400799,33.035302],[74.396828,33.036059],[74.392471,33.036038],[74.388378,33.036322],[74.385517,33.035676],[74.384416,33.033025],[74.39082,33.032186],[74.397629,33.028141],[74.402164,33.022159],[74.405115,33.021317],[74.409731,33.017947],[74.410415,33.014469],[74.411347,33.010886],[74.409419,33.007598],[74.412366,33.006654],[74.41642,33.005747],[74.419778,33.00519],[74.423041,33.004772],[74.427333,33.004829],[74.430767,33.004067],[74.429227,33.001005],[74.418881,32.999697],[74.414358,32.998392],[74.407155,32.993606],[74.397946,32.992034],[74.400464,32.990519],[74.403813,32.988116],[74.405692,32.985858],[74.408052,32.983664],[74.412478,32.979679],[74.409924,32.976084],[74.407766,32.973553],[74.405029,32.970585],[74.402821,32.966768],[74.399063,32.965677],[74.395572,32.966396],[74.392939,32.963529],[74.390881,32.95933],[74.387565,32.957733],[74.384358,32.956979],[74.381666,32.955398],[74.378781,32.954683],[74.375409,32.953482],[74.372098,32.95298],[74.370079,32.95075],[74.367022,32.95329],[74.362116,32.952936],[74.357653,32.952249],[74.354715,32.952803],[74.351525,32.951488],[74.34825,32.95333],[74.343655,32.95291],[74.341082,32.953158],[74.340198,32.953243],[74.339836,32.954393],[74.338959,32.957183],[74.338938,32.957248],[74.338054,32.960113],[74.337748,32.961172],[74.337443,32.962232],[74.336639,32.96548],[74.336273,32.966904],[74.335038,32.971581],[74.333918,32.975129],[74.332595,32.979416],[74.330083,32.987469],[74.329852,32.988211],[74.329552,32.989167],[74.328571,32.992926],[74.327595,32.996686],[74.326294,33.000302],[74.326004,33.000617],[74.32598,33.000651],[74.324704,33.001932],[74.324404,33.002185],[74.323397,33.003068],[74.322583,33.004172],[74.321609,33.00515],[74.320875,33.006241],[74.320564,33.007377],[74.320483,33.008887],[74.320495,33.010855],[74.320425,33.012486],[74.320431,33.012664],[74.320411,33.013107],[74.320292,33.014401],[74.320537,33.016182],[74.320574,33.01652],[74.320613,33.017568],[74.320401,33.019225],[74.320107,33.019991],[74.320205,33.020754],[74.320192,33.020854],[74.320215,33.020903],[74.320261,33.02179],[74.320806,33.023062],[74.321143,33.023698],[74.322069,33.02462],[74.325377,33.028635],[74.3238,33.031658],[74.319433,33.032134],[74.318035,33.03179],[74.316637,33.031446],[74.314583,33.030439],[74.314513,33.030399],[74.313716,33.029925],[74.313415,33.031103],[74.311502,33.034899],[74.311199,33.0355],[74.311142,33.03931],[74.314395,33.043876],[74.310894,33.043672],[74.301986,33.044039],[74.29688,33.04522],[74.291917,33.047193],[74.284774,33.049487],[74.27744,33.052388],[74.277718,33.055815],[74.277832,33.059794],[74.277382,33.064409],[74.279332,33.06727],[74.281207,33.069782],[74.284706,33.070844],[74.289064,33.072294],[74.289929,33.074574],[74.287944,33.079801],[74.289955,33.082172],[74.293883,33.082053],[74.298195,33.079959],[74.301211,33.080178],[74.302306,33.083735],[74.303206,33.087491],[74.303152,33.09091],[74.304887,33.093996],[74.308357,33.091224],[74.312874,33.090594],[74.313449,33.095387],[74.312968,33.099332],[74.315842,33.10319],[74.317821,33.106283],[74.318846,33.109926],[74.321139,33.114084],[74.32633,33.113263],[74.32998,33.111236],[74.331752,33.107287],[74.334742,33.105724],[74.338055,33.104795],[74.34118,33.104881],[74.345814,33.104908],[74.348727,33.102804],[74.350419,33.09958],[74.353798,33.100444],[74.356771,33.098966],[74.355257,33.094909],[74.359335,33.092587],[74.364602,33.091082],[74.368972,33.089165],[74.373465,33.088223]]]}},{"type":"Feature","properties":{"OBJECTID":3147,"state_lgd":"01","state_name":"JAMMU AND KASHMIR","district_lgd":"006","district_name":"RAJAURI","district_name_source":"district_table","subdistrict_lgd":"26","subdistrict_name":"SUNDERBANI","subdistrict_type":"","name_corrupted":false,"remarks":""},"geometry":{"type":"Polygon","coordinates":[[[74.582798,33.153726],[74.587638,33.154381],[74.590812,33.155002],[74.596741,33.156707],[74.601316,33.157535],[74.605065,33.154742],[74.609647,33.154056],[74.612169,33.150902],[74.61572,33.149465],[74.620143,33.147977],[74.625359,33.147041],[74.628694,33.144486],[74.630078,33.140711],[74.627899,33.137304],[74.625579,33.134352],[74.623512,33.131702],[74.6201,33.13174],[74.616604,33.129479],[74.616304,33.125432],[74.61855,33.122785],[74.621906,33.120087],[74.622386,33.116898],[74.62181,33.112656],[74.621925,33.112358],[74.623059,33.109426],[74.627358,33.107641],[74.630863,33.109424],[74.633807,33.108647],[74.631623,33.105982],[74.628585,33.104654],[74.624507,33.104374],[74.623772,33.101535],[74.626808,33.099201],[74.629394,33.097801],[74.630325,33.097226],[74.632387,33.095951],[74.633967,33.093418],[74.629203,33.090721],[74.625157,33.091834],[74.62129,33.09131],[74.616386,33.091225],[74.612183,33.091357],[74.606156,33.091055],[74.602243,33.087678],[74.600912,33.085353],[74.599582,33.083028],[74.598963,33.076627],[74.598307,33.072073],[74.595653,33.070553],[74.591112,33.069381],[74.587058,33.069396],[74.58304,33.067992],[74.579325,33.067936],[74.57613,33.068174],[74.57295,33.068637],[74.56953,33.068652],[74.566405,33.067821],[74.563142,33.067152],[74.563459,33.062311],[74.564559,33.057642],[74.564465,33.05752],[74.561802,33.054057],[74.557515,33.052484],[74.556696,33.052184],[74.554189,33.051951],[74.55401,33.051935],[74.550291,33.05159],[74.548329,33.051518],[74.547338,33.051482],[74.547163,33.051476],[74.545558,33.051418],[74.542989,33.051468],[74.540549,33.051516],[74.533546,33.051524],[74.529683,33.052126],[74.525842,33.054356],[74.520548,33.05568],[74.513834,33.055747],[74.510733,33.055194],[74.510262,33.052082],[74.512161,33.048364],[74.511691,33.046435],[74.511514,33.045708],[74.511221,33.044506],[74.508243,33.042079],[74.504049,33.041814],[74.498457,33.041707],[74.49666,33.036447],[74.499204,33.03398],[74.502946,33.032998],[74.507707,33.032189],[74.511385,33.031566],[74.513428,33.029279],[74.514765,33.024688],[74.514512,33.020194],[74.516021,33.015986],[74.512688,33.013451],[74.50924,33.014349],[74.504985,33.015863],[74.500184,33.016501],[74.496151,33.018086],[74.494859,33.017807],[74.493591,33.017533],[74.49103,33.01698],[74.48717,33.016229],[74.483458,33.016029],[74.478703,33.016657],[74.47496,33.016234],[74.471899,33.016161],[74.467985,33.016228],[74.463653,33.015236],[74.46045,33.016122],[74.456159,33.015617],[74.451933,33.015111],[74.447506,33.014292],[74.445558,33.010034],[74.446536,33.006324],[74.445747,33.00243],[74.443868,33.000282],[74.441033,32.998847],[74.433329,32.995502],[74.428764,32.993992],[74.423694,32.991348],[74.420803,32.989324],[74.417248,32.986155],[74.414913,32.983196],[74.412478,32.979679],[74.408052,32.983664],[74.405692,32.985858],[74.403813,32.988116],[74.400464,32.990519],[74.397946,32.992034],[74.407155,32.993606],[74.414358,32.998392],[74.418881,32.999697],[74.429227,33.001005],[74.430767,33.004067],[74.427333,33.004829],[74.423041,33.004772],[74.419778,33.00519],[74.41642,33.005747],[74.412366,33.006654],[74.409419,33.007598],[74.411347,33.010886],[74.410415,33.014469],[74.409731,33.017947],[74.405115,33.021317],[74.402164,33.022159],[74.397629,33.028141],[74.39082,33.032186],[74.384416,33.033025],[74.385517,33.035676],[74.388378,33.036322],[74.392471,33.036038],[74.396828,33.036059],[74.400799,33.035302],[74.404818,33.03268],[74.409802,33.029724],[74.412734,33.027451],[74.415437,33.026284],[74.419945,33.024659],[74.423852,33.025287],[74.426887,33.028882],[74.429108,33.033828],[74.425812,33.035886],[74.421362,33.036576],[74.417598,33.038252],[74.413685,33.037496],[74.412024,33.039908],[74.414153,33.043037],[74.413487,33.04586],[74.412893,33.048984],[74.413961,33.052235],[74.417964,33.052292],[74.429177,33.051035],[74.432506,33.049689],[74.436014,33.047877],[74.440027,33.049683],[74.442706,33.052799],[74.442602,33.055813],[74.441356,33.059756],[74.439493,33.0625],[74.440003,33.064842],[74.438051,33.067031],[74.437039,33.070262],[74.434037,33.072588],[74.43522,33.076705],[74.433284,33.080549],[74.430406,33.083176],[74.432978,33.086484],[74.436442,33.090959],[74.438037,33.094596],[74.439989,33.097235],[74.443195,33.096202],[74.446713,33.095089],[74.450839,33.096305],[74.455518,33.096252],[74.459134,33.098895],[74.461541,33.101176],[74.466023,33.102075],[74.470633,33.102043],[74.471985,33.106724],[74.469523,33.110793],[74.466716,33.11284],[74.463624,33.115833],[74.460733,33.119029],[74.464054,33.1207],[74.468031,33.118929],[74.471525,33.121635],[74.474115,33.124106],[74.478553,33.123141],[74.482145,33.120846],[74.484911,33.124462],[74.487163,33.127755],[74.488204,33.131291],[74.492712,33.130485],[74.495974,33.129713],[74.499977,33.126949],[74.502413,33.123451],[74.503511,33.120585],[74.506465,33.119107],[74.509571,33.118133],[74.513339,33.11924],[74.5196,33.121253],[74.522848,33.121618],[74.529753,33.121411],[74.53519,33.120994],[74.538153,33.122249],[74.542902,33.121951],[74.547485,33.121616],[74.551731,33.120955],[74.555171,33.120717],[74.558045,33.120365],[74.561206,33.118683],[74.564031,33.120699],[74.566138,33.124147],[74.57048,33.126413],[74.56944,33.129405],[74.565073,33.130999],[74.563565,33.134853],[74.568128,33.136765],[74.570648,33.138577],[74.570609,33.142564],[74.570815,33.145619],[74.569882,33.148789],[74.565087,33.1506],[74.561579,33.151345],[74.558568,33.152221],[74.559856,33.15728],[74.556405,33.160598],[74.554177,33.164405],[74.556893,33.166365],[74.561039,33.165904],[74.565883,33.163974],[74.569325,33.161285],[74.571269,33.157848],[74.575309,33.156167],[74.579052,33.15446],[74.582798,33.153726]]]}}]}