{
"type": "FeatureCollection",
"name": "462_SIDHI",
"crs": { "type": "name", "properties": { "name": "urn:ogc:def:crs:OGC:1.3:CRS84" } },
"xy_coordinate_resolution": 1e-05,
"features": [
{ "type": "Feature", "properties": { "OBJECTID": 4390, "state_lgd": "23", "state_name": "MADHYA PRADESH", "district_lgd": "462", "district_name": "SIDHI", "district_name_source": "district_table", "subdistrict_lgd": "6394", "subdistrict_name": "BAHARI", "subdistrict_type": "", "name_corrupted": false, "remarks": "", "label_lon": 82.136890685237077, "label_lat": 24.451870780409521 }, "geometry": { "type": "Polygon", "coordinates": [ [ [ 82.33635, 24.55952 ], [ 82.35851, 24.55936 ], [ 82.3805, 24.55605 ], [ 82.37703, 24.55363 ], [ 82.37142, 24.54423 ], [ 82.36784, 24.5405 ], [ 82.35686, 24.53615 ], [ 82.35184, 24.53214 ], [ 82.34719, 24.52613 ], [ 82.34066, 24.5131 ], [ 82.33791, 24.50977 ], [ 82.32625, 24.50475 ], [ 82.31845, 24.50037 ], [ 82.3034, 24.50216 ], [ 82.29601, 24.50187 ], [ 82.29251, 24.5007 ], [ 82.2879, 24.49734 ], [ 82.2786, 24.48711 ], [ 82.27755, 24.48445 ], [ 82.27853, 24.48184 ], [ 82.27759, 24.48082 ], [ 82.26842, 24.47872 ], [ 82.2636, 24.48074 ], [ 82.25978, 24.47887 ], [ 82.25769, 24.47358 ], [ 82.25655, 24.46614 ], [ 82.25233, 24.464 ], [ 82.2482, 24.46348 ], [ 82.2456, 24.46446 ], [ 82.24255, 24.46788 ], [ 82.23959, 24.46723 ], [ 82.23812, 24.46307 ], [ 82.23787, 24.44589 ], [ 82.23628, 24.44291 ], [ 82.23301, 24.43938 ], [ 82.22546, 24.43627 ], [ 82.22198, 24.43582 ], [ 82.21859, 24.43644 ], [ 82.21601, 24.43581 ], [ 82.20428, 24.42648 ], [ 82.1984, 24.42426 ], [ 82.19642, 24.42368 ], [ 82.19278, 24.4252 ], [ 82.18943, 24.42444 ], [ 82.18818, 24.4226 ], [ 82.18776, 24.41945 ], [ 82.18926, 24.41677 ], [ 82.19215, 24.41407 ], [ 82.19671, 24.41203 ], [ 82.20488, 24.4005 ], [ 82.20488, 24.39465 ], [ 82.20264, 24.39041 ], [ 82.19745, 24.38603 ], [ 82.1933, 24.38382 ], [ 82.18295, 24.38171 ], [ 82.17249, 24.3827 ], [ 82.16459, 24.38198 ], [ 82.16208, 24.3869 ], [ 82.16024, 24.38809 ], [ 82.15531, 24.38917 ], [ 82.15055, 24.38806 ], [ 82.14994, 24.38611 ], [ 82.15453, 24.38185 ], [ 82.15744, 24.37772 ], [ 82.16048, 24.37043 ], [ 82.16638, 24.36043 ], [ 82.16562, 24.35738 ], [ 82.16321, 24.35625 ], [ 82.16109, 24.35631 ], [ 82.15622, 24.3604 ], [ 82.15426, 24.36092 ], [ 82.14815, 24.36032 ], [ 82.14331, 24.35749 ], [ 82.14106, 24.35698 ], [ 82.13726, 24.35933 ], [ 82.13594, 24.35927 ], [ 82.13224, 24.36221 ], [ 82.12552, 24.36026 ], [ 82.11869, 24.35975 ], [ 82.11547, 24.35778 ], [ 82.11113, 24.35096 ], [ 82.10982, 24.34759 ], [ 82.10964, 24.34442 ], [ 82.10715, 24.33834 ], [ 82.10777, 24.335 ], [ 82.11526, 24.32857 ], [ 82.11677, 24.32606 ], [ 82.11754, 24.32173 ], [ 82.11644, 24.32004 ], [ 82.11398, 24.31849 ], [ 82.0988, 24.31489 ], [ 82.09167, 24.30965 ], [ 82.08828, 24.30835 ], [ 82.08186, 24.30639 ], [ 82.07985, 24.30802 ], [ 82.07821, 24.31038 ], [ 82.0798, 24.31388 ], [ 82.08001, 24.31562 ], [ 82.07922, 24.31731 ], [ 82.08019, 24.31862 ], [ 82.07744, 24.32335 ], [ 82.07526, 24.32492 ], [ 82.07609, 24.32819 ], [ 82.07445, 24.32964 ], [ 82.07569, 24.332 ], [ 82.07512, 24.33401 ], [ 82.06993, 24.33689 ], [ 82.06924, 24.3383 ], [ 82.0667, 24.33764 ], [ 82.06531, 24.33857 ], [ 82.06514, 24.3403 ], [ 82.06836, 24.34159 ], [ 82.0658, 24.3442 ], [ 82.06432, 24.34357 ], [ 82.0628, 24.34137 ], [ 82.06, 24.34065 ], [ 82.05904, 24.34158 ], [ 82.05917, 24.34316 ], [ 82.06082, 24.34447 ], [ 82.06124, 24.34735 ], [ 82.065, 24.34862 ], [ 82.06488, 24.35002 ], [ 82.06275, 24.35016 ], [ 82.05459, 24.34673 ], [ 82.05291, 24.3475 ], [ 82.05359, 24.34878 ], [ 82.06102, 24.35221 ], [ 82.06198, 24.35397 ], [ 82.06147, 24.35518 ], [ 82.05988, 24.35504 ], [ 82.05867, 24.35613 ], [ 82.04913, 24.35359 ], [ 82.03965, 24.35421 ], [ 82.03776, 24.355 ], [ 82.04214, 24.35608 ], [ 82.05109, 24.35573 ], [ 82.05778, 24.35779 ], [ 82.05939, 24.35904 ], [ 82.05877, 24.36581 ], [ 82.06369, 24.36581 ], [ 82.06818, 24.36699 ], [ 82.07126, 24.36859 ], [ 82.07186, 24.37065 ], [ 82.07, 24.37058 ], [ 82.06931, 24.37179 ], [ 82.06685, 24.3724 ], [ 82.06776, 24.37192 ], [ 82.06782, 24.37089 ], [ 82.06465, 24.37064 ], [ 82.06465, 24.37257 ], [ 82.0657, 24.37269 ], [ 82.06506, 24.37303 ], [ 82.06165, 24.3721 ], [ 82.0632, 24.37461 ], [ 82.06059, 24.37718 ], [ 82.05389, 24.37541 ], [ 82.05044, 24.37527 ], [ 82.04977, 24.37927 ], [ 82.05052, 24.38 ], [ 82.04952, 24.38145 ], [ 82.04774, 24.38852 ], [ 82.05081, 24.38988 ], [ 82.05158, 24.39243 ], [ 82.04932, 24.39416 ], [ 82.04441, 24.39372 ], [ 82.04249, 24.39644 ], [ 82.04186, 24.39593 ], [ 82.04204, 24.39648 ], [ 82.04019, 24.39704 ], [ 82.04009, 24.39888 ], [ 82.03773, 24.39945 ], [ 82.03681, 24.39817 ], [ 82.03279, 24.39645 ], [ 82.03007, 24.39427 ], [ 82.02694, 24.39446 ], [ 82.02286, 24.39225 ], [ 82.01413, 24.39158 ], [ 82.00905, 24.38999 ], [ 82.00928, 24.38817 ], [ 82.00656, 24.38799 ], [ 81.99572, 24.38266 ], [ 81.99488, 24.38369 ], [ 81.98846, 24.38492 ], [ 81.98316, 24.38452 ], [ 81.98133, 24.38293 ], [ 81.98131, 24.38446 ], [ 81.97388, 24.38462 ], [ 81.97404, 24.38725 ], [ 81.97325, 24.38728 ], [ 81.97284, 24.39197 ], [ 81.97362, 24.39555 ], [ 81.97142, 24.397 ], [ 81.97104, 24.39893 ], [ 81.97302, 24.39965 ], [ 81.97437, 24.40425 ], [ 81.97117, 24.40623 ], [ 81.9694, 24.40645 ], [ 81.96915, 24.40718 ], [ 81.97129, 24.41621 ], [ 81.97045, 24.42166 ], [ 81.97266, 24.42419 ], [ 81.97408, 24.42409 ], [ 81.97358, 24.42466 ], [ 81.97467, 24.42735 ], [ 81.97466, 24.42952 ], [ 81.9737, 24.42994 ], [ 81.97441, 24.43023 ], [ 81.97384, 24.43495 ], [ 81.97231, 24.43614 ], [ 81.97312, 24.43691 ], [ 81.97275, 24.43753 ], [ 81.97374, 24.43765 ], [ 81.97385, 24.43884 ], [ 81.97475, 24.43795 ], [ 81.97545, 24.43987 ], [ 81.97377, 24.4462 ], [ 81.975, 24.44848 ], [ 81.98315, 24.44969 ], [ 81.9828, 24.45511 ], [ 81.98349, 24.45461 ], [ 81.98453, 24.4554 ], [ 81.98454, 24.45429 ], [ 81.98574, 24.45441 ], [ 81.98743, 24.45592 ], [ 81.98812, 24.45568 ], [ 81.98886, 24.45774 ], [ 81.98874, 24.46105 ], [ 81.98767, 24.46128 ], [ 81.98752, 24.46331 ], [ 81.98485, 24.46441 ], [ 81.98124, 24.46418 ], [ 81.98038, 24.46282 ], [ 81.97497, 24.46291 ], [ 81.97161, 24.46121 ], [ 81.96832, 24.46157 ], [ 81.96797, 24.46105 ], [ 81.96718, 24.46521 ], [ 81.96755, 24.46733 ], [ 81.96885, 24.46905 ], [ 81.97634, 24.47105 ], [ 81.97728, 24.47222 ], [ 81.98402, 24.47447 ], [ 81.98276, 24.47702 ], [ 81.98161, 24.47715 ], [ 81.97875, 24.4833 ], [ 82.01488, 24.4981 ], [ 82.02759, 24.50132 ], [ 82.0402, 24.50238 ], [ 82.04908, 24.50048 ], [ 82.0728, 24.50396 ], [ 82.0857, 24.50076 ], [ 82.09716, 24.49985 ], [ 82.12395, 24.50426 ], [ 82.13384, 24.50684 ], [ 82.13972, 24.5091 ], [ 82.15242, 24.5179 ], [ 82.15972, 24.52103 ], [ 82.17359, 24.52348 ], [ 82.19019, 24.52237 ], [ 82.19853, 24.52287 ], [ 82.20229, 24.52636 ], [ 82.20205, 24.53421 ], [ 82.20328, 24.53772 ], [ 82.20992, 24.54654 ], [ 82.21812, 24.5507 ], [ 82.23118, 24.55389 ], [ 82.24821, 24.55411 ], [ 82.26024, 24.55293 ], [ 82.27024, 24.55028 ], [ 82.27948, 24.54593 ], [ 82.28324, 24.54211 ], [ 82.28673, 24.53524 ], [ 82.2909, 24.53092 ], [ 82.29656, 24.52816 ], [ 82.30174, 24.52789 ], [ 82.30546, 24.52869 ], [ 82.31633, 24.53323 ], [ 82.3271, 24.53961 ], [ 82.33222, 24.54647 ], [ 82.33312, 24.54947 ], [ 82.33245, 24.55433 ], [ 82.33294, 24.55657 ], [ 82.33493, 24.55862 ], [ 82.33635, 24.55952 ] ] ] } },
{ "type": "Feature", "properties": { "OBJECTID": 4391, "state_lgd": "23", "state_name": "MADHYA PRADESH", "district_lgd": "462", "district_name": "SIDHI", "district_name_source": "district_table", "subdistrict_lgd": "3698", "subdistrict_name": "CHURHAT", "subdistrict_type": "", "name_corrupted": false, "remarks": "", "label_lon": 81.778259997820555, "label_lat": 24.473616621012869 }, "geometry": { "type": "Polygon", "coordinates": [ [ [ 81.9635, 24.55448 ], [ 81.96176, 24.55029 ], [ 81.96223, 24.54782 ], [ 81.96052, 24.54476 ], [ 81.95033, 24.54092 ], [ 81.95134, 24.53784 ], [ 81.9569, 24.53307 ], [ 81.95833, 24.53264 ], [ 81.96017, 24.53325 ], [ 81.96212, 24.53081 ], [ 81.9636, 24.53036 ], [ 81.96197, 24.51032 ], [ 81.96302, 24.51035 ], [ 81.96579, 24.50514 ], [ 81.96254, 24.50472 ], [ 81.96208, 24.5038 ], [ 81.96086, 24.50426 ], [ 81.9603, 24.49813 ], [ 81.96091, 24.49764 ], [ 81.95943, 24.49474 ], [ 81.96042, 24.48941 ], [ 81.96663, 24.48956 ], [ 81.96742, 24.48531 ], [ 81.96904, 24.48326 ], [ 81.96945, 24.47963 ], [ 81.91129, 24.46536 ], [ 81.8815, 24.46293 ], [ 81.87082, 24.46127 ], [ 81.85345, 24.45663 ], [ 81.8327, 24.44942 ], [ 81.82233, 24.44733 ], [ 81.79938, 24.4439 ], [ 81.79132, 24.44463 ], [ 81.78342, 24.44753 ], [ 81.77807, 24.44748 ], [ 81.77092, 24.44367 ], [ 81.75868, 24.43454 ], [ 81.73092, 24.4199 ], [ 81.72519, 24.41786 ], [ 81.69973, 24.4124 ], [ 81.69109, 24.40843 ], [ 81.68245, 24.40285 ], [ 81.66702, 24.39774 ], [ 81.65941, 24.39803 ], [ 81.64086, 24.4018 ], [ 81.64094, 24.40588 ], [ 81.63923, 24.40673 ], [ 81.63241, 24.40499 ], [ 81.62941, 24.40524 ], [ 81.62826, 24.40472 ], [ 81.62838, 24.40326 ], [ 81.62764, 24.40267 ], [ 81.62065, 24.40353 ], [ 81.61645, 24.39939 ], [ 81.61392, 24.40205 ], [ 81.61331, 24.40392 ], [ 81.61085, 24.40326 ], [ 81.61085, 24.4051 ], [ 81.60811, 24.40613 ], [ 81.6068, 24.40545 ], [ 81.60722, 24.40161 ], [ 81.60622, 24.40227 ], [ 81.60452, 24.40067 ], [ 81.60331, 24.4007 ], [ 81.60052, 24.40384 ], [ 81.60221, 24.4069 ], [ 81.60163, 24.40808 ], [ 81.60298, 24.40901 ], [ 81.60257, 24.40994 ], [ 81.60151, 24.40911 ], [ 81.60195, 24.40976 ], [ 81.60103, 24.41165 ], [ 81.60022, 24.41102 ], [ 81.59873, 24.41198 ], [ 81.59791, 24.41045 ], [ 81.59686, 24.41108 ], [ 81.59574, 24.41005 ], [ 81.59488, 24.41025 ], [ 81.59534, 24.41143 ], [ 81.59098, 24.41107 ], [ 81.5903, 24.41197 ], [ 81.58924, 24.4116 ], [ 81.58861, 24.41305 ], [ 81.58827, 24.41218 ], [ 81.58644, 24.41195 ], [ 81.58429, 24.41293 ], [ 81.58474, 24.41323 ], [ 81.58386, 24.41429 ], [ 81.58298, 24.4138 ], [ 81.58237, 24.41516 ], [ 81.57997, 24.41671 ], [ 81.57859, 24.41637 ], [ 81.57799, 24.41733 ], [ 81.578, 24.41659 ], [ 81.57483, 24.41684 ], [ 81.57467, 24.41835 ], [ 81.5729, 24.41806 ], [ 81.57209, 24.41936 ], [ 81.57113, 24.41848 ], [ 81.56894, 24.42008 ], [ 81.56902, 24.42206 ], [ 81.56826, 24.42247 ], [ 81.56856, 24.42546 ], [ 81.57222, 24.42717 ], [ 81.5731, 24.42916 ], [ 81.57492, 24.42911 ], [ 81.57512, 24.43143 ], [ 81.57682, 24.4313 ], [ 81.57442, 24.43396 ], [ 81.57494, 24.43756 ], [ 81.57083, 24.4371 ], [ 81.57126, 24.43971 ], [ 81.57054, 24.44286 ], [ 81.55474, 24.43832 ], [ 81.55332, 24.43974 ], [ 81.55355, 24.441 ], [ 81.55975, 24.44241 ], [ 81.55957, 24.44333 ], [ 81.562, 24.44423 ], [ 81.56787, 24.44462 ], [ 81.56935, 24.44585 ], [ 81.57063, 24.4455 ], [ 81.57118, 24.44651 ], [ 81.57642, 24.44719 ], [ 81.57731, 24.44902 ], [ 81.58117, 24.44887 ], [ 81.5831, 24.44944 ], [ 81.58346, 24.45065 ], [ 81.58401, 24.44976 ], [ 81.58685, 24.4523 ], [ 81.58925, 24.45236 ], [ 81.59038, 24.45391 ], [ 81.59163, 24.45301 ], [ 81.59437, 24.4544 ], [ 81.60255, 24.4553 ], [ 81.61224, 24.45976 ], [ 81.62401, 24.46142 ], [ 81.63046, 24.46349 ], [ 81.6431, 24.46953 ], [ 81.6569, 24.47461 ], [ 81.65761, 24.47587 ], [ 81.6605, 24.47748 ], [ 81.66141, 24.47684 ], [ 81.66674, 24.47977 ], [ 81.66733, 24.48034 ], [ 81.66657, 24.48243 ], [ 81.67812, 24.48938 ], [ 81.67891, 24.48924 ], [ 81.67914, 24.49089 ], [ 81.68077, 24.49039 ], [ 81.68196, 24.49167 ], [ 81.68221, 24.49378 ], [ 81.68349, 24.49409 ], [ 81.6841, 24.49285 ], [ 81.68573, 24.49305 ], [ 81.69101, 24.49581 ], [ 81.69181, 24.49749 ], [ 81.69296, 24.49687 ], [ 81.69509, 24.49792 ], [ 81.69478, 24.49951 ], [ 81.69692, 24.49812 ], [ 81.70393, 24.50083 ], [ 81.70339, 24.50171 ], [ 81.70392, 24.50202 ], [ 81.70768, 24.50161 ], [ 81.71369, 24.50321 ], [ 81.7155, 24.50472 ], [ 81.71685, 24.50755 ], [ 81.71761, 24.50771 ], [ 81.71835, 24.50623 ], [ 81.72005, 24.50633 ], [ 81.72652, 24.50823 ], [ 81.72822, 24.51056 ], [ 81.73655, 24.51089 ], [ 81.73887, 24.50389 ], [ 81.74067, 24.50469 ], [ 81.74534, 24.5025 ], [ 81.75845, 24.50193 ], [ 81.76724, 24.50324 ], [ 81.7803, 24.5065 ], [ 81.78955, 24.50539 ], [ 81.78924, 24.50627 ], [ 81.78576, 24.50735 ], [ 81.7857, 24.50962 ], [ 81.79561, 24.51503 ], [ 81.8007, 24.51208 ], [ 81.80248, 24.50908 ], [ 81.80573, 24.5072 ], [ 81.80588, 24.5061 ], [ 81.81458, 24.5096 ], [ 81.81753, 24.50878 ], [ 81.82277, 24.51046 ], [ 81.82644, 24.51258 ], [ 81.82611, 24.51415 ], [ 81.82832, 24.51631 ], [ 81.83072, 24.5146 ], [ 81.83258, 24.51448 ], [ 81.83523, 24.51568 ], [ 81.83703, 24.51786 ], [ 81.84023, 24.51674 ], [ 81.84267, 24.51707 ], [ 81.84759, 24.51947 ], [ 81.84832, 24.51892 ], [ 81.85179, 24.51983 ], [ 81.85501, 24.52178 ], [ 81.86544, 24.52372 ], [ 81.87069, 24.52622 ], [ 81.88019, 24.52739 ], [ 81.88059, 24.52882 ], [ 81.88194, 24.52754 ], [ 81.8846, 24.52936 ], [ 81.88687, 24.52951 ], [ 81.88757, 24.53234 ], [ 81.88879, 24.53219 ], [ 81.88978, 24.5302 ], [ 81.89298, 24.52894 ], [ 81.89773, 24.52836 ], [ 81.89669, 24.54143 ], [ 81.89462, 24.544 ], [ 81.89473, 24.54638 ], [ 81.89142, 24.55271 ], [ 81.89349, 24.55446 ], [ 81.89655, 24.55537 ], [ 81.90322, 24.55565 ], [ 81.9091, 24.55787 ], [ 81.92278, 24.56094 ], [ 81.92219, 24.5622 ], [ 81.92503, 24.56349 ], [ 81.92329, 24.56369 ], [ 81.92311, 24.56454 ], [ 81.92434, 24.56488 ], [ 81.92678, 24.56908 ], [ 81.92917, 24.56936 ], [ 81.9301, 24.56859 ], [ 81.93066, 24.56969 ], [ 81.93253, 24.56883 ], [ 81.93301, 24.56992 ], [ 81.93466, 24.56862 ], [ 81.93542, 24.56942 ], [ 81.93695, 24.56815 ], [ 81.9388, 24.56921 ], [ 81.94025, 24.56811 ], [ 81.94194, 24.56857 ], [ 81.94204, 24.56937 ], [ 81.9463, 24.56993 ], [ 81.94654, 24.5715 ], [ 81.94886, 24.57235 ], [ 81.94877, 24.57353 ], [ 81.95114, 24.57421 ], [ 81.94949, 24.57067 ], [ 81.95022, 24.56648 ], [ 81.95232, 24.56418 ], [ 81.95149, 24.55572 ], [ 81.95176, 24.54652 ], [ 81.95311, 24.54624 ], [ 81.95507, 24.55089 ], [ 81.9563, 24.55175 ], [ 81.95934, 24.55226 ], [ 81.96072, 24.55394 ], [ 81.9635, 24.55448 ] ] ] } },
{ "type": "Feature", "properties": { "OBJECTID": 4392, "state_lgd": "23", "state_name": "MADHYA PRADESH", "district_lgd": "462", "district_name": "SIDHI", "district_name_source": "district_table", "subdistrict_lgd": "3699", "subdistrict_name": "GOPADBANAS", "subdistrict_type": "", "name_corrupted": false, "remarks": "", "label_lon": 81.866044173338793, "label_lat": 24.327178552032148 }, "geometry": { "type": "Polygon", "coordinates": [ [ [ 81.98166, 24.47711 ], [ 81.98276, 24.47702 ], [ 81.98398, 24.4744 ], [ 81.97728, 24.47222 ], [ 81.97634, 24.47105 ], [ 81.96885, 24.46905 ], [ 81.96755, 24.46733 ], [ 81.96718, 24.46521 ], [ 81.96797, 24.46105 ], [ 81.96832, 24.46157 ], [ 81.97161, 24.46121 ], [ 81.97497, 24.46291 ], [ 81.98038, 24.46282 ], [ 81.98124, 24.46418 ], [ 81.98452, 24.46442 ], [ 81.98752, 24.46331 ], [ 81.98767, 24.46128 ], [ 81.98874, 24.46105 ], [ 81.98812, 24.45568 ], [ 81.98466, 24.45424 ], [ 81.98453, 24.4554 ], [ 81.98349, 24.45461 ], [ 81.9828, 24.45511 ], [ 81.98315, 24.44969 ], [ 81.975, 24.44848 ], [ 81.97377, 24.4462 ], [ 81.97545, 24.43987 ], [ 81.97475, 24.43795 ], [ 81.97385, 24.43884 ], [ 81.97374, 24.43765 ], [ 81.97275, 24.43753 ], [ 81.97312, 24.43691 ], [ 81.97231, 24.43614 ], [ 81.97384, 24.43495 ], [ 81.97441, 24.43023 ], [ 81.9737, 24.42994 ], [ 81.97466, 24.42952 ], [ 81.97467, 24.42735 ], [ 81.97358, 24.42466 ], [ 81.97408, 24.42409 ], [ 81.97266, 24.42419 ], [ 81.97045, 24.42166 ], [ 81.97129, 24.41621 ], [ 81.96915, 24.40718 ], [ 81.9694, 24.40645 ], [ 81.97117, 24.40623 ], [ 81.97437, 24.40425 ], [ 81.97302, 24.39965 ], [ 81.97104, 24.39893 ], [ 81.97142, 24.397 ], [ 81.97362, 24.39555 ], [ 81.97284, 24.39197 ], [ 81.97325, 24.38728 ], [ 81.97404, 24.38725 ], [ 81.97388, 24.38462 ], [ 81.98131, 24.38446 ], [ 81.98133, 24.38293 ], [ 81.98316, 24.38452 ], [ 81.98846, 24.38492 ], [ 81.99488, 24.38369 ], [ 81.99572, 24.38266 ], [ 82.00656, 24.38799 ], [ 82.00928, 24.38817 ], [ 82.00905, 24.38999 ], [ 82.01413, 24.39158 ], [ 82.02286, 24.39225 ], [ 82.02694, 24.39446 ], [ 82.03007, 24.39427 ], [ 82.03279, 24.39645 ], [ 82.03681, 24.39817 ], [ 82.03773, 24.39945 ], [ 82.04009, 24.39888 ], [ 82.04019, 24.39704 ], [ 82.04204, 24.39648 ], [ 82.04186, 24.39593 ], [ 82.04249, 24.39644 ], [ 82.04455, 24.39365 ], [ 82.04932, 24.39416 ], [ 82.05084, 24.3933 ], [ 82.05168, 24.39217 ], [ 82.05081, 24.38988 ], [ 82.04774, 24.38852 ], [ 82.04952, 24.38145 ], [ 82.05052, 24.38 ], [ 82.04977, 24.37927 ], [ 82.05044, 24.37527 ], [ 82.05389, 24.37541 ], [ 82.06059, 24.37718 ], [ 82.0632, 24.37461 ], [ 82.06165, 24.3721 ], [ 82.06506, 24.37303 ], [ 82.0657, 24.37269 ], [ 82.06465, 24.37257 ], [ 82.06465, 24.37064 ], [ 82.06782, 24.37089 ], [ 82.06776, 24.37192 ], [ 82.06685, 24.3724 ], [ 82.06931, 24.37179 ], [ 82.07, 24.37058 ], [ 82.07183, 24.37069 ], [ 82.07145, 24.36893 ], [ 82.06818, 24.36699 ], [ 82.06369, 24.36581 ], [ 82.05877, 24.36581 ], [ 82.05939, 24.35904 ], [ 82.05778, 24.35779 ], [ 82.05109, 24.35573 ], [ 82.04214, 24.35608 ], [ 82.03776, 24.355 ], [ 82.03965, 24.35421 ], [ 82.04913, 24.35359 ], [ 82.05867, 24.35613 ], [ 82.05988, 24.35504 ], [ 82.06147, 24.35518 ], [ 82.06198, 24.35397 ], [ 82.06102, 24.35221 ], [ 82.05359, 24.34878 ], [ 82.05291, 24.3475 ], [ 82.05459, 24.34673 ], [ 82.06275, 24.35016 ], [ 82.06488, 24.35002 ], [ 82.065, 24.34862 ], [ 82.06124, 24.34735 ], [ 82.06082, 24.34447 ], [ 82.05917, 24.34316 ], [ 82.05904, 24.34158 ], [ 82.06, 24.34065 ], [ 82.0628, 24.34137 ], [ 82.06432, 24.34357 ], [ 82.0658, 24.3442 ], [ 82.06836, 24.34159 ], [ 82.06514, 24.3403 ], [ 82.06531, 24.33857 ], [ 82.0667, 24.33764 ], [ 82.06924, 24.3383 ], [ 82.06993, 24.33689 ], [ 82.07512, 24.33401 ], [ 82.07569, 24.332 ], [ 82.07445, 24.32964 ], [ 82.07609, 24.32819 ], [ 82.07526, 24.32492 ], [ 82.07744, 24.32335 ], [ 82.08019, 24.31862 ], [ 82.07922, 24.31731 ], [ 82.08001, 24.31562 ], [ 82.0798, 24.31388 ], [ 82.07822, 24.31016 ], [ 82.08186, 24.30639 ], [ 82.0718, 24.30246 ], [ 82.06633, 24.30128 ], [ 82.06436, 24.30202 ], [ 82.05904, 24.30771 ], [ 82.0529, 24.3089 ], [ 82.04064, 24.30663 ], [ 82.03286, 24.30319 ], [ 82.03213, 24.3009 ], [ 82.03284, 24.29809 ], [ 82.03996, 24.29197 ], [ 82.04264, 24.28673 ], [ 82.04129, 24.2811 ], [ 82.0322, 24.26947 ], [ 82.02285, 24.26376 ], [ 82.02039, 24.2614 ], [ 82.01466, 24.25196 ], [ 82.00712, 24.2439 ], [ 82.00186, 24.23623 ], [ 81.99972, 24.23489 ], [ 81.99159, 24.23423 ], [ 81.98546, 24.23149 ], [ 81.97958, 24.23154 ], [ 81.97354, 24.23871 ], [ 81.96771, 24.24046 ], [ 81.96602, 24.24172 ], [ 81.96498, 24.24411 ], [ 81.96415, 24.25071 ], [ 81.96153, 24.25469 ], [ 81.95771, 24.25556 ], [ 81.95406, 24.25441 ], [ 81.95323, 24.25355 ], [ 81.95276, 24.25048 ], [ 81.95693, 24.2385 ], [ 81.95697, 24.23512 ], [ 81.95612, 24.23375 ], [ 81.95267, 24.23135 ], [ 81.94951, 24.23139 ], [ 81.94394, 24.23768 ], [ 81.94144, 24.23844 ], [ 81.94013, 24.23801 ], [ 81.93815, 24.23458 ], [ 81.93682, 24.22001 ], [ 81.93582, 24.21749 ], [ 81.9341, 24.21562 ], [ 81.93065, 24.21378 ], [ 81.92066, 24.21551 ], [ 81.91916, 24.21509 ], [ 81.91589, 24.20645 ], [ 81.91362, 24.19736 ], [ 81.9118, 24.19401 ], [ 81.90901, 24.19133 ], [ 81.8993, 24.18804 ], [ 81.89577, 24.18343 ], [ 81.88976, 24.18342 ], [ 81.8836, 24.1848 ], [ 81.88489, 24.1889 ], [ 81.88721, 24.19264 ], [ 81.88728, 24.2275 ], [ 81.88512, 24.22837 ], [ 81.88616, 24.2299 ], [ 81.8857, 24.23265 ], [ 81.88795, 24.23458 ], [ 81.8884, 24.23851 ], [ 81.88589, 24.24117 ], [ 81.88441, 24.24445 ], [ 81.88278, 24.24471 ], [ 81.88185, 24.24877 ], [ 81.87826, 24.24806 ], [ 81.87827, 24.2516 ], [ 81.87903, 24.25176 ], [ 81.87955, 24.25326 ], [ 81.8788, 24.25447 ], [ 81.87898, 24.25791 ], [ 81.87713, 24.25841 ], [ 81.87504, 24.25737 ], [ 81.87538, 24.25536 ], [ 81.87261, 24.25339 ], [ 81.8725, 24.25238 ], [ 81.87503, 24.25187 ], [ 81.87206, 24.24753 ], [ 81.86974, 24.24857 ], [ 81.86696, 24.247 ], [ 81.86377, 24.24696 ], [ 81.86241, 24.24532 ], [ 81.85993, 24.24599 ], [ 81.85666, 24.24535 ], [ 81.85349, 24.24287 ], [ 81.85001, 24.24144 ], [ 81.84286, 24.24111 ], [ 81.84411, 24.23874 ], [ 81.84278, 24.23857 ], [ 81.84167, 24.23593 ], [ 81.84288, 24.23623 ], [ 81.84456, 24.23456 ], [ 81.84399, 24.23265 ], [ 81.84294, 24.2326 ], [ 81.84101, 24.23031 ], [ 81.83899, 24.22934 ], [ 81.83666, 24.22431 ], [ 81.83515, 24.22489 ], [ 81.83442, 24.22047 ], [ 81.83264, 24.21994 ], [ 81.82802, 24.22105 ], [ 81.82558, 24.22048 ], [ 81.82529, 24.21732 ], [ 81.82227, 24.21479 ], [ 81.82301, 24.21357 ], [ 81.82519, 24.21353 ], [ 81.82606, 24.21278 ], [ 81.82556, 24.20605 ], [ 81.8334, 24.21001 ], [ 81.83381, 24.20822 ], [ 81.82659, 24.20325 ], [ 81.82384, 24.20229 ], [ 81.81728, 24.19732 ], [ 81.81066, 24.1966 ], [ 81.80881, 24.1943 ], [ 81.80831, 24.19149 ], [ 81.80206, 24.19058 ], [ 81.79642, 24.18639 ], [ 81.79209, 24.18702 ], [ 81.79039, 24.18822 ], [ 81.78293, 24.18849 ], [ 81.77759, 24.19016 ], [ 81.77693, 24.19312 ], [ 81.77436, 24.19294 ], [ 81.7744, 24.19431 ], [ 81.77097, 24.19312 ], [ 81.77, 24.19172 ], [ 81.76623, 24.19321 ], [ 81.76502, 24.1922 ], [ 81.76657, 24.19623 ], [ 81.76543, 24.19811 ], [ 81.76664, 24.19916 ], [ 81.76654, 24.20545 ], [ 81.76523, 24.207 ], [ 81.76318, 24.20698 ], [ 81.76078, 24.20412 ], [ 81.75744, 24.20469 ], [ 81.75603, 24.20206 ], [ 81.75125, 24.20137 ], [ 81.74936, 24.20182 ], [ 81.7489, 24.20057 ], [ 81.74647, 24.19979 ], [ 81.74594, 24.20173 ], [ 81.73707, 24.19967 ], [ 81.73385, 24.19586 ], [ 81.73313, 24.19374 ], [ 81.7334, 24.19017 ], [ 81.73117, 24.189 ], [ 81.73002, 24.19191 ], [ 81.7291, 24.1919 ], [ 81.73081, 24.19538 ], [ 81.73279, 24.19688 ], [ 81.73072, 24.20001 ], [ 81.72998, 24.19979 ], [ 81.72929, 24.19762 ], [ 81.72799, 24.19743 ], [ 81.7278, 24.19279 ], [ 81.72684, 24.19265 ], [ 81.72738, 24.19078 ], [ 81.72648, 24.19028 ], [ 81.7267, 24.18951 ], [ 81.72746, 24.18985 ], [ 81.72703, 24.18862 ], [ 81.72856, 24.18857 ], [ 81.7284, 24.18726 ], [ 81.72574, 24.18622 ], [ 81.72563, 24.18492 ], [ 81.72291, 24.18577 ], [ 81.72266, 24.18329 ], [ 81.72082, 24.18309 ], [ 81.71995, 24.18041 ], [ 81.71915, 24.18012 ], [ 81.71956, 24.17896 ], [ 81.71868, 24.17746 ], [ 81.71641, 24.17853 ], [ 81.71491, 24.17721 ], [ 81.71046, 24.17723 ], [ 81.70657, 24.1786 ], [ 81.70515, 24.17692 ], [ 81.70185, 24.17614 ], [ 81.70043, 24.17747 ], [ 81.69626, 24.17853 ], [ 81.69206, 24.1811 ], [ 81.68512, 24.1793 ], [ 81.68333, 24.17991 ], [ 81.68366, 24.18182 ], [ 81.682, 24.18378 ], [ 81.68214, 24.1867 ], [ 81.68029, 24.18576 ], [ 81.68292, 24.19355 ], [ 81.68268, 24.1981 ], [ 81.68375, 24.2038 ], [ 81.68458, 24.20539 ], [ 81.68629, 24.20564 ], [ 81.68767, 24.20706 ], [ 81.68247, 24.20971 ], [ 81.68295, 24.21589 ], [ 81.68169, 24.21807 ], [ 81.68824, 24.21939 ], [ 81.69086, 24.21826 ], [ 81.69227, 24.21921 ], [ 81.68915, 24.21983 ], [ 81.68832, 24.22096 ], [ 81.68609, 24.22052 ], [ 81.6854, 24.21919 ], [ 81.68408, 24.21959 ], [ 81.68281, 24.22128 ], [ 81.68026, 24.21835 ], [ 81.67929, 24.21836 ], [ 81.67887, 24.21889 ], [ 81.68, 24.22121 ], [ 81.67834, 24.22097 ], [ 81.67728, 24.22215 ], [ 81.67503, 24.22235 ], [ 81.6746, 24.22372 ], [ 81.67359, 24.22317 ], [ 81.67069, 24.22509 ], [ 81.66638, 24.22414 ], [ 81.66681, 24.22639 ], [ 81.66895, 24.22689 ], [ 81.67517, 24.22535 ], [ 81.67766, 24.22557 ], [ 81.6753, 24.2284 ], [ 81.67543, 24.22944 ], [ 81.67971, 24.22963 ], [ 81.68035, 24.23149 ], [ 81.68003, 24.23295 ], [ 81.67741, 24.23361 ], [ 81.67231, 24.23237 ], [ 81.66997, 24.23083 ], [ 81.66622, 24.23072 ], [ 81.66572, 24.23207 ], [ 81.66627, 24.23396 ], [ 81.66565, 24.23474 ], [ 81.66637, 24.23621 ], [ 81.66614, 24.24208 ], [ 81.66516, 24.24468 ], [ 81.663, 24.24458 ], [ 81.66306, 24.24798 ], [ 81.66533, 24.2506 ], [ 81.66718, 24.25524 ], [ 81.66603, 24.2554 ], [ 81.66423, 24.25907 ], [ 81.66119, 24.26002 ], [ 81.66135, 24.26131 ], [ 81.66737, 24.26226 ], [ 81.66781, 24.26097 ], [ 81.6708, 24.26055 ], [ 81.67346, 24.26304 ], [ 81.68304, 24.26672 ], [ 81.68518, 24.26481 ], [ 81.69255, 24.26621 ], [ 81.69676, 24.26475 ], [ 81.70005, 24.26559 ], [ 81.70716, 24.2649 ], [ 81.70943, 24.26281 ], [ 81.70863, 24.26148 ], [ 81.71041, 24.26247 ], [ 81.71242, 24.26138 ], [ 81.71483, 24.26176 ], [ 81.71723, 24.26101 ], [ 81.72027, 24.2629 ], [ 81.72131, 24.26252 ], [ 81.72579, 24.26711 ], [ 81.72792, 24.26741 ], [ 81.72915, 24.26618 ], [ 81.73256, 24.26846 ], [ 81.73905, 24.2683 ], [ 81.73717, 24.26893 ], [ 81.7348, 24.27284 ], [ 81.73872, 24.27459 ], [ 81.73906, 24.27715 ], [ 81.73836, 24.27841 ], [ 81.73579, 24.27977 ], [ 81.73079, 24.28046 ], [ 81.72841, 24.28177 ], [ 81.72716, 24.28391 ], [ 81.73161, 24.28695 ], [ 81.73062, 24.28759 ], [ 81.73087, 24.28868 ], [ 81.73706, 24.29067 ], [ 81.73936, 24.29212 ], [ 81.74067, 24.29429 ], [ 81.74256, 24.29384 ], [ 81.74281, 24.29664 ], [ 81.73734, 24.29611 ], [ 81.73888, 24.29935 ], [ 81.74333, 24.30108 ], [ 81.74642, 24.30362 ], [ 81.74849, 24.3031 ], [ 81.75135, 24.30427 ], [ 81.75359, 24.3079 ], [ 81.75005, 24.30843 ], [ 81.74594, 24.30756 ], [ 81.74223, 24.3078 ], [ 81.74182, 24.31096 ], [ 81.74081, 24.31231 ], [ 81.73884, 24.31309 ], [ 81.73701, 24.31567 ], [ 81.73383, 24.32322 ], [ 81.7313, 24.32631 ], [ 81.73154, 24.32892 ], [ 81.72801, 24.33467 ], [ 81.71737, 24.33282 ], [ 81.71674, 24.33498 ], [ 81.71571, 24.33579 ], [ 81.71642, 24.34034 ], [ 81.71564, 24.34215 ], [ 81.7172, 24.34311 ], [ 81.71739, 24.3468 ], [ 81.71839, 24.34724 ], [ 81.71826, 24.349 ], [ 81.71931, 24.35078 ], [ 81.72114, 24.35142 ], [ 81.72086, 24.354 ], [ 81.72201, 24.35547 ], [ 81.72173, 24.35649 ], [ 81.71934, 24.357 ], [ 81.71564, 24.35959 ], [ 81.71648, 24.36177 ], [ 81.718, 24.36307 ], [ 81.71627, 24.36257 ], [ 81.71106, 24.36311 ], [ 81.7104, 24.36891 ], [ 81.71109, 24.37108 ], [ 81.70772, 24.36972 ], [ 81.70908, 24.37852 ], [ 81.70732, 24.37946 ], [ 81.71241, 24.38166 ], [ 81.71021, 24.3825 ], [ 81.71013, 24.3819 ], [ 81.70906, 24.38191 ], [ 81.70825, 24.38324 ], [ 81.70494, 24.38472 ], [ 81.70409, 24.38883 ], [ 81.70472, 24.3892 ], [ 81.70472, 24.39449 ], [ 81.70383, 24.39906 ], [ 81.70293, 24.39993 ], [ 81.70293, 24.40139 ], [ 81.69945, 24.40437 ], [ 81.70023, 24.40582 ], [ 81.70132, 24.40535 ], [ 81.70266, 24.40704 ], [ 81.70029, 24.40945 ], [ 81.69957, 24.41234 ], [ 81.72519, 24.41786 ], [ 81.73092, 24.4199 ], [ 81.75868, 24.43454 ], [ 81.77092, 24.44367 ], [ 81.77807, 24.44748 ], [ 81.78342, 24.44753 ], [ 81.79132, 24.44463 ], [ 81.79938, 24.4439 ], [ 81.80966, 24.44538 ], [ 81.8327, 24.44942 ], [ 81.85345, 24.45663 ], [ 81.87082, 24.46127 ], [ 81.8815, 24.46293 ], [ 81.91129, 24.46536 ], [ 81.96945, 24.47963 ], [ 81.97502, 24.48127 ], [ 81.97875, 24.4833 ], [ 81.98166, 24.47711 ] ] ] } },
{ "type": "Feature", "properties": { "OBJECTID": 4393, "state_lgd": "23", "state_name": "MADHYA PRADESH", "district_lgd": "462", "district_name": "SIDHI", "district_name_source": "district_table", "subdistrict_lgd": "3702", "subdistrict_name": "KUSMI", "subdistrict_type": "", "name_corrupted": false, "remarks": "", "label_lon": 81.872607624561425, "label_lat": 23.946822521924101 }, "geometry": { "type": "Polygon", "coordinates": [ [ [ 81.8851, 24.11962 ], [ 81.90351, 24.11639 ], [ 81.90708, 24.11316 ], [ 81.90873, 24.10543 ], [ 81.90862, 24.09973 ], [ 81.90657, 24.08869 ], [ 81.90725, 24.08506 ], [ 81.90955, 24.08317 ], [ 81.91884, 24.07846 ], [ 81.9455, 24.06758 ], [ 81.94964, 24.06442 ], [ 81.95224, 24.05942 ], [ 81.95469, 24.05141 ], [ 81.95734, 24.04806 ], [ 81.96116, 24.04519 ], [ 81.96249, 24.04291 ], [ 81.96222, 24.03595 ], [ 81.95816, 24.02655 ], [ 81.95833, 24.02282 ], [ 81.96281, 24.0172 ], [ 81.96898, 24.01325 ], [ 81.97892, 24.012 ], [ 81.98628, 24.01483 ], [ 81.99286, 24.01916 ], [ 81.99558, 24.01818 ], [ 82.001, 24.01242 ], [ 82.00414, 24.01155 ], [ 82.00667, 24.01338 ], [ 82.01399, 24.02376 ], [ 82.01667, 24.03021 ], [ 82.01867, 24.03069 ], [ 82.02256, 24.02909 ], [ 82.03046, 24.01888 ], [ 82.03742, 24.012 ], [ 82.04019, 24.00787 ], [ 82.04806, 24.00285 ], [ 82.05349, 24.00214 ], [ 82.06959, 24.00396 ], [ 82.07483, 24.00229 ], [ 82.07755, 24.00495 ], [ 82.0802, 24.01641 ], [ 82.0824, 24.01791 ], [ 82.08553, 24.01786 ], [ 82.08724, 24.01663 ], [ 82.0886, 24.01388 ], [ 82.08943, 24.00973 ], [ 82.08924, 24.00363 ], [ 82.09114, 23.99839 ], [ 82.09078, 23.99357 ], [ 82.09146, 23.99115 ], [ 82.09455, 23.98822 ], [ 82.09666, 23.98782 ], [ 82.09962, 23.9888 ], [ 82.10156, 23.98981 ], [ 82.10519, 23.99382 ], [ 82.10777, 23.99504 ], [ 82.11359, 23.99635 ], [ 82.12219, 23.9965 ], [ 82.12825, 23.99468 ], [ 82.13336, 23.99112 ], [ 82.1513, 23.97537 ], [ 82.15453, 23.9736 ], [ 82.16033, 23.97365 ], [ 82.16431, 23.97685 ], [ 82.167, 23.98054 ], [ 82.16795, 23.98484 ], [ 82.16796, 23.99662 ], [ 82.17043, 24.00141 ], [ 82.17261, 24.00115 ], [ 82.17543, 23.99823 ], [ 82.17891, 23.98952 ], [ 82.18115, 23.98606 ], [ 82.18321, 23.98411 ], [ 82.18682, 23.98235 ], [ 82.20017, 23.97992 ], [ 82.20257, 23.98135 ], [ 82.20584, 23.98654 ], [ 82.20741, 23.98757 ], [ 82.21265, 23.98777 ], [ 82.21707, 23.98656 ], [ 82.21834, 23.98434 ], [ 82.21747, 23.9786 ], [ 82.21574, 23.97508 ], [ 82.21628, 23.9669 ], [ 82.21552, 23.96248 ], [ 82.21213, 23.95838 ], [ 82.20347, 23.95191 ], [ 82.20311, 23.94906 ], [ 82.20474, 23.94676 ], [ 82.21249, 23.9438 ], [ 82.2136, 23.94184 ], [ 82.21394, 23.93854 ], [ 82.21286, 23.92986 ], [ 82.21469, 23.92574 ], [ 82.2177, 23.92434 ], [ 82.22495, 23.92356 ], [ 82.22997, 23.92189 ], [ 82.23395, 23.91994 ], [ 82.23558, 23.91826 ], [ 82.23597, 23.90929 ], [ 82.23414, 23.90752 ], [ 82.22681, 23.90397 ], [ 82.22524, 23.89925 ], [ 82.22673, 23.89586 ], [ 82.2298, 23.89434 ], [ 82.23958, 23.89321 ], [ 82.24262, 23.89128 ], [ 82.24012, 23.88356 ], [ 82.23635, 23.88058 ], [ 82.225, 23.87465 ], [ 82.22286, 23.87243 ], [ 82.2194, 23.86546 ], [ 82.21801, 23.86028 ], [ 82.21186, 23.85193 ], [ 82.20507, 23.84885 ], [ 82.20128, 23.84864 ], [ 82.19924, 23.84349 ], [ 82.19714, 23.84165 ], [ 82.18887, 23.84259 ], [ 82.18743, 23.84147 ], [ 82.18622, 23.83867 ], [ 82.18085, 23.83628 ], [ 82.17969, 23.83315 ], [ 82.17856, 23.82162 ], [ 82.17146, 23.81824 ], [ 82.16523, 23.81947 ], [ 82.16383, 23.82068 ], [ 82.15228, 23.81717 ], [ 82.14876, 23.81689 ], [ 82.14589, 23.81544 ], [ 82.14436, 23.81623 ], [ 82.14206, 23.81555 ], [ 82.14172, 23.81689 ], [ 82.13906, 23.81675 ], [ 82.13711, 23.81825 ], [ 82.13532, 23.81763 ], [ 82.12929, 23.81903 ], [ 82.12785, 23.8205 ], [ 82.12337, 23.82205 ], [ 82.12112, 23.81939 ], [ 82.11659, 23.81701 ], [ 82.11167, 23.81696 ], [ 82.10665, 23.81867 ], [ 82.10452, 23.81718 ], [ 82.09544, 23.81553 ], [ 82.09418, 23.81668 ], [ 82.09047, 23.81553 ], [ 82.08728, 23.81562 ], [ 82.086, 23.81648 ], [ 82.08327, 23.81542 ], [ 82.07764, 23.81864 ], [ 82.07233, 23.81704 ], [ 82.06901, 23.81817 ], [ 82.06687, 23.81737 ], [ 82.06173, 23.81916 ], [ 82.05691, 23.81934 ], [ 82.05358, 23.81837 ], [ 82.05236, 23.82002 ], [ 82.05244, 23.82165 ], [ 82.04974, 23.82257 ], [ 82.04924, 23.82422 ], [ 82.04589, 23.82414 ], [ 82.04332, 23.8257 ], [ 82.04098, 23.82525 ], [ 82.03842, 23.82684 ], [ 82.03932, 23.82854 ], [ 82.03876, 23.83313 ], [ 82.04087, 23.83292 ], [ 82.04127, 23.83688 ], [ 82.04405, 23.83883 ], [ 82.04469, 23.84095 ], [ 82.04418, 23.84165 ], [ 82.04054, 23.84276 ], [ 82.03475, 23.84641 ], [ 82.02047, 23.84907 ], [ 82.01745, 23.85096 ], [ 82.01692, 23.85382 ], [ 82.01258, 23.85612 ], [ 82.00881, 23.86108 ], [ 82.00283, 23.86122 ], [ 82.00093, 23.86218 ], [ 81.98907, 23.86043 ], [ 81.98599, 23.86192 ], [ 81.98171, 23.86089 ], [ 81.97932, 23.85729 ], [ 81.97721, 23.85624 ], [ 81.97033, 23.85723 ], [ 81.96541, 23.85591 ], [ 81.96359, 23.85361 ], [ 81.96027, 23.85553 ], [ 81.95943, 23.85293 ], [ 81.9578, 23.85228 ], [ 81.95556, 23.85341 ], [ 81.95417, 23.85712 ], [ 81.94993, 23.85665 ], [ 81.94608, 23.85877 ], [ 81.9459, 23.85948 ], [ 81.94728, 23.86071 ], [ 81.94692, 23.86189 ], [ 81.93849, 23.86235 ], [ 81.93823, 23.86409 ], [ 81.94047, 23.86559 ], [ 81.93965, 23.86775 ], [ 81.93131, 23.87055 ], [ 81.92147, 23.87091 ], [ 81.92029, 23.87044 ], [ 81.9204, 23.86732 ], [ 81.91576, 23.85893 ], [ 81.91044, 23.85722 ], [ 81.9102, 23.85419 ], [ 81.90866, 23.85108 ], [ 81.90628, 23.84992 ], [ 81.90609, 23.84606 ], [ 81.90455, 23.84472 ], [ 81.902, 23.84486 ], [ 81.89875, 23.84072 ], [ 81.89223, 23.84052 ], [ 81.88816, 23.83555 ], [ 81.86771, 23.83414 ], [ 81.86628, 23.82869 ], [ 81.86307, 23.82446 ], [ 81.85634, 23.82285 ], [ 81.85041, 23.8237 ], [ 81.84668, 23.82182 ], [ 81.8382, 23.8211 ], [ 81.83653, 23.81998 ], [ 81.83688, 23.8162 ], [ 81.82916, 23.81503 ], [ 81.82751, 23.81381 ], [ 81.82738, 23.8106 ], [ 81.82538, 23.81039 ], [ 81.82282, 23.80772 ], [ 81.81926, 23.80775 ], [ 81.815, 23.80645 ], [ 81.80874, 23.81342 ], [ 81.80609, 23.8131 ], [ 81.7959, 23.81489 ], [ 81.79459, 23.81438 ], [ 81.79313, 23.80991 ], [ 81.79112, 23.80935 ], [ 81.78245, 23.81378 ], [ 81.77836, 23.81429 ], [ 81.77316, 23.8164 ], [ 81.76212, 23.82361 ], [ 81.75451, 23.83075 ], [ 81.75111, 23.83244 ], [ 81.74286, 23.83377 ], [ 81.73962, 23.83595 ], [ 81.73735, 23.83918 ], [ 81.73444, 23.8396 ], [ 81.73223, 23.84086 ], [ 81.72846, 23.83902 ], [ 81.72547, 23.83982 ], [ 81.72466, 23.84094 ], [ 81.72504, 23.84463 ], [ 81.72591, 23.84614 ], [ 81.72969, 23.84894 ], [ 81.73198, 23.85668 ], [ 81.7283, 23.85944 ], [ 81.72402, 23.8597 ], [ 81.7202, 23.86221 ], [ 81.71731, 23.86233 ], [ 81.70906, 23.86047 ], [ 81.70749, 23.86113 ], [ 81.70728, 23.86505 ], [ 81.70967, 23.86915 ], [ 81.70974, 23.87125 ], [ 81.7077, 23.87419 ], [ 81.70383, 23.87593 ], [ 81.7073, 23.88045 ], [ 81.70731, 23.88236 ], [ 81.70265, 23.88619 ], [ 81.6942, 23.88431 ], [ 81.69044, 23.88476 ], [ 81.68872, 23.89087 ], [ 81.68885, 23.9029 ], [ 81.68754, 23.90648 ], [ 81.68256, 23.9114 ], [ 81.67937, 23.91141 ], [ 81.67231, 23.91339 ], [ 81.67158, 23.91494 ], [ 81.67172, 23.91955 ], [ 81.66947, 23.92414 ], [ 81.66791, 23.92525 ], [ 81.66238, 23.92427 ], [ 81.66071, 23.92228 ], [ 81.65919, 23.91755 ], [ 81.65778, 23.91634 ], [ 81.6469, 23.91397 ], [ 81.63847, 23.91083 ], [ 81.63645, 23.90759 ], [ 81.63218, 23.90582 ], [ 81.62076, 23.90673 ], [ 81.61424, 23.90519 ], [ 81.61265, 23.90394 ], [ 81.6098, 23.90393 ], [ 81.60836, 23.90149 ], [ 81.61047, 23.89877 ], [ 81.61157, 23.89229 ], [ 81.60965, 23.88937 ], [ 81.60402, 23.88484 ], [ 81.60289, 23.887 ], [ 81.60032, 23.8891 ], [ 81.59615, 23.88961 ], [ 81.59118, 23.8916 ], [ 81.58956, 23.89306 ], [ 81.58599, 23.89908 ], [ 81.57808, 23.90442 ], [ 81.56991, 23.91181 ], [ 81.56652, 23.91356 ], [ 81.56145, 23.91407 ], [ 81.55217, 23.90835 ], [ 81.54415, 23.91234 ], [ 81.54183, 23.91556 ], [ 81.54072, 23.91921 ], [ 81.53876, 23.93786 ], [ 81.53903, 23.9424 ], [ 81.54113, 23.94775 ], [ 81.54345, 23.95118 ], [ 81.54895, 23.95492 ], [ 81.55663, 23.95537 ], [ 81.55643, 23.95887 ], [ 81.5531, 23.96437 ], [ 81.54651, 23.96759 ], [ 81.54385, 23.97231 ], [ 81.54208, 23.97873 ], [ 81.5383, 23.98212 ], [ 81.5302, 23.98313 ], [ 81.52009, 23.97948 ], [ 81.51568, 23.97897 ], [ 81.50953, 23.98034 ], [ 81.50754, 23.98187 ], [ 81.50456, 23.98663 ], [ 81.50269, 23.99321 ], [ 81.50234, 23.99769 ], [ 81.50599, 24.00881 ], [ 81.51279, 24.01486 ], [ 81.51372, 24.01656 ], [ 81.513, 24.02055 ], [ 81.50967, 24.02415 ], [ 81.48735, 24.03063 ], [ 81.48383, 24.03228 ], [ 81.48132, 24.03518 ], [ 81.48124, 24.03717 ], [ 81.48314, 24.04019 ], [ 81.49489, 24.04116 ], [ 81.5069, 24.03901 ], [ 81.51045, 24.03958 ], [ 81.51511, 24.04171 ], [ 81.52177, 24.04625 ], [ 81.5265, 24.05099 ], [ 81.53272, 24.06332 ], [ 81.53629, 24.06737 ], [ 81.54151, 24.06836 ], [ 81.55189, 24.06701 ], [ 81.55596, 24.06874 ], [ 81.55754, 24.0705 ], [ 81.5589, 24.07338 ], [ 81.55722, 24.07659 ], [ 81.55402, 24.08014 ], [ 81.54735, 24.08398 ], [ 81.54793, 24.0845 ], [ 81.55166, 24.08702 ], [ 81.55948, 24.09036 ], [ 81.56036, 24.09229 ], [ 81.5618, 24.09235 ], [ 81.56258, 24.09391 ], [ 81.56778, 24.09356 ], [ 81.57108, 24.09725 ], [ 81.57232, 24.09591 ], [ 81.57449, 24.0958 ], [ 81.57763, 24.09413 ], [ 81.58285, 24.09715 ], [ 81.58669, 24.09702 ], [ 81.58782, 24.09555 ], [ 81.58916, 24.09582 ], [ 81.59372, 24.09357 ], [ 81.59111, 24.09103 ], [ 81.59105, 24.08828 ], [ 81.59303, 24.08338 ], [ 81.57925, 24.07639 ], [ 81.57807, 24.07796 ], [ 81.57276, 24.07916 ], [ 81.57087, 24.07332 ], [ 81.56868, 24.07323 ], [ 81.5676, 24.07028 ], [ 81.56577, 24.07042 ], [ 81.56585, 24.07308 ], [ 81.56471, 24.07397 ], [ 81.56074, 24.07141 ], [ 81.56884, 24.05538 ], [ 81.57107, 24.0548 ], [ 81.57154, 24.05375 ], [ 81.5751, 24.05289 ], [ 81.57512, 24.04848 ], [ 81.58145, 24.04811 ], [ 81.57988, 24.04588 ], [ 81.57943, 24.04324 ], [ 81.58527, 24.03622 ], [ 81.58995, 24.03697 ], [ 81.59537, 24.03674 ], [ 81.59735, 24.03807 ], [ 81.59903, 24.03638 ], [ 81.60121, 24.03681 ], [ 81.60214, 24.03893 ], [ 81.6067, 24.04008 ], [ 81.60982, 24.04373 ], [ 81.61174, 24.04415 ], [ 81.61231, 24.04644 ], [ 81.61478, 24.04874 ], [ 81.61512, 24.05037 ], [ 81.62042, 24.05212 ], [ 81.62426, 24.05154 ], [ 81.6277, 24.05315 ], [ 81.62904, 24.05769 ], [ 81.63271, 24.06027 ], [ 81.6353, 24.05972 ], [ 81.63764, 24.06106 ], [ 81.64415, 24.05934 ], [ 81.64851, 24.05965 ], [ 81.65167, 24.05431 ], [ 81.6519, 24.05159 ], [ 81.65374, 24.05323 ], [ 81.65354, 24.05545 ], [ 81.65533, 24.05793 ], [ 81.65685, 24.05704 ], [ 81.6599, 24.05727 ], [ 81.66033, 24.05597 ], [ 81.65639, 24.05422 ], [ 81.66026, 24.04727 ], [ 81.66417, 24.05578 ], [ 81.6672, 24.05709 ], [ 81.66661, 24.06503 ], [ 81.6682, 24.06567 ], [ 81.66742, 24.0697 ], [ 81.67053, 24.06943 ], [ 81.67564, 24.07215 ], [ 81.67832, 24.06969 ], [ 81.68699, 24.06501 ], [ 81.68838, 24.06518 ], [ 81.68959, 24.06399 ], [ 81.68917, 24.06238 ], [ 81.69057, 24.06032 ], [ 81.69455, 24.06006 ], [ 81.69838, 24.06152 ], [ 81.70738, 24.06018 ], [ 81.71235, 24.05572 ], [ 81.7158, 24.0589 ], [ 81.7176, 24.06176 ], [ 81.72189, 24.05976 ], [ 81.72249, 24.05739 ], [ 81.72524, 24.05544 ], [ 81.72995, 24.05512 ], [ 81.73168, 24.05258 ], [ 81.73498, 24.05336 ], [ 81.73604, 24.05463 ], [ 81.73605, 24.05614 ], [ 81.7381, 24.05443 ], [ 81.73781, 24.05385 ], [ 81.7409, 24.05225 ], [ 81.74315, 24.05279 ], [ 81.75311, 24.05183 ], [ 81.75499, 24.05226 ], [ 81.75721, 24.0542 ], [ 81.76171, 24.04864 ], [ 81.77572, 24.05409 ], [ 81.77793, 24.05402 ], [ 81.7803, 24.05032 ], [ 81.78303, 24.04815 ], [ 81.78456, 24.0422 ], [ 81.78424, 24.03971 ], [ 81.78224, 24.03465 ], [ 81.77754, 24.03148 ], [ 81.77609, 24.02944 ], [ 81.77581, 24.0273 ], [ 81.77421, 24.02474 ], [ 81.77522, 24.02111 ], [ 81.77374, 24.01516 ], [ 81.76957, 24.01454 ], [ 81.76946, 24.01258 ], [ 81.77325, 24.01331 ], [ 81.77374, 24.01248 ], [ 81.77493, 24.01273 ], [ 81.77504, 24.01128 ], [ 81.76954, 24.01065 ], [ 81.77046, 24.00555 ], [ 81.7693, 23.99659 ], [ 81.77832, 24.00396 ], [ 81.78695, 24.00237 ], [ 81.79039, 23.99883 ], [ 81.796, 23.99956 ], [ 81.80467, 23.99557 ], [ 81.80967, 23.9967 ], [ 81.80532, 24.00293 ], [ 81.80199, 24.01008 ], [ 81.80305, 24.01586 ], [ 81.80585, 24.01755 ], [ 81.80751, 24.02053 ], [ 81.81868, 24.02767 ], [ 81.82036, 24.03349 ], [ 81.82368, 24.0362 ], [ 81.82594, 24.03609 ], [ 81.83058, 24.04029 ], [ 81.83286, 24.04641 ], [ 81.83272, 24.04777 ], [ 81.83639, 24.05221 ], [ 81.83715, 24.05464 ], [ 81.84007, 24.05586 ], [ 81.8444, 24.05439 ], [ 81.84854, 24.05425 ], [ 81.84905, 24.05606 ], [ 81.85067, 24.05702 ], [ 81.84892, 24.06299 ], [ 81.84927, 24.06812 ], [ 81.85029, 24.07029 ], [ 81.85125, 24.07054 ], [ 81.84994, 24.07222 ], [ 81.85029, 24.07403 ], [ 81.84937, 24.07392 ], [ 81.84814, 24.07511 ], [ 81.84668, 24.07979 ], [ 81.84743, 24.08241 ], [ 81.84932, 24.08422 ], [ 81.84838, 24.08891 ], [ 81.84643, 24.08897 ], [ 81.84651, 24.09176 ], [ 81.84842, 24.09162 ], [ 81.84736, 24.09258 ], [ 81.8479, 24.09562 ], [ 81.84901, 24.09605 ], [ 81.84782, 24.09737 ], [ 81.85339, 24.09726 ], [ 81.86501, 24.09405 ], [ 81.86752, 24.10157 ], [ 81.87089, 24.10605 ], [ 81.87547, 24.10432 ], [ 81.8766, 24.10589 ], [ 81.87715, 24.1057 ], [ 81.87811, 24.10792 ], [ 81.88191, 24.10925 ], [ 81.88161, 24.10992 ], [ 81.88321, 24.11144 ], [ 81.88295, 24.11204 ], [ 81.88442, 24.11268 ], [ 81.88506, 24.1152 ], [ 81.88649, 24.11641 ], [ 81.88666, 24.11761 ], [ 81.88466, 24.11859 ], [ 81.8851, 24.11962 ] ] ] } },
{ "type": "Feature", "properties": { "OBJECTID": 4394, "state_lgd": "23", "state_name": "MADHYA PRADESH", "district_lgd": "462", "district_name": "SIDHI", "district_name_source": "district_table", "subdistrict_lgd": "7445", "subdistrict_name": "MADWAS", "subdistrict_type": "", "name_corrupted": false, "remarks": "", "label_lon": 81.80231305375608, "label_lat": 24.128261913600912 }, "geometry": { "type": "Polygon", "coordinates": [ [ [ 81.87898, 24.25791 ], [ 81.8788, 24.25447 ], [ 81.87955, 24.25326 ], [ 81.87903, 24.25176 ], [ 81.87827, 24.2516 ], [ 81.87826, 24.24806 ], [ 81.88185, 24.24877 ], [ 81.88278, 24.24471 ], [ 81.88441, 24.24445 ], [ 81.88589, 24.24117 ], [ 81.8884, 24.23851 ], [ 81.88795, 24.23458 ], [ 81.8857, 24.23265 ], [ 81.88616, 24.2299 ], [ 81.88512, 24.22837 ], [ 81.88728, 24.2275 ], [ 81.88721, 24.19264 ], [ 81.88489, 24.1889 ], [ 81.8836, 24.1848 ], [ 81.88976, 24.18342 ], [ 81.89577, 24.18343 ], [ 81.89542, 24.18042 ], [ 81.89743, 24.16721 ], [ 81.89718, 24.16503 ], [ 81.89319, 24.16327 ], [ 81.89248, 24.16222 ], [ 81.89104, 24.14761 ], [ 81.88615, 24.14013 ], [ 81.87844, 24.13174 ], [ 81.87778, 24.13007 ], [ 81.87758, 24.12742 ], [ 81.87887, 24.12323 ], [ 81.88224, 24.12034 ], [ 81.8851, 24.11962 ], [ 81.88466, 24.11859 ], [ 81.88666, 24.11761 ], [ 81.88649, 24.11641 ], [ 81.88506, 24.1152 ], [ 81.88442, 24.11268 ], [ 81.88295, 24.11204 ], [ 81.88321, 24.11144 ], [ 81.88161, 24.10992 ], [ 81.88191, 24.10925 ], [ 81.87811, 24.10792 ], [ 81.87715, 24.1057 ], [ 81.8766, 24.10589 ], [ 81.87547, 24.10432 ], [ 81.87089, 24.10605 ], [ 81.87024, 24.10544 ], [ 81.86752, 24.10157 ], [ 81.86501, 24.09405 ], [ 81.85339, 24.09726 ], [ 81.84782, 24.09737 ], [ 81.84901, 24.09605 ], [ 81.8479, 24.09562 ], [ 81.84736, 24.09258 ], [ 81.84842, 24.09162 ], [ 81.84651, 24.09176 ], [ 81.84643, 24.08897 ], [ 81.84838, 24.08891 ], [ 81.84932, 24.08422 ], [ 81.84743, 24.08241 ], [ 81.84668, 24.07979 ], [ 81.84814, 24.07511 ], [ 81.84937, 24.07392 ], [ 81.85029, 24.07403 ], [ 81.84994, 24.07222 ], [ 81.85125, 24.07054 ], [ 81.85029, 24.07029 ], [ 81.84927, 24.06812 ], [ 81.84892, 24.06299 ], [ 81.85067, 24.05702 ], [ 81.84905, 24.05606 ], [ 81.84854, 24.05425 ], [ 81.8444, 24.05439 ], [ 81.84007, 24.05586 ], [ 81.83715, 24.05464 ], [ 81.83639, 24.05221 ], [ 81.83272, 24.04777 ], [ 81.83286, 24.04641 ], [ 81.83058, 24.04029 ], [ 81.82594, 24.03609 ], [ 81.82368, 24.0362 ], [ 81.82036, 24.03349 ], [ 81.81868, 24.02767 ], [ 81.80751, 24.02053 ], [ 81.80585, 24.01755 ], [ 81.80305, 24.01586 ], [ 81.80199, 24.01008 ], [ 81.80532, 24.00293 ], [ 81.80967, 23.9967 ], [ 81.80392, 23.99551 ], [ 81.796, 23.99956 ], [ 81.79083, 23.9987 ], [ 81.78809, 24.00054 ], [ 81.78695, 24.00237 ], [ 81.77832, 24.00396 ], [ 81.7693, 23.99659 ], [ 81.77046, 24.00555 ], [ 81.76954, 24.01065 ], [ 81.77504, 24.01128 ], [ 81.77493, 24.01273 ], [ 81.77374, 24.01248 ], [ 81.77325, 24.01331 ], [ 81.76946, 24.01258 ], [ 81.76957, 24.01454 ], [ 81.77374, 24.01516 ], [ 81.77522, 24.02111 ], [ 81.77421, 24.02474 ], [ 81.77581, 24.0273 ], [ 81.77609, 24.02944 ], [ 81.77754, 24.03148 ], [ 81.78224, 24.03465 ], [ 81.78424, 24.03971 ], [ 81.78456, 24.0422 ], [ 81.78303, 24.04815 ], [ 81.7803, 24.05032 ], [ 81.77793, 24.05402 ], [ 81.77572, 24.05409 ], [ 81.76171, 24.04864 ], [ 81.75721, 24.0542 ], [ 81.75499, 24.05226 ], [ 81.75311, 24.05183 ], [ 81.74315, 24.05279 ], [ 81.7409, 24.05225 ], [ 81.73781, 24.05385 ], [ 81.7381, 24.05443 ], [ 81.73605, 24.05614 ], [ 81.73604, 24.05463 ], [ 81.73498, 24.05336 ], [ 81.73168, 24.05258 ], [ 81.72995, 24.05512 ], [ 81.72524, 24.05544 ], [ 81.72249, 24.05739 ], [ 81.72189, 24.05976 ], [ 81.7176, 24.06176 ], [ 81.7158, 24.0589 ], [ 81.71235, 24.05572 ], [ 81.70738, 24.06018 ], [ 81.69838, 24.06152 ], [ 81.69455, 24.06006 ], [ 81.69057, 24.06032 ], [ 81.68917, 24.06238 ], [ 81.68959, 24.06399 ], [ 81.68838, 24.06518 ], [ 81.68699, 24.06501 ], [ 81.67832, 24.06969 ], [ 81.67482, 24.07277 ], [ 81.67623, 24.07469 ], [ 81.67593, 24.07575 ], [ 81.68324, 24.07999 ], [ 81.68725, 24.07924 ], [ 81.69574, 24.08244 ], [ 81.6993, 24.08218 ], [ 81.7052, 24.08638 ], [ 81.72043, 24.09328 ], [ 81.72045, 24.0956 ], [ 81.72191, 24.09698 ], [ 81.72231, 24.09893 ], [ 81.72616, 24.1009 ], [ 81.73114, 24.1014 ], [ 81.73399, 24.09939 ], [ 81.73686, 24.10091 ], [ 81.73762, 24.10272 ], [ 81.74046, 24.10302 ], [ 81.73905, 24.10628 ], [ 81.73852, 24.10597 ], [ 81.73837, 24.10667 ], [ 81.7347, 24.1084 ], [ 81.73177, 24.1086 ], [ 81.72904, 24.11443 ], [ 81.73063, 24.11906 ], [ 81.72855, 24.12068 ], [ 81.72916, 24.12291 ], [ 81.7282, 24.12359 ], [ 81.72898, 24.12482 ], [ 81.72828, 24.1254 ], [ 81.73072, 24.13137 ], [ 81.72988, 24.13285 ], [ 81.73208, 24.13342 ], [ 81.73196, 24.13572 ], [ 81.73344, 24.13657 ], [ 81.73293, 24.13766 ], [ 81.73374, 24.13842 ], [ 81.73364, 24.14058 ], [ 81.73262, 24.14053 ], [ 81.73171, 24.1457 ], [ 81.72943, 24.14366 ], [ 81.72822, 24.14387 ], [ 81.72708, 24.14223 ], [ 81.72625, 24.14224 ], [ 81.72627, 24.14319 ], [ 81.72248, 24.1438 ], [ 81.72106, 24.14469 ], [ 81.72118, 24.14537 ], [ 81.71803, 24.14651 ], [ 81.71555, 24.14916 ], [ 81.71493, 24.15177 ], [ 81.71288, 24.15329 ], [ 81.71148, 24.1525 ], [ 81.70608, 24.15386 ], [ 81.70828, 24.15519 ], [ 81.70841, 24.15629 ], [ 81.70923, 24.15591 ], [ 81.70968, 24.15776 ], [ 81.71241, 24.15941 ], [ 81.71392, 24.16288 ], [ 81.71508, 24.16247 ], [ 81.72024, 24.16348 ], [ 81.72082, 24.1654 ], [ 81.71942, 24.16711 ], [ 81.72217, 24.16976 ], [ 81.71944, 24.17191 ], [ 81.71941, 24.17274 ], [ 81.72031, 24.17288 ], [ 81.72034, 24.17454 ], [ 81.71943, 24.17579 ], [ 81.71827, 24.17591 ], [ 81.71956, 24.17896 ], [ 81.71915, 24.18012 ], [ 81.71995, 24.18041 ], [ 81.72082, 24.18309 ], [ 81.72266, 24.18329 ], [ 81.72291, 24.18577 ], [ 81.72563, 24.18492 ], [ 81.72574, 24.18622 ], [ 81.7284, 24.18726 ], [ 81.72856, 24.18857 ], [ 81.72703, 24.18862 ], [ 81.72746, 24.18985 ], [ 81.7267, 24.18951 ], [ 81.72648, 24.19028 ], [ 81.72738, 24.19078 ], [ 81.72684, 24.19265 ], [ 81.7278, 24.19279 ], [ 81.72799, 24.19743 ], [ 81.72929, 24.19762 ], [ 81.72998, 24.19979 ], [ 81.73072, 24.20001 ], [ 81.73279, 24.19688 ], [ 81.73081, 24.19538 ], [ 81.7291, 24.1919 ], [ 81.73002, 24.19191 ], [ 81.73117, 24.189 ], [ 81.7334, 24.19017 ], [ 81.73313, 24.19374 ], [ 81.73385, 24.19586 ], [ 81.73707, 24.19967 ], [ 81.74594, 24.20173 ], [ 81.74647, 24.19979 ], [ 81.7489, 24.20057 ], [ 81.74936, 24.20182 ], [ 81.75125, 24.20137 ], [ 81.75603, 24.20206 ], [ 81.75744, 24.20469 ], [ 81.76078, 24.20412 ], [ 81.76318, 24.20698 ], [ 81.76523, 24.207 ], [ 81.76654, 24.20545 ], [ 81.76674, 24.20141 ], [ 81.76664, 24.19916 ], [ 81.76543, 24.19811 ], [ 81.76657, 24.19623 ], [ 81.76502, 24.1922 ], [ 81.76623, 24.19321 ], [ 81.77, 24.19172 ], [ 81.77097, 24.19312 ], [ 81.7744, 24.19431 ], [ 81.77436, 24.19294 ], [ 81.77693, 24.19312 ], [ 81.77759, 24.19016 ], [ 81.78293, 24.18849 ], [ 81.79039, 24.18822 ], [ 81.79209, 24.18702 ], [ 81.79642, 24.18639 ], [ 81.80206, 24.19058 ], [ 81.80831, 24.19149 ], [ 81.80881, 24.1943 ], [ 81.81066, 24.1966 ], [ 81.81728, 24.19732 ], [ 81.82384, 24.20229 ], [ 81.82659, 24.20325 ], [ 81.83381, 24.20822 ], [ 81.8334, 24.21001 ], [ 81.82556, 24.20605 ], [ 81.82606, 24.21278 ], [ 81.82519, 24.21353 ], [ 81.82301, 24.21357 ], [ 81.82227, 24.21479 ], [ 81.82529, 24.21732 ], [ 81.82558, 24.22048 ], [ 81.82802, 24.22105 ], [ 81.83264, 24.21994 ], [ 81.83442, 24.22047 ], [ 81.83515, 24.22489 ], [ 81.83666, 24.22431 ], [ 81.83899, 24.22934 ], [ 81.84101, 24.23031 ], [ 81.84294, 24.2326 ], [ 81.84399, 24.23265 ], [ 81.84456, 24.23456 ], [ 81.84288, 24.23623 ], [ 81.84167, 24.23593 ], [ 81.84278, 24.23857 ], [ 81.84411, 24.23874 ], [ 81.84286, 24.24111 ], [ 81.85001, 24.24144 ], [ 81.85349, 24.24287 ], [ 81.85666, 24.24535 ], [ 81.85993, 24.24599 ], [ 81.86241, 24.24532 ], [ 81.86377, 24.24696 ], [ 81.86696, 24.247 ], [ 81.86974, 24.24857 ], [ 81.87206, 24.24753 ], [ 81.87503, 24.25187 ], [ 81.8725, 24.25238 ], [ 81.87261, 24.25339 ], [ 81.87538, 24.25536 ], [ 81.87504, 24.25737 ], [ 81.87706, 24.2584 ], [ 81.87898, 24.25791 ] ] ] } },
{ "type": "Feature", "properties": { "OBJECTID": 4395, "state_lgd": "23", "state_name": "MADHYA PRADESH", "district_lgd": "462", "district_name": "SIDHI", "district_name_source": "district_table", "subdistrict_lgd": "3701", "subdistrict_name": "Majhauli", "subdistrict_type": "", "name_corrupted": false, "remarks": "", "label_lon": 81.603152730842751, "label_lat": 24.151796731236004 }, "geometry": { "type": "Polygon", "coordinates": [ [ [ 81.66306, 24.24798 ], [ 81.663, 24.24458 ], [ 81.66516, 24.24468 ], [ 81.66614, 24.24208 ], [ 81.66637, 24.23621 ], [ 81.66565, 24.23474 ], [ 81.66631, 24.23058 ], [ 81.66997, 24.23083 ], [ 81.67231, 24.23237 ], [ 81.67741, 24.23361 ], [ 81.68003, 24.23295 ], [ 81.68035, 24.23149 ], [ 81.67971, 24.22963 ], [ 81.67543, 24.22944 ], [ 81.6753, 24.2284 ], [ 81.67766, 24.22557 ], [ 81.67517, 24.22535 ], [ 81.66895, 24.22689 ], [ 81.66681, 24.22639 ], [ 81.66638, 24.22414 ], [ 81.67069, 24.22509 ], [ 81.67359, 24.22317 ], [ 81.6746, 24.22372 ], [ 81.67503, 24.22235 ], [ 81.67728, 24.22215 ], [ 81.67834, 24.22097 ], [ 81.68, 24.22121 ], [ 81.67887, 24.21889 ], [ 81.67929, 24.21836 ], [ 81.68026, 24.21835 ], [ 81.68281, 24.22128 ], [ 81.68408, 24.21959 ], [ 81.6854, 24.21919 ], [ 81.68609, 24.22052 ], [ 81.68832, 24.22096 ], [ 81.68915, 24.21983 ], [ 81.69227, 24.21921 ], [ 81.69086, 24.21826 ], [ 81.68824, 24.21939 ], [ 81.68169, 24.21807 ], [ 81.68295, 24.21589 ], [ 81.68247, 24.20971 ], [ 81.68767, 24.20706 ], [ 81.68629, 24.20564 ], [ 81.68458, 24.20539 ], [ 81.68375, 24.2038 ], [ 81.68268, 24.1981 ], [ 81.68292, 24.19355 ], [ 81.68029, 24.18576 ], [ 81.68214, 24.1867 ], [ 81.682, 24.18378 ], [ 81.68366, 24.18182 ], [ 81.68325, 24.18 ], [ 81.68512, 24.1793 ], [ 81.69206, 24.1811 ], [ 81.69626, 24.17853 ], [ 81.70043, 24.17747 ], [ 81.70185, 24.17614 ], [ 81.70515, 24.17692 ], [ 81.7063, 24.17858 ], [ 81.71099, 24.17721 ], [ 81.71522, 24.17728 ], [ 81.71641, 24.17853 ], [ 81.71868, 24.17746 ], [ 81.71827, 24.17591 ], [ 81.71943, 24.17579 ], [ 81.72034, 24.17454 ], [ 81.72031, 24.17288 ], [ 81.71941, 24.17274 ], [ 81.71944, 24.17191 ], [ 81.72217, 24.16958 ], [ 81.71942, 24.16711 ], [ 81.72082, 24.1654 ], [ 81.72024, 24.16348 ], [ 81.71508, 24.16247 ], [ 81.71392, 24.16288 ], [ 81.71241, 24.15941 ], [ 81.70968, 24.15776 ], [ 81.70923, 24.15591 ], [ 81.70841, 24.15629 ], [ 81.70828, 24.15519 ], [ 81.70607, 24.15381 ], [ 81.71148, 24.1525 ], [ 81.71288, 24.15329 ], [ 81.71493, 24.15177 ], [ 81.71555, 24.14916 ], [ 81.71803, 24.14651 ], [ 81.72118, 24.14537 ], [ 81.72106, 24.14469 ], [ 81.72248, 24.1438 ], [ 81.72627, 24.14319 ], [ 81.72625, 24.14224 ], [ 81.72708, 24.14223 ], [ 81.72822, 24.14387 ], [ 81.72943, 24.14366 ], [ 81.73171, 24.1457 ], [ 81.73262, 24.14053 ], [ 81.73364, 24.14058 ], [ 81.73374, 24.13842 ], [ 81.73293, 24.13766 ], [ 81.73344, 24.13657 ], [ 81.73196, 24.13572 ], [ 81.73208, 24.13342 ], [ 81.72988, 24.13285 ], [ 81.73072, 24.13137 ], [ 81.72828, 24.1254 ], [ 81.72898, 24.12482 ], [ 81.7282, 24.12359 ], [ 81.72916, 24.12291 ], [ 81.72855, 24.12068 ], [ 81.73063, 24.11906 ], [ 81.72904, 24.11443 ], [ 81.73177, 24.1086 ], [ 81.7347, 24.1084 ], [ 81.73837, 24.10667 ], [ 81.73852, 24.10597 ], [ 81.73905, 24.10628 ], [ 81.74046, 24.10302 ], [ 81.73762, 24.10272 ], [ 81.73686, 24.10091 ], [ 81.73399, 24.09939 ], [ 81.73114, 24.1014 ], [ 81.72616, 24.1009 ], [ 81.72231, 24.09893 ], [ 81.72191, 24.09698 ], [ 81.72045, 24.0956 ], [ 81.72043, 24.09328 ], [ 81.7052, 24.08638 ], [ 81.6993, 24.08218 ], [ 81.69574, 24.08244 ], [ 81.68725, 24.07924 ], [ 81.68324, 24.07999 ], [ 81.67593, 24.07575 ], [ 81.67623, 24.07469 ], [ 81.67476, 24.07314 ], [ 81.67564, 24.07215 ], [ 81.67053, 24.06943 ], [ 81.66742, 24.0697 ], [ 81.6682, 24.06567 ], [ 81.66661, 24.06503 ], [ 81.6672, 24.05709 ], [ 81.66417, 24.05578 ], [ 81.66026, 24.04727 ], [ 81.65639, 24.05422 ], [ 81.66033, 24.05597 ], [ 81.6599, 24.05727 ], [ 81.65685, 24.05704 ], [ 81.65533, 24.05793 ], [ 81.65354, 24.05545 ], [ 81.65374, 24.05323 ], [ 81.6519, 24.05159 ], [ 81.65167, 24.05431 ], [ 81.64851, 24.05965 ], [ 81.64415, 24.05934 ], [ 81.63764, 24.06106 ], [ 81.6353, 24.05972 ], [ 81.63271, 24.06027 ], [ 81.62859, 24.05724 ], [ 81.6277, 24.05315 ], [ 81.62426, 24.05154 ], [ 81.62042, 24.05212 ], [ 81.61512, 24.05037 ], [ 81.61478, 24.04874 ], [ 81.61231, 24.04644 ], [ 81.61134, 24.04379 ], [ 81.60982, 24.04373 ], [ 81.60704, 24.04027 ], [ 81.60247, 24.03916 ], [ 81.6017, 24.03717 ], [ 81.59903, 24.03638 ], [ 81.59735, 24.03807 ], [ 81.59537, 24.03674 ], [ 81.58995, 24.03697 ], [ 81.58614, 24.03608 ], [ 81.58427, 24.03689 ], [ 81.57935, 24.04355 ], [ 81.58145, 24.04811 ], [ 81.57512, 24.04848 ], [ 81.5751, 24.05289 ], [ 81.57154, 24.05375 ], [ 81.57107, 24.0548 ], [ 81.56884, 24.05538 ], [ 81.56074, 24.07141 ], [ 81.56471, 24.07397 ], [ 81.56585, 24.07308 ], [ 81.56577, 24.07042 ], [ 81.5676, 24.07028 ], [ 81.56868, 24.07323 ], [ 81.57087, 24.07332 ], [ 81.57276, 24.07916 ], [ 81.57807, 24.07796 ], [ 81.57925, 24.07639 ], [ 81.59303, 24.08338 ], [ 81.59105, 24.08828 ], [ 81.59111, 24.09103 ], [ 81.59331, 24.09274 ], [ 81.59329, 24.09389 ], [ 81.58916, 24.09582 ], [ 81.58782, 24.09555 ], [ 81.58669, 24.09702 ], [ 81.58285, 24.09715 ], [ 81.57763, 24.09413 ], [ 81.57449, 24.0958 ], [ 81.57232, 24.09591 ], [ 81.57108, 24.09725 ], [ 81.56778, 24.09356 ], [ 81.56258, 24.09391 ], [ 81.5618, 24.09235 ], [ 81.56036, 24.09229 ], [ 81.55948, 24.09036 ], [ 81.55166, 24.08702 ], [ 81.54735, 24.08398 ], [ 81.54091, 24.08506 ], [ 81.53522, 24.08409 ], [ 81.52574, 24.07638 ], [ 81.52318, 24.07574 ], [ 81.51785, 24.07603 ], [ 81.51037, 24.0809 ], [ 81.50796, 24.08573 ], [ 81.50711, 24.0905 ], [ 81.50748, 24.09793 ], [ 81.50981, 24.10859 ], [ 81.50919, 24.1136 ], [ 81.50797, 24.11599 ], [ 81.49701, 24.12544 ], [ 81.49464, 24.13587 ], [ 81.48785, 24.14038 ], [ 81.48472, 24.14482 ], [ 81.48476, 24.14919 ], [ 81.48601, 24.15161 ], [ 81.49354, 24.15275 ], [ 81.49918, 24.15605 ], [ 81.50034, 24.15933 ], [ 81.49931, 24.16433 ], [ 81.49788, 24.16568 ], [ 81.49538, 24.16623 ], [ 81.48438, 24.1643 ], [ 81.47881, 24.16527 ], [ 81.47517, 24.16688 ], [ 81.47104, 24.17028 ], [ 81.4691, 24.17518 ], [ 81.46918, 24.18097 ], [ 81.47102, 24.18809 ], [ 81.47311, 24.19036 ], [ 81.47923, 24.19248 ], [ 81.4826, 24.19796 ], [ 81.48089, 24.2053 ], [ 81.48193, 24.21384 ], [ 81.48141, 24.22584 ], [ 81.48509, 24.22544 ], [ 81.48986, 24.22796 ], [ 81.49457, 24.22533 ], [ 81.49657, 24.22559 ], [ 81.49852, 24.22471 ], [ 81.4995, 24.22574 ], [ 81.49968, 24.23119 ], [ 81.50077, 24.23335 ], [ 81.50026, 24.23898 ], [ 81.50077, 24.24015 ], [ 81.51513, 24.23885 ], [ 81.51611, 24.23671 ], [ 81.51434, 24.22882 ], [ 81.51569, 24.22895 ], [ 81.51706, 24.23197 ], [ 81.52244, 24.23314 ], [ 81.53058, 24.23695 ], [ 81.53164, 24.23614 ], [ 81.53026, 24.23481 ], [ 81.53827, 24.23367 ], [ 81.5404, 24.22903 ], [ 81.5409, 24.22386 ], [ 81.54154, 24.22336 ], [ 81.54486, 24.22255 ], [ 81.54818, 24.22289 ], [ 81.55296, 24.22669 ], [ 81.55654, 24.22598 ], [ 81.55827, 24.22277 ], [ 81.56079, 24.22539 ], [ 81.56101, 24.22727 ], [ 81.56174, 24.22668 ], [ 81.56609, 24.2282 ], [ 81.56726, 24.22716 ], [ 81.56922, 24.2271 ], [ 81.57123, 24.22883 ], [ 81.57226, 24.22869 ], [ 81.5719, 24.22942 ], [ 81.57261, 24.2289 ], [ 81.57368, 24.2304 ], [ 81.57684, 24.23108 ], [ 81.577, 24.23465 ], [ 81.57844, 24.235 ], [ 81.58598, 24.23321 ], [ 81.58952, 24.23363 ], [ 81.59193, 24.23561 ], [ 81.60119, 24.23704 ], [ 81.60274, 24.24018 ], [ 81.60452, 24.24019 ], [ 81.60602, 24.24125 ], [ 81.60247, 24.24709 ], [ 81.60268, 24.24869 ], [ 81.60815, 24.24829 ], [ 81.61234, 24.25096 ], [ 81.6121, 24.25671 ], [ 81.61867, 24.25689 ], [ 81.61926, 24.25493 ], [ 81.61794, 24.25304 ], [ 81.61682, 24.248 ], [ 81.61948, 24.248 ], [ 81.62272, 24.24643 ], [ 81.6264, 24.24746 ], [ 81.62734, 24.24659 ], [ 81.62892, 24.24693 ], [ 81.63081, 24.25566 ], [ 81.63048, 24.25703 ], [ 81.62907, 24.25714 ], [ 81.63054, 24.25794 ], [ 81.63261, 24.25753 ], [ 81.63178, 24.25992 ], [ 81.63347, 24.25959 ], [ 81.63321, 24.26118 ], [ 81.63411, 24.26223 ], [ 81.63212, 24.26271 ], [ 81.63334, 24.26326 ], [ 81.63909, 24.26248 ], [ 81.64401, 24.25764 ], [ 81.64677, 24.25767 ], [ 81.65044, 24.25914 ], [ 81.65049, 24.26273 ], [ 81.64894, 24.26601 ], [ 81.65565, 24.266 ], [ 81.65284, 24.2678 ], [ 81.65585, 24.26807 ], [ 81.65685, 24.26665 ], [ 81.65948, 24.26723 ], [ 81.65987, 24.25934 ], [ 81.66093, 24.25932 ], [ 81.6618, 24.2503 ], [ 81.66087, 24.24769 ], [ 81.66306, 24.24798 ] ] ] } },
{ "type": "Feature", "properties": { "OBJECTID": 4396, "state_lgd": "23", "state_name": "MADHYA PRADESH", "district_lgd": "462", "district_name": "SIDHI", "district_name_source": "district_table", "subdistrict_lgd": "3697", "subdistrict_name": "RAMPUR NAIKIN", "subdistrict_type": "", "name_corrupted": false, "remarks": "", "label_lon": 81.539977655133768, "label_lat": 24.325448963148062 }, "geometry": { "type": "Polygon", "coordinates": [ [ [ 81.57054, 24.44286 ], [ 81.57083, 24.4371 ], [ 81.57494, 24.43756 ], [ 81.57442, 24.43396 ], [ 81.57682, 24.4313 ], [ 81.57512, 24.43143 ], [ 81.57492, 24.42911 ], [ 81.5731, 24.42916 ], [ 81.57222, 24.42717 ], [ 81.56856, 24.42546 ], [ 81.56826, 24.42247 ], [ 81.56902, 24.42206 ], [ 81.56894, 24.42008 ], [ 81.57113, 24.41848 ], [ 81.57209, 24.41936 ], [ 81.5729, 24.41806 ], [ 81.57467, 24.41835 ], [ 81.57483, 24.41684 ], [ 81.578, 24.41659 ], [ 81.57799, 24.41733 ], [ 81.57859, 24.41637 ], [ 81.57997, 24.41671 ], [ 81.58237, 24.41516 ], [ 81.58298, 24.4138 ], [ 81.58386, 24.41429 ], [ 81.58474, 24.41323 ], [ 81.58429, 24.41293 ], [ 81.58644, 24.41195 ], [ 81.58827, 24.41218 ], [ 81.58861, 24.41305 ], [ 81.58924, 24.4116 ], [ 81.5903, 24.41197 ], [ 81.59098, 24.41107 ], [ 81.59534, 24.41143 ], [ 81.59488, 24.41025 ], [ 81.59574, 24.41005 ], [ 81.59686, 24.41108 ], [ 81.59791, 24.41045 ], [ 81.59873, 24.41198 ], [ 81.60022, 24.41102 ], [ 81.60103, 24.41165 ], [ 81.60195, 24.40976 ], [ 81.60151, 24.40911 ], [ 81.60257, 24.40994 ], [ 81.60298, 24.40901 ], [ 81.60163, 24.40808 ], [ 81.60221, 24.4069 ], [ 81.60052, 24.40384 ], [ 81.60331, 24.4007 ], [ 81.60452, 24.40067 ], [ 81.60622, 24.40227 ], [ 81.60722, 24.40161 ], [ 81.6068, 24.40545 ], [ 81.60811, 24.40613 ], [ 81.61085, 24.4051 ], [ 81.61085, 24.40326 ], [ 81.61331, 24.40392 ], [ 81.61392, 24.40205 ], [ 81.61645, 24.39939 ], [ 81.62065, 24.40353 ], [ 81.62764, 24.40267 ], [ 81.62838, 24.40326 ], [ 81.62826, 24.40472 ], [ 81.62941, 24.40524 ], [ 81.63241, 24.40499 ], [ 81.63923, 24.40673 ], [ 81.64094, 24.40588 ], [ 81.64086, 24.4018 ], [ 81.65941, 24.39803 ], [ 81.66702, 24.39774 ], [ 81.68245, 24.40285 ], [ 81.69109, 24.40843 ], [ 81.69957, 24.41234 ], [ 81.70029, 24.40945 ], [ 81.70266, 24.40704 ], [ 81.70132, 24.40535 ], [ 81.70023, 24.40582 ], [ 81.69945, 24.40437 ], [ 81.70293, 24.40139 ], [ 81.70293, 24.39993 ], [ 81.70383, 24.39906 ], [ 81.70472, 24.39449 ], [ 81.70472, 24.3892 ], [ 81.70409, 24.38883 ], [ 81.70494, 24.38472 ], [ 81.70825, 24.38324 ], [ 81.70906, 24.38191 ], [ 81.71013, 24.3819 ], [ 81.71021, 24.3825 ], [ 81.71241, 24.38166 ], [ 81.70732, 24.37946 ], [ 81.70908, 24.37852 ], [ 81.70772, 24.36972 ], [ 81.71109, 24.37108 ], [ 81.7104, 24.36891 ], [ 81.71106, 24.36311 ], [ 81.71627, 24.36257 ], [ 81.718, 24.36307 ], [ 81.71648, 24.36177 ], [ 81.71564, 24.35959 ], [ 81.71934, 24.357 ], [ 81.72173, 24.35649 ], [ 81.72201, 24.35547 ], [ 81.72086, 24.354 ], [ 81.72114, 24.35142 ], [ 81.71931, 24.35078 ], [ 81.71826, 24.349 ], [ 81.71839, 24.34724 ], [ 81.71739, 24.3468 ], [ 81.7172, 24.34311 ], [ 81.71564, 24.34215 ], [ 81.71642, 24.34034 ], [ 81.71571, 24.33579 ], [ 81.71674, 24.33498 ], [ 81.71737, 24.33282 ], [ 81.72801, 24.33467 ], [ 81.73154, 24.32892 ], [ 81.7313, 24.32631 ], [ 81.73383, 24.32322 ], [ 81.73701, 24.31567 ], [ 81.73884, 24.31309 ], [ 81.74081, 24.31231 ], [ 81.74182, 24.31096 ], [ 81.74223, 24.3078 ], [ 81.75349, 24.30833 ], [ 81.75135, 24.30427 ], [ 81.74849, 24.3031 ], [ 81.74642, 24.30362 ], [ 81.74333, 24.30108 ], [ 81.73888, 24.29935 ], [ 81.73734, 24.29611 ], [ 81.74281, 24.29664 ], [ 81.74256, 24.29384 ], [ 81.74067, 24.29429 ], [ 81.73936, 24.29212 ], [ 81.73706, 24.29067 ], [ 81.73087, 24.28868 ], [ 81.73062, 24.28759 ], [ 81.73161, 24.28695 ], [ 81.72716, 24.28391 ], [ 81.72841, 24.28177 ], [ 81.73079, 24.28046 ], [ 81.73579, 24.27977 ], [ 81.73836, 24.27841 ], [ 81.73906, 24.27715 ], [ 81.73872, 24.27459 ], [ 81.7348, 24.27284 ], [ 81.73717, 24.26893 ], [ 81.73905, 24.2683 ], [ 81.73256, 24.26846 ], [ 81.72915, 24.26618 ], [ 81.72792, 24.26741 ], [ 81.72579, 24.26711 ], [ 81.72131, 24.26252 ], [ 81.72027, 24.2629 ], [ 81.71723, 24.26101 ], [ 81.71483, 24.26176 ], [ 81.71242, 24.26138 ], [ 81.71041, 24.26247 ], [ 81.70863, 24.26148 ], [ 81.70943, 24.26281 ], [ 81.70716, 24.2649 ], [ 81.70005, 24.26559 ], [ 81.69676, 24.26475 ], [ 81.69255, 24.26621 ], [ 81.68518, 24.26481 ], [ 81.68304, 24.26672 ], [ 81.67346, 24.26304 ], [ 81.6708, 24.26055 ], [ 81.66781, 24.26097 ], [ 81.66737, 24.26226 ], [ 81.66135, 24.26131 ], [ 81.66119, 24.26002 ], [ 81.66423, 24.25907 ], [ 81.66603, 24.2554 ], [ 81.66718, 24.25524 ], [ 81.66533, 24.2506 ], [ 81.66306, 24.24798 ], [ 81.66149, 24.24742 ], [ 81.66087, 24.24769 ], [ 81.6618, 24.2503 ], [ 81.66099, 24.2587 ], [ 81.66093, 24.25932 ], [ 81.65987, 24.25934 ], [ 81.65948, 24.26723 ], [ 81.65685, 24.26665 ], [ 81.65585, 24.26807 ], [ 81.65284, 24.2678 ], [ 81.65565, 24.266 ], [ 81.64894, 24.26601 ], [ 81.65049, 24.26273 ], [ 81.65044, 24.25914 ], [ 81.64677, 24.25767 ], [ 81.64401, 24.25764 ], [ 81.64111, 24.25992 ], [ 81.64028, 24.26198 ], [ 81.63334, 24.26326 ], [ 81.63212, 24.26271 ], [ 81.63411, 24.26223 ], [ 81.63321, 24.26118 ], [ 81.63347, 24.25959 ], [ 81.63178, 24.25992 ], [ 81.63261, 24.25753 ], [ 81.63054, 24.25794 ], [ 81.62907, 24.25714 ], [ 81.63048, 24.25703 ], [ 81.63081, 24.25566 ], [ 81.62892, 24.24693 ], [ 81.62734, 24.24659 ], [ 81.6264, 24.24746 ], [ 81.62272, 24.24643 ], [ 81.61948, 24.248 ], [ 81.61682, 24.248 ], [ 81.61794, 24.25304 ], [ 81.61926, 24.25493 ], [ 81.61867, 24.25689 ], [ 81.6121, 24.25671 ], [ 81.61234, 24.25096 ], [ 81.60815, 24.24829 ], [ 81.60268, 24.24869 ], [ 81.60247, 24.24709 ], [ 81.60602, 24.24125 ], [ 81.60452, 24.24019 ], [ 81.60274, 24.24018 ], [ 81.60119, 24.23704 ], [ 81.59193, 24.23561 ], [ 81.58952, 24.23363 ], [ 81.58598, 24.23321 ], [ 81.57844, 24.235 ], [ 81.577, 24.23465 ], [ 81.57684, 24.23108 ], [ 81.57368, 24.2304 ], [ 81.57261, 24.2289 ], [ 81.5719, 24.22942 ], [ 81.57226, 24.22869 ], [ 81.57123, 24.22883 ], [ 81.56922, 24.2271 ], [ 81.56726, 24.22716 ], [ 81.56609, 24.2282 ], [ 81.56174, 24.22668 ], [ 81.56101, 24.22727 ], [ 81.56079, 24.22539 ], [ 81.55827, 24.22277 ], [ 81.55654, 24.22598 ], [ 81.55296, 24.22669 ], [ 81.54818, 24.22289 ], [ 81.54486, 24.22255 ], [ 81.54154, 24.22336 ], [ 81.5409, 24.22386 ], [ 81.5404, 24.22903 ], [ 81.53827, 24.23367 ], [ 81.53026, 24.23481 ], [ 81.53164, 24.23614 ], [ 81.53058, 24.23695 ], [ 81.52244, 24.23314 ], [ 81.51706, 24.23197 ], [ 81.51569, 24.22895 ], [ 81.51434, 24.22882 ], [ 81.51611, 24.23671 ], [ 81.51513, 24.23885 ], [ 81.50077, 24.24015 ], [ 81.50026, 24.23898 ], [ 81.5008, 24.23353 ], [ 81.49968, 24.23119 ], [ 81.49909, 24.22519 ], [ 81.49852, 24.22471 ], [ 81.49657, 24.22559 ], [ 81.49457, 24.22533 ], [ 81.48986, 24.22796 ], [ 81.48509, 24.22544 ], [ 81.48348, 24.22536 ], [ 81.48141, 24.22584 ], [ 81.48164, 24.23372 ], [ 81.48071, 24.23869 ], [ 81.47047, 24.25657 ], [ 81.46711, 24.26928 ], [ 81.46243, 24.27687 ], [ 81.45727, 24.28212 ], [ 81.45502, 24.28262 ], [ 81.45406, 24.28171 ], [ 81.45233, 24.27571 ], [ 81.4573, 24.26786 ], [ 81.4573, 24.26641 ], [ 81.4533, 24.26253 ], [ 81.44581, 24.25927 ], [ 81.43942, 24.25801 ], [ 81.42843, 24.25906 ], [ 81.39857, 24.26453 ], [ 81.39008, 24.26303 ], [ 81.38847, 24.26593 ], [ 81.38581, 24.2648 ], [ 81.38036, 24.2668 ], [ 81.37997, 24.26484 ], [ 81.37843, 24.26555 ], [ 81.37221, 24.26357 ], [ 81.37002, 24.26203 ], [ 81.35747, 24.25693 ], [ 81.35505, 24.25557 ], [ 81.35224, 24.25237 ], [ 81.34626, 24.25754 ], [ 81.34102, 24.26472 ], [ 81.34223, 24.26561 ], [ 81.34096, 24.26991 ], [ 81.34946, 24.27335 ], [ 81.34967, 24.27413 ], [ 81.34877, 24.27384 ], [ 81.34694, 24.27506 ], [ 81.34686, 24.27723 ], [ 81.34554, 24.27771 ], [ 81.34578, 24.27885 ], [ 81.345, 24.27848 ], [ 81.34547, 24.27935 ], [ 81.34483, 24.28067 ], [ 81.3456, 24.2814 ], [ 81.34497, 24.28174 ], [ 81.34599, 24.28155 ], [ 81.34589, 24.28243 ], [ 81.34726, 24.2825 ], [ 81.34632, 24.28482 ], [ 81.34744, 24.28632 ], [ 81.34643, 24.28711 ], [ 81.34825, 24.28775 ], [ 81.34535, 24.28844 ], [ 81.34593, 24.29209 ], [ 81.33074, 24.29021 ], [ 81.32487, 24.29043 ], [ 81.32381, 24.29393 ], [ 81.32111, 24.29451 ], [ 81.31989, 24.29646 ], [ 81.3203, 24.297 ], [ 81.31791, 24.29819 ], [ 81.31614, 24.30128 ], [ 81.31447, 24.30221 ], [ 81.31395, 24.30537 ], [ 81.3131, 24.30507 ], [ 81.31103, 24.30657 ], [ 81.3121, 24.3077 ], [ 81.31169, 24.30892 ], [ 81.31023, 24.31079 ], [ 81.30825, 24.31135 ], [ 81.30799, 24.31214 ], [ 81.30988, 24.31486 ], [ 81.30833, 24.32259 ], [ 81.31198, 24.32969 ], [ 81.31439, 24.33117 ], [ 81.31544, 24.3348 ], [ 81.32306, 24.3365 ], [ 81.33646, 24.33623 ], [ 81.3386, 24.33964 ], [ 81.33737, 24.34083 ], [ 81.33757, 24.3417 ], [ 81.34088, 24.34152 ], [ 81.34314, 24.34581 ], [ 81.34643, 24.34619 ], [ 81.34835, 24.34752 ], [ 81.34932, 24.3494 ], [ 81.35796, 24.35217 ], [ 81.35958, 24.35366 ], [ 81.36852, 24.35749 ], [ 81.3715, 24.35982 ], [ 81.37294, 24.35894 ], [ 81.37288, 24.35812 ], [ 81.38246, 24.3615 ], [ 81.3982, 24.36888 ], [ 81.41822, 24.37663 ], [ 81.42249, 24.37997 ], [ 81.42596, 24.37987 ], [ 81.42796, 24.37802 ], [ 81.43743, 24.38067 ], [ 81.44644, 24.38588 ], [ 81.45122, 24.38708 ], [ 81.45277, 24.38848 ], [ 81.46565, 24.39459 ], [ 81.47531, 24.40242 ], [ 81.47905, 24.40442 ], [ 81.48097, 24.40714 ], [ 81.48699, 24.41144 ], [ 81.48745, 24.41297 ], [ 81.4898, 24.41475 ], [ 81.4896, 24.4155 ], [ 81.49099, 24.41628 ], [ 81.49181, 24.41877 ], [ 81.49405, 24.42104 ], [ 81.49863, 24.42275 ], [ 81.50388, 24.42647 ], [ 81.50708, 24.42597 ], [ 81.50909, 24.42766 ], [ 81.51229, 24.42806 ], [ 81.51433, 24.42948 ], [ 81.52414, 24.43257 ], [ 81.52443, 24.4312 ], [ 81.53177, 24.43371 ], [ 81.53637, 24.43684 ], [ 81.53889, 24.43621 ], [ 81.55334, 24.44089 ], [ 81.55332, 24.43974 ], [ 81.55474, 24.43832 ], [ 81.57054, 24.44286 ] ] ] } },
{ "type": "Feature", "properties": { "OBJECTID": 4397, "state_lgd": "23", "state_name": "MADHYA PRADESH", "district_lgd": "462", "district_name": "SIDHI", "district_name_source": "district_table", "subdistrict_lgd": "3700", "subdistrict_name": "SIHAWAL", "subdistrict_type": "", "name_corrupted": false, "remarks": "", "label_lon": 82.13602356601821, "label_lat": 24.55215519981979 }, "geometry": { "type": "Polygon", "coordinates": [ [ [ 82.20532, 24.61372 ], [ 82.21249, 24.61379 ], [ 82.21709, 24.61112 ], [ 82.22319, 24.6107 ], [ 82.22662, 24.60957 ], [ 82.23279, 24.60942 ], [ 82.23365, 24.60831 ], [ 82.2335, 24.60558 ], [ 82.2348, 24.60484 ], [ 82.23605, 24.6011 ], [ 82.24779, 24.60212 ], [ 82.25125, 24.60686 ], [ 82.25106, 24.60862 ], [ 82.25274, 24.60934 ], [ 82.25235, 24.61134 ], [ 82.25341, 24.61117 ], [ 82.25918, 24.60278 ], [ 82.26522, 24.59764 ], [ 82.26904, 24.5918 ], [ 82.27186, 24.59053 ], [ 82.27234, 24.59168 ], [ 82.27738, 24.58873 ], [ 82.27972, 24.58851 ], [ 82.28162, 24.58935 ], [ 82.28274, 24.58862 ], [ 82.2852, 24.59076 ], [ 82.28908, 24.58934 ], [ 82.29385, 24.59153 ], [ 82.29629, 24.59153 ], [ 82.29716, 24.59288 ], [ 82.30334, 24.59194 ], [ 82.30649, 24.58985 ], [ 82.30749, 24.59194 ], [ 82.31302, 24.58873 ], [ 82.31858, 24.58687 ], [ 82.31965, 24.5913 ], [ 82.32063, 24.59089 ], [ 82.32048, 24.58957 ], [ 82.32247, 24.58494 ], [ 82.34414, 24.57349 ], [ 82.34536, 24.57121 ], [ 82.34504, 24.56829 ], [ 82.34668, 24.56744 ], [ 82.34831, 24.56793 ], [ 82.34961, 24.56611 ], [ 82.35545, 24.5678 ], [ 82.35988, 24.56638 ], [ 82.36155, 24.56228 ], [ 82.36406, 24.56096 ], [ 82.36252, 24.55849 ], [ 82.34684, 24.56011 ], [ 82.33635, 24.55952 ], [ 82.33294, 24.55657 ], [ 82.33281, 24.54797 ], [ 82.3271, 24.53961 ], [ 82.31633, 24.53323 ], [ 82.30546, 24.52869 ], [ 82.30174, 24.52789 ], [ 82.29656, 24.52816 ], [ 82.2909, 24.53092 ], [ 82.28673, 24.53524 ], [ 82.28324, 24.54211 ], [ 82.27948, 24.54593 ], [ 82.27024, 24.55028 ], [ 82.26024, 24.55293 ], [ 82.23566, 24.55441 ], [ 82.21812, 24.5507 ], [ 82.20992, 24.54654 ], [ 82.20328, 24.53772 ], [ 82.20205, 24.53421 ], [ 82.20229, 24.52636 ], [ 82.19853, 24.52287 ], [ 82.19019, 24.52237 ], [ 82.17359, 24.52348 ], [ 82.15972, 24.52103 ], [ 82.15242, 24.5179 ], [ 82.13972, 24.5091 ], [ 82.12395, 24.50426 ], [ 82.09716, 24.49985 ], [ 82.0857, 24.50076 ], [ 82.0728, 24.50396 ], [ 82.04908, 24.50048 ], [ 82.0402, 24.50238 ], [ 82.02759, 24.50132 ], [ 82.01488, 24.4981 ], [ 81.97502, 24.48127 ], [ 81.96945, 24.47963 ], [ 81.96904, 24.48326 ], [ 81.96742, 24.48531 ], [ 81.96663, 24.48956 ], [ 81.96042, 24.48941 ], [ 81.95937, 24.49554 ], [ 81.96091, 24.49764 ], [ 81.9603, 24.49813 ], [ 81.96086, 24.50426 ], [ 81.96208, 24.5038 ], [ 81.96254, 24.50472 ], [ 81.96579, 24.50514 ], [ 81.96302, 24.51035 ], [ 81.96197, 24.51032 ], [ 81.9636, 24.53036 ], [ 81.96212, 24.53081 ], [ 81.96017, 24.53325 ], [ 81.95833, 24.53264 ], [ 81.9569, 24.53307 ], [ 81.95134, 24.53784 ], [ 81.95033, 24.54092 ], [ 81.96052, 24.54476 ], [ 81.96223, 24.54782 ], [ 81.96176, 24.55029 ], [ 81.9635, 24.55448 ], [ 81.97272, 24.5534 ], [ 81.97867, 24.55549 ], [ 81.98452, 24.55517 ], [ 81.99023, 24.55747 ], [ 81.99391, 24.56015 ], [ 81.99716, 24.56028 ], [ 81.99705, 24.56165 ], [ 81.99942, 24.56391 ], [ 82.00175, 24.56449 ], [ 82.00314, 24.5663 ], [ 82.01055, 24.5661 ], [ 82.01465, 24.56999 ], [ 82.01477, 24.57205 ], [ 82.01617, 24.57242 ], [ 82.01755, 24.57154 ], [ 82.01735, 24.57044 ], [ 82.01841, 24.57043 ], [ 82.01833, 24.56956 ], [ 82.02959, 24.56956 ], [ 82.0321, 24.5713 ], [ 82.03639, 24.57036 ], [ 82.03826, 24.57067 ], [ 82.05028, 24.57549 ], [ 82.05691, 24.57626 ], [ 82.05947, 24.57563 ], [ 82.06486, 24.57897 ], [ 82.06775, 24.57941 ], [ 82.06701, 24.57938 ], [ 82.067, 24.58053 ], [ 82.0661, 24.581 ], [ 82.06534, 24.58757 ], [ 82.06328, 24.59423 ], [ 82.06678, 24.59797 ], [ 82.06689, 24.59959 ], [ 82.06848, 24.60008 ], [ 82.07107, 24.60265 ], [ 82.07695, 24.6035 ], [ 82.07707, 24.60184 ], [ 82.07911, 24.60121 ], [ 82.07829, 24.60085 ], [ 82.07859, 24.60029 ], [ 82.08317, 24.60031 ], [ 82.08328, 24.5968 ], [ 82.08787, 24.59632 ], [ 82.11524, 24.59817 ], [ 82.11636, 24.59383 ], [ 82.12177, 24.58829 ], [ 82.12353, 24.5895 ], [ 82.13712, 24.5931 ], [ 82.13973, 24.59411 ], [ 82.13991, 24.59516 ], [ 82.14374, 24.59532 ], [ 82.1487, 24.59325 ], [ 82.1557, 24.5944 ], [ 82.15737, 24.59536 ], [ 82.1584, 24.60118 ], [ 82.16661, 24.60272 ], [ 82.17864, 24.60294 ], [ 82.17893, 24.60417 ], [ 82.18338, 24.60344 ], [ 82.1872, 24.60402 ], [ 82.18988, 24.60249 ], [ 82.18873, 24.60064 ], [ 82.19434, 24.60106 ], [ 82.19807, 24.60322 ], [ 82.20034, 24.60273 ], [ 82.20519, 24.60362 ], [ 82.19981, 24.61173 ], [ 82.20101, 24.61185 ], [ 82.20208, 24.61335 ], [ 82.20344, 24.61288 ], [ 82.20532, 24.61372 ] ] ] } }
]
}
