{
"type": "FeatureCollection",
"name": "735_AGAR_MALWA",
"crs": { "type": "name", "properties": { "name": "urn:ogc:def:crs:OGC:1.3:CRS84" } },
"xy_coordinate_resolution": 1e-05,
"features": [
{ "type": "Feature", "properties": { "OBJECTID": 4004, "state_lgd": "23", "state_name": "MADHYA PRADESH", "district_lgd": "735", "district_name": "AGAR MALWA", "district_name_source": "district_table", "subdistrict_lgd": "3518", "subdistrict_name": "AGAR", "subdistrict_type": "", "name_corrupted": false, "remarks": "", "label_lon": 76.056440567809446, "label_lat": 23.665229896037722 }, "geometry": { "type": "Polygon", "coordinates": [ [ [ 76.10008, 23.85314 ], [ 76.11198, 23.84696 ], [ 76.11779, 23.84477 ], [ 76.11778, 23.84383 ], [ 76.12009, 23.84353 ], [ 76.12363, 23.84061 ], [ 76.11602, 23.83869 ], [ 76.11345, 23.83005 ], [ 76.1167, 23.82978 ], [ 76.12096, 23.82823 ], [ 76.12416, 23.82985 ], [ 76.13062, 23.82074 ], [ 76.13106, 23.81901 ], [ 76.12797, 23.81742 ], [ 76.12815, 23.81539 ], [ 76.12938, 23.81194 ], [ 76.1325, 23.8095 ], [ 76.13228, 23.80595 ], [ 76.12237, 23.80083 ], [ 76.12223, 23.79696 ], [ 76.12664, 23.79119 ], [ 76.13373, 23.79161 ], [ 76.14181, 23.7887 ], [ 76.14388, 23.78278 ], [ 76.14469, 23.77411 ], [ 76.14376, 23.77406 ], [ 76.14205, 23.76418 ], [ 76.14231, 23.75269 ], [ 76.14191, 23.75064 ], [ 76.14012, 23.74999 ], [ 76.13951, 23.74663 ], [ 76.14059, 23.74595 ], [ 76.14204, 23.74026 ], [ 76.1415, 23.72856 ], [ 76.13993, 23.72866 ], [ 76.13965, 23.72684 ], [ 76.13856, 23.72603 ], [ 76.14169, 23.71684 ], [ 76.14191, 23.71223 ], [ 76.145, 23.71157 ], [ 76.14488, 23.71046 ], [ 76.14577, 23.7102 ], [ 76.14931, 23.71405 ], [ 76.15175, 23.71458 ], [ 76.15108, 23.71341 ], [ 76.15174, 23.71103 ], [ 76.15515, 23.70674 ], [ 76.15833, 23.70481 ], [ 76.15854, 23.69453 ], [ 76.15923, 23.69224 ], [ 76.16163, 23.68898 ], [ 76.16567, 23.69144 ], [ 76.17404, 23.6938 ], [ 76.1791, 23.694 ], [ 76.18006, 23.69605 ], [ 76.19063, 23.69746 ], [ 76.1921, 23.69849 ], [ 76.19462, 23.69827 ], [ 76.19599, 23.70614 ], [ 76.20502, 23.70537 ], [ 76.20413, 23.70051 ], [ 76.20538, 23.69343 ], [ 76.21131, 23.68088 ], [ 76.21564, 23.67431 ], [ 76.21739, 23.66527 ], [ 76.22084, 23.66171 ], [ 76.22216, 23.65889 ], [ 76.22208, 23.64772 ], [ 76.22343, 23.63894 ], [ 76.22206, 23.63225 ], [ 76.22138, 23.62258 ], [ 76.22544, 23.61267 ], [ 76.22871, 23.60842 ], [ 76.23137, 23.60137 ], [ 76.23391, 23.5846 ], [ 76.23677, 23.57803 ], [ 76.23617, 23.57397 ], [ 76.2367, 23.57103 ], [ 76.23423, 23.57001 ], [ 76.22959, 23.57015 ], [ 76.22902, 23.56668 ], [ 76.22175, 23.56712 ], [ 76.21702, 23.56656 ], [ 76.20081, 23.56784 ], [ 76.20097, 23.57065 ], [ 76.19508, 23.57075 ], [ 76.19339, 23.5719 ], [ 76.18321, 23.57475 ], [ 76.18094, 23.57577 ], [ 76.17985, 23.58029 ], [ 76.17528, 23.58112 ], [ 76.17389, 23.58235 ], [ 76.17323, 23.58011 ], [ 76.17159, 23.57997 ], [ 76.1702, 23.57743 ], [ 76.17055, 23.57684 ], [ 76.16788, 23.57524 ], [ 76.16781, 23.57299 ], [ 76.16623, 23.57328 ], [ 76.16669, 23.57169 ], [ 76.16503, 23.5718 ], [ 76.16491, 23.57062 ], [ 76.16226, 23.57132 ], [ 76.15973, 23.57025 ], [ 76.14841, 23.57123 ], [ 76.14611, 23.57038 ], [ 76.1393, 23.5633 ], [ 76.13607, 23.56253 ], [ 76.13381, 23.56036 ], [ 76.1317, 23.55711 ], [ 76.13075, 23.5521 ], [ 76.12269, 23.54818 ], [ 76.11399, 23.54099 ], [ 76.10674, 23.54543 ], [ 76.10556, 23.55314 ], [ 76.10471, 23.55391 ], [ 76.10464, 23.56673 ], [ 76.09508, 23.57305 ], [ 76.09149, 23.57298 ], [ 76.07899, 23.56423 ], [ 76.06687, 23.55831 ], [ 76.06388, 23.5604 ], [ 76.04913, 23.56558 ], [ 76.04296, 23.56608 ], [ 76.04145, 23.56486 ], [ 76.02679, 23.56642 ], [ 76.02567, 23.55719 ], [ 76.02175, 23.55749 ], [ 76.01507, 23.55635 ], [ 76.00459, 23.55783 ], [ 76.00424, 23.55836 ], [ 76.00615, 23.55988 ], [ 76.00779, 23.56281 ], [ 76.00795, 23.56552 ], [ 76.00574, 23.56871 ], [ 75.99882, 23.57375 ], [ 75.99525, 23.57231 ], [ 75.99302, 23.57264 ], [ 75.99245, 23.57004 ], [ 75.99084, 23.56831 ], [ 75.97846, 23.5639 ], [ 75.96708, 23.56624 ], [ 75.95417, 23.5677 ], [ 75.95251, 23.56269 ], [ 75.95372, 23.55934 ], [ 75.95378, 23.55314 ], [ 75.94225, 23.55241 ], [ 75.93456, 23.55411 ], [ 75.92752, 23.55411 ], [ 75.92525, 23.55653 ], [ 75.92392, 23.55919 ], [ 75.92423, 23.56035 ], [ 75.9203, 23.5671 ], [ 75.91866, 23.56699 ], [ 75.91248, 23.57006 ], [ 75.91033, 23.56958 ], [ 75.90904, 23.57038 ], [ 75.90755, 23.56749 ], [ 75.90673, 23.56833 ], [ 75.90537, 23.56721 ], [ 75.90318, 23.56814 ], [ 75.90146, 23.56787 ], [ 75.90048, 23.56679 ], [ 75.90081, 23.56569 ], [ 75.89932, 23.56519 ], [ 75.89731, 23.56237 ], [ 75.89509, 23.56172 ], [ 75.89323, 23.55978 ], [ 75.88812, 23.55978 ], [ 75.88513, 23.55922 ], [ 75.88313, 23.55771 ], [ 75.88196, 23.55827 ], [ 75.87967, 23.55779 ], [ 75.87642, 23.56048 ], [ 75.8755, 23.56003 ], [ 75.87328, 23.56301 ], [ 75.86905, 23.56352 ], [ 75.86541, 23.5659 ], [ 75.85695, 23.56665 ], [ 75.84908, 23.57292 ], [ 75.84738, 23.57545 ], [ 75.84609, 23.58144 ], [ 75.84144, 23.58509 ], [ 75.8399, 23.58798 ], [ 75.84023, 23.59137 ], [ 75.83856, 23.59316 ], [ 75.83827, 23.59485 ], [ 75.84122, 23.60147 ], [ 75.83904, 23.60775 ], [ 75.84272, 23.60834 ], [ 75.84449, 23.60696 ], [ 75.84523, 23.61023 ], [ 75.84802, 23.61083 ], [ 75.84842, 23.61228 ], [ 75.84953, 23.61227 ], [ 75.84961, 23.61336 ], [ 75.85074, 23.61359 ], [ 75.85243, 23.61237 ], [ 75.85252, 23.6133 ], [ 75.85343, 23.61317 ], [ 75.8533, 23.60523 ], [ 75.8554, 23.59403 ], [ 75.8553, 23.58994 ], [ 75.85861, 23.59098 ], [ 75.86471, 23.5906 ], [ 75.87634, 23.59293 ], [ 75.8759, 23.59972 ], [ 75.87301, 23.60746 ], [ 75.87486, 23.61865 ], [ 75.86951, 23.61964 ], [ 75.86599, 23.62173 ], [ 75.86524, 23.62304 ], [ 75.85658, 23.62528 ], [ 75.85587, 23.6279 ], [ 75.85667, 23.63456 ], [ 75.8577, 23.63687 ], [ 75.85825, 23.64471 ], [ 75.86029, 23.64481 ], [ 75.86176, 23.64376 ], [ 75.86294, 23.64497 ], [ 75.86525, 23.64462 ], [ 75.87176, 23.646 ], [ 75.87295, 23.6469 ], [ 75.87287, 23.65041 ], [ 75.88787, 23.64978 ], [ 75.88893, 23.64718 ], [ 75.8984, 23.64861 ], [ 75.89982, 23.65055 ], [ 75.89863, 23.65407 ], [ 75.89843, 23.66112 ], [ 75.90102, 23.66167 ], [ 75.90216, 23.66368 ], [ 75.90962, 23.66044 ], [ 75.91228, 23.66046 ], [ 75.9135, 23.6593 ], [ 75.91545, 23.66063 ], [ 75.91849, 23.66058 ], [ 75.92244, 23.6622 ], [ 75.92557, 23.66443 ], [ 75.9262, 23.66102 ], [ 75.93789, 23.66036 ], [ 75.93941, 23.65977 ], [ 75.93981, 23.65858 ], [ 75.94126, 23.64876 ], [ 75.94728, 23.65444 ], [ 75.94922, 23.6554 ], [ 75.95918, 23.65602 ], [ 75.9604, 23.65999 ], [ 75.95945, 23.66474 ], [ 75.95327, 23.668 ], [ 75.95305, 23.66879 ], [ 75.95024, 23.66967 ], [ 75.9488, 23.67274 ], [ 75.94936, 23.67318 ], [ 75.94859, 23.67674 ], [ 75.95202, 23.67731 ], [ 75.95712, 23.67998 ], [ 75.95894, 23.67982 ], [ 75.95935, 23.68146 ], [ 75.96283, 23.68142 ], [ 75.96651, 23.68631 ], [ 75.9641, 23.68563 ], [ 75.96676, 23.69038 ], [ 75.96399, 23.69845 ], [ 75.95711, 23.701 ], [ 75.95411, 23.71099 ], [ 75.94957, 23.71331 ], [ 75.95093, 23.71644 ], [ 75.95929, 23.71476 ], [ 75.96143, 23.71492 ], [ 75.96204, 23.7164 ], [ 75.96288, 23.71548 ], [ 75.96541, 23.71524 ], [ 75.96712, 23.71541 ], [ 75.96732, 23.71614 ], [ 75.96882, 23.71557 ], [ 75.96924, 23.71626 ], [ 75.97037, 23.71608 ], [ 75.97197, 23.71507 ], [ 75.9758, 23.71602 ], [ 75.97354, 23.72394 ], [ 75.97669, 23.72485 ], [ 75.97871, 23.73029 ], [ 75.98144, 23.73038 ], [ 75.98161, 23.73581 ], [ 75.97659, 23.7368 ], [ 75.97745, 23.74411 ], [ 75.9754, 23.74769 ], [ 75.97453, 23.74769 ], [ 75.97324, 23.7494 ], [ 75.97496, 23.75851 ], [ 75.97442, 23.75939 ], [ 75.97637, 23.76307 ], [ 75.97835, 23.76426 ], [ 75.98459, 23.76334 ], [ 76.00561, 23.76623 ], [ 76.00555, 23.76757 ], [ 76.01241, 23.76916 ], [ 76.0131, 23.77135 ], [ 76.01871, 23.76849 ], [ 76.01968, 23.76904 ], [ 76.02275, 23.76775 ], [ 76.02284, 23.76899 ], [ 76.02451, 23.77066 ], [ 76.02474, 23.77293 ], [ 76.02694, 23.7725 ], [ 76.0292, 23.77364 ], [ 76.02771, 23.77647 ], [ 76.02795, 23.77804 ], [ 76.03145, 23.77941 ], [ 76.03042, 23.78151 ], [ 76.03298, 23.78333 ], [ 76.03397, 23.78789 ], [ 76.03103, 23.79087 ], [ 76.03184, 23.794 ], [ 76.02927, 23.79385 ], [ 76.02778, 23.79516 ], [ 76.02651, 23.79324 ], [ 76.02555, 23.79375 ], [ 76.02499, 23.79757 ], [ 76.02603, 23.80028 ], [ 76.02569, 23.80192 ], [ 76.02312, 23.8035 ], [ 76.02289, 23.80437 ], [ 76.02437, 23.81008 ], [ 76.02718, 23.81206 ], [ 76.02358, 23.81734 ], [ 76.0244, 23.8199 ], [ 76.03346, 23.81966 ], [ 76.0401, 23.82176 ], [ 76.04259, 23.82513 ], [ 76.05086, 23.82554 ], [ 76.05582, 23.82383 ], [ 76.06396, 23.82349 ], [ 76.0657, 23.82899 ], [ 76.07122, 23.83189 ], [ 76.07449, 23.8324 ], [ 76.07086, 23.83743 ], [ 76.07384, 23.84637 ], [ 76.07615, 23.84984 ], [ 76.07982, 23.84738 ], [ 76.09017, 23.85285 ], [ 76.09531, 23.85377 ], [ 76.09549, 23.85636 ], [ 76.10008, 23.85314 ] ] ] } },
{ "type": "Feature", "properties": { "OBJECTID": 4005, "state_lgd": "23", "state_name": "MADHYA PRADESH", "district_lgd": "735", "district_name": "AGAR MALWA", "district_name_source": "district_table", "subdistrict_lgd": "3517", "subdistrict_name": "BADOD", "subdistrict_type": "", "name_corrupted": false, "remarks": "", "label_lon": 75.884825067136802, "label_lat": 23.792855645421046 }, "geometry": { "type": "Polygon", "coordinates": [ [ [ 75.98824, 23.93235 ], [ 75.99526, 23.92704 ], [ 75.99715, 23.92251 ], [ 76.00245, 23.91884 ], [ 76.00673, 23.92239 ], [ 76.01111, 23.92375 ], [ 76.01906, 23.9236 ], [ 76.02583, 23.92157 ], [ 76.02994, 23.91741 ], [ 76.03102, 23.91501 ], [ 76.03179, 23.91557 ], [ 76.03424, 23.9111 ], [ 76.03519, 23.90352 ], [ 76.03409, 23.90331 ], [ 76.04062, 23.90181 ], [ 76.04728, 23.89785 ], [ 76.04921, 23.89195 ], [ 76.06118, 23.88947 ], [ 76.06547, 23.88578 ], [ 76.0674, 23.88584 ], [ 76.06622, 23.88275 ], [ 76.06705, 23.88004 ], [ 76.06566, 23.87621 ], [ 76.0657, 23.8739 ], [ 76.06608, 23.87446 ], [ 76.06713, 23.87345 ], [ 76.07255, 23.87382 ], [ 76.07213, 23.87137 ], [ 76.07428, 23.86583 ], [ 76.08675, 23.86186 ], [ 76.09284, 23.86121 ], [ 76.09416, 23.86399 ], [ 76.09721, 23.86133 ], [ 76.09789, 23.8575 ], [ 76.09559, 23.85652 ], [ 76.09531, 23.85377 ], [ 76.09017, 23.85285 ], [ 76.07982, 23.84738 ], [ 76.07615, 23.84984 ], [ 76.07384, 23.84637 ], [ 76.07086, 23.83743 ], [ 76.07449, 23.8324 ], [ 76.07122, 23.83189 ], [ 76.0657, 23.82899 ], [ 76.06396, 23.82349 ], [ 76.05582, 23.82383 ], [ 76.05086, 23.82554 ], [ 76.04259, 23.82513 ], [ 76.0401, 23.82176 ], [ 76.03346, 23.81966 ], [ 76.0244, 23.8199 ], [ 76.02358, 23.81734 ], [ 76.02718, 23.81206 ], [ 76.02437, 23.81008 ], [ 76.02289, 23.80437 ], [ 76.02312, 23.8035 ], [ 76.02569, 23.80192 ], [ 76.02603, 23.80028 ], [ 76.02499, 23.79757 ], [ 76.02555, 23.79375 ], [ 76.02651, 23.79324 ], [ 76.02778, 23.79516 ], [ 76.02927, 23.79385 ], [ 76.03184, 23.794 ], [ 76.03103, 23.79087 ], [ 76.03397, 23.78789 ], [ 76.03298, 23.78333 ], [ 76.03042, 23.78151 ], [ 76.03145, 23.77941 ], [ 76.02795, 23.77804 ], [ 76.02771, 23.77647 ], [ 76.0292, 23.77364 ], [ 76.02694, 23.7725 ], [ 76.02474, 23.77293 ], [ 76.02451, 23.77066 ], [ 76.02284, 23.76899 ], [ 76.02275, 23.76775 ], [ 76.01968, 23.76904 ], [ 76.01871, 23.76849 ], [ 76.0131, 23.77135 ], [ 76.01241, 23.76916 ], [ 76.00555, 23.76757 ], [ 76.00561, 23.76623 ], [ 75.98459, 23.76334 ], [ 75.97835, 23.76426 ], [ 75.97637, 23.76307 ], [ 75.97442, 23.75939 ], [ 75.97496, 23.75851 ], [ 75.97324, 23.7494 ], [ 75.97453, 23.74769 ], [ 75.9754, 23.74769 ], [ 75.97745, 23.74411 ], [ 75.97659, 23.7368 ], [ 75.98161, 23.73581 ], [ 75.98144, 23.73038 ], [ 75.97871, 23.73029 ], [ 75.97669, 23.72485 ], [ 75.97354, 23.72394 ], [ 75.9758, 23.71602 ], [ 75.97197, 23.71507 ], [ 75.97037, 23.71608 ], [ 75.96924, 23.71626 ], [ 75.96882, 23.71557 ], [ 75.96732, 23.71614 ], [ 75.96712, 23.71541 ], [ 75.96541, 23.71524 ], [ 75.96288, 23.71548 ], [ 75.96204, 23.7164 ], [ 75.96143, 23.71492 ], [ 75.95929, 23.71476 ], [ 75.95093, 23.71644 ], [ 75.94957, 23.71331 ], [ 75.95411, 23.71099 ], [ 75.95711, 23.701 ], [ 75.96399, 23.69845 ], [ 75.96676, 23.69038 ], [ 75.9641, 23.68563 ], [ 75.96651, 23.68631 ], [ 75.96283, 23.68142 ], [ 75.95935, 23.68146 ], [ 75.95894, 23.67982 ], [ 75.95712, 23.67998 ], [ 75.95202, 23.67731 ], [ 75.94859, 23.67674 ], [ 75.94936, 23.67318 ], [ 75.9488, 23.67274 ], [ 75.95024, 23.66967 ], [ 75.95305, 23.66879 ], [ 75.95327, 23.668 ], [ 75.95945, 23.66474 ], [ 75.9604, 23.65999 ], [ 75.95918, 23.65602 ], [ 75.94922, 23.6554 ], [ 75.94728, 23.65444 ], [ 75.94126, 23.64876 ], [ 75.93981, 23.65858 ], [ 75.93941, 23.65977 ], [ 75.93789, 23.66036 ], [ 75.9262, 23.66102 ], [ 75.92557, 23.66443 ], [ 75.92244, 23.6622 ], [ 75.91849, 23.66058 ], [ 75.91545, 23.66063 ], [ 75.9135, 23.6593 ], [ 75.91228, 23.66046 ], [ 75.90962, 23.66044 ], [ 75.90216, 23.66368 ], [ 75.90102, 23.66167 ], [ 75.89843, 23.66112 ], [ 75.89863, 23.65407 ], [ 75.89982, 23.65055 ], [ 75.8984, 23.64861 ], [ 75.88893, 23.64718 ], [ 75.88787, 23.64978 ], [ 75.87287, 23.65041 ], [ 75.87295, 23.6469 ], [ 75.87176, 23.646 ], [ 75.86525, 23.64462 ], [ 75.86294, 23.64497 ], [ 75.86176, 23.64376 ], [ 75.86029, 23.64481 ], [ 75.85825, 23.64471 ], [ 75.8577, 23.63687 ], [ 75.85667, 23.63456 ], [ 75.85587, 23.6279 ], [ 75.85658, 23.62528 ], [ 75.86524, 23.62304 ], [ 75.86599, 23.62173 ], [ 75.86951, 23.61964 ], [ 75.87486, 23.61865 ], [ 75.87301, 23.60746 ], [ 75.8759, 23.59972 ], [ 75.87634, 23.59293 ], [ 75.86471, 23.5906 ], [ 75.85861, 23.59098 ], [ 75.8553, 23.58994 ], [ 75.8554, 23.59403 ], [ 75.8533, 23.60523 ], [ 75.85343, 23.61317 ], [ 75.85252, 23.6133 ], [ 75.85243, 23.61237 ], [ 75.85074, 23.61359 ], [ 75.84961, 23.61336 ], [ 75.84953, 23.61227 ], [ 75.84842, 23.61228 ], [ 75.84802, 23.61083 ], [ 75.84523, 23.61023 ], [ 75.84449, 23.60696 ], [ 75.84272, 23.60834 ], [ 75.83904, 23.60775 ], [ 75.83745, 23.61267 ], [ 75.83339, 23.61685 ], [ 75.83358, 23.61982 ], [ 75.83554, 23.6237 ], [ 75.83472, 23.62602 ], [ 75.83094, 23.62864 ], [ 75.8288, 23.63238 ], [ 75.82898, 23.64119 ], [ 75.82828, 23.64314 ], [ 75.81804, 23.65412 ], [ 75.81272, 23.6551 ], [ 75.81214, 23.66026 ], [ 75.81579, 23.66914 ], [ 75.81694, 23.66921 ], [ 75.81764, 23.6713 ], [ 75.82216, 23.67219 ], [ 75.82944, 23.67711 ], [ 75.834, 23.67681 ], [ 75.83425, 23.67959 ], [ 75.83772, 23.68263 ], [ 75.84707, 23.68729 ], [ 75.84557, 23.69127 ], [ 75.84225, 23.69359 ], [ 75.85233, 23.71002 ], [ 75.85311, 23.71335 ], [ 75.85138, 23.71344 ], [ 75.84922, 23.71682 ], [ 75.8486, 23.72326 ], [ 75.84512, 23.73121 ], [ 75.84395, 23.73165 ], [ 75.84279, 23.7298 ], [ 75.84157, 23.73056 ], [ 75.84115, 23.72989 ], [ 75.84041, 23.7305 ], [ 75.83872, 23.72981 ], [ 75.83696, 23.73022 ], [ 75.8368, 23.72873 ], [ 75.83537, 23.72987 ], [ 75.83366, 23.72986 ], [ 75.83268, 23.73138 ], [ 75.83123, 23.73149 ], [ 75.83098, 23.73255 ], [ 75.82984, 23.73164 ], [ 75.82765, 23.73241 ], [ 75.82874, 23.72438 ], [ 75.82662, 23.7178 ], [ 75.82588, 23.71793 ], [ 75.82465, 23.70989 ], [ 75.82869, 23.69803 ], [ 75.82242, 23.697 ], [ 75.81925, 23.69971 ], [ 75.81252, 23.70269 ], [ 75.81158, 23.70416 ], [ 75.80513, 23.70655 ], [ 75.80491, 23.70776 ], [ 75.79726, 23.70903 ], [ 75.79133, 23.70854 ], [ 75.79098, 23.71221 ], [ 75.7869, 23.71892 ], [ 75.78565, 23.72313 ], [ 75.77593, 23.72306 ], [ 75.7709, 23.72442 ], [ 75.76591, 23.72404 ], [ 75.76443, 23.72542 ], [ 75.76201, 23.72463 ], [ 75.75828, 23.72488 ], [ 75.75436, 23.72317 ], [ 75.75205, 23.72622 ], [ 75.75042, 23.73133 ], [ 75.74524, 23.73897 ], [ 75.74385, 23.74029 ], [ 75.73703, 23.74301 ], [ 75.73287, 23.74621 ], [ 75.73253, 23.74838 ], [ 75.7335, 23.75041 ], [ 75.73284, 23.75453 ], [ 75.7293, 23.75816 ], [ 75.71389, 23.75618 ], [ 75.71049, 23.74853 ], [ 75.69518, 23.74566 ], [ 75.68936, 23.74623 ], [ 75.68613, 23.75519 ], [ 75.68971, 23.76216 ], [ 75.68917, 23.76378 ], [ 75.69025, 23.76818 ], [ 75.69276, 23.77248 ], [ 75.69294, 23.77603 ], [ 75.69387, 23.77736 ], [ 75.69525, 23.77743 ], [ 75.69649, 23.77974 ], [ 75.69964, 23.78034 ], [ 75.70164, 23.78305 ], [ 75.70184, 23.78639 ], [ 75.69927, 23.79036 ], [ 75.69651, 23.80099 ], [ 75.69012, 23.81325 ], [ 75.69277, 23.81645 ], [ 75.69508, 23.8141 ], [ 75.69661, 23.81473 ], [ 75.698, 23.81337 ], [ 75.69916, 23.81416 ], [ 75.70119, 23.81307 ], [ 75.70389, 23.81348 ], [ 75.70537, 23.81275 ], [ 75.70621, 23.81331 ], [ 75.7073, 23.81123 ], [ 75.71256, 23.81315 ], [ 75.71814, 23.81158 ], [ 75.72159, 23.81179 ], [ 75.72065, 23.8135 ], [ 75.72098, 23.81875 ], [ 75.72367, 23.81844 ], [ 75.72392, 23.81991 ], [ 75.72645, 23.82044 ], [ 75.72568, 23.82269 ], [ 75.72404, 23.82376 ], [ 75.72227, 23.83536 ], [ 75.71895, 23.84067 ], [ 75.72124, 23.84192 ], [ 75.72565, 23.84183 ], [ 75.73007, 23.84945 ], [ 75.73131, 23.85313 ], [ 75.73641, 23.85625 ], [ 75.73654, 23.85869 ], [ 75.73519, 23.85993 ], [ 75.73522, 23.86199 ], [ 75.72759, 23.85872 ], [ 75.72018, 23.85954 ], [ 75.71085, 23.86241 ], [ 75.70894, 23.86923 ], [ 75.70523, 23.86858 ], [ 75.70349, 23.87249 ], [ 75.70157, 23.87283 ], [ 75.70305, 23.88033 ], [ 75.70219, 23.88173 ], [ 75.70548, 23.88265 ], [ 75.70427, 23.88876 ], [ 75.70552, 23.89283 ], [ 75.7059, 23.89888 ], [ 75.70805, 23.8994 ], [ 75.71028, 23.89551 ], [ 75.71547, 23.89306 ], [ 75.7193, 23.89706 ], [ 75.72274, 23.89644 ], [ 75.72711, 23.89328 ], [ 75.73523, 23.89811 ], [ 75.73949, 23.89216 ], [ 75.74, 23.889 ], [ 75.7527, 23.88734 ], [ 75.7567, 23.88322 ], [ 75.75799, 23.88306 ], [ 75.76114, 23.87834 ], [ 75.76454, 23.87555 ], [ 75.76434, 23.873 ], [ 75.76278, 23.87188 ], [ 75.7617, 23.86576 ], [ 75.7633, 23.86165 ], [ 75.76257, 23.85911 ], [ 75.76454, 23.85174 ], [ 75.77345, 23.84814 ], [ 75.78125, 23.84873 ], [ 75.78329, 23.84923 ], [ 75.78507, 23.85282 ], [ 75.78667, 23.85317 ], [ 75.78893, 23.85633 ], [ 75.79201, 23.85845 ], [ 75.79197, 23.86147 ], [ 75.79351, 23.86668 ], [ 75.79763, 23.86847 ], [ 75.79945, 23.8684 ], [ 75.80299, 23.86545 ], [ 75.81736, 23.86786 ], [ 75.81893, 23.86849 ], [ 75.82087, 23.87331 ], [ 75.82847, 23.8778 ], [ 75.83168, 23.87874 ], [ 75.83265, 23.87993 ], [ 75.83341, 23.87968 ], [ 75.83365, 23.87795 ], [ 75.83547, 23.87817 ], [ 75.83508, 23.87684 ], [ 75.83728, 23.87686 ], [ 75.83775, 23.87843 ], [ 75.83914, 23.87862 ], [ 75.84056, 23.87458 ], [ 75.84225, 23.87589 ], [ 75.84476, 23.87619 ], [ 75.84478, 23.88395 ], [ 75.84878, 23.88415 ], [ 75.85303, 23.88748 ], [ 75.85709, 23.88764 ], [ 75.86671, 23.89048 ], [ 75.87106, 23.89023 ], [ 75.87279, 23.88775 ], [ 75.87444, 23.88709 ], [ 75.87479, 23.88537 ], [ 75.87652, 23.88524 ], [ 75.87583, 23.88103 ], [ 75.87642, 23.88002 ], [ 75.88029, 23.8787 ], [ 75.88738, 23.87917 ], [ 75.89484, 23.8894 ], [ 75.90487, 23.88916 ], [ 75.92178, 23.89613 ], [ 75.92381, 23.89847 ], [ 75.92714, 23.89774 ], [ 75.92858, 23.8991 ], [ 75.93199, 23.89622 ], [ 75.93398, 23.89731 ], [ 75.93752, 23.89669 ], [ 75.93942, 23.89946 ], [ 75.94132, 23.89946 ], [ 75.94108, 23.90176 ], [ 75.94389, 23.90298 ], [ 75.94335, 23.90452 ], [ 75.94396, 23.90483 ], [ 75.94373, 23.90736 ], [ 75.94466, 23.90896 ], [ 75.94689, 23.91006 ], [ 75.94917, 23.9126 ], [ 75.9518, 23.91148 ], [ 75.95303, 23.91172 ], [ 75.95137, 23.91553 ], [ 75.95531, 23.92084 ], [ 75.96038, 23.92325 ], [ 75.96781, 23.92416 ], [ 75.97173, 23.928 ], [ 75.97454, 23.92902 ], [ 75.98096, 23.92872 ], [ 75.98223, 23.93104 ], [ 75.97995, 23.93415 ], [ 75.97996, 23.93591 ], [ 75.98627, 23.93962 ], [ 75.98625, 23.93659 ], [ 75.98824, 23.93235 ] ] ] } },
{ "type": "Feature", "properties": { "OBJECTID": 4006, "state_lgd": "23", "state_name": "MADHYA PRADESH", "district_lgd": "735", "district_name": "AGAR MALWA", "district_name_source": "district_table", "subdistrict_lgd": "3516", "subdistrict_name": "NALKHEDA", "subdistrict_type": "", "name_corrupted": false, "remarks": "", "label_lon": 76.246855982144055, "label_lat": 23.815719529114272 }, "geometry": { "type": "Polygon", "coordinates": [ [ [ 76.25531, 23.98262 ], [ 76.26746, 23.97628 ], [ 76.28131, 23.97188 ], [ 76.29269, 23.96579 ], [ 76.30089, 23.9644 ], [ 76.30312, 23.96189 ], [ 76.3047, 23.95763 ], [ 76.30318, 23.94643 ], [ 76.30927, 23.93925 ], [ 76.3112, 23.9326 ], [ 76.31479, 23.92749 ], [ 76.31517, 23.92324 ], [ 76.31337, 23.91973 ], [ 76.3022, 23.91364 ], [ 76.29954, 23.91048 ], [ 76.2974, 23.90647 ], [ 76.29836, 23.89833 ], [ 76.29995, 23.89609 ], [ 76.30428, 23.894 ], [ 76.32207, 23.89064 ], [ 76.32656, 23.88795 ], [ 76.3282, 23.88422 ], [ 76.3268, 23.87497 ], [ 76.32789, 23.86481 ], [ 76.33077, 23.86222 ], [ 76.34601, 23.85849 ], [ 76.35134, 23.85636 ], [ 76.35341, 23.85463 ], [ 76.35684, 23.8483 ], [ 76.35712, 23.84242 ], [ 76.35484, 23.83586 ], [ 76.35428, 23.83177 ], [ 76.35509, 23.82371 ], [ 76.35602, 23.82135 ], [ 76.35977, 23.8166 ], [ 76.36321, 23.81378 ], [ 76.36781, 23.81275 ], [ 76.37772, 23.81348 ], [ 76.37925, 23.81303 ], [ 76.3817, 23.81019 ], [ 76.38319, 23.80599 ], [ 76.38277, 23.803 ], [ 76.38139, 23.79946 ], [ 76.37727, 23.7932 ], [ 76.37415, 23.77861 ], [ 76.37489, 23.77538 ], [ 76.37729, 23.76965 ], [ 76.38084, 23.76685 ], [ 76.38454, 23.76602 ], [ 76.39511, 23.76671 ], [ 76.39683, 23.7648 ], [ 76.39865, 23.75834 ], [ 76.39722, 23.75305 ], [ 76.39729, 23.74925 ], [ 76.40119, 23.73727 ], [ 76.3998, 23.72933 ], [ 76.40166, 23.72664 ], [ 76.40094, 23.72599 ], [ 76.40205, 23.72315 ], [ 76.40372, 23.72117 ], [ 76.40825, 23.71816 ], [ 76.40838, 23.71561 ], [ 76.40769, 23.71452 ], [ 76.40494, 23.71403 ], [ 76.40439, 23.71547 ], [ 76.40342, 23.71416 ], [ 76.39344, 23.71484 ], [ 76.38623, 23.71174 ], [ 76.38305, 23.70937 ], [ 76.37307, 23.70677 ], [ 76.36706, 23.70905 ], [ 76.35329, 23.70851 ], [ 76.35253, 23.71913 ], [ 76.33829, 23.72231 ], [ 76.33462, 23.7176 ], [ 76.33299, 23.7107 ], [ 76.33317, 23.70718 ], [ 76.33216, 23.70494 ], [ 76.32478, 23.70413 ], [ 76.31151, 23.70413 ], [ 76.30964, 23.70427 ], [ 76.3077, 23.70566 ], [ 76.29837, 23.70441 ], [ 76.29711, 23.70391 ], [ 76.29519, 23.70019 ], [ 76.2888, 23.69841 ], [ 76.28883, 23.69753 ], [ 76.2864, 23.69884 ], [ 76.28094, 23.70476 ], [ 76.27792, 23.71033 ], [ 76.27605, 23.71097 ], [ 76.27135, 23.71134 ], [ 76.2648, 23.71049 ], [ 76.25532, 23.70763 ], [ 76.25037, 23.70742 ], [ 76.24487, 23.71036 ], [ 76.23799, 23.7083 ], [ 76.23391, 23.70795 ], [ 76.22317, 23.70858 ], [ 76.22, 23.70786 ], [ 76.2084, 23.70819 ], [ 76.20852, 23.7093 ], [ 76.2068, 23.70958 ], [ 76.20502, 23.70537 ], [ 76.19588, 23.70608 ], [ 76.19462, 23.69827 ], [ 76.1921, 23.69849 ], [ 76.19063, 23.69746 ], [ 76.18006, 23.69605 ], [ 76.1791, 23.694 ], [ 76.17404, 23.6938 ], [ 76.16567, 23.69144 ], [ 76.16163, 23.68898 ], [ 76.15923, 23.69224 ], [ 76.15854, 23.69453 ], [ 76.15833, 23.70481 ], [ 76.15515, 23.70674 ], [ 76.15174, 23.71103 ], [ 76.15108, 23.71341 ], [ 76.15175, 23.71458 ], [ 76.14931, 23.71405 ], [ 76.14577, 23.7102 ], [ 76.14488, 23.71046 ], [ 76.145, 23.71157 ], [ 76.14191, 23.71223 ], [ 76.14169, 23.71684 ], [ 76.13856, 23.72603 ], [ 76.13965, 23.72684 ], [ 76.13993, 23.72866 ], [ 76.1415, 23.72856 ], [ 76.14204, 23.74026 ], [ 76.14059, 23.74595 ], [ 76.13951, 23.74663 ], [ 76.14012, 23.74999 ], [ 76.14191, 23.75064 ], [ 76.14231, 23.75269 ], [ 76.14205, 23.76418 ], [ 76.14376, 23.77406 ], [ 76.14469, 23.77411 ], [ 76.14388, 23.78278 ], [ 76.14181, 23.7887 ], [ 76.13373, 23.79161 ], [ 76.12664, 23.79119 ], [ 76.12223, 23.79696 ], [ 76.12237, 23.80083 ], [ 76.13228, 23.80595 ], [ 76.1325, 23.8095 ], [ 76.12938, 23.81194 ], [ 76.12815, 23.81539 ], [ 76.12797, 23.81742 ], [ 76.13106, 23.81901 ], [ 76.13062, 23.82074 ], [ 76.12416, 23.82985 ], [ 76.12096, 23.82823 ], [ 76.1167, 23.82978 ], [ 76.11345, 23.83005 ], [ 76.11602, 23.83869 ], [ 76.12363, 23.84061 ], [ 76.12009, 23.84353 ], [ 76.11778, 23.84383 ], [ 76.11779, 23.84477 ], [ 76.11198, 23.84696 ], [ 76.10454, 23.85129 ], [ 76.10192, 23.85173 ], [ 76.09549, 23.85636 ], [ 76.09786, 23.85745 ], [ 76.09791, 23.85945 ], [ 76.09717, 23.86138 ], [ 76.09416, 23.86399 ], [ 76.09284, 23.86121 ], [ 76.08675, 23.86186 ], [ 76.07428, 23.86583 ], [ 76.07213, 23.87137 ], [ 76.07255, 23.87382 ], [ 76.07384, 23.87368 ], [ 76.07574, 23.8761 ], [ 76.07847, 23.87529 ], [ 76.08096, 23.87405 ], [ 76.08268, 23.87209 ], [ 76.08764, 23.87007 ], [ 76.09142, 23.86631 ], [ 76.09437, 23.8661 ], [ 76.09556, 23.86987 ], [ 76.09783, 23.87225 ], [ 76.09734, 23.8744 ], [ 76.09861, 23.87747 ], [ 76.10411, 23.88553 ], [ 76.10288, 23.88663 ], [ 76.11416, 23.89458 ], [ 76.12473, 23.89683 ], [ 76.12695, 23.89909 ], [ 76.12798, 23.9031 ], [ 76.13032, 23.90358 ], [ 76.13572, 23.90282 ], [ 76.13913, 23.90346 ], [ 76.14499, 23.90507 ], [ 76.1485, 23.90814 ], [ 76.15403, 23.90755 ], [ 76.1595, 23.90804 ], [ 76.16095, 23.9021 ], [ 76.17209, 23.89801 ], [ 76.17525, 23.89776 ], [ 76.17896, 23.91025 ], [ 76.18108, 23.92253 ], [ 76.18585, 23.92169 ], [ 76.18791, 23.93438 ], [ 76.19469, 23.93324 ], [ 76.19649, 23.9343 ], [ 76.20274, 23.93365 ], [ 76.21621, 23.93679 ], [ 76.22799, 23.93644 ], [ 76.23192, 23.92432 ], [ 76.23698, 23.92026 ], [ 76.23822, 23.92062 ], [ 76.2405, 23.91836 ], [ 76.24607, 23.92613 ], [ 76.2453, 23.93401 ], [ 76.24646, 23.93714 ], [ 76.25388, 23.94677 ], [ 76.25394, 23.94953 ], [ 76.25213, 23.95619 ], [ 76.25058, 23.97193 ], [ 76.25172, 23.97739 ], [ 76.25531, 23.98262 ] ] ] } },
{ "type": "Feature", "properties": { "OBJECTID": 4007, "state_lgd": "23", "state_name": "MADHYA PRADESH", "district_lgd": "735", "district_name": "AGAR MALWA", "district_name_source": "district_table", "subdistrict_lgd": "7393", "subdistrict_name": "SOYATKALA", "subdistrict_type": "", "name_corrupted": false, "remarks": "", "label_lon": 76.17165137029788, "label_lat": 24.155908043506614 }, "geometry": { "type": "Polygon", "coordinates": [ [ [ 76.19477, 24.31186 ], [ 76.20351, 24.30423 ], [ 76.20468, 24.29944 ], [ 76.19729, 24.28796 ], [ 76.19516, 24.28046 ], [ 76.19459, 24.27319 ], [ 76.19712, 24.27152 ], [ 76.20093, 24.27107 ], [ 76.20214, 24.26883 ], [ 76.20295, 24.24476 ], [ 76.20615, 24.23298 ], [ 76.20647, 24.22841 ], [ 76.20333, 24.22052 ], [ 76.2047, 24.21725 ], [ 76.21164, 24.21219 ], [ 76.21255, 24.20996 ], [ 76.21114, 24.19855 ], [ 76.21421, 24.19136 ], [ 76.21607, 24.17685 ], [ 76.21411, 24.16677 ], [ 76.21515, 24.14797 ], [ 76.21579, 24.14681 ], [ 76.22122, 24.14472 ], [ 76.22769, 24.14686 ], [ 76.23275, 24.14581 ], [ 76.23705, 24.14065 ], [ 76.23804, 24.13584 ], [ 76.23779, 24.13243 ], [ 76.2358, 24.12685 ], [ 76.23155, 24.11973 ], [ 76.22445, 24.11664 ], [ 76.22241, 24.11448 ], [ 76.21846, 24.10465 ], [ 76.21856, 24.10072 ], [ 76.22762, 24.08713 ], [ 76.22237, 24.08607 ], [ 76.21244, 24.08579 ], [ 76.21046, 24.08622 ], [ 76.20849, 24.08983 ], [ 76.20747, 24.09021 ], [ 76.19206, 24.09148 ], [ 76.19059, 24.08854 ], [ 76.1895, 24.08234 ], [ 76.19009, 24.07507 ], [ 76.19221, 24.07277 ], [ 76.19835, 24.0618 ], [ 76.19903, 24.05977 ], [ 76.19872, 24.05598 ], [ 76.20132, 24.04925 ], [ 76.20135, 24.04448 ], [ 76.20263, 24.0391 ], [ 76.20461, 24.03824 ], [ 76.21083, 24.03911 ], [ 76.21453, 24.03123 ], [ 76.21582, 24.02224 ], [ 76.21525, 24.0193 ], [ 76.20232, 24.01731 ], [ 76.18803, 24.022 ], [ 76.18456, 24.01332 ], [ 76.17245, 24.01374 ], [ 76.1675, 24.01319 ], [ 76.16622, 24.01506 ], [ 76.16407, 24.01563 ], [ 76.16029, 24.0217 ], [ 76.16006, 24.02339 ], [ 76.1613, 24.02537 ], [ 76.16101, 24.03565 ], [ 76.1544, 24.03502 ], [ 76.15172, 24.03267 ], [ 76.14821, 24.03342 ], [ 76.14065, 24.03303 ], [ 76.14249, 24.04245 ], [ 76.14439, 24.04703 ], [ 76.14473, 24.0524 ], [ 76.14367, 24.05737 ], [ 76.14415, 24.05814 ], [ 76.14223, 24.0604 ], [ 76.14032, 24.06058 ], [ 76.13923, 24.06346 ], [ 76.13244, 24.06395 ], [ 76.12925, 24.06127 ], [ 76.12752, 24.06124 ], [ 76.12243, 24.06284 ], [ 76.12322, 24.06948 ], [ 76.12167, 24.06826 ], [ 76.12132, 24.0668 ], [ 76.11869, 24.06701 ], [ 76.11786, 24.06609 ], [ 76.1161, 24.06974 ], [ 76.11331, 24.06924 ], [ 76.11001, 24.07102 ], [ 76.10636, 24.07095 ], [ 76.10551, 24.0716 ], [ 76.10092, 24.07097 ], [ 76.09953, 24.07195 ], [ 76.10139, 24.07299 ], [ 76.11178, 24.07508 ], [ 76.11002, 24.07879 ], [ 76.10673, 24.08011 ], [ 76.10513, 24.08228 ], [ 76.10522, 24.08439 ], [ 76.11457, 24.08474 ], [ 76.11844, 24.08713 ], [ 76.12179, 24.0847 ], [ 76.12621, 24.08804 ], [ 76.12538, 24.08856 ], [ 76.12679, 24.08873 ], [ 76.12064, 24.10821 ], [ 76.1245, 24.11008 ], [ 76.13114, 24.11549 ], [ 76.1302, 24.12294 ], [ 76.12729, 24.12675 ], [ 76.12679, 24.13249 ], [ 76.12244, 24.1377 ], [ 76.12496, 24.15107 ], [ 76.12471, 24.15833 ], [ 76.12349, 24.16111 ], [ 76.1213, 24.16301 ], [ 76.11822, 24.16352 ], [ 76.11406, 24.16292 ], [ 76.11364, 24.16623 ], [ 76.11664, 24.18015 ], [ 76.11535, 24.17987 ], [ 76.11551, 24.18372 ], [ 76.11755, 24.19466 ], [ 76.12245, 24.19819 ], [ 76.124, 24.20112 ], [ 76.13227, 24.20856 ], [ 76.13435, 24.21356 ], [ 76.13701, 24.21568 ], [ 76.1378, 24.21802 ], [ 76.14091, 24.21905 ], [ 76.14257, 24.22143 ], [ 76.14473, 24.22254 ], [ 76.146, 24.22426 ], [ 76.14666, 24.22851 ], [ 76.14843, 24.23203 ], [ 76.1462, 24.24404 ], [ 76.14308, 24.25269 ], [ 76.14312, 24.25574 ], [ 76.13905, 24.25625 ], [ 76.14139, 24.26718 ], [ 76.13672, 24.2708 ], [ 76.14054, 24.27463 ], [ 76.14223, 24.28148 ], [ 76.14329, 24.2829 ], [ 76.14932, 24.28478 ], [ 76.15587, 24.28427 ], [ 76.15968, 24.2827 ], [ 76.16254, 24.28473 ], [ 76.16533, 24.29223 ], [ 76.1647, 24.29461 ], [ 76.16781, 24.29558 ], [ 76.16888, 24.29707 ], [ 76.16587, 24.29981 ], [ 76.16461, 24.30659 ], [ 76.16556, 24.30789 ], [ 76.17015, 24.30606 ], [ 76.17284, 24.30623 ], [ 76.17411, 24.30721 ], [ 76.17499, 24.30895 ], [ 76.17415, 24.31268 ], [ 76.1773, 24.31413 ], [ 76.17963, 24.31687 ], [ 76.18256, 24.32144 ], [ 76.18277, 24.32473 ], [ 76.18552, 24.32928 ], [ 76.18992, 24.32342 ], [ 76.19477, 24.31186 ] ] ] } },
{ "type": "Feature", "properties": { "OBJECTID": 4008, "state_lgd": "23", "state_name": "MADHYA PRADESH", "district_lgd": "735", "district_name": "AGAR MALWA", "district_name_source": "district_table", "subdistrict_lgd": "3515", "subdistrict_name": "SUSNER", "subdistrict_type": "", "name_corrupted": false, "remarks": "", "label_lon": 76.110249017922996, "label_lat": 23.97842269152671 }, "geometry": { "type": "Polygon", "coordinates": [ [ [ 76.10635, 24.08447 ], [ 76.10522, 24.08439 ], [ 76.10492, 24.08261 ], [ 76.10673, 24.08011 ], [ 76.11002, 24.07879 ], [ 76.11178, 24.07508 ], [ 76.10139, 24.07299 ], [ 76.09961, 24.07207 ], [ 76.09977, 24.07141 ], [ 76.11001, 24.07102 ], [ 76.11331, 24.06924 ], [ 76.1161, 24.06974 ], [ 76.11786, 24.06609 ], [ 76.11869, 24.06701 ], [ 76.12132, 24.0668 ], [ 76.12167, 24.06826 ], [ 76.12322, 24.06948 ], [ 76.12243, 24.06284 ], [ 76.12752, 24.06124 ], [ 76.12925, 24.06127 ], [ 76.13244, 24.06395 ], [ 76.13923, 24.06346 ], [ 76.14032, 24.06058 ], [ 76.14223, 24.0604 ], [ 76.14415, 24.05814 ], [ 76.14367, 24.05737 ], [ 76.14473, 24.0524 ], [ 76.14439, 24.04703 ], [ 76.14249, 24.04245 ], [ 76.14065, 24.03303 ], [ 76.14821, 24.03342 ], [ 76.15172, 24.03267 ], [ 76.1544, 24.03502 ], [ 76.16101, 24.03565 ], [ 76.1613, 24.02537 ], [ 76.16006, 24.02339 ], [ 76.16029, 24.0217 ], [ 76.16407, 24.01563 ], [ 76.16622, 24.01506 ], [ 76.1675, 24.01319 ], [ 76.17245, 24.01374 ], [ 76.18456, 24.01332 ], [ 76.18803, 24.022 ], [ 76.20141, 24.0174 ], [ 76.21514, 24.01917 ], [ 76.21582, 24.02224 ], [ 76.21453, 24.03123 ], [ 76.21107, 24.03826 ], [ 76.22468, 24.04084 ], [ 76.22638, 24.0448 ], [ 76.24161, 24.04367 ], [ 76.25447, 24.04003 ], [ 76.25798, 24.03555 ], [ 76.2583, 24.03184 ], [ 76.25655, 24.01959 ], [ 76.26002, 24.00136 ], [ 76.25716, 23.98694 ], [ 76.25568, 23.98308 ], [ 76.25172, 23.97739 ], [ 76.25068, 23.97295 ], [ 76.25213, 23.95619 ], [ 76.25394, 23.94953 ], [ 76.25388, 23.94677 ], [ 76.24646, 23.93714 ], [ 76.2453, 23.93401 ], [ 76.24607, 23.92613 ], [ 76.2405, 23.91836 ], [ 76.23822, 23.92062 ], [ 76.23698, 23.92026 ], [ 76.23192, 23.92432 ], [ 76.22799, 23.93644 ], [ 76.21621, 23.93679 ], [ 76.20274, 23.93365 ], [ 76.19649, 23.9343 ], [ 76.19469, 23.93324 ], [ 76.18781, 23.93435 ], [ 76.18585, 23.92169 ], [ 76.18108, 23.92253 ], [ 76.17896, 23.91025 ], [ 76.17525, 23.89776 ], [ 76.17209, 23.89801 ], [ 76.16095, 23.9021 ], [ 76.1595, 23.90804 ], [ 76.15403, 23.90755 ], [ 76.1485, 23.90814 ], [ 76.14499, 23.90507 ], [ 76.13913, 23.90346 ], [ 76.13572, 23.90282 ], [ 76.13032, 23.90358 ], [ 76.12798, 23.9031 ], [ 76.12695, 23.89909 ], [ 76.12473, 23.89683 ], [ 76.11416, 23.89458 ], [ 76.10288, 23.88663 ], [ 76.10411, 23.88553 ], [ 76.09861, 23.87747 ], [ 76.09734, 23.8744 ], [ 76.09783, 23.87225 ], [ 76.09556, 23.86987 ], [ 76.09445, 23.86614 ], [ 76.09234, 23.86592 ], [ 76.08764, 23.87007 ], [ 76.08268, 23.87209 ], [ 76.08093, 23.87407 ], [ 76.07674, 23.87585 ], [ 76.07574, 23.8761 ], [ 76.07384, 23.87368 ], [ 76.06713, 23.87345 ], [ 76.06608, 23.87446 ], [ 76.0657, 23.8739 ], [ 76.06566, 23.87621 ], [ 76.06705, 23.88004 ], [ 76.06622, 23.88275 ], [ 76.06745, 23.88579 ], [ 76.06547, 23.88578 ], [ 76.06118, 23.88947 ], [ 76.04921, 23.89195 ], [ 76.04728, 23.89785 ], [ 76.04062, 23.90181 ], [ 76.03409, 23.90331 ], [ 76.03519, 23.90352 ], [ 76.03424, 23.9111 ], [ 76.03179, 23.91557 ], [ 76.03102, 23.91501 ], [ 76.02994, 23.91741 ], [ 76.02583, 23.92157 ], [ 76.01906, 23.9236 ], [ 76.01111, 23.92375 ], [ 76.00673, 23.92239 ], [ 76.00245, 23.91884 ], [ 75.99715, 23.92251 ], [ 75.99478, 23.92771 ], [ 75.98824, 23.93235 ], [ 75.98615, 23.93726 ], [ 75.98627, 23.93962 ], [ 75.98761, 23.94174 ], [ 75.98388, 23.95027 ], [ 75.98407, 23.95266 ], [ 75.98676, 23.95885 ], [ 75.98596, 23.96373 ], [ 75.98391, 23.96742 ], [ 75.98469, 23.9747 ], [ 75.98176, 23.97696 ], [ 75.97997, 23.97965 ], [ 75.97596, 23.98221 ], [ 75.97243, 23.98847 ], [ 75.96759, 23.99094 ], [ 75.96719, 23.99987 ], [ 75.96222, 24.01469 ], [ 75.96345, 24.01871 ], [ 75.97064, 24.02036 ], [ 75.97301, 24.01946 ], [ 75.98453, 24.01982 ], [ 75.99702, 24.01769 ], [ 76.0, 24.02089 ], [ 76.01067, 24.02504 ], [ 76.0213, 24.03419 ], [ 76.02157, 24.03545 ], [ 76.01941, 24.03742 ], [ 76.02202, 24.04119 ], [ 76.02154, 24.04526 ], [ 76.02223, 24.04724 ], [ 76.02363, 24.04882 ], [ 76.02656, 24.0495 ], [ 76.02817, 24.05174 ], [ 76.03056, 24.05154 ], [ 76.03169, 24.05787 ], [ 76.0346, 24.05845 ], [ 76.03681, 24.0629 ], [ 76.03996, 24.06316 ], [ 76.04267, 24.06602 ], [ 76.04543, 24.06451 ], [ 76.04719, 24.06485 ], [ 76.04896, 24.06668 ], [ 76.05162, 24.06666 ], [ 76.05464, 24.06526 ], [ 76.05767, 24.06754 ], [ 76.06325, 24.06827 ], [ 76.06758, 24.07072 ], [ 76.07275, 24.07666 ], [ 76.07401, 24.07621 ], [ 76.07363, 24.07442 ], [ 76.07437, 24.07182 ], [ 76.07584, 24.07084 ], [ 76.07825, 24.07333 ], [ 76.08019, 24.07383 ], [ 76.08451, 24.07694 ], [ 76.08927, 24.07704 ], [ 76.0927, 24.08253 ], [ 76.09636, 24.08341 ], [ 76.10062, 24.08712 ], [ 76.10492, 24.08744 ], [ 76.10635, 24.08447 ] ] ] } }
]
}
