{
"type": "FeatureCollection",
"name": "205_SHEOHAR",
"crs": { "type": "name", "properties": { "name": "urn:ogc:def:crs:OGC:1.3:CRS84" } },
"xy_coordinate_resolution": 1e-05,
"features": [
{ "type": "Feature", "properties": { "OBJECTID": 6177, "state_lgd": "10", "state_name": "BIHAR", "district_lgd": "205", "district_name": "SHEOHAR", "district_name_source": "district_table", "subdistrict_lgd": "01058", "subdistrict_name": "Purnahiya", "subdistrict_type": "", "name_corrupted": false, "remarks": "", "label_lon": 85.321037994318544, "label_lat": 26.618863507042548 }, "geometry": { "type": "Polygon", "coordinates": [ [ [ 85.31909, 26.66128 ], [ 85.32643, 26.65459 ], [ 85.32757, 26.65457 ], [ 85.32915, 26.65692 ], [ 85.33474, 26.65656 ], [ 85.33776, 26.65525 ], [ 85.33772, 26.65366 ], [ 85.34164, 26.65194 ], [ 85.34404, 26.65246 ], [ 85.35119, 26.64847 ], [ 85.35178, 26.64709 ], [ 85.35112, 26.64479 ], [ 85.35904, 26.64115 ], [ 85.35975, 26.63474 ], [ 85.36293, 26.63292 ], [ 85.36456, 26.63103 ], [ 85.36475, 26.62989 ], [ 85.36341, 26.62897 ], [ 85.36267, 26.62686 ], [ 85.36328, 26.62546 ], [ 85.36253, 26.62132 ], [ 85.3638, 26.62082 ], [ 85.3675, 26.62177 ], [ 85.36838, 26.62152 ], [ 85.36888, 26.62001 ], [ 85.36794, 26.61899 ], [ 85.36777, 26.61528 ], [ 85.36683, 26.61445 ], [ 85.36527, 26.61562 ], [ 85.36338, 26.6154 ], [ 85.35656, 26.60884 ], [ 85.35703, 26.6061 ], [ 85.36179, 26.60333 ], [ 85.36143, 26.60047 ], [ 85.35859, 26.60113 ], [ 85.35498, 26.60075 ], [ 85.35422, 26.59805 ], [ 85.35541, 26.59448 ], [ 85.35377, 26.59265 ], [ 85.35427, 26.59089 ], [ 85.35662, 26.59039 ], [ 85.35819, 26.59174 ], [ 85.35851, 26.59493 ], [ 85.35955, 26.59633 ], [ 85.36006, 26.59503 ], [ 85.36212, 26.59546 ], [ 85.36324, 26.59158 ], [ 85.36363, 26.58846 ], [ 85.3629, 26.58676 ], [ 85.36052, 26.58519 ], [ 85.35541, 26.5836 ], [ 85.35341, 26.58144 ], [ 85.35444, 26.57954 ], [ 85.36031, 26.57538 ], [ 85.35608, 26.57563 ], [ 85.35435, 26.57488 ], [ 85.34991, 26.57618 ], [ 85.34889, 26.57413 ], [ 85.34597, 26.57178 ], [ 85.34068, 26.56971 ], [ 85.33913, 26.56593 ], [ 85.34035, 26.56102 ], [ 85.33282, 26.56241 ], [ 85.32703, 26.56505 ], [ 85.32882, 26.56667 ], [ 85.32842, 26.57017 ], [ 85.32944, 26.57045 ], [ 85.33084, 26.56883 ], [ 85.3346, 26.57007 ], [ 85.33631, 26.57164 ], [ 85.33822, 26.57177 ], [ 85.33675, 26.57826 ], [ 85.33604, 26.57859 ], [ 85.33656, 26.58231 ], [ 85.32725, 26.5835 ], [ 85.32589, 26.58307 ], [ 85.32278, 26.5798 ], [ 85.31682, 26.57901 ], [ 85.30778, 26.5801 ], [ 85.30648, 26.57641 ], [ 85.29664, 26.57797 ], [ 85.29408, 26.57943 ], [ 85.29742, 26.58325 ], [ 85.29818, 26.58692 ], [ 85.29727, 26.58793 ], [ 85.29814, 26.59127 ], [ 85.29655, 26.59254 ], [ 85.29902, 26.59507 ], [ 85.3008, 26.602 ], [ 85.2983, 26.60249 ], [ 85.2972, 26.6055 ], [ 85.29121, 26.60662 ], [ 85.29074, 26.61698 ], [ 85.28106, 26.61765 ], [ 85.28103, 26.62216 ], [ 85.26984, 26.62418 ], [ 85.27039, 26.62959 ], [ 85.27146, 26.63026 ], [ 85.27517, 26.62966 ], [ 85.27597, 26.63021 ], [ 85.27585, 26.63191 ], [ 85.27355, 26.6336 ], [ 85.26855, 26.63511 ], [ 85.26698, 26.6398 ], [ 85.26455, 26.64086 ], [ 85.26444, 26.64512 ], [ 85.26328, 26.6462 ], [ 85.26587, 26.6485 ], [ 85.27062, 26.64976 ], [ 85.28237, 26.64689 ], [ 85.28265, 26.64862 ], [ 85.28436, 26.65019 ], [ 85.28485, 26.65491 ], [ 85.2899, 26.65877 ], [ 85.29849, 26.65817 ], [ 85.31278, 26.6558 ], [ 85.31546, 26.66098 ], [ 85.31726, 26.66152 ], [ 85.31909, 26.66128 ] ] ] } },
{ "type": "Feature", "properties": { "OBJECTID": 6178, "state_lgd": "10", "state_name": "BIHAR", "district_lgd": "205", "district_name": "SHEOHAR", "district_name_source": "district_table", "subdistrict_lgd": "01059", "subdistrict_name": "Piprarhi", "subdistrict_type": "", "name_corrupted": false, "remarks": "", "label_lon": 85.326173896889543, "label_lat": 26.553916568014529 }, "geometry": { "type": "Polygon", "coordinates": [ [ [ 85.28106, 26.61765 ], [ 85.29074, 26.61698 ], [ 85.29121, 26.60662 ], [ 85.2972, 26.6055 ], [ 85.2983, 26.60249 ], [ 85.3008, 26.602 ], [ 85.29902, 26.59507 ], [ 85.29655, 26.59254 ], [ 85.29814, 26.59127 ], [ 85.29727, 26.58793 ], [ 85.29818, 26.58692 ], [ 85.29742, 26.58325 ], [ 85.29408, 26.57943 ], [ 85.29664, 26.57797 ], [ 85.30648, 26.57641 ], [ 85.30778, 26.5801 ], [ 85.31682, 26.57901 ], [ 85.32278, 26.5798 ], [ 85.32589, 26.58307 ], [ 85.32725, 26.5835 ], [ 85.33656, 26.58231 ], [ 85.33604, 26.57859 ], [ 85.33675, 26.57826 ], [ 85.33822, 26.57177 ], [ 85.33631, 26.57164 ], [ 85.3346, 26.57007 ], [ 85.33084, 26.56883 ], [ 85.32944, 26.57045 ], [ 85.32842, 26.57017 ], [ 85.32882, 26.56667 ], [ 85.32703, 26.56505 ], [ 85.33282, 26.56241 ], [ 85.34035, 26.56102 ], [ 85.33913, 26.56593 ], [ 85.34023, 26.56913 ], [ 85.34171, 26.5704 ], [ 85.34597, 26.57178 ], [ 85.34889, 26.57413 ], [ 85.34991, 26.57618 ], [ 85.35435, 26.57488 ], [ 85.35608, 26.57563 ], [ 85.36682, 26.57466 ], [ 85.37333, 26.57607 ], [ 85.37375, 26.57752 ], [ 85.37504, 26.57766 ], [ 85.37721, 26.57944 ], [ 85.37838, 26.58143 ], [ 85.38402, 26.57998 ], [ 85.38715, 26.57654 ], [ 85.38877, 26.57585 ], [ 85.39064, 26.56925 ], [ 85.38608, 26.56463 ], [ 85.38506, 26.5644 ], [ 85.38226, 26.56592 ], [ 85.38028, 26.57009 ], [ 85.37827, 26.57042 ], [ 85.37731, 26.56983 ], [ 85.37895, 26.56549 ], [ 85.37479, 26.56259 ], [ 85.37416, 26.55802 ], [ 85.37508, 26.55584 ], [ 85.3769, 26.5556 ], [ 85.37992, 26.55817 ], [ 85.38266, 26.56219 ], [ 85.38262, 26.55965 ], [ 85.38014, 26.555 ], [ 85.37785, 26.55403 ], [ 85.37641, 26.55493 ], [ 85.37347, 26.55376 ], [ 85.37106, 26.5556 ], [ 85.36769, 26.5557 ], [ 85.36424, 26.55454 ], [ 85.36331, 26.55383 ], [ 85.36161, 26.54509 ], [ 85.36227, 26.5443 ], [ 85.36398, 26.54536 ], [ 85.36706, 26.54543 ], [ 85.37281, 26.55135 ], [ 85.3749, 26.5478 ], [ 85.38014, 26.54658 ], [ 85.38076, 26.54586 ], [ 85.38083, 26.53967 ], [ 85.3846, 26.53612 ], [ 85.3913, 26.53257 ], [ 85.39436, 26.52922 ], [ 85.3948, 26.52603 ], [ 85.39203, 26.52404 ], [ 85.39177, 26.52272 ], [ 85.3929, 26.52204 ], [ 85.39661, 26.52221 ], [ 85.39889, 26.52113 ], [ 85.40009, 26.51959 ], [ 85.39901, 26.51674 ], [ 85.40179, 26.51585 ], [ 85.40099, 26.5141 ], [ 85.39731, 26.51301 ], [ 85.39555, 26.51404 ], [ 85.39455, 26.51684 ], [ 85.38976, 26.52143 ], [ 85.386, 26.52144 ], [ 85.3836, 26.5196 ], [ 85.382, 26.51691 ], [ 85.38403, 26.50937 ], [ 85.38617, 26.50765 ], [ 85.38971, 26.50718 ], [ 85.39477, 26.50834 ], [ 85.39867, 26.5081 ], [ 85.4021, 26.50476 ], [ 85.40278, 26.50254 ], [ 85.39747, 26.49966 ], [ 85.39594, 26.50013 ], [ 85.39094, 26.50453 ], [ 85.38875, 26.50458 ], [ 85.38397, 26.50261 ], [ 85.37048, 26.50509 ], [ 85.36799, 26.50672 ], [ 85.36107, 26.50802 ], [ 85.35831, 26.50604 ], [ 85.35682, 26.50386 ], [ 85.3513, 26.50517 ], [ 85.34382, 26.50495 ], [ 85.33952, 26.49899 ], [ 85.33413, 26.49685 ], [ 85.33455, 26.49232 ], [ 85.33102, 26.49054 ], [ 85.32873, 26.49216 ], [ 85.32279, 26.49148 ], [ 85.32001, 26.49199 ], [ 85.31721, 26.49354 ], [ 85.31811, 26.50161 ], [ 85.32072, 26.50335 ], [ 85.32155, 26.50493 ], [ 85.32021, 26.50795 ], [ 85.32044, 26.51287 ], [ 85.31911, 26.51357 ], [ 85.31454, 26.5129 ], [ 85.31454, 26.52073 ], [ 85.3136, 26.52182 ], [ 85.31407, 26.523 ], [ 85.32028, 26.52305 ], [ 85.32095, 26.52816 ], [ 85.32253, 26.52983 ], [ 85.32266, 26.5326 ], [ 85.31985, 26.53478 ], [ 85.31314, 26.53555 ], [ 85.31284, 26.53915 ], [ 85.31463, 26.53853 ], [ 85.31712, 26.53898 ], [ 85.32176, 26.53728 ], [ 85.32562, 26.53879 ], [ 85.32408, 26.53987 ], [ 85.32446, 26.54069 ], [ 85.32666, 26.5416 ], [ 85.32898, 26.54106 ], [ 85.33186, 26.54258 ], [ 85.33226, 26.54047 ], [ 85.33409, 26.53787 ], [ 85.3364, 26.53895 ], [ 85.3367, 26.54109 ], [ 85.33859, 26.541 ], [ 85.34016, 26.54218 ], [ 85.34086, 26.54698 ], [ 85.33753, 26.54862 ], [ 85.33346, 26.55278 ], [ 85.33196, 26.55189 ], [ 85.32837, 26.55193 ], [ 85.32617, 26.54992 ], [ 85.3234, 26.54957 ], [ 85.31928, 26.551 ], [ 85.31939, 26.55395 ], [ 85.30836, 26.55471 ], [ 85.30357, 26.55599 ], [ 85.29895, 26.55538 ], [ 85.29506, 26.55819 ], [ 85.28849, 26.55858 ], [ 85.28696, 26.56133 ], [ 85.28857, 26.56653 ], [ 85.287, 26.56703 ], [ 85.28203, 26.56741 ], [ 85.27678, 26.56561 ], [ 85.26449, 26.5698 ], [ 85.26343, 26.56894 ], [ 85.26325, 26.56419 ], [ 85.25841, 26.56671 ], [ 85.25359, 26.56697 ], [ 85.25195, 26.56535 ], [ 85.25121, 26.5612 ], [ 85.24781, 26.56042 ], [ 85.23981, 26.56126 ], [ 85.23348, 26.56653 ], [ 85.2324, 26.5714 ], [ 85.24035, 26.57243 ], [ 85.24365, 26.57173 ], [ 85.24775, 26.5732 ], [ 85.26089, 26.58733 ], [ 85.26195, 26.59335 ], [ 85.26093, 26.59796 ], [ 85.26071, 26.6071 ], [ 85.25935, 26.61225 ], [ 85.2606, 26.61289 ], [ 85.26494, 26.61106 ], [ 85.26678, 26.61198 ], [ 85.2694, 26.61562 ], [ 85.26811, 26.61855 ], [ 85.27005, 26.6211 ], [ 85.26984, 26.62418 ], [ 85.28103, 26.62216 ], [ 85.28106, 26.61765 ] ] ] } },
{ "type": "Feature", "properties": { "OBJECTID": 6179, "state_lgd": "10", "state_name": "BIHAR", "district_lgd": "205", "district_name": "SHEOHAR", "district_name_source": "district_table", "subdistrict_lgd": "01060", "subdistrict_name": "Sheohar", "subdistrict_type": "", "name_corrupted": false, "remarks": "", "label_lon": 85.284409495992008, "label_lat": 26.516767095391668 }, "geometry": { "type": "Polygon", "coordinates": [ [ [ 85.27572, 26.56574 ], [ 85.28203, 26.56741 ], [ 85.28808, 26.5668 ], [ 85.28857, 26.56653 ], [ 85.28696, 26.56133 ], [ 85.28849, 26.55858 ], [ 85.29506, 26.55819 ], [ 85.29895, 26.55538 ], [ 85.30357, 26.55599 ], [ 85.30836, 26.55471 ], [ 85.31939, 26.55395 ], [ 85.31928, 26.551 ], [ 85.3234, 26.54957 ], [ 85.32617, 26.54992 ], [ 85.32837, 26.55193 ], [ 85.33196, 26.55189 ], [ 85.33346, 26.55278 ], [ 85.33753, 26.54862 ], [ 85.34086, 26.54698 ], [ 85.34016, 26.54218 ], [ 85.33859, 26.541 ], [ 85.3367, 26.54109 ], [ 85.3364, 26.53895 ], [ 85.33409, 26.53787 ], [ 85.33226, 26.54047 ], [ 85.33186, 26.54258 ], [ 85.32898, 26.54106 ], [ 85.32666, 26.5416 ], [ 85.32446, 26.54069 ], [ 85.32408, 26.53987 ], [ 85.32562, 26.53879 ], [ 85.32176, 26.53728 ], [ 85.31712, 26.53898 ], [ 85.31463, 26.53853 ], [ 85.31284, 26.53915 ], [ 85.31314, 26.53555 ], [ 85.31985, 26.53478 ], [ 85.32266, 26.5326 ], [ 85.32253, 26.52983 ], [ 85.32095, 26.52816 ], [ 85.32028, 26.52305 ], [ 85.31367, 26.52257 ], [ 85.31486, 26.51705 ], [ 85.31421, 26.51337 ], [ 85.31578, 26.51282 ], [ 85.32012, 26.51323 ], [ 85.32021, 26.50795 ], [ 85.32159, 26.50548 ], [ 85.32072, 26.50335 ], [ 85.31811, 26.50161 ], [ 85.31721, 26.49354 ], [ 85.32279, 26.49148 ], [ 85.32873, 26.49216 ], [ 85.33102, 26.49054 ], [ 85.33455, 26.49232 ], [ 85.33413, 26.49685 ], [ 85.33952, 26.49899 ], [ 85.34382, 26.50495 ], [ 85.3513, 26.50517 ], [ 85.35682, 26.50386 ], [ 85.35831, 26.50604 ], [ 85.36107, 26.50802 ], [ 85.36296, 26.50234 ], [ 85.36203, 26.49839 ], [ 85.36306, 26.49591 ], [ 85.36271, 26.4941 ], [ 85.36053, 26.49297 ], [ 85.35901, 26.48984 ], [ 85.35323, 26.49072 ], [ 85.34995, 26.49047 ], [ 85.3488, 26.4896 ], [ 85.34961, 26.48565 ], [ 85.35221, 26.482 ], [ 85.35154, 26.48131 ], [ 85.34739, 26.47862 ], [ 85.34594, 26.47923 ], [ 85.34083, 26.47906 ], [ 85.34025, 26.4762 ], [ 85.33678, 26.47446 ], [ 85.33591, 26.47151 ], [ 85.33485, 26.47047 ], [ 85.32916, 26.46926 ], [ 85.32699, 26.4693 ], [ 85.32208, 26.47113 ], [ 85.31716, 26.47148 ], [ 85.31242, 26.47417 ], [ 85.30711, 26.47417 ], [ 85.30321, 26.47311 ], [ 85.30106, 26.4707 ], [ 85.29867, 26.4703 ], [ 85.29595, 26.47042 ], [ 85.29344, 26.47191 ], [ 85.28984, 26.47213 ], [ 85.28441, 26.4741 ], [ 85.27585, 26.47345 ], [ 85.27484, 26.47265 ], [ 85.27415, 26.46703 ], [ 85.27216, 26.4625 ], [ 85.27041, 26.46236 ], [ 85.26887, 26.45998 ], [ 85.26316, 26.46269 ], [ 85.26166, 26.46225 ], [ 85.25724, 26.46331 ], [ 85.25781, 26.4669 ], [ 85.25917, 26.46723 ], [ 85.25947, 26.46977 ], [ 85.25935, 26.47149 ], [ 85.25773, 26.47214 ], [ 85.25743, 26.47305 ], [ 85.2523, 26.47424 ], [ 85.2514, 26.47185 ], [ 85.24872, 26.4709 ], [ 85.24542, 26.47097 ], [ 85.24289, 26.46944 ], [ 85.24019, 26.4698 ], [ 85.23914, 26.46885 ], [ 85.23442, 26.47081 ], [ 85.23298, 26.47032 ], [ 85.23366, 26.47512 ], [ 85.23468, 26.47693 ], [ 85.23663, 26.47681 ], [ 85.23827, 26.47944 ], [ 85.24468, 26.47617 ], [ 85.24697, 26.47991 ], [ 85.24826, 26.4796 ], [ 85.24911, 26.48144 ], [ 85.25052, 26.48144 ], [ 85.2512, 26.48235 ], [ 85.25324, 26.48154 ], [ 85.25437, 26.4849 ], [ 85.25833, 26.48429 ], [ 85.25952, 26.48653 ], [ 85.26003, 26.49017 ], [ 85.25941, 26.49371 ], [ 85.26099, 26.49447 ], [ 85.26161, 26.49951 ], [ 85.25583, 26.50296 ], [ 85.25539, 26.50694 ], [ 85.25355, 26.50831 ], [ 85.25235, 26.51076 ], [ 85.25205, 26.5128 ], [ 85.25303, 26.5168 ], [ 85.25111, 26.51999 ], [ 85.25114, 26.52529 ], [ 85.25043, 26.5259 ], [ 85.24587, 26.52682 ], [ 85.24462, 26.52393 ], [ 85.245, 26.52081 ], [ 85.24444, 26.52011 ], [ 85.24146, 26.52008 ], [ 85.23787, 26.52128 ], [ 85.23377, 26.514 ], [ 85.229, 26.51759 ], [ 85.22711, 26.52018 ], [ 85.22547, 26.52082 ], [ 85.22601, 26.52318 ], [ 85.22308, 26.52355 ], [ 85.22267, 26.5321 ], [ 85.21955, 26.53362 ], [ 85.21728, 26.53643 ], [ 85.21679, 26.53854 ], [ 85.22078, 26.54907 ], [ 85.22199, 26.55058 ], [ 85.22432, 26.55134 ], [ 85.22945, 26.55057 ], [ 85.23261, 26.54912 ], [ 85.23375, 26.55043 ], [ 85.23105, 26.55699 ], [ 85.23459, 26.56105 ], [ 85.23934, 26.56147 ], [ 85.24781, 26.56042 ], [ 85.25121, 26.5612 ], [ 85.25195, 26.56535 ], [ 85.25359, 26.56697 ], [ 85.25841, 26.56671 ], [ 85.26325, 26.56419 ], [ 85.26343, 26.56894 ], [ 85.26449, 26.5698 ], [ 85.27572, 26.56574 ] ] ] } },
{ "type": "Feature", "properties": { "OBJECTID": 6180, "state_lgd": "10", "state_name": "BIHAR", "district_lgd": "205", "district_name": "SHEOHAR", "district_name_source": "district_table", "subdistrict_lgd": "01061", "subdistrict_name": "Dumri Katsari", "subdistrict_type": "", "name_corrupted": false, "remarks": "", "label_lon": 85.23350101580553, "label_lat": 26.466361658952259 }, "geometry": { "type": "Polygon", "coordinates": [ [ [ 85.25111, 26.51999 ], [ 85.25303, 26.5168 ], [ 85.25205, 26.5128 ], [ 85.25235, 26.51076 ], [ 85.25355, 26.50831 ], [ 85.25539, 26.50694 ], [ 85.25583, 26.50296 ], [ 85.26161, 26.49951 ], [ 85.26099, 26.49447 ], [ 85.25941, 26.49371 ], [ 85.26014, 26.49203 ], [ 85.25952, 26.48653 ], [ 85.25833, 26.48429 ], [ 85.25437, 26.4849 ], [ 85.25324, 26.48154 ], [ 85.2512, 26.48235 ], [ 85.25052, 26.48144 ], [ 85.24911, 26.48144 ], [ 85.24826, 26.4796 ], [ 85.24697, 26.47991 ], [ 85.24468, 26.47617 ], [ 85.23827, 26.47944 ], [ 85.23663, 26.47681 ], [ 85.23468, 26.47693 ], [ 85.23366, 26.47512 ], [ 85.23298, 26.47032 ], [ 85.23442, 26.47081 ], [ 85.23914, 26.46885 ], [ 85.24019, 26.4698 ], [ 85.24289, 26.46944 ], [ 85.24542, 26.47097 ], [ 85.24872, 26.4709 ], [ 85.2514, 26.47185 ], [ 85.2523, 26.47424 ], [ 85.25743, 26.47305 ], [ 85.25773, 26.47214 ], [ 85.25935, 26.47149 ], [ 85.25947, 26.46977 ], [ 85.25917, 26.46723 ], [ 85.25781, 26.4669 ], [ 85.25724, 26.46331 ], [ 85.26166, 26.46225 ], [ 85.26316, 26.46269 ], [ 85.26682, 26.46093 ], [ 85.26778, 26.46006 ], [ 85.26753, 26.45597 ], [ 85.26839, 26.45429 ], [ 85.27885, 26.45181 ], [ 85.28253, 26.44828 ], [ 85.28253, 26.4428 ], [ 85.285, 26.4362 ], [ 85.285, 26.43372 ], [ 85.2833, 26.43047 ], [ 85.28124, 26.43153 ], [ 85.27601, 26.42715 ], [ 85.2739, 26.42292 ], [ 85.27252, 26.42241 ], [ 85.27147, 26.42471 ], [ 85.26936, 26.4246 ], [ 85.26713, 26.41665 ], [ 85.26592, 26.41606 ], [ 85.26109, 26.4184 ], [ 85.25846, 26.41872 ], [ 85.25388, 26.41858 ], [ 85.25262, 26.41756 ], [ 85.25056, 26.41738 ], [ 85.24967, 26.4188 ], [ 85.24775, 26.41702 ], [ 85.24674, 26.41342 ], [ 85.24386, 26.41051 ], [ 85.24268, 26.41287 ], [ 85.24531, 26.41873 ], [ 85.24266, 26.42089 ], [ 85.24005, 26.42111 ], [ 85.23751, 26.41994 ], [ 85.23559, 26.42088 ], [ 85.2347, 26.42385 ], [ 85.233, 26.42395 ], [ 85.23177, 26.42195 ], [ 85.23065, 26.41673 ], [ 85.23292, 26.41428 ], [ 85.23103, 26.41412 ], [ 85.22648, 26.41782 ], [ 85.22754, 26.41975 ], [ 85.22633, 26.4253 ], [ 85.22339, 26.42548 ], [ 85.22139, 26.42463 ], [ 85.21783, 26.42577 ], [ 85.2125, 26.42552 ], [ 85.20604, 26.42644 ], [ 85.20592, 26.42859 ], [ 85.20864, 26.43421 ], [ 85.21416, 26.43195 ], [ 85.21661, 26.43202 ], [ 85.21628, 26.43483 ], [ 85.21389, 26.43751 ], [ 85.21172, 26.44172 ], [ 85.20473, 26.44693 ], [ 85.20629, 26.4483 ], [ 85.21309, 26.44642 ], [ 85.21428, 26.44879 ], [ 85.21388, 26.45001 ], [ 85.21214, 26.45237 ], [ 85.20873, 26.45464 ], [ 85.20095, 26.45798 ], [ 85.19919, 26.45763 ], [ 85.19885, 26.45848 ], [ 85.1999, 26.45952 ], [ 85.20046, 26.46234 ], [ 85.19868, 26.46448 ], [ 85.19882, 26.46691 ], [ 85.19581, 26.46859 ], [ 85.18923, 26.46942 ], [ 85.18796, 26.47201 ], [ 85.18388, 26.47308 ], [ 85.18394, 26.47448 ], [ 85.18613, 26.47624 ], [ 85.18615, 26.47892 ], [ 85.18527, 26.48073 ], [ 85.18089, 26.48347 ], [ 85.17845, 26.48754 ], [ 85.1792, 26.48984 ], [ 85.18182, 26.49163 ], [ 85.18127, 26.49675 ], [ 85.1847, 26.49887 ], [ 85.19456, 26.50024 ], [ 85.20013, 26.49886 ], [ 85.20159, 26.50022 ], [ 85.20555, 26.49976 ], [ 85.20954, 26.50063 ], [ 85.21034, 26.5022 ], [ 85.21666, 26.50323 ], [ 85.21697, 26.50455 ], [ 85.22195, 26.50444 ], [ 85.22392, 26.50739 ], [ 85.22384, 26.50874 ], [ 85.22082, 26.51479 ], [ 85.21939, 26.52013 ], [ 85.22308, 26.52355 ], [ 85.22601, 26.52318 ], [ 85.22547, 26.52082 ], [ 85.22711, 26.52018 ], [ 85.229, 26.51759 ], [ 85.23377, 26.514 ], [ 85.23787, 26.52128 ], [ 85.24146, 26.52008 ], [ 85.24444, 26.52011 ], [ 85.245, 26.52081 ], [ 85.24462, 26.52393 ], [ 85.24587, 26.52682 ], [ 85.24771, 26.52689 ], [ 85.25114, 26.52529 ], [ 85.25111, 26.51999 ] ] ] } },
{ "type": "Feature", "properties": { "OBJECTID": 6181, "state_lgd": "10", "state_name": "BIHAR", "district_lgd": "205", "district_name": "SHEOHAR", "district_name_source": "district_table", "subdistrict_lgd": "01062", "subdistrict_name": "Tariani Chowk", "subdistrict_type": "", "name_corrupted": false, "remarks": "", "label_lon": 85.323322562172095, "label_lat": 26.409775503292995 }, "geometry": { "type": "Polygon", "coordinates": [ [ [ 85.35959, 26.48568 ], [ 85.36228, 26.48594 ], [ 85.36518, 26.48402 ], [ 85.36672, 26.48472 ], [ 85.36344, 26.48012 ], [ 85.36382, 26.47864 ], [ 85.36786, 26.47161 ], [ 85.37249, 26.46849 ], [ 85.37031, 26.46497 ], [ 85.3707, 26.46375 ], [ 85.37002, 26.4622 ], [ 85.36751, 26.4595 ], [ 85.36413, 26.45187 ], [ 85.36234, 26.44983 ], [ 85.36514, 26.44471 ], [ 85.36244, 26.44306 ], [ 85.36195, 26.44019 ], [ 85.36021, 26.43751 ], [ 85.3595, 26.43286 ], [ 85.36214, 26.4276 ], [ 85.36826, 26.4271 ], [ 85.3699, 26.42554 ], [ 85.36724, 26.41659 ], [ 85.36541, 26.41486 ], [ 85.366, 26.41146 ], [ 85.36692, 26.41113 ], [ 85.37178, 26.4141 ], [ 85.37435, 26.41406 ], [ 85.37655, 26.41307 ], [ 85.37755, 26.40546 ], [ 85.3748, 26.40043 ], [ 85.37341, 26.39146 ], [ 85.37148, 26.38947 ], [ 85.36809, 26.38831 ], [ 85.36477, 26.38171 ], [ 85.36506, 26.37974 ], [ 85.36179, 26.36444 ], [ 85.36707, 26.36143 ], [ 85.36976, 26.36204 ], [ 85.3718, 26.36395 ], [ 85.37553, 26.36285 ], [ 85.3761, 26.36201 ], [ 85.37359, 26.35734 ], [ 85.3777, 26.35615 ], [ 85.37845, 26.35476 ], [ 85.38149, 26.35388 ], [ 85.38264, 26.35518 ], [ 85.38705, 26.35362 ], [ 85.38508, 26.35134 ], [ 85.38221, 26.35044 ], [ 85.38135, 26.35083 ], [ 85.38042, 26.34854 ], [ 85.38081, 26.34521 ], [ 85.37955, 26.33986 ], [ 85.37819, 26.3394 ], [ 85.38018, 26.33393 ], [ 85.37338, 26.33372 ], [ 85.36904, 26.3426 ], [ 85.36095, 26.34656 ], [ 85.35685, 26.34588 ], [ 85.35497, 26.3442 ], [ 85.3521, 26.34437 ], [ 85.35376, 26.33721 ], [ 85.35192, 26.33608 ], [ 85.34774, 26.34107 ], [ 85.34756, 26.342 ], [ 85.34929, 26.34346 ], [ 85.34823, 26.34566 ], [ 85.34495, 26.34619 ], [ 85.3424, 26.34475 ], [ 85.33961, 26.34479 ], [ 85.33992, 26.34138 ], [ 85.33937, 26.34068 ], [ 85.33543, 26.34392 ], [ 85.33418, 26.34286 ], [ 85.33573, 26.32976 ], [ 85.33497, 26.3266 ], [ 85.33416, 26.32639 ], [ 85.33143, 26.32811 ], [ 85.32857, 26.33314 ], [ 85.32616, 26.33513 ], [ 85.32779, 26.34826 ], [ 85.32744, 26.34967 ], [ 85.32645, 26.35017 ], [ 85.31727, 26.34672 ], [ 85.31419, 26.34872 ], [ 85.30747, 26.34962 ], [ 85.30382, 26.34773 ], [ 85.30156, 26.3455 ], [ 85.29992, 26.34554 ], [ 85.29908, 26.344 ], [ 85.29699, 26.34525 ], [ 85.29314, 26.35018 ], [ 85.28847, 26.35451 ], [ 85.28741, 26.35338 ], [ 85.28541, 26.34629 ], [ 85.28413, 26.34625 ], [ 85.28259, 26.34334 ], [ 85.28083, 26.34522 ], [ 85.2807, 26.34863 ], [ 85.27956, 26.35174 ], [ 85.28083, 26.35559 ], [ 85.2845, 26.3584 ], [ 85.28793, 26.35668 ], [ 85.29087, 26.35706 ], [ 85.29413, 26.35625 ], [ 85.29569, 26.35765 ], [ 85.29367, 26.35872 ], [ 85.29303, 26.36145 ], [ 85.29211, 26.36219 ], [ 85.28716, 26.36195 ], [ 85.28707, 26.36401 ], [ 85.28267, 26.36247 ], [ 85.28102, 26.36294 ], [ 85.279, 26.36492 ], [ 85.27974, 26.36839 ], [ 85.2812, 26.37013 ], [ 85.2835, 26.37128 ], [ 85.2879, 26.37062 ], [ 85.29074, 26.37169 ], [ 85.28829, 26.37935 ], [ 85.2848, 26.37977 ], [ 85.2837, 26.38026 ], [ 85.28324, 26.38159 ], [ 85.28435, 26.38662 ], [ 85.28388, 26.3882 ], [ 85.28214, 26.3896 ], [ 85.28279, 26.39571 ], [ 85.28059, 26.39696 ], [ 85.27866, 26.39688 ], [ 85.27774, 26.39402 ], [ 85.27398, 26.39328 ], [ 85.27517, 26.38808 ], [ 85.27453, 26.38725 ], [ 85.26371, 26.3927 ], [ 85.26279, 26.39609 ], [ 85.26325, 26.4013 ], [ 85.25902, 26.4 ], [ 85.25264, 26.39992 ], [ 85.25118, 26.4009 ], [ 85.24954, 26.40476 ], [ 85.25027, 26.40835 ], [ 85.25884, 26.41202 ], [ 85.25884, 26.41374 ], [ 85.25388, 26.41858 ], [ 85.26109, 26.4184 ], [ 85.26592, 26.41606 ], [ 85.26713, 26.41665 ], [ 85.26936, 26.4246 ], [ 85.27147, 26.42471 ], [ 85.27252, 26.42241 ], [ 85.2739, 26.42292 ], [ 85.27601, 26.42715 ], [ 85.28124, 26.43153 ], [ 85.2833, 26.43047 ], [ 85.28464, 26.43262 ], [ 85.285, 26.4362 ], [ 85.28253, 26.4428 ], [ 85.28253, 26.44828 ], [ 85.27885, 26.45181 ], [ 85.26839, 26.45429 ], [ 85.26753, 26.45597 ], [ 85.26778, 26.46006 ], [ 85.26949, 26.4605 ], [ 85.27041, 26.46236 ], [ 85.27216, 26.4625 ], [ 85.27415, 26.46703 ], [ 85.27484, 26.47265 ], [ 85.27585, 26.47345 ], [ 85.28441, 26.4741 ], [ 85.28984, 26.47213 ], [ 85.29344, 26.47191 ], [ 85.29595, 26.47042 ], [ 85.29867, 26.4703 ], [ 85.30106, 26.4707 ], [ 85.30321, 26.47311 ], [ 85.30711, 26.47417 ], [ 85.31242, 26.47417 ], [ 85.31716, 26.47148 ], [ 85.32208, 26.47113 ], [ 85.32699, 26.4693 ], [ 85.32916, 26.46926 ], [ 85.33485, 26.47047 ], [ 85.33591, 26.47151 ], [ 85.33678, 26.47446 ], [ 85.34025, 26.4762 ], [ 85.34083, 26.47906 ], [ 85.34594, 26.47923 ], [ 85.34739, 26.47862 ], [ 85.35154, 26.48131 ], [ 85.35221, 26.482 ], [ 85.35182, 26.48313 ], [ 85.34961, 26.48565 ], [ 85.34865, 26.48817 ], [ 85.3488, 26.4896 ], [ 85.34995, 26.49047 ], [ 85.35901, 26.48984 ], [ 85.35872, 26.48663 ], [ 85.35959, 26.48568 ] ] ] } }
]
}
