{
"type": "FeatureCollection",
"name": "216_MUZAFFARPUR",
"crs": { "type": "name", "properties": { "name": "urn:ogc:def:crs:OGC:1.3:CRS84" } },
"xy_coordinate_resolution": 1e-05,
"features": [
{ "type": "Feature", "properties": { "OBJECTID": 6315, "state_lgd": "10", "state_name": "BIHAR", "district_lgd": "216", "district_name": "MUZAFFARPUR", "district_name_source": "district_table", "subdistrict_lgd": "01199", "subdistrict_name": "Sahebganj", "subdistrict_type": "", "name_corrupted": false, "remarks": "", "label_lon": 84.954788362437768, "label_lat": 26.26076638441543 }, "geometry": { "type": "Polygon", "coordinates": [ [ [ 85.0, 26.33295 ], [ 85.00683, 26.33087 ], [ 85.00806, 26.32899 ], [ 85.01377, 26.32837 ], [ 85.01558, 26.32237 ], [ 85.01976, 26.31922 ], [ 85.02297, 26.31897 ], [ 85.02455, 26.32064 ], [ 85.02526, 26.32323 ], [ 85.02683, 26.32431 ], [ 85.02962, 26.32346 ], [ 85.03038, 26.324 ], [ 85.03156, 26.32318 ], [ 85.03148, 26.32176 ], [ 85.03531, 26.31907 ], [ 85.03707, 26.30729 ], [ 85.03925, 26.30324 ], [ 85.03646, 26.30248 ], [ 85.03609, 26.30142 ], [ 85.03948, 26.29494 ], [ 85.03626, 26.29033 ], [ 85.03945, 26.28797 ], [ 85.03868, 26.28226 ], [ 85.0359, 26.27791 ], [ 85.03067, 26.27849 ], [ 85.0253, 26.28044 ], [ 85.02272, 26.28024 ], [ 85.02337, 26.27484 ], [ 85.02235, 26.26062 ], [ 85.01635, 26.25701 ], [ 85.01075, 26.24911 ], [ 85.01215, 26.24667 ], [ 85.01651, 26.24364 ], [ 85.01527, 26.23999 ], [ 85.01904, 26.23747 ], [ 85.0244, 26.23535 ], [ 85.01868, 26.22389 ], [ 85.01834, 26.22056 ], [ 85.01642, 26.21961 ], [ 85.01098, 26.22185 ], [ 85.00933, 26.2218 ], [ 85.00709, 26.22042 ], [ 85.00399, 26.22168 ], [ 85.00192, 26.21728 ], [ 84.99896, 26.2175 ], [ 84.99836, 26.21682 ], [ 84.99701, 26.21156 ], [ 84.99557, 26.21045 ], [ 84.99242, 26.20396 ], [ 84.98697, 26.20701 ], [ 84.98364, 26.2064 ], [ 84.98321, 26.20146 ], [ 84.9821, 26.20101 ], [ 84.98184, 26.19404 ], [ 84.98396, 26.19104 ], [ 84.98601, 26.19012 ], [ 84.98341, 26.18596 ], [ 84.97998, 26.17741 ], [ 84.97715, 26.17783 ], [ 84.97465, 26.17722 ], [ 84.97249, 26.17802 ], [ 84.96875, 26.18598 ], [ 84.96636, 26.18552 ], [ 84.96442, 26.18617 ], [ 84.96238, 26.1773 ], [ 84.96156, 26.17647 ], [ 84.95811, 26.17726 ], [ 84.95722, 26.17927 ], [ 84.95633, 26.17956 ], [ 84.95128, 26.1795 ], [ 84.95237, 26.18442 ], [ 84.94572, 26.183 ], [ 84.9449, 26.18067 ], [ 84.94646, 26.17636 ], [ 84.94613, 26.17476 ], [ 84.9434, 26.17306 ], [ 84.93145, 26.17664 ], [ 84.93128, 26.17889 ], [ 84.92973, 26.18004 ], [ 84.9255, 26.18068 ], [ 84.91969, 26.18013 ], [ 84.91781, 26.17809 ], [ 84.91178, 26.18386 ], [ 84.907, 26.19395 ], [ 84.90183, 26.19884 ], [ 84.89982, 26.20717 ], [ 84.8968, 26.20908 ], [ 84.89355, 26.21646 ], [ 84.89837, 26.21613 ], [ 84.89934, 26.21965 ], [ 84.90584, 26.2258 ], [ 84.90684, 26.23005 ], [ 84.90638, 26.23505 ], [ 84.90443, 26.23574 ], [ 84.89644, 26.23515 ], [ 84.88367, 26.23283 ], [ 84.88194, 26.23367 ], [ 84.87625, 26.23772 ], [ 84.87658, 26.23911 ], [ 84.87945, 26.23974 ], [ 84.87182, 26.25697 ], [ 84.87744, 26.26167 ], [ 84.88094, 26.27129 ], [ 84.88089, 26.27839 ], [ 84.88177, 26.2816 ], [ 84.88487, 26.28773 ], [ 84.88806, 26.29897 ], [ 84.89357, 26.31142 ], [ 84.89591, 26.31253 ], [ 84.89735, 26.31463 ], [ 84.89612, 26.31694 ], [ 84.9, 26.32176 ], [ 84.90221, 26.32598 ], [ 84.90333, 26.32598 ], [ 84.90522, 26.32428 ], [ 84.90967, 26.32349 ], [ 84.91912, 26.32662 ], [ 84.92068, 26.32843 ], [ 84.92803, 26.32734 ], [ 84.93804, 26.32757 ], [ 84.94061, 26.32647 ], [ 84.94472, 26.32769 ], [ 84.96799, 26.32413 ], [ 84.98013, 26.32306 ], [ 84.98312, 26.32657 ], [ 84.98956, 26.33029 ], [ 85.0, 26.33295 ] ] ] } },
{ "type": "Feature", "properties": { "OBJECTID": 6316, "state_lgd": "10", "state_name": "BIHAR", "district_lgd": "216", "district_name": "MUZAFFARPUR", "district_name_source": "district_table", "subdistrict_lgd": "01200", "subdistrict_name": "Baruraj (Motipur)", "subdistrict_type": "", "name_corrupted": false, "remarks": "", "label_lon": 85.119538496160004, "label_lat": 26.250702621745983 }, "geometry": { "type": "Polygon", "coordinates": [ [ [ 85.18415, 26.33918 ], [ 85.18417, 26.33171 ], [ 85.18702, 26.32891 ], [ 85.1871, 26.32589 ], [ 85.18539, 26.32397 ], [ 85.18076, 26.32324 ], [ 85.17967, 26.32229 ], [ 85.18106, 26.32054 ], [ 85.187, 26.32099 ], [ 85.18863, 26.32036 ], [ 85.19058, 26.31645 ], [ 85.19003, 26.31231 ], [ 85.19072, 26.31251 ], [ 85.19153, 26.31719 ], [ 85.18921, 26.32149 ], [ 85.19186, 26.32923 ], [ 85.19434, 26.32904 ], [ 85.19593, 26.32561 ], [ 85.1943, 26.32223 ], [ 85.19347, 26.31736 ], [ 85.19415, 26.31308 ], [ 85.19592, 26.31248 ], [ 85.19852, 26.31358 ], [ 85.19954, 26.3206 ], [ 85.20224, 26.32084 ], [ 85.20266, 26.31989 ], [ 85.20239, 26.31508 ], [ 85.20351, 26.31251 ], [ 85.20317, 26.30722 ], [ 85.20187, 26.30494 ], [ 85.19994, 26.30327 ], [ 85.19761, 26.30267 ], [ 85.18979, 26.30412 ], [ 85.18835, 26.30339 ], [ 85.18758, 26.30132 ], [ 85.19023, 26.29581 ], [ 85.19524, 26.29327 ], [ 85.19944, 26.29326 ], [ 85.20106, 26.294 ], [ 85.20252, 26.29852 ], [ 85.20496, 26.30269 ], [ 85.20662, 26.30257 ], [ 85.20605, 26.29825 ], [ 85.1991, 26.28815 ], [ 85.20021, 26.28554 ], [ 85.2032, 26.28488 ], [ 85.20444, 26.28555 ], [ 85.20476, 26.28669 ], [ 85.20331, 26.28958 ], [ 85.20378, 26.29129 ], [ 85.20578, 26.29423 ], [ 85.20837, 26.29601 ], [ 85.21321, 26.29627 ], [ 85.2181, 26.29405 ], [ 85.22025, 26.2943 ], [ 85.2202, 26.30112 ], [ 85.22191, 26.30407 ], [ 85.22606, 26.30025 ], [ 85.23107, 26.30043 ], [ 85.23243, 26.30177 ], [ 85.23224, 26.30412 ], [ 85.22929, 26.30714 ], [ 85.23213, 26.30873 ], [ 85.2364, 26.30443 ], [ 85.23626, 26.2996 ], [ 85.23317, 26.28836 ], [ 85.22997, 26.28354 ], [ 85.23095, 26.27583 ], [ 85.23015, 26.2712 ], [ 85.22653, 26.26637 ], [ 85.22721, 26.26393 ], [ 85.22876, 26.26374 ], [ 85.22977, 26.26487 ], [ 85.23139, 26.27059 ], [ 85.23242, 26.27182 ], [ 85.23339, 26.27154 ], [ 85.23422, 26.26917 ], [ 85.23249, 26.26629 ], [ 85.23135, 26.26217 ], [ 85.2333, 26.26046 ], [ 85.23318, 26.25714 ], [ 85.23491, 26.2555 ], [ 85.23507, 26.25296 ], [ 85.22969, 26.23853 ], [ 85.22307, 26.23502 ], [ 85.21258, 26.2344 ], [ 85.20951, 26.23543 ], [ 85.20722, 26.23467 ], [ 85.20867, 26.22407 ], [ 85.20838, 26.22115 ], [ 85.20289, 26.22095 ], [ 85.20055, 26.21842 ], [ 85.20116, 26.21489 ], [ 85.20078, 26.2097 ], [ 85.20237, 26.20916 ], [ 85.20224, 26.20731 ], [ 85.19999, 26.20868 ], [ 85.19413, 26.20858 ], [ 85.19388, 26.20559 ], [ 85.19118, 26.20468 ], [ 85.19221, 26.20156 ], [ 85.19113, 26.19678 ], [ 85.18683, 26.19588 ], [ 85.18611, 26.19097 ], [ 85.18243, 26.18992 ], [ 85.17792, 26.19036 ], [ 85.17656, 26.18963 ], [ 85.175, 26.19098 ], [ 85.17393, 26.18908 ], [ 85.17225, 26.1892 ], [ 85.16957, 26.18782 ], [ 85.16856, 26.18576 ], [ 85.1618, 26.18468 ], [ 85.16144, 26.18337 ], [ 85.16364, 26.18185 ], [ 85.16462, 26.17907 ], [ 85.1676, 26.17552 ], [ 85.1668, 26.16969 ], [ 85.16813, 26.16901 ], [ 85.16838, 26.16783 ], [ 85.16388, 26.16577 ], [ 85.1614, 26.16665 ], [ 85.16009, 26.16612 ], [ 85.1582, 26.16352 ], [ 85.15762, 26.16034 ], [ 85.15605, 26.15875 ], [ 85.1524, 26.15868 ], [ 85.15109, 26.16304 ], [ 85.14567, 26.16416 ], [ 85.14142, 26.16619 ], [ 85.1394, 26.16643 ], [ 85.1377, 26.16566 ], [ 85.13731, 26.16324 ], [ 85.13672, 26.16324 ], [ 85.13346, 26.16489 ], [ 85.133, 26.16618 ], [ 85.1296, 26.16759 ], [ 85.12288, 26.16768 ], [ 85.12172, 26.16874 ], [ 85.12105, 26.17116 ], [ 85.11892, 26.17218 ], [ 85.11401, 26.17149 ], [ 85.11261, 26.16736 ], [ 85.11225, 26.1621 ], [ 85.11026, 26.16049 ], [ 85.1021, 26.16128 ], [ 85.09697, 26.16909 ], [ 85.09638, 26.17137 ], [ 85.09273, 26.17425 ], [ 85.08911, 26.16761 ], [ 85.0869, 26.16787 ], [ 85.08462, 26.16588 ], [ 85.0814, 26.16687 ], [ 85.0773, 26.16294 ], [ 85.07532, 26.16229 ], [ 85.05942, 26.16465 ], [ 85.05118, 26.17025 ], [ 85.05021, 26.17452 ], [ 85.05222, 26.18627 ], [ 85.04875, 26.19128 ], [ 85.04917, 26.19422 ], [ 85.04759, 26.19865 ], [ 85.04687, 26.19992 ], [ 85.04433, 26.20029 ], [ 85.03993, 26.20256 ], [ 85.03679, 26.20578 ], [ 85.02984, 26.20786 ], [ 85.01642, 26.21961 ], [ 85.01834, 26.22056 ], [ 85.01868, 26.22389 ], [ 85.0244, 26.23535 ], [ 85.01904, 26.23747 ], [ 85.01527, 26.23999 ], [ 85.01651, 26.24364 ], [ 85.01215, 26.24667 ], [ 85.01075, 26.24911 ], [ 85.01635, 26.25701 ], [ 85.02235, 26.26062 ], [ 85.02337, 26.27484 ], [ 85.02272, 26.28024 ], [ 85.0253, 26.28044 ], [ 85.03067, 26.27849 ], [ 85.0359, 26.27791 ], [ 85.03868, 26.28226 ], [ 85.03945, 26.28797 ], [ 85.03626, 26.29033 ], [ 85.03948, 26.29494 ], [ 85.03609, 26.30142 ], [ 85.03646, 26.30248 ], [ 85.03925, 26.30324 ], [ 85.03707, 26.30729 ], [ 85.03531, 26.31907 ], [ 85.03148, 26.32176 ], [ 85.03336, 26.32939 ], [ 85.03522, 26.33357 ], [ 85.0422, 26.33482 ], [ 85.04506, 26.34206 ], [ 85.04765, 26.34 ], [ 85.05186, 26.3396 ], [ 85.05643, 26.34262 ], [ 85.05989, 26.34284 ], [ 85.06354, 26.34057 ], [ 85.06696, 26.33709 ], [ 85.07087, 26.32868 ], [ 85.07467, 26.33216 ], [ 85.07706, 26.33269 ], [ 85.07848, 26.33162 ], [ 85.07935, 26.32771 ], [ 85.08107, 26.32457 ], [ 85.08447, 26.32428 ], [ 85.0914, 26.32532 ], [ 85.09393, 26.32358 ], [ 85.09527, 26.32143 ], [ 85.09724, 26.32058 ], [ 85.09872, 26.32154 ], [ 85.09927, 26.32498 ], [ 85.10114, 26.32566 ], [ 85.10414, 26.32376 ], [ 85.11168, 26.31422 ], [ 85.11401, 26.31385 ], [ 85.11744, 26.31676 ], [ 85.1189, 26.31702 ], [ 85.12237, 26.31532 ], [ 85.12358, 26.31212 ], [ 85.12515, 26.31223 ], [ 85.12506, 26.31307 ], [ 85.12608, 26.31317 ], [ 85.12608, 26.31479 ], [ 85.12859, 26.31504 ], [ 85.13009, 26.31197 ], [ 85.13621, 26.31298 ], [ 85.13601, 26.31534 ], [ 85.13692, 26.31772 ], [ 85.1405, 26.31952 ], [ 85.14228, 26.32308 ], [ 85.14629, 26.322 ], [ 85.14654, 26.31864 ], [ 85.1494, 26.31554 ], [ 85.15269, 26.31524 ], [ 85.15837, 26.3171 ], [ 85.16129, 26.32095 ], [ 85.1625, 26.32737 ], [ 85.16422, 26.32955 ], [ 85.16777, 26.32826 ], [ 85.17123, 26.32862 ], [ 85.17269, 26.32972 ], [ 85.17663, 26.32909 ], [ 85.17619, 26.33115 ], [ 85.17371, 26.33422 ], [ 85.17346, 26.337 ], [ 85.17777, 26.33942 ], [ 85.17882, 26.33524 ], [ 85.1794, 26.33539 ], [ 85.18157, 26.3374 ], [ 85.17839, 26.33952 ], [ 85.17984, 26.34087 ], [ 85.18415, 26.33918 ] ] ] } },
{ "type": "Feature", "properties": { "OBJECTID": 6317, "state_lgd": "10", "state_name": "BIHAR", "district_lgd": "216", "district_name": "MUZAFFARPUR", "district_name_source": "district_table", "subdistrict_lgd": "01201", "subdistrict_name": "Paroo", "subdistrict_type": "", "name_corrupted": false, "remarks": "", "label_lon": 85.018458448938816, "label_lat": 26.107602341454001 }, "geometry": { "type": "Polygon", "coordinates": [ [ [ 85.01437, 26.22086 ], [ 85.0203, 26.21659 ], [ 85.02984, 26.20786 ], [ 85.03679, 26.20578 ], [ 85.04132, 26.20173 ], [ 85.04687, 26.19992 ], [ 85.04917, 26.19422 ], [ 85.04875, 26.19128 ], [ 85.05222, 26.18627 ], [ 85.05021, 26.17452 ], [ 85.05118, 26.17025 ], [ 85.05942, 26.16465 ], [ 85.07532, 26.16229 ], [ 85.0773, 26.16294 ], [ 85.0814, 26.16687 ], [ 85.08462, 26.16588 ], [ 85.0869, 26.16787 ], [ 85.08911, 26.16761 ], [ 85.09273, 26.17425 ], [ 85.09638, 26.17137 ], [ 85.09697, 26.16909 ], [ 85.1021, 26.16128 ], [ 85.11026, 26.16049 ], [ 85.11225, 26.1621 ], [ 85.11261, 26.16736 ], [ 85.11401, 26.17149 ], [ 85.11892, 26.17218 ], [ 85.12293, 26.16091 ], [ 85.12344, 26.15728 ], [ 85.12179, 26.14706 ], [ 85.11598, 26.14616 ], [ 85.11608, 26.14439 ], [ 85.11904, 26.14121 ], [ 85.1187, 26.14039 ], [ 85.11074, 26.13847 ], [ 85.10735, 26.13675 ], [ 85.10616, 26.13427 ], [ 85.10603, 26.13084 ], [ 85.10483, 26.12969 ], [ 85.10236, 26.12944 ], [ 85.10046, 26.13033 ], [ 85.09945, 26.12796 ], [ 85.09979, 26.12183 ], [ 85.09793, 26.11846 ], [ 85.09751, 26.11501 ], [ 85.10235, 26.11325 ], [ 85.10396, 26.11073 ], [ 85.1038, 26.10958 ], [ 85.11337, 26.10563 ], [ 85.11814, 26.1057 ], [ 85.11803, 26.1083 ], [ 85.11996, 26.10777 ], [ 85.12195, 26.10559 ], [ 85.1225, 26.10024 ], [ 85.12676, 26.09844 ], [ 85.12823, 26.09666 ], [ 85.12867, 26.09276 ], [ 85.12662, 26.09021 ], [ 85.13004, 26.08787 ], [ 85.13948, 26.08565 ], [ 85.14221, 26.08813 ], [ 85.1433, 26.08688 ], [ 85.14305, 26.08611 ], [ 85.14594, 26.08435 ], [ 85.14475, 26.08074 ], [ 85.14501, 26.0792 ], [ 85.14808, 26.07582 ], [ 85.15305, 26.06695 ], [ 85.14969, 26.06603 ], [ 85.146, 26.05973 ], [ 85.14439, 26.05839 ], [ 85.12555, 26.05871 ], [ 85.12667, 26.05111 ], [ 85.12506, 26.0498 ], [ 85.12455, 26.04203 ], [ 85.12044, 26.04262 ], [ 85.11971, 26.04143 ], [ 85.11627, 26.04 ], [ 85.11539, 26.04094 ], [ 85.1148, 26.04653 ], [ 85.11199, 26.04803 ], [ 85.11178, 26.04519 ], [ 85.10739, 26.0453 ], [ 85.10743, 26.04818 ], [ 85.10522, 26.04826 ], [ 85.1039, 26.04602 ], [ 85.09313, 26.04728 ], [ 85.09036, 26.0526 ], [ 85.0901, 26.05463 ], [ 85.09128, 26.05766 ], [ 85.08915, 26.05969 ], [ 85.08864, 26.06123 ], [ 85.08991, 26.06242 ], [ 85.09259, 26.0625 ], [ 85.09408, 26.06926 ], [ 85.09224, 26.06972 ], [ 85.0899, 26.07369 ], [ 85.0888, 26.07737 ], [ 85.08427, 26.07809 ], [ 85.07845, 26.07709 ], [ 85.07519, 26.07451 ], [ 85.07482, 26.07259 ], [ 85.07715, 26.06439 ], [ 85.07777, 26.05089 ], [ 85.07691, 26.04912 ], [ 85.07506, 26.04916 ], [ 85.07445, 26.04844 ], [ 85.07008, 26.04878 ], [ 85.06849, 26.04345 ], [ 85.06935, 26.04141 ], [ 85.06673, 26.03386 ], [ 85.06228, 26.03491 ], [ 85.0599, 26.03328 ], [ 85.0555, 26.03343 ], [ 85.0535, 26.03216 ], [ 85.04883, 26.03399 ], [ 85.03975, 26.03409 ], [ 85.03814, 26.03031 ], [ 85.03059, 26.03214 ], [ 85.02998, 26.02801 ], [ 85.02906, 26.02672 ], [ 85.02022, 26.02799 ], [ 85.01878, 26.02968 ], [ 85.01543, 26.03144 ], [ 85.0121, 26.03179 ], [ 85.01056, 26.02959 ], [ 85.00623, 26.03021 ], [ 85.0039, 26.02332 ], [ 85.00064, 26.02318 ], [ 84.99992, 26.02248 ], [ 85.00286, 26.01384 ], [ 84.99996, 26.01379 ], [ 84.99735, 26.01624 ], [ 84.99605, 26.01445 ], [ 84.99704, 26.00915 ], [ 84.99417, 26.01193 ], [ 84.9916, 26.0124 ], [ 84.99186, 26.00896 ], [ 84.98895, 26.00883 ], [ 84.98759, 26.00725 ], [ 84.9825, 26.00433 ], [ 84.98147, 26.00465 ], [ 84.9779, 25.99998 ], [ 84.96855, 25.99452 ], [ 84.96014, 25.99683 ], [ 84.95758, 26.00001 ], [ 84.95753, 26.00341 ], [ 84.95569, 26.00613 ], [ 84.95547, 26.00852 ], [ 84.95246, 26.01048 ], [ 84.95073, 26.00972 ], [ 84.94301, 26.01275 ], [ 84.9425, 26.01477 ], [ 84.93765, 26.01591 ], [ 84.93511, 26.01929 ], [ 84.93787, 26.02066 ], [ 84.93464, 26.02504 ], [ 84.93357, 26.0275 ], [ 84.93368, 26.02969 ], [ 84.93232, 26.03009 ], [ 84.93529, 26.03988 ], [ 84.93104, 26.04228 ], [ 84.93464, 26.05108 ], [ 84.94356, 26.05411 ], [ 84.94575, 26.06207 ], [ 84.94904, 26.06346 ], [ 84.94618, 26.06916 ], [ 84.94603, 26.07087 ], [ 84.94478, 26.07213 ], [ 84.94488, 26.07824 ], [ 84.94717, 26.07766 ], [ 84.94619, 26.08253 ], [ 84.9546, 26.08507 ], [ 84.95472, 26.08587 ], [ 84.95279, 26.08786 ], [ 84.94937, 26.08817 ], [ 84.94572, 26.08659 ], [ 84.94556, 26.08801 ], [ 84.94682, 26.0909 ], [ 84.94608, 26.0938 ], [ 84.93998, 26.09441 ], [ 84.92166, 26.11405 ], [ 84.91936, 26.11705 ], [ 84.91866, 26.12051 ], [ 84.91637, 26.12279 ], [ 84.91496, 26.13074 ], [ 84.91376, 26.13292 ], [ 84.91376, 26.13553 ], [ 84.91545, 26.14046 ], [ 84.92172, 26.15135 ], [ 84.92424, 26.16359 ], [ 84.92268, 26.1668 ], [ 84.91845, 26.17059 ], [ 84.9164, 26.17603 ], [ 84.91969, 26.18013 ], [ 84.9255, 26.18068 ], [ 84.92973, 26.18004 ], [ 84.93128, 26.17889 ], [ 84.93145, 26.17664 ], [ 84.9434, 26.17306 ], [ 84.94613, 26.17476 ], [ 84.94646, 26.17636 ], [ 84.9449, 26.18067 ], [ 84.94572, 26.183 ], [ 84.95237, 26.18442 ], [ 84.95128, 26.1795 ], [ 84.95633, 26.17956 ], [ 84.95722, 26.17927 ], [ 84.95811, 26.17726 ], [ 84.96156, 26.17647 ], [ 84.96238, 26.1773 ], [ 84.96442, 26.18617 ], [ 84.96636, 26.18552 ], [ 84.96875, 26.18598 ], [ 84.97249, 26.17802 ], [ 84.97465, 26.17722 ], [ 84.97715, 26.17783 ], [ 84.97998, 26.17741 ], [ 84.98341, 26.18596 ], [ 84.98601, 26.19012 ], [ 84.98396, 26.19104 ], [ 84.98184, 26.19404 ], [ 84.9821, 26.20101 ], [ 84.98321, 26.20146 ], [ 84.98364, 26.2064 ], [ 84.98697, 26.20701 ], [ 84.99242, 26.20396 ], [ 84.99557, 26.21045 ], [ 84.99701, 26.21156 ], [ 84.99836, 26.21682 ], [ 84.99896, 26.2175 ], [ 85.00192, 26.21728 ], [ 85.00399, 26.22168 ], [ 85.00709, 26.22042 ], [ 85.00933, 26.2218 ], [ 85.01437, 26.22086 ] ] ] } },
{ "type": "Feature", "properties": { "OBJECTID": 6318, "state_lgd": "10", "state_name": "BIHAR", "district_lgd": "216", "district_name": "MUZAFFARPUR", "district_name_source": "district_table", "subdistrict_lgd": "01202", "subdistrict_name": "Saraiya", "subdistrict_type": "", "name_corrupted": false, "remarks": "", "label_lon": 85.147465059960851, "label_lat": 26.053725112616863 }, "geometry": { "type": "Polygon", "coordinates": [ [ [ 85.12288, 26.16768 ], [ 85.1296, 26.16759 ], [ 85.133, 26.16618 ], [ 85.13346, 26.16489 ], [ 85.13672, 26.16324 ], [ 85.13731, 26.16324 ], [ 85.1377, 26.16566 ], [ 85.1394, 26.16643 ], [ 85.14142, 26.16619 ], [ 85.14567, 26.16416 ], [ 85.15109, 26.16304 ], [ 85.15183, 26.15939 ], [ 85.15404, 26.15823 ], [ 85.15605, 26.15875 ], [ 85.15762, 26.16034 ], [ 85.1582, 26.16352 ], [ 85.16009, 26.16612 ], [ 85.1614, 26.16665 ], [ 85.16388, 26.16577 ], [ 85.16838, 26.16783 ], [ 85.16856, 26.16633 ], [ 85.16743, 26.16585 ], [ 85.16727, 26.16229 ], [ 85.16447, 26.15849 ], [ 85.16442, 26.15706 ], [ 85.16625, 26.15613 ], [ 85.16834, 26.1523 ], [ 85.17061, 26.15226 ], [ 85.17104, 26.15152 ], [ 85.1749, 26.15042 ], [ 85.17552, 26.14197 ], [ 85.17725, 26.13849 ], [ 85.17637, 26.13451 ], [ 85.18399, 26.13437 ], [ 85.18435, 26.12856 ], [ 85.18219, 26.12364 ], [ 85.18244, 26.12237 ], [ 85.18431, 26.12128 ], [ 85.18766, 26.12339 ], [ 85.18967, 26.1237 ], [ 85.18878, 26.11842 ], [ 85.18986, 26.11595 ], [ 85.19034, 26.11149 ], [ 85.19211, 26.10929 ], [ 85.19254, 26.1071 ], [ 85.19505, 26.10578 ], [ 85.19758, 26.10722 ], [ 85.19948, 26.11004 ], [ 85.20334, 26.10981 ], [ 85.20493, 26.10579 ], [ 85.20486, 26.10301 ], [ 85.20572, 26.10151 ], [ 85.20513, 26.09727 ], [ 85.20605, 26.09611 ], [ 85.20381, 26.09233 ], [ 85.20409, 26.09047 ], [ 85.20762, 26.09003 ], [ 85.20922, 26.08806 ], [ 85.21279, 26.0862 ], [ 85.21505, 26.08707 ], [ 85.21894, 26.08581 ], [ 85.21703, 26.07965 ], [ 85.21442, 26.07556 ], [ 85.21506, 26.07461 ], [ 85.21476, 26.07205 ], [ 85.21609, 26.07077 ], [ 85.21535, 26.06792 ], [ 85.21798, 26.06629 ], [ 85.2264, 26.06368 ], [ 85.22591, 26.06035 ], [ 85.22438, 26.05927 ], [ 85.22458, 26.05806 ], [ 85.22915, 26.05706 ], [ 85.23158, 26.06142 ], [ 85.23752, 26.05744 ], [ 85.24097, 26.05733 ], [ 85.24584, 26.05578 ], [ 85.24633, 26.05376 ], [ 85.24776, 26.05386 ], [ 85.25317, 26.0499 ], [ 85.25961, 26.05351 ], [ 85.26016, 26.05166 ], [ 85.26237, 26.05004 ], [ 85.26518, 26.04464 ], [ 85.26671, 26.04445 ], [ 85.26955, 26.04036 ], [ 85.27217, 26.03909 ], [ 85.27799, 26.04135 ], [ 85.27952, 26.04514 ], [ 85.28165, 26.04659 ], [ 85.29056, 26.04526 ], [ 85.2872, 26.03877 ], [ 85.28906, 26.0381 ], [ 85.28915, 26.03576 ], [ 85.28438, 26.02779 ], [ 85.27407, 26.02862 ], [ 85.27352, 26.02774 ], [ 85.27161, 26.0277 ], [ 85.27064, 26.02614 ], [ 85.27114, 26.02385 ], [ 85.27927, 26.02267 ], [ 85.28023, 26.0218 ], [ 85.28028, 26.01998 ], [ 85.2858, 26.01755 ], [ 85.28436, 26.01126 ], [ 85.28134, 26.00979 ], [ 85.28039, 26.0077 ], [ 85.27762, 26.00711 ], [ 85.27304, 26.00844 ], [ 85.27229, 26.0101 ], [ 85.27274, 26.01238 ], [ 85.27159, 26.01352 ], [ 85.26756, 26.01237 ], [ 85.26302, 26.01346 ], [ 85.26202, 26.01208 ], [ 85.2573, 26.01124 ], [ 85.25352, 26.01235 ], [ 85.25306, 26.01005 ], [ 85.25097, 26.0103 ], [ 85.25103, 26.01216 ], [ 85.23963, 26.0153 ], [ 85.23703, 26.01066 ], [ 85.234, 25.99697 ], [ 85.23122, 25.99733 ], [ 85.23162, 25.99899 ], [ 85.2331, 25.99928 ], [ 85.23404, 26.00043 ], [ 85.23417, 26.00363 ], [ 85.23001, 26.00543 ], [ 85.22856, 26.00549 ], [ 85.22637, 26.00223 ], [ 85.22302, 25.99948 ], [ 85.22087, 26.00153 ], [ 85.21639, 26.00365 ], [ 85.21009, 26.00312 ], [ 85.20925, 26.00601 ], [ 85.19859, 26.00519 ], [ 85.1958, 26.00225 ], [ 85.19217, 26.00169 ], [ 85.18894, 26.00224 ], [ 85.18811, 26.00322 ], [ 85.18932, 26.00484 ], [ 85.18801, 26.00607 ], [ 85.18353, 26.00809 ], [ 85.17955, 26.00823 ], [ 85.17425, 26.01096 ], [ 85.16812, 26.01034 ], [ 85.16797, 26.00889 ], [ 85.1659, 26.00878 ], [ 85.16491, 26.00724 ], [ 85.16304, 26.00881 ], [ 85.16207, 26.00422 ], [ 85.15784, 26.00414 ], [ 85.15699, 26.00334 ], [ 85.15021, 26.00351 ], [ 85.15143, 25.99913 ], [ 85.14914, 25.99644 ], [ 85.1406, 26.00018 ], [ 85.13784, 25.99916 ], [ 85.13487, 25.9997 ], [ 85.13223, 25.9972 ], [ 85.12746, 25.99724 ], [ 85.1256, 25.99921 ], [ 85.11321, 26.00095 ], [ 85.11136, 25.99895 ], [ 85.10492, 25.9987 ], [ 85.10548, 25.99003 ], [ 85.10951, 25.98771 ], [ 85.1068, 25.98213 ], [ 85.10322, 25.98102 ], [ 85.09631, 25.98106 ], [ 85.09606, 25.97815 ], [ 85.09687, 25.97684 ], [ 85.09622, 25.97615 ], [ 85.09184, 25.97834 ], [ 85.08557, 25.97929 ], [ 85.08503, 25.97637 ], [ 85.08251, 25.97363 ], [ 85.08055, 25.97386 ], [ 85.07912, 25.97083 ], [ 85.07451, 25.97453 ], [ 85.07215, 25.97524 ], [ 85.06635, 25.97441 ], [ 85.06516, 25.97684 ], [ 85.05788, 25.98395 ], [ 85.05762, 25.98566 ], [ 85.05894, 25.98938 ], [ 85.05719, 25.99183 ], [ 85.05163, 25.99386 ], [ 85.03397, 25.99782 ], [ 85.02424, 25.99502 ], [ 85.01592, 25.99488 ], [ 85.01107, 25.99826 ], [ 85.00556, 26.00715 ], [ 85.0, 26.00694 ], [ 84.99704, 26.00915 ], [ 84.99605, 26.01445 ], [ 84.99735, 26.01624 ], [ 84.99996, 26.01379 ], [ 85.00286, 26.01384 ], [ 84.99992, 26.02248 ], [ 85.00064, 26.02318 ], [ 85.0039, 26.02332 ], [ 85.00623, 26.03021 ], [ 85.01056, 26.02959 ], [ 85.0121, 26.03179 ], [ 85.01543, 26.03144 ], [ 85.01878, 26.02968 ], [ 85.02022, 26.02799 ], [ 85.02906, 26.02672 ], [ 85.02998, 26.02801 ], [ 85.03059, 26.03214 ], [ 85.03814, 26.03031 ], [ 85.03975, 26.03409 ], [ 85.04883, 26.03399 ], [ 85.0535, 26.03216 ], [ 85.0555, 26.03343 ], [ 85.0599, 26.03328 ], [ 85.06228, 26.03491 ], [ 85.06673, 26.03386 ], [ 85.06935, 26.04141 ], [ 85.06849, 26.04345 ], [ 85.07008, 26.04878 ], [ 85.07445, 26.04844 ], [ 85.07506, 26.04916 ], [ 85.07691, 26.04912 ], [ 85.07777, 26.05089 ], [ 85.07715, 26.06439 ], [ 85.07482, 26.07259 ], [ 85.07519, 26.07451 ], [ 85.07955, 26.07751 ], [ 85.08253, 26.07736 ], [ 85.08427, 26.07809 ], [ 85.0888, 26.07737 ], [ 85.0899, 26.07369 ], [ 85.09224, 26.06972 ], [ 85.09408, 26.06926 ], [ 85.09259, 26.0625 ], [ 85.08991, 26.06242 ], [ 85.08864, 26.06123 ], [ 85.08915, 26.05969 ], [ 85.09128, 26.05766 ], [ 85.0901, 26.05463 ], [ 85.09036, 26.0526 ], [ 85.09313, 26.04728 ], [ 85.1039, 26.04602 ], [ 85.10522, 26.04826 ], [ 85.10743, 26.04818 ], [ 85.10739, 26.0453 ], [ 85.11178, 26.04519 ], [ 85.11199, 26.04803 ], [ 85.1148, 26.04653 ], [ 85.11539, 26.04094 ], [ 85.11627, 26.04 ], [ 85.11971, 26.04143 ], [ 85.12044, 26.04262 ], [ 85.12455, 26.04203 ], [ 85.12506, 26.0498 ], [ 85.12667, 26.05111 ], [ 85.12555, 26.05871 ], [ 85.14439, 26.05839 ], [ 85.146, 26.05973 ], [ 85.14969, 26.06603 ], [ 85.15305, 26.06695 ], [ 85.14808, 26.07582 ], [ 85.14501, 26.0792 ], [ 85.14475, 26.08074 ], [ 85.14594, 26.08435 ], [ 85.14305, 26.08611 ], [ 85.1433, 26.08688 ], [ 85.14221, 26.08813 ], [ 85.13948, 26.08565 ], [ 85.13004, 26.08787 ], [ 85.12662, 26.09021 ], [ 85.12867, 26.09276 ], [ 85.12823, 26.09666 ], [ 85.12676, 26.09844 ], [ 85.1225, 26.10024 ], [ 85.12195, 26.10559 ], [ 85.11996, 26.10777 ], [ 85.11803, 26.1083 ], [ 85.11814, 26.1057 ], [ 85.11337, 26.10563 ], [ 85.1038, 26.10958 ], [ 85.10396, 26.11073 ], [ 85.10235, 26.11325 ], [ 85.09751, 26.11501 ], [ 85.09793, 26.11846 ], [ 85.09979, 26.12183 ], [ 85.09945, 26.12796 ], [ 85.10046, 26.13033 ], [ 85.10236, 26.12944 ], [ 85.10483, 26.12969 ], [ 85.10603, 26.13084 ], [ 85.10616, 26.13427 ], [ 85.10735, 26.13675 ], [ 85.11074, 26.13847 ], [ 85.1187, 26.14039 ], [ 85.11904, 26.14121 ], [ 85.11573, 26.14541 ], [ 85.11671, 26.14668 ], [ 85.12179, 26.14706 ], [ 85.12344, 26.15728 ], [ 85.12293, 26.16091 ], [ 85.11892, 26.17218 ], [ 85.12105, 26.17116 ], [ 85.12172, 26.16874 ], [ 85.12288, 26.16768 ] ] ] } },
{ "type": "Feature", "properties": { "OBJECTID": 6319, "state_lgd": "10", "state_name": "BIHAR", "district_lgd": "216", "district_name": "MUZAFFARPUR", "district_name_source": "district_table", "subdistrict_lgd": "01203", "subdistrict_name": "Marwan", "subdistrict_type": "", "name_corrupted": false, "remarks": "", "label_lon": 85.248527783102872, "label_lat": 26.114166408071021 }, "geometry": { "type": "Polygon", "coordinates": [ [ [ 85.21968, 26.17503 ], [ 85.21824, 26.17257 ], [ 85.21693, 26.165 ], [ 85.22057, 26.16002 ], [ 85.2214, 26.15746 ], [ 85.22712, 26.15572 ], [ 85.22778, 26.1587 ], [ 85.23002, 26.1548 ], [ 85.23543, 26.1565 ], [ 85.24183, 26.15455 ], [ 85.24117, 26.1521 ], [ 85.24282, 26.15114 ], [ 85.24183, 26.14575 ], [ 85.24317, 26.14542 ], [ 85.24391, 26.14381 ], [ 85.24936, 26.13892 ], [ 85.25894, 26.13628 ], [ 85.25935, 26.13692 ], [ 85.26457, 26.13621 ], [ 85.26859, 26.13679 ], [ 85.27128, 26.13906 ], [ 85.28016, 26.13676 ], [ 85.28407, 26.14386 ], [ 85.2855, 26.14397 ], [ 85.29166, 26.14209 ], [ 85.29067, 26.13814 ], [ 85.28888, 26.13767 ], [ 85.28671, 26.13444 ], [ 85.2893, 26.13013 ], [ 85.29268, 26.12939 ], [ 85.29512, 26.13013 ], [ 85.29955, 26.12995 ], [ 85.30126, 26.12886 ], [ 85.30275, 26.13008 ], [ 85.30656, 26.12921 ], [ 85.305, 26.13372 ], [ 85.30658, 26.1395 ], [ 85.3026, 26.14197 ], [ 85.30501, 26.15141 ], [ 85.307, 26.15451 ], [ 85.31425, 26.15639 ], [ 85.31887, 26.15364 ], [ 85.32221, 26.15326 ], [ 85.32205, 26.14895 ], [ 85.32416, 26.1472 ], [ 85.32228, 26.14059 ], [ 85.33103, 26.13725 ], [ 85.3331, 26.13964 ], [ 85.33592, 26.13928 ], [ 85.3429, 26.1334 ], [ 85.34417, 26.13347 ], [ 85.34649, 26.13588 ], [ 85.34955, 26.1363 ], [ 85.35183, 26.13039 ], [ 85.3544, 26.12829 ], [ 85.35444, 26.12694 ], [ 85.35335, 26.12632 ], [ 85.3532, 26.12365 ], [ 85.35231, 26.12286 ], [ 85.34412, 26.1237 ], [ 85.34237, 26.12715 ], [ 85.33727, 26.12897 ], [ 85.33718, 26.12837 ], [ 85.33605, 26.12854 ], [ 85.33621, 26.12984 ], [ 85.335, 26.12993 ], [ 85.33431, 26.12126 ], [ 85.33103, 26.12269 ], [ 85.32983, 26.12043 ], [ 85.32277, 26.12116 ], [ 85.32122, 26.11858 ], [ 85.31655, 26.11856 ], [ 85.31572, 26.11744 ], [ 85.31315, 26.11686 ], [ 85.31085, 26.1104 ], [ 85.31043, 26.10684 ], [ 85.30514, 26.10478 ], [ 85.29829, 26.10396 ], [ 85.29791, 26.09676 ], [ 85.29275, 26.09616 ], [ 85.29015, 26.0896 ], [ 85.29585, 26.08739 ], [ 85.2942, 26.08124 ], [ 85.29255, 26.07945 ], [ 85.29334, 26.07611 ], [ 85.29287, 26.07557 ], [ 85.28772, 26.07671 ], [ 85.28285, 26.0759 ], [ 85.28267, 26.07224 ], [ 85.28865, 26.07127 ], [ 85.29146, 26.06842 ], [ 85.29066, 26.06698 ], [ 85.28636, 26.06367 ], [ 85.28415, 26.0576 ], [ 85.27908, 26.05863 ], [ 85.27617, 26.05672 ], [ 85.26881, 26.05707 ], [ 85.26801, 26.05682 ], [ 85.26605, 26.05326 ], [ 85.25961, 26.05351 ], [ 85.25317, 26.0499 ], [ 85.24776, 26.05386 ], [ 85.24633, 26.05376 ], [ 85.24584, 26.05578 ], [ 85.24097, 26.05733 ], [ 85.23752, 26.05744 ], [ 85.23158, 26.06142 ], [ 85.22969, 26.05735 ], [ 85.22544, 26.05754 ], [ 85.22438, 26.05927 ], [ 85.22591, 26.06035 ], [ 85.22615, 26.06394 ], [ 85.21541, 26.06763 ], [ 85.21609, 26.07077 ], [ 85.21476, 26.07205 ], [ 85.21506, 26.07461 ], [ 85.21442, 26.07556 ], [ 85.21703, 26.07965 ], [ 85.21894, 26.08581 ], [ 85.21505, 26.08707 ], [ 85.21279, 26.0862 ], [ 85.20922, 26.08806 ], [ 85.20762, 26.09003 ], [ 85.20409, 26.09047 ], [ 85.20381, 26.09233 ], [ 85.20605, 26.09611 ], [ 85.20513, 26.09727 ], [ 85.20572, 26.10151 ], [ 85.20486, 26.10301 ], [ 85.20493, 26.10579 ], [ 85.20334, 26.10981 ], [ 85.19948, 26.11004 ], [ 85.19758, 26.10722 ], [ 85.19505, 26.10578 ], [ 85.19254, 26.1071 ], [ 85.19211, 26.10929 ], [ 85.19034, 26.11149 ], [ 85.18986, 26.11595 ], [ 85.18878, 26.11842 ], [ 85.18967, 26.1237 ], [ 85.18766, 26.12339 ], [ 85.18431, 26.12128 ], [ 85.18244, 26.12237 ], [ 85.18219, 26.12364 ], [ 85.18435, 26.12856 ], [ 85.18399, 26.13437 ], [ 85.17637, 26.13451 ], [ 85.17725, 26.13849 ], [ 85.17552, 26.14197 ], [ 85.1749, 26.15042 ], [ 85.17104, 26.15152 ], [ 85.17061, 26.15226 ], [ 85.16834, 26.1523 ], [ 85.16625, 26.15613 ], [ 85.16428, 26.15764 ], [ 85.16727, 26.16229 ], [ 85.1678, 26.16625 ], [ 85.17908, 26.16437 ], [ 85.19302, 26.16522 ], [ 85.19406, 26.16571 ], [ 85.19445, 26.16714 ], [ 85.20337, 26.16819 ], [ 85.2039, 26.16926 ], [ 85.20607, 26.16938 ], [ 85.20875, 26.17331 ], [ 85.21283, 26.17331 ], [ 85.21968, 26.17503 ] ] ] } },
{ "type": "Feature", "properties": { "OBJECTID": 6320, "state_lgd": "10", "state_name": "BIHAR", "district_lgd": "216", "district_name": "MUZAFFARPUR", "district_name_source": "district_table", "subdistrict_lgd": "01204", "subdistrict_name": "Kanti", "subdistrict_type": "", "name_corrupted": false, "remarks": "", "label_lon": 85.285148731362511, "label_lat": 26.185110782835693 }, "geometry": { "type": "MultiPolygon", "coordinates": [ [ [ [ 85.38762, 26.14854 ], [ 85.38347, 26.14908 ], [ 85.38203, 26.14844 ], [ 85.38113, 26.15145 ], [ 85.38556, 26.15462 ], [ 85.38688, 26.15414 ], [ 85.38774, 26.15263 ], [ 85.38762, 26.14854 ] ] ], [ [ [ 85.34032, 26.21759 ], [ 85.34432, 26.21738 ], [ 85.34584, 26.22006 ], [ 85.34971, 26.22083 ], [ 85.35135, 26.22033 ], [ 85.35542, 26.21849 ], [ 85.35451, 26.21604 ], [ 85.35626, 26.21199 ], [ 85.3628, 26.21555 ], [ 85.36558, 26.2148 ], [ 85.36879, 26.21831 ], [ 85.37667, 26.21799 ], [ 85.38194, 26.21636 ], [ 85.37854, 26.20632 ], [ 85.37612, 26.202 ], [ 85.37401, 26.19899 ], [ 85.37055, 26.20001 ], [ 85.37121, 26.19579 ], [ 85.37837, 26.19574 ], [ 85.38135, 26.19309 ], [ 85.38144, 26.1913 ], [ 85.36907, 26.18608 ], [ 85.37553, 26.18397 ], [ 85.37802, 26.1799 ], [ 85.3795, 26.18312 ], [ 85.37927, 26.18442 ], [ 85.38134, 26.18543 ], [ 85.38352, 26.185 ], [ 85.38092, 26.18126 ], [ 85.38392, 26.17946 ], [ 85.38495, 26.17735 ], [ 85.38458, 26.17203 ], [ 85.38544, 26.16857 ], [ 85.38479, 26.16678 ], [ 85.38808, 26.16376 ], [ 85.38736, 26.16118 ], [ 85.38603, 26.15891 ], [ 85.37888, 26.1549 ], [ 85.37683, 26.15238 ], [ 85.3762, 26.15074 ], [ 85.37669, 26.14727 ], [ 85.37326, 26.14844 ], [ 85.3706, 26.14564 ], [ 85.36584, 26.14655 ], [ 85.36254, 26.14492 ], [ 85.36003, 26.14589 ], [ 85.35814, 26.14435 ], [ 85.35757, 26.14165 ], [ 85.35804, 26.13903 ], [ 85.35587, 26.13747 ], [ 85.35514, 26.13025 ], [ 85.35183, 26.13039 ], [ 85.34955, 26.1363 ], [ 85.34649, 26.13588 ], [ 85.34417, 26.13347 ], [ 85.3429, 26.1334 ], [ 85.33592, 26.13928 ], [ 85.3331, 26.13964 ], [ 85.33103, 26.13725 ], [ 85.32228, 26.14059 ], [ 85.32416, 26.1472 ], [ 85.32205, 26.14895 ], [ 85.32221, 26.15326 ], [ 85.31887, 26.15364 ], [ 85.31425, 26.15639 ], [ 85.307, 26.15451 ], [ 85.30501, 26.15141 ], [ 85.3026, 26.14197 ], [ 85.30658, 26.1395 ], [ 85.305, 26.13372 ], [ 85.30656, 26.12921 ], [ 85.30275, 26.13008 ], [ 85.30126, 26.12886 ], [ 85.29955, 26.12995 ], [ 85.29512, 26.13013 ], [ 85.29268, 26.12939 ], [ 85.2893, 26.13013 ], [ 85.28671, 26.13444 ], [ 85.28888, 26.13767 ], [ 85.29067, 26.13814 ], [ 85.29166, 26.14209 ], [ 85.2855, 26.14397 ], [ 85.28407, 26.14386 ], [ 85.28016, 26.13676 ], [ 85.27128, 26.13906 ], [ 85.26902, 26.13696 ], [ 85.2652, 26.13626 ], [ 85.25935, 26.13692 ], [ 85.25894, 26.13628 ], [ 85.25533, 26.13721 ], [ 85.24936, 26.13892 ], [ 85.24391, 26.14381 ], [ 85.24317, 26.14542 ], [ 85.24198, 26.14546 ], [ 85.24282, 26.15114 ], [ 85.24117, 26.1521 ], [ 85.24183, 26.15455 ], [ 85.23543, 26.1565 ], [ 85.23002, 26.1548 ], [ 85.22778, 26.1587 ], [ 85.22712, 26.15572 ], [ 85.2214, 26.15746 ], [ 85.22057, 26.16002 ], [ 85.21693, 26.165 ], [ 85.21824, 26.17257 ], [ 85.21968, 26.17503 ], [ 85.21283, 26.17331 ], [ 85.20875, 26.17331 ], [ 85.20607, 26.16938 ], [ 85.2039, 26.16926 ], [ 85.20337, 26.16819 ], [ 85.19445, 26.16714 ], [ 85.19406, 26.16571 ], [ 85.19302, 26.16522 ], [ 85.18305, 26.16429 ], [ 85.17442, 26.16469 ], [ 85.16856, 26.16633 ], [ 85.16813, 26.16901 ], [ 85.1668, 26.16969 ], [ 85.1676, 26.17552 ], [ 85.16462, 26.17907 ], [ 85.16364, 26.18185 ], [ 85.16144, 26.18337 ], [ 85.16213, 26.18486 ], [ 85.16883, 26.1859 ], [ 85.16957, 26.18782 ], [ 85.17225, 26.1892 ], [ 85.17393, 26.18908 ], [ 85.175, 26.19098 ], [ 85.17656, 26.18963 ], [ 85.17792, 26.19036 ], [ 85.18243, 26.18992 ], [ 85.18611, 26.19097 ], [ 85.18683, 26.19588 ], [ 85.19113, 26.19678 ], [ 85.19221, 26.20156 ], [ 85.19118, 26.20468 ], [ 85.19388, 26.20559 ], [ 85.19413, 26.20858 ], [ 85.19999, 26.20868 ], [ 85.20224, 26.20731 ], [ 85.20237, 26.20916 ], [ 85.20078, 26.2097 ], [ 85.20116, 26.21489 ], [ 85.20055, 26.21842 ], [ 85.20289, 26.22095 ], [ 85.20838, 26.22115 ], [ 85.20867, 26.22407 ], [ 85.20722, 26.23467 ], [ 85.2084, 26.23526 ], [ 85.21258, 26.2344 ], [ 85.22307, 26.23502 ], [ 85.22969, 26.23853 ], [ 85.22902, 26.2354 ], [ 85.23351, 26.23252 ], [ 85.23632, 26.23277 ], [ 85.24075, 26.23109 ], [ 85.2451, 26.23056 ], [ 85.24487, 26.22967 ], [ 85.24279, 26.22948 ], [ 85.24364, 26.2265 ], [ 85.24296, 26.22125 ], [ 85.24678, 26.21874 ], [ 85.25146, 26.2132 ], [ 85.25163, 26.21798 ], [ 85.25013, 26.2205 ], [ 85.25547, 26.22127 ], [ 85.25676, 26.22198 ], [ 85.25831, 26.22557 ], [ 85.25943, 26.22543 ], [ 85.25949, 26.228 ], [ 85.2613, 26.23167 ], [ 85.25912, 26.23205 ], [ 85.25946, 26.23333 ], [ 85.26575, 26.23249 ], [ 85.2658, 26.23136 ], [ 85.27202, 26.22772 ], [ 85.27454, 26.22854 ], [ 85.27538, 26.2279 ], [ 85.27533, 26.22516 ], [ 85.27608, 26.22416 ], [ 85.28133, 26.2224 ], [ 85.28485, 26.22989 ], [ 85.28943, 26.22884 ], [ 85.29077, 26.23369 ], [ 85.3, 26.23199 ], [ 85.30043, 26.23265 ], [ 85.30201, 26.23234 ], [ 85.30339, 26.23415 ], [ 85.30926, 26.23341 ], [ 85.30917, 26.23192 ], [ 85.32331, 26.22729 ], [ 85.32506, 26.22793 ], [ 85.32805, 26.22692 ], [ 85.33059, 26.22498 ], [ 85.33205, 26.21971 ], [ 85.33601, 26.21799 ], [ 85.33859, 26.21854 ], [ 85.33912, 26.2194 ], [ 85.3358, 26.2243 ], [ 85.33635, 26.22812 ], [ 85.33928, 26.23084 ], [ 85.34637, 26.23472 ], [ 85.34614, 26.2305 ], [ 85.34839, 26.22812 ], [ 85.34275, 26.22507 ], [ 85.34045, 26.22262 ], [ 85.33988, 26.22142 ], [ 85.34032, 26.21759 ] ] ] ] } },
{ "type": "Feature", "properties": { "OBJECTID": 6321, "state_lgd": "10", "state_name": "BIHAR", "district_lgd": "216", "district_name": "MUZAFFARPUR", "district_name_source": "district_table", "subdistrict_lgd": "01205", "subdistrict_name": "Minapur", "subdistrict_type": "", "name_corrupted": false, "remarks": "", "label_lon": 85.328187077263479, "label_lat": 26.279191950628988 }, "geometry": { "type": "Polygon", "coordinates": [ [ [ 85.23086, 26.36817 ], [ 85.2355, 26.36721 ], [ 85.24074, 26.3691 ], [ 85.24175, 26.36736 ], [ 85.24195, 26.3641 ], [ 85.24689, 26.35915 ], [ 85.24717, 26.35753 ], [ 85.24607, 26.35487 ], [ 85.24789, 26.35639 ], [ 85.25398, 26.35007 ], [ 85.2577, 26.34947 ], [ 85.26529, 26.35251 ], [ 85.2807, 26.34863 ], [ 85.28083, 26.34522 ], [ 85.28259, 26.34334 ], [ 85.28413, 26.34625 ], [ 85.28541, 26.34629 ], [ 85.28741, 26.35338 ], [ 85.28879, 26.35456 ], [ 85.29699, 26.34525 ], [ 85.29908, 26.344 ], [ 85.29992, 26.34554 ], [ 85.30156, 26.3455 ], [ 85.30382, 26.34773 ], [ 85.30747, 26.34962 ], [ 85.31419, 26.34872 ], [ 85.31727, 26.34672 ], [ 85.32541, 26.35018 ], [ 85.32687, 26.35002 ], [ 85.32779, 26.34826 ], [ 85.32616, 26.33513 ], [ 85.32857, 26.33314 ], [ 85.33143, 26.32811 ], [ 85.33416, 26.32639 ], [ 85.33497, 26.3266 ], [ 85.33571, 26.32886 ], [ 85.33418, 26.34286 ], [ 85.33465, 26.34347 ], [ 85.33543, 26.34392 ], [ 85.33937, 26.34068 ], [ 85.33992, 26.34138 ], [ 85.33961, 26.34479 ], [ 85.3424, 26.34475 ], [ 85.34495, 26.34619 ], [ 85.34823, 26.34566 ], [ 85.34929, 26.34346 ], [ 85.34756, 26.342 ], [ 85.34774, 26.34107 ], [ 85.34927, 26.33848 ], [ 85.35223, 26.336 ], [ 85.35376, 26.33721 ], [ 85.3521, 26.34437 ], [ 85.35497, 26.3442 ], [ 85.35745, 26.34612 ], [ 85.36195, 26.34642 ], [ 85.36467, 26.34419 ], [ 85.36929, 26.34231 ], [ 85.37443, 26.33178 ], [ 85.37512, 26.32879 ], [ 85.37445, 26.32103 ], [ 85.37495, 26.31381 ], [ 85.38509, 26.30806 ], [ 85.39335, 26.30725 ], [ 85.38781, 26.3201 ], [ 85.3853, 26.32243 ], [ 85.38132, 26.32204 ], [ 85.38279, 26.32446 ], [ 85.38684, 26.32408 ], [ 85.38954, 26.32276 ], [ 85.39698, 26.31014 ], [ 85.40128, 26.31755 ], [ 85.4094, 26.3183 ], [ 85.40863, 26.31498 ], [ 85.41368, 26.30722 ], [ 85.41478, 26.30483 ], [ 85.41473, 26.30289 ], [ 85.4127, 26.30102 ], [ 85.41047, 26.30098 ], [ 85.40158, 26.30535 ], [ 85.39913, 26.30535 ], [ 85.39785, 26.30268 ], [ 85.39871, 26.29998 ], [ 85.40307, 26.29525 ], [ 85.39952, 26.29465 ], [ 85.39499, 26.29256 ], [ 85.39177, 26.28961 ], [ 85.39065, 26.28568 ], [ 85.39144, 26.28083 ], [ 85.39296, 26.27911 ], [ 85.39655, 26.28007 ], [ 85.40071, 26.29087 ], [ 85.40433, 26.29335 ], [ 85.40678, 26.29297 ], [ 85.41035, 26.29061 ], [ 85.411, 26.28923 ], [ 85.40298, 26.28831 ], [ 85.40594, 26.28397 ], [ 85.4052, 26.28223 ], [ 85.40684, 26.27971 ], [ 85.40891, 26.2735 ], [ 85.41051, 26.27151 ], [ 85.41171, 26.27153 ], [ 85.41588, 26.27876 ], [ 85.42049, 26.28247 ], [ 85.42253, 26.28861 ], [ 85.42495, 26.29129 ], [ 85.42657, 26.29192 ], [ 85.42774, 26.29137 ], [ 85.42779, 26.28986 ], [ 85.42373, 26.28276 ], [ 85.42649, 26.27706 ], [ 85.42144, 26.27527 ], [ 85.42008, 26.27315 ], [ 85.42057, 26.27159 ], [ 85.42205, 26.27147 ], [ 85.42582, 26.27454 ], [ 85.43191, 26.27697 ], [ 85.43573, 26.2795 ], [ 85.43352, 26.27408 ], [ 85.43092, 26.27297 ], [ 85.42903, 26.27044 ], [ 85.43027, 26.26865 ], [ 85.43008, 26.26704 ], [ 85.43429, 26.26818 ], [ 85.43669, 26.26796 ], [ 85.44725, 26.27199 ], [ 85.45231, 26.27248 ], [ 85.4536, 26.27061 ], [ 85.45405, 26.26484 ], [ 85.45326, 26.26333 ], [ 85.44476, 26.26445 ], [ 85.44357, 26.26317 ], [ 85.44395, 26.26061 ], [ 85.44518, 26.25887 ], [ 85.44768, 26.25767 ], [ 85.4485, 26.25287 ], [ 85.44781, 26.25217 ], [ 85.44551, 26.2525 ], [ 85.44231, 26.24838 ], [ 85.43881, 26.24834 ], [ 85.43949, 26.24554 ], [ 85.44354, 26.24505 ], [ 85.43964, 26.23337 ], [ 85.43069, 26.23274 ], [ 85.42666, 26.23037 ], [ 85.42422, 26.22448 ], [ 85.41956, 26.22552 ], [ 85.41716, 26.21667 ], [ 85.41658, 26.21548 ], [ 85.41523, 26.21493 ], [ 85.41055, 26.215 ], [ 85.41181, 26.22051 ], [ 85.41153, 26.2226 ], [ 85.40475, 26.22431 ], [ 85.40207, 26.2237 ], [ 85.40029, 26.21939 ], [ 85.40054, 26.2184 ], [ 85.39747, 26.21383 ], [ 85.39684, 26.21162 ], [ 85.3906, 26.21015 ], [ 85.38542, 26.21016 ], [ 85.38036, 26.21129 ], [ 85.38194, 26.21636 ], [ 85.37667, 26.21799 ], [ 85.36804, 26.21812 ], [ 85.36558, 26.2148 ], [ 85.3628, 26.21555 ], [ 85.35626, 26.21199 ], [ 85.35451, 26.21604 ], [ 85.35542, 26.21849 ], [ 85.35135, 26.22033 ], [ 85.34654, 26.22034 ], [ 85.34523, 26.21944 ], [ 85.34432, 26.21738 ], [ 85.34046, 26.21718 ], [ 85.33988, 26.22142 ], [ 85.34045, 26.22262 ], [ 85.34275, 26.22507 ], [ 85.34839, 26.22812 ], [ 85.34614, 26.2305 ], [ 85.34637, 26.23472 ], [ 85.33928, 26.23084 ], [ 85.33635, 26.22812 ], [ 85.3358, 26.2243 ], [ 85.33912, 26.2194 ], [ 85.33859, 26.21854 ], [ 85.33601, 26.21799 ], [ 85.33205, 26.21971 ], [ 85.33059, 26.22498 ], [ 85.32805, 26.22692 ], [ 85.32506, 26.22793 ], [ 85.32331, 26.22729 ], [ 85.30917, 26.23192 ], [ 85.30926, 26.23341 ], [ 85.30339, 26.23415 ], [ 85.30201, 26.23234 ], [ 85.30043, 26.23265 ], [ 85.3, 26.23199 ], [ 85.29077, 26.23369 ], [ 85.28943, 26.22884 ], [ 85.28485, 26.22989 ], [ 85.28133, 26.2224 ], [ 85.27608, 26.22416 ], [ 85.27533, 26.22516 ], [ 85.27538, 26.2279 ], [ 85.27454, 26.22854 ], [ 85.27202, 26.22772 ], [ 85.2658, 26.23136 ], [ 85.26575, 26.23249 ], [ 85.25946, 26.23333 ], [ 85.25912, 26.23205 ], [ 85.2613, 26.23167 ], [ 85.25949, 26.228 ], [ 85.25943, 26.22543 ], [ 85.25831, 26.22557 ], [ 85.25676, 26.22198 ], [ 85.25547, 26.22127 ], [ 85.25013, 26.2205 ], [ 85.25163, 26.21798 ], [ 85.25146, 26.2132 ], [ 85.24678, 26.21874 ], [ 85.24296, 26.22125 ], [ 85.24364, 26.2265 ], [ 85.24279, 26.22948 ], [ 85.24487, 26.22967 ], [ 85.2451, 26.23056 ], [ 85.24075, 26.23109 ], [ 85.23632, 26.23277 ], [ 85.23383, 26.23236 ], [ 85.22902, 26.2354 ], [ 85.23012, 26.24018 ], [ 85.23507, 26.25296 ], [ 85.23491, 26.2555 ], [ 85.23318, 26.25714 ], [ 85.2333, 26.26046 ], [ 85.23135, 26.26217 ], [ 85.23249, 26.26629 ], [ 85.23422, 26.26917 ], [ 85.23339, 26.27154 ], [ 85.23242, 26.27182 ], [ 85.23139, 26.27059 ], [ 85.22977, 26.26487 ], [ 85.22876, 26.26374 ], [ 85.22721, 26.26393 ], [ 85.22653, 26.26637 ], [ 85.23015, 26.2712 ], [ 85.23095, 26.27583 ], [ 85.22997, 26.28354 ], [ 85.23317, 26.28836 ], [ 85.23626, 26.2996 ], [ 85.24176, 26.29963 ], [ 85.24281, 26.30096 ], [ 85.24498, 26.30077 ], [ 85.24546, 26.30181 ], [ 85.24713, 26.30139 ], [ 85.24917, 26.30216 ], [ 85.24789, 26.29881 ], [ 85.25102, 26.29692 ], [ 85.25266, 26.2977 ], [ 85.25718, 26.29658 ], [ 85.2579, 26.29874 ], [ 85.26091, 26.29867 ], [ 85.2625, 26.30344 ], [ 85.25642, 26.30496 ], [ 85.25567, 26.31396 ], [ 85.25651, 26.32655 ], [ 85.25952, 26.32971 ], [ 85.26044, 26.33199 ], [ 85.26605, 26.33025 ], [ 85.26581, 26.32981 ], [ 85.27191, 26.32727 ], [ 85.27406, 26.33494 ], [ 85.27285, 26.33567 ], [ 85.27152, 26.33431 ], [ 85.2703, 26.33493 ], [ 85.26676, 26.33968 ], [ 85.26574, 26.33946 ], [ 85.26471, 26.34224 ], [ 85.25737, 26.34482 ], [ 85.25486, 26.34244 ], [ 85.24817, 26.34342 ], [ 85.24612, 26.33873 ], [ 85.24408, 26.3393 ], [ 85.24442, 26.34073 ], [ 85.24256, 26.34113 ], [ 85.24304, 26.34264 ], [ 85.23818, 26.34387 ], [ 85.23919, 26.34672 ], [ 85.23839, 26.3487 ], [ 85.23004, 26.35388 ], [ 85.22694, 26.35186 ], [ 85.22489, 26.35166 ], [ 85.22359, 26.34951 ], [ 85.22143, 26.35033 ], [ 85.21806, 26.35612 ], [ 85.21928, 26.35978 ], [ 85.21892, 26.36478 ], [ 85.22026, 26.36529 ], [ 85.22055, 26.36866 ], [ 85.22269, 26.37058 ], [ 85.22561, 26.37134 ], [ 85.23086, 26.36817 ] ] ] } },
{ "type": "Feature", "properties": { "OBJECTID": 6322, "state_lgd": "10", "state_name": "BIHAR", "district_lgd": "216", "district_name": "MUZAFFARPUR", "district_name_source": "district_table", "subdistrict_lgd": "01206", "subdistrict_name": "Bochaha", "subdistrict_type": "", "name_corrupted": false, "remarks": "", "label_lon": 85.490228128289104, "label_lat": 26.179865027151855 }, "geometry": { "type": "MultiPolygon", "coordinates": [ [ [ [ 85.48233, 26.14196 ], [ 85.48204, 26.13746 ], [ 85.4782, 26.1371 ], [ 85.46836, 26.14132 ], [ 85.46464, 26.14114 ], [ 85.46338, 26.14214 ], [ 85.46473, 26.14428 ], [ 85.46784, 26.14552 ], [ 85.47274, 26.14566 ], [ 85.47935, 26.14248 ], [ 85.48233, 26.14196 ] ] ], [ [ [ 85.49329, 26.25657 ], [ 85.49222, 26.25245 ], [ 85.50236, 26.25349 ], [ 85.50459, 26.25292 ], [ 85.50638, 26.25415 ], [ 85.51127, 26.2546 ], [ 85.51394, 26.25657 ], [ 85.51671, 26.25709 ], [ 85.51776, 26.25706 ], [ 85.51787, 26.2559 ], [ 85.52204, 26.25616 ], [ 85.52228, 26.26036 ], [ 85.52639, 26.25991 ], [ 85.52569, 26.25611 ], [ 85.52351, 26.25644 ], [ 85.52174, 26.25387 ], [ 85.5217, 26.25078 ], [ 85.51894, 26.25062 ], [ 85.51675, 26.24754 ], [ 85.51531, 26.24786 ], [ 85.5125, 26.24423 ], [ 85.51123, 26.23978 ], [ 85.50172, 26.23766 ], [ 85.50177, 26.23295 ], [ 85.50373, 26.23064 ], [ 85.50671, 26.22889 ], [ 85.5116, 26.22673 ], [ 85.52333, 26.22381 ], [ 85.5245, 26.22269 ], [ 85.52412, 26.22116 ], [ 85.523, 26.22073 ], [ 85.51343, 26.22129 ], [ 85.51345, 26.22039 ], [ 85.51486, 26.21937 ], [ 85.5253, 26.21694 ], [ 85.52928, 26.21344 ], [ 85.53026, 26.21406 ], [ 85.53675, 26.21286 ], [ 85.5372, 26.20905 ], [ 85.54349, 26.20939 ], [ 85.54717, 26.20765 ], [ 85.54852, 26.20868 ], [ 85.55208, 26.20919 ], [ 85.55631, 26.20779 ], [ 85.55627, 26.202 ], [ 85.56369, 26.19987 ], [ 85.56183, 26.19574 ], [ 85.55692, 26.1935 ], [ 85.55564, 26.18988 ], [ 85.55666, 26.18722 ], [ 85.56013, 26.18415 ], [ 85.56008, 26.1826 ], [ 85.55768, 26.18111 ], [ 85.55762, 26.17978 ], [ 85.5584, 26.17915 ], [ 85.5569, 26.17666 ], [ 85.55848, 26.17478 ], [ 85.55669, 26.17152 ], [ 85.55735, 26.17058 ], [ 85.55663, 26.16972 ], [ 85.55751, 26.16899 ], [ 85.55375, 26.1639 ], [ 85.55238, 26.16316 ], [ 85.5458, 26.16156 ], [ 85.53742, 26.16228 ], [ 85.53737, 26.16092 ], [ 85.54272, 26.15503 ], [ 85.54813, 26.15545 ], [ 85.55091, 26.15333 ], [ 85.55537, 26.14729 ], [ 85.55452, 26.14062 ], [ 85.55484, 26.13674 ], [ 85.55654, 26.13653 ], [ 85.5568, 26.13528 ], [ 85.55294, 26.13349 ], [ 85.55063, 26.13051 ], [ 85.54946, 26.11819 ], [ 85.54753, 26.10912 ], [ 85.55346, 26.10778 ], [ 85.55349, 26.10697 ], [ 85.55259, 26.10679 ], [ 85.55217, 26.10249 ], [ 85.55065, 26.09991 ], [ 85.5441, 26.09529 ], [ 85.54397, 26.09355 ], [ 85.54734, 26.08767 ], [ 85.54437, 26.08281 ], [ 85.54201, 26.08104 ], [ 85.53747, 26.0808 ], [ 85.53747, 26.07806 ], [ 85.53209, 26.07606 ], [ 85.52782, 26.07137 ], [ 85.52933, 26.06925 ], [ 85.52694, 26.06496 ], [ 85.5244, 26.06157 ], [ 85.52117, 26.0595 ], [ 85.50838, 26.05977 ], [ 85.50565, 26.06129 ], [ 85.5052, 26.0624 ], [ 85.50888, 26.06346 ], [ 85.51007, 26.06494 ], [ 85.50958, 26.06643 ], [ 85.50558, 26.07032 ], [ 85.50575, 26.07275 ], [ 85.50699, 26.07454 ], [ 85.51192, 26.0729 ], [ 85.51437, 26.06813 ], [ 85.516, 26.06728 ], [ 85.51829, 26.06953 ], [ 85.51789, 26.07312 ], [ 85.51562, 26.07705 ], [ 85.51219, 26.07968 ], [ 85.50011, 26.08327 ], [ 85.49916, 26.08459 ], [ 85.49884, 26.08752 ], [ 85.49983, 26.09221 ], [ 85.50298, 26.09545 ], [ 85.50645, 26.09463 ], [ 85.50624, 26.09123 ], [ 85.50935, 26.08916 ], [ 85.51065, 26.08882 ], [ 85.51156, 26.09023 ], [ 85.51116, 26.09388 ], [ 85.5096, 26.09543 ], [ 85.51214, 26.09845 ], [ 85.51086, 26.09909 ], [ 85.50683, 26.09797 ], [ 85.50563, 26.09977 ], [ 85.50682, 26.10244 ], [ 85.50474, 26.10378 ], [ 85.50667, 26.10574 ], [ 85.51415, 26.10749 ], [ 85.51653, 26.10971 ], [ 85.5153, 26.11078 ], [ 85.51015, 26.10972 ], [ 85.50775, 26.11534 ], [ 85.50776, 26.119 ], [ 85.50953, 26.12329 ], [ 85.51448, 26.12533 ], [ 85.51416, 26.12712 ], [ 85.50872, 26.12873 ], [ 85.50079, 26.12897 ], [ 85.49694, 26.13027 ], [ 85.49031, 26.12607 ], [ 85.48732, 26.12645 ], [ 85.48729, 26.12895 ], [ 85.49196, 26.13116 ], [ 85.49698, 26.13178 ], [ 85.49638, 26.13713 ], [ 85.49461, 26.13929 ], [ 85.49193, 26.13925 ], [ 85.49071, 26.13519 ], [ 85.48861, 26.13564 ], [ 85.48756, 26.13889 ], [ 85.48611, 26.13985 ], [ 85.48681, 26.14708 ], [ 85.4862, 26.14948 ], [ 85.48038, 26.1476 ], [ 85.47499, 26.15097 ], [ 85.47056, 26.15159 ], [ 85.46831, 26.15284 ], [ 85.46568, 26.15228 ], [ 85.4614, 26.14974 ], [ 85.46299, 26.14665 ], [ 85.45938, 26.14166 ], [ 85.45551, 26.14479 ], [ 85.45114, 26.14577 ], [ 85.45089, 26.14724 ], [ 85.44632, 26.14826 ], [ 85.44554, 26.14989 ], [ 85.44195, 26.1504 ], [ 85.44088, 26.15252 ], [ 85.43954, 26.15252 ], [ 85.43866, 26.15026 ], [ 85.43728, 26.15055 ], [ 85.43622, 26.14771 ], [ 85.43496, 26.14776 ], [ 85.43298, 26.14927 ], [ 85.43423, 26.15227 ], [ 85.4372, 26.15225 ], [ 85.43699, 26.15398 ], [ 85.43448, 26.15486 ], [ 85.43731, 26.16036 ], [ 85.43699, 26.16321 ], [ 85.42806, 26.16445 ], [ 85.4269, 26.16648 ], [ 85.42262, 26.16727 ], [ 85.42303, 26.1694 ], [ 85.41771, 26.1713 ], [ 85.41503, 26.17174 ], [ 85.41406, 26.17112 ], [ 85.41311, 26.17193 ], [ 85.41348, 26.17302 ], [ 85.41276, 26.1742 ], [ 85.41409, 26.17766 ], [ 85.42398, 26.17576 ], [ 85.42574, 26.17758 ], [ 85.42689, 26.18244 ], [ 85.4239, 26.18536 ], [ 85.42036, 26.18742 ], [ 85.41268, 26.19083 ], [ 85.40036, 26.19466 ], [ 85.39898, 26.19737 ], [ 85.39583, 26.19788 ], [ 85.39684, 26.21162 ], [ 85.39747, 26.21383 ], [ 85.40054, 26.2184 ], [ 85.40175, 26.22354 ], [ 85.40475, 26.22431 ], [ 85.41153, 26.2226 ], [ 85.41181, 26.22051 ], [ 85.41055, 26.215 ], [ 85.41658, 26.21548 ], [ 85.41956, 26.22552 ], [ 85.42422, 26.22448 ], [ 85.42666, 26.23037 ], [ 85.43069, 26.23274 ], [ 85.43964, 26.23337 ], [ 85.44354, 26.24505 ], [ 85.43949, 26.24554 ], [ 85.43881, 26.24834 ], [ 85.44231, 26.24838 ], [ 85.44551, 26.2525 ], [ 85.44826, 26.25239 ], [ 85.44846, 26.25523 ], [ 85.44768, 26.25767 ], [ 85.45199, 26.25646 ], [ 85.45399, 26.25716 ], [ 85.45514, 26.25991 ], [ 85.45522, 26.26272 ], [ 85.45805, 26.26367 ], [ 85.46255, 26.26815 ], [ 85.46419, 26.2684 ], [ 85.47115, 26.26596 ], [ 85.48014, 26.26511 ], [ 85.48799, 26.26293 ], [ 85.49154, 26.26051 ], [ 85.49329, 26.25657 ] ] ] ] } },
{ "type": "Feature", "properties": { "OBJECTID": 6323, "state_lgd": "10", "state_name": "BIHAR", "district_lgd": "216", "district_name": "MUZAFFARPUR", "district_name_source": "district_table", "subdistrict_lgd": "01207", "subdistrict_name": "Aurai", "subdistrict_type": "", "name_corrupted": false, "remarks": "", "label_lon": 85.542793822939501, "label_lat": 26.3096241934294 }, "geometry": { "type": "Polygon", "coordinates": [ [ [ 85.58215, 26.38403 ], [ 85.57889, 26.37818 ], [ 85.57841, 26.37264 ], [ 85.5759, 26.37137 ], [ 85.57304, 26.36647 ], [ 85.57543, 26.3618 ], [ 85.58049, 26.36316 ], [ 85.5843, 26.36202 ], [ 85.58879, 26.35867 ], [ 85.59119, 26.35519 ], [ 85.59528, 26.35439 ], [ 85.60244, 26.35088 ], [ 85.60645, 26.35165 ], [ 85.60811, 26.34936 ], [ 85.61158, 26.34963 ], [ 85.61477, 26.34582 ], [ 85.61683, 26.34006 ], [ 85.61638, 26.33928 ], [ 85.61601, 26.34014 ], [ 85.61396, 26.34061 ], [ 85.61315, 26.33978 ], [ 85.61123, 26.33971 ], [ 85.6103, 26.33486 ], [ 85.61096, 26.33367 ], [ 85.61527, 26.33246 ], [ 85.61714, 26.33492 ], [ 85.62159, 26.33421 ], [ 85.62641, 26.33615 ], [ 85.62941, 26.33282 ], [ 85.63353, 26.33273 ], [ 85.63367, 26.32967 ], [ 85.63498, 26.32801 ], [ 85.632, 26.32197 ], [ 85.6285, 26.31969 ], [ 85.62865, 26.31871 ], [ 85.62556, 26.31531 ], [ 85.62168, 26.31412 ], [ 85.61918, 26.31031 ], [ 85.61966, 26.30948 ], [ 85.61877, 26.3077 ], [ 85.6246, 26.30543 ], [ 85.62373, 26.30196 ], [ 85.62058, 26.29955 ], [ 85.6188, 26.2992 ], [ 85.61863, 26.29726 ], [ 85.62031, 26.29409 ], [ 85.62438, 26.29117 ], [ 85.62506, 26.28652 ], [ 85.61623, 26.28583 ], [ 85.61847, 26.28331 ], [ 85.6218, 26.28339 ], [ 85.62184, 26.28077 ], [ 85.62411, 26.28004 ], [ 85.62272, 26.27713 ], [ 85.62483, 26.27528 ], [ 85.62578, 26.27192 ], [ 85.62774, 26.27098 ], [ 85.62788, 26.26806 ], [ 85.62484, 26.2679 ], [ 85.6243, 26.267 ], [ 85.62064, 26.26708 ], [ 85.62128, 26.26564 ], [ 85.61952, 26.26486 ], [ 85.61765, 26.25602 ], [ 85.61672, 26.25529 ], [ 85.6162, 26.25267 ], [ 85.6151, 26.2521 ], [ 85.61494, 26.24968 ], [ 85.61142, 26.24885 ], [ 85.60496, 26.2498 ], [ 85.5964, 26.24953 ], [ 85.59468, 26.25116 ], [ 85.59469, 26.25366 ], [ 85.58934, 26.25298 ], [ 85.58876, 26.25274 ], [ 85.58745, 26.2434 ], [ 85.58605, 26.2431 ], [ 85.5837, 26.23769 ], [ 85.57747, 26.23692 ], [ 85.5788, 26.24301 ], [ 85.57796, 26.24374 ], [ 85.57774, 26.2469 ], [ 85.57506, 26.2473 ], [ 85.56569, 26.25173 ], [ 85.56407, 26.25267 ], [ 85.56365, 26.25426 ], [ 85.56039, 26.25535 ], [ 85.55916, 26.25659 ], [ 85.55674, 26.25701 ], [ 85.55648, 26.26014 ], [ 85.55536, 26.2609 ], [ 85.55448, 26.26091 ], [ 85.5547, 26.25813 ], [ 85.5512, 26.25828 ], [ 85.544, 26.26026 ], [ 85.53962, 26.25645 ], [ 85.5378, 26.26002 ], [ 85.53553, 26.26159 ], [ 85.52639, 26.25991 ], [ 85.52228, 26.26036 ], [ 85.52204, 26.25616 ], [ 85.51787, 26.2559 ], [ 85.51776, 26.25706 ], [ 85.51671, 26.25709 ], [ 85.51394, 26.25657 ], [ 85.51127, 26.2546 ], [ 85.50638, 26.25415 ], [ 85.50459, 26.25292 ], [ 85.50236, 26.25349 ], [ 85.49222, 26.25245 ], [ 85.49185, 26.25366 ], [ 85.49329, 26.25657 ], [ 85.49154, 26.26051 ], [ 85.48799, 26.26293 ], [ 85.48014, 26.26511 ], [ 85.47115, 26.26596 ], [ 85.46419, 26.2684 ], [ 85.46255, 26.26815 ], [ 85.45805, 26.26367 ], [ 85.45522, 26.26272 ], [ 85.45468, 26.25807 ], [ 85.45309, 26.25661 ], [ 85.44855, 26.25727 ], [ 85.44518, 26.25887 ], [ 85.44395, 26.26061 ], [ 85.44385, 26.26391 ], [ 85.44476, 26.26445 ], [ 85.45326, 26.26333 ], [ 85.45405, 26.26484 ], [ 85.4536, 26.27061 ], [ 85.45231, 26.27248 ], [ 85.44725, 26.27199 ], [ 85.43669, 26.26796 ], [ 85.42971, 26.26735 ], [ 85.43027, 26.26865 ], [ 85.42903, 26.27044 ], [ 85.43092, 26.27297 ], [ 85.43352, 26.27408 ], [ 85.43573, 26.2795 ], [ 85.44089, 26.28339 ], [ 85.44154, 26.28271 ], [ 85.44081, 26.28092 ], [ 85.43673, 26.27713 ], [ 85.43578, 26.27486 ], [ 85.43657, 26.26998 ], [ 85.43702, 26.26934 ], [ 85.43845, 26.26981 ], [ 85.44065, 26.27411 ], [ 85.44168, 26.27991 ], [ 85.44402, 26.27973 ], [ 85.4481, 26.291 ], [ 85.45277, 26.29061 ], [ 85.45602, 26.3013 ], [ 85.4611, 26.30078 ], [ 85.46278, 26.30546 ], [ 85.46356, 26.31187 ], [ 85.46183, 26.31535 ], [ 85.46241, 26.31992 ], [ 85.46541, 26.32072 ], [ 85.46759, 26.32739 ], [ 85.47082, 26.32667 ], [ 85.46941, 26.33049 ], [ 85.46629, 26.33052 ], [ 85.46585, 26.3321 ], [ 85.46987, 26.33449 ], [ 85.47467, 26.33336 ], [ 85.47501, 26.33409 ], [ 85.47794, 26.33477 ], [ 85.47908, 26.34035 ], [ 85.47905, 26.34638 ], [ 85.48142, 26.34699 ], [ 85.48169, 26.34849 ], [ 85.48469, 26.34834 ], [ 85.48628, 26.35412 ], [ 85.49332, 26.35415 ], [ 85.49437, 26.35658 ], [ 85.49483, 26.36242 ], [ 85.50108, 26.36215 ], [ 85.50172, 26.37204 ], [ 85.50005, 26.3751 ], [ 85.50432, 26.3808 ], [ 85.50872, 26.3816 ], [ 85.51142, 26.37957 ], [ 85.5175, 26.37788 ], [ 85.51745, 26.37552 ], [ 85.52078, 26.37411 ], [ 85.52426, 26.37453 ], [ 85.52792, 26.37798 ], [ 85.53117, 26.37878 ], [ 85.53194, 26.37802 ], [ 85.53129, 26.3726 ], [ 85.53221, 26.37093 ], [ 85.53799, 26.37152 ], [ 85.54104, 26.3697 ], [ 85.54457, 26.36956 ], [ 85.5501, 26.37162 ], [ 85.55388, 26.38022 ], [ 85.55504, 26.38095 ], [ 85.55738, 26.38517 ], [ 85.56573, 26.38465 ], [ 85.56829, 26.38856 ], [ 85.57217, 26.3892 ], [ 85.57616, 26.39279 ], [ 85.57994, 26.3929 ], [ 85.58013, 26.3891 ], [ 85.58215, 26.38403 ] ] ] } },
{ "type": "Feature", "properties": { "OBJECTID": 6324, "state_lgd": "10", "state_name": "BIHAR", "district_lgd": "216", "district_name": "MUZAFFARPUR", "district_name_source": "district_table", "subdistrict_lgd": "01208", "subdistrict_name": "Katra", "subdistrict_type": "", "name_corrupted": false, "remarks": "", "label_lon": 85.635120278080862, "label_lat": 26.241181439861339 }, "geometry": { "type": "Polygon", "coordinates": [ [ [ 85.65115, 26.31776 ], [ 85.65742, 26.31908 ], [ 85.65933, 26.31714 ], [ 85.66477, 26.31681 ], [ 85.66613, 26.31494 ], [ 85.67198, 26.31271 ], [ 85.67566, 26.31791 ], [ 85.67837, 26.32019 ], [ 85.68683, 26.32015 ], [ 85.68779, 26.31941 ], [ 85.6883, 26.31699 ], [ 85.68972, 26.3181 ], [ 85.69099, 26.31773 ], [ 85.69135, 26.3148 ], [ 85.69388, 26.31187 ], [ 85.6935, 26.3087 ], [ 85.69649, 26.30524 ], [ 85.69803, 26.30496 ], [ 85.69821, 26.30677 ], [ 85.69911, 26.30753 ], [ 85.70289, 26.30682 ], [ 85.7034, 26.30501 ], [ 85.70545, 26.30632 ], [ 85.70396, 26.30199 ], [ 85.70405, 26.29882 ], [ 85.70549, 26.29675 ], [ 85.70531, 26.29503 ], [ 85.7157, 26.29246 ], [ 85.71603, 26.28949 ], [ 85.71506, 26.28776 ], [ 85.71477, 26.28306 ], [ 85.71544, 26.27668 ], [ 85.7177, 26.27592 ], [ 85.71689, 26.2717 ], [ 85.71364, 26.27247 ], [ 85.71325, 26.27124 ], [ 85.71116, 26.27141 ], [ 85.71065, 26.27017 ], [ 85.70747, 26.27003 ], [ 85.70579, 26.26545 ], [ 85.70182, 26.26525 ], [ 85.69952, 26.26298 ], [ 85.69991, 26.26147 ], [ 85.6986, 26.25862 ], [ 85.69568, 26.25886 ], [ 85.69543, 26.25674 ], [ 85.69634, 26.2549 ], [ 85.69811, 26.25433 ], [ 85.69807, 26.25314 ], [ 85.69969, 26.25063 ], [ 85.70184, 26.24933 ], [ 85.70536, 26.24882 ], [ 85.70751, 26.2514 ], [ 85.71155, 26.2492 ], [ 85.71463, 26.24936 ], [ 85.71105, 26.23965 ], [ 85.70595, 26.2396 ], [ 85.70396, 26.24066 ], [ 85.7026, 26.23921 ], [ 85.69996, 26.23904 ], [ 85.69949, 26.23682 ], [ 85.69821, 26.23546 ], [ 85.69747, 26.22889 ], [ 85.6964, 26.22596 ], [ 85.6998, 26.22475 ], [ 85.70655, 26.22547 ], [ 85.7058, 26.22003 ], [ 85.70761, 26.21953 ], [ 85.70696, 26.21566 ], [ 85.71016, 26.21512 ], [ 85.71033, 26.21144 ], [ 85.71842, 26.20976 ], [ 85.71778, 26.20166 ], [ 85.72499, 26.20126 ], [ 85.72449, 26.19949 ], [ 85.72607, 26.19808 ], [ 85.72526, 26.19303 ], [ 85.72197, 26.19301 ], [ 85.71836, 26.19417 ], [ 85.71378, 26.19359 ], [ 85.71327, 26.19203 ], [ 85.7117, 26.19201 ], [ 85.71117, 26.18845 ], [ 85.70193, 26.18999 ], [ 85.70092, 26.18971 ], [ 85.70027, 26.18781 ], [ 85.69258, 26.18804 ], [ 85.69207, 26.18682 ], [ 85.6931, 26.18335 ], [ 85.69319, 26.17869 ], [ 85.69131, 26.17868 ], [ 85.69003, 26.17663 ], [ 85.68232, 26.17939 ], [ 85.67683, 26.17951 ], [ 85.67713, 26.17619 ], [ 85.67554, 26.1762 ], [ 85.67538, 26.17405 ], [ 85.67442, 26.17298 ], [ 85.672, 26.1742 ], [ 85.6694, 26.17819 ], [ 85.66545, 26.18136 ], [ 85.66419, 26.18338 ], [ 85.6645, 26.18407 ], [ 85.66888, 26.1817 ], [ 85.67165, 26.18394 ], [ 85.67127, 26.18599 ], [ 85.66708, 26.18475 ], [ 85.66547, 26.18542 ], [ 85.66683, 26.19128 ], [ 85.66645, 26.19239 ], [ 85.66365, 26.19343 ], [ 85.66073, 26.19312 ], [ 85.65962, 26.19424 ], [ 85.65335, 26.19394 ], [ 85.651, 26.19149 ], [ 85.64981, 26.19271 ], [ 85.64791, 26.18807 ], [ 85.6483, 26.18597 ], [ 85.64735, 26.18332 ], [ 85.6449, 26.18312 ], [ 85.64377, 26.17931 ], [ 85.64165, 26.17779 ], [ 85.64175, 26.17484 ], [ 85.64377, 26.16904 ], [ 85.64206, 26.16163 ], [ 85.63294, 26.16483 ], [ 85.62973, 26.16695 ], [ 85.62505, 26.17193 ], [ 85.62122, 26.17678 ], [ 85.6221, 26.18052 ], [ 85.62036, 26.18571 ], [ 85.61573, 26.18647 ], [ 85.60943, 26.18549 ], [ 85.6046, 26.18639 ], [ 85.6025, 26.18489 ], [ 85.60127, 26.1858 ], [ 85.60092, 26.18891 ], [ 85.60328, 26.19372 ], [ 85.6032, 26.19705 ], [ 85.60196, 26.19858 ], [ 85.60005, 26.19928 ], [ 85.58917, 26.19916 ], [ 85.58796, 26.19999 ], [ 85.59082, 26.21095 ], [ 85.5852, 26.21157 ], [ 85.57879, 26.21467 ], [ 85.57655, 26.21058 ], [ 85.57397, 26.20201 ], [ 85.57273, 26.20008 ], [ 85.56736, 26.19906 ], [ 85.56364, 26.1995 ], [ 85.56283, 26.20042 ], [ 85.55627, 26.202 ], [ 85.55631, 26.20779 ], [ 85.55208, 26.20919 ], [ 85.54852, 26.20868 ], [ 85.54717, 26.20765 ], [ 85.54349, 26.20939 ], [ 85.5372, 26.20905 ], [ 85.53675, 26.21286 ], [ 85.53026, 26.21406 ], [ 85.52928, 26.21344 ], [ 85.5253, 26.21694 ], [ 85.51486, 26.21937 ], [ 85.51345, 26.22039 ], [ 85.51343, 26.22129 ], [ 85.523, 26.22073 ], [ 85.52412, 26.22116 ], [ 85.5245, 26.22269 ], [ 85.52333, 26.22381 ], [ 85.5116, 26.22673 ], [ 85.50671, 26.22889 ], [ 85.50373, 26.23064 ], [ 85.50177, 26.23295 ], [ 85.50172, 26.23766 ], [ 85.51123, 26.23978 ], [ 85.5125, 26.24423 ], [ 85.51531, 26.24786 ], [ 85.51675, 26.24754 ], [ 85.51894, 26.25062 ], [ 85.5217, 26.25078 ], [ 85.52174, 26.25387 ], [ 85.52351, 26.25644 ], [ 85.52569, 26.25611 ], [ 85.52639, 26.25991 ], [ 85.5349, 26.26168 ], [ 85.5378, 26.26002 ], [ 85.53962, 26.25645 ], [ 85.544, 26.26026 ], [ 85.5512, 26.25828 ], [ 85.5547, 26.25813 ], [ 85.55448, 26.26091 ], [ 85.55627, 26.26068 ], [ 85.55674, 26.25701 ], [ 85.55916, 26.25659 ], [ 85.56039, 26.25535 ], [ 85.56365, 26.25426 ], [ 85.56407, 26.25267 ], [ 85.56569, 26.25173 ], [ 85.57506, 26.2473 ], [ 85.57774, 26.2469 ], [ 85.57796, 26.24374 ], [ 85.5788, 26.24301 ], [ 85.57747, 26.23692 ], [ 85.5837, 26.23769 ], [ 85.58605, 26.2431 ], [ 85.58745, 26.2434 ], [ 85.58876, 26.25274 ], [ 85.58934, 26.25298 ], [ 85.59469, 26.25366 ], [ 85.59468, 26.25116 ], [ 85.5964, 26.24953 ], [ 85.60496, 26.2498 ], [ 85.61142, 26.24885 ], [ 85.61494, 26.24968 ], [ 85.6151, 26.2521 ], [ 85.6162, 26.25267 ], [ 85.61672, 26.25529 ], [ 85.61765, 26.25602 ], [ 85.61952, 26.26486 ], [ 85.62128, 26.26564 ], [ 85.62064, 26.26708 ], [ 85.6243, 26.267 ], [ 85.62484, 26.2679 ], [ 85.62788, 26.26806 ], [ 85.62774, 26.27098 ], [ 85.62578, 26.27192 ], [ 85.62483, 26.27528 ], [ 85.62272, 26.27713 ], [ 85.62411, 26.28004 ], [ 85.62184, 26.28077 ], [ 85.6218, 26.28339 ], [ 85.61847, 26.28331 ], [ 85.61623, 26.28583 ], [ 85.62506, 26.28652 ], [ 85.62438, 26.29117 ], [ 85.62031, 26.29409 ], [ 85.61863, 26.29726 ], [ 85.6188, 26.2992 ], [ 85.62058, 26.29955 ], [ 85.62373, 26.30196 ], [ 85.6246, 26.30543 ], [ 85.61877, 26.3077 ], [ 85.61966, 26.30948 ], [ 85.61941, 26.31081 ], [ 85.62168, 26.31412 ], [ 85.62556, 26.31531 ], [ 85.62865, 26.31871 ], [ 85.63214, 26.31594 ], [ 85.6363, 26.31921 ], [ 85.64229, 26.31822 ], [ 85.64924, 26.32266 ], [ 85.65115, 26.31776 ] ] ] } },
{ "type": "Feature", "properties": { "OBJECTID": 6325, "state_lgd": "10", "state_name": "BIHAR", "district_lgd": "216", "district_name": "MUZAFFARPUR", "district_name_source": "district_table", "subdistrict_lgd": "01209", "subdistrict_name": "Gaighat", "subdistrict_type": "", "name_corrupted": false, "remarks": "", "label_lon": 85.64205468374098, "label_lat": 26.136802837968876 }, "geometry": { "type": "Polygon", "coordinates": [ [ [ 85.58795, 26.21086 ], [ 85.59097, 26.21053 ], [ 85.58819, 26.20102 ], [ 85.58834, 26.19944 ], [ 85.60097, 26.19916 ], [ 85.6032, 26.19705 ], [ 85.60324, 26.19328 ], [ 85.60092, 26.18891 ], [ 85.60127, 26.1858 ], [ 85.6025, 26.18489 ], [ 85.6046, 26.18639 ], [ 85.60943, 26.18549 ], [ 85.61573, 26.18647 ], [ 85.62036, 26.18571 ], [ 85.6221, 26.18052 ], [ 85.62122, 26.17678 ], [ 85.62505, 26.17193 ], [ 85.62973, 26.16695 ], [ 85.63294, 26.16483 ], [ 85.64206, 26.16163 ], [ 85.64377, 26.16904 ], [ 85.64175, 26.17484 ], [ 85.64165, 26.17779 ], [ 85.64377, 26.17931 ], [ 85.6449, 26.18312 ], [ 85.64735, 26.18332 ], [ 85.6483, 26.18597 ], [ 85.64791, 26.18807 ], [ 85.64981, 26.19271 ], [ 85.651, 26.19149 ], [ 85.65335, 26.19394 ], [ 85.65962, 26.19424 ], [ 85.66073, 26.19312 ], [ 85.66365, 26.19343 ], [ 85.66645, 26.19239 ], [ 85.66683, 26.19128 ], [ 85.66547, 26.18542 ], [ 85.66708, 26.18475 ], [ 85.67127, 26.18599 ], [ 85.67165, 26.18394 ], [ 85.66888, 26.1817 ], [ 85.6645, 26.18407 ], [ 85.66419, 26.18338 ], [ 85.66545, 26.18136 ], [ 85.6694, 26.17819 ], [ 85.672, 26.1742 ], [ 85.67442, 26.17298 ], [ 85.67538, 26.17405 ], [ 85.67554, 26.1762 ], [ 85.67713, 26.17619 ], [ 85.67683, 26.17951 ], [ 85.68232, 26.17939 ], [ 85.69003, 26.17663 ], [ 85.69131, 26.17868 ], [ 85.69319, 26.17869 ], [ 85.6931, 26.18335 ], [ 85.69207, 26.18682 ], [ 85.69258, 26.18804 ], [ 85.70027, 26.18781 ], [ 85.70092, 26.18971 ], [ 85.70193, 26.18999 ], [ 85.71117, 26.18845 ], [ 85.7117, 26.19201 ], [ 85.71327, 26.19203 ], [ 85.71378, 26.19359 ], [ 85.71836, 26.19417 ], [ 85.72197, 26.19301 ], [ 85.72526, 26.19303 ], [ 85.72355, 26.18748 ], [ 85.72529, 26.18293 ], [ 85.72517, 26.17928 ], [ 85.72397, 26.17679 ], [ 85.72212, 26.17613 ], [ 85.7209, 26.17654 ], [ 85.72012, 26.16881 ], [ 85.72114, 26.16422 ], [ 85.73746, 26.16238 ], [ 85.73788, 26.16152 ], [ 85.74168, 26.16075 ], [ 85.7426, 26.15656 ], [ 85.74628, 26.15167 ], [ 85.74761, 26.151 ], [ 85.754, 26.1512 ], [ 85.76012, 26.14933 ], [ 85.75894, 26.14578 ], [ 85.75928, 26.14437 ], [ 85.76441, 26.14247 ], [ 85.76404, 26.14098 ], [ 85.75817, 26.13475 ], [ 85.75395, 26.13222 ], [ 85.75309, 26.12927 ], [ 85.75236, 26.12927 ], [ 85.75005, 26.13216 ], [ 85.73976, 26.1304 ], [ 85.73856, 26.12702 ], [ 85.73438, 26.12712 ], [ 85.7281, 26.1257 ], [ 85.72826, 26.12173 ], [ 85.72646, 26.11273 ], [ 85.72844, 26.11041 ], [ 85.73283, 26.11105 ], [ 85.73451, 26.10781 ], [ 85.73019, 26.10622 ], [ 85.72635, 26.10608 ], [ 85.72404, 26.10778 ], [ 85.71592, 26.10877 ], [ 85.71318, 26.10155 ], [ 85.71282, 26.09579 ], [ 85.71371, 26.08941 ], [ 85.71, 26.08752 ], [ 85.70644, 26.08825 ], [ 85.70659, 26.0873 ], [ 85.70794, 26.08693 ], [ 85.707, 26.08547 ], [ 85.70708, 26.08082 ], [ 85.70186, 26.08096 ], [ 85.70097, 26.07997 ], [ 85.70154, 26.07684 ], [ 85.70499, 26.07399 ], [ 85.70416, 26.0727 ], [ 85.70141, 26.07319 ], [ 85.69699, 26.07705 ], [ 85.69703, 26.0784 ], [ 85.69905, 26.08132 ], [ 85.69881, 26.08562 ], [ 85.69665, 26.09037 ], [ 85.69522, 26.08976 ], [ 85.69503, 26.08889 ], [ 85.6967, 26.08504 ], [ 85.69091, 26.08339 ], [ 85.68802, 26.08491 ], [ 85.68713, 26.08453 ], [ 85.68737, 26.08314 ], [ 85.68962, 26.08065 ], [ 85.68968, 26.07897 ], [ 85.68793, 26.07894 ], [ 85.68593, 26.08091 ], [ 85.68454, 26.08072 ], [ 85.68279, 26.07755 ], [ 85.68201, 26.07122 ], [ 85.67963, 26.07212 ], [ 85.6765, 26.07672 ], [ 85.67334, 26.07853 ], [ 85.67139, 26.08415 ], [ 85.66562, 26.08169 ], [ 85.66361, 26.07793 ], [ 85.66306, 26.07134 ], [ 85.66084, 26.06796 ], [ 85.65687, 26.06814 ], [ 85.65485, 26.071 ], [ 85.64982, 26.07357 ], [ 85.64679, 26.07409 ], [ 85.64413, 26.07839 ], [ 85.64181, 26.07998 ], [ 85.63254, 26.07765 ], [ 85.62672, 26.07362 ], [ 85.62272, 26.0737 ], [ 85.61532, 26.07533 ], [ 85.61655, 26.0792 ], [ 85.61975, 26.08384 ], [ 85.62231, 26.09112 ], [ 85.62163, 26.09212 ], [ 85.61857, 26.09308 ], [ 85.61686, 26.09532 ], [ 85.60661, 26.09396 ], [ 85.60243, 26.09613 ], [ 85.5986, 26.08888 ], [ 85.59353, 26.09035 ], [ 85.59081, 26.09003 ], [ 85.58285, 26.0917 ], [ 85.57893, 26.09192 ], [ 85.57746, 26.09048 ], [ 85.57571, 26.09019 ], [ 85.56507, 26.09167 ], [ 85.56053, 26.08929 ], [ 85.54734, 26.08767 ], [ 85.54397, 26.09355 ], [ 85.5441, 26.09529 ], [ 85.55098, 26.10024 ], [ 85.55217, 26.10249 ], [ 85.55259, 26.10679 ], [ 85.55349, 26.10697 ], [ 85.55346, 26.10778 ], [ 85.54753, 26.10912 ], [ 85.54946, 26.11819 ], [ 85.55063, 26.13051 ], [ 85.55294, 26.13349 ], [ 85.5568, 26.13528 ], [ 85.55654, 26.13653 ], [ 85.55484, 26.13674 ], [ 85.55452, 26.14062 ], [ 85.55537, 26.14729 ], [ 85.55091, 26.15333 ], [ 85.54813, 26.15545 ], [ 85.54272, 26.15503 ], [ 85.53737, 26.16092 ], [ 85.53742, 26.16228 ], [ 85.5458, 26.16156 ], [ 85.55375, 26.1639 ], [ 85.55751, 26.16899 ], [ 85.55663, 26.16972 ], [ 85.55735, 26.17058 ], [ 85.55669, 26.17152 ], [ 85.55848, 26.17478 ], [ 85.55696, 26.17614 ], [ 85.5584, 26.17915 ], [ 85.55762, 26.17978 ], [ 85.55768, 26.18111 ], [ 85.56008, 26.1826 ], [ 85.56013, 26.18415 ], [ 85.5558, 26.18832 ], [ 85.55692, 26.1935 ], [ 85.56183, 26.19574 ], [ 85.56364, 26.1995 ], [ 85.56736, 26.19906 ], [ 85.57273, 26.20008 ], [ 85.57397, 26.20201 ], [ 85.57655, 26.21058 ], [ 85.57879, 26.21467 ], [ 85.58795, 26.21086 ] ], [ [ 85.68198, 26.08579 ], [ 85.68322, 26.08674 ], [ 85.68248, 26.08853 ], [ 85.68066, 26.08776 ], [ 85.68079, 26.08634 ], [ 85.68198, 26.08579 ] ] ] } },
{ "type": "Feature", "properties": { "OBJECTID": 6326, "state_lgd": "10", "state_name": "BIHAR", "district_lgd": "216", "district_name": "MUZAFFARPUR", "district_name_source": "district_table", "subdistrict_lgd": "01210", "subdistrict_name": "Bandra", "subdistrict_type": "", "name_corrupted": false, "remarks": "", "label_lon": 85.618554069575438, "label_lat": 26.052611274743416 }, "geometry": { "type": "MultiPolygon", "coordinates": [ [ [ [ 85.60661, 26.09396 ], [ 85.61686, 26.09532 ], [ 85.61857, 26.09308 ], [ 85.62206, 26.09183 ], [ 85.61975, 26.08384 ], [ 85.61655, 26.0792 ], [ 85.61532, 26.07533 ], [ 85.62272, 26.0737 ], [ 85.62672, 26.07362 ], [ 85.63254, 26.07765 ], [ 85.64181, 26.07998 ], [ 85.64413, 26.07839 ], [ 85.64679, 26.07409 ], [ 85.64982, 26.07357 ], [ 85.65485, 26.071 ], [ 85.65687, 26.06814 ], [ 85.66148, 26.06816 ], [ 85.66306, 26.07134 ], [ 85.66339, 26.07687 ], [ 85.66501, 26.08094 ], [ 85.67071, 26.08412 ], [ 85.67178, 26.0836 ], [ 85.67178, 26.08167 ], [ 85.67296, 26.08072 ], [ 85.67334, 26.07853 ], [ 85.6765, 26.07672 ], [ 85.67963, 26.07212 ], [ 85.68201, 26.07122 ], [ 85.68279, 26.07755 ], [ 85.68454, 26.08072 ], [ 85.68593, 26.08091 ], [ 85.68793, 26.07894 ], [ 85.68968, 26.07897 ], [ 85.68962, 26.08065 ], [ 85.68737, 26.08314 ], [ 85.68713, 26.08453 ], [ 85.68802, 26.08491 ], [ 85.69091, 26.08339 ], [ 85.6967, 26.08504 ], [ 85.69503, 26.08889 ], [ 85.6959, 26.09031 ], [ 85.69697, 26.08992 ], [ 85.69881, 26.08562 ], [ 85.69905, 26.08132 ], [ 85.69703, 26.0784 ], [ 85.69699, 26.07705 ], [ 85.70141, 26.07319 ], [ 85.70416, 26.0727 ], [ 85.70499, 26.07399 ], [ 85.70154, 26.07684 ], [ 85.70097, 26.07997 ], [ 85.70186, 26.08096 ], [ 85.70708, 26.08082 ], [ 85.707, 26.08547 ], [ 85.70794, 26.08693 ], [ 85.70982, 26.08698 ], [ 85.70929, 26.08463 ], [ 85.71077, 26.08135 ], [ 85.71054, 26.07915 ], [ 85.71179, 26.07858 ], [ 85.71129, 26.07472 ], [ 85.70896, 26.06801 ], [ 85.71182, 26.06587 ], [ 85.71237, 26.06454 ], [ 85.712, 26.06364 ], [ 85.70823, 26.06351 ], [ 85.70673, 26.0615 ], [ 85.70339, 26.05986 ], [ 85.70205, 26.05151 ], [ 85.70427, 26.05048 ], [ 85.70246, 26.04642 ], [ 85.69971, 26.04762 ], [ 85.69199, 26.04773 ], [ 85.6911, 26.04438 ], [ 85.6884, 26.0429 ], [ 85.68632, 26.03523 ], [ 85.68254, 26.02777 ], [ 85.67664, 26.02924 ], [ 85.67478, 26.02747 ], [ 85.67185, 26.02866 ], [ 85.66602, 26.02825 ], [ 85.66567, 26.02473 ], [ 85.66316, 26.02305 ], [ 85.65888, 26.01829 ], [ 85.65584, 26.01861 ], [ 85.65272, 26.01058 ], [ 85.65126, 26.01 ], [ 85.64812, 26.00299 ], [ 85.63693, 26.00329 ], [ 85.63147, 26.00633 ], [ 85.62428, 26.01511 ], [ 85.61906, 26.01632 ], [ 85.61242, 26.01553 ], [ 85.606, 26.01326 ], [ 85.60459, 26.01138 ], [ 85.60422, 26.00612 ], [ 85.60279, 26.00273 ], [ 85.59792, 26.00168 ], [ 85.59513, 26.00311 ], [ 85.59121, 26.00728 ], [ 85.58915, 26.0119 ], [ 85.58852, 26.01617 ], [ 85.58527, 26.01859 ], [ 85.58068, 26.02014 ], [ 85.5709, 26.02734 ], [ 85.56104, 26.04087 ], [ 85.55601, 26.04282 ], [ 85.55304, 26.04301 ], [ 85.55175, 26.04204 ], [ 85.54988, 26.04266 ], [ 85.54595, 26.04617 ], [ 85.5447, 26.04539 ], [ 85.54387, 26.04578 ], [ 85.5409, 26.04872 ], [ 85.53319, 26.05384 ], [ 85.53311, 26.05535 ], [ 85.52534, 26.05656 ], [ 85.52996, 26.06122 ], [ 85.53577, 26.06381 ], [ 85.53356, 26.06466 ], [ 85.53534, 26.06474 ], [ 85.53443, 26.06547 ], [ 85.53509, 26.06609 ], [ 85.53622, 26.06553 ], [ 85.53766, 26.06679 ], [ 85.53921, 26.06373 ], [ 85.54146, 26.06297 ], [ 85.54568, 26.06623 ], [ 85.54574, 26.06772 ], [ 85.54294, 26.072 ], [ 85.53866, 26.0735 ], [ 85.53609, 26.07407 ], [ 85.53126, 26.07163 ], [ 85.5292, 26.06958 ], [ 85.52782, 26.07137 ], [ 85.53209, 26.07606 ], [ 85.53747, 26.07806 ], [ 85.53747, 26.0808 ], [ 85.54201, 26.08104 ], [ 85.54437, 26.08281 ], [ 85.54734, 26.08767 ], [ 85.56053, 26.08929 ], [ 85.56507, 26.09167 ], [ 85.57571, 26.09019 ], [ 85.57746, 26.09048 ], [ 85.57893, 26.09192 ], [ 85.58285, 26.0917 ], [ 85.59081, 26.09003 ], [ 85.59353, 26.09035 ], [ 85.5986, 26.08888 ], [ 85.60243, 26.09613 ], [ 85.60661, 26.09396 ] ] ], [ [ [ 85.68198, 26.08579 ], [ 85.68079, 26.08634 ], [ 85.68066, 26.08776 ], [ 85.68248, 26.08853 ], [ 85.68322, 26.08674 ], [ 85.68198, 26.08579 ] ] ] ] } },
{ "type": "Feature", "properties": { "OBJECTID": 6327, "state_lgd": "10", "state_name": "BIHAR", "district_lgd": "216", "district_name": "MUZAFFARPUR", "district_name_source": "district_table", "subdistrict_lgd": "01211", "subdistrict_name": "Dholi (Moraul)", "subdistrict_type": "", "name_corrupted": false, "remarks": "", "label_lon": 85.561567786347055, "label_lat": 26.016629227612295 }, "geometry": { "type": "Polygon", "coordinates": [ [ [ 85.54574, 26.06772 ], [ 85.54568, 26.06623 ], [ 85.54443, 26.06471 ], [ 85.54146, 26.06297 ], [ 85.53921, 26.06373 ], [ 85.53766, 26.06679 ], [ 85.53622, 26.06553 ], [ 85.53509, 26.06609 ], [ 85.53443, 26.06547 ], [ 85.53534, 26.06474 ], [ 85.53356, 26.06466 ], [ 85.53577, 26.06381 ], [ 85.52996, 26.06122 ], [ 85.52534, 26.05656 ], [ 85.53311, 26.05535 ], [ 85.53319, 26.05384 ], [ 85.5409, 26.04872 ], [ 85.54387, 26.04578 ], [ 85.5447, 26.04539 ], [ 85.54595, 26.04617 ], [ 85.54988, 26.04266 ], [ 85.55175, 26.04204 ], [ 85.55304, 26.04301 ], [ 85.55601, 26.04282 ], [ 85.56104, 26.04087 ], [ 85.5709, 26.02734 ], [ 85.58068, 26.02014 ], [ 85.58527, 26.01859 ], [ 85.58852, 26.01617 ], [ 85.58996, 26.00929 ], [ 85.59513, 26.00311 ], [ 85.59952, 26.00157 ], [ 85.60279, 26.00273 ], [ 85.60422, 26.00612 ], [ 85.60459, 26.01138 ], [ 85.606, 26.01326 ], [ 85.61242, 26.01553 ], [ 85.61906, 26.01632 ], [ 85.62428, 26.01511 ], [ 85.63147, 26.00633 ], [ 85.63403, 26.00506 ], [ 85.63286, 26.00276 ], [ 85.63179, 25.99604 ], [ 85.63538, 25.99151 ], [ 85.63412, 25.98501 ], [ 85.63225, 25.9814 ], [ 85.62804, 25.97692 ], [ 85.62718, 25.97685 ], [ 85.62595, 25.97399 ], [ 85.6252, 25.97364 ], [ 85.62188, 25.97616 ], [ 85.61844, 25.96914 ], [ 85.61845, 25.96374 ], [ 85.61153, 25.96515 ], [ 85.60915, 25.96763 ], [ 85.60736, 25.96782 ], [ 85.60657, 25.97185 ], [ 85.60528, 25.97321 ], [ 85.59674, 25.97218 ], [ 85.59558, 25.9718 ], [ 85.59507, 25.96992 ], [ 85.59102, 25.97076 ], [ 85.58922, 25.97212 ], [ 85.5877, 25.97558 ], [ 85.58729, 25.9814 ], [ 85.58415, 25.98344 ], [ 85.58215, 25.98371 ], [ 85.58273, 25.98584 ], [ 85.58055, 25.98701 ], [ 85.57994, 25.98871 ], [ 85.57466, 25.98573 ], [ 85.57828, 25.99208 ], [ 85.57347, 25.99385 ], [ 85.57181, 25.99792 ], [ 85.5674, 25.99917 ], [ 85.56755, 26.00165 ], [ 85.56491, 26.00253 ], [ 85.5662, 26.00611 ], [ 85.56489, 26.00857 ], [ 85.56268, 26.0094 ], [ 85.56161, 26.01096 ], [ 85.55879, 26.01177 ], [ 85.55723, 26.01425 ], [ 85.55169, 26.0152 ], [ 85.54605, 26.01253 ], [ 85.53988, 26.01486 ], [ 85.53698, 26.01471 ], [ 85.53555, 26.01313 ], [ 85.53246, 26.00623 ], [ 85.52509, 26.00995 ], [ 85.5218, 26.01041 ], [ 85.52228, 26.01871 ], [ 85.51608, 26.01991 ], [ 85.51537, 26.02078 ], [ 85.51215, 26.02089 ], [ 85.51155, 26.02215 ], [ 85.4987, 26.02213 ], [ 85.49771, 26.02343 ], [ 85.50088, 26.02433 ], [ 85.50116, 26.02307 ], [ 85.50227, 26.02306 ], [ 85.5026, 26.02533 ], [ 85.49496, 26.0277 ], [ 85.49128, 26.02583 ], [ 85.4916, 26.02466 ], [ 85.49353, 26.0244 ], [ 85.49399, 26.02292 ], [ 85.49053, 26.02047 ], [ 85.48974, 26.01824 ], [ 85.48681, 26.01806 ], [ 85.48474, 26.0169 ], [ 85.48146, 26.01939 ], [ 85.47661, 26.02162 ], [ 85.47694, 26.02491 ], [ 85.47805, 26.02463 ], [ 85.47831, 26.02691 ], [ 85.48114, 26.02764 ], [ 85.48102, 26.02601 ], [ 85.48216, 26.0257 ], [ 85.48185, 26.02483 ], [ 85.48348, 26.02434 ], [ 85.4856, 26.02835 ], [ 85.48692, 26.03428 ], [ 85.48958, 26.03808 ], [ 85.48874, 26.04237 ], [ 85.48601, 26.0435 ], [ 85.48618, 26.04744 ], [ 85.48999, 26.04703 ], [ 85.48964, 26.04829 ], [ 85.49035, 26.04871 ], [ 85.49206, 26.0471 ], [ 85.49506, 26.04596 ], [ 85.49627, 26.04444 ], [ 85.49835, 26.04405 ], [ 85.49934, 26.04276 ], [ 85.50552, 26.04266 ], [ 85.50644, 26.0433 ], [ 85.50719, 26.04613 ], [ 85.5058, 26.04672 ], [ 85.50555, 26.0483 ], [ 85.50652, 26.04997 ], [ 85.50754, 26.049 ], [ 85.50787, 26.04942 ], [ 85.5067, 26.05216 ], [ 85.50427, 26.05381 ], [ 85.50628, 26.0577 ], [ 85.50886, 26.05754 ], [ 85.51041, 26.05961 ], [ 85.5224, 26.05987 ], [ 85.52694, 26.06496 ], [ 85.53008, 26.07056 ], [ 85.53609, 26.07407 ], [ 85.54294, 26.072 ], [ 85.54574, 26.06772 ] ] ] } },
{ "type": "Feature", "properties": { "OBJECTID": 6328, "state_lgd": "10", "state_name": "BIHAR", "district_lgd": "216", "district_name": "MUZAFFARPUR", "district_name_source": "district_table", "subdistrict_lgd": "01212", "subdistrict_name": "Musahri", "subdistrict_type": "", "name_corrupted": false, "remarks": "", "label_lon": 85.425064432555828, "label_lat": 26.113053900006058 }, "geometry": { "type": "Polygon", "coordinates": [ [ [ 85.39684, 26.21162 ], [ 85.39594, 26.19756 ], [ 85.39898, 26.19737 ], [ 85.40036, 26.19466 ], [ 85.41268, 26.19083 ], [ 85.42036, 26.18742 ], [ 85.4239, 26.18536 ], [ 85.42689, 26.18244 ], [ 85.42574, 26.17758 ], [ 85.42398, 26.17576 ], [ 85.42168, 26.17571 ], [ 85.41906, 26.17706 ], [ 85.41738, 26.1766 ], [ 85.41451, 26.17777 ], [ 85.41272, 26.17386 ], [ 85.41349, 26.17136 ], [ 85.41771, 26.1713 ], [ 85.42303, 26.1694 ], [ 85.42262, 26.16727 ], [ 85.4269, 26.16648 ], [ 85.42806, 26.16445 ], [ 85.43699, 26.16321 ], [ 85.43731, 26.16036 ], [ 85.43448, 26.15486 ], [ 85.43699, 26.15398 ], [ 85.4372, 26.15225 ], [ 85.43423, 26.15227 ], [ 85.43309, 26.1489 ], [ 85.43622, 26.14771 ], [ 85.43728, 26.15055 ], [ 85.43866, 26.15026 ], [ 85.43954, 26.15252 ], [ 85.44088, 26.15252 ], [ 85.44195, 26.1504 ], [ 85.44554, 26.14989 ], [ 85.44632, 26.14826 ], [ 85.45089, 26.14724 ], [ 85.45114, 26.14577 ], [ 85.45551, 26.14479 ], [ 85.45938, 26.14166 ], [ 85.46299, 26.14665 ], [ 85.4614, 26.14974 ], [ 85.46568, 26.15228 ], [ 85.46831, 26.15284 ], [ 85.47056, 26.15159 ], [ 85.47499, 26.15097 ], [ 85.48038, 26.1476 ], [ 85.4862, 26.14948 ], [ 85.48681, 26.14708 ], [ 85.48611, 26.13985 ], [ 85.48756, 26.13889 ], [ 85.48861, 26.13564 ], [ 85.49071, 26.13519 ], [ 85.49193, 26.13925 ], [ 85.49461, 26.13929 ], [ 85.49638, 26.13713 ], [ 85.49698, 26.13178 ], [ 85.49196, 26.13116 ], [ 85.48729, 26.12895 ], [ 85.48732, 26.12645 ], [ 85.49031, 26.12607 ], [ 85.49694, 26.13027 ], [ 85.50079, 26.12897 ], [ 85.50872, 26.12873 ], [ 85.51452, 26.12664 ], [ 85.51448, 26.12533 ], [ 85.50953, 26.12329 ], [ 85.50776, 26.119 ], [ 85.50775, 26.11534 ], [ 85.51015, 26.10972 ], [ 85.5153, 26.11078 ], [ 85.51653, 26.10971 ], [ 85.51415, 26.10749 ], [ 85.50667, 26.10574 ], [ 85.50474, 26.10378 ], [ 85.50682, 26.10244 ], [ 85.50563, 26.09977 ], [ 85.50683, 26.09797 ], [ 85.51086, 26.09909 ], [ 85.51214, 26.09845 ], [ 85.5096, 26.09543 ], [ 85.51116, 26.09388 ], [ 85.51156, 26.09023 ], [ 85.51065, 26.08882 ], [ 85.50935, 26.08916 ], [ 85.50624, 26.09123 ], [ 85.50645, 26.09463 ], [ 85.50298, 26.09545 ], [ 85.49983, 26.09221 ], [ 85.49884, 26.08752 ], [ 85.49916, 26.08459 ], [ 85.50011, 26.08327 ], [ 85.51219, 26.07968 ], [ 85.51562, 26.07705 ], [ 85.51789, 26.07312 ], [ 85.51829, 26.06953 ], [ 85.516, 26.06728 ], [ 85.51437, 26.06813 ], [ 85.51091, 26.07364 ], [ 85.50744, 26.07465 ], [ 85.50575, 26.07275 ], [ 85.50558, 26.07032 ], [ 85.50958, 26.06643 ], [ 85.51007, 26.06494 ], [ 85.50888, 26.06346 ], [ 85.5052, 26.06207 ], [ 85.50671, 26.06044 ], [ 85.51041, 26.05961 ], [ 85.50886, 26.05754 ], [ 85.50628, 26.0577 ], [ 85.50427, 26.05381 ], [ 85.5067, 26.05216 ], [ 85.50787, 26.04942 ], [ 85.50754, 26.049 ], [ 85.50652, 26.04997 ], [ 85.50555, 26.0483 ], [ 85.5058, 26.04672 ], [ 85.50719, 26.04613 ], [ 85.50591, 26.04288 ], [ 85.50201, 26.04321 ], [ 85.49999, 26.04253 ], [ 85.49035, 26.04871 ], [ 85.48964, 26.04829 ], [ 85.48999, 26.04703 ], [ 85.48618, 26.04744 ], [ 85.48508, 26.0494 ], [ 85.47677, 26.04973 ], [ 85.47459, 26.04752 ], [ 85.47392, 26.0438 ], [ 85.46331, 26.04472 ], [ 85.45939, 26.04568 ], [ 85.45658, 26.04876 ], [ 85.4546, 26.04969 ], [ 85.44926, 26.04899 ], [ 85.44748, 26.05024 ], [ 85.44597, 26.05507 ], [ 85.44477, 26.05563 ], [ 85.44384, 26.05761 ], [ 85.43731, 26.05293 ], [ 85.43373, 26.05683 ], [ 85.43379, 26.0581 ], [ 85.42975, 26.06218 ], [ 85.42375, 26.06206 ], [ 85.42139, 26.06427 ], [ 85.41459, 26.06433 ], [ 85.4141, 26.06286 ], [ 85.4107, 26.06241 ], [ 85.4101, 26.06269 ], [ 85.41019, 26.06724 ], [ 85.40276, 26.07081 ], [ 85.39803, 26.07142 ], [ 85.39681, 26.07339 ], [ 85.39559, 26.07372 ], [ 85.39572, 26.07468 ], [ 85.3946, 26.07581 ], [ 85.39488, 26.07838 ], [ 85.40591, 26.08067 ], [ 85.40572, 26.08207 ], [ 85.39329, 26.082 ], [ 85.38406, 26.0806 ], [ 85.38288, 26.08103 ], [ 85.38263, 26.08302 ], [ 85.38148, 26.08401 ], [ 85.37623, 26.08587 ], [ 85.37289, 26.08468 ], [ 85.36733, 26.08679 ], [ 85.36744, 26.08766 ], [ 85.36265, 26.08837 ], [ 85.36235, 26.08745 ], [ 85.35868, 26.08592 ], [ 85.35737, 26.08397 ], [ 85.35378, 26.08511 ], [ 85.35072, 26.08376 ], [ 85.34596, 26.08522 ], [ 85.34247, 26.08822 ], [ 85.33196, 26.09309 ], [ 85.33021, 26.09273 ], [ 85.32952, 26.09122 ], [ 85.32771, 26.09137 ], [ 85.32627, 26.08956 ], [ 85.3228, 26.08898 ], [ 85.32042, 26.08966 ], [ 85.32439, 26.10013 ], [ 85.31644, 26.1023 ], [ 85.31331, 26.10529 ], [ 85.31094, 26.10603 ], [ 85.31085, 26.1104 ], [ 85.318, 26.10985 ], [ 85.32019, 26.11237 ], [ 85.32067, 26.11851 ], [ 85.32277, 26.12116 ], [ 85.32983, 26.12043 ], [ 85.33103, 26.12269 ], [ 85.33431, 26.12126 ], [ 85.335, 26.12993 ], [ 85.33621, 26.12984 ], [ 85.33605, 26.12854 ], [ 85.33718, 26.12837 ], [ 85.33727, 26.12897 ], [ 85.34237, 26.12715 ], [ 85.34363, 26.12381 ], [ 85.35304, 26.12317 ], [ 85.35335, 26.12632 ], [ 85.35444, 26.12694 ], [ 85.3544, 26.12829 ], [ 85.35183, 26.13039 ], [ 85.35514, 26.13025 ], [ 85.35587, 26.13747 ], [ 85.35804, 26.13903 ], [ 85.35757, 26.14165 ], [ 85.35814, 26.14435 ], [ 85.36003, 26.14589 ], [ 85.36254, 26.14492 ], [ 85.36584, 26.14655 ], [ 85.3706, 26.14564 ], [ 85.37326, 26.14844 ], [ 85.37669, 26.14727 ], [ 85.3762, 26.15074 ], [ 85.37683, 26.15238 ], [ 85.37888, 26.1549 ], [ 85.38603, 26.15891 ], [ 85.38808, 26.16376 ], [ 85.38479, 26.16678 ], [ 85.38544, 26.16857 ], [ 85.38458, 26.17203 ], [ 85.38495, 26.17735 ], [ 85.38392, 26.17946 ], [ 85.38092, 26.18126 ], [ 85.38352, 26.185 ], [ 85.38134, 26.18543 ], [ 85.37927, 26.18442 ], [ 85.3795, 26.18312 ], [ 85.37802, 26.1799 ], [ 85.37553, 26.18397 ], [ 85.36907, 26.18608 ], [ 85.38144, 26.1913 ], [ 85.38135, 26.19309 ], [ 85.37837, 26.19574 ], [ 85.37121, 26.19579 ], [ 85.37055, 26.20001 ], [ 85.37401, 26.19899 ], [ 85.37726, 26.2037 ], [ 85.38036, 26.21129 ], [ 85.38542, 26.21016 ], [ 85.3906, 26.21015 ], [ 85.39684, 26.21162 ] ], [ [ 85.4637, 26.14158 ], [ 85.46836, 26.14132 ], [ 85.47742, 26.13725 ], [ 85.48249, 26.13779 ], [ 85.48233, 26.14196 ], [ 85.47935, 26.14248 ], [ 85.47274, 26.14566 ], [ 85.46914, 26.146 ], [ 85.46473, 26.14428 ], [ 85.46362, 26.14302 ], [ 85.4637, 26.14158 ] ], [ [ 85.38113, 26.15145 ], [ 85.38203, 26.14844 ], [ 85.38347, 26.14908 ], [ 85.38762, 26.14854 ], [ 85.38774, 26.15263 ], [ 85.38688, 26.15414 ], [ 85.38556, 26.15462 ], [ 85.38113, 26.15145 ] ] ] } },
{ "type": "Feature", "properties": { "OBJECTID": 6329, "state_lgd": "10", "state_name": "BIHAR", "district_lgd": "216", "district_name": "MUZAFFARPUR", "district_name_source": "district_table", "subdistrict_lgd": "01213", "subdistrict_name": "Kurhani", "subdistrict_type": "", "name_corrupted": false, "remarks": "", "label_lon": 85.367276960454006, "label_lat": 26.014858834860622 }, "geometry": { "type": "MultiPolygon", "coordinates": [ [ [ [ 85.3228, 26.08898 ], [ 85.32627, 26.08956 ], [ 85.32771, 26.09137 ], [ 85.32952, 26.09122 ], [ 85.33021, 26.09273 ], [ 85.33196, 26.09309 ], [ 85.34247, 26.08822 ], [ 85.34596, 26.08522 ], [ 85.35072, 26.08376 ], [ 85.35378, 26.08511 ], [ 85.35737, 26.08397 ], [ 85.35868, 26.08592 ], [ 85.36235, 26.08745 ], [ 85.36265, 26.08837 ], [ 85.36744, 26.08766 ], [ 85.36733, 26.08679 ], [ 85.37289, 26.08468 ], [ 85.37623, 26.08587 ], [ 85.38148, 26.08401 ], [ 85.38263, 26.08302 ], [ 85.38288, 26.08103 ], [ 85.38406, 26.0806 ], [ 85.39329, 26.082 ], [ 85.40572, 26.08207 ], [ 85.40591, 26.08067 ], [ 85.39488, 26.07838 ], [ 85.3946, 26.07581 ], [ 85.39572, 26.07468 ], [ 85.39559, 26.07372 ], [ 85.39681, 26.07339 ], [ 85.39803, 26.07142 ], [ 85.40276, 26.07081 ], [ 85.41019, 26.06724 ], [ 85.4101, 26.06269 ], [ 85.4107, 26.06241 ], [ 85.4141, 26.06286 ], [ 85.41459, 26.06433 ], [ 85.42139, 26.06427 ], [ 85.42375, 26.06206 ], [ 85.42975, 26.06218 ], [ 85.43379, 26.0581 ], [ 85.43373, 26.05683 ], [ 85.43731, 26.05293 ], [ 85.44384, 26.05761 ], [ 85.44477, 26.05563 ], [ 85.44597, 26.05507 ], [ 85.44748, 26.05024 ], [ 85.44926, 26.04899 ], [ 85.4546, 26.04969 ], [ 85.45658, 26.04876 ], [ 85.45939, 26.04568 ], [ 85.46433, 26.04452 ], [ 85.47392, 26.0438 ], [ 85.47459, 26.04752 ], [ 85.47677, 26.04973 ], [ 85.48508, 26.0494 ], [ 85.48658, 26.04676 ], [ 85.48614, 26.0432 ], [ 85.48851, 26.04267 ], [ 85.48968, 26.03899 ], [ 85.48692, 26.03428 ], [ 85.4856, 26.02835 ], [ 85.48348, 26.02434 ], [ 85.48185, 26.02483 ], [ 85.48216, 26.0257 ], [ 85.48102, 26.02601 ], [ 85.48114, 26.02764 ], [ 85.47831, 26.02691 ], [ 85.47805, 26.02463 ], [ 85.47694, 26.02491 ], [ 85.47661, 26.02162 ], [ 85.47138, 26.02213 ], [ 85.47137, 26.02303 ], [ 85.46698, 26.02468 ], [ 85.46679, 26.02082 ], [ 85.46515, 26.02144 ], [ 85.4627, 26.01332 ], [ 85.45938, 26.01277 ], [ 85.45983, 26.01161 ], [ 85.45756, 26.01201 ], [ 85.4548, 26.00767 ], [ 85.45111, 26.00578 ], [ 85.45016, 26.00343 ], [ 85.44668, 26.00319 ], [ 85.44662, 26.00187 ], [ 85.45179, 26.00131 ], [ 85.45214, 26.0 ], [ 85.45063, 25.99623 ], [ 85.45063, 25.99347 ], [ 85.44743, 25.98721 ], [ 85.44816, 25.98486 ], [ 85.44781, 25.98215 ], [ 85.44621, 25.98021 ], [ 85.44728, 25.9781 ], [ 85.44966, 25.97741 ], [ 85.44893, 25.97161 ], [ 85.44657, 25.9702 ], [ 85.44511, 25.96652 ], [ 85.44459, 25.95759 ], [ 85.4435, 25.95762 ], [ 85.44426, 25.95648 ], [ 85.44312, 25.95666 ], [ 85.44296, 25.95573 ], [ 85.44079, 25.95599 ], [ 85.44036, 25.95278 ], [ 85.43409, 25.94842 ], [ 85.43396, 25.94654 ], [ 85.42988, 25.94792 ], [ 85.42666, 25.9381 ], [ 85.42228, 25.93771 ], [ 85.41909, 25.94001 ], [ 85.41442, 25.94057 ], [ 85.41348, 25.94196 ], [ 85.41403, 25.94402 ], [ 85.40901, 25.94498 ], [ 85.40886, 25.93962 ], [ 85.40636, 25.9396 ], [ 85.40456, 25.93498 ], [ 85.40174, 25.93352 ], [ 85.39235, 25.93602 ], [ 85.38755, 25.93086 ], [ 85.37077, 25.93272 ], [ 85.3702, 25.9353 ], [ 85.36781, 25.93563 ], [ 85.36695, 25.93723 ], [ 85.36519, 25.93746 ], [ 85.36389, 25.94085 ], [ 85.35107, 25.94377 ], [ 85.35005, 25.94609 ], [ 85.3467, 25.94699 ], [ 85.34246, 25.95008 ], [ 85.34178, 25.95206 ], [ 85.33378, 25.95468 ], [ 85.3295, 25.95286 ], [ 85.32098, 25.95128 ], [ 85.31967, 25.94866 ], [ 85.31794, 25.94741 ], [ 85.3165, 25.94747 ], [ 85.31595, 25.94608 ], [ 85.3073, 25.94647 ], [ 85.30543, 25.94867 ], [ 85.30209, 25.94916 ], [ 85.29815, 25.94894 ], [ 85.29763, 25.94704 ], [ 85.29497, 25.9466 ], [ 85.28575, 25.95034 ], [ 85.28608, 25.95352 ], [ 85.28373, 25.955 ], [ 85.28708, 25.95638 ], [ 85.28894, 25.96098 ], [ 85.28879, 25.96675 ], [ 85.28743, 25.96794 ], [ 85.28794, 25.9698 ], [ 85.28901, 25.97049 ], [ 85.29031, 25.97571 ], [ 85.28981, 25.98247 ], [ 85.29167, 25.99342 ], [ 85.29292, 25.99481 ], [ 85.29357, 25.99822 ], [ 85.29039, 25.99896 ], [ 85.28768, 26.00213 ], [ 85.2833, 26.00381 ], [ 85.28195, 26.00542 ], [ 85.28567, 26.01093 ], [ 85.2857, 26.0118 ], [ 85.28479, 26.0119 ], [ 85.2858, 26.01755 ], [ 85.28028, 26.01998 ], [ 85.28023, 26.0218 ], [ 85.27927, 26.02267 ], [ 85.27114, 26.02385 ], [ 85.27064, 26.02614 ], [ 85.27161, 26.0277 ], [ 85.27352, 26.02774 ], [ 85.27407, 26.02862 ], [ 85.28438, 26.02779 ], [ 85.28915, 26.03576 ], [ 85.28906, 26.0381 ], [ 85.2872, 26.03877 ], [ 85.29056, 26.04526 ], [ 85.28165, 26.04659 ], [ 85.27952, 26.04514 ], [ 85.27799, 26.04135 ], [ 85.27217, 26.03909 ], [ 85.26955, 26.04036 ], [ 85.26671, 26.04445 ], [ 85.26518, 26.04464 ], [ 85.26237, 26.05004 ], [ 85.26016, 26.05166 ], [ 85.25961, 26.05351 ], [ 85.26605, 26.05326 ], [ 85.26801, 26.05682 ], [ 85.26881, 26.05707 ], [ 85.27617, 26.05672 ], [ 85.27908, 26.05863 ], [ 85.28415, 26.0576 ], [ 85.28636, 26.06367 ], [ 85.29066, 26.06698 ], [ 85.29146, 26.06842 ], [ 85.28865, 26.07127 ], [ 85.28267, 26.07224 ], [ 85.28285, 26.0759 ], [ 85.28772, 26.07671 ], [ 85.29287, 26.07557 ], [ 85.29334, 26.07611 ], [ 85.29255, 26.07945 ], [ 85.2942, 26.08124 ], [ 85.29585, 26.08739 ], [ 85.29015, 26.0896 ], [ 85.29275, 26.09616 ], [ 85.29791, 26.09676 ], [ 85.29803, 26.10335 ], [ 85.29886, 26.1043 ], [ 85.30514, 26.10478 ], [ 85.31043, 26.10684 ], [ 85.31331, 26.10529 ], [ 85.31644, 26.1023 ], [ 85.32439, 26.10013 ], [ 85.32042, 26.08966 ], [ 85.3228, 26.08898 ] ] ], [ [ [ 85.32019, 26.11237 ], [ 85.318, 26.10985 ], [ 85.31085, 26.1104 ], [ 85.31315, 26.11686 ], [ 85.31572, 26.11744 ], [ 85.31655, 26.11856 ], [ 85.32067, 26.11851 ], [ 85.32019, 26.11237 ] ] ] ] } },
{ "type": "Feature", "properties": { "OBJECTID": 6330, "state_lgd": "10", "state_name": "BIHAR", "district_lgd": "216", "district_name": "MUZAFFARPUR", "district_name_source": "district_table", "subdistrict_lgd": "01214", "subdistrict_name": "Sakra", "subdistrict_type": "", "name_corrupted": false, "remarks": "", "label_lon": 85.528172611538707, "label_lat": 25.962746424479391 }, "geometry": { "type": "Polygon", "coordinates": [ [ [ 85.49496, 26.0277 ], [ 85.5026, 26.02533 ], [ 85.50227, 26.02306 ], [ 85.50116, 26.02307 ], [ 85.50088, 26.02433 ], [ 85.49771, 26.02343 ], [ 85.4987, 26.02213 ], [ 85.51155, 26.02215 ], [ 85.51215, 26.02089 ], [ 85.51537, 26.02078 ], [ 85.51608, 26.01991 ], [ 85.52228, 26.01871 ], [ 85.5218, 26.01041 ], [ 85.52509, 26.00995 ], [ 85.53246, 26.00623 ], [ 85.53555, 26.01313 ], [ 85.53698, 26.01471 ], [ 85.53988, 26.01486 ], [ 85.54605, 26.01253 ], [ 85.55169, 26.0152 ], [ 85.55758, 26.01407 ], [ 85.55879, 26.01177 ], [ 85.56161, 26.01096 ], [ 85.56268, 26.0094 ], [ 85.56489, 26.00857 ], [ 85.5662, 26.00611 ], [ 85.56491, 26.00253 ], [ 85.56755, 26.00165 ], [ 85.5674, 25.99917 ], [ 85.57181, 25.99792 ], [ 85.57347, 25.99385 ], [ 85.57828, 25.99208 ], [ 85.57466, 25.98573 ], [ 85.57994, 25.98871 ], [ 85.58055, 25.98701 ], [ 85.58273, 25.98584 ], [ 85.58215, 25.98371 ], [ 85.58415, 25.98344 ], [ 85.58729, 25.9814 ], [ 85.5877, 25.97558 ], [ 85.58922, 25.97212 ], [ 85.59282, 25.97023 ], [ 85.59507, 25.96992 ], [ 85.59558, 25.9718 ], [ 85.59674, 25.97218 ], [ 85.60528, 25.97321 ], [ 85.60657, 25.97185 ], [ 85.60736, 25.96782 ], [ 85.60915, 25.96763 ], [ 85.61153, 25.96515 ], [ 85.61845, 25.96374 ], [ 85.61844, 25.96914 ], [ 85.62188, 25.97616 ], [ 85.6252, 25.97364 ], [ 85.62595, 25.97399 ], [ 85.62718, 25.97685 ], [ 85.62804, 25.97692 ], [ 85.63292, 25.98231 ], [ 85.63445, 25.98736 ], [ 85.6412, 25.98439 ], [ 85.64076, 25.98278 ], [ 85.63921, 25.98288 ], [ 85.63818, 25.98062 ], [ 85.64047, 25.97621 ], [ 85.63487, 25.97175 ], [ 85.63269, 25.97096 ], [ 85.63293, 25.96731 ], [ 85.63017, 25.95869 ], [ 85.63195, 25.94834 ], [ 85.63462, 25.94293 ], [ 85.63583, 25.942 ], [ 85.64206, 25.94178 ], [ 85.64233, 25.94056 ], [ 85.64427, 25.94009 ], [ 85.64137, 25.93929 ], [ 85.64038, 25.93677 ], [ 85.64001, 25.92999 ], [ 85.63886, 25.92691 ], [ 85.63925, 25.92301 ], [ 85.6403, 25.92267 ], [ 85.64015, 25.92208 ], [ 85.63541, 25.92213 ], [ 85.63476, 25.92074 ], [ 85.63172, 25.92076 ], [ 85.63109, 25.9197 ], [ 85.62524, 25.91967 ], [ 85.62518, 25.92338 ], [ 85.62207, 25.92311 ], [ 85.61584, 25.92672 ], [ 85.61159, 25.92816 ], [ 85.61118, 25.92734 ], [ 85.61245, 25.9261 ], [ 85.61216, 25.92519 ], [ 85.60695, 25.92729 ], [ 85.60084, 25.92753 ], [ 85.60069, 25.92605 ], [ 85.59767, 25.92489 ], [ 85.59753, 25.92283 ], [ 85.59009, 25.92293 ], [ 85.58933, 25.92096 ], [ 85.58263, 25.92164 ], [ 85.5811, 25.92273 ], [ 85.58064, 25.92635 ], [ 85.57667, 25.92582 ], [ 85.57653, 25.92352 ], [ 85.57274, 25.92393 ], [ 85.57033, 25.92567 ], [ 85.56683, 25.92605 ], [ 85.56387, 25.92517 ], [ 85.56357, 25.92448 ], [ 85.56292, 25.92044 ], [ 85.56388, 25.91963 ], [ 85.56108, 25.91441 ], [ 85.56138, 25.91077 ], [ 85.55796, 25.90944 ], [ 85.5507, 25.91049 ], [ 85.54292, 25.91293 ], [ 85.54198, 25.91441 ], [ 85.54239, 25.91705 ], [ 85.53693, 25.92095 ], [ 85.53732, 25.92242 ], [ 85.5317, 25.92239 ], [ 85.5313, 25.92166 ], [ 85.52976, 25.92168 ], [ 85.52848, 25.91988 ], [ 85.52766, 25.91992 ], [ 85.52804, 25.92085 ], [ 85.52733, 25.92085 ], [ 85.52383, 25.91662 ], [ 85.51422, 25.91065 ], [ 85.51359, 25.9094 ], [ 85.51409, 25.9051 ], [ 85.51262, 25.90524 ], [ 85.50963, 25.90355 ], [ 85.50633, 25.90605 ], [ 85.50603, 25.90906 ], [ 85.50454, 25.91048 ], [ 85.49783, 25.90933 ], [ 85.49512, 25.91018 ], [ 85.49317, 25.913 ], [ 85.49297, 25.92076 ], [ 85.48762, 25.92435 ], [ 85.48676, 25.92684 ], [ 85.47549, 25.93017 ], [ 85.46892, 25.93445 ], [ 85.46811, 25.93424 ], [ 85.46974, 25.93112 ], [ 85.46913, 25.92669 ], [ 85.46613, 25.92679 ], [ 85.46319, 25.92529 ], [ 85.45769, 25.92545 ], [ 85.45641, 25.92477 ], [ 85.4531, 25.92489 ], [ 85.45226, 25.92402 ], [ 85.44669, 25.92539 ], [ 85.44621, 25.92405 ], [ 85.44195, 25.92457 ], [ 85.44202, 25.92537 ], [ 85.44076, 25.92544 ], [ 85.4397, 25.92742 ], [ 85.43758, 25.92712 ], [ 85.43778, 25.93045 ], [ 85.43375, 25.93114 ], [ 85.43351, 25.93681 ], [ 85.43107, 25.93626 ], [ 85.4292, 25.93799 ], [ 85.42666, 25.9381 ], [ 85.42988, 25.94792 ], [ 85.43396, 25.94654 ], [ 85.43409, 25.94842 ], [ 85.44036, 25.95278 ], [ 85.44079, 25.95599 ], [ 85.44296, 25.95573 ], [ 85.44312, 25.95666 ], [ 85.44426, 25.95648 ], [ 85.4435, 25.95762 ], [ 85.44459, 25.95759 ], [ 85.44511, 25.96652 ], [ 85.44657, 25.9702 ], [ 85.44893, 25.97161 ], [ 85.44966, 25.97741 ], [ 85.44728, 25.9781 ], [ 85.44621, 25.98021 ], [ 85.44781, 25.98215 ], [ 85.44816, 25.98486 ], [ 85.44743, 25.98721 ], [ 85.45063, 25.99347 ], [ 85.45063, 25.99623 ], [ 85.45214, 26.0 ], [ 85.45179, 26.00131 ], [ 85.44662, 26.00187 ], [ 85.44668, 26.00319 ], [ 85.45016, 26.00343 ], [ 85.45111, 26.00578 ], [ 85.4548, 26.00767 ], [ 85.45756, 26.01201 ], [ 85.45983, 26.01161 ], [ 85.45938, 26.01277 ], [ 85.4627, 26.01332 ], [ 85.46515, 26.02144 ], [ 85.46679, 26.02082 ], [ 85.46698, 26.02468 ], [ 85.47137, 26.02303 ], [ 85.47138, 26.02213 ], [ 85.47661, 26.02162 ], [ 85.48146, 26.01939 ], [ 85.48474, 26.0169 ], [ 85.48681, 26.01806 ], [ 85.48974, 26.01824 ], [ 85.49053, 26.02047 ], [ 85.49399, 26.02292 ], [ 85.49353, 26.0244 ], [ 85.4916, 26.02466 ], [ 85.49128, 26.02583 ], [ 85.49204, 26.02667 ], [ 85.49327, 26.02644 ], [ 85.49496, 26.0277 ] ] ] } }
]
}
