{
"type": "FeatureCollection",
"name": "233_KAIMUR_BHABUA",
"crs": { "type": "name", "properties": { "name": "urn:ogc:def:crs:OGC:1.3:CRS84" } },
"xy_coordinate_resolution": 1e-05,
"features": [
{ "type": "Feature", "properties": { "OBJECTID": 6558, "state_lgd": "10", "state_name": "BIHAR", "district_lgd": "233", "district_name": "KAIMUR (BHABUA)", "district_name_source": "district_table", "subdistrict_lgd": "01446", "subdistrict_name": "Ramgarh", "subdistrict_type": "", "name_corrupted": false, "remarks": "", "label_lon": 83.668844440446335, "label_lat": 25.295095340315708 }, "geometry": { "type": "Polygon", "coordinates": [ [ [ 83.67666, 25.36434 ], [ 83.6796, 25.36609 ], [ 83.67874, 25.36207 ], [ 83.68266, 25.35976 ], [ 83.68808, 25.3595 ], [ 83.6888, 25.35641 ], [ 83.6858, 25.35325 ], [ 83.68478, 25.34963 ], [ 83.68377, 25.34861 ], [ 83.68389, 25.34549 ], [ 83.6812, 25.34167 ], [ 83.67764, 25.334 ], [ 83.67867, 25.33283 ], [ 83.67846, 25.33132 ], [ 83.67447, 25.32519 ], [ 83.67463, 25.32308 ], [ 83.68017, 25.32453 ], [ 83.68479, 25.32836 ], [ 83.68723, 25.32839 ], [ 83.68869, 25.32643 ], [ 83.68866, 25.32529 ], [ 83.68697, 25.3241 ], [ 83.68786, 25.32102 ], [ 83.69069, 25.32139 ], [ 83.6928, 25.32297 ], [ 83.70164, 25.32378 ], [ 83.70349, 25.32048 ], [ 83.70939, 25.31909 ], [ 83.70954, 25.31517 ], [ 83.7176, 25.31388 ], [ 83.71801, 25.31296 ], [ 83.71679, 25.30705 ], [ 83.71983, 25.30649 ], [ 83.72079, 25.30835 ], [ 83.72178, 25.30553 ], [ 83.7232, 25.30458 ], [ 83.72723, 25.30497 ], [ 83.7292, 25.30651 ], [ 83.73836, 25.30496 ], [ 83.74272, 25.30572 ], [ 83.74324, 25.30742 ], [ 83.74303, 25.3096 ], [ 83.74109, 25.31283 ], [ 83.74228, 25.31389 ], [ 83.74229, 25.31676 ], [ 83.74335, 25.31753 ], [ 83.74392, 25.32386 ], [ 83.74582, 25.32398 ], [ 83.74549, 25.32635 ], [ 83.74687, 25.32725 ], [ 83.746, 25.3304 ], [ 83.74994, 25.32944 ], [ 83.75143, 25.33152 ], [ 83.75512, 25.33279 ], [ 83.75731, 25.33444 ], [ 83.75958, 25.33346 ], [ 83.76129, 25.33157 ], [ 83.76811, 25.32924 ], [ 83.7673, 25.32812 ], [ 83.7682, 25.32719 ], [ 83.76729, 25.32609 ], [ 83.76928, 25.32592 ], [ 83.76975, 25.32399 ], [ 83.77217, 25.32302 ], [ 83.77039, 25.32113 ], [ 83.77248, 25.31959 ], [ 83.77089, 25.31807 ], [ 83.77368, 25.31735 ], [ 83.7728, 25.31591 ], [ 83.77371, 25.31431 ], [ 83.77715, 25.31275 ], [ 83.7795, 25.30941 ], [ 83.77951, 25.30825 ], [ 83.78116, 25.30777 ], [ 83.78064, 25.30614 ], [ 83.78238, 25.30485 ], [ 83.78369, 25.30598 ], [ 83.78547, 25.29762 ], [ 83.78697, 25.29535 ], [ 83.78583, 25.29369 ], [ 83.78715, 25.2919 ], [ 83.78753, 25.28922 ], [ 83.78888, 25.28817 ], [ 83.78859, 25.28674 ], [ 83.79061, 25.28602 ], [ 83.79158, 25.28393 ], [ 83.79372, 25.28292 ], [ 83.79218, 25.27979 ], [ 83.7907, 25.27983 ], [ 83.79251, 25.27788 ], [ 83.79025, 25.27746 ], [ 83.78955, 25.27555 ], [ 83.78757, 25.2745 ], [ 83.78697, 25.26966 ], [ 83.78526, 25.26946 ], [ 83.78656, 25.26753 ], [ 83.79067, 25.26748 ], [ 83.78968, 25.26476 ], [ 83.78848, 25.26437 ], [ 83.7901, 25.26263 ], [ 83.78919, 25.26048 ], [ 83.78465, 25.2615 ], [ 83.78061, 25.26108 ], [ 83.77263, 25.26306 ], [ 83.75705, 25.2644 ], [ 83.75514, 25.26351 ], [ 83.75329, 25.25763 ], [ 83.7489, 25.2519 ], [ 83.73877, 25.25236 ], [ 83.7372, 25.25605 ], [ 83.73296, 25.25432 ], [ 83.72927, 25.25441 ], [ 83.72573, 25.25299 ], [ 83.72145, 25.25471 ], [ 83.71888, 25.25368 ], [ 83.71752, 25.25509 ], [ 83.71781, 25.25787 ], [ 83.71709, 25.25975 ], [ 83.7139, 25.25992 ], [ 83.71035, 25.26127 ], [ 83.70469, 25.25931 ], [ 83.70494, 25.26163 ], [ 83.70409, 25.26271 ], [ 83.70501, 25.26688 ], [ 83.7062, 25.26744 ], [ 83.70782, 25.27095 ], [ 83.71258, 25.27079 ], [ 83.71308, 25.27554 ], [ 83.71062, 25.27611 ], [ 83.70162, 25.27559 ], [ 83.70122, 25.27382 ], [ 83.70011, 25.27389 ], [ 83.69837, 25.26542 ], [ 83.6974, 25.26521 ], [ 83.69623, 25.26314 ], [ 83.69097, 25.26341 ], [ 83.69053, 25.26494 ], [ 83.6847, 25.26974 ], [ 83.68366, 25.27179 ], [ 83.68484, 25.27344 ], [ 83.68094, 25.27537 ], [ 83.67937, 25.27792 ], [ 83.68041, 25.28041 ], [ 83.67964, 25.28255 ], [ 83.68009, 25.28339 ], [ 83.68396, 25.28432 ], [ 83.68011, 25.29177 ], [ 83.67265, 25.29382 ], [ 83.67118, 25.29309 ], [ 83.66988, 25.28984 ], [ 83.67049, 25.28755 ], [ 83.67117, 25.28619 ], [ 83.67884, 25.28198 ], [ 83.6783, 25.28125 ], [ 83.67351, 25.28237 ], [ 83.66794, 25.28172 ], [ 83.66258, 25.28293 ], [ 83.66492, 25.28031 ], [ 83.66512, 25.27913 ], [ 83.6638, 25.27719 ], [ 83.66545, 25.27523 ], [ 83.66501, 25.27333 ], [ 83.66206, 25.26927 ], [ 83.66189, 25.26763 ], [ 83.66047, 25.26715 ], [ 83.65809, 25.26885 ], [ 83.6568, 25.26871 ], [ 83.65467, 25.26541 ], [ 83.65174, 25.26365 ], [ 83.64708, 25.26663 ], [ 83.64839, 25.26849 ], [ 83.64381, 25.26852 ], [ 83.64215, 25.27481 ], [ 83.64135, 25.2748 ], [ 83.641, 25.2711 ], [ 83.63985, 25.271 ], [ 83.63673, 25.27285 ], [ 83.63231, 25.27163 ], [ 83.62633, 25.26084 ], [ 83.6278, 25.25859 ], [ 83.6328, 25.25826 ], [ 83.633, 25.25683 ], [ 83.63173, 25.25459 ], [ 83.62472, 25.25716 ], [ 83.61506, 25.25697 ], [ 83.61596, 25.25114 ], [ 83.61513, 25.24982 ], [ 83.61018, 25.24826 ], [ 83.59674, 25.25295 ], [ 83.59313, 25.25042 ], [ 83.58559, 25.25104 ], [ 83.58463, 25.25049 ], [ 83.58357, 25.24705 ], [ 83.58084, 25.24561 ], [ 83.58067, 25.24112 ], [ 83.57882, 25.23959 ], [ 83.5786, 25.23682 ], [ 83.57734, 25.23644 ], [ 83.57529, 25.23719 ], [ 83.56682, 25.24491 ], [ 83.56414, 25.24587 ], [ 83.56225, 25.24311 ], [ 83.56029, 25.24543 ], [ 83.5556, 25.24733 ], [ 83.55623, 25.24946 ], [ 83.55575, 25.25037 ], [ 83.55298, 25.25147 ], [ 83.5531, 25.25311 ], [ 83.55885, 25.25484 ], [ 83.55904, 25.25632 ], [ 83.55692, 25.25694 ], [ 83.55811, 25.26368 ], [ 83.5608, 25.26381 ], [ 83.56139, 25.26558 ], [ 83.56429, 25.26593 ], [ 83.56551, 25.26866 ], [ 83.56347, 25.27033 ], [ 83.55655, 25.27283 ], [ 83.55397, 25.27529 ], [ 83.5531, 25.27965 ], [ 83.55573, 25.28673 ], [ 83.55973, 25.28415 ], [ 83.56099, 25.28409 ], [ 83.56133, 25.28742 ], [ 83.56258, 25.28756 ], [ 83.56304, 25.29055 ], [ 83.56508, 25.29032 ], [ 83.56788, 25.29294 ], [ 83.57926, 25.29089 ], [ 83.57968, 25.29167 ], [ 83.58199, 25.29124 ], [ 83.58256, 25.29177 ], [ 83.5824, 25.29261 ], [ 83.57721, 25.29412 ], [ 83.57759, 25.29849 ], [ 83.57605, 25.30004 ], [ 83.57652, 25.30279 ], [ 83.57552, 25.30762 ], [ 83.5772, 25.31055 ], [ 83.57561, 25.31341 ], [ 83.57624, 25.31504 ], [ 83.57872, 25.31681 ], [ 83.58062, 25.31709 ], [ 83.58389, 25.31517 ], [ 83.58574, 25.31531 ], [ 83.58682, 25.31706 ], [ 83.5867, 25.32035 ], [ 83.58778, 25.32203 ], [ 83.59143, 25.32371 ], [ 83.59705, 25.32797 ], [ 83.59927, 25.32866 ], [ 83.60601, 25.3287 ], [ 83.6081, 25.33152 ], [ 83.61998, 25.33189 ], [ 83.62138, 25.33147 ], [ 83.62404, 25.32871 ], [ 83.62844, 25.32852 ], [ 83.62976, 25.33005 ], [ 83.62989, 25.33386 ], [ 83.63054, 25.33449 ], [ 83.63414, 25.33435 ], [ 83.63515, 25.33584 ], [ 83.63371, 25.34321 ], [ 83.64219, 25.33973 ], [ 83.6463, 25.34247 ], [ 83.64769, 25.33936 ], [ 83.6488, 25.33927 ], [ 83.64933, 25.3445 ], [ 83.65221, 25.34682 ], [ 83.65281, 25.34834 ], [ 83.6523, 25.34988 ], [ 83.6492, 25.35241 ], [ 83.64916, 25.35399 ], [ 83.65135, 25.3574 ], [ 83.65453, 25.35688 ], [ 83.6571, 25.35824 ], [ 83.65794, 25.35963 ], [ 83.6579, 25.36221 ], [ 83.65595, 25.36836 ], [ 83.65674, 25.36849 ], [ 83.6609, 25.36307 ], [ 83.66439, 25.36191 ], [ 83.66709, 25.36272 ], [ 83.66363, 25.3727 ], [ 83.66507, 25.37239 ], [ 83.67109, 25.36755 ], [ 83.67666, 25.36434 ] ] ] } },
{ "type": "Feature", "properties": { "OBJECTID": 6559, "state_lgd": "10", "state_name": "BIHAR", "district_lgd": "233", "district_name": "KAIMUR (BHABUA)", "district_name_source": "district_table", "subdistrict_lgd": "01447", "subdistrict_name": "Nuaon", "subdistrict_type": "", "name_corrupted": false, "remarks": "", "label_lon": 83.773969926044487, "label_lat": 25.333318555321554 }, "geometry": { "type": "Polygon", "coordinates": [ [ [ 83.75546, 25.40447 ], [ 83.76627, 25.40095 ], [ 83.76699, 25.39917 ], [ 83.76627, 25.3974 ], [ 83.75754, 25.39718 ], [ 83.7557, 25.39609 ], [ 83.75482, 25.39327 ], [ 83.75561, 25.39129 ], [ 83.75778, 25.38952 ], [ 83.76838, 25.38622 ], [ 83.76954, 25.38733 ], [ 83.76914, 25.39339 ], [ 83.7717, 25.39741 ], [ 83.7763, 25.39903 ], [ 83.78264, 25.39704 ], [ 83.78158, 25.39588 ], [ 83.7817, 25.39234 ], [ 83.77885, 25.39163 ], [ 83.77639, 25.38858 ], [ 83.77223, 25.38597 ], [ 83.77404, 25.38416 ], [ 83.77649, 25.38411 ], [ 83.77582, 25.3815 ], [ 83.77627, 25.37803 ], [ 83.77958, 25.3774 ], [ 83.77945, 25.37609 ], [ 83.77708, 25.37453 ], [ 83.7795, 25.37329 ], [ 83.77834, 25.37116 ], [ 83.77918, 25.36931 ], [ 83.7787, 25.36793 ], [ 83.78211, 25.36748 ], [ 83.78433, 25.36827 ], [ 83.78437, 25.36957 ], [ 83.7854, 25.37007 ], [ 83.78708, 25.36856 ], [ 83.78886, 25.36933 ], [ 83.79007, 25.36754 ], [ 83.79244, 25.36862 ], [ 83.79362, 25.36709 ], [ 83.79791, 25.36977 ], [ 83.79922, 25.36829 ], [ 83.80145, 25.36774 ], [ 83.80095, 25.37149 ], [ 83.8029, 25.37076 ], [ 83.8056, 25.37167 ], [ 83.80818, 25.37049 ], [ 83.80987, 25.37149 ], [ 83.81156, 25.36984 ], [ 83.8107, 25.36815 ], [ 83.81198, 25.36625 ], [ 83.81027, 25.36549 ], [ 83.81038, 25.36406 ], [ 83.81106, 25.36343 ], [ 83.81285, 25.364 ], [ 83.81282, 25.36242 ], [ 83.8148, 25.36141 ], [ 83.81494, 25.35841 ], [ 83.81849, 25.35515 ], [ 83.82125, 25.35107 ], [ 83.82472, 25.35132 ], [ 83.82483, 25.3502 ], [ 83.82828, 25.34817 ], [ 83.82762, 25.34707 ], [ 83.82962, 25.3448 ], [ 83.83043, 25.34583 ], [ 83.83218, 25.34444 ], [ 83.83334, 25.34483 ], [ 83.83647, 25.34384 ], [ 83.83769, 25.34481 ], [ 83.83854, 25.3439 ], [ 83.83952, 25.3441 ], [ 83.83975, 25.34234 ], [ 83.84396, 25.33991 ], [ 83.84369, 25.3389 ], [ 83.84214, 25.33815 ], [ 83.84209, 25.33651 ], [ 83.84473, 25.33462 ], [ 83.84568, 25.33545 ], [ 83.84699, 25.3343 ], [ 83.85118, 25.33366 ], [ 83.85637, 25.33029 ], [ 83.85876, 25.33035 ], [ 83.86176, 25.32749 ], [ 83.86311, 25.32826 ], [ 83.86375, 25.32714 ], [ 83.86494, 25.32711 ], [ 83.86424, 25.32554 ], [ 83.86711, 25.32484 ], [ 83.86698, 25.32305 ], [ 83.86891, 25.32146 ], [ 83.86873, 25.31952 ], [ 83.87056, 25.31922 ], [ 83.87059, 25.31805 ], [ 83.87325, 25.31719 ], [ 83.87401, 25.31525 ], [ 83.8683, 25.3054 ], [ 83.86615, 25.30299 ], [ 83.86516, 25.29975 ], [ 83.86425, 25.29926 ], [ 83.8576, 25.3 ], [ 83.8572, 25.29604 ], [ 83.85838, 25.29585 ], [ 83.8568, 25.28908 ], [ 83.85376, 25.28978 ], [ 83.84657, 25.29508 ], [ 83.84569, 25.29413 ], [ 83.84141, 25.2957 ], [ 83.84051, 25.29481 ], [ 83.84111, 25.29292 ], [ 83.83936, 25.29256 ], [ 83.83901, 25.29059 ], [ 83.83791, 25.29071 ], [ 83.83756, 25.28661 ], [ 83.83334, 25.28589 ], [ 83.83246, 25.28426 ], [ 83.83274, 25.27774 ], [ 83.83587, 25.27734 ], [ 83.83626, 25.27641 ], [ 83.83525, 25.2687 ], [ 83.83594, 25.26864 ], [ 83.83602, 25.26714 ], [ 83.83538, 25.26598 ], [ 83.82976, 25.26527 ], [ 83.83054, 25.26319 ], [ 83.83465, 25.2636 ], [ 83.83676, 25.26266 ], [ 83.83807, 25.26024 ], [ 83.84689, 25.25752 ], [ 83.85121, 25.25737 ], [ 83.85097, 25.25412 ], [ 83.85407, 25.25285 ], [ 83.85999, 25.24781 ], [ 83.85683, 25.24848 ], [ 83.85587, 25.24771 ], [ 83.85322, 25.24767 ], [ 83.85192, 25.24401 ], [ 83.84834, 25.24485 ], [ 83.84055, 25.24456 ], [ 83.83883, 25.24343 ], [ 83.8351, 25.24369 ], [ 83.83501, 25.24296 ], [ 83.83306, 25.24259 ], [ 83.8314, 25.23769 ], [ 83.82872, 25.23835 ], [ 83.82567, 25.24268 ], [ 83.82121, 25.24482 ], [ 83.82136, 25.24913 ], [ 83.82008, 25.25264 ], [ 83.82318, 25.25351 ], [ 83.82423, 25.25804 ], [ 83.82281, 25.26218 ], [ 83.82299, 25.2638 ], [ 83.82182, 25.26445 ], [ 83.82169, 25.26732 ], [ 83.81853, 25.26725 ], [ 83.81796, 25.26588 ], [ 83.81492, 25.26492 ], [ 83.81534, 25.26411 ], [ 83.81413, 25.26269 ], [ 83.80943, 25.26212 ], [ 83.80904, 25.26339 ], [ 83.80471, 25.26647 ], [ 83.80365, 25.2664 ], [ 83.80232, 25.2657 ], [ 83.80281, 25.26165 ], [ 83.80131, 25.26157 ], [ 83.80207, 25.2561 ], [ 83.8014, 25.25232 ], [ 83.79031, 25.25226 ], [ 83.78835, 25.25715 ], [ 83.79011, 25.26263 ], [ 83.78845, 25.26393 ], [ 83.78991, 25.2651 ], [ 83.79067, 25.26748 ], [ 83.78656, 25.26754 ], [ 83.78526, 25.26946 ], [ 83.78697, 25.26966 ], [ 83.78757, 25.2745 ], [ 83.78955, 25.27555 ], [ 83.79025, 25.27746 ], [ 83.79251, 25.27788 ], [ 83.7907, 25.27983 ], [ 83.79218, 25.27979 ], [ 83.79372, 25.28292 ], [ 83.79158, 25.28393 ], [ 83.79061, 25.28602 ], [ 83.78859, 25.28674 ], [ 83.78888, 25.28817 ], [ 83.78753, 25.28922 ], [ 83.78715, 25.2919 ], [ 83.78583, 25.2937 ], [ 83.78697, 25.29535 ], [ 83.78547, 25.29762 ], [ 83.78369, 25.30599 ], [ 83.78238, 25.30485 ], [ 83.78064, 25.30614 ], [ 83.78116, 25.30777 ], [ 83.77951, 25.30825 ], [ 83.7795, 25.30941 ], [ 83.77715, 25.31275 ], [ 83.77371, 25.31431 ], [ 83.7728, 25.31591 ], [ 83.77368, 25.31735 ], [ 83.77089, 25.31807 ], [ 83.77248, 25.31959 ], [ 83.77039, 25.32113 ], [ 83.77217, 25.32302 ], [ 83.76975, 25.32399 ], [ 83.76928, 25.32592 ], [ 83.76729, 25.32609 ], [ 83.7682, 25.32719 ], [ 83.7673, 25.32812 ], [ 83.76811, 25.32924 ], [ 83.76129, 25.33157 ], [ 83.75958, 25.33346 ], [ 83.75731, 25.33444 ], [ 83.75512, 25.33279 ], [ 83.75143, 25.33152 ], [ 83.74994, 25.32944 ], [ 83.746, 25.3304 ], [ 83.74687, 25.32725 ], [ 83.74549, 25.32635 ], [ 83.74582, 25.32398 ], [ 83.74392, 25.32386 ], [ 83.74335, 25.31753 ], [ 83.74229, 25.31676 ], [ 83.74228, 25.3139 ], [ 83.74109, 25.31283 ], [ 83.74303, 25.3096 ], [ 83.74324, 25.30742 ], [ 83.74272, 25.30572 ], [ 83.73836, 25.30496 ], [ 83.7292, 25.30651 ], [ 83.72723, 25.30497 ], [ 83.7232, 25.30458 ], [ 83.72178, 25.30553 ], [ 83.72079, 25.30835 ], [ 83.71983, 25.30649 ], [ 83.71679, 25.30705 ], [ 83.71801, 25.31296 ], [ 83.7176, 25.31388 ], [ 83.70954, 25.31517 ], [ 83.70939, 25.31909 ], [ 83.70349, 25.32048 ], [ 83.70164, 25.32378 ], [ 83.6928, 25.32297 ], [ 83.69069, 25.32139 ], [ 83.68786, 25.32102 ], [ 83.68697, 25.3241 ], [ 83.68866, 25.32529 ], [ 83.6887, 25.32643 ], [ 83.68723, 25.32839 ], [ 83.68479, 25.32836 ], [ 83.68017, 25.32453 ], [ 83.67463, 25.32308 ], [ 83.67447, 25.32519 ], [ 83.67846, 25.33132 ], [ 83.67867, 25.33283 ], [ 83.67764, 25.334 ], [ 83.6812, 25.34168 ], [ 83.68389, 25.3455 ], [ 83.68378, 25.34861 ], [ 83.68478, 25.34963 ], [ 83.6858, 25.35325 ], [ 83.6888, 25.35641 ], [ 83.68808, 25.3595 ], [ 83.68266, 25.35976 ], [ 83.67874, 25.36207 ], [ 83.6796, 25.36609 ], [ 83.68899, 25.36714 ], [ 83.69465, 25.37081 ], [ 83.68856, 25.37632 ], [ 83.68442, 25.37611 ], [ 83.6829, 25.37691 ], [ 83.68206, 25.37862 ], [ 83.68263, 25.37995 ], [ 83.69143, 25.38417 ], [ 83.69655, 25.38247 ], [ 83.69443, 25.38585 ], [ 83.69477, 25.38972 ], [ 83.70235, 25.39647 ], [ 83.70396, 25.39633 ], [ 83.70526, 25.39468 ], [ 83.70536, 25.38883 ], [ 83.70661, 25.38635 ], [ 83.71012, 25.38605 ], [ 83.71362, 25.3935 ], [ 83.71743, 25.39752 ], [ 83.72446, 25.40001 ], [ 83.73059, 25.39743 ], [ 83.73235, 25.39815 ], [ 83.73333, 25.39999 ], [ 83.73407, 25.4062 ], [ 83.73968, 25.41048 ], [ 83.74148, 25.41037 ], [ 83.74286, 25.40912 ], [ 83.7444, 25.405 ], [ 83.74451, 25.40101 ], [ 83.74581, 25.40044 ], [ 83.75546, 25.40447 ] ] ] } },
{ "type": "Feature", "properties": { "OBJECTID": 6560, "state_lgd": "10", "state_name": "BIHAR", "district_lgd": "233", "district_name": "KAIMUR (BHABUA)", "district_name_source": "district_table", "subdistrict_lgd": "01448", "subdistrict_name": "Kudra", "subdistrict_type": "", "name_corrupted": false, "remarks": "", "label_lon": 83.780309677287178, "label_lat": 25.111127629635668 }, "geometry": { "type": "Polygon", "coordinates": [ [ [ 83.82281, 25.26218 ], [ 83.82423, 25.25804 ], [ 83.82385, 25.25576 ], [ 83.82318, 25.25351 ], [ 83.82008, 25.25264 ], [ 83.82136, 25.24913 ], [ 83.82121, 25.24482 ], [ 83.82567, 25.24268 ], [ 83.82872, 25.23835 ], [ 83.8314, 25.23769 ], [ 83.82748, 25.23186 ], [ 83.82615, 25.22369 ], [ 83.82446, 25.22387 ], [ 83.82402, 25.21846 ], [ 83.82286, 25.21843 ], [ 83.82239, 25.21991 ], [ 83.8203, 25.21982 ], [ 83.8172, 25.21908 ], [ 83.81682, 25.21644 ], [ 83.81339, 25.21665 ], [ 83.81314, 25.21513 ], [ 83.80686, 25.21568 ], [ 83.80637, 25.21428 ], [ 83.8069, 25.21359 ], [ 83.80475, 25.21275 ], [ 83.80587, 25.21238 ], [ 83.80454, 25.21098 ], [ 83.80537, 25.211 ], [ 83.80549, 25.2093 ], [ 83.80426, 25.20747 ], [ 83.80542, 25.20609 ], [ 83.80684, 25.20717 ], [ 83.80727, 25.20629 ], [ 83.80988, 25.20763 ], [ 83.81189, 25.20293 ], [ 83.81346, 25.20323 ], [ 83.81415, 25.20175 ], [ 83.81248, 25.19975 ], [ 83.81304, 25.19732 ], [ 83.81212, 25.19354 ], [ 83.81275, 25.19105 ], [ 83.81189, 25.18447 ], [ 83.81067, 25.18116 ], [ 83.80765, 25.18186 ], [ 83.80663, 25.17749 ], [ 83.82104, 25.17479 ], [ 83.8202, 25.16727 ], [ 83.82097, 25.16349 ], [ 83.8227, 25.16296 ], [ 83.82454, 25.16088 ], [ 83.82358, 25.15857 ], [ 83.8233, 25.1532 ], [ 83.81381, 25.15353 ], [ 83.81396, 25.14718 ], [ 83.81936, 25.14669 ], [ 83.81846, 25.14346 ], [ 83.81753, 25.14311 ], [ 83.817, 25.13756 ], [ 83.81495, 25.133 ], [ 83.81407, 25.12753 ], [ 83.80942, 25.12758 ], [ 83.80715, 25.1163 ], [ 83.80574, 25.11594 ], [ 83.80426, 25.11181 ], [ 83.80565, 25.10906 ], [ 83.80577, 25.10588 ], [ 83.80977, 25.10051 ], [ 83.81274, 25.09916 ], [ 83.81154, 25.09643 ], [ 83.81321, 25.09468 ], [ 83.81568, 25.09384 ], [ 83.81677, 25.09078 ], [ 83.81868, 25.08916 ], [ 83.82108, 25.08026 ], [ 83.82218, 25.07885 ], [ 83.8221, 25.07647 ], [ 83.82432, 25.0699 ], [ 83.8239, 25.06812 ], [ 83.82536, 25.06665 ], [ 83.82772, 25.05759 ], [ 83.82863, 25.0498 ], [ 83.83018, 25.04857 ], [ 83.83012, 25.04613 ], [ 83.83141, 25.04348 ], [ 83.83035, 25.04046 ], [ 83.83589, 25.03837 ], [ 83.83356, 25.03661 ], [ 83.83401, 25.03383 ], [ 83.83182, 25.03505 ], [ 83.83071, 25.03467 ], [ 83.83075, 25.03284 ], [ 83.82957, 25.03073 ], [ 83.83128, 25.02933 ], [ 83.82953, 25.02714 ], [ 83.8298, 25.0248 ], [ 83.82891, 25.02455 ], [ 83.82784, 25.02676 ], [ 83.82519, 25.02451 ], [ 83.82835, 25.02134 ], [ 83.82749, 25.0197 ], [ 83.82551, 25.01922 ], [ 83.82854, 25.0149 ], [ 83.82661, 25.01318 ], [ 83.82747, 25.01067 ], [ 83.82688, 25.00831 ], [ 83.82848, 25.00867 ], [ 83.82979, 25.01065 ], [ 83.83071, 25.01078 ], [ 83.82979, 25.00832 ], [ 83.83009, 25.00588 ], [ 83.83112, 25.00557 ], [ 83.8312, 25.00685 ], [ 83.83198, 25.00703 ], [ 83.83584, 25.00563 ], [ 83.83604, 25.00325 ], [ 83.83955, 25.0014 ], [ 83.83333, 24.99742 ], [ 83.83175, 24.9922 ], [ 83.82875, 24.99105 ], [ 83.82601, 24.98813 ], [ 83.8198, 24.98881 ], [ 83.81717, 24.99028 ], [ 83.81538, 24.99026 ], [ 83.80879, 24.98819 ], [ 83.7985, 24.98825 ], [ 83.79598, 24.98631 ], [ 83.79496, 24.98438 ], [ 83.78708, 24.98483 ], [ 83.78738, 24.99118 ], [ 83.79229, 24.98951 ], [ 83.79417, 24.99612 ], [ 83.794, 24.99797 ], [ 83.77975, 24.99961 ], [ 83.77833, 24.99595 ], [ 83.77604, 24.9958 ], [ 83.77346, 24.99809 ], [ 83.76799, 24.99731 ], [ 83.76734, 25.0 ], [ 83.76508, 25.00278 ], [ 83.76573, 25.00602 ], [ 83.76023, 25.00652 ], [ 83.76229, 25.0099 ], [ 83.76449, 25.02483 ], [ 83.75494, 25.02543 ], [ 83.75261, 25.02622 ], [ 83.7491, 25.02623 ], [ 83.74795, 25.02519 ], [ 83.74635, 25.02662 ], [ 83.74642, 25.02933 ], [ 83.7486, 25.03217 ], [ 83.74886, 25.0338 ], [ 83.75179, 25.03366 ], [ 83.7542, 25.0358 ], [ 83.75546, 25.036 ], [ 83.76367, 25.0334 ], [ 83.76531, 25.05021 ], [ 83.76202, 25.04978 ], [ 83.76002, 25.04657 ], [ 83.75876, 25.04641 ], [ 83.75314, 25.04981 ], [ 83.75312, 25.05166 ], [ 83.74912, 25.05437 ], [ 83.74703, 25.05703 ], [ 83.7474, 25.06024 ], [ 83.74623, 25.06372 ], [ 83.74315, 25.06475 ], [ 83.74127, 25.06691 ], [ 83.74155, 25.07222 ], [ 83.73535, 25.07468 ], [ 83.73527, 25.07671 ], [ 83.73784, 25.07903 ], [ 83.7381, 25.08029 ], [ 83.7375, 25.08139 ], [ 83.73385, 25.08279 ], [ 83.73277, 25.08404 ], [ 83.73222, 25.08687 ], [ 83.73053, 25.08935 ], [ 83.72309, 25.08976 ], [ 83.7184, 25.08899 ], [ 83.71373, 25.08976 ], [ 83.70955, 25.09614 ], [ 83.70473, 25.09864 ], [ 83.70449, 25.10083 ], [ 83.70502, 25.10372 ], [ 83.708, 25.10459 ], [ 83.71028, 25.10684 ], [ 83.71221, 25.11341 ], [ 83.71131, 25.11967 ], [ 83.71173, 25.12118 ], [ 83.71254, 25.12014 ], [ 83.71497, 25.12196 ], [ 83.71718, 25.12782 ], [ 83.71771, 25.12865 ], [ 83.72008, 25.12888 ], [ 83.7211, 25.13183 ], [ 83.72122, 25.13376 ], [ 83.71479, 25.13361 ], [ 83.71892, 25.14391 ], [ 83.71714, 25.14716 ], [ 83.71716, 25.15454 ], [ 83.71892, 25.1607 ], [ 83.7189, 25.16722 ], [ 83.72262, 25.16675 ], [ 83.72343, 25.16816 ], [ 83.72975, 25.16835 ], [ 83.73026, 25.17057 ], [ 83.73737, 25.17058 ], [ 83.73752, 25.17272 ], [ 83.73832, 25.17339 ], [ 83.73736, 25.18001 ], [ 83.73564, 25.18418 ], [ 83.73468, 25.18365 ], [ 83.7335, 25.18048 ], [ 83.72844, 25.18014 ], [ 83.72347, 25.18124 ], [ 83.72348, 25.1863 ], [ 83.73705, 25.18703 ], [ 83.73719, 25.19243 ], [ 83.74631, 25.1915 ], [ 83.74992, 25.19005 ], [ 83.74899, 25.17726 ], [ 83.75671, 25.17732 ], [ 83.75842, 25.17643 ], [ 83.75588, 25.17047 ], [ 83.75642, 25.16834 ], [ 83.76386, 25.16811 ], [ 83.77017, 25.16604 ], [ 83.77124, 25.16924 ], [ 83.7782, 25.16788 ], [ 83.77893, 25.17479 ], [ 83.7827, 25.18501 ], [ 83.78156, 25.19239 ], [ 83.78269, 25.19516 ], [ 83.7858, 25.19871 ], [ 83.78664, 25.20357 ], [ 83.78659, 25.20641 ], [ 83.77577, 25.2084 ], [ 83.77758, 25.21607 ], [ 83.77933, 25.21635 ], [ 83.78015, 25.2191 ], [ 83.78169, 25.22008 ], [ 83.78061, 25.22376 ], [ 83.78351, 25.2277 ], [ 83.78414, 25.23316 ], [ 83.78137, 25.23448 ], [ 83.78138, 25.23715 ], [ 83.78299, 25.23843 ], [ 83.78601, 25.23846 ], [ 83.78711, 25.23814 ], [ 83.78738, 25.23614 ], [ 83.78914, 25.23605 ], [ 83.79158, 25.23839 ], [ 83.79236, 25.24077 ], [ 83.79194, 25.24195 ], [ 83.79295, 25.24285 ], [ 83.79166, 25.2451 ], [ 83.792, 25.24729 ], [ 83.79069, 25.24717 ], [ 83.79015, 25.24831 ], [ 83.79381, 25.24968 ], [ 83.79146, 25.25042 ], [ 83.79031, 25.25226 ], [ 83.8014, 25.25232 ], [ 83.80207, 25.2561 ], [ 83.80131, 25.26157 ], [ 83.80281, 25.26165 ], [ 83.80232, 25.2657 ], [ 83.80471, 25.26647 ], [ 83.80904, 25.26339 ], [ 83.80943, 25.26212 ], [ 83.81413, 25.26269 ], [ 83.81534, 25.26411 ], [ 83.81492, 25.26492 ], [ 83.81796, 25.26588 ], [ 83.81853, 25.26725 ], [ 83.82169, 25.26731 ], [ 83.82182, 25.26445 ], [ 83.82299, 25.2638 ], [ 83.82281, 25.26218 ] ] ] } },
{ "type": "Feature", "properties": { "OBJECTID": 6561, "state_lgd": "10", "state_name": "BIHAR", "district_lgd": "233", "district_name": "KAIMUR (BHABUA)", "district_name_source": "district_table", "subdistrict_lgd": "01449", "subdistrict_name": "Mohania", "subdistrict_type": "", "name_corrupted": false, "remarks": "", "label_lon": 83.669930957236119, "label_lat": 25.202662278282478 }, "geometry": { "type": "Polygon", "coordinates": [ [ [ 83.67265, 25.29382 ], [ 83.68011, 25.29177 ], [ 83.68395, 25.28528 ], [ 83.68351, 25.28377 ], [ 83.68059, 25.28394 ], [ 83.67964, 25.28255 ], [ 83.68049, 25.28109 ], [ 83.67942, 25.27847 ], [ 83.67986, 25.27679 ], [ 83.68201, 25.27467 ], [ 83.68447, 25.2739 ], [ 83.68458, 25.27259 ], [ 83.68366, 25.27179 ], [ 83.6847, 25.26974 ], [ 83.69053, 25.26494 ], [ 83.69139, 25.26325 ], [ 83.69623, 25.26314 ], [ 83.6974, 25.26521 ], [ 83.69837, 25.26542 ], [ 83.70011, 25.27389 ], [ 83.70122, 25.27382 ], [ 83.70162, 25.27559 ], [ 83.71062, 25.27611 ], [ 83.71308, 25.27554 ], [ 83.71258, 25.27079 ], [ 83.70782, 25.27095 ], [ 83.7062, 25.26744 ], [ 83.70532, 25.26739 ], [ 83.70409, 25.26271 ], [ 83.70494, 25.26163 ], [ 83.70469, 25.25931 ], [ 83.71035, 25.26127 ], [ 83.7139, 25.25992 ], [ 83.71709, 25.25975 ], [ 83.71781, 25.25787 ], [ 83.71752, 25.25509 ], [ 83.71888, 25.25368 ], [ 83.72145, 25.25471 ], [ 83.72573, 25.25299 ], [ 83.72927, 25.25441 ], [ 83.73296, 25.25432 ], [ 83.7372, 25.25605 ], [ 83.73877, 25.25236 ], [ 83.7489, 25.2519 ], [ 83.75329, 25.25763 ], [ 83.75514, 25.26351 ], [ 83.75788, 25.26438 ], [ 83.76496, 25.26323 ], [ 83.77263, 25.26306 ], [ 83.78061, 25.26108 ], [ 83.78465, 25.2615 ], [ 83.78919, 25.26048 ], [ 83.78835, 25.25715 ], [ 83.78949, 25.25338 ], [ 83.79146, 25.25042 ], [ 83.79381, 25.24968 ], [ 83.79023, 25.24868 ], [ 83.79069, 25.24717 ], [ 83.792, 25.24729 ], [ 83.79166, 25.2451 ], [ 83.79295, 25.24285 ], [ 83.79194, 25.24195 ], [ 83.79236, 25.24077 ], [ 83.79158, 25.23839 ], [ 83.78967, 25.23635 ], [ 83.78738, 25.23614 ], [ 83.78711, 25.23814 ], [ 83.78601, 25.23846 ], [ 83.78299, 25.23843 ], [ 83.78138, 25.23715 ], [ 83.78137, 25.23448 ], [ 83.78414, 25.23316 ], [ 83.78351, 25.2277 ], [ 83.78061, 25.22376 ], [ 83.78169, 25.22008 ], [ 83.78015, 25.2191 ], [ 83.77933, 25.21635 ], [ 83.77758, 25.21607 ], [ 83.77598, 25.21129 ], [ 83.77577, 25.2084 ], [ 83.77648, 25.20799 ], [ 83.78667, 25.20607 ], [ 83.7858, 25.19871 ], [ 83.78269, 25.19516 ], [ 83.78156, 25.19239 ], [ 83.7827, 25.18501 ], [ 83.77893, 25.17479 ], [ 83.7782, 25.16788 ], [ 83.77124, 25.16924 ], [ 83.77017, 25.16604 ], [ 83.76386, 25.16811 ], [ 83.75642, 25.16834 ], [ 83.75588, 25.17047 ], [ 83.75842, 25.17643 ], [ 83.75671, 25.17732 ], [ 83.74899, 25.17726 ], [ 83.74992, 25.19005 ], [ 83.74631, 25.1915 ], [ 83.73719, 25.19243 ], [ 83.73705, 25.18703 ], [ 83.72348, 25.1863 ], [ 83.72347, 25.18124 ], [ 83.72844, 25.18014 ], [ 83.7335, 25.18048 ], [ 83.73468, 25.18365 ], [ 83.73564, 25.18418 ], [ 83.73736, 25.18001 ], [ 83.73832, 25.17339 ], [ 83.73752, 25.17272 ], [ 83.73737, 25.17058 ], [ 83.73026, 25.17057 ], [ 83.72975, 25.16835 ], [ 83.72343, 25.16816 ], [ 83.72262, 25.16675 ], [ 83.7189, 25.16722 ], [ 83.71892, 25.1607 ], [ 83.71716, 25.15454 ], [ 83.71714, 25.14716 ], [ 83.71892, 25.14391 ], [ 83.71479, 25.13361 ], [ 83.72122, 25.13376 ], [ 83.7211, 25.13183 ], [ 83.72008, 25.12888 ], [ 83.71771, 25.12865 ], [ 83.71718, 25.12782 ], [ 83.71497, 25.12196 ], [ 83.71254, 25.12014 ], [ 83.71173, 25.12118 ], [ 83.71131, 25.11967 ], [ 83.71221, 25.11341 ], [ 83.71028, 25.10684 ], [ 83.70625, 25.10385 ], [ 83.70502, 25.10372 ], [ 83.70372, 25.10563 ], [ 83.69536, 25.10911 ], [ 83.69279, 25.11197 ], [ 83.68116, 25.11306 ], [ 83.67778, 25.11595 ], [ 83.67435, 25.11649 ], [ 83.67409, 25.11933 ], [ 83.67556, 25.1211 ], [ 83.67604, 25.12313 ], [ 83.67381, 25.12449 ], [ 83.67116, 25.12287 ], [ 83.66629, 25.12333 ], [ 83.66447, 25.1277 ], [ 83.65973, 25.12997 ], [ 83.6593, 25.13098 ], [ 83.66019, 25.13421 ], [ 83.65959, 25.13498 ], [ 83.65443, 25.13347 ], [ 83.64627, 25.13723 ], [ 83.64247, 25.13699 ], [ 83.64206, 25.13994 ], [ 83.64084, 25.14081 ], [ 83.63759, 25.14003 ], [ 83.63647, 25.14097 ], [ 83.63356, 25.14077 ], [ 83.62905, 25.14254 ], [ 83.62863, 25.14383 ], [ 83.63112, 25.14547 ], [ 83.63044, 25.14621 ], [ 83.62245, 25.14474 ], [ 83.61753, 25.14869 ], [ 83.61429, 25.15005 ], [ 83.61063, 25.14918 ], [ 83.60778, 25.14995 ], [ 83.60214, 25.14983 ], [ 83.60094, 25.15059 ], [ 83.6002, 25.15412 ], [ 83.59815, 25.15563 ], [ 83.59454, 25.1553 ], [ 83.59198, 25.15639 ], [ 83.58811, 25.1545 ], [ 83.58753, 25.15556 ], [ 83.58865, 25.15769 ], [ 83.58823, 25.15885 ], [ 83.58514, 25.158 ], [ 83.58236, 25.15856 ], [ 83.57834, 25.15726 ], [ 83.57246, 25.15802 ], [ 83.56903, 25.16236 ], [ 83.56446, 25.16419 ], [ 83.56191, 25.16612 ], [ 83.56217, 25.16728 ], [ 83.56425, 25.16888 ], [ 83.5641, 25.16966 ], [ 83.56229, 25.16994 ], [ 83.55957, 25.16726 ], [ 83.55806, 25.1671 ], [ 83.55736, 25.16781 ], [ 83.55735, 25.17083 ], [ 83.55624, 25.17085 ], [ 83.55559, 25.16877 ], [ 83.55487, 25.16874 ], [ 83.55355, 25.1728 ], [ 83.55204, 25.17276 ], [ 83.55166, 25.17118 ], [ 83.55043, 25.17021 ], [ 83.54819, 25.17353 ], [ 83.54206, 25.17382 ], [ 83.54211, 25.17298 ], [ 83.54437, 25.17228 ], [ 83.54448, 25.17143 ], [ 83.54256, 25.16832 ], [ 83.54005, 25.1676 ], [ 83.5393, 25.16831 ], [ 83.53925, 25.172 ], [ 83.53485, 25.17374 ], [ 83.53367, 25.17601 ], [ 83.53408, 25.18513 ], [ 83.53533, 25.18503 ], [ 83.53637, 25.1826 ], [ 83.53959, 25.18217 ], [ 83.53991, 25.18873 ], [ 83.55255, 25.19037 ], [ 83.55396, 25.19005 ], [ 83.56086, 25.18472 ], [ 83.56628, 25.18659 ], [ 83.57135, 25.18563 ], [ 83.57421, 25.19259 ], [ 83.57097, 25.19801 ], [ 83.56886, 25.19981 ], [ 83.5697, 25.2027 ], [ 83.56431, 25.20389 ], [ 83.56588, 25.21778 ], [ 83.56385, 25.21943 ], [ 83.56399, 25.22638 ], [ 83.56212, 25.22768 ], [ 83.56231, 25.22943 ], [ 83.55417, 25.23043 ], [ 83.54445, 25.23343 ], [ 83.54261, 25.2326 ], [ 83.54244, 25.23362 ], [ 83.54099, 25.23397 ], [ 83.5415, 25.23741 ], [ 83.53993, 25.24083 ], [ 83.5411, 25.24311 ], [ 83.54231, 25.24305 ], [ 83.54785, 25.23763 ], [ 83.55059, 25.24121 ], [ 83.55118, 25.24437 ], [ 83.55485, 25.24732 ], [ 83.55916, 25.24614 ], [ 83.56225, 25.24311 ], [ 83.56414, 25.24587 ], [ 83.56682, 25.24491 ], [ 83.57529, 25.23719 ], [ 83.57734, 25.23644 ], [ 83.5786, 25.23682 ], [ 83.57882, 25.23959 ], [ 83.58067, 25.24112 ], [ 83.58084, 25.24561 ], [ 83.58357, 25.24705 ], [ 83.58463, 25.25049 ], [ 83.58559, 25.25104 ], [ 83.59313, 25.25042 ], [ 83.59674, 25.25295 ], [ 83.61018, 25.24826 ], [ 83.61513, 25.24982 ], [ 83.61596, 25.25114 ], [ 83.61506, 25.25697 ], [ 83.62472, 25.25716 ], [ 83.63173, 25.25459 ], [ 83.633, 25.25683 ], [ 83.6328, 25.25826 ], [ 83.6278, 25.25859 ], [ 83.62633, 25.26084 ], [ 83.63231, 25.27163 ], [ 83.63673, 25.27285 ], [ 83.63985, 25.271 ], [ 83.641, 25.2711 ], [ 83.64135, 25.2748 ], [ 83.64215, 25.27481 ], [ 83.64381, 25.26852 ], [ 83.64839, 25.26849 ], [ 83.64708, 25.26663 ], [ 83.65174, 25.26365 ], [ 83.65467, 25.26541 ], [ 83.6568, 25.26871 ], [ 83.65809, 25.26885 ], [ 83.66121, 25.26724 ], [ 83.66541, 25.27452 ], [ 83.6638, 25.27719 ], [ 83.66512, 25.27913 ], [ 83.66492, 25.28031 ], [ 83.66258, 25.28293 ], [ 83.66794, 25.28172 ], [ 83.67351, 25.28237 ], [ 83.6783, 25.28125 ], [ 83.67884, 25.28198 ], [ 83.67117, 25.28619 ], [ 83.66988, 25.28984 ], [ 83.67118, 25.29309 ], [ 83.67265, 25.29382 ] ] ] } },
{ "type": "Feature", "properties": { "OBJECTID": 6562, "state_lgd": "10", "state_name": "BIHAR", "district_lgd": "233", "district_name": "KAIMUR (BHABUA)", "district_name_source": "district_table", "subdistrict_lgd": "01450", "subdistrict_name": "Durgawati", "subdistrict_type": "", "name_corrupted": false, "remarks": "", "label_lon": 83.4941790408012, "label_lat": 25.228945427799193 }, "geometry": { "type": "Polygon", "coordinates": [ [ [ 83.54581, 25.3163 ], [ 83.55469, 25.31459 ], [ 83.5573, 25.31148 ], [ 83.5617, 25.31359 ], [ 83.56758, 25.31354 ], [ 83.57138, 25.31475 ], [ 83.57343, 25.31407 ], [ 83.57348, 25.31249 ], [ 83.5709, 25.30862 ], [ 83.57088, 25.3068 ], [ 83.57372, 25.30613 ], [ 83.57581, 25.30792 ], [ 83.57652, 25.30279 ], [ 83.57605, 25.30004 ], [ 83.57759, 25.29849 ], [ 83.57721, 25.29412 ], [ 83.5824, 25.29261 ], [ 83.58199, 25.29124 ], [ 83.57968, 25.29167 ], [ 83.57926, 25.29089 ], [ 83.56747, 25.29284 ], [ 83.56508, 25.29032 ], [ 83.56304, 25.29055 ], [ 83.56289, 25.28836 ], [ 83.56258, 25.28756 ], [ 83.56133, 25.28742 ], [ 83.56131, 25.28447 ], [ 83.56063, 25.28393 ], [ 83.55573, 25.28673 ], [ 83.5531, 25.27965 ], [ 83.55397, 25.27529 ], [ 83.55655, 25.27283 ], [ 83.56438, 25.26982 ], [ 83.56539, 25.26911 ], [ 83.5653, 25.26771 ], [ 83.56429, 25.26593 ], [ 83.56139, 25.26558 ], [ 83.5608, 25.26381 ], [ 83.55811, 25.26368 ], [ 83.55692, 25.25694 ], [ 83.55904, 25.25632 ], [ 83.55885, 25.25484 ], [ 83.5531, 25.25311 ], [ 83.55298, 25.25147 ], [ 83.55575, 25.25037 ], [ 83.556, 25.2484 ], [ 83.5556, 25.24733 ], [ 83.55118, 25.24437 ], [ 83.55059, 25.24121 ], [ 83.54902, 25.23876 ], [ 83.54785, 25.23763 ], [ 83.54639, 25.23842 ], [ 83.54231, 25.24305 ], [ 83.5411, 25.24311 ], [ 83.53993, 25.24083 ], [ 83.5415, 25.23741 ], [ 83.54099, 25.23397 ], [ 83.54244, 25.23362 ], [ 83.54261, 25.2326 ], [ 83.54445, 25.23343 ], [ 83.55417, 25.23043 ], [ 83.56231, 25.22943 ], [ 83.56212, 25.22768 ], [ 83.56399, 25.22638 ], [ 83.56385, 25.21943 ], [ 83.56588, 25.21778 ], [ 83.56431, 25.20389 ], [ 83.5697, 25.2027 ], [ 83.56886, 25.19981 ], [ 83.57097, 25.19801 ], [ 83.57421, 25.19259 ], [ 83.57183, 25.18582 ], [ 83.56628, 25.18659 ], [ 83.56086, 25.18472 ], [ 83.55396, 25.19005 ], [ 83.55255, 25.19037 ], [ 83.53991, 25.18873 ], [ 83.53959, 25.18217 ], [ 83.53637, 25.1826 ], [ 83.53533, 25.18503 ], [ 83.53408, 25.18513 ], [ 83.53335, 25.17853 ], [ 83.53485, 25.17374 ], [ 83.53925, 25.172 ], [ 83.5393, 25.16831 ], [ 83.54124, 25.16744 ], [ 83.5398, 25.16693 ], [ 83.53549, 25.16986 ], [ 83.5323, 25.16898 ], [ 83.52907, 25.166 ], [ 83.52714, 25.16551 ], [ 83.52247, 25.16615 ], [ 83.52021, 25.16939 ], [ 83.52026, 25.17096 ], [ 83.51841, 25.17198 ], [ 83.51177, 25.16891 ], [ 83.5, 25.17041 ], [ 83.497, 25.17152 ], [ 83.49351, 25.17053 ], [ 83.48719, 25.1719 ], [ 83.48605, 25.16882 ], [ 83.47532, 25.17132 ], [ 83.4756, 25.17386 ], [ 83.47695, 25.17589 ], [ 83.47598, 25.17676 ], [ 83.47522, 25.17614 ], [ 83.46796, 25.17725 ], [ 83.45124, 25.18123 ], [ 83.45013, 25.18136 ], [ 83.44986, 25.18011 ], [ 83.44272, 25.18096 ], [ 83.44196, 25.18247 ], [ 83.43075, 25.18399 ], [ 83.4219, 25.18145 ], [ 83.41744, 25.18159 ], [ 83.41718, 25.1864 ], [ 83.41211, 25.18764 ], [ 83.41072, 25.18663 ], [ 83.40291, 25.18716 ], [ 83.40182, 25.1876 ], [ 83.40083, 25.18949 ], [ 83.39523, 25.19093 ], [ 83.3964, 25.19706 ], [ 83.39312, 25.20434 ], [ 83.39508, 25.20564 ], [ 83.39586, 25.20759 ], [ 83.39524, 25.21452 ], [ 83.39761, 25.21631 ], [ 83.39972, 25.21586 ], [ 83.40217, 25.21278 ], [ 83.40233, 25.21182 ], [ 83.4009, 25.20952 ], [ 83.40204, 25.20906 ], [ 83.40384, 25.21315 ], [ 83.40206, 25.2212 ], [ 83.40277, 25.22436 ], [ 83.40479, 25.22688 ], [ 83.40928, 25.22932 ], [ 83.40657, 25.23381 ], [ 83.40626, 25.23773 ], [ 83.4077, 25.23952 ], [ 83.41175, 25.23695 ], [ 83.41257, 25.23495 ], [ 83.41361, 25.23549 ], [ 83.4128, 25.23885 ], [ 83.40886, 25.24079 ], [ 83.40991, 25.24661 ], [ 83.41798, 25.25066 ], [ 83.41937, 25.25013 ], [ 83.42182, 25.24652 ], [ 83.42672, 25.24639 ], [ 83.42741, 25.24791 ], [ 83.42475, 25.25182 ], [ 83.42721, 25.25367 ], [ 83.42921, 25.2531 ], [ 83.43269, 25.25045 ], [ 83.43366, 25.24553 ], [ 83.43481, 25.24427 ], [ 83.43623, 25.24424 ], [ 83.4375, 25.24611 ], [ 83.43703, 25.24887 ], [ 83.43958, 25.25101 ], [ 83.44077, 25.25331 ], [ 83.44089, 25.25451 ], [ 83.43888, 25.2568 ], [ 83.43896, 25.25784 ], [ 83.44214, 25.25915 ], [ 83.44324, 25.25746 ], [ 83.44217, 25.25481 ], [ 83.44302, 25.25456 ], [ 83.44651, 25.25752 ], [ 83.447, 25.2599 ], [ 83.45009, 25.26104 ], [ 83.45156, 25.26 ], [ 83.45299, 25.25627 ], [ 83.4566, 25.25392 ], [ 83.46031, 25.25294 ], [ 83.46268, 25.25036 ], [ 83.46792, 25.25234 ], [ 83.47066, 25.2576 ], [ 83.47701, 25.26151 ], [ 83.47971, 25.26752 ], [ 83.47926, 25.26907 ], [ 83.47667, 25.27056 ], [ 83.4768, 25.27181 ], [ 83.48003, 25.27625 ], [ 83.48532, 25.27932 ], [ 83.48699, 25.28359 ], [ 83.48995, 25.28404 ], [ 83.49052, 25.28512 ], [ 83.48973, 25.28889 ], [ 83.49038, 25.28948 ], [ 83.49235, 25.28973 ], [ 83.49354, 25.2877 ], [ 83.49337, 25.28491 ], [ 83.49107, 25.28278 ], [ 83.49115, 25.28022 ], [ 83.492, 25.27961 ], [ 83.49739, 25.28035 ], [ 83.497, 25.28416 ], [ 83.49797, 25.28584 ], [ 83.50021, 25.28717 ], [ 83.5043, 25.28701 ], [ 83.50442, 25.28623 ], [ 83.50207, 25.28349 ], [ 83.50226, 25.28196 ], [ 83.50378, 25.28106 ], [ 83.50608, 25.28141 ], [ 83.50801, 25.28732 ], [ 83.51015, 25.28897 ], [ 83.51217, 25.2879 ], [ 83.51439, 25.28505 ], [ 83.51598, 25.28496 ], [ 83.52032, 25.28801 ], [ 83.52258, 25.29068 ], [ 83.52694, 25.29298 ], [ 83.5237, 25.29614 ], [ 83.52283, 25.30111 ], [ 83.52346, 25.30256 ], [ 83.52808, 25.30247 ], [ 83.53181, 25.29801 ], [ 83.53401, 25.29735 ], [ 83.53503, 25.29816 ], [ 83.5367, 25.30293 ], [ 83.53837, 25.30436 ], [ 83.5428, 25.30408 ], [ 83.54514, 25.30675 ], [ 83.55409, 25.30849 ], [ 83.55376, 25.31022 ], [ 83.54723, 25.31406 ], [ 83.5389, 25.30966 ], [ 83.53693, 25.31022 ], [ 83.53715, 25.313 ], [ 83.53991, 25.31579 ], [ 83.54289, 25.31543 ], [ 83.54581, 25.3163 ] ] ] } },
{ "type": "Feature", "properties": { "OBJECTID": 6563, "state_lgd": "10", "state_name": "BIHAR", "district_lgd": "233", "district_name": "KAIMUR (BHABUA)", "district_name_source": "district_table", "subdistrict_lgd": "01451", "subdistrict_name": "Chand", "subdistrict_type": "", "name_corrupted": false, "remarks": "", "label_lon": 83.401833059040214, "label_lat": 25.108818258591644 }, "geometry": { "type": "Polygon", "coordinates": [ [ [ 83.39096, 25.20438 ], [ 83.39312, 25.20434 ], [ 83.3964, 25.19706 ], [ 83.39562, 25.19049 ], [ 83.40083, 25.18949 ], [ 83.40182, 25.1876 ], [ 83.40291, 25.18716 ], [ 83.41072, 25.18663 ], [ 83.41211, 25.18764 ], [ 83.41718, 25.1864 ], [ 83.41744, 25.18159 ], [ 83.4219, 25.18145 ], [ 83.43075, 25.18399 ], [ 83.44196, 25.18247 ], [ 83.44272, 25.18096 ], [ 83.44986, 25.18011 ], [ 83.45013, 25.18136 ], [ 83.45124, 25.18123 ], [ 83.46796, 25.17725 ], [ 83.47522, 25.17614 ], [ 83.47661, 25.17661 ], [ 83.47532, 25.17132 ], [ 83.48605, 25.16882 ], [ 83.48719, 25.1719 ], [ 83.48868, 25.16619 ], [ 83.48733, 25.15689 ], [ 83.4928, 25.15584 ], [ 83.49432, 25.14999 ], [ 83.49407, 25.14072 ], [ 83.49897, 25.13884 ], [ 83.49808, 25.13818 ], [ 83.4958, 25.13246 ], [ 83.48779, 25.13323 ], [ 83.48432, 25.13273 ], [ 83.48395, 25.13113 ], [ 83.48256, 25.13069 ], [ 83.48181, 25.12774 ], [ 83.47729, 25.1284 ], [ 83.47318, 25.12277 ], [ 83.46465, 25.12469 ], [ 83.46371, 25.12269 ], [ 83.4623, 25.11358 ], [ 83.46493, 25.11285 ], [ 83.46408, 25.11044 ], [ 83.46512, 25.11 ], [ 83.46169, 25.10616 ], [ 83.46246, 25.10408 ], [ 83.45351, 25.10394 ], [ 83.45266, 25.1005 ], [ 83.4486, 25.10091 ], [ 83.44893, 25.10561 ], [ 83.44827, 25.10707 ], [ 83.44734, 25.10634 ], [ 83.4453, 25.10739 ], [ 83.442, 25.10709 ], [ 83.43783, 25.09474 ], [ 83.43832, 25.09328 ], [ 83.44033, 25.09333 ], [ 83.44159, 25.08793 ], [ 83.43701, 25.08739 ], [ 83.43677, 25.08634 ], [ 83.4384, 25.0853 ], [ 83.43769, 25.07794 ], [ 83.44177, 25.0759 ], [ 83.44403, 25.06305 ], [ 83.4459, 25.05778 ], [ 83.44746, 25.05596 ], [ 83.44516, 25.05124 ], [ 83.44584, 25.04878 ], [ 83.44483, 25.04472 ], [ 83.44634, 25.042 ], [ 83.44302, 25.04064 ], [ 83.44246, 25.03921 ], [ 83.44399, 25.03478 ], [ 83.44039, 25.03417 ], [ 83.43644, 25.04037 ], [ 83.43376, 25.04302 ], [ 83.42424, 25.04436 ], [ 83.41148, 25.03926 ], [ 83.41146, 25.03789 ], [ 83.41346, 25.03609 ], [ 83.41332, 25.03377 ], [ 83.41258, 25.03311 ], [ 83.40586, 25.03254 ], [ 83.40199, 25.03045 ], [ 83.40117, 25.03248 ], [ 83.39749, 25.03041 ], [ 83.39553, 25.02739 ], [ 83.39165, 25.02564 ], [ 83.38899, 25.01945 ], [ 83.38417, 25.01708 ], [ 83.38099, 25.01752 ], [ 83.38037, 25.01507 ], [ 83.37677, 25.01311 ], [ 83.36354, 25.00996 ], [ 83.35624, 25.01013 ], [ 83.34767, 25.00903 ], [ 83.34328, 25.01089 ], [ 83.34014, 25.01131 ], [ 83.3358, 25.01382 ], [ 83.33282, 25.01411 ], [ 83.32658, 25.01291 ], [ 83.32022, 25.01726 ], [ 83.32141, 25.02467 ], [ 83.3248, 25.02473 ], [ 83.32483, 25.02603 ], [ 83.32382, 25.02659 ], [ 83.32434, 25.03733 ], [ 83.33422, 25.04806 ], [ 83.33571, 25.05093 ], [ 83.34335, 25.05088 ], [ 83.34275, 25.05987 ], [ 83.33594, 25.06146 ], [ 83.34042, 25.06865 ], [ 83.34015, 25.07399 ], [ 83.34131, 25.08154 ], [ 83.34411, 25.08615 ], [ 83.34727, 25.0868 ], [ 83.34742, 25.09533 ], [ 83.34834, 25.0953 ], [ 83.34819, 25.1006 ], [ 83.35069, 25.10507 ], [ 83.35061, 25.10837 ], [ 83.34969, 25.10918 ], [ 83.35009, 25.11328 ], [ 83.35547, 25.11297 ], [ 83.35657, 25.11154 ], [ 83.35852, 25.11206 ], [ 83.36361, 25.11148 ], [ 83.36606, 25.12511 ], [ 83.36737, 25.12523 ], [ 83.36817, 25.12989 ], [ 83.36427, 25.1306 ], [ 83.36419, 25.13196 ], [ 83.36191, 25.13268 ], [ 83.3625, 25.13444 ], [ 83.36315, 25.13421 ], [ 83.36379, 25.13789 ], [ 83.36323, 25.13885 ], [ 83.36363, 25.14175 ], [ 83.36275, 25.1418 ], [ 83.36341, 25.15347 ], [ 83.35787, 25.15538 ], [ 83.35775, 25.15614 ], [ 83.3513, 25.15701 ], [ 83.35163, 25.16296 ], [ 83.35249, 25.16301 ], [ 83.35637, 25.17763 ], [ 83.35297, 25.17864 ], [ 83.35353, 25.18333 ], [ 83.34972, 25.18406 ], [ 83.34978, 25.18489 ], [ 83.3504, 25.18633 ], [ 83.35148, 25.18653 ], [ 83.35195, 25.18866 ], [ 83.3538, 25.18886 ], [ 83.35531, 25.19638 ], [ 83.35725, 25.19966 ], [ 83.36339, 25.19822 ], [ 83.36346, 25.19684 ], [ 83.3663, 25.19536 ], [ 83.36828, 25.196 ], [ 83.37269, 25.20033 ], [ 83.37776, 25.20053 ], [ 83.38194, 25.20175 ], [ 83.38353, 25.20328 ], [ 83.38248, 25.2107 ], [ 83.38622, 25.21215 ], [ 83.38788, 25.21176 ], [ 83.38971, 25.21008 ], [ 83.39096, 25.20438 ] ] ] } },
{ "type": "Feature", "properties": { "OBJECTID": 6564, "state_lgd": "10", "state_name": "BIHAR", "district_lgd": "233", "district_name": "KAIMUR (BHABUA)", "district_name_source": "district_table", "subdistrict_lgd": "01452", "subdistrict_name": "Chainpur", "subdistrict_type": "", "name_corrupted": false, "remarks": "", "label_lon": 83.449937482390453, "label_lat": 24.96216659143613 }, "geometry": { "type": "Polygon", "coordinates": [ [ [ 83.48719, 25.1719 ], [ 83.49351, 25.17053 ], [ 83.497, 25.17152 ], [ 83.49766, 25.16962 ], [ 83.49702, 25.16329 ], [ 83.49554, 25.16216 ], [ 83.49592, 25.15989 ], [ 83.49312, 25.1597 ], [ 83.49298, 25.15724 ], [ 83.49805, 25.15609 ], [ 83.5019, 25.15616 ], [ 83.50207, 25.16138 ], [ 83.50676, 25.16099 ], [ 83.50703, 25.1622 ], [ 83.50797, 25.16258 ], [ 83.51015, 25.16153 ], [ 83.50698, 25.15855 ], [ 83.50621, 25.14666 ], [ 83.50419, 25.13957 ], [ 83.50958, 25.13929 ], [ 83.51034, 25.13804 ], [ 83.51463, 25.13752 ], [ 83.51483, 25.1365 ], [ 83.51861, 25.13589 ], [ 83.51841, 25.13324 ], [ 83.52061, 25.13201 ], [ 83.52057, 25.13044 ], [ 83.52976, 25.12949 ], [ 83.529, 25.11819 ], [ 83.52362, 25.11748 ], [ 83.52281, 25.11576 ], [ 83.52024, 25.11469 ], [ 83.51945, 25.10934 ], [ 83.51746, 25.11066 ], [ 83.51246, 25.11072 ], [ 83.51164, 25.10928 ], [ 83.50653, 25.10645 ], [ 83.50613, 25.10408 ], [ 83.50718, 25.10288 ], [ 83.5075, 25.10061 ], [ 83.51162, 25.09966 ], [ 83.51278, 25.09797 ], [ 83.5311, 25.09293 ], [ 83.53248, 25.09183 ], [ 83.53069, 25.08324 ], [ 83.52872, 25.08348 ], [ 83.52924, 25.08149 ], [ 83.52875, 25.0801 ], [ 83.5307, 25.07937 ], [ 83.53179, 25.07503 ], [ 83.53008, 25.07357 ], [ 83.52787, 25.05656 ], [ 83.53897, 25.05471 ], [ 83.54169, 25.05486 ], [ 83.54428, 25.05778 ], [ 83.54873, 25.05686 ], [ 83.54997, 25.05433 ], [ 83.55309, 25.05245 ], [ 83.5534, 25.04726 ], [ 83.55159, 25.03843 ], [ 83.55861, 25.03434 ], [ 83.56004, 25.02895 ], [ 83.55977, 25.02596 ], [ 83.55471, 25.02464 ], [ 83.55509, 25.02047 ], [ 83.5541, 25.01262 ], [ 83.55944, 25.01164 ], [ 83.55992, 25.00835 ], [ 83.55833, 25.00412 ], [ 83.55842, 25.00091 ], [ 83.56301, 25.00093 ], [ 83.56172, 24.99083 ], [ 83.55824, 24.98612 ], [ 83.54778, 24.99199 ], [ 83.54094, 24.99455 ], [ 83.53104, 24.99416 ], [ 83.52702, 24.99068 ], [ 83.52157, 24.9893 ], [ 83.51758, 24.99053 ], [ 83.51089, 24.99016 ], [ 83.499, 24.98476 ], [ 83.498, 24.98637 ], [ 83.49533, 24.98732 ], [ 83.49424, 24.98366 ], [ 83.49345, 24.98352 ], [ 83.49433, 24.98249 ], [ 83.49379, 24.98034 ], [ 83.49527, 24.97177 ], [ 83.49753, 24.96782 ], [ 83.49643, 24.96001 ], [ 83.49747, 24.95709 ], [ 83.49861, 24.95711 ], [ 83.49854, 24.93726 ], [ 83.49719, 24.93809 ], [ 83.49533, 24.93797 ], [ 83.49083, 24.93583 ], [ 83.48652, 24.93516 ], [ 83.48536, 24.93118 ], [ 83.49237, 24.928 ], [ 83.48901, 24.92315 ], [ 83.48079, 24.92135 ], [ 83.48059, 24.9206 ], [ 83.48033, 24.91331 ], [ 83.48165, 24.9088 ], [ 83.47925, 24.90396 ], [ 83.4784, 24.89672 ], [ 83.47892, 24.89009 ], [ 83.47863, 24.87675 ], [ 83.47776, 24.87062 ], [ 83.47822, 24.86666 ], [ 83.48113, 24.86272 ], [ 83.49067, 24.8642 ], [ 83.50422, 24.8672 ], [ 83.51104, 24.87194 ], [ 83.52236, 24.8747 ], [ 83.5244, 24.87335 ], [ 83.52363, 24.87205 ], [ 83.52536, 24.87072 ], [ 83.52255, 24.86919 ], [ 83.52326, 24.86746 ], [ 83.52257, 24.86481 ], [ 83.5231, 24.86036 ], [ 83.52634, 24.85862 ], [ 83.52563, 24.85329 ], [ 83.52647, 24.85066 ], [ 83.52794, 24.84932 ], [ 83.53074, 24.84914 ], [ 83.53058, 24.84771 ], [ 83.52956, 24.84585 ], [ 83.51934, 24.84603 ], [ 83.50725, 24.83202 ], [ 83.50496, 24.83065 ], [ 83.50005, 24.82947 ], [ 83.49958, 24.83123 ], [ 83.49391, 24.82879 ], [ 83.48703, 24.8272 ], [ 83.48592, 24.82509 ], [ 83.48099, 24.82307 ], [ 83.48282, 24.8109 ], [ 83.47839, 24.81294 ], [ 83.47537, 24.81317 ], [ 83.46608, 24.81204 ], [ 83.4642, 24.80825 ], [ 83.45982, 24.80584 ], [ 83.45304, 24.79779 ], [ 83.45137, 24.79424 ], [ 83.4307, 24.79598 ], [ 83.42682, 24.79813 ], [ 83.41761, 24.80015 ], [ 83.40483, 24.79701 ], [ 83.40363, 24.79752 ], [ 83.39964, 24.79665 ], [ 83.39583, 24.80001 ], [ 83.39374, 24.80476 ], [ 83.39925, 24.80895 ], [ 83.40135, 24.81217 ], [ 83.40136, 24.81887 ], [ 83.39818, 24.82204 ], [ 83.39727, 24.82449 ], [ 83.3951, 24.82617 ], [ 83.39514, 24.82809 ], [ 83.39687, 24.83158 ], [ 83.39283, 24.8361 ], [ 83.39252, 24.8406 ], [ 83.39046, 24.84109 ], [ 83.38745, 24.83957 ], [ 83.38649, 24.8401 ], [ 83.38416, 24.84414 ], [ 83.38049, 24.84786 ], [ 83.37985, 24.85074 ], [ 83.38051, 24.85371 ], [ 83.37657, 24.85639 ], [ 83.37674, 24.86014 ], [ 83.37328, 24.8617 ], [ 83.36928, 24.86231 ], [ 83.36204, 24.86825 ], [ 83.35812, 24.86975 ], [ 83.35743, 24.87091 ], [ 83.36088, 24.87424 ], [ 83.36455, 24.87482 ], [ 83.36801, 24.87668 ], [ 83.36946, 24.87987 ], [ 83.36154, 24.88466 ], [ 83.35827, 24.88813 ], [ 83.35826, 24.89077 ], [ 83.36056, 24.89131 ], [ 83.3648, 24.89085 ], [ 83.36606, 24.89165 ], [ 83.36588, 24.89302 ], [ 83.36212, 24.89762 ], [ 83.35745, 24.90051 ], [ 83.35458, 24.90547 ], [ 83.35645, 24.90747 ], [ 83.3623, 24.90902 ], [ 83.36367, 24.91301 ], [ 83.36224, 24.91827 ], [ 83.36208, 24.9241 ], [ 83.36285, 24.92773 ], [ 83.36093, 24.93237 ], [ 83.3616, 24.93394 ], [ 83.36447, 24.9361 ], [ 83.3649, 24.9375 ], [ 83.36105, 24.94228 ], [ 83.36145, 24.95372 ], [ 83.3597, 24.95615 ], [ 83.35502, 24.95663 ], [ 83.35181, 24.96142 ], [ 83.34983, 24.96306 ], [ 83.34673, 24.96345 ], [ 83.3437, 24.96206 ], [ 83.34311, 24.96307 ], [ 83.34503, 24.97215 ], [ 83.34337, 24.9812 ], [ 83.34764, 24.98815 ], [ 83.3502, 24.99018 ], [ 83.34999, 24.99214 ], [ 83.35254, 24.99656 ], [ 83.34982, 25.00922 ], [ 83.35624, 25.01013 ], [ 83.36354, 25.00996 ], [ 83.37677, 25.01311 ], [ 83.38037, 25.01507 ], [ 83.38099, 25.01752 ], [ 83.38417, 25.01708 ], [ 83.38899, 25.01945 ], [ 83.39165, 25.02564 ], [ 83.39553, 25.02739 ], [ 83.39749, 25.03041 ], [ 83.40117, 25.03248 ], [ 83.40199, 25.03045 ], [ 83.40586, 25.03254 ], [ 83.41258, 25.03311 ], [ 83.41332, 25.03377 ], [ 83.41346, 25.03609 ], [ 83.41146, 25.03789 ], [ 83.41148, 25.03926 ], [ 83.42424, 25.04436 ], [ 83.43376, 25.04302 ], [ 83.43644, 25.04037 ], [ 83.44039, 25.03417 ], [ 83.44399, 25.03478 ], [ 83.44246, 25.03921 ], [ 83.44302, 25.04064 ], [ 83.44634, 25.042 ], [ 83.44483, 25.04472 ], [ 83.44584, 25.04878 ], [ 83.44516, 25.05124 ], [ 83.44746, 25.05596 ], [ 83.4459, 25.05778 ], [ 83.44403, 25.06305 ], [ 83.44177, 25.0759 ], [ 83.43769, 25.07794 ], [ 83.4384, 25.0853 ], [ 83.43677, 25.08634 ], [ 83.43701, 25.08739 ], [ 83.44159, 25.08793 ], [ 83.44033, 25.09333 ], [ 83.43785, 25.0937 ], [ 83.4409, 25.1044 ], [ 83.44265, 25.10749 ], [ 83.4453, 25.10739 ], [ 83.44734, 25.10634 ], [ 83.44827, 25.10707 ], [ 83.44893, 25.10561 ], [ 83.4486, 25.10091 ], [ 83.45195, 25.10043 ], [ 83.45294, 25.10102 ], [ 83.45351, 25.10394 ], [ 83.46246, 25.10408 ], [ 83.46169, 25.10616 ], [ 83.46512, 25.11 ], [ 83.46408, 25.11044 ], [ 83.46493, 25.11285 ], [ 83.4623, 25.11358 ], [ 83.46371, 25.12269 ], [ 83.46465, 25.12469 ], [ 83.47318, 25.12277 ], [ 83.47729, 25.1284 ], [ 83.48181, 25.12774 ], [ 83.48256, 25.13069 ], [ 83.48395, 25.13113 ], [ 83.48432, 25.13273 ], [ 83.48779, 25.13323 ], [ 83.4958, 25.13246 ], [ 83.49808, 25.13818 ], [ 83.49897, 25.13884 ], [ 83.49407, 25.14072 ], [ 83.49432, 25.14999 ], [ 83.4928, 25.15584 ], [ 83.48733, 25.15689 ], [ 83.48868, 25.16619 ], [ 83.48719, 25.1719 ] ] ] } },
{ "type": "Feature", "properties": { "OBJECTID": 6565, "state_lgd": "10", "state_name": "BIHAR", "district_lgd": "233", "district_name": "KAIMUR (BHABUA)", "district_name_source": "district_table", "subdistrict_lgd": "01453", "subdistrict_name": "Bhabua", "subdistrict_type": "", "name_corrupted": false, "remarks": "", "label_lon": 83.632517700610236, "label_lat": 25.071910987318958 }, "geometry": { "type": "Polygon", "coordinates": [ [ [ 83.54171, 25.17365 ], [ 83.54819, 25.17353 ], [ 83.55043, 25.17021 ], [ 83.55166, 25.17118 ], [ 83.55204, 25.17276 ], [ 83.55355, 25.1728 ], [ 83.5543, 25.16931 ], [ 83.55559, 25.16877 ], [ 83.55624, 25.17085 ], [ 83.55735, 25.17083 ], [ 83.55736, 25.16781 ], [ 83.55888, 25.16687 ], [ 83.56131, 25.16945 ], [ 83.56337, 25.17009 ], [ 83.56425, 25.16888 ], [ 83.56217, 25.16728 ], [ 83.56242, 25.16543 ], [ 83.56903, 25.16236 ], [ 83.57246, 25.15802 ], [ 83.57834, 25.15726 ], [ 83.58236, 25.15856 ], [ 83.58514, 25.158 ], [ 83.58823, 25.15885 ], [ 83.58865, 25.15769 ], [ 83.58753, 25.15556 ], [ 83.58811, 25.1545 ], [ 83.59198, 25.15639 ], [ 83.59454, 25.1553 ], [ 83.59815, 25.15563 ], [ 83.6002, 25.15412 ], [ 83.60094, 25.15059 ], [ 83.60214, 25.14983 ], [ 83.60778, 25.14995 ], [ 83.61063, 25.14918 ], [ 83.61429, 25.15005 ], [ 83.61753, 25.14869 ], [ 83.62245, 25.14474 ], [ 83.63044, 25.14621 ], [ 83.63112, 25.14547 ], [ 83.62863, 25.14383 ], [ 83.62905, 25.14254 ], [ 83.63356, 25.14077 ], [ 83.63647, 25.14097 ], [ 83.63759, 25.14003 ], [ 83.64084, 25.14081 ], [ 83.64206, 25.13994 ], [ 83.64247, 25.13699 ], [ 83.64627, 25.13723 ], [ 83.65443, 25.13347 ], [ 83.65959, 25.13498 ], [ 83.66019, 25.13421 ], [ 83.6593, 25.13098 ], [ 83.65973, 25.12997 ], [ 83.66447, 25.1277 ], [ 83.66629, 25.12333 ], [ 83.67116, 25.12287 ], [ 83.67381, 25.12449 ], [ 83.67604, 25.12313 ], [ 83.67556, 25.1211 ], [ 83.67409, 25.11933 ], [ 83.67435, 25.11649 ], [ 83.67778, 25.11595 ], [ 83.68116, 25.11306 ], [ 83.69279, 25.11197 ], [ 83.69536, 25.10911 ], [ 83.70492, 25.10471 ], [ 83.70473, 25.09864 ], [ 83.70955, 25.09614 ], [ 83.71373, 25.08976 ], [ 83.7184, 25.08899 ], [ 83.72309, 25.08976 ], [ 83.73053, 25.08935 ], [ 83.73222, 25.08687 ], [ 83.73277, 25.08404 ], [ 83.73385, 25.08279 ], [ 83.7375, 25.08139 ], [ 83.7381, 25.08029 ], [ 83.73784, 25.07903 ], [ 83.73527, 25.07671 ], [ 83.73535, 25.07468 ], [ 83.74155, 25.07222 ], [ 83.74127, 25.06691 ], [ 83.74315, 25.06475 ], [ 83.74623, 25.06372 ], [ 83.7474, 25.06024 ], [ 83.74673, 25.05784 ], [ 83.74775, 25.05583 ], [ 83.75312, 25.05166 ], [ 83.75314, 25.04981 ], [ 83.75876, 25.04641 ], [ 83.76002, 25.04657 ], [ 83.76202, 25.04978 ], [ 83.76531, 25.05021 ], [ 83.76367, 25.0334 ], [ 83.75546, 25.036 ], [ 83.7542, 25.0358 ], [ 83.75179, 25.03366 ], [ 83.74886, 25.0338 ], [ 83.7486, 25.03217 ], [ 83.74642, 25.02933 ], [ 83.74677, 25.02577 ], [ 83.74795, 25.02519 ], [ 83.7491, 25.02623 ], [ 83.75261, 25.02622 ], [ 83.75494, 25.02543 ], [ 83.76449, 25.02483 ], [ 83.76229, 25.0099 ], [ 83.76023, 25.00652 ], [ 83.76573, 25.00602 ], [ 83.76508, 25.00278 ], [ 83.76734, 25.0 ], [ 83.76799, 24.99731 ], [ 83.77346, 24.99809 ], [ 83.77604, 24.9958 ], [ 83.77833, 24.99595 ], [ 83.77975, 24.99961 ], [ 83.794, 24.99797 ], [ 83.79417, 24.99612 ], [ 83.79229, 24.98951 ], [ 83.78579, 24.99162 ], [ 83.78025, 24.99131 ], [ 83.77808, 24.98776 ], [ 83.77357, 24.98784 ], [ 83.7729, 24.98632 ], [ 83.77062, 24.98604 ], [ 83.769, 24.98256 ], [ 83.76407, 24.98126 ], [ 83.76311, 24.9819 ], [ 83.76296, 24.98731 ], [ 83.76123, 24.98764 ], [ 83.75967, 24.98594 ], [ 83.75843, 24.98648 ], [ 83.75961, 24.99576 ], [ 83.75893, 24.99703 ], [ 83.75753, 24.99594 ], [ 83.75517, 24.99608 ], [ 83.75333, 24.99032 ], [ 83.75217, 24.98857 ], [ 83.75071, 24.9884 ], [ 83.75163, 24.99791 ], [ 83.75021, 24.99744 ], [ 83.75042, 24.99414 ], [ 83.74934, 24.99223 ], [ 83.74908, 24.9886 ], [ 83.74751, 24.98734 ], [ 83.74732, 24.98919 ], [ 83.7435, 24.99017 ], [ 83.74339, 24.99224 ], [ 83.74, 24.99356 ], [ 83.73845, 24.99363 ], [ 83.73727, 24.98822 ], [ 83.71821, 24.98938 ], [ 83.71758, 24.99336 ], [ 83.71527, 24.99497 ], [ 83.71524, 24.99831 ], [ 83.71204, 24.99952 ], [ 83.71061, 24.99938 ], [ 83.71047, 24.99423 ], [ 83.70785, 24.99393 ], [ 83.70607, 24.99143 ], [ 83.70549, 24.98864 ], [ 83.70604, 24.98273 ], [ 83.69792, 24.98229 ], [ 83.69066, 24.98347 ], [ 83.68928, 24.98169 ], [ 83.68668, 24.98125 ], [ 83.68248, 24.98362 ], [ 83.67951, 24.98689 ], [ 83.67973, 24.98963 ], [ 83.67413, 24.98987 ], [ 83.67235, 24.99073 ], [ 83.67167, 24.98825 ], [ 83.65262, 24.98767 ], [ 83.65206, 24.98841 ], [ 83.65332, 24.98966 ], [ 83.65327, 24.99125 ], [ 83.65152, 24.992 ], [ 83.65197, 24.99257 ], [ 83.64868, 24.99367 ], [ 83.6493, 24.99521 ], [ 83.64889, 24.99772 ], [ 83.64751, 24.9972 ], [ 83.64914, 25.00236 ], [ 83.64729, 25.00465 ], [ 83.64402, 25.00558 ], [ 83.64345, 25.00854 ], [ 83.64086, 25.00748 ], [ 83.63802, 25.00876 ], [ 83.63759, 25.01003 ], [ 83.63533, 25.01041 ], [ 83.63424, 25.01419 ], [ 83.63143, 25.01507 ], [ 83.63202, 25.01753 ], [ 83.62885, 25.01704 ], [ 83.62838, 25.0195 ], [ 83.62685, 25.01861 ], [ 83.61518, 25.01915 ], [ 83.61415, 25.01679 ], [ 83.61272, 25.01564 ], [ 83.60205, 25.01636 ], [ 83.5969, 25.00947 ], [ 83.59392, 25.00981 ], [ 83.59261, 25.00723 ], [ 83.59007, 25.00552 ], [ 83.58774, 25.00575 ], [ 83.58388, 25.0082 ], [ 83.58357, 25.01048 ], [ 83.58242, 25.01051 ], [ 83.58268, 25.01615 ], [ 83.58145, 25.01725 ], [ 83.57993, 25.01714 ], [ 83.57903, 25.01687 ], [ 83.5786, 25.0139 ], [ 83.57778, 25.01303 ], [ 83.57057, 25.01336 ], [ 83.56852, 25.00885 ], [ 83.57137, 25.00577 ], [ 83.56825, 25.00616 ], [ 83.56894, 25.00314 ], [ 83.56396, 25.00298 ], [ 83.56301, 25.00093 ], [ 83.55883, 25.00059 ], [ 83.55833, 25.00412 ], [ 83.55992, 25.00835 ], [ 83.55959, 25.01141 ], [ 83.5541, 25.01262 ], [ 83.55509, 25.02047 ], [ 83.55471, 25.02464 ], [ 83.55977, 25.02596 ], [ 83.56004, 25.02895 ], [ 83.55861, 25.03434 ], [ 83.55159, 25.03843 ], [ 83.5534, 25.04726 ], [ 83.55309, 25.05245 ], [ 83.54997, 25.05433 ], [ 83.54873, 25.05686 ], [ 83.54724, 25.05738 ], [ 83.54428, 25.05778 ], [ 83.54169, 25.05486 ], [ 83.53897, 25.05471 ], [ 83.52787, 25.05656 ], [ 83.53008, 25.07357 ], [ 83.53179, 25.07503 ], [ 83.5307, 25.07937 ], [ 83.52875, 25.0801 ], [ 83.52924, 25.08149 ], [ 83.52872, 25.08348 ], [ 83.53069, 25.08324 ], [ 83.53248, 25.09183 ], [ 83.5311, 25.09293 ], [ 83.51278, 25.09797 ], [ 83.51162, 25.09966 ], [ 83.5075, 25.10061 ], [ 83.50718, 25.10288 ], [ 83.50613, 25.10355 ], [ 83.50653, 25.10645 ], [ 83.51164, 25.10928 ], [ 83.51246, 25.11072 ], [ 83.51746, 25.11066 ], [ 83.51945, 25.10934 ], [ 83.52024, 25.11469 ], [ 83.52281, 25.11576 ], [ 83.52362, 25.11748 ], [ 83.529, 25.11819 ], [ 83.52976, 25.12949 ], [ 83.52057, 25.13044 ], [ 83.52061, 25.13201 ], [ 83.51841, 25.13324 ], [ 83.51861, 25.13589 ], [ 83.51483, 25.1365 ], [ 83.51463, 25.13752 ], [ 83.51034, 25.13804 ], [ 83.50958, 25.13929 ], [ 83.50419, 25.13957 ], [ 83.50621, 25.14666 ], [ 83.50698, 25.15855 ], [ 83.51015, 25.16153 ], [ 83.50797, 25.16258 ], [ 83.50703, 25.1622 ], [ 83.50676, 25.16099 ], [ 83.50207, 25.16138 ], [ 83.5019, 25.15616 ], [ 83.49805, 25.15609 ], [ 83.49298, 25.15724 ], [ 83.49312, 25.1597 ], [ 83.49592, 25.15989 ], [ 83.49554, 25.16216 ], [ 83.49702, 25.16329 ], [ 83.49766, 25.16962 ], [ 83.497, 25.17152 ], [ 83.5, 25.17041 ], [ 83.51177, 25.16891 ], [ 83.51841, 25.17198 ], [ 83.52026, 25.17096 ], [ 83.52021, 25.16939 ], [ 83.52247, 25.16615 ], [ 83.52714, 25.16551 ], [ 83.52907, 25.166 ], [ 83.5323, 25.16898 ], [ 83.53549, 25.16986 ], [ 83.5398, 25.16693 ], [ 83.54124, 25.16744 ], [ 83.54448, 25.17143 ], [ 83.54437, 25.17228 ], [ 83.54171, 25.17365 ] ] ] } },
{ "type": "Feature", "properties": { "OBJECTID": 6566, "state_lgd": "10", "state_name": "BIHAR", "district_lgd": "233", "district_name": "KAIMUR (BHABUA)", "district_name_source": "district_table", "subdistrict_lgd": "01454", "subdistrict_name": "Rampur", "subdistrict_type": "", "name_corrupted": false, "remarks": "", "label_lon": 83.732651605425474, "label_lat": 24.8897075 }, "geometry": { "type": "Polygon", "coordinates": [ [ [ 83.71684, 24.99415 ], [ 83.71821, 24.98938 ], [ 83.72729, 24.98925 ], [ 83.7362, 24.98809 ], [ 83.73727, 24.98822 ], [ 83.73845, 24.99363 ], [ 83.74226, 24.99314 ], [ 83.74339, 24.99224 ], [ 83.7435, 24.99017 ], [ 83.74732, 24.98919 ], [ 83.74751, 24.98734 ], [ 83.74908, 24.9886 ], [ 83.74934, 24.99223 ], [ 83.75042, 24.99414 ], [ 83.75021, 24.99744 ], [ 83.75163, 24.99791 ], [ 83.75071, 24.9884 ], [ 83.75217, 24.98857 ], [ 83.75333, 24.99032 ], [ 83.75517, 24.99608 ], [ 83.75753, 24.99594 ], [ 83.75893, 24.99703 ], [ 83.75961, 24.99576 ], [ 83.75843, 24.98648 ], [ 83.75967, 24.98594 ], [ 83.76123, 24.98764 ], [ 83.76296, 24.98731 ], [ 83.76311, 24.9819 ], [ 83.76407, 24.98126 ], [ 83.769, 24.98256 ], [ 83.77062, 24.98604 ], [ 83.7729, 24.98632 ], [ 83.77357, 24.98784 ], [ 83.77808, 24.98776 ], [ 83.78025, 24.99131 ], [ 83.78738, 24.99118 ], [ 83.78708, 24.98483 ], [ 83.79006, 24.98449 ], [ 83.79496, 24.98438 ], [ 83.79598, 24.98631 ], [ 83.7985, 24.98825 ], [ 83.80879, 24.98819 ], [ 83.81538, 24.99026 ], [ 83.81717, 24.99028 ], [ 83.8198, 24.98881 ], [ 83.81845, 24.98553 ], [ 83.81493, 24.98609 ], [ 83.80848, 24.97926 ], [ 83.80824, 24.97195 ], [ 83.80962, 24.96593 ], [ 83.81154, 24.96208 ], [ 83.811, 24.95932 ], [ 83.80945, 24.95848 ], [ 83.80357, 24.9597 ], [ 83.80088, 24.95915 ], [ 83.79992, 24.95794 ], [ 83.80084, 24.95602 ], [ 83.80561, 24.95382 ], [ 83.80498, 24.95165 ], [ 83.79676, 24.94978 ], [ 83.79598, 24.94688 ], [ 83.79692, 24.94317 ], [ 83.79572, 24.94137 ], [ 83.79263, 24.94 ], [ 83.79275, 24.93702 ], [ 83.79202, 24.9365 ], [ 83.78998, 24.93685 ], [ 83.78784, 24.93869 ], [ 83.78604, 24.93882 ], [ 83.78536, 24.93479 ], [ 83.78229, 24.93164 ], [ 83.77881, 24.92975 ], [ 83.78102, 24.92558 ], [ 83.7789, 24.92504 ], [ 83.7743, 24.92083 ], [ 83.77338, 24.91591 ], [ 83.76841, 24.91549 ], [ 83.76379, 24.91321 ], [ 83.76372, 24.91225 ], [ 83.76621, 24.90892 ], [ 83.76387, 24.90622 ], [ 83.76487, 24.89803 ], [ 83.76407, 24.89743 ], [ 83.76039, 24.89777 ], [ 83.76037, 24.89293 ], [ 83.76211, 24.89072 ], [ 83.75922, 24.88674 ], [ 83.75884, 24.8848 ], [ 83.75511, 24.88306 ], [ 83.75369, 24.87858 ], [ 83.75531, 24.87308 ], [ 83.76059, 24.8741 ], [ 83.76126, 24.87328 ], [ 83.76087, 24.87194 ], [ 83.75607, 24.87115 ], [ 83.75669, 24.8661 ], [ 83.75476, 24.86436 ], [ 83.75387, 24.86391 ], [ 83.7497, 24.86762 ], [ 83.74857, 24.86749 ], [ 83.74886, 24.86347 ], [ 83.74804, 24.86286 ], [ 83.74531, 24.86434 ], [ 83.74236, 24.85889 ], [ 83.74064, 24.85778 ], [ 83.73824, 24.85868 ], [ 83.73677, 24.85796 ], [ 83.73471, 24.85321 ], [ 83.72726, 24.85162 ], [ 83.72665, 24.85069 ], [ 83.72762, 24.84704 ], [ 83.72293, 24.84529 ], [ 83.72219, 24.83951 ], [ 83.71853, 24.83767 ], [ 83.71767, 24.83634 ], [ 83.71573, 24.83637 ], [ 83.71682, 24.83147 ], [ 83.72413, 24.82755 ], [ 83.7277, 24.82468 ], [ 83.72946, 24.82123 ], [ 83.72868, 24.82036 ], [ 83.72754, 24.81917 ], [ 83.7195, 24.81899 ], [ 83.71902, 24.82138 ], [ 83.7157, 24.82717 ], [ 83.71328, 24.82889 ], [ 83.70587, 24.82586 ], [ 83.69234, 24.81683 ], [ 83.69056, 24.81681 ], [ 83.68692, 24.82117 ], [ 83.67958, 24.81461 ], [ 83.67543, 24.81286 ], [ 83.67053, 24.80936 ], [ 83.66193, 24.80848 ], [ 83.65591, 24.80247 ], [ 83.64623, 24.79926 ], [ 83.63654, 24.79053 ], [ 83.63515, 24.78811 ], [ 83.63482, 24.78423 ], [ 83.63177, 24.78437 ], [ 83.63178, 24.78192 ], [ 83.62886, 24.77968 ], [ 83.62868, 24.78277 ], [ 83.6307, 24.78662 ], [ 83.63055, 24.78905 ], [ 83.63702, 24.7986 ], [ 83.63885, 24.8036 ], [ 83.64339, 24.80995 ], [ 83.64469, 24.8152 ], [ 83.66102, 24.83293 ], [ 83.66156, 24.83486 ], [ 83.65814, 24.83603 ], [ 83.65626, 24.8385 ], [ 83.64987, 24.84054 ], [ 83.64555, 24.84532 ], [ 83.63676, 24.84244 ], [ 83.63166, 24.8476 ], [ 83.63951, 24.85173 ], [ 83.64355, 24.85629 ], [ 83.64749, 24.8577 ], [ 83.65175, 24.86095 ], [ 83.66684, 24.86619 ], [ 83.6687, 24.87019 ], [ 83.67461, 24.86985 ], [ 83.6784, 24.87384 ], [ 83.68178, 24.87506 ], [ 83.67986, 24.87755 ], [ 83.68583, 24.8775 ], [ 83.69418, 24.88371 ], [ 83.70173, 24.88452 ], [ 83.70462, 24.88909 ], [ 83.70324, 24.89032 ], [ 83.70638, 24.89149 ], [ 83.70886, 24.89689 ], [ 83.71432, 24.89678 ], [ 83.71496, 24.90015 ], [ 83.72737, 24.9012 ], [ 83.72706, 24.90696 ], [ 83.73242, 24.91318 ], [ 83.72962, 24.91392 ], [ 83.71999, 24.91372 ], [ 83.71645, 24.91528 ], [ 83.70783, 24.9069 ], [ 83.70453, 24.91002 ], [ 83.70275, 24.91643 ], [ 83.69528, 24.91776 ], [ 83.68941, 24.91446 ], [ 83.6926, 24.92779 ], [ 83.69331, 24.93808 ], [ 83.68906, 24.94113 ], [ 83.68302, 24.94226 ], [ 83.6795, 24.94785 ], [ 83.67701, 24.94949 ], [ 83.67746, 24.95336 ], [ 83.67628, 24.95837 ], [ 83.67881, 24.9656 ], [ 83.67927, 24.97221 ], [ 83.67868, 24.97854 ], [ 83.67808, 24.98079 ], [ 83.67605, 24.98205 ], [ 83.67454, 24.98488 ], [ 83.67177, 24.98559 ], [ 83.67235, 24.99073 ], [ 83.67413, 24.98987 ], [ 83.67973, 24.98963 ], [ 83.67951, 24.98689 ], [ 83.68148, 24.98455 ], [ 83.68732, 24.98125 ], [ 83.69016, 24.98224 ], [ 83.69066, 24.98347 ], [ 83.69792, 24.98229 ], [ 83.70604, 24.98273 ], [ 83.70549, 24.98864 ], [ 83.70607, 24.99143 ], [ 83.70785, 24.99393 ], [ 83.71047, 24.99423 ], [ 83.71061, 24.99938 ], [ 83.71524, 24.99831 ], [ 83.71527, 24.99497 ], [ 83.71684, 24.99415 ] ] ] } },
{ "type": "Feature", "properties": { "OBJECTID": 6567, "state_lgd": "10", "state_name": "BIHAR", "district_lgd": "233", "district_name": "KAIMUR (BHABUA)", "district_name_source": "district_table", "subdistrict_lgd": "01455", "subdistrict_name": "Bhagwanpur", "subdistrict_type": "", "name_corrupted": false, "remarks": "", "label_lon": 83.586768557905131, "label_lat": 24.940409490825587 }, "geometry": { "type": "Polygon", "coordinates": [ [ [ 83.62838, 25.0195 ], [ 83.62885, 25.01704 ], [ 83.63202, 25.01753 ], [ 83.63143, 25.01507 ], [ 83.63424, 25.01419 ], [ 83.63533, 25.01041 ], [ 83.63759, 25.01003 ], [ 83.63802, 25.00876 ], [ 83.64086, 25.00748 ], [ 83.64345, 25.00854 ], [ 83.64402, 25.00558 ], [ 83.64729, 25.00465 ], [ 83.64914, 25.00236 ], [ 83.64751, 24.9972 ], [ 83.64889, 24.99772 ], [ 83.6493, 24.99521 ], [ 83.64868, 24.99367 ], [ 83.65197, 24.99257 ], [ 83.65152, 24.992 ], [ 83.65327, 24.99125 ], [ 83.65332, 24.98966 ], [ 83.65206, 24.98841 ], [ 83.65262, 24.98767 ], [ 83.67167, 24.98825 ], [ 83.67177, 24.98559 ], [ 83.67454, 24.98488 ], [ 83.67605, 24.98205 ], [ 83.67808, 24.98079 ], [ 83.67927, 24.97221 ], [ 83.67881, 24.9656 ], [ 83.67628, 24.95837 ], [ 83.67746, 24.95336 ], [ 83.67701, 24.94949 ], [ 83.6795, 24.94785 ], [ 83.68302, 24.94226 ], [ 83.68906, 24.94113 ], [ 83.69331, 24.93808 ], [ 83.6926, 24.92779 ], [ 83.68941, 24.91446 ], [ 83.69643, 24.9114 ], [ 83.70429, 24.90304 ], [ 83.7054, 24.90059 ], [ 83.70453, 24.89708 ], [ 83.69814, 24.89795 ], [ 83.69176, 24.89479 ], [ 83.68551, 24.9019 ], [ 83.6763, 24.90155 ], [ 83.67989, 24.89767 ], [ 83.68492, 24.89024 ], [ 83.68184, 24.88716 ], [ 83.6685, 24.89702 ], [ 83.66403, 24.90152 ], [ 83.66029, 24.90792 ], [ 83.65803, 24.90995 ], [ 83.65335, 24.91196 ], [ 83.65013, 24.91203 ], [ 83.64466, 24.91465 ], [ 83.64097, 24.91402 ], [ 83.63727, 24.91213 ], [ 83.63468, 24.90849 ], [ 83.63331, 24.90324 ], [ 83.63146, 24.90132 ], [ 83.6118, 24.89004 ], [ 83.60981, 24.88544 ], [ 83.60959, 24.87971 ], [ 83.61199, 24.87921 ], [ 83.61696, 24.87533 ], [ 83.61603, 24.87269 ], [ 83.62002, 24.86978 ], [ 83.62174, 24.86362 ], [ 83.62053, 24.85801 ], [ 83.62073, 24.85419 ], [ 83.622, 24.84677 ], [ 83.6241, 24.84035 ], [ 83.62408, 24.83901 ], [ 83.62202, 24.83575 ], [ 83.62386, 24.83373 ], [ 83.62435, 24.82713 ], [ 83.62541, 24.82648 ], [ 83.62575, 24.82285 ], [ 83.6247, 24.81845 ], [ 83.62267, 24.81742 ], [ 83.61983, 24.82106 ], [ 83.61893, 24.82744 ], [ 83.61549, 24.82939 ], [ 83.615, 24.8336 ], [ 83.61028, 24.84298 ], [ 83.61186, 24.8471 ], [ 83.61048, 24.85453 ], [ 83.60814, 24.85846 ], [ 83.60578, 24.86075 ], [ 83.60507, 24.86117 ], [ 83.60319, 24.86029 ], [ 83.59343, 24.85262 ], [ 83.58845, 24.85025 ], [ 83.5838, 24.84964 ], [ 83.58085, 24.85027 ], [ 83.58072, 24.85172 ], [ 83.58669, 24.8576 ], [ 83.5905, 24.86315 ], [ 83.59515, 24.86686 ], [ 83.59626, 24.86904 ], [ 83.59501, 24.8699 ], [ 83.58474, 24.87016 ], [ 83.58615, 24.879 ], [ 83.59078, 24.87908 ], [ 83.59173, 24.88663 ], [ 83.59066, 24.89091 ], [ 83.58648, 24.89582 ], [ 83.58255, 24.89 ], [ 83.5765, 24.89027 ], [ 83.57214, 24.88688 ], [ 83.56938, 24.88794 ], [ 83.57292, 24.89581 ], [ 83.57518, 24.89725 ], [ 83.57682, 24.90071 ], [ 83.58241, 24.90429 ], [ 83.58129, 24.91138 ], [ 83.57928, 24.9166 ], [ 83.57556, 24.92257 ], [ 83.56509, 24.92054 ], [ 83.55835, 24.91406 ], [ 83.55851, 24.91081 ], [ 83.55281, 24.90155 ], [ 83.54388, 24.90648 ], [ 83.54496, 24.91066 ], [ 83.54422, 24.91292 ], [ 83.53626, 24.9174 ], [ 83.53045, 24.91962 ], [ 83.52848, 24.9201 ], [ 83.52269, 24.91913 ], [ 83.5216, 24.91765 ], [ 83.52103, 24.90855 ], [ 83.52438, 24.9051 ], [ 83.52441, 24.90123 ], [ 83.51986, 24.89776 ], [ 83.52007, 24.89696 ], [ 83.51872, 24.89593 ], [ 83.51825, 24.89424 ], [ 83.51839, 24.89315 ], [ 83.5205, 24.89384 ], [ 83.51881, 24.8914 ], [ 83.5221, 24.88902 ], [ 83.52214, 24.88813 ], [ 83.51988, 24.88656 ], [ 83.51966, 24.88378 ], [ 83.5183, 24.88277 ], [ 83.5201, 24.87927 ], [ 83.51987, 24.87608 ], [ 83.52236, 24.8747 ], [ 83.51104, 24.87194 ], [ 83.50422, 24.8672 ], [ 83.49067, 24.8642 ], [ 83.48081, 24.86291 ], [ 83.47769, 24.86789 ], [ 83.47879, 24.88079 ], [ 83.4784, 24.89672 ], [ 83.47925, 24.90396 ], [ 83.48165, 24.9088 ], [ 83.48033, 24.91331 ], [ 83.48059, 24.9206 ], [ 83.48079, 24.92135 ], [ 83.48901, 24.92315 ], [ 83.49237, 24.928 ], [ 83.48536, 24.93118 ], [ 83.48652, 24.93516 ], [ 83.49083, 24.93583 ], [ 83.49533, 24.93797 ], [ 83.49719, 24.93809 ], [ 83.49854, 24.93726 ], [ 83.49861, 24.95711 ], [ 83.49747, 24.95709 ], [ 83.49643, 24.96001 ], [ 83.49753, 24.96782 ], [ 83.49527, 24.97177 ], [ 83.49379, 24.98034 ], [ 83.49433, 24.98249 ], [ 83.49345, 24.98352 ], [ 83.49424, 24.98366 ], [ 83.49533, 24.98732 ], [ 83.498, 24.98637 ], [ 83.499, 24.98476 ], [ 83.51089, 24.99016 ], [ 83.51758, 24.99053 ], [ 83.52157, 24.9893 ], [ 83.52702, 24.99068 ], [ 83.53104, 24.99416 ], [ 83.54094, 24.99455 ], [ 83.54778, 24.99199 ], [ 83.55824, 24.98612 ], [ 83.56172, 24.99083 ], [ 83.56167, 24.9942 ], [ 83.56364, 25.00268 ], [ 83.56894, 25.00314 ], [ 83.56825, 25.00616 ], [ 83.57137, 25.00577 ], [ 83.56852, 25.00885 ], [ 83.57057, 25.01336 ], [ 83.57778, 25.01303 ], [ 83.5786, 25.0139 ], [ 83.57903, 25.01687 ], [ 83.58145, 25.01725 ], [ 83.58268, 25.01615 ], [ 83.58242, 25.01051 ], [ 83.58357, 25.01048 ], [ 83.58388, 25.0082 ], [ 83.58774, 25.00575 ], [ 83.59007, 25.00552 ], [ 83.59261, 25.00723 ], [ 83.59392, 25.00981 ], [ 83.5969, 25.00947 ], [ 83.60205, 25.01636 ], [ 83.61272, 25.01564 ], [ 83.61415, 25.01679 ], [ 83.61518, 25.01915 ], [ 83.62685, 25.01861 ], [ 83.62838, 25.0195 ] ] ] } },
{ "type": "Feature", "properties": { "OBJECTID": 6568, "state_lgd": "10", "state_name": "BIHAR", "district_lgd": "233", "district_name": "KAIMUR (BHABUA)", "district_name_source": "district_table", "subdistrict_lgd": "01456", "subdistrict_name": "Adhaura", "subdistrict_type": "", "name_corrupted": false, "remarks": "", "label_lon": 83.61350410843113, "label_lat": 24.71994740414447 }, "geometry": { "type": "Polygon", "coordinates": [ [ [ 83.57757, 24.90135 ], [ 83.57483, 24.89682 ], [ 83.57292, 24.89581 ], [ 83.56938, 24.88794 ], [ 83.57214, 24.88688 ], [ 83.5765, 24.89027 ], [ 83.58255, 24.89 ], [ 83.58648, 24.89582 ], [ 83.59066, 24.89091 ], [ 83.59173, 24.88663 ], [ 83.59078, 24.87908 ], [ 83.58615, 24.879 ], [ 83.58474, 24.87016 ], [ 83.59501, 24.8699 ], [ 83.59626, 24.86904 ], [ 83.59515, 24.86686 ], [ 83.5905, 24.86315 ], [ 83.58669, 24.8576 ], [ 83.58072, 24.85172 ], [ 83.58085, 24.85027 ], [ 83.5838, 24.84964 ], [ 83.58845, 24.85025 ], [ 83.59343, 24.85262 ], [ 83.60319, 24.86029 ], [ 83.60507, 24.86117 ], [ 83.60578, 24.86075 ], [ 83.60814, 24.85846 ], [ 83.61048, 24.85453 ], [ 83.61186, 24.8471 ], [ 83.61028, 24.84298 ], [ 83.615, 24.8336 ], [ 83.61549, 24.82939 ], [ 83.61893, 24.82744 ], [ 83.61983, 24.82106 ], [ 83.62267, 24.81742 ], [ 83.6247, 24.81845 ], [ 83.62575, 24.82285 ], [ 83.62541, 24.82648 ], [ 83.62435, 24.82713 ], [ 83.62386, 24.83373 ], [ 83.62202, 24.83575 ], [ 83.62408, 24.83901 ], [ 83.6241, 24.84035 ], [ 83.622, 24.84677 ], [ 83.62073, 24.85419 ], [ 83.62053, 24.85801 ], [ 83.62174, 24.86362 ], [ 83.62002, 24.86978 ], [ 83.61603, 24.87269 ], [ 83.61696, 24.87533 ], [ 83.61199, 24.87921 ], [ 83.60959, 24.87971 ], [ 83.60981, 24.88544 ], [ 83.6118, 24.89004 ], [ 83.63146, 24.90132 ], [ 83.63331, 24.90324 ], [ 83.63553, 24.91005 ], [ 83.63787, 24.91267 ], [ 83.64159, 24.91419 ], [ 83.6454, 24.91455 ], [ 83.65013, 24.91203 ], [ 83.65335, 24.91196 ], [ 83.65803, 24.90995 ], [ 83.66029, 24.90792 ], [ 83.66403, 24.90152 ], [ 83.6685, 24.89702 ], [ 83.68184, 24.88716 ], [ 83.68492, 24.89024 ], [ 83.67989, 24.89767 ], [ 83.6763, 24.90155 ], [ 83.68551, 24.9019 ], [ 83.69176, 24.89479 ], [ 83.69814, 24.89795 ], [ 83.70453, 24.89708 ], [ 83.7054, 24.90059 ], [ 83.70429, 24.90304 ], [ 83.69643, 24.9114 ], [ 83.68941, 24.91446 ], [ 83.69528, 24.91776 ], [ 83.70275, 24.91643 ], [ 83.70453, 24.91002 ], [ 83.70783, 24.9069 ], [ 83.71645, 24.91528 ], [ 83.71999, 24.91372 ], [ 83.73225, 24.9137 ], [ 83.73092, 24.91091 ], [ 83.72706, 24.90696 ], [ 83.72737, 24.9012 ], [ 83.71496, 24.90015 ], [ 83.71432, 24.89678 ], [ 83.70886, 24.89689 ], [ 83.70638, 24.89149 ], [ 83.70324, 24.89032 ], [ 83.70462, 24.88909 ], [ 83.70173, 24.88452 ], [ 83.69418, 24.88371 ], [ 83.68583, 24.8775 ], [ 83.67986, 24.87755 ], [ 83.68178, 24.87506 ], [ 83.6784, 24.87384 ], [ 83.67461, 24.86985 ], [ 83.6687, 24.87019 ], [ 83.66684, 24.86619 ], [ 83.65175, 24.86095 ], [ 83.64749, 24.8577 ], [ 83.64355, 24.85629 ], [ 83.63951, 24.85173 ], [ 83.63166, 24.8476 ], [ 83.63676, 24.84244 ], [ 83.64555, 24.84532 ], [ 83.64987, 24.84054 ], [ 83.65626, 24.8385 ], [ 83.65814, 24.83603 ], [ 83.66156, 24.83486 ], [ 83.66102, 24.83293 ], [ 83.64469, 24.8152 ], [ 83.64339, 24.80995 ], [ 83.63885, 24.8036 ], [ 83.63702, 24.7986 ], [ 83.63055, 24.78905 ], [ 83.6307, 24.78662 ], [ 83.62868, 24.78277 ], [ 83.62866, 24.78013 ], [ 83.63141, 24.78138 ], [ 83.63177, 24.78437 ], [ 83.63482, 24.78423 ], [ 83.63515, 24.78811 ], [ 83.63654, 24.79053 ], [ 83.6432, 24.79692 ], [ 83.64706, 24.79969 ], [ 83.65591, 24.80247 ], [ 83.66134, 24.8082 ], [ 83.67053, 24.80936 ], [ 83.67543, 24.81286 ], [ 83.67958, 24.81461 ], [ 83.68692, 24.82117 ], [ 83.69056, 24.81681 ], [ 83.69234, 24.81683 ], [ 83.70587, 24.82586 ], [ 83.71328, 24.82889 ], [ 83.7157, 24.82717 ], [ 83.71902, 24.82138 ], [ 83.7195, 24.81899 ], [ 83.72754, 24.81917 ], [ 83.72534, 24.81672 ], [ 83.72518, 24.81525 ], [ 83.72646, 24.81111 ], [ 83.72912, 24.80759 ], [ 83.73641, 24.80717 ], [ 83.74481, 24.80311 ], [ 83.74972, 24.80188 ], [ 83.75218, 24.79976 ], [ 83.75767, 24.80172 ], [ 83.7629, 24.79802 ], [ 83.77296, 24.79641 ], [ 83.777, 24.79323 ], [ 83.77662, 24.7895 ], [ 83.77484, 24.78469 ], [ 83.77631, 24.78218 ], [ 83.77695, 24.77638 ], [ 83.77912, 24.77424 ], [ 83.7784, 24.77203 ], [ 83.78515, 24.75963 ], [ 83.78416, 24.75897 ], [ 83.78209, 24.76131 ], [ 83.77893, 24.76161 ], [ 83.77679, 24.75995 ], [ 83.77584, 24.75763 ], [ 83.77753, 24.75297 ], [ 83.77745, 24.75098 ], [ 83.78139, 24.74904 ], [ 83.78053, 24.74562 ], [ 83.78116, 24.7445 ], [ 83.78074, 24.73499 ], [ 83.77126, 24.73465 ], [ 83.76581, 24.73018 ], [ 83.76378, 24.72338 ], [ 83.75967, 24.71714 ], [ 83.76123, 24.71119 ], [ 83.76074, 24.70547 ], [ 83.75602, 24.70835 ], [ 83.75531, 24.70293 ], [ 83.753, 24.70109 ], [ 83.75064, 24.69734 ], [ 83.74995, 24.69402 ], [ 83.74353, 24.68764 ], [ 83.74336, 24.68406 ], [ 83.73972, 24.68047 ], [ 83.73874, 24.67607 ], [ 83.73646, 24.67135 ], [ 83.7297, 24.66451 ], [ 83.73242, 24.66192 ], [ 83.7322, 24.65972 ], [ 83.72981, 24.65942 ], [ 83.72816, 24.65821 ], [ 83.72996, 24.65659 ], [ 83.73092, 24.65363 ], [ 83.73253, 24.65173 ], [ 83.73093, 24.64851 ], [ 83.73337, 24.64487 ], [ 83.73995, 24.64295 ], [ 83.74052, 24.64164 ], [ 83.73978, 24.63994 ], [ 83.74001, 24.63788 ], [ 83.74183, 24.6366 ], [ 83.74375, 24.63746 ], [ 83.7452, 24.63692 ], [ 83.74576, 24.63499 ], [ 83.75213, 24.62639 ], [ 83.74808, 24.61293 ], [ 83.74272, 24.61292 ], [ 83.74146, 24.60551 ], [ 83.73861, 24.59721 ], [ 83.73827, 24.59037 ], [ 83.73738, 24.58809 ], [ 83.73806, 24.58671 ], [ 83.73541, 24.5816 ], [ 83.73542, 24.57739 ], [ 83.74246, 24.57074 ], [ 83.74054, 24.56711 ], [ 83.73126, 24.55908 ], [ 83.71649, 24.55863 ], [ 83.7171, 24.55582 ], [ 83.71593, 24.55024 ], [ 83.71338, 24.54921 ], [ 83.713, 24.54669 ], [ 83.7115, 24.5448 ], [ 83.70736, 24.54272 ], [ 83.6925, 24.54032 ], [ 83.68865, 24.54108 ], [ 83.67375, 24.54038 ], [ 83.6736, 24.54291 ], [ 83.67211, 24.54435 ], [ 83.66427, 24.54776 ], [ 83.66325, 24.55031 ], [ 83.66314, 24.55428 ], [ 83.65934, 24.55897 ], [ 83.65771, 24.55339 ], [ 83.65416, 24.54985 ], [ 83.64851, 24.54895 ], [ 83.64702, 24.54489 ], [ 83.64533, 24.54378 ], [ 83.63515, 24.54087 ], [ 83.60389, 24.54008 ], [ 83.56275, 24.54395 ], [ 83.52412, 24.54173 ], [ 83.52155, 24.54724 ], [ 83.52228, 24.54766 ], [ 83.5218, 24.55222 ], [ 83.52388, 24.5579 ], [ 83.52829, 24.56158 ], [ 83.5301, 24.56732 ], [ 83.53034, 24.56943 ], [ 83.52881, 24.57458 ], [ 83.53021, 24.57816 ], [ 83.53022, 24.58205 ], [ 83.528, 24.58628 ], [ 83.52435, 24.58894 ], [ 83.52456, 24.59102 ], [ 83.52266, 24.59855 ], [ 83.52331, 24.60252 ], [ 83.5273, 24.60587 ], [ 83.53042, 24.6124 ], [ 83.53378, 24.61308 ], [ 83.54192, 24.61275 ], [ 83.54327, 24.6173 ], [ 83.54798, 24.62328 ], [ 83.5437, 24.62828 ], [ 83.53153, 24.62696 ], [ 83.52469, 24.62782 ], [ 83.52476, 24.62943 ], [ 83.5268, 24.63002 ], [ 83.52981, 24.64303 ], [ 83.52019, 24.64106 ], [ 83.51737, 24.64283 ], [ 83.51635, 24.64479 ], [ 83.5099, 24.6483 ], [ 83.50479, 24.6469 ], [ 83.50288, 24.6478 ], [ 83.50049, 24.65125 ], [ 83.50399, 24.6663 ], [ 83.50915, 24.67119 ], [ 83.52038, 24.6775 ], [ 83.51684, 24.68111 ], [ 83.51776, 24.68301 ], [ 83.5108, 24.68578 ], [ 83.50701, 24.69282 ], [ 83.50178, 24.69338 ], [ 83.49886, 24.69486 ], [ 83.50053, 24.69732 ], [ 83.49917, 24.69922 ], [ 83.49969, 24.70138 ], [ 83.49864, 24.70333 ], [ 83.49529, 24.70452 ], [ 83.49196, 24.70111 ], [ 83.48974, 24.70044 ], [ 83.48634, 24.70214 ], [ 83.48513, 24.70167 ], [ 83.48544, 24.71535 ], [ 83.48833, 24.72279 ], [ 83.48934, 24.73633 ], [ 83.48639, 24.73656 ], [ 83.47858, 24.73386 ], [ 83.47532, 24.73389 ], [ 83.4709, 24.73237 ], [ 83.46528, 24.73228 ], [ 83.46228, 24.73309 ], [ 83.46029, 24.73122 ], [ 83.4581, 24.73135 ], [ 83.45733, 24.7338 ], [ 83.45319, 24.73501 ], [ 83.45083, 24.73855 ], [ 83.44864, 24.73833 ], [ 83.44882, 24.73984 ], [ 83.44712, 24.74078 ], [ 83.44525, 24.74567 ], [ 83.44156, 24.75097 ], [ 83.44221, 24.7533 ], [ 83.44138, 24.75645 ], [ 83.43744, 24.75734 ], [ 83.43485, 24.76079 ], [ 83.4329, 24.76074 ], [ 83.42784, 24.7631 ], [ 83.42706, 24.76496 ], [ 83.42783, 24.76829 ], [ 83.42197, 24.7694 ], [ 83.41927, 24.77189 ], [ 83.41281, 24.77502 ], [ 83.41124, 24.77395 ], [ 83.40794, 24.7741 ], [ 83.39778, 24.77811 ], [ 83.39671, 24.77902 ], [ 83.39699, 24.78178 ], [ 83.39421, 24.78205 ], [ 83.39287, 24.78309 ], [ 83.39325, 24.78653 ], [ 83.39118, 24.78947 ], [ 83.39964, 24.79666 ], [ 83.40363, 24.79752 ], [ 83.40483, 24.79701 ], [ 83.41462, 24.79988 ], [ 83.41864, 24.80009 ], [ 83.42318, 24.79913 ], [ 83.4307, 24.79598 ], [ 83.45137, 24.79424 ], [ 83.45304, 24.79779 ], [ 83.45982, 24.80584 ], [ 83.4642, 24.80825 ], [ 83.46608, 24.81204 ], [ 83.47537, 24.81317 ], [ 83.47839, 24.81294 ], [ 83.48282, 24.8109 ], [ 83.48099, 24.82307 ], [ 83.48592, 24.82509 ], [ 83.48703, 24.8272 ], [ 83.49391, 24.82879 ], [ 83.49958, 24.83123 ], [ 83.50005, 24.82947 ], [ 83.50151, 24.82948 ], [ 83.50652, 24.8315 ], [ 83.51934, 24.84603 ], [ 83.52956, 24.84585 ], [ 83.53074, 24.84914 ], [ 83.52794, 24.84932 ], [ 83.52647, 24.85066 ], [ 83.52563, 24.85329 ], [ 83.52634, 24.85862 ], [ 83.5231, 24.86036 ], [ 83.52257, 24.86481 ], [ 83.52326, 24.86746 ], [ 83.52255, 24.86919 ], [ 83.52536, 24.87072 ], [ 83.52363, 24.87205 ], [ 83.5244, 24.87335 ], [ 83.51987, 24.87608 ], [ 83.5201, 24.87927 ], [ 83.5183, 24.88277 ], [ 83.51966, 24.88378 ], [ 83.51988, 24.88656 ], [ 83.52214, 24.88813 ], [ 83.52181, 24.8895 ], [ 83.51881, 24.8914 ], [ 83.5206, 24.89343 ], [ 83.51839, 24.89315 ], [ 83.51872, 24.89593 ], [ 83.52007, 24.89696 ], [ 83.51986, 24.89776 ], [ 83.52441, 24.90123 ], [ 83.52438, 24.9051 ], [ 83.52103, 24.90855 ], [ 83.5216, 24.91765 ], [ 83.52269, 24.91913 ], [ 83.52848, 24.9201 ], [ 83.53045, 24.91962 ], [ 83.53626, 24.9174 ], [ 83.54422, 24.91292 ], [ 83.54496, 24.91066 ], [ 83.54388, 24.90648 ], [ 83.55281, 24.90155 ], [ 83.55851, 24.91081 ], [ 83.55835, 24.91406 ], [ 83.56509, 24.92054 ], [ 83.57556, 24.92257 ], [ 83.57928, 24.9166 ], [ 83.58249, 24.90671 ], [ 83.58207, 24.90378 ], [ 83.57757, 24.90135 ] ] ] } }
]
}
