{
"type": "FeatureCollection",
"name": "290_SOUTH_TRIPURA",
"crs": { "type": "name", "properties": { "name": "urn:ogc:def:crs:OGC:1.3:CRS84" } },
"xy_coordinate_resolution": 1e-05,
"features": [
{ "type": "Feature", "properties": { "OBJECTID": 5519, "state_lgd": "16", "state_name": "TRIPURA", "district_lgd": "290", "district_name": "SOUTH TRIPURA", "district_name_source": "district_table", "subdistrict_lgd": "6687", "subdistrict_name": "Belonia", "subdistrict_type": "", "name_corrupted": false, "remarks": "", "label_lon": 91.505475757142861, "label_lat": 23.2226705 }, "geometry": { "type": "Polygon", "coordinates": [ [ [ 91.4618, 23.38913 ], [ 91.4666, 23.3878 ], [ 91.46839, 23.38587 ], [ 91.46824, 23.38358 ], [ 91.47178, 23.37769 ], [ 91.47499, 23.37502 ], [ 91.47944, 23.37348 ], [ 91.48418, 23.36717 ], [ 91.48571, 23.36196 ], [ 91.48498, 23.35829 ], [ 91.4823, 23.35577 ], [ 91.48187, 23.35346 ], [ 91.48083, 23.35402 ], [ 91.4816, 23.35293 ], [ 91.48143, 23.35074 ], [ 91.47792, 23.35256 ], [ 91.47495, 23.35039 ], [ 91.47552, 23.34872 ], [ 91.47712, 23.34835 ], [ 91.47678, 23.34727 ], [ 91.47874, 23.345 ], [ 91.47855, 23.34372 ], [ 91.47948, 23.34267 ], [ 91.4822, 23.34186 ], [ 91.48323, 23.34307 ], [ 91.48566, 23.34186 ], [ 91.48542, 23.34129 ], [ 91.48999, 23.33888 ], [ 91.49055, 23.33757 ], [ 91.49267, 23.33647 ], [ 91.49414, 23.33369 ], [ 91.49671, 23.33182 ], [ 91.49927, 23.33304 ], [ 91.50078, 23.33515 ], [ 91.50305, 23.33525 ], [ 91.50374, 23.33633 ], [ 91.50603, 23.33565 ], [ 91.50766, 23.33383 ], [ 91.50706, 23.3326 ], [ 91.5076, 23.3319 ], [ 91.50933, 23.33132 ], [ 91.51247, 23.3285 ], [ 91.51347, 23.32441 ], [ 91.51294, 23.3227 ], [ 91.51614, 23.32018 ], [ 91.52321, 23.32143 ], [ 91.52383, 23.32019 ], [ 91.52503, 23.32017 ], [ 91.52594, 23.32292 ], [ 91.52814, 23.32315 ], [ 91.52908, 23.32102 ], [ 91.53316, 23.32031 ], [ 91.53328, 23.31827 ], [ 91.53713, 23.31615 ], [ 91.53951, 23.31588 ], [ 91.54053, 23.31419 ], [ 91.53951, 23.30643 ], [ 91.53857, 23.30433 ], [ 91.53848, 23.29938 ], [ 91.536, 23.29723 ], [ 91.53482, 23.29291 ], [ 91.5345, 23.28981 ], [ 91.53624, 23.28911 ], [ 91.53709, 23.28697 ], [ 91.53607, 23.28684 ], [ 91.53594, 23.2861 ], [ 91.53801, 23.28371 ], [ 91.53647, 23.28231 ], [ 91.53825, 23.27933 ], [ 91.53795, 23.27817 ], [ 91.53906, 23.27768 ], [ 91.54151, 23.27311 ], [ 91.54312, 23.27235 ], [ 91.54199, 23.27064 ], [ 91.54345, 23.27013 ], [ 91.5431, 23.26813 ], [ 91.54391, 23.26858 ], [ 91.54507, 23.26731 ], [ 91.54554, 23.26189 ], [ 91.55281, 23.25073 ], [ 91.55387, 23.24389 ], [ 91.55617, 23.24034 ], [ 91.55807, 23.24036 ], [ 91.55799, 23.23736 ], [ 91.55648, 23.23372 ], [ 91.55548, 23.23303 ], [ 91.55737, 23.23173 ], [ 91.55824, 23.23045 ], [ 91.55809, 23.22859 ], [ 91.55883, 23.22832 ], [ 91.55752, 23.22607 ], [ 91.55764, 23.22197 ], [ 91.55886, 23.21804 ], [ 91.56215, 23.21123 ], [ 91.56903, 23.20446 ], [ 91.56971, 23.20293 ], [ 91.56884, 23.1994 ], [ 91.57118, 23.19542 ], [ 91.57102, 23.194 ], [ 91.57157, 23.19438 ], [ 91.57323, 23.19112 ], [ 91.57334, 23.18927 ], [ 91.57437, 23.18814 ], [ 91.57373, 23.18795 ], [ 91.57526, 23.1871 ], [ 91.5754, 23.18372 ], [ 91.57811, 23.17923 ], [ 91.57987, 23.17263 ], [ 91.58155, 23.1701 ], [ 91.58193, 23.17052 ], [ 91.58493, 23.16883 ], [ 91.58626, 23.16925 ], [ 91.58674, 23.1678 ], [ 91.58611, 23.16229 ], [ 91.58522, 23.16232 ], [ 91.58599, 23.16181 ], [ 91.58558, 23.15438 ], [ 91.58438, 23.15161 ], [ 91.58561, 23.14766 ], [ 91.58356, 23.14574 ], [ 91.58633, 23.13692 ], [ 91.5878, 23.12803 ], [ 91.58165, 23.12134 ], [ 91.58486, 23.11575 ], [ 91.59019, 23.11226 ], [ 91.59589, 23.10996 ], [ 91.5876, 23.10146 ], [ 91.58606, 23.09748 ], [ 91.5875, 23.09449 ], [ 91.58677, 23.09176 ], [ 91.58925, 23.08782 ], [ 91.5878, 23.08593 ], [ 91.59015, 23.08006 ], [ 91.59016, 23.07803 ], [ 91.58665, 23.0704 ], [ 91.587, 23.06927 ], [ 91.58173, 23.06993 ], [ 91.58092, 23.07098 ], [ 91.57856, 23.07163 ], [ 91.57621, 23.07065 ], [ 91.57117, 23.07046 ], [ 91.56943, 23.06559 ], [ 91.56978, 23.06154 ], [ 91.56843, 23.06022 ], [ 91.56651, 23.06012 ], [ 91.56682, 23.05822 ], [ 91.56608, 23.05766 ], [ 91.56449, 23.05813 ], [ 91.5628, 23.05748 ], [ 91.56082, 23.05874 ], [ 91.55955, 23.05792 ], [ 91.55515, 23.05832 ], [ 91.55487, 23.05733 ], [ 91.5518, 23.05681 ], [ 91.55041, 23.05803 ], [ 91.54891, 23.0581 ], [ 91.54856, 23.0571 ], [ 91.54537, 23.05923 ], [ 91.54159, 23.05862 ], [ 91.54107, 23.05758 ], [ 91.53574, 23.05767 ], [ 91.53156, 23.05533 ], [ 91.52496, 23.05535 ], [ 91.52584, 23.05997 ], [ 91.53534, 23.06331 ], [ 91.52513, 23.08281 ], [ 91.52998, 23.08573 ], [ 91.52983, 23.09166 ], [ 91.51895, 23.09415 ], [ 91.52236, 23.104 ], [ 91.51131, 23.10419 ], [ 91.5123, 23.11322 ], [ 91.52042, 23.11443 ], [ 91.51924, 23.11774 ], [ 91.51542, 23.11763 ], [ 91.51426, 23.12255 ], [ 91.51764, 23.12542 ], [ 91.50381, 23.12723 ], [ 91.50315, 23.13049 ], [ 91.51488, 23.13856 ], [ 91.51532, 23.14499 ], [ 91.51181, 23.14309 ], [ 91.51105, 23.14376 ], [ 91.51093, 23.14309 ], [ 91.50981, 23.14319 ], [ 91.51, 23.14139 ], [ 91.50924, 23.14138 ], [ 91.51002, 23.14037 ], [ 91.50814, 23.1405 ], [ 91.50819, 23.13965 ], [ 91.50455, 23.14031 ], [ 91.50164, 23.14306 ], [ 91.50027, 23.14273 ], [ 91.50003, 23.14193 ], [ 91.49873, 23.14247 ], [ 91.49897, 23.14378 ], [ 91.49631, 23.14563 ], [ 91.49648, 23.14661 ], [ 91.49474, 23.14708 ], [ 91.5032, 23.151 ], [ 91.50734, 23.15341 ], [ 91.50722, 23.15424 ], [ 91.49428, 23.15221 ], [ 91.49088, 23.1576 ], [ 91.49334, 23.1605 ], [ 91.49338, 23.16148 ], [ 91.4948, 23.16195 ], [ 91.49826, 23.17165 ], [ 91.49236, 23.17194 ], [ 91.49174, 23.17756 ], [ 91.49739, 23.17978 ], [ 91.50673, 23.17992 ], [ 91.50754, 23.18368 ], [ 91.5011, 23.18527 ], [ 91.50428, 23.18929 ], [ 91.50323, 23.19208 ], [ 91.49219, 23.18881 ], [ 91.48845, 23.19213 ], [ 91.48493, 23.18821 ], [ 91.47076, 23.19642 ], [ 91.48244, 23.19842 ], [ 91.48443, 23.20918 ], [ 91.47541, 23.22036 ], [ 91.45862, 23.21328 ], [ 91.45825, 23.21564 ], [ 91.45395, 23.21759 ], [ 91.4542, 23.21832 ], [ 91.45061, 23.21941 ], [ 91.45337, 23.22217 ], [ 91.45329, 23.22318 ], [ 91.47027, 23.22763 ], [ 91.45791, 23.24599 ], [ 91.44706, 23.24377 ], [ 91.44717, 23.24747 ], [ 91.44524, 23.24707 ], [ 91.44598, 23.25003 ], [ 91.44873, 23.24976 ], [ 91.44943, 23.25197 ], [ 91.45542, 23.25643 ], [ 91.45452, 23.25742 ], [ 91.45421, 23.26037 ], [ 91.44867, 23.25985 ], [ 91.44156, 23.26148 ], [ 91.43139, 23.26245 ], [ 91.42489, 23.25802 ], [ 91.42475, 23.25964 ], [ 91.42116, 23.26177 ], [ 91.41831, 23.25539 ], [ 91.41838, 23.25706 ], [ 91.41768, 23.2571 ], [ 91.41869, 23.25831 ], [ 91.41796, 23.25837 ], [ 91.41761, 23.25992 ], [ 91.41682, 23.25976 ], [ 91.41569, 23.26167 ], [ 91.41644, 23.26232 ], [ 91.41538, 23.26334 ], [ 91.41641, 23.2639 ], [ 91.41652, 23.26493 ], [ 91.41742, 23.26448 ], [ 91.41638, 23.26677 ], [ 91.41715, 23.26649 ], [ 91.41692, 23.26808 ], [ 91.41592, 23.26947 ], [ 91.41816, 23.26959 ], [ 91.41963, 23.27326 ], [ 91.41773, 23.27469 ], [ 91.41781, 23.2762 ], [ 91.41657, 23.27561 ], [ 91.41775, 23.27722 ], [ 91.41636, 23.27956 ], [ 91.41559, 23.27927 ], [ 91.4156, 23.28277 ], [ 91.41374, 23.28137 ], [ 91.41144, 23.28406 ], [ 91.40941, 23.28422 ], [ 91.40889, 23.28513 ], [ 91.41132, 23.25566 ], [ 91.40559, 23.25659 ], [ 91.40315, 23.25962 ], [ 91.40039, 23.26571 ], [ 91.39756, 23.26513 ], [ 91.3973, 23.25625 ], [ 91.40067, 23.2561 ], [ 91.40874, 23.24762 ], [ 91.3932, 23.24657 ], [ 91.39255, 23.24589 ], [ 91.39561, 23.24195 ], [ 91.39711, 23.24115 ], [ 91.39682, 23.24032 ], [ 91.39866, 23.23741 ], [ 91.39841, 23.23589 ], [ 91.40025, 23.23508 ], [ 91.40065, 23.23268 ], [ 91.40003, 23.23092 ], [ 91.40091, 23.22911 ], [ 91.38647, 23.22756 ], [ 91.39213, 23.22003 ], [ 91.38832, 23.21467 ], [ 91.38077, 23.20843 ], [ 91.38775, 23.20789 ], [ 91.38554, 23.19184 ], [ 91.38098, 23.19159 ], [ 91.3799, 23.18451 ], [ 91.38299, 23.18448 ], [ 91.38188, 23.17501 ], [ 91.3852, 23.17521 ], [ 91.38477, 23.15615 ], [ 91.38928, 23.15263 ], [ 91.39203, 23.13944 ], [ 91.3973, 23.13014 ], [ 91.39697, 23.11768 ], [ 91.40342, 23.11372 ], [ 91.40026, 23.09642 ], [ 91.40607, 23.09692 ], [ 91.40523, 23.08698 ], [ 91.40812, 23.08346 ], [ 91.41447, 23.08245 ], [ 91.41747, 23.08288 ], [ 91.41635, 23.08102 ], [ 91.41617, 23.07665 ], [ 91.41356, 23.07587 ], [ 91.4132, 23.06949 ], [ 91.41087, 23.06624 ], [ 91.41206, 23.06541 ], [ 91.41724, 23.06497 ], [ 91.416, 23.06264 ], [ 91.4146, 23.06316 ], [ 91.41163, 23.06231 ], [ 91.41061, 23.06078 ], [ 91.40703, 23.05992 ], [ 91.40631, 23.05898 ], [ 91.39924, 23.05841 ], [ 91.39876, 23.05651 ], [ 91.39585, 23.05604 ], [ 91.39041, 23.05986 ], [ 91.36979, 23.07037 ], [ 91.35154, 23.09746 ], [ 91.34696, 23.1023 ], [ 91.34763, 23.11879 ], [ 91.34187, 23.1178 ], [ 91.34173, 23.12874 ], [ 91.3371, 23.13105 ], [ 91.33312, 23.15285 ], [ 91.32334, 23.15801 ], [ 91.32415, 23.15989 ], [ 91.32473, 23.16863 ], [ 91.32365, 23.23745 ], [ 91.31892, 23.23985 ], [ 91.3187, 23.24549 ], [ 91.3255, 23.24714 ], [ 91.32661, 23.25229 ], [ 91.31802, 23.25289 ], [ 91.30979, 23.27638 ], [ 91.31153, 23.27594 ], [ 91.31434, 23.2773 ], [ 91.32031, 23.27783 ], [ 91.32242, 23.27885 ], [ 91.33118, 23.2786 ], [ 91.33535, 23.27975 ], [ 91.33654, 23.28078 ], [ 91.34242, 23.27912 ], [ 91.34416, 23.27972 ], [ 91.34461, 23.28322 ], [ 91.34817, 23.28304 ], [ 91.34739, 23.28422 ], [ 91.34878, 23.28503 ], [ 91.3486, 23.28579 ], [ 91.34965, 23.28676 ], [ 91.3478, 23.28826 ], [ 91.3489, 23.28868 ], [ 91.3493, 23.29151 ], [ 91.35076, 23.29252 ], [ 91.35076, 23.29354 ], [ 91.34968, 23.29461 ], [ 91.34725, 23.29493 ], [ 91.34792, 23.29547 ], [ 91.34657, 23.29673 ], [ 91.34354, 23.29744 ], [ 91.35723, 23.30134 ], [ 91.3581, 23.30352 ], [ 91.35612, 23.30672 ], [ 91.35667, 23.30837 ], [ 91.35923, 23.30914 ], [ 91.36091, 23.30693 ], [ 91.36239, 23.30691 ], [ 91.36271, 23.30772 ], [ 91.3656, 23.30753 ], [ 91.36771, 23.31298 ], [ 91.37078, 23.31375 ], [ 91.37314, 23.3201 ], [ 91.37533, 23.3222 ], [ 91.37772, 23.327 ], [ 91.37891, 23.32628 ], [ 91.37712, 23.3336 ], [ 91.37801, 23.3343 ], [ 91.37744, 23.33437 ], [ 91.37862, 23.33908 ], [ 91.38229, 23.34886 ], [ 91.38774, 23.34951 ], [ 91.38827, 23.35058 ], [ 91.3903, 23.35647 ], [ 91.38741, 23.35948 ], [ 91.38939, 23.36011 ], [ 91.39716, 23.35937 ], [ 91.40448, 23.36259 ], [ 91.40556, 23.36598 ], [ 91.40499, 23.36854 ], [ 91.40616, 23.36917 ], [ 91.40948, 23.36727 ], [ 91.41108, 23.36876 ], [ 91.41042, 23.37246 ], [ 91.41243, 23.37364 ], [ 91.416, 23.37424 ], [ 91.41756, 23.37366 ], [ 91.4193, 23.37433 ], [ 91.41989, 23.37414 ], [ 91.41912, 23.37379 ], [ 91.42114, 23.37307 ], [ 91.42302, 23.37579 ], [ 91.4276, 23.37747 ], [ 91.4283, 23.37661 ], [ 91.42912, 23.37705 ], [ 91.42884, 23.37806 ], [ 91.43577, 23.38128 ], [ 91.43644, 23.38075 ], [ 91.43606, 23.38153 ], [ 91.4374, 23.38338 ], [ 91.44175, 23.38692 ], [ 91.44307, 23.386 ], [ 91.44313, 23.3839 ], [ 91.4448, 23.38199 ], [ 91.44403, 23.37963 ], [ 91.4446, 23.37886 ], [ 91.44359, 23.37802 ], [ 91.44424, 23.37623 ], [ 91.44595, 23.37574 ], [ 91.45133, 23.37676 ], [ 91.45576, 23.37539 ], [ 91.45735, 23.37683 ], [ 91.45884, 23.37627 ], [ 91.46056, 23.37806 ], [ 91.46002, 23.37909 ], [ 91.46174, 23.37985 ], [ 91.46049, 23.38164 ], [ 91.46129, 23.38421 ], [ 91.4601, 23.38699 ], [ 91.46032, 23.38835 ], [ 91.4618, 23.38913 ] ] ] } },
{ "type": "Feature", "properties": { "OBJECTID": 5523, "state_lgd": "16", "state_name": "TRIPURA", "district_lgd": "290", "district_name": "SOUTH TRIPURA", "district_name_source": "district_table", "subdistrict_lgd": "6683", "subdistrict_name": "Santirbazar", "subdistrict_type": "", "name_corrupted": false, "remarks": "", "label_lon": 91.61822797420686, "label_lat": 23.293792167747007 }, "geometry": { "type": "Polygon", "coordinates": [ [ [ 91.63578, 23.41692 ], [ 91.63542, 23.41161 ], [ 91.63733, 23.39197 ], [ 91.63653, 23.38704 ], [ 91.64044, 23.37665 ], [ 91.64416, 23.37295 ], [ 91.65097, 23.35969 ], [ 91.66979, 23.36531 ], [ 91.67552, 23.36878 ], [ 91.67692, 23.37049 ], [ 91.6858, 23.37049 ], [ 91.69685, 23.35791 ], [ 91.6991, 23.3521 ], [ 91.69681, 23.34648 ], [ 91.69721, 23.34587 ], [ 91.69978, 23.345 ], [ 91.70557, 23.3375 ], [ 91.71062, 23.33506 ], [ 91.72091, 23.32524 ], [ 91.73521, 23.31854 ], [ 91.72999, 23.31449 ], [ 91.73053, 23.31454 ], [ 91.72926, 23.30181 ], [ 91.72402, 23.29305 ], [ 91.72057, 23.29058 ], [ 91.72301, 23.28557 ], [ 91.72347, 23.28093 ], [ 91.72971, 23.27704 ], [ 91.73999, 23.26338 ], [ 91.74152, 23.25686 ], [ 91.7391, 23.25615 ], [ 91.7366, 23.25038 ], [ 91.7395, 23.24915 ], [ 91.73743, 23.24571 ], [ 91.74136, 23.24014 ], [ 91.74671, 23.23697 ], [ 91.74867, 23.23683 ], [ 91.7481, 23.23281 ], [ 91.7507, 23.22883 ], [ 91.7468, 23.21756 ], [ 91.7495, 23.2141 ], [ 91.755, 23.19961 ], [ 91.75944, 23.19906 ], [ 91.75975, 23.1963 ], [ 91.75848, 23.19286 ], [ 91.75599, 23.19305 ], [ 91.75263, 23.19512 ], [ 91.75384, 23.19631 ], [ 91.73947, 23.1968 ], [ 91.7335, 23.19578 ], [ 91.72831, 23.19756 ], [ 91.7264, 23.19361 ], [ 91.72267, 23.19083 ], [ 91.7151, 23.18887 ], [ 91.71429, 23.18801 ], [ 91.71385, 23.18836 ], [ 91.71449, 23.18872 ], [ 91.7118, 23.18867 ], [ 91.70342, 23.18443 ], [ 91.69527, 23.18382 ], [ 91.69427, 23.18328 ], [ 91.69365, 23.18063 ], [ 91.69045, 23.17829 ], [ 91.68987, 23.1793 ], [ 91.68417, 23.18114 ], [ 91.67859, 23.17725 ], [ 91.67393, 23.17718 ], [ 91.67227, 23.17327 ], [ 91.66917, 23.17071 ], [ 91.66769, 23.17033 ], [ 91.66453, 23.17126 ], [ 91.66139, 23.17079 ], [ 91.66058, 23.1714 ], [ 91.65908, 23.17055 ], [ 91.65936, 23.17224 ], [ 91.65791, 23.17445 ], [ 91.65676, 23.17481 ], [ 91.65459, 23.17436 ], [ 91.65452, 23.17302 ], [ 91.6516, 23.17122 ], [ 91.64884, 23.17197 ], [ 91.64406, 23.1694 ], [ 91.64163, 23.16707 ], [ 91.64056, 23.1678 ], [ 91.63894, 23.16615 ], [ 91.6339, 23.16748 ], [ 91.6307, 23.16707 ], [ 91.62942, 23.16737 ], [ 91.62904, 23.16883 ], [ 91.62524, 23.169 ], [ 91.62144, 23.16539 ], [ 91.61211, 23.16647 ], [ 91.61043, 23.16529 ], [ 91.60871, 23.16629 ], [ 91.6045, 23.16501 ], [ 91.59895, 23.16496 ], [ 91.59671, 23.16402 ], [ 91.59661, 23.16283 ], [ 91.59282, 23.16306 ], [ 91.59118, 23.16129 ], [ 91.58564, 23.15905 ], [ 91.58599, 23.16186 ], [ 91.58522, 23.16232 ], [ 91.58611, 23.16229 ], [ 91.58667, 23.16567 ], [ 91.58626, 23.16925 ], [ 91.58493, 23.16883 ], [ 91.58193, 23.17052 ], [ 91.58155, 23.1701 ], [ 91.57987, 23.17263 ], [ 91.57811, 23.17923 ], [ 91.5754, 23.18372 ], [ 91.57526, 23.1871 ], [ 91.57373, 23.18795 ], [ 91.57437, 23.18814 ], [ 91.57334, 23.18927 ], [ 91.57323, 23.19112 ], [ 91.57157, 23.19438 ], [ 91.57102, 23.194 ], [ 91.57118, 23.19542 ], [ 91.56884, 23.1994 ], [ 91.56971, 23.20293 ], [ 91.56903, 23.20446 ], [ 91.56215, 23.21123 ], [ 91.55886, 23.21804 ], [ 91.55764, 23.22197 ], [ 91.55752, 23.22607 ], [ 91.55883, 23.22832 ], [ 91.55809, 23.22859 ], [ 91.55824, 23.23045 ], [ 91.55737, 23.23173 ], [ 91.55548, 23.23303 ], [ 91.55648, 23.23372 ], [ 91.55799, 23.23736 ], [ 91.55807, 23.24036 ], [ 91.55617, 23.24034 ], [ 91.55387, 23.24389 ], [ 91.55281, 23.25073 ], [ 91.54554, 23.26189 ], [ 91.54507, 23.26731 ], [ 91.54391, 23.26858 ], [ 91.5431, 23.26813 ], [ 91.54345, 23.27013 ], [ 91.54199, 23.27064 ], [ 91.54312, 23.27235 ], [ 91.54151, 23.27311 ], [ 91.53906, 23.27768 ], [ 91.53795, 23.27817 ], [ 91.53825, 23.27933 ], [ 91.53642, 23.28247 ], [ 91.53801, 23.28371 ], [ 91.53594, 23.2861 ], [ 91.53607, 23.28684 ], [ 91.53709, 23.28697 ], [ 91.53624, 23.28911 ], [ 91.5345, 23.28981 ], [ 91.53487, 23.29324 ], [ 91.536, 23.29723 ], [ 91.53848, 23.29938 ], [ 91.53857, 23.30433 ], [ 91.53951, 23.30643 ], [ 91.54053, 23.31419 ], [ 91.53951, 23.31588 ], [ 91.53713, 23.31615 ], [ 91.53328, 23.31827 ], [ 91.53316, 23.32031 ], [ 91.52908, 23.32102 ], [ 91.52814, 23.32315 ], [ 91.52594, 23.32292 ], [ 91.52503, 23.32017 ], [ 91.52383, 23.32019 ], [ 91.52321, 23.32143 ], [ 91.51614, 23.32018 ], [ 91.51294, 23.3227 ], [ 91.51347, 23.32441 ], [ 91.51247, 23.3285 ], [ 91.50933, 23.33132 ], [ 91.5076, 23.3319 ], [ 91.50706, 23.3326 ], [ 91.50766, 23.33383 ], [ 91.50603, 23.33565 ], [ 91.50374, 23.33633 ], [ 91.50305, 23.33525 ], [ 91.50078, 23.33515 ], [ 91.49927, 23.33304 ], [ 91.49671, 23.33182 ], [ 91.49414, 23.33369 ], [ 91.49267, 23.33647 ], [ 91.49055, 23.33757 ], [ 91.48999, 23.33888 ], [ 91.48542, 23.34129 ], [ 91.48566, 23.34186 ], [ 91.48323, 23.34307 ], [ 91.4822, 23.34186 ], [ 91.47948, 23.34267 ], [ 91.47855, 23.34372 ], [ 91.47874, 23.345 ], [ 91.47678, 23.34727 ], [ 91.47712, 23.34835 ], [ 91.47552, 23.34872 ], [ 91.47495, 23.35039 ], [ 91.47792, 23.35256 ], [ 91.48143, 23.35074 ], [ 91.4816, 23.35293 ], [ 91.48083, 23.35402 ], [ 91.48187, 23.35346 ], [ 91.4823, 23.35577 ], [ 91.48498, 23.35829 ], [ 91.48571, 23.36196 ], [ 91.48418, 23.36717 ], [ 91.47944, 23.37348 ], [ 91.47499, 23.37502 ], [ 91.47178, 23.37769 ], [ 91.46824, 23.38358 ], [ 91.46839, 23.38587 ], [ 91.46492, 23.38856 ], [ 91.46667, 23.39136 ], [ 91.46891, 23.3908 ], [ 91.4717, 23.39164 ], [ 91.47577, 23.39447 ], [ 91.47557, 23.39575 ], [ 91.47398, 23.39733 ], [ 91.47454, 23.39834 ], [ 91.47373, 23.39938 ], [ 91.47261, 23.3996 ], [ 91.4712, 23.39858 ], [ 91.47075, 23.40036 ], [ 91.46873, 23.40235 ], [ 91.46832, 23.40388 ], [ 91.47116, 23.40588 ], [ 91.47293, 23.40561 ], [ 91.47538, 23.4065 ], [ 91.48288, 23.40578 ], [ 91.48296, 23.40677 ], [ 91.4843, 23.40767 ], [ 91.484, 23.40932 ], [ 91.4867, 23.41079 ], [ 91.48728, 23.41012 ], [ 91.48996, 23.41007 ], [ 91.49174, 23.40774 ], [ 91.49497, 23.40645 ], [ 91.49747, 23.40691 ], [ 91.49793, 23.40778 ], [ 91.50189, 23.40761 ], [ 91.50601, 23.40917 ], [ 91.50923, 23.40935 ], [ 91.51042, 23.41107 ], [ 91.51629, 23.40692 ], [ 91.51755, 23.40843 ], [ 91.52089, 23.41015 ], [ 91.52087, 23.41168 ], [ 91.52509, 23.418 ], [ 91.52565, 23.41768 ], [ 91.52689, 23.41962 ], [ 91.52911, 23.42016 ], [ 91.53253, 23.41955 ], [ 91.53536, 23.42042 ], [ 91.5371, 23.41888 ], [ 91.53777, 23.41673 ], [ 91.54062, 23.41553 ], [ 91.54198, 23.41665 ], [ 91.54248, 23.41925 ], [ 91.54463, 23.42077 ], [ 91.54857, 23.41861 ], [ 91.55143, 23.41494 ], [ 91.55376, 23.41661 ], [ 91.55328, 23.417 ], [ 91.55411, 23.41664 ], [ 91.55571, 23.41761 ], [ 91.55811, 23.4221 ], [ 91.5624, 23.42115 ], [ 91.56802, 23.41767 ], [ 91.57235, 23.42206 ], [ 91.5756, 23.42155 ], [ 91.5776, 23.41418 ], [ 91.58082, 23.41193 ], [ 91.58027, 23.40824 ], [ 91.58148, 23.40782 ], [ 91.58207, 23.40564 ], [ 91.58142, 23.40385 ], [ 91.5926, 23.39923 ], [ 91.59565, 23.40099 ], [ 91.59547, 23.40367 ], [ 91.59885, 23.40669 ], [ 91.60558, 23.40729 ], [ 91.62061, 23.41044 ], [ 91.62656, 23.40871 ], [ 91.62951, 23.41012 ], [ 91.6324, 23.41803 ], [ 91.63076, 23.41932 ], [ 91.62925, 23.42394 ], [ 91.63116, 23.4235 ], [ 91.63578, 23.41692 ] ] ] } },
{ "type": "Feature", "properties": { "OBJECTID": 5530, "state_lgd": "16", "state_name": "TRIPURA", "district_lgd": "290", "district_name": "SOUTH TRIPURA", "district_name_source": "district_table", "subdistrict_lgd": "6688", "subdistrict_name": "Sabroom", "subdistrict_type": "", "name_corrupted": false, "remarks": "", "label_lon": 91.667500487185677, "label_lat": 23.069462162429268 }, "geometry": { "type": "Polygon", "coordinates": [ [ [ 91.71869, 23.18878 ], [ 91.71928, 23.18543 ], [ 91.72443, 23.18482 ], [ 91.72498, 23.18306 ], [ 91.7217, 23.17841 ], [ 91.72221, 23.17356 ], [ 91.72291, 23.17327 ], [ 91.72244, 23.17253 ], [ 91.72356, 23.17178 ], [ 91.72384, 23.16934 ], [ 91.72398, 23.16671 ], [ 91.72316, 23.16557 ], [ 91.7258, 23.16414 ], [ 91.72487, 23.16444 ], [ 91.7252, 23.15905 ], [ 91.72733, 23.15658 ], [ 91.72674, 23.15554 ], [ 91.72854, 23.15267 ], [ 91.72799, 23.15028 ], [ 91.72932, 23.14936 ], [ 91.72916, 23.14807 ], [ 91.72812, 23.14741 ], [ 91.72974, 23.14395 ], [ 91.73129, 23.14322 ], [ 91.73046, 23.14293 ], [ 91.73218, 23.14068 ], [ 91.73197, 23.1395 ], [ 91.73403, 23.13895 ], [ 91.73507, 23.13974 ], [ 91.73707, 23.13769 ], [ 91.74499, 23.1403 ], [ 91.7476, 23.13698 ], [ 91.75084, 23.13645 ], [ 91.75513, 23.13313 ], [ 91.75822, 23.13203 ], [ 91.76012, 23.13324 ], [ 91.75978, 23.13554 ], [ 91.76191, 23.14104 ], [ 91.76313, 23.13945 ], [ 91.76464, 23.13972 ], [ 91.76431, 23.13904 ], [ 91.76506, 23.1385 ], [ 91.764, 23.13666 ], [ 91.76685, 23.13714 ], [ 91.76764, 23.13575 ], [ 91.76699, 23.1348 ], [ 91.76863, 23.13439 ], [ 91.76891, 23.13341 ], [ 91.77074, 23.13325 ], [ 91.77072, 23.13196 ], [ 91.77333, 23.13253 ], [ 91.77343, 23.13107 ], [ 91.7723, 23.13078 ], [ 91.77214, 23.12959 ], [ 91.77457, 23.12867 ], [ 91.77497, 23.12655 ], [ 91.77359, 23.12549 ], [ 91.77384, 23.12429 ], [ 91.77223, 23.12223 ], [ 91.7754, 23.12207 ], [ 91.77493, 23.12036 ], [ 91.77569, 23.1194 ], [ 91.77684, 23.12021 ], [ 91.77775, 23.11875 ], [ 91.77738, 23.11789 ], [ 91.77925, 23.11881 ], [ 91.78045, 23.11771 ], [ 91.78258, 23.1208 ], [ 91.78136, 23.1234 ], [ 91.78326, 23.12728 ], [ 91.78514, 23.12668 ], [ 91.78503, 23.1226 ], [ 91.78778, 23.12035 ], [ 91.79312, 23.10979 ], [ 91.80075, 23.10461 ], [ 91.80018, 23.09863 ], [ 91.80235, 23.09215 ], [ 91.8064, 23.09432 ], [ 91.8093, 23.09237 ], [ 91.8102, 23.09083 ], [ 91.80929, 23.09059 ], [ 91.81021, 23.09017 ], [ 91.80957, 23.08942 ], [ 91.81194, 23.08895 ], [ 91.81379, 23.08658 ], [ 91.81689, 23.08649 ], [ 91.81778, 23.08547 ], [ 91.81839, 23.08296 ], [ 91.81718, 23.08275 ], [ 91.81651, 23.08077 ], [ 91.81467, 23.08044 ], [ 91.81729, 23.07894 ], [ 91.81788, 23.07575 ], [ 91.81593, 23.07467 ], [ 91.81818, 23.07367 ], [ 91.81839, 23.07274 ], [ 91.81605, 23.07185 ], [ 91.81319, 23.07352 ], [ 91.8125, 23.07211 ], [ 91.81386, 23.07058 ], [ 91.81156, 23.06951 ], [ 91.81234, 23.06625 ], [ 91.80598, 23.06697 ], [ 91.80567, 23.06637 ], [ 91.80684, 23.06472 ], [ 91.80645, 23.0632 ], [ 91.79912, 23.06493 ], [ 91.79499, 23.06209 ], [ 91.79377, 23.06264 ], [ 91.79348, 23.06451 ], [ 91.79428, 23.06599 ], [ 91.79586, 23.06654 ], [ 91.79581, 23.0673 ], [ 91.79371, 23.06902 ], [ 91.78982, 23.06873 ], [ 91.78959, 23.07165 ], [ 91.78811, 23.07017 ], [ 91.78896, 23.0672 ], [ 91.78603, 23.06822 ], [ 91.78588, 23.07059 ], [ 91.78478, 23.07149 ], [ 91.77923, 23.07104 ], [ 91.77452, 23.06962 ], [ 91.77359, 23.06631 ], [ 91.77943, 23.05992 ], [ 91.7791, 23.05753 ], [ 91.77729, 23.05603 ], [ 91.78247, 23.04842 ], [ 91.78198, 23.04481 ], [ 91.78351, 23.04173 ], [ 91.78413, 23.03793 ], [ 91.7817, 23.03391 ], [ 91.78007, 23.03655 ], [ 91.77893, 23.03648 ], [ 91.78038, 23.03319 ], [ 91.78061, 23.02909 ], [ 91.77645, 23.02691 ], [ 91.77431, 23.02708 ], [ 91.77283, 23.03169 ], [ 91.77441, 23.03848 ], [ 91.77147, 23.04129 ], [ 91.76854, 23.04094 ], [ 91.76773, 23.0394 ], [ 91.77033, 23.03681 ], [ 91.77192, 23.03303 ], [ 91.77002, 23.03292 ], [ 91.76819, 23.03423 ], [ 91.76445, 23.0309 ], [ 91.76109, 23.02986 ], [ 91.76148, 23.0262 ], [ 91.76016, 23.02475 ], [ 91.75685, 23.02427 ], [ 91.75336, 23.02208 ], [ 91.75152, 23.01816 ], [ 91.74536, 23.01103 ], [ 91.74396, 23.00648 ], [ 91.73152, 23.00041 ], [ 91.72614, 22.99895 ], [ 91.72276, 22.99395 ], [ 91.72062, 22.98742 ], [ 91.717, 22.98665 ], [ 91.71171, 22.9887 ], [ 91.71107, 22.98781 ], [ 91.71166, 22.98367 ], [ 91.71059, 22.9822 ], [ 91.70865, 22.98187 ], [ 91.70724, 22.98266 ], [ 91.70347, 22.9881 ], [ 91.70177, 22.98888 ], [ 91.69369, 22.98829 ], [ 91.69169, 22.98665 ], [ 91.69099, 22.98326 ], [ 91.68507, 22.98025 ], [ 91.68252, 22.97743 ], [ 91.68087, 22.97745 ], [ 91.67805, 22.98077 ], [ 91.67465, 22.98012 ], [ 91.67086, 22.97705 ], [ 91.66769, 22.97867 ], [ 91.6646, 22.98165 ], [ 91.66192, 22.97916 ], [ 91.65983, 22.98107 ], [ 91.6577, 22.98173 ], [ 91.65632, 22.98064 ], [ 91.65794, 22.97928 ], [ 91.6581, 22.97813 ], [ 91.65501, 22.97649 ], [ 91.65095, 22.97701 ], [ 91.65003, 22.98249 ], [ 91.64779, 22.98448 ], [ 91.64546, 22.98502 ], [ 91.6457, 22.97655 ], [ 91.64081, 22.97489 ], [ 91.6405, 22.97033 ], [ 91.63718, 22.96577 ], [ 91.63709, 22.96302 ], [ 91.63562, 22.96108 ], [ 91.63095, 22.95896 ], [ 91.62632, 22.96219 ], [ 91.62456, 22.96157 ], [ 91.62701, 22.95566 ], [ 91.62349, 22.94939 ], [ 91.62554, 22.94402 ], [ 91.6203, 22.93854 ], [ 91.61785, 22.93857 ], [ 91.61668, 22.94019 ], [ 91.61695, 22.94401 ], [ 91.61375, 22.94547 ], [ 91.61272, 22.94699 ], [ 91.61299, 22.94957 ], [ 91.61646, 22.94912 ], [ 91.61584, 22.95147 ], [ 91.61348, 22.95238 ], [ 91.60711, 22.95004 ], [ 91.60699, 22.95199 ], [ 91.6096, 22.95612 ], [ 91.60844, 22.95721 ], [ 91.60245, 22.95322 ], [ 91.60017, 22.9547 ], [ 91.60007, 22.95587 ], [ 91.60189, 22.95891 ], [ 91.60554, 22.96236 ], [ 91.6085, 22.96113 ], [ 91.61233, 22.95773 ], [ 91.6138, 22.95837 ], [ 91.61188, 22.96235 ], [ 91.60564, 22.96531 ], [ 91.6061, 22.97191 ], [ 91.60141, 22.9713 ], [ 91.59923, 22.97593 ], [ 91.59306, 22.97263 ], [ 91.59172, 22.97646 ], [ 91.59063, 22.97689 ], [ 91.58779, 22.97373 ], [ 91.57676, 22.96522 ], [ 91.57506, 22.96864 ], [ 91.55722, 22.97846 ], [ 91.55703, 22.9966 ], [ 91.54752, 22.99418 ], [ 91.54249, 22.99946 ], [ 91.54821, 23.01923 ], [ 91.53842, 23.01919 ], [ 91.55036, 23.03841 ], [ 91.53049, 23.03831 ], [ 91.53628, 23.05451 ], [ 91.53521, 23.05531 ], [ 91.53156, 23.05533 ], [ 91.53574, 23.05767 ], [ 91.54107, 23.05758 ], [ 91.54159, 23.05862 ], [ 91.54537, 23.05923 ], [ 91.54856, 23.0571 ], [ 91.54891, 23.0581 ], [ 91.55041, 23.05803 ], [ 91.5518, 23.05681 ], [ 91.55487, 23.05733 ], [ 91.55515, 23.05832 ], [ 91.55955, 23.05792 ], [ 91.56082, 23.05874 ], [ 91.5628, 23.05748 ], [ 91.56449, 23.05813 ], [ 91.56608, 23.05766 ], [ 91.56682, 23.05822 ], [ 91.56651, 23.06012 ], [ 91.56843, 23.06022 ], [ 91.56978, 23.06154 ], [ 91.56943, 23.06559 ], [ 91.57117, 23.07046 ], [ 91.57621, 23.07065 ], [ 91.57856, 23.07163 ], [ 91.58092, 23.07098 ], [ 91.58173, 23.06993 ], [ 91.587, 23.06927 ], [ 91.58665, 23.0704 ], [ 91.59016, 23.07803 ], [ 91.59015, 23.08006 ], [ 91.5878, 23.08593 ], [ 91.58925, 23.08782 ], [ 91.58677, 23.09176 ], [ 91.5875, 23.09449 ], [ 91.58606, 23.09748 ], [ 91.5876, 23.10146 ], [ 91.59589, 23.10996 ], [ 91.59019, 23.11226 ], [ 91.58486, 23.11575 ], [ 91.58165, 23.12134 ], [ 91.5878, 23.12803 ], [ 91.58633, 23.13692 ], [ 91.58356, 23.14574 ], [ 91.58561, 23.14766 ], [ 91.58438, 23.15161 ], [ 91.58557, 23.15429 ], [ 91.5861, 23.15929 ], [ 91.59118, 23.16129 ], [ 91.59282, 23.16306 ], [ 91.59661, 23.16283 ], [ 91.59671, 23.16402 ], [ 91.59895, 23.16496 ], [ 91.6045, 23.16501 ], [ 91.60871, 23.16629 ], [ 91.61043, 23.16529 ], [ 91.61211, 23.16647 ], [ 91.62144, 23.16539 ], [ 91.62524, 23.169 ], [ 91.62904, 23.16883 ], [ 91.62942, 23.16737 ], [ 91.6307, 23.16707 ], [ 91.6339, 23.16748 ], [ 91.63894, 23.16615 ], [ 91.64056, 23.1678 ], [ 91.64163, 23.16707 ], [ 91.64406, 23.1694 ], [ 91.64884, 23.17197 ], [ 91.6516, 23.17122 ], [ 91.65452, 23.17302 ], [ 91.65459, 23.17436 ], [ 91.65676, 23.17481 ], [ 91.65791, 23.17445 ], [ 91.65936, 23.17224 ], [ 91.65908, 23.17055 ], [ 91.66058, 23.1714 ], [ 91.66769, 23.17033 ], [ 91.6701, 23.17123 ], [ 91.67134, 23.17312 ], [ 91.67227, 23.17327 ], [ 91.67393, 23.17718 ], [ 91.67859, 23.17725 ], [ 91.68417, 23.18114 ], [ 91.68987, 23.1793 ], [ 91.69045, 23.17829 ], [ 91.69365, 23.18063 ], [ 91.69427, 23.18328 ], [ 91.69527, 23.18382 ], [ 91.70342, 23.18443 ], [ 91.7118, 23.18867 ], [ 91.7124, 23.1878 ], [ 91.71619, 23.18835 ], [ 91.71648, 23.189 ], [ 91.71869, 23.18878 ] ] ] } }
]
}
